{"type":"FeatureCollection","features":[{"type":"Feature","properties":{"PRECINCT":"102","VTD":"0102"},"geometry":{"type":"Polygon","coordinates":[[[-96.062899,30.186757],[-96.061975,30.186872],[-96.061672,30.18657],[-96.060849,30.186548],[-96.060033,30.185932],[-96.059356,30.185987],[-96.059344,30.185503],[-96.05889,30.185313],[-96.058711,30.184838],[-96.057705,30.185141],[-96.057098,30.184618],[-96.056174,30.184756],[-96.055694,30.184371],[-96.055295,30.18447],[-96.054922,30.184932],[-96.054719,30.184558],[-96.053739,30.184712],[-96.053068,30.183937],[-96.052815,30.183915],[-96.052771,30.184145],[-96.05229,30.183695],[-96.051013,30.183876],[-96.05057,30.18353],[-96.050013,30.183639],[-96.049305,30.183238],[-96.048273,30.183447],[-96.046426,30.183161],[-96.045712,30.182858],[-96.04501,30.182193],[-96.04315,30.181297],[-96.041157,30.181627],[-96.039823,30.180725],[-96.038797,30.179486],[-96.033295,30.179562],[-96.03317,30.169592],[-96.036193,30.169257],[-96.041897,30.167878],[-96.04592,30.165923],[-96.046941,30.165646],[-96.0469,30.162367],[-96.04452,30.16038],[-96.043347,30.159693],[-96.043062,30.159119],[-96.042512,30.158706],[-96.041548,30.15835],[-96.041382,30.157079],[-96.03985,30.157051],[-96.040481,30.156121],[-96.04038,30.155675],[-96.040108,30.155516],[-96.039241,30.155813],[-96.038356,30.154944],[-96.037939,30.155043],[-96.037452,30.154581],[-96.03768,30.153482],[-96.037231,30.152361],[-96.038484,30.150344],[-96.038067,30.148508],[-96.039022,30.147998],[-96.039712,30.147311],[-96.039244,30.145882],[-96.039067,30.145744],[-96.038112,30.14592],[-96.037335,30.143859],[-96.037778,30.143502],[-96.03822,30.143854],[-96.038777,30.143876],[-96.040219,30.143063],[-96.039916,30.140529],[-96.040226,30.140161],[-96.039277,30.140238],[-96.038057,30.141001],[-96.036564,30.140699],[-96.035464,30.14099],[-96.035584,30.141787],[-96.036001,30.141803],[-96.036185,30.142078],[-96.0359,30.142941],[-96.035147,30.14382],[-96.033269,30.143435],[-96.031258,30.143698],[-96.030335,30.142983],[-96.028337,30.142867],[-96.027831,30.143153],[-96.027597,30.144115],[-96.027268,30.144357],[-96.026674,30.144202],[-96.023146,30.14158],[-96.02216,30.141393],[-96.021945,30.141684],[-96.021262,30.1417],[-96.020358,30.1412],[-96.020016,30.141568],[-96.020326,30.142288],[-96.01968,30.143442],[-96.017733,30.142694],[-96.017227,30.142974],[-96.01545,30.142984],[-96.013869,30.143302],[-96.013124,30.142731],[-96.01184,30.142845],[-96.011283,30.143153],[-96.01079,30.143812],[-96.009563,30.143663],[-96.008248,30.144229],[-96.00759,30.144872],[-96.006451,30.145239],[-96.00542,30.146168],[-96.004004,30.145584],[-96.002418,30.144078],[-96.00109,30.143704],[-96.000565,30.144126],[-96.00014,30.14544],[-95.998531,30.145259],[-95.99745,30.145573],[-95.997305,30.145864],[-95.997477,30.147199],[-95.998002,30.147886],[-95.997446,30.148749],[-95.996036,30.14975],[-95.995935,30.150058],[-95.996315,30.150525],[-95.996379,30.15125],[-95.995715,30.15163],[-95.99648,30.151959],[-95.996557,30.152344],[-95.996917,30.152574],[-95.996804,30.152893],[-95.996197,30.153212],[-95.995102,30.152828],[-95.993958,30.152834],[-95.993414,30.15329],[-95.993294,30.15389],[-95.992719,30.154159],[-95.992251,30.153983],[-95.991485,30.15317],[-95.989633,30.153655],[-95.988495,30.154897],[-95.987363,30.155162],[-95.987016,30.156354],[-95.986018,30.157635],[-95.98648,30.158558],[-95.986096,30.159252],[-95.985003,30.158732],[-95.986403,30.154921],[-95.986354,30.154521],[-95.980977,30.154491],[-95.980837,30.149438],[-95.979721,30.148145],[-95.979535,30.147626],[-95.978947,30.131624],[-95.982668,30.13146],[-95.983627,30.131229],[-95.984264,30.130473],[-95.984305,30.127819],[-95.984572,30.127204],[-95.985393,30.126727],[-95.988963,30.125616],[-95.989691,30.124986],[-95.990089,30.12217],[-95.990239,30.106118],[-96.012626,30.106221],[-96.012805,30.101743],[-96.012721,30.077151],[-96.077505,30.092784],[-96.078873,30.093443],[-96.079607,30.094403],[-96.079806,30.095585],[-96.079591,30.100691],[-96.081966,30.107423],[-96.082046,30.108545],[-96.081471,30.111196],[-96.082758,30.110918],[-96.082577,30.113242],[-96.081386,30.113281],[-96.080958,30.115661],[-96.075434,30.11455],[-96.075738,30.117549],[-96.066767,30.16601],[-96.06612,30.171357],[-96.063255,30.186955],[-96.062899,30.186757]]]}},{"type":"Feature","properties":{"PRECINCT":"101","VTD":"0101"},"geometry":{"type":"Polygon","coordinates":[[[-96.05792,30.213273],[-96.058925,30.205457],[-96.062541,30.190777],[-96.06612,30.171357],[-96.066767,30.16601],[-96.075738,30.117549],[-96.075434,30.11455],[-96.080958,30.115661],[-96.081386,30.113281],[-96.082577,30.113242],[-96.082758,30.110918],[-96.081471,30.111196],[-96.082065,30.107916],[-96.079687,30.101172],[-96.079608,30.099281],[-96.079706,30.097445],[-96.082139,30.097529],[-96.082775,30.083686],[-96.083032,30.082055],[-96.084124,30.080116],[-96.094007,30.070201],[-96.10439,30.058526],[-96.105764,30.055794],[-96.106487,30.048782],[-96.106882,30.04742],[-96.107754,30.046165],[-96.110454,30.043821],[-96.11205,30.046258],[-96.114671,30.048808],[-96.11593,30.04962],[-96.117928,30.0503],[-96.121833,30.050876],[-96.126748,30.0533],[-96.129918,30.054273],[-96.134689,30.055356],[-96.138949,30.056939],[-96.140629,30.058225],[-96.143526,30.061175],[-96.144115,30.061466],[-96.144778,30.062701],[-96.146441,30.064486],[-96.146621,30.065143],[-96.146262,30.0658],[-96.14499,30.066642],[-96.144144,30.066889],[-96.144284,30.068052],[-96.14508,30.068948],[-96.145496,30.069921],[-96.147922,30.071153],[-96.150005,30.071726],[-96.150515,30.072201],[-96.151305,30.073445],[-96.151878,30.075161],[-96.151247,30.076396],[-96.150437,30.076662],[-96.149129,30.076632],[-96.147825,30.076037],[-96.146294,30.074946],[-96.142858,30.070942],[-96.137,30.066997],[-96.135572,30.067156],[-96.134661,30.067529],[-96.134083,30.068087],[-96.133567,30.068965],[-96.13378,30.07096],[-96.134904,30.07229],[-96.135379,30.073242],[-96.137031,30.074312],[-96.139674,30.075562],[-96.14092,30.076839],[-96.141315,30.078807],[-96.141193,30.081175],[-96.141649,30.083197],[-96.142287,30.084234],[-96.143502,30.084979],[-96.145326,30.085245],[-96.15046,30.084713],[-96.152071,30.085032],[-96.153438,30.08575],[-96.15435,30.086522],[-96.158421,30.091709],[-96.159241,30.094103],[-96.159393,30.095726],[-96.158998,30.097029],[-96.157661,30.098306],[-96.156173,30.098838],[-96.153408,30.101365],[-96.152557,30.102535],[-96.152496,30.104211],[-96.152861,30.105834],[-96.153347,30.107217],[-96.153985,30.107989],[-96.154988,30.108521],[-96.155899,30.108654],[-96.160271,30.108066],[-96.161064,30.106818],[-96.162371,30.103467],[-96.164285,30.101152],[-96.166078,30.099875],[-96.168144,30.098998],[-96.169936,30.098785],[-96.171304,30.098891],[-96.172823,30.099343],[-96.173643,30.100035],[-96.17466,30.102702],[-96.171425,30.108095],[-96.171456,30.109345],[-96.171881,30.110143],[-96.17261,30.110755],[-96.173873,30.111322],[-96.175046,30.112435],[-96.183548,30.109212],[-96.186101,30.109266],[-96.187498,30.109638],[-96.188653,30.110463],[-96.191099,30.113872],[-96.191708,30.115235],[-96.191658,30.116687],[-96.191235,30.117577],[-96.189761,30.118481],[-96.187758,30.118619],[-96.183002,30.117086],[-96.180844,30.11706],[-96.179811,30.117352],[-96.179264,30.117751],[-96.178869,30.118443],[-96.178687,30.119773],[-96.1789,30.120943],[-96.179872,30.122992],[-96.186368,30.128147],[-96.18703,30.12904],[-96.188288,30.132011],[-96.190081,30.133818],[-96.191418,30.134669],[-96.192208,30.136664],[-96.191782,30.13842],[-96.190172,30.140202],[-96.187802,30.141692],[-96.186131,30.141931],[-96.181827,30.140903],[-96.179052,30.138819],[-96.175922,30.137728],[-96.174403,30.137755],[-96.17261,30.138633],[-96.17176,30.13983],[-96.171942,30.14116],[-96.174585,30.14366],[-96.178231,30.144991],[-96.180323,30.146533],[-96.181877,30.148129],[-96.182637,30.149406],[-96.183153,30.15071],[-96.183214,30.152439],[-96.182546,30.153982],[-96.180662,30.155684],[-96.178729,30.155804],[-96.177646,30.155543],[-96.176289,30.154821],[-96.174736,30.153669],[-96.172609,30.151602],[-96.164502,30.146572],[-96.161976,30.144113],[-96.158846,30.142144],[-96.156932,30.141399],[-96.154866,30.141373],[-96.153529,30.141958],[-96.152527,30.143128],[-96.151082,30.146851],[-96.150929,30.147648],[-96.151129,30.149912],[-96.1504,30.152066],[-96.150005,30.154274],[-96.150126,30.155445],[-96.151554,30.15744],[-96.15299,30.158653],[-96.153408,30.159488],[-96.157327,30.160632],[-96.160031,30.161829],[-96.161368,30.163425],[-96.162006,30.164915],[-96.161255,30.167954],[-96.160912,30.168559],[-96.156841,30.171299],[-96.1552,30.173161],[-96.154562,30.177124],[-96.156628,30.17888],[-96.159231,30.180413],[-96.159732,30.181097],[-96.159962,30.182109],[-96.159666,30.183478],[-96.157688,30.187193],[-96.157017,30.189124],[-96.157092,30.190498],[-96.158482,30.192633],[-96.15915,30.195053],[-96.158282,30.199219],[-96.159205,30.20178],[-96.15933,30.203402],[-96.15901,30.206613],[-96.157265,30.207258],[-96.157023,30.207902],[-96.151551,30.211525],[-96.149885,30.213024],[-96.149463,30.214544],[-96.148454,30.216578],[-96.147428,30.217976],[-96.146482,30.218425],[-96.145075,30.218566],[-96.143531,30.216809],[-96.14188,30.213879],[-96.14019,30.212224],[-96.138157,30.211347],[-96.136315,30.210806],[-96.133983,30.210557],[-96.130107,30.210755],[-96.129247,30.210978],[-96.12724,30.212537],[-96.118569,30.22337],[-96.118018,30.224212],[-96.117159,30.227275],[-96.115929,30.227881],[-96.114778,30.227898],[-96.113704,30.227203],[-96.112968,30.226175],[-96.112943,30.22576],[-96.110982,30.222315],[-96.109841,30.220935],[-96.109406,30.219914],[-96.103384,30.216572],[-96.101017,30.215674],[-96.099495,30.214765],[-96.098936,30.214525],[-96.097435,30.214472],[-96.096706,30.214872],[-96.093122,30.220447],[-96.092662,30.22364],[-96.093165,30.225187],[-96.091453,30.225994],[-96.08991,30.227433],[-96.088941,30.228718],[-96.072849,30.229491],[-96.069319,30.229964],[-96.054927,30.230803],[-96.05792,30.213273]]]}},{"type":"Feature","properties":{"PRECINCT":"103","VTD":"0103"},"geometry":{"type":"Polygon","coordinates":[[[-96.082139,30.097529],[-96.079706,30.097445],[-96.079806,30.095585],[-96.079607,30.094403],[-96.078873,30.093443],[-96.07781,30.092875],[-96.047685,30.085589],[-96.048008,30.085052],[-96.048488,30.084794],[-96.048071,30.08386],[-96.048457,30.083689],[-96.048236,30.083217],[-96.04835,30.082865],[-96.047257,30.082095],[-96.046783,30.08132],[-96.046783,30.080771],[-96.047181,30.079952],[-96.048711,30.079501],[-96.050449,30.078271],[-96.050474,30.077716],[-96.050897,30.077457],[-96.051207,30.076292],[-96.051586,30.07638],[-96.051991,30.076012],[-96.053312,30.075556],[-96.055239,30.076216],[-96.055991,30.07615],[-96.056263,30.075815],[-96.05637,30.074611],[-96.055302,30.072935],[-96.053578,30.071049],[-96.053123,30.069884],[-96.052251,30.069604],[-96.051424,30.067526],[-96.050628,30.066444],[-96.050994,30.065982],[-96.051114,30.064668],[-96.051475,30.064405],[-96.051367,30.064119],[-96.051039,30.064284],[-96.050931,30.064119],[-96.051134,30.063487],[-96.051007,30.062992],[-96.051298,30.06258],[-96.050824,30.061915],[-96.051791,30.060233],[-96.051899,30.059057],[-96.052543,30.058695],[-96.052537,30.058332],[-96.052872,30.058348],[-96.052935,30.057744],[-96.054679,30.057183],[-96.05545,30.057255],[-96.056113,30.056986],[-96.056347,30.05653],[-96.05701,30.056409],[-96.058002,30.055403],[-96.058211,30.054535],[-96.059114,30.053666],[-96.05914,30.05282],[-96.059481,30.052721],[-96.059601,30.052336],[-96.059494,30.051666],[-96.06029,30.05082],[-96.059816,30.050583],[-96.059759,30.049671],[-96.059513,30.049385],[-96.059753,30.04933],[-96.059816,30.048847],[-96.060435,30.048704],[-96.060258,30.048308],[-96.060877,30.047599],[-96.060416,30.046659],[-96.060625,30.045269],[-96.061345,30.044362],[-96.061282,30.04318],[-96.061048,30.042587],[-96.060474,30.042169],[-96.060499,30.041729],[-96.060063,30.041152],[-96.059589,30.039492],[-96.059678,30.038926],[-96.06024,30.03847],[-96.060284,30.037514],[-96.060644,30.037014],[-96.060171,30.03608],[-96.060569,30.035909],[-96.060461,30.035299],[-96.060139,30.034991],[-96.059956,30.033832],[-96.059571,30.033238],[-96.059956,30.032128],[-96.059824,30.031216],[-96.060405,30.02982],[-96.060297,30.029028],[-96.060702,30.028396],[-96.060146,30.026995],[-96.060733,30.025764],[-96.060645,30.02545],[-96.059596,30.024956],[-96.059742,30.02428],[-96.059211,30.023499],[-96.058106,30.02301],[-96.057651,30.022411],[-96.056218,30.022373],[-96.056136,30.021257],[-96.056421,30.020933],[-96.077954,30.020765],[-96.087402,30.020478],[-96.091368,30.018607],[-96.092166,30.017908],[-96.09471,30.025384],[-96.095841,30.026945],[-96.09663,30.027613],[-96.097505,30.027975],[-96.099917,30.028152],[-96.102974,30.025694],[-96.104686,30.025138],[-96.108343,30.02485],[-96.110728,30.025836],[-96.112075,30.026097],[-96.113221,30.026997],[-96.113289,30.029028],[-96.112839,30.029533],[-96.10867,30.032001],[-96.107711,30.033252],[-96.107229,30.034719],[-96.107057,30.036149],[-96.107465,30.038618],[-96.110454,30.043821],[-96.107754,30.046165],[-96.106882,30.04742],[-96.106487,30.048782],[-96.105767,30.055779],[-96.105136,30.05737],[-96.103125,30.059998],[-96.094007,30.070201],[-96.084124,30.080116],[-96.08341,30.081205],[-96.082826,30.082933],[-96.082139,30.097529]]]}},{"type":"Feature","properties":{"PRECINCT":"309","VTD":"0309"},"geometry":{"type":"Polygon","coordinates":[[[-95.990239,30.106118],[-95.990269,30.104587],[-95.987066,30.102854],[-95.986652,30.10233],[-95.986536,30.101587],[-95.967571,30.102077],[-95.967522,30.094008],[-95.965311,30.093843],[-95.965218,30.088073],[-95.960496,30.088054],[-95.960436,30.08666],[-95.964488,30.086653],[-95.964499,30.086904],[-95.978915,30.087347],[-95.987614,30.087856],[-95.99455,30.087887],[-95.994707,30.086428],[-95.99525,30.086434],[-95.996439,30.087208],[-95.998095,30.087647],[-95.998689,30.088333],[-95.999372,30.088427],[-95.999663,30.088762],[-96.000748,30.08891],[-96.000747,30.089564],[-96.001493,30.090158],[-96.001694,30.091636],[-96.001447,30.09184],[-96.001548,30.092016],[-96.00254,30.092209],[-96.003419,30.091868],[-96.005138,30.091798],[-96.005815,30.091501],[-96.008002,30.0897],[-96.0084,30.089931],[-96.009746,30.089893],[-96.010018,30.090289],[-96.009923,30.090822],[-96.01051,30.091828],[-96.01106,30.092042],[-96.011154,30.092422],[-96.012697,30.093157],[-96.012626,30.106221],[-95.990239,30.106118]]]}},{"type":"Feature","properties":{"PRECINCT":"310","VTD":"0310"},"geometry":{"type":"Polygon","coordinates":[[[-96.009746,30.089893],[-96.0084,30.089931],[-96.007958,30.0897],[-96.005549,30.091639],[-96.004866,30.091863],[-96.003419,30.091868],[-96.00254,30.092209],[-96.001466,30.09195],[-96.001694,30.091636],[-96.001493,30.090158],[-96.000747,30.089564],[-96.000748,30.08891],[-95.999663,30.088762],[-95.999372,30.088427],[-95.998689,30.088333],[-95.998095,30.087647],[-95.996439,30.087208],[-95.99525,30.086434],[-95.994707,30.086428],[-95.99455,30.087887],[-95.988928,30.087902],[-95.978915,30.087347],[-95.964499,30.086904],[-95.964488,30.086653],[-95.968011,30.086707],[-95.968085,30.060059],[-95.967476,30.058265],[-95.96739,30.05454],[-95.966662,30.054948],[-95.96615,30.054948],[-95.965922,30.054822],[-95.966042,30.05469],[-95.965139,30.05474],[-95.964463,30.053877],[-95.963793,30.053581],[-95.963982,30.052822],[-95.964349,30.052602],[-95.963824,30.052393],[-95.963793,30.052091],[-95.962643,30.052053],[-95.961866,30.051767],[-95.96088,30.051048],[-95.960949,30.050723],[-95.960564,30.050784],[-95.960317,30.050416],[-95.959401,30.050559],[-95.959143,30.050867],[-95.958106,30.050548],[-95.95786,30.051235],[-95.956856,30.051131],[-95.956142,30.05001],[-95.954739,30.049801],[-95.954827,30.04912],[-95.954505,30.048405],[-95.954126,30.048416],[-95.953905,30.048114],[-95.953368,30.048334],[-95.953147,30.048136],[-95.953222,30.047741],[-95.952963,30.047625],[-95.952288,30.048021],[-95.950872,30.048203],[-95.95067,30.048719],[-95.94906,30.048835],[-95.948352,30.048252],[-95.947695,30.048307],[-95.947568,30.046928],[-95.947044,30.046483],[-95.9464,30.046318],[-95.946109,30.044493],[-95.945578,30.043933],[-95.944978,30.043719],[-95.944447,30.042658],[-95.943645,30.042988],[-95.942672,30.04301],[-95.942483,30.043493],[-95.941541,30.043636],[-95.94091,30.044296],[-95.939312,30.044038],[-95.936356,30.043049],[-95.942002,30.037916],[-95.942753,30.036932],[-95.94296,30.03544],[-95.942886,30.031756],[-95.966419,30.031425],[-95.966653,30.045973],[-95.989907,30.045635],[-95.989643,30.046831],[-95.989745,30.053697],[-95.990042,30.054715],[-95.992611,30.057724],[-95.992818,30.063087],[-95.992491,30.065685],[-95.99456,30.066198],[-95.995003,30.065841],[-95.994921,30.066309],[-95.995205,30.066479],[-96.001394,30.067977],[-96.004477,30.067832],[-96.010603,30.069438],[-96.010657,30.072148],[-96.013764,30.072896],[-96.013745,30.077305],[-96.012717,30.07703],[-96.012697,30.093157],[-96.011154,30.092422],[-96.01106,30.092042],[-96.01051,30.091828],[-96.009923,30.090822],[-96.010018,30.090289],[-96.009746,30.089893]]]}},{"type":"Feature","properties":{"PRECINCT":"311","VTD":"0311"},"geometry":{"type":"Polygon","coordinates":[[[-95.993315,30.021629],[-95.993069,29.997993],[-95.992682,29.985856],[-96.018464,29.985512],[-96.013162,29.961122],[-96.012736,29.961308],[-95.992975,29.961554],[-95.992468,29.961945],[-95.99244,29.960074],[-95.959014,29.960459],[-95.958399,29.958616],[-95.958013,29.931774],[-95.989358,29.931727],[-95.989954,29.924679],[-95.990237,29.92451],[-95.993495,29.924484],[-95.993782,29.924273],[-95.993768,29.917798],[-95.995594,29.918222],[-96.032059,29.917411],[-96.033399,29.917014],[-96.035087,29.915761],[-96.036573,29.915219],[-96.051252,29.914822],[-96.052466,29.914298],[-96.054329,29.912857],[-96.05606,29.91243],[-96.071734,29.912195],[-96.106475,29.915958],[-96.109755,29.915937],[-96.113319,29.915301],[-96.116317,29.921206],[-96.118987,29.927488],[-96.119676,29.928454],[-96.122645,29.929211],[-96.125248,29.930456],[-96.128555,29.931459],[-96.130053,29.932438],[-96.131192,29.933734],[-96.131582,29.934962],[-96.131739,29.936729],[-96.131125,29.938731],[-96.130575,29.939565],[-96.127549,29.942485],[-96.126031,29.944276],[-96.125502,29.944941],[-96.124271,29.947956],[-96.122905,29.949026],[-96.121487,29.949189],[-96.115676,29.946542],[-96.114142,29.944954],[-96.11373,29.943876],[-96.113066,29.943136],[-96.108436,29.94063],[-96.106618,29.940267],[-96.103116,29.940432],[-96.101373,29.941409],[-96.100796,29.943526],[-96.103508,29.94659],[-96.103657,29.948172],[-96.103068,29.949687],[-96.103751,29.952402],[-96.106352,29.9555],[-96.109344,29.955892],[-96.114135,29.955552],[-96.118002,29.954913],[-96.11946,29.955017],[-96.121774,29.956518],[-96.124131,29.958962],[-96.124488,29.960398],[-96.125954,29.963824],[-96.126038,29.964969],[-96.125572,29.966337],[-96.124242,29.968113],[-96.122754,29.968545],[-96.120145,29.967099],[-96.117277,29.964588],[-96.114414,29.962494],[-96.111026,29.961737],[-96.109192,29.960177],[-96.107692,29.959325],[-96.105247,29.959171],[-96.103937,29.959999],[-96.103757,29.960748],[-96.103443,29.96095],[-96.103498,29.961354],[-96.099041,29.961104],[-96.096907,29.95984],[-96.094946,29.95982],[-96.092768,29.961488],[-96.093031,29.96324],[-96.094663,29.964305],[-96.098037,29.965116],[-96.101147,29.966222],[-96.102898,29.967178],[-96.102883,29.967761],[-96.100402,29.971641],[-96.09598,29.976699],[-96.095703,29.978139],[-96.100301,29.98381],[-96.101985,29.986554],[-96.102961,29.989649],[-96.103394,29.993753],[-96.104534,29.996209],[-96.102696,30.000222],[-96.101549,30.003733],[-96.101124,30.004057],[-96.099689,30.004296],[-96.098439,30.004047],[-96.094605,30.000207],[-96.091567,29.998218],[-96.089223,29.998602],[-96.086628,29.99996],[-96.086286,29.999945],[-96.084815,30.001863],[-96.084541,30.005137],[-96.090517,30.014038],[-96.092166,30.017908],[-96.091997,30.01807],[-96.091368,30.018607],[-96.087402,30.020478],[-96.082744,30.020667],[-96.036669,30.02115],[-96.036651,30.021334],[-96.035279,30.021166],[-95.993315,30.021629]]]}},{"type":"Feature","properties":{"PRECINCT":"104","VTD":"0104"},"geometry":{"type":"Polygon","coordinates":[[[-96.047685,30.085589],[-96.012721,30.077151],[-96.013745,30.077305],[-96.013764,30.072896],[-96.010657,30.072148],[-96.010603,30.069438],[-96.004477,30.067832],[-96.001394,30.067977],[-95.995205,30.066479],[-95.994921,30.066309],[-95.995003,30.065841],[-95.99456,30.066198],[-95.992491,30.065685],[-95.992818,30.063087],[-95.992611,30.057724],[-95.990042,30.054715],[-95.989745,30.053697],[-95.989643,30.046831],[-95.990024,30.045231],[-95.990071,30.043735],[-95.989726,30.021648],[-96.035279,30.021166],[-96.036651,30.021334],[-96.036669,30.02115],[-96.056421,30.020933],[-96.05606,30.021389],[-96.056218,30.022373],[-96.057651,30.022411],[-96.058106,30.02301],[-96.059211,30.023499],[-96.059742,30.02428],[-96.059596,30.024956],[-96.060645,30.02545],[-96.060733,30.025764],[-96.060146,30.026995],[-96.060702,30.028396],[-96.060297,30.029028],[-96.060405,30.02982],[-96.059824,30.031216],[-96.059956,30.032128],[-96.059571,30.033238],[-96.060575,30.035788],[-96.060171,30.03608],[-96.060209,30.036327],[-96.060651,30.036843],[-96.060284,30.037514],[-96.06024,30.03847],[-96.059678,30.038926],[-96.059608,30.039701],[-96.060063,30.041152],[-96.060499,30.041729],[-96.060474,30.042169],[-96.061175,30.042796],[-96.06137,30.043801],[-96.061307,30.044483],[-96.060625,30.045269],[-96.060416,30.046659],[-96.060871,30.047627],[-96.060258,30.048308],[-96.060435,30.048704],[-96.059816,30.048847],[-96.059753,30.04933],[-96.059513,30.049385],[-96.059759,30.049671],[-96.059816,30.050583],[-96.06029,30.05082],[-96.059494,30.051666],[-96.059601,30.052336],[-96.059481,30.052721],[-96.05914,30.05282],[-96.059114,30.053666],[-96.058211,30.054535],[-96.058072,30.055299],[-96.057636,30.055903],[-96.057219,30.056008],[-96.056909,30.056475],[-96.05641,30.056486],[-96.056113,30.056986],[-96.05545,30.057255],[-96.054679,30.057183],[-96.052935,30.057744],[-96.052872,30.058348],[-96.052537,30.058332],[-96.052543,30.058695],[-96.051899,30.059057],[-96.051791,30.060233],[-96.050824,30.061915],[-96.051298,30.06258],[-96.051007,30.062992],[-96.051134,30.063487],[-96.050931,30.064119],[-96.051039,30.064284],[-96.051367,30.064119],[-96.051475,30.064405],[-96.051114,30.064668],[-96.050994,30.065982],[-96.050628,30.066444],[-96.051424,30.067526],[-96.052251,30.069604],[-96.053123,30.069884],[-96.053578,30.071049],[-96.055656,30.07344],[-96.056414,30.074705],[-96.056351,30.075589],[-96.055902,30.076183],[-96.054607,30.076122],[-96.053312,30.075556],[-96.051991,30.076012],[-96.051586,30.07638],[-96.051207,30.076292],[-96.050897,30.077457],[-96.050474,30.077716],[-96.050449,30.078271],[-96.048711,30.079501],[-96.047181,30.079952],[-96.046808,30.080677],[-96.046783,30.08132],[-96.047377,30.082233],[-96.048331,30.082821],[-96.048457,30.083689],[-96.048071,30.08386],[-96.048488,30.084794],[-96.048008,30.085052],[-96.047685,30.085589]]]}},{"type":"Feature","properties":{"PRECINCT":"414","VTD":"0414"},"geometry":{"type":"Polygon","coordinates":[[[-96.023275,29.91764],[-96.005717,29.87667],[-96.016259,29.862408],[-96.026896,29.863714],[-96.027593,29.867201],[-96.029319,29.86909],[-96.03082,29.875794],[-96.044887,29.875417],[-96.047535,29.875254],[-96.047862,29.874796],[-96.048357,29.87653],[-96.048659,29.878987],[-96.05115,29.881202],[-96.054423,29.883511],[-96.057747,29.885242],[-96.060377,29.885588],[-96.063095,29.885512],[-96.06616,29.886534],[-96.066772,29.886462],[-96.069861,29.885114],[-96.072827,29.884533],[-96.072858,29.882433],[-96.07241,29.880719],[-96.072839,29.880021],[-96.07275,29.879284],[-96.073217,29.878823],[-96.073841,29.878751],[-96.075525,29.879949],[-96.079083,29.881608],[-96.081404,29.884351],[-96.082866,29.887935],[-96.083572,29.887888],[-96.083563,29.883526],[-96.087307,29.868607],[-96.088023,29.861647],[-96.091297,29.847089],[-96.092371,29.843927],[-96.093666,29.842417],[-96.097365,29.840486],[-96.097714,29.840475],[-96.099566,29.84145],[-96.099973,29.839356],[-96.100727,29.840102],[-96.102109,29.842394],[-96.105048,29.845663],[-96.10566,29.84668],[-96.105614,29.847598],[-96.107403,29.847894],[-96.109872,29.849251],[-96.111383,29.849593],[-96.110453,29.85002],[-96.107465,29.849887],[-96.104515,29.85046],[-96.102637,29.851227],[-96.100939,29.852514],[-96.10085,29.853307],[-96.101657,29.853963],[-96.107428,29.856592],[-96.109589,29.857943],[-96.110202,29.858672],[-96.1121,29.865683],[-96.112667,29.870257],[-96.112227,29.872557],[-96.11028,29.873816],[-96.108232,29.874171],[-96.102402,29.874279],[-96.098722,29.875227],[-96.100071,29.875228],[-96.095808,29.876676],[-96.092937,29.879379],[-96.092476,29.881821],[-96.092739,29.882765],[-96.09416,29.883945],[-96.0947,29.884079],[-96.098107,29.883677],[-96.101116,29.882772],[-96.10434,29.882641],[-96.105685,29.883688],[-96.109312,29.888882],[-96.113143,29.889569],[-96.117347,29.890892],[-96.123433,29.894522],[-96.12415,29.895046],[-96.125238,29.896533],[-96.125949,29.897709],[-96.126267,29.89885],[-96.126134,29.903229],[-96.12383,29.907149],[-96.120786,29.908865],[-96.115138,29.911399],[-96.11512,29.911881],[-96.113871,29.912843],[-96.11317,29.914356],[-96.113319,29.915301],[-96.109755,29.915937],[-96.106475,29.915958],[-96.071734,29.912195],[-96.05606,29.91243],[-96.054329,29.912857],[-96.052466,29.914298],[-96.050921,29.914889],[-96.036573,29.915219],[-96.035087,29.915761],[-96.033779,29.916797],[-96.032564,29.917331],[-96.023275,29.91764]]]}},{"type":"Feature","properties":{"PRECINCT":"415","VTD":"0415"},"geometry":{"type":"Polygon","coordinates":[[[-96.073841,29.878751],[-96.073217,29.878823],[-96.07275,29.879284],[-96.072839,29.880021],[-96.07241,29.880719],[-96.072858,29.882433],[-96.072719,29.883318],[-96.072965,29.88417],[-96.072707,29.884593],[-96.071029,29.884764],[-96.069566,29.885204],[-96.066551,29.886534],[-96.065548,29.886429],[-96.063095,29.885512],[-96.060377,29.885588],[-96.057419,29.885154],[-96.054423,29.883511],[-96.049252,29.879641],[-96.048659,29.878987],[-96.048357,29.87653],[-96.047862,29.874796],[-96.047535,29.875254],[-96.044887,29.875417],[-96.03082,29.875794],[-96.029319,29.86909],[-96.027593,29.867201],[-96.026896,29.863714],[-96.016259,29.862408],[-96.005717,29.87667],[-96.003519,29.872216],[-96.001911,29.869738],[-95.999777,29.863611],[-95.999246,29.863052],[-95.997009,29.861799],[-95.995598,29.861369],[-95.995285,29.861442],[-95.993211,29.864215],[-95.991949,29.86538],[-95.98966,29.868594],[-95.989977,29.870299],[-95.98901,29.872112],[-95.988048,29.872415],[-95.985861,29.875306],[-95.985957,29.875666],[-95.98793,29.876709],[-95.984481,29.881613],[-95.970426,29.878548],[-95.9698,29.877926],[-95.969677,29.874785],[-95.969181,29.874157],[-95.959934,29.874144],[-95.959531,29.844681],[-95.948982,29.844788],[-95.94885,29.844617],[-95.948833,29.832477],[-95.951226,29.832445],[-95.95127,29.832657],[-95.957419,29.824338],[-95.958147,29.823092],[-95.958208,29.822542],[-95.956251,29.8211],[-95.949548,29.826018],[-95.94646,29.821528],[-95.945335,29.818547],[-95.944906,29.815795],[-95.954386,29.815965],[-95.955115,29.813296],[-95.958849,29.807834],[-95.966601,29.811591],[-95.970711,29.806339],[-95.970771,29.802544],[-95.975344,29.806837],[-95.977984,29.808826],[-95.979087,29.807819],[-95.980586,29.807159],[-95.981386,29.80707],[-95.981443,29.806752],[-95.982035,29.806279],[-95.984075,29.806128],[-95.984629,29.80556],[-95.985803,29.806002],[-95.98729,29.805562],[-95.987624,29.804886],[-95.988563,29.804886],[-95.988827,29.804308],[-95.988216,29.803286],[-95.988177,29.802748],[-95.987465,29.801825],[-95.98679,29.801396],[-95.986336,29.800572],[-95.986613,29.800347],[-95.987937,29.800291],[-95.989581,29.79907],[-95.990899,29.799584],[-95.992343,29.799508],[-95.993733,29.799058],[-95.993312,29.798436],[-95.993466,29.798162],[-95.993241,29.797689],[-95.992249,29.796456],[-95.993054,29.794385],[-95.993767,29.793775],[-95.993948,29.793157],[-95.993786,29.791456],[-95.993492,29.790863],[-95.991512,29.789256],[-95.990547,29.788945],[-95.98882,29.788835],[-95.98575,29.789328],[-95.984716,29.789086],[-95.98417,29.788602],[-95.983939,29.787775],[-95.984213,29.786903],[-95.987046,29.783905],[-95.987188,29.783491],[-96.036276,29.771743],[-96.037374,29.773717],[-96.040607,29.775891],[-96.042043,29.777226],[-96.043009,29.779129],[-96.042862,29.782249],[-96.041835,29.785853],[-96.041399,29.789288],[-96.041365,29.792443],[-96.042242,29.795314],[-96.046947,29.80099],[-96.048912,29.803008],[-96.049234,29.803187],[-96.050803,29.803099],[-96.051125,29.802848],[-96.053633,29.802392],[-96.056259,29.79966],[-96.057534,29.799582],[-96.058272,29.799754],[-96.058993,29.80036],[-96.060824,29.804569],[-96.062105,29.805947],[-96.0646,29.806939],[-96.067138,29.807129],[-96.069858,29.806955],[-96.071778,29.805987],[-96.074301,29.805143],[-96.077088,29.804571],[-96.079546,29.80442],[-96.082275,29.804733],[-96.092846,29.808599],[-96.098123,29.80935],[-96.102496,29.809665],[-96.103114,29.81071],[-96.103309,29.812431],[-96.101434,29.81615],[-96.098726,29.820267],[-96.098554,29.822841],[-96.097843,29.825834],[-96.098172,29.826728],[-96.098988,29.827382],[-96.099561,29.827352],[-96.104176,29.824412],[-96.105411,29.822933],[-96.106678,29.82224],[-96.107925,29.82228],[-96.109232,29.823197],[-96.114031,29.828314],[-96.118868,29.832581],[-96.119885,29.83381],[-96.121405,29.836652],[-96.122097,29.839404],[-96.121313,29.841963],[-96.118798,29.845388],[-96.115562,29.847924],[-96.111383,29.849593],[-96.109872,29.849251],[-96.107403,29.847894],[-96.105614,29.847598],[-96.10566,29.84668],[-96.105048,29.845663],[-96.102109,29.842394],[-96.100727,29.840102],[-96.099973,29.839356],[-96.099566,29.84145],[-96.097445,29.840461],[-96.093666,29.842417],[-96.092251,29.844106],[-96.091617,29.8458],[-96.088023,29.861647],[-96.087307,29.868607],[-96.083563,29.883526],[-96.083572,29.887888],[-96.082866,29.887935],[-96.081404,29.884351],[-96.079083,29.881608],[-96.075525,29.879949],[-96.073841,29.878751]]]}},{"type":"Feature","properties":{"PRECINCT":"105","VTD":"0105"},"geometry":{"type":"Polygon","coordinates":[[[-96.004349,30.207716],[-96.002586,30.207691],[-96.002497,30.206857],[-96.002202,30.206609],[-95.996369,30.206716],[-95.995872,30.20646],[-95.995538,30.200931],[-95.9955,30.18735],[-95.995072,30.18506],[-95.995064,30.178409],[-95.994604,30.178275],[-95.991109,30.178761],[-95.991108,30.166056],[-95.991312,30.165345],[-95.989002,30.165219],[-95.988575,30.165023],[-95.989406,30.160467],[-95.989129,30.160194],[-95.986096,30.159252],[-95.98648,30.158558],[-95.986018,30.157635],[-95.987016,30.156354],[-95.987363,30.155162],[-95.988495,30.154897],[-95.989633,30.153655],[-95.991485,30.15317],[-95.992251,30.153983],[-95.992719,30.154159],[-95.993294,30.15389],[-95.993414,30.15329],[-95.993958,30.152834],[-95.996563,30.153119],[-95.996917,30.152574],[-95.996557,30.152344],[-95.99648,30.151959],[-95.995715,30.15163],[-95.996379,30.15125],[-95.996315,30.150525],[-95.995935,30.150058],[-95.996036,30.14975],[-95.997446,30.148749],[-95.998002,30.147886],[-95.997477,30.147199],[-95.997305,30.145864],[-95.99745,30.145573],[-95.998531,30.145259],[-96.00014,30.14544],[-96.000565,30.144126],[-96.00109,30.143704],[-96.002418,30.144078],[-96.004004,30.145584],[-96.00542,30.146168],[-96.006451,30.145239],[-96.00759,30.144872],[-96.008248,30.144229],[-96.009563,30.143663],[-96.01079,30.143812],[-96.011283,30.143153],[-96.01184,30.142845],[-96.013124,30.142731],[-96.013869,30.143302],[-96.01545,30.142984],[-96.017227,30.142974],[-96.017733,30.142694],[-96.01968,30.143442],[-96.020326,30.142288],[-96.020016,30.141568],[-96.020358,30.1412],[-96.021262,30.1417],[-96.021945,30.141684],[-96.02216,30.141393],[-96.023146,30.14158],[-96.026674,30.144202],[-96.027268,30.144357],[-96.027597,30.144115],[-96.027831,30.143153],[-96.028337,30.142867],[-96.030335,30.142983],[-96.031258,30.143698],[-96.033269,30.143435],[-96.035147,30.14382],[-96.0359,30.142941],[-96.036185,30.142078],[-96.036001,30.141803],[-96.035584,30.141787],[-96.035464,30.14099],[-96.036564,30.140699],[-96.038057,30.141001],[-96.039277,30.140238],[-96.040226,30.140161],[-96.039916,30.140529],[-96.040219,30.143063],[-96.038777,30.143876],[-96.03822,30.143854],[-96.037778,30.143502],[-96.037335,30.143859],[-96.038112,30.14592],[-96.039067,30.145744],[-96.039244,30.145882],[-96.039712,30.147311],[-96.039022,30.147998],[-96.038067,30.148508],[-96.038484,30.150344],[-96.037231,30.152361],[-96.03768,30.153482],[-96.037452,30.154581],[-96.037939,30.155043],[-96.038356,30.154944],[-96.039241,30.155813],[-96.040108,30.155516],[-96.04038,30.155675],[-96.040481,30.156121],[-96.03985,30.157051],[-96.041382,30.157079],[-96.041548,30.15835],[-96.042512,30.158706],[-96.043062,30.159119],[-96.043347,30.159693],[-96.04452,30.16038],[-96.0469,30.162367],[-96.046941,30.165646],[-96.04592,30.165923],[-96.041897,30.167878],[-96.036193,30.169257],[-96.03317,30.169592],[-96.033295,30.179562],[-96.038797,30.179486],[-96.039823,30.180725],[-96.041157,30.181627],[-96.04315,30.181297],[-96.04501,30.182193],[-96.045712,30.182858],[-96.046426,30.183161],[-96.048273,30.183447],[-96.049305,30.183238],[-96.050013,30.183639],[-96.05057,30.18353],[-96.051013,30.183876],[-96.05229,30.183695],[-96.052771,30.184145],[-96.052815,30.183915],[-96.053068,30.183937],[-96.053739,30.184712],[-96.054719,30.184558],[-96.054922,30.184932],[-96.055295,30.18447],[-96.055694,30.184371],[-96.056174,30.184756],[-96.057098,30.184618],[-96.057705,30.185141],[-96.058711,30.184838],[-96.05889,30.185313],[-96.059344,30.185503],[-96.059356,30.185987],[-96.060033,30.185932],[-96.060849,30.186548],[-96.061672,30.18657],[-96.061975,30.186872],[-96.062772,30.186735],[-96.063255,30.186955],[-96.062541,30.190777],[-96.058925,30.205457],[-96.057728,30.214664],[-96.054927,30.230803],[-96.004798,30.233722],[-96.004125,30.211818],[-96.004349,30.207716]]]}},{"type":"Feature","properties":{"PRECINCT":"312","VTD":"0312"},"geometry":{"type":"Polygon","coordinates":[[[-95.966653,30.045973],[-95.966419,30.031425],[-95.942886,30.031756],[-95.94296,30.03544],[-95.942753,30.036932],[-95.942002,30.037916],[-95.936356,30.043049],[-95.934845,30.042741],[-95.933778,30.04207],[-95.9329,30.040883],[-95.929394,30.039174],[-95.928851,30.039086],[-95.928459,30.037756],[-95.927382,30.038201],[-95.927248,30.034921],[-95.9264,30.034579],[-95.926331,30.03415],[-95.925554,30.03315],[-95.925617,30.032727],[-95.924202,30.031391],[-95.923722,30.029924],[-95.922624,30.029319],[-95.922251,30.027978],[-95.922813,30.027698],[-95.922756,30.027159],[-95.922087,30.026967],[-95.921904,30.02656],[-95.920906,30.026379],[-95.92006,30.025444],[-95.920262,30.024889],[-95.920641,30.02468],[-95.920515,30.024202],[-95.919915,30.023037],[-95.919119,30.023064],[-95.918235,30.022273],[-95.91833,30.021498],[-95.917654,30.020739],[-95.917831,30.020382],[-95.916979,30.019596],[-95.917004,30.018991],[-95.91653,30.018612],[-95.916089,30.017123],[-95.913878,30.015847],[-95.913171,30.015814],[-95.912256,30.015193],[-95.911106,30.015066],[-95.910645,30.014484],[-95.909705,30.014209],[-95.909458,30.01345],[-95.909692,30.013142],[-95.90944,30.012857],[-95.908423,30.012801],[-95.907463,30.012312],[-95.907527,30.010724],[-95.908177,30.01013],[-95.908664,30.009081],[-95.908405,30.00797],[-95.907932,30.007684],[-95.907938,30.007228],[-95.908684,30.006514],[-95.908198,30.005371],[-95.90612,30.004293],[-95.905742,30.003628],[-95.905142,30.003331],[-95.903677,30.003545],[-95.902338,30.002247],[-95.893911,29.980462],[-95.892215,29.975632],[-95.889276,29.965076],[-95.887872,29.960974],[-95.872965,29.91983],[-95.878327,29.919758],[-95.879015,29.920107],[-95.879212,29.920496],[-95.879311,29.924028],[-95.881794,29.933592],[-95.882433,29.934136],[-95.892273,29.933991],[-95.904207,29.932522],[-95.907893,29.93227],[-95.9078,29.932425],[-95.926599,29.932048],[-95.958013,29.931774],[-95.958399,29.958616],[-95.959014,29.960459],[-95.99244,29.960074],[-95.992468,29.961945],[-95.992975,29.961554],[-96.012736,29.961308],[-96.013162,29.961122],[-96.018464,29.985512],[-95.992682,29.985856],[-95.993413,30.021197],[-95.993315,30.021629],[-95.989726,30.021648],[-95.990071,30.043735],[-95.989907,30.045635],[-95.966653,30.045973]]]}},{"type":"Feature","properties":{"PRECINCT":"206","VTD":"0206"},"geometry":{"type":"Polygon","coordinates":[[[-95.840545,30.23918],[-95.839805,30.238977],[-95.839349,30.23823],[-95.839703,30.237746],[-95.83945,30.237477],[-95.839183,30.234597],[-95.838055,30.232404],[-95.837618,30.232042],[-95.836435,30.231784],[-95.836105,30.230542],[-95.834491,30.23019],[-95.834921,30.22941],[-95.834946,30.228618],[-95.835553,30.226887],[-95.835223,30.224298],[-95.836204,30.223902],[-95.836559,30.223501],[-95.836837,30.222539],[-95.83659,30.221748],[-95.835608,30.220858],[-95.834475,30.22055],[-95.833785,30.219687],[-95.833076,30.219314],[-95.831583,30.2201],[-95.831279,30.2211],[-95.830185,30.220705],[-95.829108,30.21982],[-95.82814,30.217501],[-95.827266,30.216979],[-95.825589,30.216957],[-95.824197,30.217584],[-95.822773,30.217469],[-95.822254,30.216919],[-95.820975,30.214463],[-95.819741,30.213308],[-95.819734,30.21277],[-95.82205,30.211516],[-95.822392,30.211027],[-95.822259,30.210642],[-95.821171,30.209967],[-95.817721,30.206779],[-95.81812,30.205597],[-95.819569,30.204635],[-95.820733,30.20341],[-95.82096,30.201975],[-95.820536,30.200348],[-95.821542,30.199139],[-95.821795,30.198326],[-95.821763,30.197814],[-95.820517,30.196089],[-95.820852,30.195544],[-95.820548,30.194962],[-95.820668,30.191714],[-95.820529,30.191367],[-95.819909,30.191148],[-95.820959,30.190471],[-95.821155,30.189535],[-95.824245,30.189326],[-95.85316,30.179963],[-95.854781,30.179648],[-95.861549,30.179647],[-95.862619,30.179485],[-95.871448,30.176156],[-95.872843,30.175501],[-95.878552,30.171185],[-95.883208,30.166489],[-95.88198,30.165644],[-95.88132,30.165659],[-95.878089,30.164377],[-95.877406,30.163832],[-95.876755,30.162738],[-95.875958,30.162485],[-95.875459,30.161891],[-95.873623,30.161304],[-95.872187,30.161376],[-95.871695,30.160998],[-95.872143,30.160463],[-95.872049,30.152713],[-95.873483,30.152707],[-95.873847,30.153798],[-95.873893,30.153639],[-95.874182,30.153859],[-95.874913,30.153839],[-95.875156,30.153436],[-95.874992,30.152701],[-95.875549,30.151529],[-95.875578,30.14665],[-95.878167,30.139223],[-95.87807,30.123709],[-95.878592,30.120361],[-95.879581,30.12089],[-95.879745,30.121885],[-95.880939,30.123259],[-95.881452,30.123105],[-95.881768,30.121902],[-95.88254,30.121056],[-95.882717,30.120193],[-95.883065,30.119792],[-95.885152,30.119776],[-95.886289,30.120788],[-95.88677,30.120936],[-95.887788,30.119909],[-95.888698,30.120288],[-95.889817,30.120245],[-95.889975,30.119997],[-95.889343,30.119211],[-95.889995,30.118909],[-95.890993,30.119102],[-95.892441,30.120251],[-95.894318,30.120389],[-95.894925,30.120933],[-95.895095,30.121955],[-95.896549,30.12267],[-95.89722,30.122632],[-95.897877,30.122143],[-95.898459,30.120923],[-95.899154,30.12101],[-95.899438,30.121268],[-95.899331,30.122532],[-95.901557,30.123049],[-95.901797,30.122846],[-95.902182,30.123],[-95.902542,30.124797],[-95.904792,30.126083],[-95.904748,30.126891],[-95.905361,30.127507],[-95.906353,30.127314],[-95.907005,30.126798],[-95.909236,30.127502],[-95.910134,30.128085],[-95.911082,30.128107],[-95.911056,30.12953],[-95.911612,30.129794],[-95.912731,30.131141],[-95.915102,30.13113],[-95.915349,30.130905],[-95.916001,30.131301],[-95.917398,30.132753],[-95.917157,30.133495],[-95.918801,30.134122],[-95.918712,30.134792],[-95.919003,30.135391],[-95.919383,30.135501],[-95.920173,30.13526],[-95.921317,30.135864],[-95.921893,30.136513],[-95.922019,30.13776],[-95.921658,30.138376],[-95.921766,30.138744],[-95.923555,30.13864],[-95.924548,30.139651],[-95.924017,30.141157],[-95.924364,30.142394],[-95.926438,30.141514],[-95.927343,30.14213],[-95.928803,30.144114],[-95.931478,30.144455],[-95.932079,30.143394],[-95.932591,30.143284],[-95.933128,30.143933],[-95.934646,30.144752],[-95.935133,30.144164],[-95.935614,30.144098],[-95.936847,30.144878],[-95.93739,30.145488],[-95.938446,30.144527],[-95.939641,30.143966],[-95.940856,30.144334],[-95.940976,30.144653],[-95.940559,30.145703],[-95.941071,30.145802],[-95.942588,30.147055],[-95.94417,30.147926],[-95.945485,30.149198],[-95.945188,30.150489],[-95.945542,30.15072],[-95.945447,30.151143],[-95.945808,30.151127],[-95.945827,30.151962],[-95.947073,30.153001],[-95.946706,30.15377],[-95.946927,30.154017],[-95.946782,30.154188],[-95.94737,30.154441],[-95.947383,30.154715],[-95.947604,30.154589],[-95.947459,30.154303],[-95.947857,30.154517],[-95.948236,30.155193],[-95.94964,30.155441],[-95.949875,30.156111],[-95.950475,30.156259],[-95.950735,30.15599],[-95.951842,30.156386],[-95.952752,30.157111],[-95.952792,30.158238],[-95.953644,30.158012],[-95.954251,30.158298],[-95.95446,30.159507],[-95.955567,30.160457],[-95.955819,30.161265],[-95.957085,30.161987],[-95.958344,30.162293],[-95.958939,30.163183],[-95.960324,30.163408],[-95.960501,30.163683],[-95.960733,30.163415],[-95.959893,30.160896],[-95.954124,30.144675],[-95.959494,30.144548],[-95.960523,30.143735],[-95.960606,30.142799],[-95.959433,30.138479],[-95.959514,30.13754],[-95.960067,30.136898],[-95.963842,30.135622],[-95.96823,30.133234],[-95.972237,30.132029],[-95.978947,30.131624],[-95.979535,30.147626],[-95.979721,30.148145],[-95.980837,30.149438],[-95.980977,30.154491],[-95.986147,30.15442],[-95.986411,30.154599],[-95.985024,30.158823],[-95.989261,30.16026],[-95.989419,30.160591],[-95.988575,30.165023],[-95.989002,30.165219],[-95.991312,30.165345],[-95.991108,30.166056],[-95.991109,30.178761],[-95.994604,30.178275],[-95.995064,30.178409],[-95.995072,30.18506],[-95.9955,30.18735],[-95.995538,30.200931],[-95.995872,30.20646],[-95.996369,30.206716],[-96.002202,30.206609],[-96.002497,30.206857],[-96.002586,30.207691],[-96.004385,30.207599],[-96.004125,30.211818],[-96.004798,30.233722],[-95.953773,30.236964],[-95.948958,30.236882],[-95.93859,30.237559],[-95.934879,30.237526],[-95.934476,30.237228],[-95.934105,30.237539],[-95.932006,30.237633],[-95.923283,30.237284],[-95.8521,30.242456],[-95.842138,30.243445],[-95.842022,30.243121],[-95.840382,30.241808],[-95.840761,30.23973],[-95.840545,30.23918]]]}},{"type":"Feature","properties":{"PRECINCT":"208","VTD":"0208"},"geometry":{"type":"Polygon","coordinates":[[[-95.954124,30.144675],[-95.926843,30.069228],[-95.926563,30.068683],[-95.925225,30.068716],[-95.925084,30.063905],[-95.921502,30.064028],[-95.92127,30.05406],[-95.902338,30.002247],[-95.903677,30.003545],[-95.905142,30.003331],[-95.905742,30.003628],[-95.90612,30.004293],[-95.908198,30.005371],[-95.908684,30.006514],[-95.907938,30.007228],[-95.907932,30.007684],[-95.908405,30.00797],[-95.908664,30.009081],[-95.908177,30.01013],[-95.907527,30.010724],[-95.907463,30.012312],[-95.908423,30.012801],[-95.90944,30.012857],[-95.909692,30.013142],[-95.909458,30.01345],[-95.909705,30.014209],[-95.910645,30.014484],[-95.911106,30.015066],[-95.912256,30.015193],[-95.913171,30.015814],[-95.913878,30.015847],[-95.916089,30.017123],[-95.91653,30.018612],[-95.917004,30.018991],[-95.916979,30.019596],[-95.917831,30.020382],[-95.917654,30.020739],[-95.91833,30.021498],[-95.918235,30.022273],[-95.919119,30.023064],[-95.919915,30.023037],[-95.920515,30.024202],[-95.920641,30.02468],[-95.920262,30.024889],[-95.92006,30.025444],[-95.920906,30.026379],[-95.921904,30.02656],[-95.922087,30.026967],[-95.922756,30.027159],[-95.922813,30.027698],[-95.922251,30.027978],[-95.922624,30.029319],[-95.923722,30.029924],[-95.924202,30.031391],[-95.925617,30.032727],[-95.925554,30.03315],[-95.926331,30.03415],[-95.9264,30.034579],[-95.927248,30.034921],[-95.927382,30.038201],[-95.928459,30.037756],[-95.928851,30.039086],[-95.929394,30.039174],[-95.9329,30.040883],[-95.933778,30.04207],[-95.934631,30.042625],[-95.939779,30.044164],[-95.94091,30.044296],[-95.941541,30.043636],[-95.942483,30.043493],[-95.942672,30.04301],[-95.943645,30.042988],[-95.944447,30.042658],[-95.944978,30.043719],[-95.945578,30.043933],[-95.946109,30.044493],[-95.9464,30.046318],[-95.947044,30.046483],[-95.947568,30.046928],[-95.947695,30.048307],[-95.948352,30.048252],[-95.94906,30.048835],[-95.95067,30.048719],[-95.950872,30.048203],[-95.952288,30.048021],[-95.952963,30.047625],[-95.953222,30.047741],[-95.953147,30.048136],[-95.953368,30.048334],[-95.953905,30.048114],[-95.954126,30.048416],[-95.954505,30.048405],[-95.954827,30.04912],[-95.954739,30.049801],[-95.956142,30.05001],[-95.956856,30.051131],[-95.95786,30.051235],[-95.958106,30.050548],[-95.959143,30.050867],[-95.959401,30.050559],[-95.960317,30.050416],[-95.960564,30.050784],[-95.960949,30.050723],[-95.96088,30.051048],[-95.961866,30.051767],[-95.962643,30.052053],[-95.963793,30.052091],[-95.963824,30.052393],[-95.964349,30.052602],[-95.963982,30.052822],[-95.963793,30.053581],[-95.964463,30.053877],[-95.965139,30.05474],[-95.966042,30.05469],[-95.965922,30.054822],[-95.96615,30.054948],[-95.966662,30.054948],[-95.96739,30.05454],[-95.967476,30.058265],[-95.968085,30.060059],[-95.968011,30.086707],[-95.960436,30.08666],[-95.960496,30.088054],[-95.965218,30.088073],[-95.965311,30.093843],[-95.967522,30.094008],[-95.967571,30.102077],[-95.986536,30.101587],[-95.986652,30.10233],[-95.987066,30.102854],[-95.990269,30.104587],[-95.990089,30.12217],[-95.989691,30.124986],[-95.988963,30.125616],[-95.985393,30.126727],[-95.984572,30.127204],[-95.984305,30.127819],[-95.984264,30.130473],[-95.984014,30.130932],[-95.983193,30.131409],[-95.972237,30.132029],[-95.96823,30.133234],[-95.963842,30.135622],[-95.960067,30.136898],[-95.959514,30.13754],[-95.959433,30.138479],[-95.960606,30.142799],[-95.960523,30.143735],[-95.959494,30.144548],[-95.954124,30.144675]]]}},{"type":"Feature","properties":{"PRECINCT":"417","VTD":"0417"},"geometry":{"type":"Polygon","coordinates":[[[-95.890511,29.874371],[-95.889957,29.816198],[-95.940006,29.815796],[-95.93971,29.786742],[-95.920423,29.786647],[-95.920401,29.786195],[-95.920706,29.786197],[-95.920395,29.770902],[-95.920923,29.768461],[-95.920592,29.752614],[-95.939485,29.745267],[-95.943918,29.750856],[-95.950065,29.75674],[-95.950771,29.758134],[-95.951254,29.773792],[-95.951237,29.786325],[-95.957258,29.78633],[-95.957287,29.788531],[-95.956419,29.790049],[-95.956634,29.810929],[-95.955115,29.813296],[-95.954386,29.815965],[-95.944906,29.815795],[-95.945335,29.818547],[-95.94646,29.821528],[-95.949548,29.826018],[-95.956251,29.8211],[-95.958208,29.822542],[-95.958147,29.823092],[-95.957419,29.824338],[-95.95127,29.832657],[-95.951226,29.832445],[-95.948833,29.832477],[-95.94885,29.844617],[-95.948982,29.844788],[-95.959531,29.844681],[-95.959934,29.874144],[-95.949172,29.873847],[-95.890511,29.874371]]]}},{"type":"Feature","properties":{"PRECINCT":"416","VTD":"0416"},"geometry":{"type":"Polygon","coordinates":[[[-95.966601,29.811591],[-95.958849,29.807834],[-95.956634,29.810929],[-95.956419,29.790049],[-95.957287,29.788531],[-95.957258,29.78633],[-95.951237,29.786325],[-95.951254,29.773792],[-95.950771,29.758134],[-95.950065,29.75674],[-95.943918,29.750856],[-95.939485,29.745267],[-95.950931,29.740769],[-95.971287,29.740454],[-95.97094,29.728554],[-96.032711,29.727944],[-96.033275,29.730096],[-96.034391,29.731864],[-96.036261,29.732818],[-96.037144,29.733639],[-96.037795,29.735612],[-96.039844,29.737452],[-96.040073,29.73815],[-96.039692,29.739722],[-96.037262,29.741047],[-96.032061,29.744976],[-96.031015,29.746033],[-96.029943,29.748284],[-96.029259,29.752585],[-96.029596,29.754666],[-96.034493,29.766729],[-96.036276,29.771743],[-95.987188,29.783491],[-95.987046,29.783905],[-95.984213,29.786903],[-95.983939,29.787775],[-95.98417,29.788602],[-95.984716,29.789086],[-95.98575,29.789328],[-95.98882,29.788835],[-95.990547,29.788945],[-95.991512,29.789256],[-95.993492,29.790863],[-95.993786,29.791456],[-95.993948,29.793157],[-95.993767,29.793775],[-95.993054,29.794385],[-95.992249,29.796456],[-95.993241,29.797689],[-95.993466,29.798162],[-95.993312,29.798436],[-95.993733,29.799058],[-95.992343,29.799508],[-95.990899,29.799584],[-95.989581,29.79907],[-95.987937,29.800291],[-95.986613,29.800347],[-95.986336,29.800572],[-95.98679,29.801396],[-95.987465,29.801825],[-95.988177,29.802748],[-95.988216,29.803286],[-95.988827,29.804308],[-95.988714,29.804759],[-95.988317,29.804952],[-95.987624,29.804886],[-95.98729,29.805562],[-95.986068,29.805942],[-95.985686,29.806023],[-95.984629,29.80556],[-95.984075,29.806128],[-95.982035,29.806279],[-95.981443,29.806752],[-95.981386,29.80707],[-95.980586,29.807159],[-95.979087,29.807819],[-95.977984,29.808826],[-95.975344,29.806837],[-95.970771,29.802544],[-95.970711,29.806339],[-95.966601,29.811591]]]}},{"type":"Feature","properties":{"PRECINCT":"418","VTD":"0418"},"geometry":{"type":"Polygon","coordinates":[[[-95.83611,29.816524],[-95.848823,29.816522],[-95.848809,29.814983],[-95.849846,29.814976],[-95.849861,29.816515],[-95.85005,29.816513],[-95.850006,29.811971],[-95.850728,29.811966],[-95.850587,29.801977],[-95.856519,29.801937],[-95.856448,29.787554],[-95.85715,29.787554],[-95.857131,29.785924],[-95.867091,29.785916],[-95.867159,29.781251],[-95.867444,29.781253],[-95.871425,29.785214],[-95.871409,29.783121],[-95.870108,29.783113],[-95.870086,29.78057],[-95.872773,29.780553],[-95.872822,29.785903],[-95.877267,29.78593],[-95.877287,29.788156],[-95.889955,29.788234],[-95.889953,29.786321],[-95.901373,29.786376],[-95.901558,29.775381],[-95.900977,29.775387],[-95.898892,29.776714],[-95.897661,29.776855],[-95.885365,29.776877],[-95.885394,29.776629],[-95.884025,29.776446],[-95.882488,29.775479],[-95.880724,29.775335],[-95.87982,29.775612],[-95.878288,29.776783],[-95.87768,29.776941],[-95.871719,29.776912],[-95.871657,29.770912],[-95.874081,29.770046],[-95.880916,29.770007],[-95.880899,29.768646],[-95.885045,29.768704],[-95.88494,29.765835],[-95.902261,29.759617],[-95.920592,29.752614],[-95.920923,29.768461],[-95.920395,29.770902],[-95.920706,29.786197],[-95.920401,29.786195],[-95.920423,29.786647],[-95.93971,29.786742],[-95.940006,29.815796],[-95.889957,29.816198],[-95.890398,29.859822],[-95.851512,29.860108],[-95.839954,29.828337],[-95.83611,29.816524]]]}},{"type":"Feature","properties":{"PRECINCT":"313","VTD":"0313"},"geometry":{"type":"Polygon","coordinates":[[[-95.882032,29.933918],[-95.879311,29.924028],[-95.879212,29.920496],[-95.879015,29.920107],[-95.878327,29.919758],[-95.872965,29.91983],[-95.867094,29.903709],[-95.862275,29.889456],[-95.851512,29.860108],[-95.890398,29.859822],[-95.890511,29.874371],[-95.949172,29.873847],[-95.959934,29.874144],[-95.968778,29.874069],[-95.96948,29.874387],[-95.969677,29.874785],[-95.9698,29.877926],[-95.970426,29.878548],[-95.984481,29.881613],[-95.987902,29.876818],[-95.98784,29.876523],[-95.985957,29.875666],[-95.985841,29.875388],[-95.988048,29.872415],[-95.98901,29.872112],[-95.989977,29.870299],[-95.98966,29.868594],[-95.991949,29.86538],[-95.993211,29.864215],[-95.995285,29.861442],[-95.997009,29.861799],[-95.999246,29.863052],[-95.999777,29.863611],[-96.001911,29.869738],[-96.003519,29.872216],[-96.006945,29.879275],[-96.023275,29.91764],[-95.995594,29.918222],[-95.993768,29.917798],[-95.993782,29.924273],[-95.993495,29.924484],[-95.990237,29.92451],[-95.989954,29.924679],[-95.989358,29.931727],[-95.975132,29.931864],[-95.97352,29.931635],[-95.926599,29.932048],[-95.9078,29.932425],[-95.907893,29.93227],[-95.904207,29.932522],[-95.892273,29.933991],[-95.882778,29.934177],[-95.882032,29.933918]]]}},{"type":"Feature","properties":{"PRECINCT":"419","VTD":"0419"},"geometry":{"type":"Polygon","coordinates":[[[-95.83611,29.816524],[-95.830581,29.800418],[-95.839818,29.800336],[-95.839753,29.80201],[-95.846708,29.801992],[-95.846701,29.798287],[-95.848158,29.798278],[-95.848163,29.801991],[-95.850587,29.801977],[-95.850728,29.811966],[-95.850006,29.811971],[-95.85005,29.816513],[-95.849861,29.816515],[-95.849846,29.814976],[-95.848809,29.814983],[-95.848823,29.816522],[-95.83611,29.816524]]]}},{"type":"Feature","properties":{"PRECINCT":"420","VTD":"0420"},"geometry":{"type":"Polygon","coordinates":[[[-95.839753,29.80201],[-95.839818,29.800336],[-95.830581,29.800418],[-95.82622,29.78828],[-95.841911,29.782194],[-95.88494,29.765835],[-95.885045,29.768704],[-95.880899,29.768646],[-95.880916,29.770007],[-95.874081,29.770046],[-95.871657,29.770912],[-95.871719,29.776912],[-95.87768,29.776941],[-95.878288,29.776783],[-95.87982,29.775612],[-95.880724,29.775335],[-95.882488,29.775479],[-95.884025,29.776446],[-95.885394,29.776629],[-95.885365,29.776877],[-95.897661,29.776855],[-95.898892,29.776714],[-95.900977,29.775387],[-95.901558,29.775381],[-95.901373,29.786376],[-95.889953,29.786321],[-95.889955,29.788234],[-95.877287,29.788156],[-95.877267,29.78593],[-95.872822,29.785903],[-95.872773,29.780553],[-95.870086,29.78057],[-95.870108,29.783113],[-95.871409,29.783121],[-95.871425,29.785214],[-95.867444,29.781253],[-95.867159,29.781251],[-95.867091,29.785916],[-95.857131,29.785924],[-95.85715,29.787554],[-95.856448,29.787554],[-95.856519,29.801937],[-95.848163,29.801991],[-95.848158,29.798278],[-95.846701,29.798287],[-95.846708,29.801992],[-95.839753,29.80201]]]}},{"type":"Feature","properties":{"PRECINCT":"207","VTD":"0207"},"geometry":{"type":"Polygon","coordinates":[[[-95.804306,30.24557],[-95.803693,30.115136],[-95.80333,30.090096],[-95.804556,30.089783],[-95.805637,30.089799],[-95.807736,30.088975],[-95.808077,30.088639],[-95.809493,30.088216],[-95.809594,30.087656],[-95.809423,30.087155],[-95.809088,30.086974],[-95.809044,30.08621],[-95.809752,30.085232],[-95.811518,30.084958],[-95.812429,30.084314],[-95.814395,30.084687],[-95.815382,30.08529],[-95.815915,30.085274],[-95.816249,30.084912],[-95.816533,30.083764],[-95.81647,30.08262],[-95.817045,30.081779],[-95.817986,30.082054],[-95.819409,30.083087],[-95.820357,30.08301],[-95.822019,30.082213],[-95.824351,30.082444],[-95.828016,30.082014],[-95.82849,30.081734],[-95.829337,30.082163],[-95.830039,30.083031],[-95.829951,30.08357],[-95.830279,30.084081],[-95.831208,30.084443],[-95.831942,30.08435],[-95.833041,30.085124],[-95.833831,30.08491],[-95.834653,30.084179],[-95.837421,30.083249],[-95.838621,30.083089],[-95.839162,30.08357],[-95.839061,30.084352],[-95.839323,30.084685],[-95.842301,30.086128],[-95.8439,30.087194],[-95.844431,30.08793],[-95.84471,30.089183],[-95.843763,30.091404],[-95.843207,30.091965],[-95.842747,30.094834],[-95.84391,30.09657],[-95.845029,30.096718],[-95.846098,30.097383],[-95.84594,30.0979],[-95.846484,30.100455],[-95.848684,30.100147],[-95.849417,30.100245],[-95.850088,30.100883],[-95.850075,30.101388],[-95.850569,30.102092],[-95.850828,30.102152],[-95.853571,30.101733],[-95.85445,30.101684],[-95.855992,30.102101],[-95.856403,30.101765],[-95.856902,30.101798],[-95.857022,30.103578],[-95.857381,30.104399],[-95.860276,30.105406],[-95.861434,30.105357],[-95.862974,30.10667],[-95.863243,30.107875],[-95.863144,30.109351],[-95.863513,30.110132],[-95.862331,30.110945],[-95.86343,30.112534],[-95.865417,30.114293],[-95.867106,30.114764],[-95.86846,30.115605],[-95.868113,30.116561],[-95.868449,30.117539],[-95.870181,30.117978],[-95.872122,30.117884],[-95.872489,30.118092],[-95.872786,30.118548],[-95.872761,30.11934],[-95.872123,30.11973],[-95.872016,30.120258],[-95.873364,30.121851],[-95.874319,30.122197],[-95.875807,30.12085],[-95.876464,30.120938],[-95.877407,30.120537],[-95.878592,30.120361],[-95.87807,30.123709],[-95.878167,30.139223],[-95.875578,30.14665],[-95.875549,30.151529],[-95.874992,30.152701],[-95.875156,30.153436],[-95.874913,30.153839],[-95.874182,30.153859],[-95.873893,30.153639],[-95.873847,30.153798],[-95.873483,30.152707],[-95.872049,30.152713],[-95.872143,30.160463],[-95.871695,30.160998],[-95.872187,30.161376],[-95.873623,30.161304],[-95.875459,30.161891],[-95.875958,30.162485],[-95.876755,30.162738],[-95.877406,30.163832],[-95.878089,30.164377],[-95.88132,30.165659],[-95.88198,30.165644],[-95.883208,30.166489],[-95.878552,30.171185],[-95.872843,30.175501],[-95.871448,30.176156],[-95.862619,30.179485],[-95.861549,30.179647],[-95.854781,30.179648],[-95.85316,30.179963],[-95.824245,30.189326],[-95.821155,30.189535],[-95.820959,30.190471],[-95.819909,30.191148],[-95.820529,30.191367],[-95.820668,30.191714],[-95.820548,30.194962],[-95.820852,30.195544],[-95.820517,30.196089],[-95.821763,30.197814],[-95.821795,30.198326],[-95.821542,30.199139],[-95.820536,30.200348],[-95.82096,30.201975],[-95.820733,30.20341],[-95.819569,30.204635],[-95.81812,30.205597],[-95.817721,30.206779],[-95.821171,30.209967],[-95.822259,30.210642],[-95.822392,30.211027],[-95.82205,30.211516],[-95.819734,30.21277],[-95.819741,30.213308],[-95.820975,30.214463],[-95.822254,30.216919],[-95.822773,30.217469],[-95.824197,30.217584],[-95.825589,30.216957],[-95.827266,30.216979],[-95.82814,30.217501],[-95.829108,30.21982],[-95.830185,30.220705],[-95.831279,30.2211],[-95.831583,30.2201],[-95.833076,30.219314],[-95.833785,30.219687],[-95.834475,30.22055],[-95.835608,30.220858],[-95.83659,30.221748],[-95.836837,30.222539],[-95.836559,30.223501],[-95.836204,30.223902],[-95.835223,30.224298],[-95.835553,30.226887],[-95.834946,30.228618],[-95.834921,30.22941],[-95.834491,30.23019],[-95.836105,30.230542],[-95.836435,30.231784],[-95.837618,30.232042],[-95.838321,30.232833],[-95.838416,30.233388],[-95.839183,30.234597],[-95.83945,30.237477],[-95.839703,30.237746],[-95.839349,30.23823],[-95.839558,30.238735],[-95.840292,30.239224],[-95.840596,30.239208],[-95.840761,30.239659],[-95.840382,30.241808],[-95.842022,30.243121],[-95.842138,30.243445],[-95.821199,30.24475],[-95.814501,30.24484],[-95.804306,30.24557]]]}}]}