{"type":"FeatureCollection","features":[{"type":"Feature","properties":{"PRECINCT":"102","VTD":"0102"},"geometry":{"type":"Polygon","coordinates":[[[-98.381282,30.182337],[-98.380295,30.182542],[-98.379906,30.182415],[-98.379548,30.181921],[-98.379157,30.18187],[-98.380385,30.175051],[-98.38407,30.16283],[-98.38508,30.161106],[-98.396861,30.146781],[-98.403301,30.134073],[-98.409659,30.127047],[-98.41072,30.125563],[-98.422162,30.097957],[-98.423191,30.09826],[-98.425977,30.091232],[-98.425226,30.091],[-98.423162,30.092542],[-98.418421,30.083306],[-98.412128,30.075788],[-98.411061,30.073862],[-98.41098,30.067381],[-98.411594,30.036227],[-98.405785,30.014301],[-98.405527,30.002267],[-98.404006,30.001963],[-98.39918,29.999136],[-98.396045,29.995941],[-98.393511,29.994268],[-98.392195,29.993937],[-98.38616,29.993612],[-98.384338,29.993951],[-98.378544,29.997291],[-98.377393,29.997469],[-98.374021,29.99737],[-98.372663,29.997645],[-98.371354,29.998504],[-98.370632,29.999696],[-98.368236,30.00036],[-98.367895,29.999955],[-98.367884,29.999399],[-98.367317,29.998932],[-98.366974,29.99756],[-98.365809,29.996303],[-98.364546,29.993884],[-98.36414,29.993488],[-98.362955,29.99319],[-98.36127,29.992114],[-98.359847,29.990532],[-98.359215,29.990281],[-98.358399,29.990304],[-98.358477,29.988746],[-98.357265,29.988173],[-98.356277,29.987211],[-98.414018,29.937557],[-98.467667,30.000212],[-98.500219,30.037148],[-98.52965,30.07128],[-98.532351,30.073812],[-98.544942,30.089001],[-98.580649,30.130402],[-98.556752,30.140531],[-98.540942,30.149002],[-98.531104,30.153559],[-98.529592,30.154734],[-98.526968,30.155594],[-98.499062,30.169103],[-98.476815,30.179552],[-98.476695,30.178739],[-98.476172,30.178318],[-98.47578,30.178632],[-98.474786,30.178482],[-98.473713,30.178879],[-98.471146,30.179008],[-98.469658,30.17772],[-98.469687,30.177325],[-98.470246,30.17718],[-98.471248,30.176147],[-98.471245,30.175901],[-98.470788,30.175592],[-98.47107,30.17508],[-98.474117,30.174369],[-98.474997,30.173595],[-98.474443,30.173252],[-98.474153,30.172587],[-98.473335,30.172175],[-98.472491,30.171923],[-98.471594,30.171969],[-98.470512,30.171602],[-98.470459,30.170639],[-98.469716,30.169924],[-98.468807,30.169572],[-98.468797,30.168718],[-98.447358,30.160512],[-98.447751,30.159783],[-98.444769,30.158646],[-98.444389,30.159391],[-98.429843,30.153532],[-98.429224,30.154074],[-98.428846,30.155086],[-98.428353,30.166273],[-98.423537,30.166229],[-98.422466,30.168999],[-98.421875,30.169602],[-98.42025,30.170392],[-98.420244,30.171256],[-98.419922,30.17158],[-98.419856,30.173826],[-98.418922,30.17384],[-98.418782,30.181423],[-98.40821,30.181515],[-98.399078,30.181243],[-98.394724,30.175631],[-98.393793,30.176292],[-98.392549,30.177818],[-98.391508,30.179938],[-98.388882,30.18114],[-98.388561,30.181733],[-98.388557,30.182782],[-98.387037,30.183617],[-98.384264,30.184171],[-98.383157,30.183703],[-98.382926,30.182985],[-98.381282,30.182337]]]}},{"type":"Feature","properties":{"PRECINCT":"201","VTD":"0201"},"geometry":{"type":"Polygon","coordinates":[[[-98.181999,30.333927],[-98.192261,30.307413],[-98.203905,30.278429],[-98.207709,30.268083],[-98.217966,30.242599],[-98.221973,30.231344],[-98.238609,30.18872],[-98.259665,30.135479],[-98.265592,30.135567],[-98.265573,30.14294],[-98.270621,30.142973],[-98.269664,30.145851],[-98.279584,30.14909],[-98.276621,30.155],[-98.276671,30.155854],[-98.279164,30.155763],[-98.280564,30.153801],[-98.283407,30.154416],[-98.283479,30.154846],[-98.28469,30.153882],[-98.284872,30.155415],[-98.295016,30.155138],[-98.294969,30.156346],[-98.315987,30.155287],[-98.317294,30.154857],[-98.318306,30.15589],[-98.320015,30.156234],[-98.319381,30.156945],[-98.320057,30.158808],[-98.320141,30.160103],[-98.31991,30.160812],[-98.320318,30.163674],[-98.319621,30.165465],[-98.318234,30.166449],[-98.318694,30.167803],[-98.31822,30.171298],[-98.318773,30.175272],[-98.318565,30.176083],[-98.317862,30.176579],[-98.317412,30.177501],[-98.317586,30.178276],[-98.317172,30.180842],[-98.317525,30.181114],[-98.318036,30.181096],[-98.319237,30.179642],[-98.319835,30.17982],[-98.319006,30.181306],[-98.319151,30.182424],[-98.317952,30.184399],[-98.317717,30.185507],[-98.317176,30.186232],[-98.316629,30.18891],[-98.317376,30.192277],[-98.316905,30.194088],[-98.316165,30.195443],[-98.316351,30.197726],[-98.315942,30.198665],[-98.316147,30.199053],[-98.317036,30.199526],[-98.316139,30.200242],[-98.315029,30.200498],[-98.314806,30.201102],[-98.314871,30.202019],[-98.318761,30.199737],[-98.325217,30.197992],[-98.330985,30.19565],[-98.330969,30.194197],[-98.331701,30.193365],[-98.33354,30.192138],[-98.334813,30.190972],[-98.33592,30.188509],[-98.3366,30.187581],[-98.337828,30.18693],[-98.339615,30.186355],[-98.340817,30.18544],[-98.341766,30.1834],[-98.343353,30.181371],[-98.346949,30.177685],[-98.346923,30.175207],[-98.350436,30.173398],[-98.351241,30.172722],[-98.353929,30.17167],[-98.354461,30.171718],[-98.355457,30.172241],[-98.35717,30.17219],[-98.359474,30.169289],[-98.36175,30.165681],[-98.363327,30.164581],[-98.365342,30.16203],[-98.367205,30.160575],[-98.368209,30.160605],[-98.372345,30.161928],[-98.376424,30.161942],[-98.3784,30.161267],[-98.381162,30.161439],[-98.383399,30.160791],[-98.38508,30.161106],[-98.383735,30.163641],[-98.381299,30.171825],[-98.380082,30.176317],[-98.379157,30.18187],[-98.379548,30.181921],[-98.379906,30.182415],[-98.380295,30.182542],[-98.381217,30.182331],[-98.382401,30.182717],[-98.38296,30.183013],[-98.383157,30.183703],[-98.384264,30.184171],[-98.386827,30.183703],[-98.388557,30.182782],[-98.388561,30.181733],[-98.388882,30.18114],[-98.391508,30.179938],[-98.392549,30.177818],[-98.393793,30.176292],[-98.394724,30.175631],[-98.399078,30.181243],[-98.40821,30.181515],[-98.418782,30.181423],[-98.418922,30.17384],[-98.419856,30.173826],[-98.419922,30.17158],[-98.420244,30.171256],[-98.42025,30.170392],[-98.421875,30.169602],[-98.422466,30.168999],[-98.423537,30.166229],[-98.428353,30.166273],[-98.428846,30.155086],[-98.429224,30.154074],[-98.429843,30.153532],[-98.444389,30.159391],[-98.444769,30.158646],[-98.447751,30.159783],[-98.447358,30.160512],[-98.468797,30.168718],[-98.468807,30.169572],[-98.469716,30.169924],[-98.470459,30.170639],[-98.470512,30.171602],[-98.471594,30.171969],[-98.472491,30.171923],[-98.473335,30.172175],[-98.474153,30.172587],[-98.474443,30.173252],[-98.474997,30.173595],[-98.474117,30.174369],[-98.47107,30.17508],[-98.470788,30.175592],[-98.471245,30.175901],[-98.471248,30.176147],[-98.470246,30.17718],[-98.469687,30.177325],[-98.469658,30.17772],[-98.471146,30.179008],[-98.473713,30.178879],[-98.474786,30.178482],[-98.47578,30.178632],[-98.476172,30.178318],[-98.476695,30.178739],[-98.476815,30.179552],[-98.499062,30.169103],[-98.526968,30.155594],[-98.529592,30.154734],[-98.531104,30.153559],[-98.540942,30.149002],[-98.556752,30.140531],[-98.580649,30.130402],[-98.587897,30.138954],[-98.587777,30.19741],[-98.588,30.246296],[-98.585384,30.246162],[-98.583719,30.246608],[-98.581822,30.247661],[-98.579491,30.249453],[-98.578665,30.250401],[-98.575848,30.257039],[-98.575889,30.25837],[-98.576453,30.261001],[-98.574561,30.264163],[-98.570966,30.266292],[-98.567617,30.267014],[-98.566303,30.267577],[-98.562676,30.270362],[-98.558675,30.272471],[-98.556807,30.272762],[-98.553163,30.272246],[-98.545497,30.27214],[-98.543431,30.271903],[-98.537622,30.270774],[-98.534256,30.269871],[-98.530046,30.269175],[-98.526332,30.268793],[-98.52336,30.268848],[-98.520148,30.269953],[-98.517671,30.271867],[-98.516424,30.272441],[-98.512172,30.27372],[-98.509923,30.275014],[-98.507685,30.278035],[-98.505445,30.279642],[-98.503816,30.281084],[-98.503064,30.282077],[-98.501109,30.286453],[-98.500406,30.289504],[-98.501005,30.291482],[-98.502483,30.294482],[-98.502564,30.295256],[-98.503822,30.29681],[-98.504201,30.299206],[-98.505077,30.299955],[-98.506105,30.301954],[-98.506965,30.304456],[-98.506911,30.306924],[-98.504708,30.311188],[-98.501753,30.316063],[-98.500786,30.317115],[-98.498784,30.318667],[-98.49626,30.319914],[-98.492239,30.320731],[-98.491131,30.320518],[-98.488706,30.319544],[-98.487836,30.318926],[-98.4872,30.317968],[-98.48663,30.31602],[-98.486166,30.315351],[-98.484506,30.315583],[-98.479567,30.315082],[-98.478872,30.315176],[-98.476545,30.316617],[-98.473219,30.321091],[-98.471863,30.322294],[-98.469596,30.323011],[-98.466737,30.323522],[-98.457151,30.323953],[-98.454418,30.323377],[-98.452639,30.322714],[-98.450225,30.322219],[-98.449414,30.322242],[-98.448818,30.321905],[-98.445362,30.322037],[-98.444632,30.322235],[-98.443361,30.322097],[-98.441322,30.32107],[-98.439378,30.320618],[-98.435746,30.31914],[-98.434943,30.319322],[-98.433661,30.31875],[-98.432036,30.317353],[-98.426804,30.309779],[-98.423091,30.305528],[-98.421115,30.304131],[-98.419177,30.303101],[-98.416917,30.302288],[-98.411296,30.299487],[-98.405567,30.295925],[-98.405336,30.294284],[-98.406317,30.292831],[-98.406181,30.286635],[-98.410788,30.282969],[-98.411513,30.282016],[-98.412001,30.280563],[-98.415761,30.280594],[-98.415795,30.281111],[-98.416518,30.281093],[-98.416551,30.280641],[-98.417344,30.280636],[-98.417308,30.28109],[-98.418475,30.281061],[-98.418475,30.280419],[-98.41875,30.280425],[-98.418662,30.275936],[-98.416758,30.27664],[-98.411993,30.276713],[-98.41196,30.274803],[-98.409768,30.274859],[-98.409779,30.275777],[-98.408664,30.27578],[-98.408656,30.274854],[-98.40614,30.274854],[-98.406008,30.274478],[-98.404091,30.273724],[-98.404117,30.272593],[-98.401285,30.271071],[-98.40067,30.271899],[-98.400177,30.271683],[-98.396733,30.267294],[-98.39559,30.267831],[-98.396917,30.271476],[-98.395839,30.272546],[-98.395321,30.27527],[-98.394612,30.275701],[-98.393535,30.275299],[-98.392274,30.274429],[-98.391082,30.274457],[-98.390391,30.274737],[-98.390068,30.275683],[-98.388413,30.27687],[-98.388419,30.277234],[-98.389737,30.277867],[-98.390358,30.278433],[-98.391339,30.279919],[-98.391244,30.280799],[-98.390144,30.281691],[-98.391148,30.283231],[-98.391058,30.284294],[-98.388591,30.284395],[-98.3867,30.284799],[-98.384082,30.286037],[-98.383074,30.286126],[-98.381614,30.287149],[-98.379693,30.287601],[-98.375268,30.285546],[-98.36936,30.281356],[-98.368087,30.280938],[-98.366721,30.280886],[-98.364774,30.282209],[-98.364554,30.283969],[-98.365042,30.288819],[-98.364148,30.29333],[-98.362826,30.296081],[-98.362676,30.297188],[-98.362952,30.298194],[-98.363554,30.298878],[-98.364934,30.299664],[-98.369192,30.300869],[-98.372198,30.301132],[-98.375064,30.302159],[-98.3773,30.304028],[-98.37809,30.305308],[-98.378201,30.306739],[-98.37734,30.309094],[-98.375876,30.310653],[-98.37303,30.312686],[-98.371555,30.313346],[-98.370314,30.313591],[-98.369233,30.313451],[-98.367974,30.313971],[-98.363093,30.315149],[-98.357912,30.316881],[-98.355788,30.316991],[-98.350632,30.316432],[-98.347145,30.315479],[-98.344974,30.314452],[-98.340768,30.311728],[-98.339217,30.309763],[-98.338492,30.306497],[-98.338748,30.301619],[-98.339281,30.299078],[-98.339399,30.294656],[-98.33902,30.292254],[-98.337872,30.289948],[-98.337511,30.283635],[-98.336565,30.281158],[-98.334693,30.278022],[-98.333827,30.277259],[-98.331668,30.276299],[-98.331287,30.275938],[-98.329511,30.275742],[-98.324722,30.278314],[-98.321499,30.281202],[-98.320532,30.281678],[-98.318286,30.283622],[-98.317587,30.283935],[-98.316701,30.284885],[-98.31509,30.287476],[-98.314549,30.289467],[-98.314728,30.292907],[-98.31655,30.298066],[-98.316653,30.299096],[-98.316308,30.300043],[-98.315542,30.301066],[-98.315012,30.301522],[-98.312298,30.302743],[-98.308966,30.303442],[-98.302817,30.302866],[-98.30093,30.302448],[-98.299938,30.303004],[-98.29876,30.304157],[-98.29752,30.304548],[-98.295607,30.306345],[-98.294514,30.306848],[-98.292532,30.309124],[-98.287393,30.312641],[-98.286196,30.313232],[-98.282417,30.314125],[-98.280504,30.313496],[-98.276498,30.318262],[-98.272654,30.322091],[-98.271924,30.323575],[-98.272153,30.324627],[-98.271589,30.326441],[-98.265883,30.332979],[-98.263382,30.336492],[-98.260404,30.338358],[-98.257742,30.339542],[-98.25617,30.339665],[-98.25473,30.339469],[-98.250036,30.33742],[-98.249661,30.337067],[-98.249055,30.335512],[-98.247749,30.334176],[-98.246097,30.332932],[-98.245593,30.332153],[-98.245488,30.330773],[-98.246246,30.324142],[-98.245969,30.323554],[-98.245449,30.323143],[-98.243448,30.322362],[-98.241144,30.322511],[-98.237602,30.323917],[-98.235696,30.324273],[-98.234754,30.324148],[-98.233076,30.32305],[-98.232579,30.321996],[-98.232708,30.320787],[-98.23566,30.314207],[-98.236882,30.312539],[-98.238666,30.311316],[-98.243153,30.310198],[-98.245238,30.309249],[-98.246087,30.308288],[-98.246027,30.307257],[-98.245441,30.306161],[-98.244161,30.305045],[-98.240778,30.301033],[-98.239193,30.299713],[-98.236659,30.298089],[-98.235413,30.297601],[-98.23348,30.297466],[-98.22887,30.297814],[-98.226865,30.298157],[-98.22492,30.298938],[-98.223737,30.301098],[-98.223392,30.303408],[-98.223909,30.304267],[-98.223275,30.3063],[-98.222269,30.307436],[-98.216638,30.311918],[-98.215049,30.312619],[-98.213408,30.31281],[-98.212273,30.312586],[-98.20801,30.310664],[-98.206214,30.31092],[-98.204367,30.312411],[-98.203569,30.314501],[-98.203543,30.315215],[-98.2056,30.31735],[-98.206875,30.318205],[-98.207986,30.318554],[-98.21005,30.320078],[-98.211304,30.322546],[-98.211441,30.324767],[-98.211174,30.32596],[-98.20794,30.329973],[-98.204928,30.332477],[-98.203129,30.333446],[-98.199275,30.334499],[-98.197521,30.33552],[-98.196764,30.336362],[-98.196309,30.338],[-98.196543,30.34],[-98.197335,30.343865],[-98.198283,30.344811],[-98.198498,30.345965],[-98.196606,30.349406],[-98.195075,30.350083],[-98.192768,30.350332],[-98.187031,30.34839],[-98.186125,30.347681],[-98.185338,30.34611],[-98.185018,30.344339],[-98.184841,30.340667],[-98.182876,30.334851],[-98.181999,30.333927]]]}},{"type":"Feature","properties":{"PRECINCT":"302","VTD":"0302"},"geometry":{"type":"Polygon","coordinates":[[[-98.457799,30.406778],[-98.442712,30.366133],[-98.421214,30.366367],[-98.413403,30.345601],[-98.357084,30.346947],[-98.331855,30.348032],[-98.317086,30.348426],[-98.314755,30.301644],[-98.31582,30.300752],[-98.316653,30.299096],[-98.31655,30.298066],[-98.314793,30.293178],[-98.314508,30.290222],[-98.31509,30.287476],[-98.316924,30.284581],[-98.320532,30.281678],[-98.322048,30.280766],[-98.324722,30.278314],[-98.326782,30.277344],[-98.328968,30.27592],[-98.329918,30.275674],[-98.331287,30.275938],[-98.331668,30.276299],[-98.333827,30.277259],[-98.334892,30.278253],[-98.336038,30.280181],[-98.337511,30.283635],[-98.337872,30.289948],[-98.33918,30.292814],[-98.339444,30.296345],[-98.339281,30.299078],[-98.338748,30.301619],[-98.338492,30.306497],[-98.339217,30.309763],[-98.340768,30.311728],[-98.344974,30.314452],[-98.347145,30.315479],[-98.350632,30.316432],[-98.354624,30.316941],[-98.357912,30.316881],[-98.363093,30.315149],[-98.367974,30.313971],[-98.369233,30.313451],[-98.370314,30.313591],[-98.371555,30.313346],[-98.37303,30.312686],[-98.375876,30.310653],[-98.37734,30.309094],[-98.378201,30.306739],[-98.37809,30.305308],[-98.3773,30.304028],[-98.375064,30.302159],[-98.372198,30.301132],[-98.369192,30.300869],[-98.364934,30.299664],[-98.363554,30.298878],[-98.362952,30.298194],[-98.362676,30.297188],[-98.362826,30.296081],[-98.364148,30.29333],[-98.365042,30.288819],[-98.364554,30.283969],[-98.364774,30.282209],[-98.366721,30.280886],[-98.368087,30.280938],[-98.36936,30.281356],[-98.375268,30.285546],[-98.379693,30.287601],[-98.381614,30.287149],[-98.383074,30.286126],[-98.384082,30.286037],[-98.3867,30.284799],[-98.388591,30.284395],[-98.391058,30.284294],[-98.391148,30.283231],[-98.390144,30.281691],[-98.391244,30.280799],[-98.391339,30.279919],[-98.390358,30.278433],[-98.389737,30.277867],[-98.388419,30.277234],[-98.388413,30.27687],[-98.390068,30.275683],[-98.390391,30.274737],[-98.391082,30.274457],[-98.392274,30.274429],[-98.393535,30.275299],[-98.394612,30.275701],[-98.395321,30.27527],[-98.395839,30.272546],[-98.396917,30.271476],[-98.39559,30.267831],[-98.396733,30.267294],[-98.400177,30.271683],[-98.40067,30.271899],[-98.401285,30.271071],[-98.404117,30.272593],[-98.404091,30.273724],[-98.406008,30.274478],[-98.40614,30.274854],[-98.408656,30.274854],[-98.408664,30.27578],[-98.409779,30.275777],[-98.409768,30.274859],[-98.41196,30.274803],[-98.411993,30.276713],[-98.416758,30.27664],[-98.418662,30.275936],[-98.41875,30.280425],[-98.418475,30.280419],[-98.418475,30.281061],[-98.417308,30.28109],[-98.417344,30.280636],[-98.416551,30.280641],[-98.416518,30.281093],[-98.415795,30.281111],[-98.415761,30.280594],[-98.412001,30.280563],[-98.411513,30.282016],[-98.410788,30.282969],[-98.406181,30.286635],[-98.406317,30.292831],[-98.405336,30.294284],[-98.405567,30.295925],[-98.411296,30.299487],[-98.416917,30.302288],[-98.419177,30.303101],[-98.421115,30.304131],[-98.423091,30.305528],[-98.426804,30.309779],[-98.432036,30.317353],[-98.433661,30.31875],[-98.434943,30.319322],[-98.435746,30.31914],[-98.443973,30.3222],[-98.448818,30.321905],[-98.449414,30.322242],[-98.450225,30.322219],[-98.452639,30.322714],[-98.454418,30.323377],[-98.457151,30.323953],[-98.466737,30.323522],[-98.469596,30.323011],[-98.472409,30.321958],[-98.476545,30.316617],[-98.478872,30.315176],[-98.48011,30.315078],[-98.484506,30.315583],[-98.486166,30.315351],[-98.48663,30.31602],[-98.4872,30.317968],[-98.488,30.319088],[-98.491131,30.320518],[-98.492239,30.320731],[-98.493946,30.320492],[-98.49626,30.319914],[-98.498301,30.318928],[-98.500854,30.317055],[-98.502875,30.314407],[-98.506911,30.306924],[-98.506965,30.304456],[-98.506105,30.301954],[-98.505077,30.299955],[-98.504201,30.299206],[-98.503822,30.29681],[-98.502564,30.295256],[-98.502483,30.294482],[-98.501005,30.291482],[-98.500406,30.289504],[-98.501109,30.286453],[-98.503064,30.282077],[-98.503816,30.281084],[-98.505445,30.279642],[-98.507685,30.278035],[-98.509923,30.275014],[-98.512172,30.27372],[-98.516424,30.272441],[-98.517671,30.271867],[-98.520148,30.269953],[-98.52336,30.268848],[-98.526332,30.268793],[-98.530046,30.269175],[-98.534256,30.269871],[-98.537622,30.270774],[-98.543431,30.271903],[-98.545497,30.27214],[-98.553163,30.272246],[-98.556807,30.272762],[-98.558675,30.272471],[-98.562676,30.270362],[-98.566303,30.267577],[-98.567617,30.267014],[-98.570966,30.266292],[-98.574561,30.264163],[-98.576453,30.261001],[-98.575889,30.25837],[-98.575848,30.257039],[-98.578665,30.250401],[-98.579491,30.249453],[-98.581822,30.247661],[-98.583719,30.246608],[-98.585384,30.246162],[-98.588,30.246296],[-98.588658,30.265701],[-98.5894,30.368917],[-98.590078,30.404844],[-98.457799,30.406778]]]}},{"type":"Feature","properties":{"PRECINCT":"303","VTD":"0303"},"geometry":{"type":"Polygon","coordinates":[[[-98.411462,30.502095],[-98.400964,30.499589],[-98.271308,30.464722],[-98.27204,30.408717],[-98.272081,30.384003],[-98.316904,30.382951],[-98.317258,30.358278],[-98.317086,30.348426],[-98.331855,30.348032],[-98.357084,30.346947],[-98.413403,30.345601],[-98.421214,30.366367],[-98.442712,30.366133],[-98.457799,30.406778],[-98.590078,30.404844],[-98.59167,30.499875],[-98.495814,30.501415],[-98.411462,30.502095]]]}},{"type":"Feature","properties":{"PRECINCT":"304","VTD":"0304"},"geometry":{"type":"Polygon","coordinates":[[[-98.173025,30.356244],[-98.177947,30.343492],[-98.178641,30.342335],[-98.181999,30.333927],[-98.182876,30.334851],[-98.184841,30.340667],[-98.185018,30.344339],[-98.185338,30.34611],[-98.186424,30.348024],[-98.192768,30.350332],[-98.195075,30.350083],[-98.196606,30.349406],[-98.198498,30.345965],[-98.198283,30.344811],[-98.197335,30.343865],[-98.196543,30.34],[-98.196309,30.338],[-98.196764,30.336362],[-98.197521,30.33552],[-98.198664,30.334805],[-98.199774,30.334318],[-98.203129,30.333446],[-98.206376,30.331409],[-98.208326,30.32955],[-98.210568,30.326859],[-98.211328,30.325588],[-98.211304,30.322546],[-98.21005,30.320078],[-98.207986,30.318554],[-98.206875,30.318205],[-98.2056,30.31735],[-98.203543,30.315215],[-98.203569,30.314501],[-98.204367,30.312411],[-98.206214,30.31092],[-98.20801,30.310664],[-98.212273,30.312586],[-98.213408,30.31281],[-98.215049,30.312619],[-98.216638,30.311918],[-98.222269,30.307436],[-98.223275,30.3063],[-98.223909,30.304267],[-98.223392,30.303408],[-98.2239,30.300617],[-98.22492,30.298938],[-98.226004,30.298419],[-98.228729,30.297832],[-98.232652,30.297479],[-98.235126,30.297564],[-98.236304,30.297897],[-98.240468,30.300743],[-98.244161,30.305045],[-98.245441,30.306161],[-98.246027,30.307257],[-98.246129,30.308003],[-98.245762,30.308795],[-98.245238,30.309249],[-98.243153,30.310198],[-98.238666,30.311316],[-98.237292,30.312182],[-98.236308,30.313244],[-98.234999,30.315563],[-98.232708,30.320787],[-98.232624,30.322209],[-98.233475,30.323416],[-98.234754,30.324148],[-98.235696,30.324273],[-98.237602,30.323917],[-98.241144,30.322511],[-98.243448,30.322362],[-98.245449,30.323143],[-98.245969,30.323554],[-98.246246,30.324142],[-98.245507,30.329657],[-98.245725,30.332425],[-98.249055,30.335512],[-98.249661,30.337067],[-98.250036,30.33742],[-98.254138,30.339299],[-98.25617,30.339665],[-98.257742,30.339542],[-98.258849,30.339128],[-98.262703,30.337068],[-98.263382,30.336492],[-98.265883,30.332979],[-98.271589,30.326441],[-98.272153,30.324627],[-98.271924,30.323575],[-98.272654,30.322091],[-98.276498,30.318262],[-98.280504,30.313496],[-98.282417,30.314125],[-98.286196,30.313232],[-98.287393,30.312641],[-98.292532,30.309124],[-98.294514,30.306848],[-98.295607,30.306345],[-98.29752,30.304548],[-98.29876,30.304157],[-98.299938,30.303004],[-98.30093,30.302448],[-98.302817,30.302866],[-98.308966,30.303442],[-98.311277,30.303064],[-98.314755,30.301644],[-98.31712,30.349344],[-98.317258,30.358278],[-98.316904,30.382951],[-98.272081,30.384003],[-98.27204,30.408717],[-98.271308,30.464722],[-98.250297,30.459454],[-98.249457,30.45889],[-98.125556,30.426186],[-98.173025,30.356244]]]}},{"type":"Feature","properties":{"PRECINCT":"401","VTD":"0401"},"geometry":{"type":"Polygon","coordinates":[[[-98.319582,30.17965],[-98.319114,30.179746],[-98.318159,30.181048],[-98.317525,30.181114],[-98.317172,30.180842],[-98.317586,30.178276],[-98.317412,30.177501],[-98.317862,30.176579],[-98.318565,30.176083],[-98.318773,30.175272],[-98.31822,30.171298],[-98.318694,30.167803],[-98.318234,30.166449],[-98.319621,30.165465],[-98.320318,30.163674],[-98.31991,30.160812],[-98.320141,30.160103],[-98.320057,30.158808],[-98.319381,30.156945],[-98.320015,30.156234],[-98.318306,30.15589],[-98.317294,30.154857],[-98.315987,30.155287],[-98.294969,30.156346],[-98.295016,30.155138],[-98.284872,30.155415],[-98.28469,30.153882],[-98.283479,30.154846],[-98.283407,30.154416],[-98.280564,30.153801],[-98.279164,30.155763],[-98.276671,30.155854],[-98.276621,30.155],[-98.279584,30.14909],[-98.269664,30.145851],[-98.270621,30.142973],[-98.265573,30.14294],[-98.265592,30.135567],[-98.259665,30.135479],[-98.297361,30.03859],[-98.2976,30.037994],[-98.29835,30.037301],[-98.356277,29.987211],[-98.357265,29.988173],[-98.358477,29.988746],[-98.358399,29.990304],[-98.359215,29.990281],[-98.359847,29.990532],[-98.36127,29.992114],[-98.362955,29.99319],[-98.36414,29.993488],[-98.364546,29.993884],[-98.365809,29.996303],[-98.366974,29.99756],[-98.367317,29.998932],[-98.367884,29.999399],[-98.367895,29.999955],[-98.368236,30.00036],[-98.370632,29.999696],[-98.371519,29.998343],[-98.372886,29.997569],[-98.374021,29.99737],[-98.377578,29.997463],[-98.378774,29.997211],[-98.384125,29.994054],[-98.385021,29.993725],[-98.38616,29.993612],[-98.393003,29.994081],[-98.395738,29.99568],[-98.39918,29.999136],[-98.404006,30.001963],[-98.405527,30.002267],[-98.405785,30.014301],[-98.411594,30.036227],[-98.41098,30.067381],[-98.411061,30.073862],[-98.412128,30.075788],[-98.418421,30.083306],[-98.423162,30.092542],[-98.425226,30.091],[-98.425977,30.091232],[-98.425123,30.093641],[-98.423191,30.09826],[-98.422162,30.097957],[-98.41072,30.125563],[-98.409659,30.127047],[-98.403301,30.134073],[-98.397769,30.145194],[-98.396542,30.147247],[-98.38508,30.161106],[-98.383399,30.160791],[-98.381162,30.161439],[-98.3784,30.161267],[-98.376424,30.161942],[-98.372345,30.161928],[-98.368036,30.160563],[-98.366767,30.160758],[-98.365195,30.162193],[-98.363327,30.164581],[-98.361688,30.165753],[-98.359474,30.169289],[-98.35717,30.17219],[-98.355457,30.172241],[-98.354461,30.171718],[-98.353929,30.17167],[-98.351241,30.172722],[-98.350436,30.173398],[-98.346923,30.175207],[-98.346949,30.177685],[-98.343353,30.181371],[-98.341766,30.1834],[-98.340817,30.18544],[-98.339615,30.186355],[-98.337828,30.18693],[-98.3366,30.187581],[-98.33592,30.188509],[-98.334813,30.190972],[-98.33354,30.192138],[-98.331701,30.193365],[-98.330969,30.194197],[-98.330985,30.19565],[-98.325217,30.197992],[-98.318761,30.199737],[-98.314871,30.202019],[-98.314806,30.201102],[-98.315029,30.200498],[-98.316139,30.200242],[-98.317036,30.199526],[-98.316147,30.199053],[-98.315942,30.198665],[-98.316351,30.197726],[-98.316165,30.195443],[-98.316905,30.194088],[-98.317376,30.192277],[-98.316629,30.18891],[-98.317176,30.186232],[-98.319198,30.182306],[-98.318998,30.181356],[-98.319835,30.17982],[-98.319582,30.17965]]]}}]}