{"type":"FeatureCollection","features":[{"type":"Feature","properties":{"PRECINCT":"101","VTD":"0101"},"geometry":{"type":"Polygon","coordinates":[[[-100.667565,34.748054],[-100.51745,34.747563],[-100.493005,34.747652],[-100.477354,34.747471],[-100.467803,34.7477],[-100.456439,34.747434],[-100.451327,34.747628],[-100.415895,34.747525],[-100.415912,34.59065],[-100.428552,34.590635],[-100.432378,34.589522],[-100.44718,34.589436],[-100.447805,34.589166],[-100.448533,34.588387],[-100.462231,34.59705],[-100.463581,34.598069],[-100.464297,34.598958],[-100.475948,34.630652],[-100.491184,34.630604],[-100.491136,34.627485],[-100.491375,34.62695],[-100.49949,34.62692],[-100.499936,34.627083],[-100.500027,34.629663],[-100.501546,34.629808],[-100.50223,34.630684],[-100.502194,34.638615],[-100.505883,34.638647],[-100.50618,34.638997],[-100.506053,34.659393],[-100.505846,34.659749],[-100.505036,34.65976],[-100.505362,34.667296],[-100.505576,34.668827],[-100.506015,34.669827],[-100.505689,34.701563],[-100.511451,34.70804],[-100.514018,34.710052],[-100.516339,34.711165],[-100.521026,34.711966],[-100.522361,34.712662],[-100.526366,34.715597],[-100.527912,34.717193],[-100.529339,34.719251],[-100.534855,34.725234],[-100.535804,34.725209],[-100.535736,34.726196],[-100.537711,34.72835],[-100.538324,34.72835],[-100.538329,34.727335],[-100.544657,34.727293],[-100.544654,34.728366],[-100.547164,34.728382],[-100.547151,34.72942],[-100.545901,34.729429],[-100.545875,34.73257],[-100.549692,34.732508],[-100.549712,34.731527],[-100.548389,34.731509],[-100.54841,34.73047],[-100.549729,34.730484],[-100.549738,34.728374],[-100.550922,34.728383],[-100.550831,34.732507],[-100.552045,34.732505],[-100.552035,34.737444],[-100.549628,34.737439],[-100.549625,34.739645],[-100.548962,34.740402],[-100.552198,34.743512],[-100.553349,34.743402],[-100.553272,34.741342],[-100.556539,34.741349],[-100.556597,34.739733],[-100.558324,34.739733],[-100.5584,34.737006],[-100.553927,34.736988],[-100.553921,34.73349],[-100.556305,34.733483],[-100.556356,34.732483],[-100.629001,34.732594],[-100.628929,34.703442],[-100.664233,34.703405],[-100.664059,34.745534],[-100.664441,34.745962],[-100.66602,34.746066],[-100.667471,34.746993],[-100.667565,34.748054]]]}},{"type":"Feature","properties":{"PRECINCT":"201","VTD":"0201"},"geometry":{"type":"Polygon","coordinates":[[[-100.944939,34.748281],[-100.786464,34.748353],[-100.750414,34.748256],[-100.740901,34.748033],[-100.667565,34.748054],[-100.667471,34.746993],[-100.66602,34.746066],[-100.664441,34.745962],[-100.664059,34.745534],[-100.664316,34.688897],[-100.681302,34.688882],[-100.681818,34.688737],[-100.681985,34.659693],[-100.664323,34.659698],[-100.664402,34.645291],[-100.666285,34.645165],[-100.666605,34.644719],[-100.666302,34.615767],[-100.665958,34.615309],[-100.664355,34.615234],[-100.664108,34.615044],[-100.663975,34.606013],[-100.717309,34.605877],[-100.718533,34.605705],[-100.723568,34.603554],[-100.725171,34.60314],[-100.737048,34.602986],[-100.736896,34.583477],[-100.737594,34.58217],[-100.743095,34.577601],[-100.746686,34.572093],[-100.747561,34.571987],[-100.749275,34.572998],[-100.750078,34.572964],[-100.750588,34.572548],[-100.751189,34.57243],[-100.753557,34.57303],[-100.755192,34.572224],[-100.757349,34.572253],[-100.75812,34.572473],[-100.758553,34.573046],[-100.759334,34.572957],[-100.760289,34.573561],[-100.761235,34.573534],[-100.761567,34.574726],[-100.766006,34.576612],[-100.768018,34.576779],[-100.768315,34.577176],[-100.768508,34.576045],[-100.770255,34.576088],[-100.771541,34.576262],[-100.77461,34.577373],[-100.778435,34.577207],[-100.778577,34.576792],[-100.779262,34.576502],[-100.779651,34.575664],[-100.780452,34.575263],[-100.782279,34.575455],[-100.783286,34.575821],[-100.78429,34.575726],[-100.785219,34.575385],[-100.785789,34.574],[-100.786488,34.573515],[-100.787027,34.57336],[-100.788139,34.57363],[-100.789708,34.573446],[-100.790757,34.572996],[-100.791181,34.572538],[-100.791529,34.571293],[-100.792312,34.571753],[-100.79349,34.572023],[-100.795719,34.57195],[-100.799654,34.574548],[-100.80271,34.575575],[-100.803908,34.576278],[-100.806229,34.57682],[-100.806897,34.577288],[-100.807353,34.579854],[-100.808258,34.581054],[-100.808995,34.582746],[-100.810157,34.583525],[-100.810266,34.586021],[-100.811954,34.58696],[-100.812784,34.587877],[-100.815963,34.588927],[-100.816322,34.589233],[-100.816597,34.589608],[-100.816592,34.591663],[-100.81764,34.592907],[-100.819104,34.593761],[-100.819486,34.595444],[-100.822035,34.596015],[-100.825747,34.595634],[-100.826535,34.595725],[-100.827724,34.596566],[-100.828686,34.59642],[-100.829687,34.597462],[-100.831299,34.598276],[-100.833659,34.600393],[-100.836459,34.601992],[-100.838349,34.603942],[-100.838629,34.604726],[-100.840615,34.606818],[-100.842651,34.609607],[-100.843178,34.611426],[-100.844734,34.613342],[-100.845301,34.613755],[-100.848053,34.614415],[-100.850918,34.616385],[-100.85257,34.617093],[-100.856621,34.617714],[-100.858229,34.617711],[-100.860698,34.61669],[-100.861585,34.616656],[-100.862823,34.617338],[-100.865548,34.618058],[-100.86643,34.61746],[-100.867264,34.616459],[-100.868381,34.61612],[-100.870565,34.613987],[-100.873184,34.613925],[-100.874087,34.613358],[-100.874751,34.613486],[-100.875915,34.613216],[-100.877927,34.611751],[-100.878887,34.611382],[-100.878947,34.611],[-100.881048,34.610837],[-100.884165,34.610218],[-100.887471,34.611565],[-100.888635,34.611822],[-100.892861,34.613682],[-100.89539,34.614388],[-100.897269,34.615447],[-100.899008,34.616084],[-100.90462,34.61709],[-100.90575,34.618779],[-100.905677,34.622039],[-100.906182,34.623758],[-100.906965,34.623955],[-100.910409,34.626885],[-100.914458,34.625465],[-100.915354,34.625419],[-100.916493,34.625676],[-100.918272,34.625265],[-100.919371,34.625265],[-100.922673,34.625982],[-100.92536,34.626141],[-100.926338,34.626048],[-100.929036,34.625022],[-100.932169,34.625209],[-100.935583,34.626218],[-100.938328,34.626225],[-100.938615,34.627664],[-100.939629,34.628371],[-100.941437,34.628493],[-100.943542,34.628223],[-100.944122,34.628411],[-100.944549,34.628836],[-100.944746,34.629675],[-100.94522,34.629966],[-100.944939,34.748281]]]}},{"type":"Feature","properties":{"PRECINCT":"202","VTD":"0202"},"geometry":{"type":"Polygon","coordinates":[[[-100.552198,34.743512],[-100.548962,34.740402],[-100.549625,34.739645],[-100.549628,34.737439],[-100.552035,34.737444],[-100.552045,34.732505],[-100.550831,34.732507],[-100.550922,34.728383],[-100.549738,34.728374],[-100.549729,34.730484],[-100.54841,34.73047],[-100.548389,34.731509],[-100.549712,34.731527],[-100.549692,34.732508],[-100.545875,34.73257],[-100.545901,34.729429],[-100.547151,34.72942],[-100.547164,34.728382],[-100.544654,34.728366],[-100.544649,34.726279],[-100.537056,34.726247],[-100.537026,34.725204],[-100.545916,34.725242],[-100.545899,34.727305],[-100.552108,34.727345],[-100.552109,34.730481],[-100.552954,34.730466],[-100.552957,34.729418],[-100.553304,34.729306],[-100.553331,34.728414],[-100.553989,34.728412],[-100.553994,34.725256],[-100.550975,34.725264],[-100.550954,34.724222],[-100.54931,34.724219],[-100.549298,34.717984],[-100.563243,34.718006],[-100.59683,34.704568],[-100.609728,34.701415],[-100.623059,34.695734],[-100.628907,34.693819],[-100.629063,34.679614],[-100.628737,34.667371],[-100.629167,34.666463],[-100.629186,34.659786],[-100.681985,34.659693],[-100.681837,34.688702],[-100.681302,34.688882],[-100.664316,34.688897],[-100.664233,34.703405],[-100.628929,34.703442],[-100.629001,34.732594],[-100.556356,34.732483],[-100.556305,34.733483],[-100.553921,34.73349],[-100.553927,34.736988],[-100.5584,34.737006],[-100.558324,34.739733],[-100.556597,34.739733],[-100.556539,34.741349],[-100.553272,34.741342],[-100.553349,34.743402],[-100.552198,34.743512]]]}},{"type":"Feature","properties":{"PRECINCT":"301","VTD":"0301"},"geometry":{"type":"Polygon","coordinates":[[[-100.551716,34.591943],[-100.550359,34.59185],[-100.549001,34.592468],[-100.547977,34.591918],[-100.54615,34.59155],[-100.540337,34.589279],[-100.536406,34.588131],[-100.533886,34.58829],[-100.533304,34.588495],[-100.532556,34.589182],[-100.531891,34.589181],[-100.528902,34.588011],[-100.52832,34.587988],[-100.526132,34.588948],[-100.5253,34.589062],[-100.525079,34.588879],[-100.525081,34.587665],[-100.524168,34.586725],[-100.523753,34.58661],[-100.523226,34.586564],[-100.521897,34.587273],[-100.520318,34.587753],[-100.519127,34.587797],[-100.516469,34.587383],[-100.514836,34.586809],[-100.513285,34.586808],[-100.510712,34.585729],[-100.509271,34.58598],[-100.505974,34.58735],[-100.503953,34.587486],[-100.503964,34.586334],[-100.503406,34.585526],[-100.502095,34.584508],[-100.499717,34.583338],[-100.498716,34.583676],[-100.496961,34.585632],[-100.494186,34.587909],[-100.492888,34.587948],[-100.491402,34.587616],[-100.489609,34.587546],[-100.486422,34.588257],[-100.485524,34.588767],[-100.483979,34.588788],[-100.482242,34.588182],[-100.481277,34.587562],[-100.479556,34.58721],[-100.477496,34.586356],[-100.476716,34.586241],[-100.474818,34.585511],[-100.474406,34.584959],[-100.472542,34.584427],[-100.4709,34.584859],[-100.469683,34.584891],[-100.466421,34.583594],[-100.460104,34.578973],[-100.458407,34.578515],[-100.457648,34.578536],[-100.455931,34.5777],[-100.454262,34.577743],[-100.453029,34.57872],[-100.451165,34.578945],[-100.449093,34.578305],[-100.447471,34.577395],[-100.445109,34.577145],[-100.442038,34.575562],[-100.438603,34.573254],[-100.437719,34.571814],[-100.437064,34.571351],[-100.435303,34.570696],[-100.432852,34.569083],[-100.431332,34.567425],[-100.431141,34.56694],[-100.42867,34.564754],[-100.423913,34.563143],[-100.421636,34.562836],[-100.415794,34.560651],[-100.415952,34.500059],[-100.417731,34.362254],[-100.417783,34.313524],[-100.498193,34.313527],[-100.500398,34.314074],[-100.624038,34.314191],[-100.625404,34.313399],[-100.670188,34.313244],[-100.672837,34.313474],[-100.693665,34.3133],[-100.69158,34.317197],[-100.691438,34.317855],[-100.691674,34.31983],[-100.688908,34.325951],[-100.685706,34.32711],[-100.68227,34.32637],[-100.682525,34.326916],[-100.685425,34.328243],[-100.686503,34.328037],[-100.687221,34.327212],[-100.687911,34.327051],[-100.688633,34.328523],[-100.68969,34.329096],[-100.690081,34.32998],[-100.690179,34.331756],[-100.690703,34.332562],[-100.690212,34.332764],[-100.689682,34.333939],[-100.689145,34.33566],[-100.689123,34.337342],[-100.68767,34.338913],[-100.687408,34.342041],[-100.68853,34.342209],[-100.689373,34.342929],[-100.691171,34.343304],[-100.692619,34.343116],[-100.694057,34.343755],[-100.694409,34.344614],[-100.693631,34.346341],[-100.69398,34.346752],[-100.695087,34.347234],[-100.695623,34.348085],[-100.69717,34.348114],[-100.698768,34.346936],[-100.701,34.346646],[-100.702186,34.34697],[-100.702796,34.348104],[-100.701268,34.348478],[-100.700679,34.349701],[-100.699482,34.350555],[-100.699122,34.352491],[-100.69651,34.354339],[-100.696533,34.356067],[-100.696214,34.356943],[-100.695318,34.357796],[-100.694989,34.35789],[-100.692614,34.35733],[-100.691743,34.356762],[-100.69035,34.356954],[-100.688413,34.356413],[-100.686819,34.354275],[-100.686218,34.353982],[-100.683956,34.354259],[-100.683629,34.354511],[-100.683667,34.354981],[-100.684587,34.355877],[-100.684264,34.356624],[-100.684914,34.357898],[-100.684265,34.358587],[-100.683118,34.358717],[-100.68239,34.361271],[-100.682803,34.361146],[-100.68498,34.359108],[-100.687114,34.358618],[-100.689708,34.358643],[-100.690942,34.358894],[-100.693139,34.360119],[-100.697319,34.363792],[-100.699743,34.364879],[-100.703109,34.365569],[-100.705191,34.367186],[-100.707794,34.368612],[-100.711831,34.369476],[-100.709373,34.372576],[-100.708626,34.373173],[-100.706251,34.374584],[-100.705395,34.374677],[-100.70296,34.376402],[-100.702518,34.377252],[-100.702407,34.378606],[-100.701357,34.379387],[-100.698663,34.377504],[-100.698262,34.376544],[-100.695806,34.376273],[-100.696269,34.377546],[-100.696424,34.379857],[-100.697027,34.380852],[-100.697052,34.381638],[-100.696633,34.382332],[-100.697445,34.386031],[-100.697469,34.386932],[-100.696912,34.387997],[-100.697318,34.389662],[-100.694904,34.391059],[-100.694012,34.392494],[-100.692681,34.393147],[-100.691376,34.394168],[-100.690903,34.39484],[-100.692137,34.396912],[-100.692588,34.39825],[-100.694482,34.399028],[-100.697266,34.40121],[-100.698768,34.404238],[-100.700077,34.408137],[-100.701105,34.409326],[-100.701956,34.411249],[-100.70467,34.412688],[-100.705288,34.414171],[-100.706557,34.415035],[-100.708045,34.415308],[-100.70931,34.41519],[-100.712022,34.415919],[-100.719909,34.41951],[-100.722061,34.420978],[-100.723443,34.42309],[-100.724506,34.423851],[-100.725189,34.423895],[-100.725363,34.422948],[-100.726505,34.422562],[-100.729249,34.423747],[-100.730331,34.425203],[-100.732061,34.425762],[-100.735792,34.428111],[-100.736359,34.428955],[-100.736769,34.430605],[-100.737071,34.430827],[-100.741335,34.432423],[-100.744045,34.433111],[-100.745516,34.433144],[-100.747938,34.433899],[-100.748875,34.435249],[-100.749846,34.43898],[-100.75012,34.441419],[-100.749843,34.443654],[-100.749928,34.446754],[-100.750569,34.451347],[-100.754023,34.453905],[-100.754971,34.456209],[-100.756205,34.458165],[-100.757193,34.458898],[-100.760241,34.460027],[-100.763206,34.46163],[-100.763439,34.462903],[-100.763532,34.467981],[-100.763349,34.468767],[-100.772002,34.468821],[-100.772336,34.473057],[-100.774681,34.472467],[-100.780289,34.473061],[-100.784674,34.473888],[-100.764782,34.479761],[-100.762855,34.479639],[-100.756174,34.477075],[-100.748077,34.476792],[-100.742132,34.477185],[-100.740497,34.477503],[-100.732374,34.482594],[-100.730684,34.483234],[-100.729443,34.483274],[-100.728466,34.483062],[-100.723817,34.480614],[-100.722094,34.480157],[-100.720389,34.480361],[-100.714267,34.482687],[-100.714347,34.48328],[-100.715868,34.482959],[-100.716947,34.483142],[-100.717749,34.484951],[-100.721982,34.488018],[-100.722841,34.489003],[-100.72381,34.490949],[-100.724447,34.493055],[-100.724613,34.49475],[-100.725167,34.495208],[-100.725139,34.495826],[-100.724642,34.496582],[-100.724836,34.497864],[-100.722566,34.500786],[-100.722123,34.501038],[-100.72228,34.501512],[-100.719613,34.50197],[-100.717867,34.503156],[-100.715703,34.507183],[-100.714681,34.508298],[-100.713777,34.508841],[-100.712519,34.509227],[-100.709769,34.509323],[-100.709691,34.511446],[-100.709954,34.511735],[-100.708893,34.512417],[-100.708943,34.516665],[-100.700312,34.516654],[-100.698321,34.515038],[-100.697017,34.513555],[-100.696252,34.513285],[-100.676301,34.513293],[-100.674934,34.513242],[-100.672407,34.512695],[-100.667496,34.512693],[-100.66592,34.512809],[-100.662784,34.513736],[-100.657272,34.513594],[-100.654504,34.514142],[-100.652568,34.514255],[-100.651979,34.515155],[-100.652012,34.516121],[-100.650547,34.516534],[-100.65009,34.517604],[-100.648799,34.518132],[-100.647503,34.519154],[-100.647661,34.520244],[-100.646871,34.520559],[-100.646391,34.52143],[-100.646735,34.522108],[-100.64547,34.522591],[-100.644473,34.523472],[-100.643327,34.526323],[-100.643349,34.526679],[-100.644037,34.526957],[-100.644299,34.52674],[-100.644246,34.526408],[-100.644695,34.526303],[-100.64572,34.525084],[-100.646048,34.525156],[-100.646311,34.526224],[-100.645933,34.526619],[-100.646405,34.527088],[-100.645325,34.526949],[-100.645105,34.527275],[-100.645998,34.529008],[-100.646833,34.529229],[-100.647515,34.528724],[-100.648131,34.528734],[-100.648736,34.529352],[-100.647711,34.530549],[-100.646995,34.530557],[-100.646742,34.531263],[-100.64669,34.531629],[-100.64733,34.532814],[-100.647444,34.533968],[-100.647002,34.534001],[-100.645904,34.535179],[-100.644504,34.535637],[-100.643401,34.53556],[-100.640666,34.534625],[-100.639411,34.53477],[-100.634512,34.536263],[-100.633934,34.536544],[-100.632737,34.537885],[-100.630733,34.538352],[-100.630484,34.538716],[-100.631161,34.539674],[-100.631471,34.540621],[-100.631504,34.542257],[-100.629322,34.544911],[-100.625299,34.546361],[-100.623655,34.547844],[-100.622662,34.548155],[-100.621831,34.547789],[-100.619036,34.547972],[-100.617956,34.548957],[-100.617846,34.549781],[-100.619506,34.551613],[-100.619451,34.551911],[-100.616378,34.553834],[-100.61505,34.555162],[-100.614718,34.55601],[-100.614745,34.558139],[-100.61397,34.55933],[-100.612447,34.560796],[-100.611894,34.561162],[-100.610205,34.561643],[-100.603201,34.563085],[-100.602572,34.563396],[-100.601595,34.564435],[-100.601484,34.565283],[-100.602481,34.566748],[-100.602508,34.567573],[-100.601788,34.568328],[-100.60021,34.569084],[-100.599352,34.569931],[-100.597412,34.573503],[-100.597163,34.574717],[-100.594605,34.575064],[-100.593589,34.575568],[-100.592049,34.575479],[-100.591334,34.575709],[-100.588035,34.575163],[-100.5871,34.575233],[-100.586028,34.575715],[-100.58526,34.576357],[-100.584824,34.577138],[-100.584395,34.579041],[-100.583877,34.579845],[-100.579073,34.583448],[-100.577615,34.583609],[-100.575663,34.583176],[-100.574811,34.583269],[-100.573272,34.583958],[-100.570992,34.585518],[-100.569837,34.585978],[-100.569091,34.585788],[-100.56806,34.585895],[-100.566407,34.587047],[-100.564944,34.587218],[-100.564207,34.58801],[-100.563515,34.588376],[-100.561658,34.591169],[-100.560688,34.592016],[-100.559912,34.592222],[-100.557779,34.593549],[-100.557004,34.593755],[-100.554622,34.593799],[-100.551716,34.591943]]]}},{"type":"Feature","properties":{"PRECINCT":"302","VTD":"0302"},"geometry":{"type":"Polygon","coordinates":[[[-100.537711,34.72835],[-100.535736,34.726196],[-100.535804,34.725209],[-100.534855,34.725234],[-100.529339,34.719251],[-100.527912,34.717193],[-100.526366,34.715597],[-100.522361,34.712662],[-100.521026,34.711966],[-100.516339,34.711165],[-100.514018,34.710052],[-100.511451,34.70804],[-100.505689,34.701563],[-100.506015,34.669827],[-100.505576,34.668827],[-100.505362,34.667296],[-100.505036,34.65976],[-100.505846,34.659749],[-100.506053,34.659393],[-100.50618,34.638997],[-100.505883,34.638647],[-100.502194,34.638615],[-100.50223,34.630684],[-100.501546,34.629808],[-100.500027,34.629663],[-100.499936,34.627083],[-100.49949,34.62692],[-100.491375,34.62695],[-100.491136,34.627485],[-100.491184,34.630604],[-100.475948,34.630652],[-100.464297,34.598958],[-100.463581,34.598069],[-100.462231,34.59705],[-100.448533,34.588387],[-100.447805,34.589166],[-100.44718,34.589436],[-100.432378,34.589522],[-100.428552,34.590635],[-100.415912,34.59065],[-100.415794,34.560651],[-100.421636,34.562836],[-100.423913,34.563143],[-100.42867,34.564754],[-100.431141,34.56694],[-100.431332,34.567425],[-100.432852,34.569083],[-100.435303,34.570696],[-100.437064,34.571351],[-100.437719,34.571814],[-100.438603,34.573254],[-100.442038,34.575562],[-100.445109,34.577145],[-100.447471,34.577395],[-100.449093,34.578305],[-100.451165,34.578945],[-100.453029,34.57872],[-100.454262,34.577743],[-100.455931,34.5777],[-100.457648,34.578536],[-100.458407,34.578515],[-100.460104,34.578973],[-100.466421,34.583594],[-100.469683,34.584891],[-100.4709,34.584859],[-100.472542,34.584427],[-100.474406,34.584959],[-100.474818,34.585511],[-100.476716,34.586241],[-100.477496,34.586356],[-100.479556,34.58721],[-100.481277,34.587562],[-100.482242,34.588182],[-100.483979,34.588788],[-100.485524,34.588767],[-100.486422,34.588257],[-100.489609,34.587546],[-100.491402,34.587616],[-100.492888,34.587948],[-100.494186,34.587909],[-100.496961,34.585632],[-100.498716,34.583676],[-100.499717,34.583338],[-100.502095,34.584508],[-100.503406,34.585526],[-100.503964,34.586334],[-100.503953,34.587486],[-100.502997,34.59064],[-100.502109,34.595779],[-100.504345,34.595244],[-100.506047,34.595415],[-100.507447,34.595279],[-100.508306,34.594928],[-100.509949,34.593754],[-100.510472,34.59745],[-100.509513,34.601214],[-100.507785,34.604573],[-100.506637,34.605912],[-100.504235,34.607924],[-100.50325,34.609364],[-100.503103,34.611251],[-100.504376,34.614414],[-100.503996,34.618148],[-100.504266,34.619913],[-100.505029,34.62111],[-100.506125,34.621323],[-100.506342,34.62154],[-100.505769,34.625003],[-100.506662,34.625801],[-100.507198,34.627345],[-100.508634,34.628995],[-100.510346,34.630292],[-100.511136,34.630228],[-100.512039,34.630656],[-100.513071,34.631625],[-100.513077,34.63237],[-100.513568,34.632917],[-100.514456,34.634998],[-100.514382,34.63608],[-100.515129,34.636739],[-100.51502,34.63942],[-100.515431,34.641261],[-100.515814,34.641792],[-100.517648,34.642713],[-100.519843,34.64577],[-100.518851,34.647263],[-100.517964,34.648067],[-100.517566,34.649255],[-100.517756,34.649641],[-100.519001,34.650316],[-100.51922,34.651103],[-100.519019,34.652367],[-100.518079,34.653502],[-100.517918,34.654075],[-100.518289,34.655336],[-100.518164,34.656131],[-100.517282,34.65675],[-100.51455,34.656914],[-100.514004,34.657241],[-100.513808,34.657945],[-100.514972,34.658678],[-100.51508,34.659421],[-100.513444,34.661917],[-100.514109,34.66297],[-100.516089,34.664247],[-100.516637,34.665046],[-100.516738,34.665917],[-100.517169,34.666304],[-100.517114,34.667337],[-100.518088,34.669132],[-100.518096,34.671678],[-100.518462,34.672467],[-100.519087,34.672996],[-100.519338,34.673742],[-100.519089,34.675999],[-100.51962,34.676313],[-100.520535,34.675838],[-100.521049,34.675808],[-100.521775,34.67657],[-100.521819,34.67822],[-100.52088,34.680503],[-100.520635,34.681737],[-100.521449,34.682841],[-100.522171,34.683338],[-100.522382,34.684015],[-100.522022,34.685362],[-100.521196,34.686985],[-100.521003,34.688222],[-100.521836,34.68894],[-100.524575,34.689596],[-100.525333,34.690184],[-100.525652,34.690799],[-100.525444,34.692158],[-100.524781,34.693612],[-100.522972,34.693737],[-100.522782,34.694072],[-100.522465,34.69396],[-100.522119,34.694162],[-100.521926,34.694609],[-100.523695,34.695814],[-100.524362,34.696615],[-100.525459,34.699092],[-100.525787,34.700479],[-100.526909,34.701594],[-100.527516,34.702078],[-100.530626,34.703144],[-100.530702,34.703895],[-100.529364,34.704146],[-100.528731,34.704652],[-100.52835,34.706229],[-100.529174,34.706828],[-100.531499,34.706677],[-100.532076,34.706845],[-100.533476,34.708941],[-100.533453,34.709932],[-100.534903,34.713415],[-100.535924,34.713831],[-100.537132,34.713803],[-100.537138,34.714283],[-100.538214,34.714302],[-100.538244,34.714804],[-100.539402,34.714803],[-100.540902,34.715542],[-100.540885,34.71631],[-100.542215,34.716213],[-100.542195,34.717976],[-100.548267,34.717981],[-100.548244,34.721046],[-100.542162,34.721068],[-100.542138,34.723145],[-100.544665,34.723172],[-100.544651,34.724191],[-100.537034,34.724179],[-100.537056,34.726247],[-100.544649,34.726279],[-100.544657,34.727293],[-100.538329,34.727335],[-100.538324,34.72835],[-100.537711,34.72835]]]}},{"type":"Feature","properties":{"PRECINCT":"401","VTD":"0401"},"geometry":{"type":"Polygon","coordinates":[[[-100.9439,34.628344],[-100.939629,34.628371],[-100.938615,34.627664],[-100.938328,34.626225],[-100.935583,34.626218],[-100.932169,34.625209],[-100.929036,34.625022],[-100.926338,34.626048],[-100.92536,34.626141],[-100.922673,34.625982],[-100.919371,34.625265],[-100.918272,34.625265],[-100.916493,34.625676],[-100.915354,34.625419],[-100.914458,34.625465],[-100.910409,34.626885],[-100.906965,34.623955],[-100.906182,34.623758],[-100.905677,34.622039],[-100.90575,34.618779],[-100.90462,34.61709],[-100.899008,34.616084],[-100.897269,34.615447],[-100.89539,34.614388],[-100.892861,34.613682],[-100.888635,34.611822],[-100.887471,34.611565],[-100.884165,34.610218],[-100.881048,34.610837],[-100.878947,34.611],[-100.878887,34.611382],[-100.877927,34.611751],[-100.875915,34.613216],[-100.874751,34.613486],[-100.874087,34.613358],[-100.873184,34.613925],[-100.870565,34.613987],[-100.868381,34.61612],[-100.867264,34.616459],[-100.86643,34.61746],[-100.865548,34.618058],[-100.862823,34.617338],[-100.861585,34.616656],[-100.860698,34.61669],[-100.858229,34.617711],[-100.856621,34.617714],[-100.85257,34.617093],[-100.850918,34.616385],[-100.848053,34.614415],[-100.845301,34.613755],[-100.844734,34.613342],[-100.843178,34.611426],[-100.842651,34.609607],[-100.840615,34.606818],[-100.838629,34.604726],[-100.838349,34.603942],[-100.836459,34.601992],[-100.833659,34.600393],[-100.831299,34.598276],[-100.829687,34.597462],[-100.828686,34.59642],[-100.827724,34.596566],[-100.826535,34.595725],[-100.825747,34.595634],[-100.822035,34.596015],[-100.819486,34.595444],[-100.819104,34.593761],[-100.81764,34.592907],[-100.816592,34.591663],[-100.816597,34.589608],[-100.816322,34.589233],[-100.815963,34.588927],[-100.812784,34.587877],[-100.811954,34.58696],[-100.810266,34.586021],[-100.810157,34.583525],[-100.808995,34.582746],[-100.808258,34.581054],[-100.807353,34.579854],[-100.806897,34.577288],[-100.806229,34.57682],[-100.803908,34.576278],[-100.80271,34.575575],[-100.799654,34.574548],[-100.795719,34.57195],[-100.79349,34.572023],[-100.792312,34.571753],[-100.791529,34.571293],[-100.791181,34.572538],[-100.790296,34.573262],[-100.788139,34.57363],[-100.787027,34.57336],[-100.786488,34.573515],[-100.785789,34.574],[-100.785219,34.575385],[-100.78429,34.575726],[-100.783286,34.575821],[-100.782279,34.575455],[-100.780452,34.575263],[-100.779912,34.575418],[-100.779262,34.576502],[-100.778577,34.576792],[-100.778435,34.577207],[-100.77461,34.577373],[-100.771541,34.576262],[-100.768508,34.576045],[-100.768315,34.577176],[-100.768018,34.576779],[-100.766006,34.576612],[-100.762059,34.575004],[-100.761567,34.574726],[-100.761235,34.573534],[-100.760289,34.573561],[-100.759334,34.572957],[-100.758553,34.573046],[-100.75812,34.572473],[-100.757349,34.572253],[-100.755192,34.572224],[-100.753557,34.57303],[-100.751189,34.57243],[-100.750588,34.572548],[-100.750078,34.572964],[-100.749275,34.572998],[-100.747561,34.571987],[-100.746535,34.572146],[-100.745269,34.573131],[-100.743598,34.572626],[-100.741191,34.57119],[-100.740651,34.570419],[-100.73823,34.568543],[-100.736446,34.568037],[-100.735124,34.568043],[-100.733717,34.566754],[-100.731919,34.56624],[-100.731057,34.5663],[-100.730642,34.564529],[-100.728665,34.563189],[-100.728175,34.563068],[-100.725471,34.563716],[-100.723403,34.563713],[-100.720989,34.563382],[-100.71974,34.564162],[-100.718188,34.564506],[-100.71448,34.564157],[-100.713386,34.562918],[-100.712323,34.562767],[-100.710467,34.563123],[-100.707507,34.56466],[-100.705403,34.564638],[-100.703992,34.564937],[-100.702385,34.564251],[-100.6979,34.563681],[-100.695906,34.562263],[-100.694688,34.562126],[-100.692141,34.561189],[-100.689677,34.560755],[-100.686852,34.558581],[-100.684886,34.557941],[-100.683224,34.55682],[-100.679903,34.556638],[-100.679238,34.556226],[-100.678739,34.555471],[-100.677051,34.555059],[-100.673728,34.55245],[-100.67287,34.552359],[-100.670213,34.553116],[-100.669493,34.553116],[-100.668548,34.552757],[-100.668837,34.546959],[-100.668905,34.532802],[-100.669195,34.532137],[-100.665821,34.531851],[-100.664517,34.531407],[-100.661166,34.531264],[-100.65336,34.531899],[-100.653559,34.53092],[-100.653579,34.514202],[-100.657272,34.513594],[-100.663051,34.513708],[-100.66592,34.512809],[-100.667496,34.512693],[-100.672407,34.512695],[-100.674934,34.513242],[-100.676301,34.513293],[-100.696252,34.513285],[-100.697017,34.513555],[-100.698321,34.515038],[-100.700312,34.516654],[-100.708943,34.516665],[-100.708893,34.512417],[-100.709954,34.511735],[-100.709691,34.511446],[-100.709769,34.509323],[-100.712519,34.509227],[-100.713777,34.508841],[-100.714681,34.508298],[-100.715703,34.507183],[-100.717867,34.503156],[-100.719613,34.50197],[-100.72228,34.501512],[-100.722123,34.501038],[-100.722566,34.500786],[-100.724836,34.497864],[-100.724642,34.496582],[-100.725139,34.495826],[-100.725167,34.495208],[-100.724613,34.49475],[-100.724447,34.493055],[-100.72381,34.490949],[-100.722841,34.489003],[-100.721982,34.488018],[-100.717749,34.484951],[-100.716947,34.483142],[-100.715868,34.482959],[-100.714347,34.48328],[-100.714267,34.482687],[-100.720389,34.480361],[-100.722094,34.480157],[-100.723817,34.480614],[-100.728466,34.483062],[-100.729443,34.483274],[-100.730684,34.483234],[-100.732374,34.482594],[-100.740497,34.477503],[-100.742132,34.477185],[-100.748077,34.476792],[-100.756174,34.477075],[-100.762855,34.479639],[-100.764782,34.479761],[-100.784674,34.473888],[-100.780289,34.473061],[-100.774681,34.472467],[-100.772336,34.473057],[-100.772002,34.468821],[-100.763349,34.468767],[-100.763532,34.467981],[-100.763439,34.462903],[-100.763206,34.46163],[-100.760241,34.460027],[-100.757193,34.458898],[-100.756205,34.458165],[-100.754971,34.456209],[-100.754023,34.453905],[-100.750569,34.451347],[-100.749928,34.446754],[-100.749843,34.443654],[-100.75012,34.441419],[-100.749846,34.43898],[-100.748875,34.435249],[-100.747938,34.433899],[-100.745516,34.433144],[-100.744045,34.433111],[-100.741335,34.432423],[-100.737071,34.430827],[-100.736769,34.430605],[-100.736359,34.428955],[-100.735792,34.428111],[-100.732061,34.425762],[-100.730331,34.425203],[-100.729249,34.423747],[-100.726505,34.422562],[-100.725363,34.422948],[-100.725189,34.423895],[-100.724506,34.423851],[-100.723443,34.42309],[-100.722061,34.420978],[-100.719909,34.41951],[-100.712022,34.415919],[-100.70931,34.41519],[-100.708045,34.415308],[-100.706557,34.415035],[-100.705288,34.414171],[-100.70467,34.412688],[-100.701956,34.411249],[-100.701105,34.409326],[-100.700077,34.408137],[-100.698768,34.404238],[-100.697266,34.40121],[-100.694482,34.399028],[-100.692588,34.39825],[-100.692137,34.396912],[-100.690903,34.39484],[-100.691376,34.394168],[-100.692681,34.393147],[-100.694012,34.392494],[-100.694904,34.391059],[-100.697318,34.389662],[-100.696912,34.387997],[-100.697469,34.386932],[-100.697445,34.386031],[-100.696633,34.382332],[-100.697052,34.381638],[-100.697027,34.380852],[-100.696424,34.379857],[-100.696269,34.377546],[-100.695806,34.376273],[-100.698262,34.376544],[-100.698663,34.377504],[-100.701357,34.379387],[-100.702407,34.378606],[-100.702518,34.377252],[-100.70296,34.376402],[-100.705395,34.374677],[-100.706251,34.374584],[-100.708626,34.373173],[-100.709373,34.372576],[-100.711831,34.369476],[-100.707794,34.368612],[-100.705191,34.367186],[-100.703109,34.365569],[-100.699743,34.364879],[-100.697319,34.363792],[-100.693139,34.360119],[-100.690942,34.358894],[-100.689708,34.358643],[-100.687114,34.358618],[-100.68498,34.359108],[-100.682803,34.361146],[-100.68239,34.361271],[-100.683118,34.358717],[-100.684265,34.358587],[-100.684914,34.357898],[-100.684264,34.356624],[-100.684587,34.355877],[-100.683667,34.354981],[-100.683629,34.354511],[-100.683956,34.354259],[-100.686218,34.353982],[-100.686819,34.354275],[-100.688413,34.356413],[-100.69035,34.356954],[-100.691743,34.356762],[-100.692614,34.35733],[-100.694989,34.35789],[-100.695318,34.357796],[-100.696214,34.356943],[-100.696533,34.356067],[-100.69651,34.354339],[-100.699122,34.352491],[-100.699482,34.350555],[-100.700679,34.349701],[-100.701268,34.348478],[-100.702796,34.348104],[-100.702186,34.34697],[-100.701,34.346646],[-100.698768,34.346936],[-100.69717,34.348114],[-100.695623,34.348085],[-100.695087,34.347234],[-100.69398,34.346752],[-100.693631,34.346341],[-100.694409,34.344614],[-100.694057,34.343755],[-100.692619,34.343116],[-100.691171,34.343304],[-100.689373,34.342929],[-100.68853,34.342209],[-100.687408,34.342041],[-100.68767,34.338913],[-100.689123,34.337342],[-100.689145,34.33566],[-100.689682,34.333939],[-100.690212,34.332764],[-100.690703,34.332562],[-100.690179,34.331756],[-100.690081,34.32998],[-100.68969,34.329096],[-100.688633,34.328523],[-100.687911,34.327051],[-100.687221,34.327212],[-100.686503,34.328037],[-100.685425,34.328243],[-100.682525,34.326916],[-100.68227,34.32637],[-100.685706,34.32711],[-100.688908,34.325951],[-100.691674,34.31983],[-100.691438,34.317855],[-100.69158,34.317197],[-100.693665,34.3133],[-100.75041,34.313399],[-100.798618,34.313015],[-100.813271,34.313222],[-100.835972,34.312966],[-100.874787,34.313114],[-100.946132,34.312759],[-100.946372,34.370028],[-100.945828,34.385948],[-100.945462,34.484497],[-100.945819,34.487443],[-100.945391,34.494427],[-100.94522,34.629966],[-100.944746,34.629675],[-100.944371,34.628582],[-100.9439,34.628344]]]}},{"type":"Feature","properties":{"PRECINCT":"402","VTD":"0402"},"geometry":{"type":"Polygon","coordinates":[[[-100.552109,34.730481],[-100.552108,34.727345],[-100.545899,34.727305],[-100.545916,34.725242],[-100.537026,34.725204],[-100.537034,34.724179],[-100.544651,34.724191],[-100.544665,34.723172],[-100.542138,34.723145],[-100.542162,34.721068],[-100.548244,34.721046],[-100.548267,34.717981],[-100.542195,34.717976],[-100.542215,34.716213],[-100.540885,34.71631],[-100.540902,34.715542],[-100.539402,34.714803],[-100.538244,34.714804],[-100.538214,34.714302],[-100.537138,34.714283],[-100.537132,34.713803],[-100.535924,34.713831],[-100.534903,34.713415],[-100.533453,34.709932],[-100.533476,34.708941],[-100.532076,34.706845],[-100.531499,34.706677],[-100.529174,34.706828],[-100.52835,34.706229],[-100.528731,34.704652],[-100.529364,34.704146],[-100.530702,34.703895],[-100.530626,34.703144],[-100.527516,34.702078],[-100.526909,34.701594],[-100.525787,34.700479],[-100.525459,34.699092],[-100.524362,34.696615],[-100.523695,34.695814],[-100.521926,34.694609],[-100.522119,34.694162],[-100.522465,34.69396],[-100.522782,34.694072],[-100.522972,34.693737],[-100.524781,34.693612],[-100.525444,34.692158],[-100.525652,34.690799],[-100.525333,34.690184],[-100.524575,34.689596],[-100.521836,34.68894],[-100.521003,34.688222],[-100.521196,34.686985],[-100.522022,34.685362],[-100.522382,34.684015],[-100.522171,34.683338],[-100.521449,34.682841],[-100.520635,34.681737],[-100.52088,34.680503],[-100.521819,34.67822],[-100.521775,34.67657],[-100.521049,34.675808],[-100.520535,34.675838],[-100.51962,34.676313],[-100.519089,34.675999],[-100.519338,34.673742],[-100.519087,34.672996],[-100.518462,34.672467],[-100.518096,34.671678],[-100.518088,34.669132],[-100.517114,34.667337],[-100.517169,34.666304],[-100.516738,34.665917],[-100.516637,34.665046],[-100.516089,34.664247],[-100.514109,34.66297],[-100.513444,34.661917],[-100.51508,34.659421],[-100.514972,34.658678],[-100.513808,34.657945],[-100.514004,34.657241],[-100.51455,34.656914],[-100.517282,34.65675],[-100.518164,34.656131],[-100.518289,34.655336],[-100.517918,34.654075],[-100.518079,34.653502],[-100.519019,34.652367],[-100.51922,34.651103],[-100.519001,34.650316],[-100.517756,34.649641],[-100.517566,34.649255],[-100.517964,34.648067],[-100.518851,34.647263],[-100.519843,34.64577],[-100.517648,34.642713],[-100.515814,34.641792],[-100.515431,34.641261],[-100.51502,34.63942],[-100.515129,34.636739],[-100.514382,34.63608],[-100.514456,34.634998],[-100.513568,34.632917],[-100.513077,34.63237],[-100.513071,34.631625],[-100.51145,34.630319],[-100.510346,34.630292],[-100.508503,34.628876],[-100.507275,34.627466],[-100.506662,34.625801],[-100.505723,34.624857],[-100.506319,34.621475],[-100.505029,34.62111],[-100.50424,34.619829],[-100.503996,34.618148],[-100.504434,34.614915],[-100.504252,34.613957],[-100.503188,34.611647],[-100.503093,34.609681],[-100.504235,34.607924],[-100.506733,34.605819],[-100.508444,34.603597],[-100.509513,34.601214],[-100.510476,34.597366],[-100.509949,34.593754],[-100.508306,34.594928],[-100.507447,34.595279],[-100.506047,34.595415],[-100.504345,34.595244],[-100.502109,34.595779],[-100.502997,34.59064],[-100.503953,34.587486],[-100.505974,34.58735],[-100.509271,34.58598],[-100.510712,34.585729],[-100.513285,34.586808],[-100.514836,34.586809],[-100.516469,34.587383],[-100.519127,34.587797],[-100.520318,34.587753],[-100.521897,34.587273],[-100.523226,34.586564],[-100.523753,34.58661],[-100.524168,34.586725],[-100.525081,34.587665],[-100.525079,34.588879],[-100.5253,34.589062],[-100.526132,34.588948],[-100.52832,34.587988],[-100.528902,34.588011],[-100.531891,34.589181],[-100.532556,34.589182],[-100.533304,34.588495],[-100.533886,34.58829],[-100.536406,34.588131],[-100.540337,34.589279],[-100.54615,34.59155],[-100.547977,34.591918],[-100.549001,34.592468],[-100.549916,34.591987],[-100.551134,34.591805],[-100.552242,34.592172],[-100.553376,34.593134],[-100.554622,34.593799],[-100.557004,34.593755],[-100.55861,34.59316],[-100.559912,34.592222],[-100.560688,34.592016],[-100.561658,34.591169],[-100.563515,34.588376],[-100.564207,34.58801],[-100.564944,34.587218],[-100.566407,34.587047],[-100.56806,34.585895],[-100.569091,34.585788],[-100.569837,34.585978],[-100.570992,34.585518],[-100.573272,34.583958],[-100.574811,34.583269],[-100.575663,34.583176],[-100.577615,34.583609],[-100.579073,34.583448],[-100.583877,34.579845],[-100.584395,34.579041],[-100.584824,34.577138],[-100.58526,34.576357],[-100.586028,34.575715],[-100.5871,34.575233],[-100.588035,34.575163],[-100.591334,34.575709],[-100.592049,34.575479],[-100.593589,34.575568],[-100.594605,34.575064],[-100.597163,34.574717],[-100.597412,34.573503],[-100.599352,34.569931],[-100.60021,34.569084],[-100.601788,34.568328],[-100.602508,34.567573],[-100.602481,34.566748],[-100.601484,34.565283],[-100.601595,34.564435],[-100.602572,34.563396],[-100.603201,34.563085],[-100.610205,34.561643],[-100.611894,34.561162],[-100.612447,34.560796],[-100.61397,34.55933],[-100.614745,34.558139],[-100.614718,34.55601],[-100.61505,34.555162],[-100.616378,34.553834],[-100.619451,34.551911],[-100.619506,34.551613],[-100.617846,34.549781],[-100.617956,34.548957],[-100.619036,34.547972],[-100.621831,34.547789],[-100.622662,34.548155],[-100.623655,34.547844],[-100.625299,34.546361],[-100.629322,34.544911],[-100.631504,34.542257],[-100.631471,34.540621],[-100.631161,34.539674],[-100.630484,34.538716],[-100.630733,34.538352],[-100.632737,34.537885],[-100.633934,34.536544],[-100.634512,34.536263],[-100.639411,34.53477],[-100.640666,34.534625],[-100.643401,34.53556],[-100.644504,34.535637],[-100.645904,34.535179],[-100.647002,34.534001],[-100.647444,34.533968],[-100.64733,34.532814],[-100.64669,34.531629],[-100.646742,34.531263],[-100.646995,34.530557],[-100.647711,34.530549],[-100.648736,34.529352],[-100.648131,34.528734],[-100.647515,34.528724],[-100.646833,34.529229],[-100.645998,34.529008],[-100.645105,34.527275],[-100.645325,34.526949],[-100.646405,34.527088],[-100.645933,34.526619],[-100.646311,34.526224],[-100.646048,34.525156],[-100.64572,34.525084],[-100.644695,34.526303],[-100.644246,34.526408],[-100.644299,34.52674],[-100.644037,34.526957],[-100.643349,34.526679],[-100.643327,34.526323],[-100.644473,34.523472],[-100.64547,34.522591],[-100.646735,34.522108],[-100.646391,34.52143],[-100.646871,34.520559],[-100.647661,34.520244],[-100.647528,34.519124],[-100.648799,34.518132],[-100.65009,34.517604],[-100.650547,34.516534],[-100.652012,34.516121],[-100.651979,34.515155],[-100.652568,34.514255],[-100.653579,34.514202],[-100.653559,34.53092],[-100.65336,34.531899],[-100.661166,34.531264],[-100.664517,34.531407],[-100.665821,34.531851],[-100.669195,34.532137],[-100.668905,34.532802],[-100.668837,34.546959],[-100.668548,34.552757],[-100.669493,34.553116],[-100.670213,34.553116],[-100.67287,34.552359],[-100.673728,34.55245],[-100.677051,34.555059],[-100.678739,34.555471],[-100.679238,34.556226],[-100.679903,34.556638],[-100.683224,34.55682],[-100.684886,34.557941],[-100.686852,34.558581],[-100.689677,34.560755],[-100.692141,34.561189],[-100.694688,34.562126],[-100.695906,34.562263],[-100.6979,34.563681],[-100.702385,34.564251],[-100.703992,34.564937],[-100.705403,34.564638],[-100.707507,34.56466],[-100.710467,34.563123],[-100.712323,34.562767],[-100.713386,34.562918],[-100.71448,34.564157],[-100.718188,34.564506],[-100.71974,34.564162],[-100.720989,34.563382],[-100.723403,34.563713],[-100.725471,34.563716],[-100.727515,34.563128],[-100.728665,34.563189],[-100.730642,34.564529],[-100.731057,34.5663],[-100.731919,34.56624],[-100.733717,34.566754],[-100.735124,34.568043],[-100.736446,34.568037],[-100.73823,34.568543],[-100.740651,34.570419],[-100.741191,34.57119],[-100.743598,34.572626],[-100.745269,34.573131],[-100.746686,34.572093],[-100.743095,34.577601],[-100.737594,34.58217],[-100.736896,34.583477],[-100.737048,34.602986],[-100.725171,34.60314],[-100.723568,34.603554],[-100.718533,34.605705],[-100.717309,34.605877],[-100.663975,34.606013],[-100.664108,34.615044],[-100.664355,34.615234],[-100.665958,34.615309],[-100.666302,34.615767],[-100.666605,34.644719],[-100.666285,34.645165],[-100.664402,34.645291],[-100.664323,34.659698],[-100.629186,34.659786],[-100.629167,34.666463],[-100.628737,34.667371],[-100.629063,34.679614],[-100.628907,34.693819],[-100.623059,34.695734],[-100.609728,34.701415],[-100.59683,34.704568],[-100.563243,34.718006],[-100.549298,34.717984],[-100.54931,34.724219],[-100.550954,34.724222],[-100.550975,34.725264],[-100.553994,34.725256],[-100.553989,34.728412],[-100.553331,34.728414],[-100.553304,34.729306],[-100.552957,34.729418],[-100.552954,34.730466],[-100.552109,34.730481]]]}}]}