{"type":"FeatureCollection","features":[{"type":"Feature","properties":{"PRECINCT":"101","VTD":"0101"},"geometry":{"type":"Polygon","coordinates":[[[-102.496541,31.841942],[-102.562546,31.826636],[-102.575805,31.866199],[-102.586364,31.899325],[-102.477754,31.886927],[-102.472059,31.886129],[-102.46397,31.885343],[-102.457009,31.884379],[-102.455522,31.881213],[-102.451269,31.8676],[-102.501001,31.85598],[-102.496541,31.841942]]]}},{"type":"Feature","properties":{"PRECINCT":"102","VTD":"0102"},"geometry":{"type":"Polygon","coordinates":[[[-102.517528,31.767325],[-102.539775,31.761001],[-102.545455,31.776932],[-102.548847,31.784282],[-102.562501,31.826502],[-102.56238,31.826674],[-102.496541,31.841942],[-102.479046,31.786988],[-102.486448,31.782897],[-102.515015,31.7682],[-102.517528,31.767325]]]}},{"type":"Feature","properties":{"PRECINCT":"103","VTD":"0103"},"geometry":{"type":"Polygon","coordinates":[[[-102.442674,31.83939],[-102.492057,31.827806],[-102.496541,31.841942],[-102.41472,31.860879],[-102.413341,31.858811],[-102.409447,31.846883],[-102.442674,31.83939]]]}},{"type":"Feature","properties":{"PRECINCT":"104","VTD":"0104"},"geometry":{"type":"Polygon","coordinates":[[[-102.414962,31.860824],[-102.496541,31.841942],[-102.501001,31.85598],[-102.451269,31.8676],[-102.455522,31.881213],[-102.457009,31.884379],[-102.448137,31.883519],[-102.444008,31.882886],[-102.425456,31.876924],[-102.420259,31.874957],[-102.418132,31.870116],[-102.414962,31.860824]]]}},{"type":"Feature","properties":{"PRECINCT":"108","VTD":"0108"},"geometry":{"type":"Polygon","coordinates":[[[-102.409962,31.960294],[-102.396296,31.919213],[-102.394222,31.912766],[-102.393891,31.910522],[-102.402072,31.908751],[-102.41017,31.90658],[-102.40149,31.878733],[-102.419121,31.874915],[-102.419042,31.874557],[-102.419967,31.874861],[-102.422398,31.882344],[-102.423882,31.889287],[-102.428888,31.906715],[-102.432625,31.918533],[-102.434343,31.925272],[-102.437303,31.934623],[-102.437516,31.937379],[-102.437202,31.93874],[-102.435738,31.941195],[-102.422982,31.955518],[-102.420523,31.957321],[-102.417596,31.958502],[-102.409962,31.960294]]]}},{"type":"Feature","properties":{"PRECINCT":"109","VTD":"0109"},"geometry":{"type":"Polygon","coordinates":[[[-102.799086,32.085795],[-102.717894,32.086947],[-102.70692,32.086732],[-102.450818,32.087018],[-102.430823,32.024454],[-102.428585,32.018275],[-102.409962,31.960294],[-102.417596,31.958502],[-102.420523,31.957321],[-102.421825,31.956487],[-102.423996,31.954441],[-102.435738,31.941195],[-102.437202,31.93874],[-102.437516,31.937379],[-102.437303,31.934623],[-102.427762,31.90287],[-102.423882,31.889287],[-102.422398,31.882344],[-102.419967,31.874861],[-102.423028,31.875863],[-102.425456,31.876924],[-102.442792,31.88255],[-102.446269,31.8833],[-102.457009,31.884379],[-102.46397,31.885343],[-102.472059,31.886129],[-102.477754,31.886927],[-102.586364,31.899325],[-102.575805,31.866199],[-102.562546,31.826636],[-102.56238,31.826674],[-102.562501,31.826502],[-102.548847,31.784282],[-102.545455,31.776932],[-102.539836,31.76116],[-102.546707,31.759197],[-102.549662,31.758],[-102.578348,31.741995],[-102.609924,31.730876],[-102.696094,31.680634],[-102.699983,31.677937],[-102.705507,31.672881],[-102.708095,31.671107],[-102.710392,31.670008],[-102.717089,31.667732],[-102.72113,31.665951],[-102.745942,31.65152],[-102.798939,31.651783],[-102.797552,31.772709],[-102.798362,31.846116],[-102.798549,31.978695],[-102.799086,32.085795]]]}},{"type":"Feature","properties":{"PRECINCT":"110","VTD":"0110"},"geometry":{"type":"Polygon","coordinates":[[[-102.393791,31.910545],[-102.394222,31.912766],[-102.403579,31.941097],[-102.396685,31.942638],[-102.395824,31.943022],[-102.395333,31.943583],[-102.39471,31.945192],[-102.393842,31.945779],[-102.392827,31.946008],[-102.393522,31.948293],[-102.392826,31.94846],[-102.391421,31.949423],[-102.388625,31.950094],[-102.390631,31.956307],[-102.390165,31.956412],[-102.390848,31.958544],[-102.390704,31.958662],[-102.379729,31.949943],[-102.377791,31.947714],[-102.37552,31.945753],[-102.373041,31.944006],[-102.370306,31.942528],[-102.363126,31.936881],[-102.351916,31.925025],[-102.350712,31.924133],[-102.34855,31.923045],[-102.349172,31.921844],[-102.350612,31.920589],[-102.352654,31.919742],[-102.393791,31.910545]]]}},{"type":"Feature","properties":{"PRECINCT":"111","VTD":"0111"},"geometry":{"type":"Polygon","coordinates":[[[-102.396685,31.942638],[-102.403771,31.941054],[-102.409962,31.960294],[-102.4012,31.962335],[-102.398458,31.962505],[-102.397025,31.962305],[-102.394107,31.961213],[-102.390704,31.958662],[-102.390848,31.958544],[-102.390165,31.956412],[-102.390631,31.956307],[-102.388625,31.950094],[-102.391421,31.949423],[-102.392826,31.94846],[-102.393522,31.948293],[-102.392827,31.946008],[-102.393842,31.945779],[-102.39471,31.945192],[-102.395333,31.943583],[-102.395824,31.943022],[-102.396685,31.942638]]]}},{"type":"Feature","properties":{"PRECINCT":"201","VTD":"0201"},"geometry":{"type":"Polygon","coordinates":[[[-102.3003,31.955009],[-102.298076,31.948014],[-102.287392,31.95054],[-102.287338,31.8969],[-102.291534,31.894997],[-102.29157,31.894691],[-102.289682,31.893319],[-102.289198,31.89369],[-102.288007,31.892826],[-102.288322,31.892493],[-102.288866,31.892782],[-102.292404,31.891781],[-102.292712,31.889936],[-102.291711,31.889117],[-102.289988,31.888862],[-102.289733,31.888656],[-102.290288,31.886502],[-102.289783,31.888475],[-102.291955,31.888741],[-102.29557,31.88785],[-102.297945,31.894598],[-102.299415,31.896264],[-102.299903,31.897178],[-102.302849,31.90635],[-102.291987,31.919224],[-102.29765,31.922444],[-102.306979,31.926494],[-102.308912,31.92795],[-102.310135,31.929826],[-102.314642,31.943903],[-102.318479,31.942952],[-102.32093,31.950021],[-102.31969,31.950328],[-102.319645,31.950182],[-102.3003,31.955009]]]}},{"type":"Feature","properties":{"PRECINCT":"202","VTD":"0202"},"geometry":{"type":"Polygon","coordinates":[[[-102.321971,31.869793],[-102.320799,31.868193],[-102.325504,31.86577],[-102.326424,31.869226],[-102.330929,31.868228],[-102.33341,31.867245],[-102.342583,31.865203],[-102.343882,31.864999],[-102.34497,31.865112],[-102.346459,31.865493],[-102.345628,31.867921],[-102.345538,31.869533],[-102.347307,31.8756],[-102.329546,31.879499],[-102.328256,31.875398],[-102.327799,31.874649],[-102.321971,31.869793]]]}},{"type":"Feature","properties":{"PRECINCT":"203","VTD":"0203"},"geometry":{"type":"Polygon","coordinates":[[[-102.296878,31.887524],[-102.294906,31.8815],[-102.310039,31.873706],[-102.311218,31.876072],[-102.313577,31.883397],[-102.329546,31.879499],[-102.337354,31.877812],[-102.341766,31.89181],[-102.334064,31.893496],[-102.317315,31.896316],[-102.312051,31.897563],[-102.30977,31.898745],[-102.308211,31.900032],[-102.302849,31.90635],[-102.299903,31.897178],[-102.299415,31.896264],[-102.297945,31.894598],[-102.29557,31.88785],[-102.296878,31.887524]]]}},{"type":"Feature","properties":{"PRECINCT":"204","VTD":"0204"},"geometry":{"type":"Polygon","coordinates":[[[-102.35341,31.873829],[-102.355565,31.873771],[-102.357712,31.873333],[-102.359174,31.877404],[-102.363604,31.880548],[-102.363018,31.881536],[-102.363411,31.883729],[-102.364372,31.886858],[-102.341766,31.89181],[-102.337354,31.877812],[-102.351601,31.874643],[-102.35341,31.873829]]]}},{"type":"Feature","properties":{"PRECINCT":"205","VTD":"0205"},"geometry":{"type":"Polygon","coordinates":[[[-102.365,31.90173],[-102.363907,31.898116],[-102.361559,31.898629],[-102.360774,31.896601],[-102.356892,31.892253],[-102.355817,31.888733],[-102.36825,31.886008],[-102.372635,31.900066],[-102.365,31.90173]]]}},{"type":"Feature","properties":{"PRECINCT":"206","VTD":"0206"},"geometry":{"type":"Polygon","coordinates":[[[-102.334064,31.893496],[-102.341766,31.89181],[-102.346204,31.905856],[-102.340828,31.907033],[-102.343218,31.91552],[-102.342999,31.917075],[-102.341471,31.920425],[-102.341674,31.920489],[-102.34158,31.920712],[-102.34855,31.923045],[-102.346931,31.924792],[-102.337857,31.930307],[-102.336043,31.931179],[-102.312361,31.936773],[-102.310135,31.929826],[-102.309327,31.928436],[-102.308279,31.927354],[-102.30657,31.926292],[-102.29697,31.92211],[-102.291987,31.919224],[-102.307812,31.900473],[-102.30977,31.898745],[-102.312051,31.897563],[-102.313276,31.897181],[-102.319911,31.895836],[-102.334064,31.893496]]]}},{"type":"Feature","properties":{"PRECINCT":"207","VTD":"0207"},"geometry":{"type":"Polygon","coordinates":[[[-102.287453,31.996596],[-102.287392,31.95054],[-102.298076,31.948014],[-102.3003,31.955009],[-102.319645,31.950182],[-102.31969,31.950328],[-102.32093,31.950021],[-102.318479,31.942952],[-102.314642,31.943903],[-102.312361,31.936773],[-102.336043,31.931179],[-102.337857,31.930307],[-102.346931,31.924792],[-102.34855,31.923045],[-102.350712,31.924133],[-102.351916,31.925025],[-102.363126,31.936881],[-102.370306,31.942528],[-102.373041,31.944006],[-102.37552,31.945753],[-102.377791,31.947714],[-102.379729,31.949943],[-102.380904,31.950931],[-102.394107,31.961213],[-102.397025,31.962305],[-102.399845,31.962506],[-102.409962,31.960294],[-102.428585,32.018275],[-102.430823,32.024454],[-102.450818,32.087018],[-102.393144,32.086851],[-102.316696,32.08721],[-102.287048,32.086991],[-102.286971,32.026799],[-102.287453,31.996596]]]}},{"type":"Feature","properties":{"PRECINCT":"208","VTD":"0208"},"geometry":{"type":"Polygon","coordinates":[[[-102.346204,31.905856],[-102.341766,31.89181],[-102.355817,31.888733],[-102.356892,31.892253],[-102.360774,31.896601],[-102.361559,31.898629],[-102.363907,31.898116],[-102.365,31.90173],[-102.372635,31.900066],[-102.377171,31.914232],[-102.352654,31.919742],[-102.350612,31.920589],[-102.349172,31.921844],[-102.34855,31.923045],[-102.34158,31.920712],[-102.341674,31.920489],[-102.341471,31.920425],[-102.342999,31.917075],[-102.343218,31.91552],[-102.340828,31.907033],[-102.346204,31.905856]]]}},{"type":"Feature","properties":{"PRECINCT":"209","VTD":"0209"},"geometry":{"type":"Polygon","coordinates":[[[-102.310433,31.874377],[-102.310076,31.874093],[-102.310039,31.873706],[-102.320799,31.868193],[-102.322319,31.870188],[-102.327799,31.874649],[-102.328256,31.875398],[-102.329546,31.879499],[-102.313577,31.883397],[-102.311218,31.876072],[-102.310433,31.874377]]]}},{"type":"Feature","properties":{"PRECINCT":"301","VTD":"0301"},"geometry":{"type":"Polygon","coordinates":[[[-102.392377,31.850692],[-102.409447,31.846883],[-102.413044,31.858229],[-102.41472,31.860879],[-102.399862,31.864253],[-102.396915,31.864722],[-102.392377,31.850692]]]}},{"type":"Feature","properties":{"PRECINCT":"302","VTD":"0302"},"geometry":{"type":"Polygon","coordinates":[[[-102.385092,31.856398],[-102.381416,31.850877],[-102.382443,31.85035],[-102.383107,31.851279],[-102.391205,31.847061],[-102.394817,31.858253],[-102.386624,31.860192],[-102.384187,31.856795],[-102.385092,31.856398]]]}},{"type":"Feature","properties":{"PRECINCT":"303","VTD":"0303"},"geometry":{"type":"Polygon","coordinates":[[[-102.375084,31.862194],[-102.372114,31.858143],[-102.375338,31.856474],[-102.374705,31.855584],[-102.382051,31.851765],[-102.385092,31.856398],[-102.384187,31.856795],[-102.386624,31.860192],[-102.394817,31.858253],[-102.396915,31.864722],[-102.369254,31.870793],[-102.366588,31.867031],[-102.370217,31.86512],[-102.375623,31.86386],[-102.375084,31.862194]]]}},{"type":"Feature","properties":{"PRECINCT":"304","VTD":"0304"},"geometry":{"type":"Polygon","coordinates":[[[-102.381299,31.836656],[-102.386931,31.833745],[-102.391205,31.847061],[-102.38624,31.849619],[-102.378287,31.838483],[-102.381445,31.836861],[-102.381299,31.836656]]]}},{"type":"Feature","properties":{"PRECINCT":"305","VTD":"0305"},"geometry":{"type":"Polygon","coordinates":[[[-102.372153,31.852001],[-102.376373,31.849842],[-102.37188,31.843519],[-102.372424,31.843237],[-102.37188,31.841799],[-102.378287,31.838483],[-102.38624,31.849619],[-102.383107,31.851279],[-102.382443,31.85035],[-102.381416,31.850877],[-102.382051,31.851765],[-102.374705,31.855584],[-102.372153,31.852001]]]}},{"type":"Feature","properties":{"PRECINCT":"306","VTD":"0306"},"geometry":{"type":"Polygon","coordinates":[[[-102.384901,31.882376],[-102.38035,31.868312],[-102.391925,31.865803],[-102.393252,31.866235],[-102.394269,31.869445],[-102.392342,31.869888],[-102.393303,31.87293],[-102.392728,31.873054],[-102.394092,31.877329],[-102.39698,31.876647],[-102.397164,31.877225],[-102.400731,31.876425],[-102.40149,31.878733],[-102.384901,31.882376]]]}},{"type":"Feature","properties":{"PRECINCT":"307","VTD":"0307"},"geometry":{"type":"Polygon","coordinates":[[[-102.369043,31.881474],[-102.367912,31.881314],[-102.366928,31.878035],[-102.365459,31.878287],[-102.364313,31.877587],[-102.36474,31.877046],[-102.364762,31.87652],[-102.363362,31.872089],[-102.38035,31.868312],[-102.384901,31.882376],[-102.37048,31.885519],[-102.369374,31.881905],[-102.369043,31.881474]]]}},{"type":"Feature","properties":{"PRECINCT":"308","VTD":"0308"},"geometry":{"type":"Polygon","coordinates":[[[-102.363018,31.881536],[-102.363604,31.880548],[-102.359174,31.877404],[-102.357712,31.873333],[-102.363362,31.872089],[-102.364762,31.87652],[-102.36474,31.877046],[-102.364313,31.877587],[-102.365459,31.878287],[-102.366928,31.878035],[-102.367912,31.881314],[-102.368826,31.881361],[-102.369374,31.881905],[-102.37048,31.885519],[-102.364372,31.886858],[-102.363411,31.883729],[-102.363018,31.881536]]]}},{"type":"Feature","properties":{"PRECINCT":"309","VTD":"0309"},"geometry":{"type":"Polygon","coordinates":[[[-102.363362,31.872089],[-102.361989,31.867738],[-102.3597,31.86846],[-102.358844,31.8678],[-102.357457,31.867634],[-102.357274,31.867054],[-102.354386,31.867719],[-102.352996,31.863267],[-102.352799,31.861306],[-102.356315,31.860499],[-102.360736,31.85877],[-102.369254,31.870793],[-102.363362,31.872089]]]}},{"type":"Feature","properties":{"PRECINCT":"310","VTD":"0310"},"geometry":{"type":"Polygon","coordinates":[[[-102.402055,31.908699],[-102.397912,31.895738],[-102.389808,31.897583],[-102.389424,31.896391],[-102.387157,31.896886],[-102.387549,31.898113],[-102.386871,31.898271],[-102.386476,31.897036],[-102.383799,31.897621],[-102.381772,31.891257],[-102.381783,31.889984],[-102.381138,31.887916],[-102.378171,31.888567],[-102.377521,31.887658],[-102.374299,31.885791],[-102.373662,31.884821],[-102.40149,31.878733],[-102.41017,31.90658],[-102.402055,31.908699]]]}},{"type":"Feature","properties":{"PRECINCT":"312","VTD":"0312"},"geometry":{"type":"Polygon","coordinates":[[[-102.347307,31.8756],[-102.345691,31.870377],[-102.345512,31.868868],[-102.346512,31.865256],[-102.34653,31.863491],[-102.347626,31.863237],[-102.3474,31.862518],[-102.352799,31.861306],[-102.352996,31.863267],[-102.354386,31.867719],[-102.357274,31.867054],[-102.357457,31.867634],[-102.358844,31.8678],[-102.3597,31.86846],[-102.361989,31.867738],[-102.363362,31.872089],[-102.355826,31.873733],[-102.353697,31.873743],[-102.351601,31.874643],[-102.347307,31.8756]]]}},{"type":"Feature","properties":{"PRECINCT":"313","VTD":"0313"},"geometry":{"type":"Polygon","coordinates":[[[-102.37381,31.90015],[-102.373705,31.89982],[-102.379127,31.898641],[-102.379557,31.899985],[-102.380671,31.899724],[-102.380243,31.898398],[-102.386476,31.897036],[-102.386871,31.898271],[-102.387549,31.898113],[-102.387157,31.896886],[-102.389424,31.896391],[-102.389808,31.897583],[-102.397912,31.895738],[-102.402072,31.908751],[-102.377171,31.914232],[-102.372835,31.900707],[-102.373332,31.900591],[-102.373234,31.900287],[-102.37381,31.90015]]]}},{"type":"Feature","properties":{"PRECINCT":"314","VTD":"0314"},"geometry":{"type":"Polygon","coordinates":[[[-102.372835,31.900707],[-102.36825,31.886008],[-102.373662,31.884821],[-102.374299,31.885791],[-102.377521,31.887658],[-102.378171,31.888567],[-102.381138,31.887916],[-102.381783,31.889984],[-102.381772,31.891257],[-102.383806,31.897587],[-102.380243,31.898398],[-102.380671,31.899724],[-102.379557,31.899985],[-102.379127,31.898641],[-102.373705,31.89982],[-102.37381,31.90015],[-102.373234,31.900287],[-102.373332,31.900591],[-102.372835,31.900707]]]}},{"type":"Feature","properties":{"PRECINCT":"401","VTD":"0401"},"geometry":{"type":"Polygon","coordinates":[[[-102.325675,31.866217],[-102.329193,31.864245],[-102.329028,31.864192],[-102.33967,31.858771],[-102.33951,31.858492],[-102.351381,31.852383],[-102.353633,31.859325],[-102.352285,31.859622],[-102.352799,31.861306],[-102.3474,31.862518],[-102.347626,31.863237],[-102.34653,31.863491],[-102.346459,31.865493],[-102.344501,31.865034],[-102.342978,31.865121],[-102.33341,31.867245],[-102.330929,31.868228],[-102.326424,31.869226],[-102.325588,31.866537],[-102.325675,31.866217]]]}},{"type":"Feature","properties":{"PRECINCT":"402","VTD":"0402"},"geometry":{"type":"Polygon","coordinates":[[[-102.287338,31.8969],[-102.287428,31.874161],[-102.302001,31.866478],[-102.300287,31.863951],[-102.299694,31.861818],[-102.301062,31.850209],[-102.300965,31.84816],[-102.298526,31.840422],[-102.296836,31.836071],[-102.291919,31.820076],[-102.292069,31.817812],[-102.295614,31.802599],[-102.296794,31.800014],[-102.298113,31.798568],[-102.299783,31.797416],[-102.305545,31.794612],[-102.307558,31.793907],[-102.360956,31.782007],[-102.363187,31.781777],[-102.367391,31.78182],[-102.370563,31.781277],[-102.370922,31.78411],[-102.370128,31.786887],[-102.372123,31.787871],[-102.373168,31.789456],[-102.382291,31.818438],[-102.377184,31.81962],[-102.373663,31.820698],[-102.357821,31.827461],[-102.349699,31.829357],[-102.354369,31.843692],[-102.354889,31.844407],[-102.356748,31.849604],[-102.33951,31.858492],[-102.33967,31.858771],[-102.329028,31.864192],[-102.329193,31.864245],[-102.325675,31.866217],[-102.325504,31.86577],[-102.294906,31.8815],[-102.296878,31.887524],[-102.291955,31.888741],[-102.289783,31.888475],[-102.290288,31.886502],[-102.289696,31.888589],[-102.289988,31.888862],[-102.291711,31.889117],[-102.292609,31.889705],[-102.292542,31.89161],[-102.288866,31.892782],[-102.288322,31.892493],[-102.288007,31.892826],[-102.289198,31.89369],[-102.289682,31.893319],[-102.29157,31.894691],[-102.291534,31.894997],[-102.287338,31.8969]]]}},{"type":"Feature","properties":{"PRECINCT":"404","VTD":"0404"},"geometry":{"type":"Polygon","coordinates":[[[-102.406147,31.81393],[-102.401029,31.814433],[-102.382342,31.8186],[-102.373168,31.789456],[-102.372123,31.787871],[-102.370128,31.786887],[-102.370922,31.78411],[-102.370627,31.781476],[-102.349939,31.716872],[-102.329871,31.652662],[-102.329639,31.652715],[-102.329193,31.651276],[-102.367168,31.651147],[-102.533468,31.651307],[-102.597686,31.651085],[-102.745942,31.65152],[-102.72113,31.665951],[-102.717089,31.667732],[-102.710392,31.670008],[-102.708095,31.671107],[-102.705507,31.672881],[-102.699983,31.677937],[-102.696094,31.680634],[-102.609924,31.730876],[-102.578348,31.741995],[-102.549662,31.758],[-102.547916,31.758766],[-102.517728,31.767267],[-102.514441,31.768456],[-102.485978,31.783146],[-102.479046,31.786988],[-102.479143,31.787373],[-102.470998,31.791118],[-102.432347,31.811104],[-102.430369,31.812596],[-102.42707,31.816198],[-102.424959,31.817466],[-102.423235,31.817946],[-102.420102,31.818159],[-102.417775,31.818725],[-102.408712,31.823316],[-102.405983,31.818984],[-102.406147,31.81393]]]}},{"type":"Feature","properties":{"PRECINCT":"405","VTD":"0405"},"geometry":{"type":"Polygon","coordinates":[[[-102.36905,31.832569],[-102.385433,31.828771],[-102.386931,31.833745],[-102.381299,31.836656],[-102.381445,31.836861],[-102.37188,31.841799],[-102.36905,31.832569]]]}},{"type":"Feature","properties":{"PRECINCT":"406","VTD":"0406"},"geometry":{"type":"Polygon","coordinates":[[[-102.392377,31.850692],[-102.382342,31.8186],[-102.401029,31.814433],[-102.406147,31.81393],[-102.405899,31.818088],[-102.406143,31.819419],[-102.410811,31.826174],[-102.411611,31.828582],[-102.411691,31.829755],[-102.411408,31.831339],[-102.408404,31.840812],[-102.4084,31.842],[-102.408889,31.841889],[-102.408763,31.842894],[-102.409007,31.843743],[-102.410332,31.846681],[-102.392377,31.850692]]]}},{"type":"Feature","properties":{"PRECINCT":"407","VTD":"0407"},"geometry":{"type":"Polygon","coordinates":[[[-102.408756,31.842724],[-102.408889,31.841889],[-102.4084,31.842],[-102.408503,31.840096],[-102.411408,31.831339],[-102.411691,31.829755],[-102.411531,31.828144],[-102.41106,31.826684],[-102.408811,31.823264],[-102.417775,31.818725],[-102.420102,31.818159],[-102.423491,31.817899],[-102.425644,31.817155],[-102.42707,31.816198],[-102.430369,31.812596],[-102.432347,31.811104],[-102.470998,31.791118],[-102.479143,31.787373],[-102.492057,31.827806],[-102.442674,31.83939],[-102.410332,31.846681],[-102.409007,31.843743],[-102.408756,31.842724]]]}},{"type":"Feature","properties":{"PRECINCT":"408","VTD":"0408"},"geometry":{"type":"Polygon","coordinates":[[[-102.362832,31.861728],[-102.374705,31.855584],[-102.375338,31.856474],[-102.372114,31.858143],[-102.375084,31.862194],[-102.375623,31.86386],[-102.370217,31.86512],[-102.366588,31.867031],[-102.362832,31.861728]]]}},{"type":"Feature","properties":{"PRECINCT":"409","VTD":"0409"},"geometry":{"type":"Polygon","coordinates":[[[-102.287428,31.874161],[-102.287528,31.738721],[-102.287345,31.651276],[-102.329193,31.651276],[-102.329639,31.652715],[-102.329871,31.652662],[-102.349939,31.716872],[-102.370563,31.781277],[-102.367391,31.78182],[-102.363187,31.781777],[-102.360956,31.782007],[-102.307558,31.793907],[-102.305545,31.794612],[-102.299783,31.797416],[-102.297406,31.799256],[-102.296291,31.80083],[-102.295614,31.802599],[-102.292069,31.817812],[-102.291919,31.820076],[-102.296836,31.836071],[-102.298526,31.840422],[-102.300965,31.84816],[-102.301062,31.850209],[-102.299694,31.861818],[-102.300287,31.863951],[-102.302001,31.866478],[-102.287428,31.874161]]]}},{"type":"Feature","properties":{"PRECINCT":"412","VTD":"0412"},"geometry":{"type":"Polygon","coordinates":[[[-102.362832,31.861728],[-102.360736,31.85877],[-102.356315,31.860499],[-102.352799,31.861306],[-102.352285,31.859622],[-102.353633,31.859325],[-102.351381,31.852383],[-102.37188,31.841799],[-102.372424,31.843237],[-102.37188,31.843519],[-102.376373,31.849842],[-102.372153,31.852001],[-102.374705,31.855584],[-102.362832,31.861728]]]}},{"type":"Feature","properties":{"PRECINCT":"403","VTD":"0403"},"geometry":{"type":"Polygon","coordinates":[[[-102.377184,31.81962],[-102.382291,31.818438],[-102.385433,31.828771],[-102.36905,31.832569],[-102.37188,31.841799],[-102.356748,31.849604],[-102.354889,31.844407],[-102.354369,31.843692],[-102.349699,31.829357],[-102.357821,31.827461],[-102.372978,31.820952],[-102.377184,31.81962]]]}},{"type":"Feature","properties":{"PRECINCT":"311","VTD":"0311"},"geometry":{"type":"Polygon","coordinates":[[[-102.40149,31.878733],[-102.400731,31.876425],[-102.397164,31.877225],[-102.39698,31.876647],[-102.394092,31.877329],[-102.392728,31.873054],[-102.393303,31.87293],[-102.392342,31.869888],[-102.394269,31.869445],[-102.393252,31.866235],[-102.391925,31.865803],[-102.399862,31.864253],[-102.414962,31.860824],[-102.418132,31.870116],[-102.420259,31.874957],[-102.419042,31.874557],[-102.419121,31.874915],[-102.40149,31.878733]]]}}]}