{"type":"FeatureCollection","features":[{"type":"Feature","properties":{"PRECINCT":"montgomery:1","COUNTY":"Montgomery"},"geometry":{"type":"Polygon","coordinates":[[[-95.45848,30.42934],[-95.45671,30.42918],[-95.45505,30.4287],[-95.45246,30.42939],[-95.45148,30.42939],[-95.44794,30.42825],[-95.44759,30.42806],[-95.44749,30.42768],[-95.47182,30.42204],[-95.47102,30.42192],[-95.47087,30.42157],[-95.47124,30.4214],[-95.47049,30.41899],[-95.46823,30.41783],[-95.46802,30.41754],[-95.46718,30.41398],[-95.46645,30.41275],[-95.46465,30.41126],[-95.46383,30.4109],[-95.46217,30.41092],[-95.46164,30.41117],[-95.45765,30.4117],[-95.45646,30.41081],[-95.45511,30.41092],[-95.4545,30.4107],[-95.45371,30.40971],[-95.45365,30.40799],[-95.45104,30.40582],[-95.45146,30.40429],[-95.45254,30.40357],[-95.45219,30.3998],[-95.4528,30.39817],[-95.45272,30.39679],[-95.45238,30.39636],[-95.4524,30.39526],[-95.45227,30.39483],[-95.45121,30.39389],[-95.45018,30.39393],[-95.44986,30.39368],[-95.4502,30.39183],[-95.44986,30.39148],[-95.44986,30.39061],[-95.44938,30.39029],[-95.44812,30.39004],[-95.44761,30.3884],[-95.46227,30.37263],[-95.46235,30.3729],[-95.4701,30.37891],[-95.47544,30.37051],[-95.47714,30.36897],[-95.47777,30.36901],[-95.47641,30.36492],[-95.48529,30.36688],[-95.48623,30.37813],[-95.48722,30.40404],[-95.48799,30.40799],[-95.49196,30.42106],[-95.47973,30.42401],[-95.48005,30.42498],[-95.47846,30.4254],[-95.47654,30.42674],[-95.47236,30.42789],[-95.46235,30.4322],[-95.46177,30.43038],[-95.45848,30.42934]]]}},{"type":"Feature","properties":{"PRECINCT":"montgomery:10","COUNTY":"Montgomery"},"geometry":{"type":"Polygon","coordinates":[[[-95.43934,30.29404],[-95.45592,30.28976],[-95.45582,30.31217],[-95.45496,30.31224],[-95.44952,30.31452],[-95.44285,30.31527],[-95.43719,30.31742],[-95.43506,30.31129],[-95.4327,30.30621],[-95.42992,30.296],[-95.43934,30.29404]]]}},{"type":"Feature","properties":{"PRECINCT":"montgomery:11","COUNTY":"Montgomery"},"geometry":{"type":"Polygon","coordinates":[[[-95.59475,30.35801],[-95.59336,30.32989],[-95.60216,30.32966],[-95.60512,30.3292],[-95.60539,30.33017],[-95.60512,30.33381],[-95.60537,30.33455],[-95.61131,30.33989],[-95.61256,30.34045],[-95.62948,30.34406],[-95.62891,30.34606],[-95.62905,30.34919],[-95.62931,30.3494],[-95.63133,30.34939],[-95.63171,30.34958],[-95.63363,30.35633],[-95.63335,30.35788],[-95.6315,30.35834],[-95.63121,30.3587],[-95.63135,30.36422],[-95.63336,30.36985],[-95.63388,30.37279],[-95.62156,30.36752],[-95.59475,30.35801]]]}},{"type":"Feature","properties":{"PRECINCT":"montgomery:12","COUNTY":"Montgomery"},"geometry":{"type":"Polygon","coordinates":[[[-95.31959,30.33242],[-95.26708,30.32903],[-95.25407,30.32895],[-95.2267,30.32702],[-95.22747,30.32629],[-95.22759,30.32575],[-95.22668,30.32508],[-95.227,30.32464],[-95.2262,30.32389],[-95.22642,30.3234],[-95.22558,30.323],[-95.22528,30.32125],[-95.22649,30.32012],[-95.22649,30.31987],[-95.22508,30.31915],[-95.22513,30.3188],[-95.22576,30.31859],[-95.22592,30.31811],[-95.22505,30.3177],[-95.2251,30.31697],[-95.22473,30.3163],[-95.22431,30.31621],[-95.22436,30.31564],[-95.22367,30.3155],[-95.22393,30.31495],[-95.22372,30.31477],[-95.22383,30.31418],[-95.22306,30.31399],[-95.22306,30.31365],[-95.22251,30.31344],[-95.2223,30.31312],[-95.22228,30.31269],[-95.22888,30.31234],[-95.22841,30.30952],[-95.22783,30.30048],[-95.22735,30.29763],[-95.22722,30.28543],[-95.23685,30.26556],[-95.23895,30.25966],[-95.24061,30.2597],[-95.24542,30.25897],[-95.24916,30.25764],[-95.25403,30.25737],[-95.25536,30.25694],[-95.25758,30.25564],[-95.25902,30.25505],[-95.26287,30.25405],[-95.26569,30.25387],[-95.26809,30.25417],[-95.29163,30.25981],[-95.29927,30.26025],[-95.30156,30.26],[-95.30272,30.26317],[-95.30511,30.26835],[-95.30631,30.27293],[-95.30661,30.27721],[-95.30568,30.28507],[-95.30577,30.28598],[-95.31775,30.30564],[-95.31831,30.30667],[-95.31911,30.30919],[-95.32048,30.3264],[-95.31959,30.33242]]]}},{"type":"Feature","properties":{"PRECINCT":"montgomery:17","COUNTY":"Montgomery"},"geometry":{"type":"Polygon","coordinates":[[[-95.33734,30.39716],[-95.33304,30.39444],[-95.33051,30.39676],[-95.32813,30.39487],[-95.32935,30.37176],[-95.3297,30.37087],[-95.33135,30.36879],[-95.32395,30.37224],[-95.31822,30.37575],[-95.31444,30.37557],[-95.31433,30.36442],[-95.31691,30.36419],[-95.31697,30.3573],[-95.31673,30.35713],[-95.3053,30.35696],[-95.30508,30.35476],[-95.30582,30.34908],[-95.30525,30.33539],[-95.30569,30.33335],[-95.30702,30.33345],[-95.30699,30.33261],[-95.31119,30.33289],[-95.31126,30.33188],[-95.3281,30.333],[-95.35086,30.33309],[-95.35542,30.33288],[-95.36151,30.33177],[-95.36153,30.33289],[-95.36211,30.33388],[-95.36322,30.33431],[-95.36621,30.33395],[-95.36771,30.33459],[-95.36874,30.33585],[-95.36983,30.3358],[-95.37025,30.33667],[-95.37101,30.33628],[-95.37136,30.33637],[-95.37146,30.33729],[-95.37252,30.33805],[-95.37257,30.33899],[-95.37405,30.33905],[-95.37582,30.33864],[-95.37656,30.33921],[-95.37711,30.33887],[-95.37738,30.33896],[-95.37748,30.33958],[-95.37978,30.34022],[-95.38134,30.33917],[-95.38129,30.33818],[-95.38168,30.33754],[-95.38306,30.33754],[-95.38332,30.33772],[-95.38324,30.33878],[-95.38406,30.33875],[-95.3844,30.33937],[-95.38604,30.33942],[-95.38781,30.34002],[-95.38974,30.33992],[-95.39079,30.3396],[-95.39119,30.33981],[-95.39151,30.34059],[-95.39436,30.34244],[-95.39436,30.34315],[-95.39523,30.34391],[-95.39513,30.34487],[-95.39592,30.3456],[-95.39576,30.34872],[-95.39626,30.34982],[-95.39782,30.35103],[-95.39862,30.35268],[-95.39999,30.35419],[-95.40099,30.35414],[-95.40303,30.35467],[-95.40461,30.35428],[-95.40564,30.35437],[-95.40702,30.35499],[-95.409,30.35492],[-95.41042,30.35526],[-95.4109,30.35616],[-95.4109,30.35813],[-95.41341,30.35968],[-95.41388,30.36062],[-95.4142,30.3622],[-95.41534,30.36307],[-95.41665,30.36467],[-95.41545,30.3678],[-95.41396,30.37032],[-95.41243,30.37826],[-95.41015,30.38272],[-95.40826,30.38475],[-95.40601,30.38822],[-95.40192,30.38421],[-95.39633,30.38315],[-95.39431,30.38256],[-95.38863,30.37978],[-95.38373,30.3769],[-95.37935,30.37492],[-95.37702,30.37299],[-95.37234,30.36832],[-95.36958,30.37085],[-95.36877,30.37381],[-95.36729,30.37618],[-95.36731,30.37661],[-95.3788,30.3864],[-95.37913,30.38636],[-95.38286,30.38305],[-95.38532,30.38516],[-95.3852,30.38572],[-95.38569,30.38607],[-95.38586,30.38694],[-95.38571,30.38737],[-95.38644,30.38797],[-95.3864,30.38953],[-95.38562,30.38959],[-95.38498,30.38874],[-95.38375,30.38936],[-95.38294,30.39011],[-95.38109,30.39065],[-95.38034,30.39011],[-95.37979,30.39034],[-95.37921,30.38984],[-95.37844,30.38984],[-95.37783,30.38954],[-95.37678,30.38963],[-95.37575,30.38903],[-95.37564,30.38828],[-95.37456,30.38764],[-95.37374,30.38649],[-95.37273,30.38617],[-95.37247,30.3856],[-95.3717,30.38569],[-95.37165,30.38457],[-95.37123,30.38386],[-95.3693,30.38205],[-95.36888,30.38209],[-95.36869,30.38262],[-95.36824,30.38265],[-95.36745,30.38168],[-95.36684,30.3815],[-95.36676,30.381],[-95.36631,30.3809],[-95.36589,30.38148],[-95.36555,30.3815],[-95.3651,30.38054],[-95.36428,30.37976],[-95.36343,30.38015],[-95.36277,30.37946],[-95.36209,30.37942],[-95.36148,30.38017],[-95.36074,30.3804],[-95.35992,30.37994],[-95.35931,30.37919],[-95.35849,30.3788],[-95.35828,30.37786],[-95.35891,30.37719],[-95.35889,30.37692],[-95.35757,30.37563],[-95.35672,30.37403],[-95.35773,30.37344],[-95.35775,30.37302],[-95.35728,30.37229],[-95.35791,30.37188],[-95.35804,30.3714],[-95.35754,30.37034],[-95.3577,30.37007],[-95.35878,30.36966],[-95.35913,30.36918],[-95.35915,30.36883],[-95.35871,30.3684],[-95.35884,30.36746],[-95.35791,30.36615],[-95.35794,30.36556],[-95.35831,30.36521],[-95.35831,30.36345],[-95.35762,30.36315],[-95.35715,30.36363],[-95.35609,30.36391],[-95.35543,30.36375],[-95.35479,30.36418],[-95.35387,30.36427],[-95.35374,30.364],[-95.35395,30.36343],[-95.35268,30.36164],[-95.35142,30.36072],[-95.35155,30.35978],[-95.35073,30.35914],[-95.34946,30.35894],[-95.34893,30.35731],[-95.34724,30.35596],[-95.34698,30.35468],[-95.34595,30.353],[-95.34566,30.35289],[-95.34542,30.35307],[-95.34505,30.35392],[-95.34415,30.35442],[-95.34355,30.35422],[-95.34302,30.35341],[-95.34238,30.35335],[-95.34154,30.35499],[-95.34159,30.35564],[-95.34225,30.35664],[-95.3422,30.35744],[-95.34169,30.3607],[-95.34098,30.36278],[-95.34101,30.36326],[-95.3418,30.36352],[-95.34209,30.36427],[-95.34193,30.36466],[-95.34114,30.36528],[-95.34066,30.36649],[-95.34003,30.36707],[-95.34045,30.36812],[-95.33966,30.36858],[-95.33947,30.36915],[-95.33879,30.36963],[-95.33857,30.37167],[-95.33797,30.37178],[-95.33789,30.37236],[-95.33929,30.37408],[-95.34,30.3755],[-95.33952,30.37685],[-95.33979,30.38081],[-95.33955,30.38175],[-95.3382,30.38397],[-95.3386,30.38401],[-95.34195,30.38893],[-95.33985,30.39094],[-95.34066,30.39213],[-95.3405,30.39465],[-95.34145,30.39626],[-95.33871,30.39726],[-95.33734,30.39716]]]}},{"type":"Feature","properties":{"PRECINCT":"montgomery:19","COUNTY":"Montgomery"},"geometry":{"type":"Polygon","coordinates":[[[-95.66975,30.53041],[-95.64727,30.52677],[-95.63927,30.52634],[-95.63677,30.52599],[-95.63105,30.52596],[-95.61101,30.51533],[-95.60518,30.51264],[-95.59888,30.50898],[-95.59916,30.50655],[-95.59905,30.50504],[-95.59827,30.50331],[-95.59477,30.50021],[-95.57923,30.48168],[-95.58005,30.47941],[-95.58052,30.47714],[-95.58326,30.47314],[-95.58157,30.47125],[-95.58394,30.4708],[-95.58302,30.46554],[-95.58388,30.45921],[-95.58597,30.45894],[-95.58503,30.45786],[-95.58517,30.45701],[-95.58649,30.45652],[-95.58797,30.45653],[-95.59442,30.45063],[-95.59457,30.45],[-95.59516,30.44937],[-95.59531,30.44811],[-95.59575,30.44773],[-95.59577,30.44496],[-95.59694,30.44371],[-95.59709,30.44308],[-95.59856,30.44132],[-95.59856,30.44006],[-95.59886,30.4398],[-95.59887,30.43716],[-95.64702,30.43687],[-95.648,30.43653],[-95.64925,30.43487],[-95.65026,30.4344],[-95.66143,30.43438],[-95.66229,30.43417],[-95.6629,30.43377],[-95.66357,30.43268],[-95.66603,30.43029],[-95.67177,30.42313],[-95.6725,30.4217],[-95.67414,30.41663],[-95.67517,30.41529],[-95.68171,30.41101],[-95.68273,30.40977],[-95.68537,30.40803],[-95.68872,30.40447],[-95.69193,30.40411],[-95.69812,30.4041],[-95.69952,30.40238],[-95.69964,30.40189],[-95.69933,30.39948],[-95.6974,30.39274],[-95.69662,30.39141],[-95.69672,30.38346],[-95.69791,30.38041],[-95.69824,30.37768],[-95.69737,30.33375],[-95.70846,30.33353],[-95.70911,30.33285],[-95.71147,30.32852],[-95.71209,30.32817],[-95.71452,30.32779],[-95.72814,30.32779],[-95.72997,30.32856],[-95.73247,30.33004],[-95.733,30.33064],[-95.73367,30.36883],[-95.73425,30.38043],[-95.7325,30.3808],[-95.73183,30.38181],[-95.72689,30.38198],[-95.72143,30.38433],[-95.72645,30.3884],[-95.7281,30.38952],[-95.7299,30.39032],[-95.73222,30.39098],[-95.734,30.39092],[-95.73384,30.39133],[-95.73673,30.39091],[-95.73897,30.38994],[-95.74671,30.38463],[-95.75535,30.38199],[-95.75745,30.38101],[-95.76912,30.37151],[-95.76927,30.37283],[-95.76905,30.37301],[-95.76911,30.37342],[-95.76868,30.37377],[-95.76897,30.37404],[-95.7689,30.37425],[-95.76844,30.3747],[-95.76723,30.37461],[-95.76702,30.3756],[-95.76657,30.37567],[-95.76649,30.37606],[-95.76659,30.37621],[-95.76723,30.37617],[-95.7676,30.37702],[-95.76818,30.3772],[-95.76839,30.3777],[-95.76887,30.37796],[-95.76887,30.37816],[-95.76717,30.37851],[-95.76696,30.37926],[-95.76765,30.37981],[-95.76865,30.37988],[-95.76913,30.38041],[-95.76918,30.38084],[-95.76971,30.38116],[-95.76952,30.3818],[-95.76881,30.38231],[-95.76928,30.38286],[-95.76902,30.38373],[-95.76968,30.38375],[-95.77089,30.38435],[-95.77092,30.38547],[-95.7701,30.38623],[-95.76973,30.38769],[-95.76938,30.38817],[-95.76986,30.38836],[-95.76983,30.38886],[-95.77031,30.38927],[-95.77017,30.39126],[-95.77173,30.39154],[-95.7717,30.39193],[-95.77035,30.39367],[-95.77022,30.39507],[-95.76956,30.39589],[-95.76972,30.39752],[-95.76908,30.39806],[-95.76898,30.39861],[-95.76964,30.39939],[-95.7695,30.40024],[-95.76905,30.40102],[-95.76918,30.40168],[-95.77016,30.40336],[-95.77016,30.40391],[-95.76931,30.40558],[-95.76937,30.4061],[-95.77021,30.40663],[-95.77011,30.40736],[-95.77037,30.4078],[-95.77031,30.40883],[-95.76973,30.40913],[-95.76968,30.4099],[-95.76905,30.41089],[-95.76859,30.41323],[-95.76878,30.41361],[-95.7701,30.4141],[-95.77012,30.41492],[-95.76941,30.41581],[-95.7693,30.41639],[-95.76851,30.41671],[-95.76819,30.41778],[-95.76745,30.41874],[-95.76748,30.41902],[-95.76819,30.41948],[-95.76811,30.42051],[-95.76925,30.42078],[-95.77017,30.42161],[-95.7698,30.42342],[-95.76863,30.42593],[-95.76869,30.42697],[-95.76911,30.42813],[-95.76966,30.42811],[-95.77136,30.42621],[-95.77268,30.42587],[-95.77302,30.42589],[-95.77479,30.42713],[-95.77452,30.42825],[-95.77312,30.42949],[-95.77296,30.43001],[-95.77384,30.43123],[-95.77426,30.43141],[-95.77558,30.4329],[-95.77553,30.43324],[-95.77481,30.43336],[-95.77463,30.43372],[-95.77402,30.43393],[-95.77402,30.4343],[-95.77433,30.43473],[-95.77484,30.43487],[-95.77584,30.43583],[-95.77687,30.43632],[-95.77758,30.437],[-95.77734,30.43828],[-95.777,30.43867],[-95.77766,30.44018],[-95.77858,30.44106],[-95.78067,30.4422],[-95.78157,30.44326],[-95.78133,30.44543],[-95.78157,30.44594],[-95.78217,30.44639],[-95.78209,30.44731],[-95.78119,30.44839],[-95.7809,30.45056],[-95.78146,30.45157],[-95.78122,30.45375],[-95.78233,30.45549],[-95.78415,30.45753],[-95.78504,30.46011],[-95.78544,30.46046],[-95.78563,30.46151],[-95.78637,30.46195],[-95.78663,30.46268],[-95.78769,30.46355],[-95.787,30.4657],[-95.78676,30.46817],[-95.78583,30.46916],[-95.78668,30.47072],[-95.78668,30.47177],[-95.78826,30.47317],[-95.78763,30.47427],[-95.78789,30.47491],[-95.78765,30.47688],[-95.7881,30.47768],[-95.78786,30.47921],[-95.78826,30.48025],[-95.78923,30.48061],[-95.78939,30.48116],[-95.78987,30.48146],[-95.79148,30.48157],[-95.79172,30.4819],[-95.79193,30.48371],[-95.79262,30.48492],[-95.79428,30.48606],[-95.79492,30.48678],[-95.79605,30.48737],[-95.79695,30.48829],[-95.79766,30.48849],[-95.79922,30.48948],[-95.80012,30.49083],[-95.80113,30.49081],[-95.80196,30.49031],[-95.80227,30.49046],[-95.80546,30.49308],[-95.80796,30.49375],[-95.80907,30.49433],[-95.8103,30.49582],[-95.81072,30.49706],[-95.81074,30.4981],[-95.81165,30.49835],[-95.81252,30.49915],[-95.81387,30.49864],[-95.81429,30.49874],[-95.81408,30.49958],[-95.81347,30.49984],[-95.81342,30.50022],[-95.81429,30.50051],[-95.81551,30.50207],[-95.81614,30.50189],[-95.81659,30.50216],[-95.81603,30.50303],[-95.81625,30.50363],[-95.81611,30.50596],[-95.81683,30.50677],[-95.81683,30.50716],[-95.81632,30.50736],[-95.81611,30.50786],[-95.81556,30.5083],[-95.81561,30.50883],[-95.81516,30.50933],[-95.8154,30.51018],[-95.81494,30.51068],[-95.81461,30.50933],[-95.81474,30.50823],[-95.8139,30.50669],[-95.81382,30.50499],[-95.8131,30.50419],[-95.81273,30.50112],[-95.81195,30.50058],[-95.81024,30.50022],[-95.81028,30.50138],[-95.80997,30.5022],[-95.80791,30.50476],[-95.80523,30.50934],[-95.80148,30.50981],[-95.794,30.51991],[-95.79334,30.52053],[-95.78857,30.52316],[-95.78861,30.52582],[-95.76736,30.52594],[-95.76732,30.5276],[-95.74867,30.52756],[-95.74879,30.53028],[-95.7397,30.53035],[-95.73986,30.52915],[-95.73384,30.52924],[-95.73358,30.52908],[-95.73153,30.52728],[-95.72974,30.52425],[-95.72236,30.5247],[-95.71085,30.52384],[-95.69913,30.52477],[-95.68462,30.52701],[-95.6819,30.5276],[-95.673,30.53023],[-95.66975,30.53041]]]}},{"type":"Feature","properties":{"PRECINCT":"montgomery:2","COUNTY":"Montgomery"},"geometry":{"type":"Polygon","coordinates":[[[-95.41929,30.32012],[-95.4192,30.31983],[-95.4171,30.31985],[-95.39884,30.31761],[-95.39759,30.31281],[-95.39737,30.31286],[-95.39595,30.308],[-95.39195,30.30926],[-95.39038,30.30444],[-95.39543,30.30357],[-95.3921,30.30076],[-95.39287,30.30038],[-95.39787,30.29919],[-95.39636,30.29402],[-95.40372,30.29239],[-95.40268,30.28862],[-95.40561,30.28788],[-95.40537,30.28716],[-95.40843,30.28642],[-95.40825,30.28586],[-95.4089,30.28567],[-95.4092,30.28515],[-95.41796,30.28307],[-95.41769,30.282],[-95.4211,30.28093],[-95.41672,30.27499],[-95.42325,30.28383],[-95.42931,30.29462],[-95.42992,30.296],[-95.43284,30.30664],[-95.43506,30.31129],[-95.43719,30.31742],[-95.43243,30.31915],[-95.41929,30.32012]]]}},{"type":"Feature","properties":{"PRECINCT":"montgomery:20","COUNTY":"Montgomery"},"geometry":{"type":"Polygon","coordinates":[[[-95.45572,30.32794],[-95.45573,30.32647],[-95.45027,30.32777],[-95.44946,30.32531],[-95.44972,30.32438],[-95.44929,30.32287],[-95.44726,30.32343],[-95.4477,30.32498],[-95.44753,30.32539],[-95.44655,30.32566],[-95.44621,30.32547],[-95.44558,30.3238],[-95.44466,30.32405],[-95.44481,30.32559],[-95.44532,30.32678],[-95.44466,30.32666],[-95.44183,30.32847],[-95.4386,30.32886],[-95.43911,30.33057],[-95.43459,30.33172],[-95.43638,30.32897],[-95.44281,30.32212],[-95.44423,30.32108],[-95.44681,30.31983],[-95.44514,30.31497],[-95.44952,30.31452],[-95.4552,30.31219],[-95.46176,30.31222],[-95.46431,30.31983],[-95.46506,30.32681],[-95.46765,30.33608],[-95.45957,30.33791],[-95.45713,30.33825],[-95.45572,30.32794]]]}},{"type":"Feature","properties":{"PRECINCT":"montgomery:21","COUNTY":"Montgomery"},"geometry":{"type":"Polygon","coordinates":[[[-95.52308,30.34088],[-95.52,30.33919],[-95.51514,30.33576],[-95.50662,30.33024],[-95.49663,30.32583],[-95.495,30.32827],[-95.49268,30.32983],[-95.47826,30.33351],[-95.47413,30.32252],[-95.46437,30.29307],[-95.47115,30.29133],[-95.47166,30.29174],[-95.47186,30.29115],[-95.48143,30.28877],[-95.4802,30.29108],[-95.47898,30.29215],[-95.47697,30.29453],[-95.47582,30.29642],[-95.47821,30.29588],[-95.4785,30.29798],[-95.47814,30.29848],[-95.47466,30.29935],[-95.4743,30.29999],[-95.47592,30.30006],[-95.47642,30.30156],[-95.47813,30.30096],[-95.47865,30.3016],[-95.47853,30.30258],[-95.47756,30.30289],[-95.4764,30.30262],[-95.47561,30.30214],[-95.47436,30.30394],[-95.47473,30.30629],[-95.47244,30.30821],[-95.49805,30.3102],[-95.50153,30.31111],[-95.50858,30.31416],[-95.51166,30.31462],[-95.51201,30.31776],[-95.51299,30.31916],[-95.51391,30.31987],[-95.5128,30.32074],[-95.51293,30.32129],[-95.51372,30.32108],[-95.51417,30.32138],[-95.51372,30.32193],[-95.5128,30.32246],[-95.51364,30.32498],[-95.51551,30.32507],[-95.51581,30.32486],[-95.51583,30.32447],[-95.51528,30.32365],[-95.51546,30.32331],[-95.51581,30.32331],[-95.51633,30.32386],[-95.51839,30.32397],[-95.51916,30.32368],[-95.52038,30.32301],[-95.52059,30.32184],[-95.52088,30.32187],[-95.5217,30.32271],[-95.52241,30.3226],[-95.52362,30.3234],[-95.52542,30.3232],[-95.526,30.32398],[-95.52655,30.32421],[-95.52724,30.32508],[-95.52898,30.32638],[-95.52943,30.32728],[-95.53098,30.32875],[-95.53125,30.32957],[-95.53262,30.3312],[-95.53365,30.3315],[-95.53352,30.33237],[-95.53431,30.33285],[-95.53468,30.33372],[-95.53446,30.33402],[-95.53362,30.33399],[-95.53349,30.33445],[-95.53399,30.33472],[-95.53423,30.33534],[-95.53496,30.33546],[-95.53544,30.33605],[-95.5361,30.33637],[-95.5362,30.3369],[-95.53721,30.3377],[-95.53739,30.33819],[-95.53863,30.33846],[-95.53813,30.34018],[-95.53974,30.34139],[-95.54154,30.34105],[-95.5427,30.34192],[-95.54257,30.3424],[-95.53089,30.34259],[-95.527,30.34214],[-95.52308,30.34088]]]}},{"type":"Feature","properties":{"PRECINCT":"montgomery:22","COUNTY":"Montgomery"},"geometry":{"type":"Polygon","coordinates":[[[-95.55231,30.45659],[-95.54999,30.4565],[-95.54853,30.45725],[-95.54721,30.45712],[-95.54634,30.45636],[-95.54587,30.45551],[-95.54642,30.45574],[-95.54576,30.45458],[-95.54571,30.44775],[-95.51036,30.43965],[-95.50606,30.43897],[-95.49544,30.43603],[-95.49515,30.43266],[-95.4946,30.42971],[-95.49196,30.42106],[-95.49501,30.42053],[-95.50097,30.41903],[-95.5061,30.41872],[-95.50761,30.41882],[-95.5271,30.42313],[-95.5417,30.42666],[-95.5435,30.42085],[-95.54793,30.41746],[-95.55379,30.41874],[-95.55427,30.41983],[-95.55513,30.4201],[-95.56046,30.42131],[-95.5607,30.42046],[-95.56335,30.42124],[-95.56349,30.42157],[-95.5622,30.42223],[-95.56354,30.42333],[-95.56352,30.42363],[-95.56206,30.42505],[-95.56122,30.4253],[-95.56111,30.42619],[-95.5604,30.42723],[-95.55963,30.42732],[-95.55781,30.42657],[-95.55657,30.4262],[-95.55592,30.42628],[-95.55704,30.42635],[-95.55712,30.42665],[-95.55818,30.42718],[-95.55987,30.42848],[-95.55897,30.43032],[-95.56196,30.43124],[-95.56197,30.4292],[-95.56226,30.42883],[-95.56549,30.42594],[-95.56667,30.42405],[-95.56696,30.42317],[-95.57166,30.41928],[-95.57195,30.41853],[-95.5743,30.41652],[-95.57532,30.4164],[-95.57781,30.41464],[-95.58059,30.41377],[-95.58176,30.41315],[-95.58308,30.4129],[-95.58747,30.40913],[-95.58765,30.40283],[-95.59158,30.4065],[-95.59143,30.40688],[-95.59157,30.40739],[-95.59215,30.40789],[-95.59215,30.4089],[-95.59258,30.4094],[-95.59258,30.41029],[-95.59592,30.41333],[-95.59592,30.4137],[-95.59621,30.41396],[-95.5962,30.41534],[-95.59649,30.41572],[-95.59649,30.41698],[-95.59707,30.41812],[-95.59716,30.42909],[-95.59832,30.43073],[-95.59831,30.43136],[-95.5989,30.43199],[-95.59886,30.4398],[-95.59856,30.44006],[-95.59856,30.44132],[-95.59709,30.44308],[-95.59694,30.44371],[-95.59577,30.44496],[-95.59575,30.44773],[-95.59531,30.44811],[-95.59516,30.44937],[-95.59457,30.45],[-95.59442,30.45063],[-95.58797,30.45653],[-95.57993,30.4565],[-95.5776,30.45598],[-95.57,30.45608],[-95.56942,30.4557],[-95.56796,30.45544],[-95.56256,30.45542],[-95.5605,30.45718],[-95.55831,30.45767],[-95.5551,30.45766],[-95.55231,30.45659]]]}},{"type":"Feature","properties":{"PRECINCT":"montgomery:23","COUNTY":"Montgomery"},"geometry":{"type":"Polygon","coordinates":[[[-95.4264,30.50824],[-95.42627,30.50724],[-95.42664,30.50682],[-95.42598,30.50651],[-95.42653,30.50605],[-95.42677,30.5054],[-95.42621,30.50405],[-95.42645,30.50252],[-95.426,30.50236],[-95.42433,30.50087],[-95.42431,30.50064],[-95.42494,30.50022],[-95.42436,30.4992],[-95.42457,30.49826],[-95.42414,30.49776],[-95.42478,30.49714],[-95.42485,30.49668],[-95.42533,30.4964],[-95.42533,30.49604],[-95.42488,30.49544],[-95.42538,30.49407],[-95.42578,30.4937],[-95.42607,30.49255],[-95.4257,30.49214],[-95.42583,30.49171],[-95.4249,30.49175],[-95.42477,30.49157],[-95.42525,30.49077],[-95.42488,30.49079],[-95.42477,30.49054],[-95.42535,30.48997],[-95.42591,30.48983],[-95.42612,30.48852],[-95.42588,30.48772],[-95.42554,30.48754],[-95.42585,30.48685],[-95.42519,30.48628],[-95.42442,30.48639],[-95.42464,30.48591],[-95.42397,30.48555],[-95.42397,30.48523],[-95.42495,30.48479],[-95.42453,30.48429],[-95.42463,30.48392],[-95.42559,30.4836],[-95.42561,30.48287],[-95.4259,30.48254],[-95.42675,30.48248],[-95.42667,30.482],[-95.42709,30.48149],[-95.42707,30.48101],[-95.42778,30.48108],[-95.42897,30.48051],[-95.42886,30.48021],[-95.42812,30.48023],[-95.42812,30.47998],[-95.42905,30.47975],[-95.42937,30.47947],[-95.42945,30.47897],[-95.42995,30.47879],[-95.43003,30.47709],[-95.43058,30.47688],[-95.43066,30.47649],[-95.43166,30.47581],[-95.43153,30.47487],[-95.43254,30.4742],[-95.43293,30.47246],[-95.43261,30.47189],[-95.43187,30.47205],[-95.43182,30.47175],[-95.43248,30.4709],[-95.43174,30.47063],[-95.43148,30.471],[-95.43105,30.47107],[-95.43063,30.47068],[-95.43139,30.46974],[-95.43139,30.46919],[-95.43057,30.46841],[-95.43052,30.46779],[-95.43002,30.46738],[-95.43026,30.46628],[-95.4301,30.46573],[-95.43041,30.46523],[-95.42949,30.46497],[-95.42954,30.4639],[-95.42779,30.46358],[-95.42719,30.46379],[-95.4269,30.4633],[-95.42597,30.46312],[-95.42618,30.46236],[-95.42692,30.46179],[-95.42695,30.46122],[-95.42634,30.46035],[-95.42562,30.4603],[-95.42531,30.46007],[-95.42557,30.45888],[-95.42435,30.45838],[-95.42449,30.4571],[-95.42361,30.45691],[-95.42366,30.45657],[-95.42422,30.45611],[-95.42425,30.45545],[-95.42411,30.4552],[-95.4234,30.455],[-95.42829,30.45182],[-95.43447,30.44657],[-95.43939,30.4432],[-95.44984,30.43762],[-95.47236,30.42789],[-95.47654,30.42674],[-95.47846,30.4254],[-95.48005,30.42498],[-95.47973,30.42401],[-95.49196,30.42106],[-95.4946,30.42971],[-95.49527,30.43365],[-95.49608,30.4632],[-95.49659,30.4685],[-95.49634,30.47324],[-95.49196,30.50162],[-95.49145,30.50883],[-95.42608,30.50882],[-95.4264,30.50824]]]}},{"type":"Feature","properties":{"PRECINCT":"montgomery:27","COUNTY":"Montgomery"},"geometry":{"type":"Polygon","coordinates":[[[-95.42992,30.296],[-95.42302,30.28347],[-95.41699,30.27531],[-95.41067,30.26963],[-95.42955,30.26532],[-95.43175,30.27174],[-95.44026,30.26931],[-95.44419,30.26683],[-95.4484,30.26538],[-95.44965,30.26573],[-95.44979,30.26555],[-95.45056,30.26568],[-95.45244,30.26537],[-95.45719,30.26537],[-95.4572,30.26275],[-95.46085,30.26309],[-95.46078,30.27828],[-95.46391,30.27811],[-95.4659,30.27844],[-95.47156,30.2804],[-95.47184,30.28094],[-95.48064,30.28385],[-95.48347,30.2831],[-95.48293,30.28567],[-95.48143,30.28877],[-95.47186,30.29115],[-95.47166,30.29174],[-95.47115,30.29133],[-95.46437,30.29307],[-95.46328,30.28981],[-95.46189,30.28687],[-95.46169,30.28733],[-95.45919,30.28803],[-95.45592,30.2905],[-95.45592,30.28976],[-95.43825,30.2943],[-95.42992,30.296]]]}},{"type":"Feature","properties":{"PRECINCT":"montgomery:38","COUNTY":"Montgomery"},"geometry":{"type":"Polygon","coordinates":[[[-95.66575,30.42067],[-95.66397,30.42079],[-95.66155,30.41968],[-95.66103,30.41869],[-95.66071,30.41859],[-95.65948,30.41888],[-95.65735,30.41821],[-95.65588,30.41836],[-95.65563,30.41808],[-95.65598,30.41781],[-95.6559,30.41762],[-95.65474,30.41757],[-95.65253,30.4165],[-95.65231,30.4159],[-95.65352,30.41433],[-95.6535,30.41399],[-95.65304,30.41401],[-95.65158,30.415],[-95.65089,30.41504],[-95.65033,30.4144],[-95.65022,30.41335],[-95.64933,30.41234],[-95.64866,30.41216],[-95.64866,30.41143],[-95.64785,30.41118],[-95.64713,30.41047],[-95.64656,30.41043],[-95.64654,30.40417],[-95.63375,30.40425],[-95.63123,30.4036],[-95.62735,30.40196],[-95.62623,30.40113],[-95.62677,30.40063],[-95.62751,30.39903],[-95.62712,30.39712],[-95.62751,30.39564],[-95.62796,30.39527],[-95.62882,30.39539],[-95.62908,30.39511],[-95.62959,30.39335],[-95.63056,30.39308],[-95.63052,30.39168],[-95.6308,30.39151],[-95.63127,30.3918],[-95.63122,30.39297],[-95.6309,30.39318],[-95.63093,30.39343],[-95.6325,30.39446],[-95.63278,30.39426],[-95.63251,30.39402],[-95.63262,30.39365],[-95.63317,30.39417],[-95.63269,30.39454],[-95.63329,30.39474],[-95.63329,30.39508],[-95.63393,30.39545],[-95.63402,30.39514],[-95.63536,30.39554],[-95.63574,30.3953],[-95.63571,30.39444],[-95.63519,30.39364],[-95.63606,30.39352],[-95.63619,30.39327],[-95.63585,30.39293],[-95.63525,30.39286],[-95.63351,30.39385],[-95.63307,30.39336],[-95.63365,30.39357],[-95.63529,30.39268],[-95.6371,30.39282],[-95.63816,30.39388],[-95.63901,30.39397],[-95.63941,30.39442],[-95.63923,30.39549],[-95.63863,30.39629],[-95.63931,30.39624],[-95.64044,30.39535],[-95.64119,30.39538],[-95.64157,30.39658],[-95.64279,30.3967],[-95.6434,30.3978],[-95.64419,30.39812],[-95.64451,30.39849],[-95.64419,30.39945],[-95.64435,30.39966],[-95.64739,30.40011],[-95.64843,30.40172],[-95.64887,30.40194],[-95.64909,30.40181],[-95.65008,30.40234],[-95.65054,30.40298],[-95.65219,30.40323],[-95.65262,30.40348],[-95.65297,30.4028],[-95.65287,30.40185],[-95.65318,30.40181],[-95.65334,30.40275],[-95.65292,30.40372],[-95.65356,30.40411],[-95.65335,30.40462],[-95.6538,30.40489],[-95.65455,30.40492],[-95.65733,30.40371],[-95.65722,30.40327],[-95.65453,30.40323],[-95.65442,30.40256],[-95.65503,30.40178],[-95.6568,30.40151],[-95.65688,30.40123],[-95.65534,30.4008],[-95.65274,30.39948],[-95.65317,30.40155],[-95.65284,30.40161],[-95.65233,30.39892],[-95.65168,30.39842],[-95.65075,30.39681],[-95.64992,30.39649],[-95.64857,30.39713],[-95.64736,30.39682],[-95.64633,30.3959],[-95.64549,30.39409],[-95.64546,30.3935],[-95.64572,30.39306],[-95.64689,30.39232],[-95.64732,30.39161],[-95.64924,30.39206],[-95.64957,30.39235],[-95.65122,30.39263],[-95.65202,30.39331],[-95.65287,30.39347],[-95.65335,30.3933],[-95.65332,30.39209],[-95.65521,30.3923],[-95.65283,30.39139],[-95.65196,30.39079],[-95.65091,30.3905],[-95.64943,30.38938],[-95.64799,30.38906],[-95.64721,30.38802],[-95.64676,30.38788],[-95.6449,30.38818],[-95.64336,30.38791],[-95.64302,30.3876],[-95.64303,30.38662],[-95.64197,30.38706],[-95.64068,30.38702],[-95.63959,30.38658],[-95.63859,30.38651],[-95.63764,30.38692],[-95.63711,30.38628],[-95.63782,30.38484],[-95.63753,30.38484],[-95.63642,30.38594],[-95.63574,30.38608],[-95.63497,30.38576],[-95.63259,30.38564],[-95.63008,30.38415],[-95.63008,30.38376],[-95.63082,30.38335],[-95.63095,30.38305],[-95.62802,30.38284],[-95.62588,30.38143],[-95.62564,30.38056],[-95.62601,30.38026],[-95.6286,30.37955],[-95.62786,30.37836],[-95.62805,30.37724],[-95.62897,30.37751],[-95.62889,30.37811],[-95.62913,30.37824],[-95.62942,30.37827],[-95.62969,30.37779],[-95.63087,30.37813],[-95.63256,30.37808],[-95.63267,30.37763],[-95.63304,30.37735],[-95.63423,30.37696],[-95.63399,30.37655],[-95.63264,30.37614],[-95.63272,30.37559],[-95.63322,30.37547],[-95.63518,30.37591],[-95.63629,30.37522],[-95.63708,30.37508],[-95.63721,30.37485],[-95.63618,30.37401],[-95.63589,30.37408],[-95.63373,30.37311],[-95.63371,30.37353],[-95.63283,30.37392],[-95.63236,30.37324],[-95.63149,30.37347],[-95.63132,30.37333],[-95.63005,30.37376],[-95.62858,30.37344],[-95.62866,30.37211],[-95.62937,30.37086],[-95.63527,30.37345],[-95.64975,30.38155],[-95.6536,30.38297],[-95.67715,30.38745],[-95.68831,30.38915],[-95.69395,30.38921],[-95.69657,30.38851],[-95.69664,30.39155],[-95.6974,30.39274],[-95.69933,30.39948],[-95.69964,30.40189],[-95.69952,30.40238],[-95.69812,30.4041],[-95.69193,30.40411],[-95.68947,30.40426],[-95.68852,30.4046],[-95.68537,30.40803],[-95.68273,30.40977],[-95.68171,30.41101],[-95.67477,30.41566],[-95.67405,30.41686],[-95.67221,30.42237],[-95.67003,30.42533],[-95.66997,30.42501],[-95.67044,30.42425],[-95.66998,30.42395],[-95.66995,30.42315],[-95.66863,30.42254],[-95.66713,30.42242],[-95.66597,30.42172],[-95.66575,30.42067]]]}},{"type":"Feature","properties":{"PRECINCT":"montgomery:39","COUNTY":"Montgomery"},"geometry":{"type":"Polygon","coordinates":[[[-95.63148,30.34941],[-95.62931,30.3494],[-95.62905,30.34919],[-95.62891,30.34606],[-95.62948,30.34406],[-95.61256,30.34045],[-95.61086,30.3396],[-95.60537,30.33455],[-95.60512,30.33381],[-95.60539,30.33017],[-95.60512,30.3292],[-95.60356,30.32955],[-95.59938,30.3298],[-95.58814,30.32997],[-95.5881,30.31952],[-95.59318,30.31925],[-95.59316,30.31894],[-95.60016,30.31853],[-95.59982,30.30849],[-95.5983,30.30195],[-95.59795,30.29809],[-95.59674,30.29719],[-95.59631,30.29616],[-95.59563,30.29616],[-95.59518,30.29575],[-95.59529,30.29529],[-95.59489,30.29501],[-95.59484,30.29462],[-95.59455,30.29451],[-95.59439,30.29517],[-95.59399,30.29517],[-95.59331,30.29455],[-95.59275,30.29439],[-95.59315,30.29378],[-95.59381,30.29364],[-95.59304,30.29217],[-95.59273,30.29194],[-95.59204,30.2919],[-95.59172,30.29153],[-95.59032,30.29135],[-95.59038,30.29066],[-95.5899,30.29052],[-95.58903,30.28878],[-95.58827,30.28777],[-95.58745,30.28752],[-95.58721,30.28722],[-95.58703,30.28573],[-95.58737,30.28468],[-95.58634,30.2842],[-95.58608,30.28383],[-95.5861,30.28326],[-95.58579,30.28289],[-95.58568,30.28221],[-95.58632,30.28037],[-95.58564,30.27991],[-95.60713,30.27961],[-95.60716,30.27835],[-95.60734,30.27836],[-95.60731,30.27961],[-95.61227,30.27969],[-95.6123,30.27846],[-95.61275,30.27847],[-95.61272,30.2797],[-95.61934,30.27981],[-95.61937,30.27861],[-95.61986,30.27862],[-95.61984,30.27983],[-95.63122,30.28017],[-95.63121,30.28104],[-95.63192,30.28105],[-95.63228,30.28066],[-95.63187,30.28018],[-95.63219,30.27888],[-95.63513,30.27894],[-95.63572,30.27923],[-95.63608,30.28017],[-95.63655,30.28048],[-95.64183,30.28019],[-95.64202,30.2811],[-95.643,30.28183],[-95.64421,30.28325],[-95.64757,30.2826],[-95.64704,30.27795],[-95.64737,30.27736],[-95.64846,30.27741],[-95.64851,30.27571],[-95.66071,30.27578],[-95.66082,30.25199],[-95.66231,30.25158],[-95.66218,30.25058],[-95.66265,30.25042],[-95.6636,30.25078],[-95.66397,30.25071],[-95.66481,30.25009],[-95.6655,30.24995],[-95.66713,30.25009],[-95.66837,30.2511],[-95.66877,30.25089],[-95.66911,30.24979],[-95.6703,30.25023],[-95.67075,30.25064],[-95.67085,30.25117],[-95.67141,30.25147],[-95.67215,30.25137],[-95.67249,30.25094],[-95.67349,30.25135],[-95.67423,30.25126],[-95.67455,30.25169],[-95.67349,30.25279],[-95.67231,30.25321],[-95.67247,30.25435],[-95.67307,30.25449],[-95.67363,30.25504],[-95.67447,30.2552],[-95.6751,30.25591],[-95.67587,30.2563],[-95.67629,30.25669],[-95.676,30.25788],[-95.67621,30.2584],[-95.67714,30.25868],[-95.67819,30.25936],[-95.67888,30.25923],[-95.67922,30.25861],[-95.6797,30.25843],[-95.68112,30.25813],[-95.68199,30.25852],[-95.68218,30.26023],[-95.68292,30.26087],[-95.68373,30.26113],[-95.68424,30.26248],[-95.68421,30.26293],[-95.68374,30.26362],[-95.68379,30.26408],[-95.68429,30.26468],[-95.68376,30.26589],[-95.68387,30.26639],[-95.68416,30.26653],[-95.68471,30.26632],[-95.68498,30.26593],[-95.68587,30.26623],[-95.68587,30.26648],[-95.68498,30.26706],[-95.68498,30.26738],[-95.68543,30.26777],[-95.68537,30.26806],[-95.68487,30.26841],[-95.68482,30.2688],[-95.68559,30.27035],[-95.68553,30.27072],[-95.68509,30.27109],[-95.68509,30.27148],[-95.68546,30.27207],[-95.68685,30.27226],[-95.68709,30.27255],[-95.68709,30.27409],[-95.68833,30.27411],[-95.68902,30.27477],[-95.68989,30.27505],[-95.69023,30.27482],[-95.69076,30.275],[-95.69079,30.27571],[-95.69126,30.27628],[-95.69124,30.27656],[-95.69008,30.27677],[-95.69,30.27697],[-95.69061,30.27782],[-95.69171,30.27828],[-95.69282,30.27816],[-95.6934,30.2786],[-95.69433,30.27871],[-95.69546,30.27855],[-95.69512,30.27814],[-95.6953,30.27784],[-95.69667,30.27834],[-95.69752,30.27807],[-95.69876,30.27813],[-95.69916,30.27841],[-95.70013,30.27809],[-95.70098,30.27816],[-95.70145,30.27864],[-95.70179,30.27855],[-95.70211,30.278],[-95.70253,30.27852],[-95.70266,30.27925],[-95.70327,30.27962],[-95.70414,30.27944],[-95.70467,30.27964],[-95.70525,30.28045],[-95.70225,30.28339],[-95.7013,30.28472],[-95.70052,30.28671],[-95.70035,30.28833],[-95.69815,30.29441],[-95.69674,30.2995],[-95.69721,30.33132],[-95.69825,30.37412],[-95.69819,30.37902],[-95.69785,30.38061],[-95.69676,30.38321],[-95.69657,30.38851],[-95.69395,30.38921],[-95.68831,30.38915],[-95.67715,30.38745],[-95.6536,30.38297],[-95.64975,30.38155],[-95.63388,30.37279],[-95.63336,30.36985],[-95.63134,30.3641],[-95.63125,30.35857],[-95.6315,30.35834],[-95.63329,30.35793],[-95.63365,30.35669],[-95.63173,30.34964],[-95.63148,30.34941]]]}},{"type":"Feature","properties":{"PRECINCT":"montgomery:40","COUNTY":"Montgomery"},"geometry":{"type":"Polygon","coordinates":[[[-95.50354,30.36545],[-95.49014,30.36259],[-95.48968,30.36416],[-95.48495,30.36311],[-95.48399,30.35084],[-95.48337,30.34707],[-95.47826,30.33351],[-95.49268,30.32983],[-95.495,30.32827],[-95.49663,30.32583],[-95.50662,30.33024],[-95.51514,30.33576],[-95.52,30.33919],[-95.52209,30.34042],[-95.52469,30.34151],[-95.52791,30.34231],[-95.53089,30.34259],[-95.54629,30.34232],[-95.54908,30.34245],[-95.55185,30.34295],[-95.59585,30.35841],[-95.59572,30.35866],[-95.59643,30.359],[-95.59617,30.36033],[-95.59648,30.36063],[-95.59728,30.36033],[-95.59812,30.35932],[-95.59896,30.35959],[-95.59923,30.36004],[-95.59918,30.3604],[-95.59839,30.36136],[-95.59728,30.36239],[-95.59717,30.36326],[-95.59669,30.3634],[-95.59474,30.36299],[-95.59445,30.36253],[-95.59353,30.36198],[-95.59268,30.36212],[-95.59252,30.36267],[-95.5921,30.36294],[-95.59139,30.36276],[-95.59054,30.36217],[-95.58999,30.36217],[-95.58663,30.36308],[-95.58481,30.36306],[-95.58481,30.36363],[-95.58605,30.36452],[-95.586,30.3653],[-95.58766,30.36585],[-95.58766,30.36613],[-95.58713,30.36658],[-95.58719,30.36695],[-95.58808,30.36745],[-95.58824,30.36775],[-95.58808,30.3681],[-95.58708,30.36784],[-95.58608,30.36718],[-95.58568,30.36656],[-95.58455,30.36601],[-95.5841,30.36539],[-95.58299,30.36489],[-95.58127,30.36492],[-95.58096,30.36532],[-95.58039,30.36545],[-95.58046,30.36575],[-95.56873,30.36561],[-95.56875,30.36204],[-95.56817,30.36066],[-95.56526,30.358],[-95.56509,30.36291],[-95.56397,30.36388],[-95.52963,30.35629],[-95.52251,30.35806],[-95.52305,30.35891],[-95.51738,30.36041],[-95.51688,30.36215],[-95.51482,30.36177],[-95.51476,30.36197],[-95.51445,30.36189],[-95.51445,30.36241],[-95.51291,30.36254],[-95.5117,30.3619],[-95.51137,30.36192],[-95.51049,30.36289],[-95.51027,30.3639],[-95.50991,30.36398],[-95.5096,30.36471],[-95.50919,30.36452],[-95.50892,30.36481],[-95.50404,30.36376],[-95.50354,30.36545]]]}},{"type":"Feature","properties":{"PRECINCT":"montgomery:43","COUNTY":"Montgomery"},"geometry":{"type":"Polygon","coordinates":[[[-95.48633,30.38051],[-95.48495,30.36311],[-95.48968,30.36416],[-95.49014,30.36259],[-95.50354,30.36545],[-95.50404,30.36376],[-95.50892,30.36481],[-95.50919,30.36452],[-95.5096,30.36471],[-95.50991,30.36398],[-95.51027,30.3639],[-95.51049,30.36289],[-95.51137,30.36192],[-95.5117,30.3619],[-95.51291,30.36254],[-95.51445,30.36241],[-95.51445,30.36189],[-95.51476,30.36197],[-95.51482,30.36177],[-95.51688,30.36215],[-95.51738,30.36041],[-95.52305,30.35891],[-95.52251,30.35806],[-95.52963,30.35629],[-95.56397,30.36388],[-95.5604,30.36693],[-95.55938,30.36718],[-95.55498,30.37094],[-95.55424,30.37295],[-95.55409,30.37447],[-95.55276,30.3766],[-95.55144,30.37786],[-95.5507,30.3805],[-95.54908,30.38302],[-95.54892,30.38491],[-95.54715,30.38969],[-95.54564,30.39194],[-95.54285,30.39016],[-95.54109,30.38996],[-95.53388,30.38815],[-95.52896,30.38197],[-95.52876,30.3811],[-95.52899,30.38019],[-95.52672,30.37982],[-95.52635,30.38093],[-95.52567,30.38081],[-95.52359,30.38217],[-95.52201,30.38284],[-95.52105,30.38382],[-95.51987,30.38625],[-95.51865,30.39043],[-95.51774,30.39474],[-95.5162,30.39772],[-95.51563,30.39838],[-95.51361,30.39948],[-95.49229,30.42004],[-95.49262,30.42087],[-95.49196,30.42106],[-95.48799,30.40799],[-95.48722,30.40404],[-95.48633,30.38051]]]}},{"type":"Feature","properties":{"PRECINCT":"montgomery:44","COUNTY":"Montgomery"},"geometry":{"type":"Polygon","coordinates":[[[-95.44536,30.38702],[-95.44452,30.38674],[-95.44251,30.38665],[-95.44172,30.38627],[-95.44011,30.38457],[-95.43926,30.38423],[-95.43638,30.38391],[-95.43596,30.3837],[-95.43416,30.38199],[-95.43442,30.381],[-95.43418,30.38045],[-95.4335,30.38034],[-95.43302,30.37999],[-95.43162,30.37995],[-95.43075,30.37958],[-95.42948,30.37848],[-95.42863,30.37725],[-95.42768,30.37667],[-95.42676,30.37555],[-95.42636,30.37457],[-95.42639,30.37383],[-95.42562,30.37335],[-95.42504,30.37264],[-95.42414,30.37228],[-95.42303,30.37095],[-95.42324,30.3701],[-95.4239,30.36932],[-95.42379,30.36834],[-95.42482,30.36751],[-95.42472,30.36644],[-95.42495,30.36575],[-95.42411,30.36554],[-95.42221,30.36632],[-95.42118,30.36543],[-95.42078,30.36534],[-95.42044,30.36477],[-95.41912,30.36447],[-95.41711,30.36532],[-95.41665,30.36467],[-95.41806,30.36249],[-95.42327,30.35614],[-95.42697,30.35076],[-95.42875,30.34299],[-95.42974,30.34064],[-95.44022,30.33982],[-95.44566,30.34022],[-95.44777,30.34011],[-95.45432,30.33863],[-95.45957,30.33791],[-95.47826,30.33351],[-95.48296,30.34591],[-95.4836,30.34817],[-95.48529,30.36688],[-95.47641,30.36492],[-95.47777,30.36901],[-95.47714,30.36897],[-95.47544,30.37051],[-95.4701,30.37891],[-95.46235,30.3729],[-95.46227,30.37263],[-95.44761,30.3884],[-95.44629,30.38784],[-95.44536,30.38702]]]}},{"type":"Feature","properties":{"PRECINCT":"montgomery:5","COUNTY":"Montgomery"},"geometry":{"type":"Polygon","coordinates":[[[-95.83024,30.63028],[-95.76154,30.59482],[-95.69918,30.56172],[-95.63105,30.52596],[-95.63677,30.52599],[-95.63927,30.52634],[-95.64727,30.52677],[-95.67078,30.53047],[-95.673,30.53023],[-95.6819,30.5276],[-95.68462,30.52701],[-95.69913,30.52477],[-95.71051,30.52386],[-95.71317,30.52389],[-95.7166,30.52437],[-95.72236,30.5247],[-95.72974,30.52425],[-95.73153,30.52728],[-95.73358,30.52908],[-95.73384,30.52924],[-95.73986,30.52915],[-95.7397,30.53035],[-95.74879,30.53028],[-95.74867,30.52756],[-95.76732,30.5276],[-95.76736,30.52594],[-95.78861,30.52582],[-95.78857,30.52316],[-95.79334,30.52053],[-95.794,30.51991],[-95.80148,30.50981],[-95.80523,30.50934],[-95.80791,30.50476],[-95.80997,30.5022],[-95.81028,30.50138],[-95.81024,30.50022],[-95.81195,30.50058],[-95.81273,30.50112],[-95.8131,30.50419],[-95.81382,30.50499],[-95.81377,30.50621],[-95.81474,30.50823],[-95.81461,30.50933],[-95.81505,30.51064],[-95.8154,30.51018],[-95.81516,30.50933],[-95.81561,30.50883],[-95.81556,30.5083],[-95.81611,30.50786],[-95.81632,30.50736],[-95.81683,30.50716],[-95.81683,30.50677],[-95.81611,30.50596],[-95.81625,30.50363],[-95.81603,30.50303],[-95.81659,30.50216],[-95.81614,30.50189],[-95.81551,30.50207],[-95.81429,30.50051],[-95.81342,30.50022],[-95.81748,30.50022],[-95.81798,30.50308],[-95.81895,30.51292],[-95.83024,30.63028]]]}},{"type":"Feature","properties":{"PRECINCT":"montgomery:50","COUNTY":"Montgomery"},"geometry":{"type":"Polygon","coordinates":[[[-95.55987,30.42848],[-95.55818,30.42718],[-95.55712,30.42665],[-95.55704,30.42635],[-95.55592,30.42628],[-95.55657,30.4262],[-95.55781,30.42657],[-95.55963,30.42732],[-95.5604,30.42723],[-95.56111,30.42619],[-95.56122,30.4253],[-95.56206,30.42505],[-95.56352,30.42363],[-95.56354,30.42333],[-95.5622,30.42223],[-95.56349,30.42157],[-95.56335,30.42124],[-95.5607,30.42046],[-95.56046,30.42131],[-95.55513,30.4201],[-95.55427,30.41983],[-95.55379,30.41874],[-95.54793,30.41746],[-95.5435,30.42085],[-95.5417,30.42666],[-95.5271,30.42313],[-95.50761,30.41882],[-95.5061,30.41872],[-95.50097,30.41903],[-95.49501,30.42053],[-95.49262,30.42087],[-95.49229,30.42004],[-95.51361,30.39948],[-95.51587,30.39812],[-95.51754,30.39531],[-95.51965,30.38691],[-95.52105,30.38382],[-95.52201,30.38284],[-95.52359,30.38217],[-95.52549,30.38088],[-95.52635,30.38093],[-95.52672,30.37982],[-95.52899,30.38019],[-95.52876,30.3811],[-95.52896,30.38197],[-95.53388,30.38815],[-95.54109,30.38996],[-95.54285,30.39016],[-95.54564,30.39194],[-95.54715,30.38969],[-95.54892,30.38491],[-95.54908,30.38302],[-95.5507,30.3805],[-95.55144,30.37786],[-95.55276,30.3766],[-95.55409,30.37447],[-95.55424,30.37295],[-95.55498,30.37094],[-95.55938,30.36718],[-95.5604,30.36693],[-95.56509,30.36291],[-95.56526,30.358],[-95.56817,30.36066],[-95.56875,30.36204],[-95.56871,30.36873],[-95.57001,30.37213],[-95.57044,30.37277],[-95.5764,30.37808],[-95.57625,30.37833],[-95.57683,30.37922],[-95.57661,30.39321],[-95.58765,30.40283],[-95.58747,30.40913],[-95.58308,30.4129],[-95.58176,30.41315],[-95.58059,30.41377],[-95.57781,30.41464],[-95.57532,30.4164],[-95.5743,30.41652],[-95.57195,30.41853],[-95.57166,30.41928],[-95.56696,30.42317],[-95.56667,30.42405],[-95.56549,30.42594],[-95.56226,30.42883],[-95.56197,30.4292],[-95.56196,30.43124],[-95.55897,30.43032],[-95.55987,30.42848]]]}},{"type":"Feature","properties":{"PRECINCT":"montgomery:51","COUNTY":"Montgomery"},"geometry":{"type":"Polygon","coordinates":[[[-95.46431,30.31983],[-95.46176,30.31222],[-95.45582,30.31217],[-95.45592,30.2905],[-95.45919,30.28803],[-95.46169,30.28733],[-95.46189,30.28687],[-95.46328,30.28981],[-95.47413,30.32252],[-95.47826,30.33351],[-95.46765,30.33608],[-95.46506,30.32681],[-95.46431,30.31983]]]}},{"type":"Feature","properties":{"PRECINCT":"montgomery:55","COUNTY":"Montgomery"},"geometry":{"type":"Polygon","coordinates":[[[-95.37738,30.33896],[-95.37711,30.33887],[-95.37656,30.33921],[-95.37582,30.33864],[-95.37405,30.33905],[-95.37257,30.33899],[-95.37252,30.33805],[-95.37146,30.33729],[-95.37136,30.33637],[-95.37101,30.33628],[-95.37025,30.33667],[-95.36983,30.3358],[-95.36874,30.33585],[-95.36771,30.33459],[-95.36621,30.33395],[-95.36322,30.33431],[-95.36211,30.33388],[-95.36153,30.33289],[-95.36151,30.33177],[-95.35542,30.33288],[-95.35086,30.33309],[-95.3281,30.333],[-95.31959,30.33242],[-95.32048,30.3264],[-95.31911,30.30919],[-95.31831,30.30667],[-95.31775,30.30564],[-95.30577,30.28598],[-95.30568,30.28507],[-95.30661,30.27721],[-95.30631,30.27293],[-95.30511,30.26835],[-95.30272,30.26317],[-95.30156,30.26],[-95.31221,30.2571],[-95.31412,30.25942],[-95.31559,30.26165],[-95.31814,30.26308],[-95.31997,30.26512],[-95.32058,30.27144],[-95.32269,30.27583],[-95.32412,30.27714],[-95.32723,30.27893],[-95.33177,30.283],[-95.33324,30.28465],[-95.33355,30.28618],[-95.33397,30.28684],[-95.33718,30.28924],[-95.33878,30.29006],[-95.34395,30.29164],[-95.34633,30.29261],[-95.35133,30.294],[-95.35244,30.29486],[-95.35529,30.29787],[-95.35781,30.29978],[-95.35815,30.30053],[-95.35827,30.30462],[-95.36129,30.3087],[-95.36335,30.3124],[-95.36365,30.31349],[-95.36577,30.31388],[-95.37097,30.31602],[-95.37416,30.31705],[-95.37606,30.31866],[-95.37674,30.31896],[-95.384,30.31902],[-95.38786,30.31979],[-95.38786,30.32472],[-95.38835,30.3263],[-95.39581,30.32477],[-95.38408,30.32976],[-95.38524,30.33394],[-95.38598,30.33458],[-95.38853,30.33562],[-95.38897,30.33603],[-95.38963,30.3381],[-95.38947,30.33867],[-95.38879,30.33943],[-95.38879,30.33996],[-95.38781,30.34002],[-95.38604,30.33942],[-95.3844,30.33937],[-95.38406,30.33875],[-95.38324,30.33878],[-95.38332,30.33772],[-95.38306,30.33754],[-95.38168,30.33754],[-95.38129,30.33818],[-95.38134,30.33917],[-95.37978,30.34022],[-95.37748,30.33958],[-95.37738,30.33896]]]}},{"type":"Feature","properties":{"PRECINCT":"montgomery:57","COUNTY":"Montgomery"},"geometry":{"type":"Polygon","coordinates":[[[-95.49145,30.50883],[-95.49196,30.50162],[-95.4965,30.47212],[-95.49659,30.4685],[-95.49608,30.4632],[-95.49544,30.43603],[-95.50606,30.43897],[-95.51036,30.43965],[-95.54571,30.44775],[-95.54576,30.45458],[-95.54642,30.45574],[-95.54587,30.45551],[-95.54634,30.45636],[-95.54721,30.45712],[-95.54853,30.45725],[-95.54999,30.4565],[-95.55204,30.45651],[-95.55349,30.4569],[-95.5551,30.45766],[-95.55831,30.45767],[-95.5605,30.45718],[-95.56256,30.45542],[-95.56796,30.45544],[-95.56942,30.4557],[-95.57,30.45608],[-95.5776,30.45598],[-95.57993,30.4565],[-95.58649,30.45652],[-95.58517,30.45701],[-95.58503,30.45786],[-95.58597,30.45894],[-95.58388,30.45921],[-95.58302,30.46554],[-95.58394,30.4708],[-95.58157,30.47125],[-95.58326,30.47314],[-95.58052,30.47714],[-95.58005,30.47941],[-95.57923,30.48168],[-95.59477,30.50021],[-95.59827,30.50331],[-95.59905,30.50504],[-95.59916,30.50655],[-95.59888,30.50898],[-95.49145,30.50883]]]}},{"type":"Feature","properties":{"PRECINCT":"montgomery:60","COUNTY":"Montgomery"},"geometry":{"type":"Polygon","coordinates":[[[-95.40973,30.35499],[-95.40702,30.35499],[-95.40564,30.35437],[-95.40461,30.35428],[-95.40303,30.35467],[-95.40099,30.35414],[-95.39999,30.35419],[-95.39862,30.35268],[-95.39782,30.35103],[-95.39626,30.34982],[-95.39576,30.34872],[-95.39592,30.3456],[-95.39513,30.34487],[-95.39523,30.34391],[-95.39436,30.34315],[-95.39436,30.34244],[-95.39151,30.34059],[-95.39119,30.33981],[-95.39079,30.3396],[-95.38879,30.33996],[-95.38879,30.33943],[-95.38947,30.33867],[-95.38963,30.3381],[-95.38897,30.33603],[-95.38853,30.33562],[-95.38598,30.33458],[-95.38524,30.33394],[-95.38408,30.32976],[-95.39581,30.32477],[-95.38835,30.3263],[-95.38786,30.32472],[-95.38786,30.31979],[-95.38991,30.32029],[-95.39323,30.32166],[-95.39733,30.3239],[-95.39904,30.32357],[-95.39884,30.31761],[-95.4171,30.31985],[-95.4192,30.31983],[-95.41929,30.32012],[-95.43243,30.31915],[-95.43425,30.31862],[-95.44171,30.31559],[-95.44514,30.31497],[-95.44681,30.31983],[-95.44423,30.32108],[-95.44281,30.32212],[-95.43638,30.32897],[-95.43459,30.33172],[-95.43911,30.33057],[-95.4386,30.32886],[-95.44183,30.32847],[-95.44466,30.32666],[-95.44532,30.32678],[-95.44481,30.32559],[-95.44466,30.32405],[-95.44558,30.3238],[-95.44621,30.32547],[-95.44655,30.32566],[-95.44753,30.32539],[-95.4477,30.32498],[-95.44726,30.32343],[-95.44929,30.32287],[-95.44972,30.32438],[-95.44946,30.32531],[-95.45027,30.32777],[-95.45573,30.32647],[-95.45583,30.32951],[-95.45713,30.33825],[-95.45432,30.33863],[-95.44739,30.34017],[-95.44566,30.34022],[-95.44022,30.33982],[-95.42974,30.34064],[-95.42875,30.34299],[-95.42697,30.35076],[-95.42327,30.35614],[-95.41806,30.36249],[-95.41665,30.36467],[-95.41534,30.36307],[-95.4142,30.3622],[-95.41388,30.36062],[-95.41341,30.35968],[-95.4109,30.35813],[-95.41079,30.35572],[-95.41042,30.35526],[-95.40973,30.35499]]]}},{"type":"Feature","properties":{"PRECINCT":"montgomery:63","COUNTY":"Montgomery"},"geometry":{"type":"Polygon","coordinates":[[[-95.62701,30.40919],[-95.61669,30.40644],[-95.59158,30.4065],[-95.57661,30.39321],[-95.57683,30.37922],[-95.57625,30.37833],[-95.5764,30.37808],[-95.57828,30.37973],[-95.57901,30.38011],[-95.6025,30.38045],[-95.60382,30.37995],[-95.61243,30.37998],[-95.61389,30.38049],[-95.61622,30.38088],[-95.62001,30.38102],[-95.62422,30.37862],[-95.62587,30.37726],[-95.62631,30.3765],[-95.62763,30.37537],[-95.62735,30.37222],[-95.62903,30.37077],[-95.62932,30.37094],[-95.62866,30.37211],[-95.62858,30.37344],[-95.63005,30.37376],[-95.63132,30.37333],[-95.63149,30.37347],[-95.63236,30.37324],[-95.63283,30.37392],[-95.63371,30.37353],[-95.63373,30.37311],[-95.63589,30.37408],[-95.63618,30.37401],[-95.63721,30.37485],[-95.63708,30.37508],[-95.63629,30.37522],[-95.63518,30.37591],[-95.63322,30.37547],[-95.63272,30.37559],[-95.63264,30.37614],[-95.63399,30.37655],[-95.63423,30.37696],[-95.63304,30.37735],[-95.63267,30.37763],[-95.63256,30.37808],[-95.63087,30.37813],[-95.62969,30.37779],[-95.62942,30.37827],[-95.62913,30.37824],[-95.62889,30.37811],[-95.62897,30.37751],[-95.62805,30.37724],[-95.62786,30.37836],[-95.6286,30.37955],[-95.62601,30.38026],[-95.62564,30.38056],[-95.62564,30.38113],[-95.62699,30.3823],[-95.62802,30.38284],[-95.63095,30.38305],[-95.63082,30.38335],[-95.63008,30.38376],[-95.63008,30.38415],[-95.63259,30.38564],[-95.63497,30.38576],[-95.63574,30.38608],[-95.63642,30.38594],[-95.63753,30.38484],[-95.63782,30.38484],[-95.63711,30.38628],[-95.63764,30.38692],[-95.63859,30.38651],[-95.63959,30.38658],[-95.64068,30.38702],[-95.64197,30.38706],[-95.64303,30.38662],[-95.64302,30.3876],[-95.64336,30.38791],[-95.6449,30.38818],[-95.64676,30.38788],[-95.64721,30.38802],[-95.64799,30.38906],[-95.64943,30.38938],[-95.65091,30.3905],[-95.65196,30.39079],[-95.65283,30.39139],[-95.65521,30.3923],[-95.65332,30.39209],[-95.65335,30.3933],[-95.65287,30.39347],[-95.65202,30.39331],[-95.65122,30.39263],[-95.64957,30.39235],[-95.64924,30.39206],[-95.64732,30.39161],[-95.64689,30.39232],[-95.64572,30.39306],[-95.64546,30.3935],[-95.64549,30.39409],[-95.64633,30.3959],[-95.64736,30.39682],[-95.64857,30.39713],[-95.64992,30.39649],[-95.65075,30.39681],[-95.65168,30.39842],[-95.65233,30.39892],[-95.65284,30.40161],[-95.65317,30.40155],[-95.65274,30.39948],[-95.65534,30.4008],[-95.65688,30.40123],[-95.6568,30.40151],[-95.65503,30.40178],[-95.65442,30.40256],[-95.65453,30.40323],[-95.65722,30.40327],[-95.65733,30.40371],[-95.65455,30.40492],[-95.6538,30.40489],[-95.65335,30.40462],[-95.65356,30.40411],[-95.65292,30.40372],[-95.65334,30.40275],[-95.65318,30.40181],[-95.65287,30.40185],[-95.65297,30.4028],[-95.65262,30.40348],[-95.65219,30.40323],[-95.65054,30.40298],[-95.65008,30.40234],[-95.64909,30.40181],[-95.64887,30.40194],[-95.64843,30.40172],[-95.64739,30.40011],[-95.64435,30.39966],[-95.64419,30.39945],[-95.64451,30.39849],[-95.64419,30.39812],[-95.6434,30.3978],[-95.64279,30.3967],[-95.64157,30.39658],[-95.64119,30.39538],[-95.64044,30.39535],[-95.63931,30.39624],[-95.63863,30.39629],[-95.63923,30.39549],[-95.63941,30.39442],[-95.63901,30.39397],[-95.63816,30.39388],[-95.6371,30.39282],[-95.63529,30.39268],[-95.63365,30.39357],[-95.63307,30.39336],[-95.63351,30.39385],[-95.63525,30.39286],[-95.63585,30.39293],[-95.63619,30.39327],[-95.63606,30.39352],[-95.63519,30.39364],[-95.63571,30.39444],[-95.63574,30.3953],[-95.63536,30.39554],[-95.63402,30.39514],[-95.63393,30.39545],[-95.63329,30.39508],[-95.63329,30.39474],[-95.63269,30.39454],[-95.63317,30.39417],[-95.63262,30.39365],[-95.63251,30.39402],[-95.63278,30.39426],[-95.6325,30.39446],[-95.63093,30.39343],[-95.6309,30.39318],[-95.63122,30.39297],[-95.63127,30.3918],[-95.63063,30.39153],[-95.63045,30.39228],[-95.63063,30.39293],[-95.62959,30.39335],[-95.62908,30.39511],[-95.62882,30.39539],[-95.62796,30.39527],[-95.62751,30.39564],[-95.62712,30.39712],[-95.62751,30.39903],[-95.62677,30.40063],[-95.62623,30.40113],[-95.62735,30.40196],[-95.63123,30.4036],[-95.63375,30.40425],[-95.64654,30.40417],[-95.64656,30.41043],[-95.64713,30.41047],[-95.64785,30.41118],[-95.64866,30.41143],[-95.64866,30.41216],[-95.64933,30.41234],[-95.65022,30.41335],[-95.65033,30.4144],[-95.65089,30.41504],[-95.64513,30.41307],[-95.62701,30.40919]]]}},{"type":"Feature","properties":{"PRECINCT":"montgomery:72","COUNTY":"Montgomery"},"geometry":{"type":"Polygon","coordinates":[[[-95.59887,30.43716],[-95.5989,30.43199],[-95.59831,30.43136],[-95.59832,30.43073],[-95.59716,30.42909],[-95.59707,30.41812],[-95.59649,30.41698],[-95.59621,30.41396],[-95.59592,30.4137],[-95.59592,30.41333],[-95.59258,30.41029],[-95.59258,30.4094],[-95.59215,30.4089],[-95.59215,30.40789],[-95.59157,30.40739],[-95.59143,30.40688],[-95.59158,30.4065],[-95.61669,30.40644],[-95.62701,30.40919],[-95.64513,30.41307],[-95.65113,30.41512],[-95.65339,30.41392],[-95.65352,30.41433],[-95.65231,30.4159],[-95.65253,30.4165],[-95.65474,30.41757],[-95.6559,30.41762],[-95.65598,30.41781],[-95.65563,30.41808],[-95.65588,30.41836],[-95.65735,30.41821],[-95.65948,30.41888],[-95.66071,30.41859],[-95.66103,30.41869],[-95.66155,30.41968],[-95.66397,30.42079],[-95.66497,30.4208],[-95.66553,30.42055],[-95.66575,30.42067],[-95.66597,30.42172],[-95.66713,30.42242],[-95.66863,30.42254],[-95.66974,30.42301],[-95.66995,30.42315],[-95.66998,30.42395],[-95.67044,30.42425],[-95.66997,30.42501],[-95.67003,30.42533],[-95.66581,30.43053],[-95.66357,30.43268],[-95.6629,30.43377],[-95.66143,30.43438],[-95.65026,30.4344],[-95.64925,30.43487],[-95.648,30.43653],[-95.64702,30.43687],[-95.59887,30.43716]]]}},{"type":"Feature","properties":{"PRECINCT":"montgomery:73","COUNTY":"Montgomery"},"geometry":{"type":"Polygon","coordinates":[[[-95.47436,30.30394],[-95.47561,30.30214],[-95.4764,30.30262],[-95.47756,30.30289],[-95.47853,30.30258],[-95.47865,30.3016],[-95.47813,30.30096],[-95.47642,30.30156],[-95.47592,30.30006],[-95.4743,30.29999],[-95.47466,30.29935],[-95.47814,30.29848],[-95.4785,30.29798],[-95.47821,30.29588],[-95.47582,30.29642],[-95.47697,30.29453],[-95.47898,30.29215],[-95.4802,30.29108],[-95.48216,30.28743],[-95.48312,30.28464],[-95.4856,30.28498],[-95.48774,30.28574],[-95.48953,30.28691],[-95.49293,30.29006],[-95.49435,30.29102],[-95.49896,30.29263],[-95.50585,30.29605],[-95.50714,30.29719],[-95.50823,30.29874],[-95.50945,30.30219],[-95.50962,30.30371],[-95.509,30.30655],[-95.50557,30.31287],[-95.50153,30.31111],[-95.49805,30.3102],[-95.47244,30.30821],[-95.47473,30.30629],[-95.47436,30.30394]]]}},{"type":"Feature","properties":{"PRECINCT":"montgomery:77","COUNTY":"Montgomery"},"geometry":{"type":"Polygon","coordinates":[[[-95.57901,30.38011],[-95.57828,30.37973],[-95.57044,30.37277],[-95.56871,30.36873],[-95.56873,30.36561],[-95.58046,30.36575],[-95.58039,30.36545],[-95.58096,30.36532],[-95.58127,30.36492],[-95.58299,30.36489],[-95.5841,30.36539],[-95.58455,30.36601],[-95.58568,30.36656],[-95.58608,30.36718],[-95.58708,30.36784],[-95.58808,30.3681],[-95.58824,30.36775],[-95.58808,30.36745],[-95.58719,30.36695],[-95.58713,30.36658],[-95.58766,30.36613],[-95.58766,30.36585],[-95.586,30.3653],[-95.58605,30.36452],[-95.58481,30.36363],[-95.58481,30.36306],[-95.58663,30.36308],[-95.58999,30.36217],[-95.59054,30.36217],[-95.59139,30.36276],[-95.5921,30.36294],[-95.59252,30.36267],[-95.59268,30.36212],[-95.59353,30.36198],[-95.59445,30.36253],[-95.59474,30.36299],[-95.59669,30.3634],[-95.59717,30.36326],[-95.59728,30.36239],[-95.59839,30.36136],[-95.59918,30.3604],[-95.59923,30.36004],[-95.59896,30.35959],[-95.59812,30.35932],[-95.59728,30.36033],[-95.59648,30.36063],[-95.59617,30.36033],[-95.59643,30.359],[-95.59572,30.35866],[-95.59585,30.35841],[-95.62156,30.36752],[-95.62937,30.37086],[-95.62903,30.37077],[-95.62735,30.37222],[-95.62763,30.37537],[-95.62631,30.3765],[-95.62587,30.37726],[-95.62422,30.37862],[-95.62001,30.38102],[-95.61622,30.38088],[-95.61389,30.38049],[-95.61243,30.37998],[-95.60382,30.37995],[-95.6025,30.38045],[-95.57901,30.38011]]]}},{"type":"Feature","properties":{"PRECINCT":"montgomery:8","COUNTY":"Montgomery"},"geometry":{"type":"Polygon","coordinates":[[[-95.36205,30.50866],[-95.36162,30.50876],[-95.36171,30.50838],[-95.36141,30.50821],[-95.36181,30.50782],[-95.36102,30.50727],[-95.36098,30.50706],[-95.36122,30.50711],[-95.36128,30.5069],[-95.36082,30.50652],[-95.36069,30.5054],[-95.3597,30.50493],[-95.35954,30.50454],[-95.35894,30.50425],[-95.3573,30.5019],[-95.35696,30.50187],[-95.35681,30.5],[-95.35491,30.49831],[-95.35471,30.49739],[-95.35333,30.49507],[-95.35288,30.49332],[-95.35311,30.49317],[-95.35356,30.4904],[-95.35336,30.48755],[-95.35242,30.48401],[-95.35168,30.48233],[-95.35158,30.48125],[-95.35116,30.48116],[-95.35068,30.47996],[-95.35022,30.47991],[-95.35054,30.47961],[-95.35014,30.47943],[-95.35045,30.4791],[-95.3506,30.4771],[-95.35031,30.47672],[-95.35071,30.47606],[-95.35018,30.47523],[-95.34953,30.47532],[-95.34825,30.47416],[-95.34781,30.47174],[-95.34747,30.47154],[-95.34713,30.47058],[-95.34572,30.46877],[-95.34561,30.46831],[-95.34519,30.46821],[-95.34364,30.46696],[-95.3414,30.46451],[-95.34046,30.46228],[-95.34058,30.46109],[-95.34006,30.45889],[-95.33917,30.45734],[-95.33903,30.45659],[-95.33851,30.45599],[-95.33851,30.45529],[-95.33701,30.45147],[-95.33704,30.45089],[-95.33665,30.45074],[-95.33598,30.44946],[-95.33434,30.44733],[-95.33356,30.44702],[-95.33308,30.44639],[-95.33236,30.44613],[-95.33218,30.44542],[-95.33116,30.44462],[-95.33028,30.4431],[-95.33053,30.44024],[-95.33091,30.439],[-95.33083,30.43561],[-95.33017,30.43485],[-95.32953,30.43319],[-95.32873,30.43253],[-95.32827,30.43171],[-95.32605,30.42981],[-95.32526,30.42852],[-95.32375,30.42687],[-95.32292,30.42547],[-95.32222,30.42534],[-95.32171,30.42495],[-95.32149,30.42424],[-95.31906,30.42185],[-95.3187,30.42099],[-95.31706,30.41956],[-95.3163,30.41749],[-95.31412,30.41399],[-95.31427,30.41336],[-95.3141,30.41237],[-95.3138,30.41217],[-95.31323,30.41227],[-95.31271,30.41145],[-95.31185,30.41119],[-95.3119,30.41082],[-95.31089,30.41049],[-95.31088,30.40989],[-95.30986,30.40894],[-95.30883,30.40744],[-95.30907,30.40677],[-95.3084,30.40575],[-95.30724,30.40531],[-95.30527,30.4041],[-95.30331,30.40237],[-95.2998,30.40237],[-95.29943,30.40188],[-95.29871,30.4018],[-95.29827,30.40131],[-95.29646,30.40047],[-95.29569,30.3995],[-95.29447,30.39901],[-95.29309,30.39807],[-95.29127,30.39735],[-95.29006,30.39635],[-95.2884,30.39547],[-95.28676,30.39526],[-95.28193,30.39523],[-95.28068,30.39494],[-95.2792,30.39406],[-95.27737,30.39375],[-95.27703,30.39353],[-95.27604,30.39189],[-95.27494,30.39086],[-95.27203,30.38955],[-95.27118,30.38948],[-95.27087,30.38902],[-95.26946,30.38816],[-95.26863,30.38643],[-95.26779,30.38633],[-95.26728,30.38596],[-95.26591,30.3855],[-95.2654,30.38556],[-95.26456,30.38457],[-95.26334,30.38426],[-95.26442,30.38298],[-95.26491,30.38271],[-95.26703,30.38229],[-95.2701,30.3809],[-95.27708,30.3761],[-95.28579,30.37067],[-95.28592,30.37015],[-95.2852,30.36724],[-95.28645,30.36611],[-95.28663,30.36413],[-95.28945,30.36415],[-95.2891,30.36576],[-95.28931,30.36908],[-95.28872,30.37064],[-95.28875,30.37172],[-95.29028,30.37477],[-95.29032,30.37582],[-95.29995,30.3763],[-95.30157,30.37481],[-95.30687,30.37494],[-95.31158,30.37521],[-95.31388,30.37558],[-95.31822,30.37575],[-95.32395,30.37224],[-95.33135,30.36879],[-95.3297,30.37087],[-95.32935,30.37176],[-95.32813,30.39487],[-95.33051,30.39676],[-95.33304,30.39444],[-95.3366,30.39686],[-95.33734,30.39716],[-95.33871,30.39726],[-95.34145,30.39626],[-95.3405,30.39465],[-95.34066,30.39213],[-95.33985,30.39094],[-95.34195,30.38893],[-95.3386,30.38401],[-95.3382,30.38397],[-95.33955,30.38175],[-95.33979,30.38081],[-95.33952,30.37685],[-95.34,30.3755],[-95.33929,30.37408],[-95.33802,30.37272],[-95.33797,30.37178],[-95.33857,30.37167],[-95.33879,30.36963],[-95.33947,30.36915],[-95.33966,30.36858],[-95.34045,30.36812],[-95.34003,30.36707],[-95.34066,30.36649],[-95.34114,30.36528],[-95.34193,30.36466],[-95.34209,30.36427],[-95.3418,30.36352],[-95.34101,30.36326],[-95.34098,30.36278],[-95.34169,30.3607],[-95.3422,30.35744],[-95.34225,30.35664],[-95.34159,30.35564],[-95.34164,30.35467],[-95.34238,30.35335],[-95.34302,30.35341],[-95.34355,30.35422],[-95.34415,30.35442],[-95.34505,30.35392],[-95.34542,30.35307],[-95.34566,30.35289],[-95.34595,30.353],[-95.34698,30.35468],[-95.34724,30.35596],[-95.34893,30.35731],[-95.34946,30.35894],[-95.35073,30.35914],[-95.35155,30.35978],[-95.35142,30.36072],[-95.35268,30.36164],[-95.35395,30.36343],[-95.35376,30.3642],[-95.35479,30.36418],[-95.35543,30.36375],[-95.35609,30.36391],[-95.35715,30.36363],[-95.35762,30.36315],[-95.35831,30.36345],[-95.35831,30.36521],[-95.35794,30.36556],[-95.35791,30.36615],[-95.35884,30.36746],[-95.35871,30.3684],[-95.35915,30.36883],[-95.35913,30.36918],[-95.35878,30.36966],[-95.3577,30.37007],[-95.35754,30.37034],[-95.35804,30.3714],[-95.35791,30.37188],[-95.35728,30.37229],[-95.35775,30.37302],[-95.35773,30.37344],[-95.35672,30.37403],[-95.35757,30.37563],[-95.35889,30.37692],[-95.35891,30.37719],[-95.35828,30.37786],[-95.35849,30.3788],[-95.35931,30.37919],[-95.35992,30.37994],[-95.36074,30.3804],[-95.36148,30.38017],[-95.36209,30.37942],[-95.36277,30.37946],[-95.36343,30.38015],[-95.36428,30.37976],[-95.3651,30.38054],[-95.36555,30.3815],[-95.36589,30.38148],[-95.36631,30.3809],[-95.36676,30.381],[-95.36684,30.3815],[-95.36745,30.38168],[-95.36824,30.38265],[-95.36869,30.38262],[-95.36888,30.38209],[-95.3693,30.38205],[-95.37123,30.38386],[-95.37165,30.38457],[-95.3717,30.38569],[-95.37247,30.3856],[-95.37273,30.38617],[-95.37374,30.38649],[-95.37456,30.38764],[-95.37564,30.38828],[-95.37575,30.38903],[-95.3754,30.3894],[-95.37535,30.38988],[-95.37625,30.39059],[-95.3763,30.39112],[-95.37556,30.39229],[-95.3767,30.39256],[-95.37741,30.39387],[-95.37823,30.39428],[-95.37887,30.39494],[-95.37931,30.39497],[-95.37968,30.39437],[-95.38024,30.39481],[-95.38098,30.39492],[-95.38106,30.3952],[-95.38045,30.39549],[-95.3805,30.39579],[-95.38138,30.39581],[-95.38193,30.39673],[-95.38225,30.39687],[-95.38338,30.39646],[-95.38367,30.39655],[-95.3837,30.3971],[-95.38404,30.39751],[-95.38521,30.39705],[-95.38566,30.39712],[-95.38605,30.39785],[-95.38693,30.39849],[-95.38711,30.3992],[-95.38782,30.39893],[-95.38854,30.39934],[-95.38859,30.40078],[-95.38798,30.4012],[-95.38804,30.40152],[-95.38846,30.40166],[-95.38854,30.40218],[-95.38936,30.40259],[-95.38938,30.40294],[-95.38859,30.40342],[-95.38883,30.40408],[-95.38846,30.40459],[-95.38886,30.40489],[-95.38864,30.40543],[-95.38883,30.4061],[-95.38946,30.40658],[-95.38954,30.40692],[-95.3902,30.40715],[-95.39005,30.40777],[-95.39031,30.40841],[-95.39076,30.40869],[-95.39087,30.40944],[-95.39121,30.40944],[-95.39147,30.40905],[-95.39174,30.4091],[-95.39174,30.4107],[-95.39235,30.41079],[-95.39298,30.41045],[-95.39417,30.41109],[-95.39409,30.41132],[-95.39351,30.4115],[-95.39351,30.41173],[-95.39438,30.41171],[-95.39573,30.4124],[-95.39552,30.41338],[-95.3957,30.41359],[-95.3965,30.4134],[-95.39639,30.41423],[-95.39742,30.41444],[-95.39742,30.41501],[-95.39798,30.4151],[-95.39816,30.41597],[-95.39909,30.41585],[-95.4003,30.41663],[-95.40065,30.41711],[-95.40051,30.41762],[-95.40083,30.41789],[-95.40051,30.41844],[-95.4007,30.41943],[-95.40215,30.4203],[-95.40176,30.42078],[-95.40221,30.42147],[-95.40229,30.42229],[-95.4044,30.42375],[-95.4044,30.42479],[-95.40554,30.42593],[-95.40557,30.42616],[-95.40493,30.42666],[-95.40491,30.42712],[-95.40549,30.42737],[-95.4057,30.42786],[-95.40618,30.42797],[-95.40641,30.42863],[-95.40694,30.42882],[-95.40673,30.4312],[-95.40631,30.43239],[-95.40568,30.4328],[-95.40644,30.43351],[-95.40647,30.43383],[-95.40583,30.43457],[-95.40692,30.43679],[-95.40642,30.43786],[-95.40673,30.43814],[-95.40673,30.43878],[-95.40721,30.43922],[-95.40732,30.43979],[-95.40787,30.44018],[-95.40801,30.44089],[-95.40896,30.44148],[-95.40912,30.44226],[-95.40964,30.44281],[-95.41044,30.44256],[-95.41068,30.44308],[-95.41118,30.44313],[-95.41147,30.44357],[-95.41232,30.44286],[-95.41266,30.44292],[-95.41353,30.44359],[-95.41393,30.44446],[-95.41499,30.44551],[-95.41475,30.44689],[-95.41612,30.4478],[-95.41602,30.44833],[-95.41668,30.44856],[-95.4171,30.44934],[-95.41771,30.44936],[-95.41803,30.44961],[-95.41938,30.44961],[-95.41991,30.45014],[-95.42049,30.45018],[-95.42078,30.4505],[-95.42102,30.45165],[-95.42245,30.45222],[-95.42261,30.45266],[-95.4234,30.45332],[-95.4234,30.45389],[-95.42295,30.45474],[-95.42411,30.4552],[-95.42425,30.45545],[-95.42422,30.45611],[-95.42366,30.45657],[-95.42361,30.45691],[-95.42449,30.4571],[-95.42435,30.45838],[-95.42557,30.45888],[-95.42531,30.46007],[-95.42562,30.4603],[-95.42634,30.46035],[-95.42695,30.46122],[-95.42692,30.46179],[-95.42618,30.46236],[-95.42597,30.46312],[-95.4269,30.4633],[-95.42719,30.46379],[-95.42779,30.46358],[-95.42928,30.46372],[-95.42954,30.4639],[-95.42949,30.46497],[-95.43041,30.46523],[-95.4301,30.46573],[-95.43026,30.46628],[-95.43002,30.46738],[-95.43052,30.46779],[-95.43057,30.46841],[-95.43139,30.46919],[-95.43139,30.46974],[-95.43063,30.47068],[-95.43105,30.47107],[-95.43148,30.471],[-95.43174,30.47063],[-95.43253,30.471],[-95.43182,30.47175],[-95.43187,30.47205],[-95.43261,30.47189],[-95.43293,30.47246],[-95.43254,30.4742],[-95.43164,30.47466],[-95.43166,30.47581],[-95.43066,30.47649],[-95.43058,30.47688],[-95.43003,30.47709],[-95.42995,30.47879],[-95.42945,30.47897],[-95.42937,30.47947],[-95.42905,30.47975],[-95.42812,30.47998],[-95.42812,30.48023],[-95.42886,30.48021],[-95.42897,30.48051],[-95.42778,30.48108],[-95.42707,30.48101],[-95.42709,30.48149],[-95.42667,30.482],[-95.42675,30.48248],[-95.4259,30.48254],[-95.42561,30.48287],[-95.42559,30.4836],[-95.42463,30.48392],[-95.42453,30.48429],[-95.42495,30.48479],[-95.42397,30.48523],[-95.42397,30.48555],[-95.42464,30.48591],[-95.42442,30.48639],[-95.42519,30.48628],[-95.42585,30.48685],[-95.42554,30.48754],[-95.42588,30.48772],[-95.42612,30.48852],[-95.42591,30.48983],[-95.42535,30.48997],[-95.42477,30.49054],[-95.42488,30.49079],[-95.42525,30.49077],[-95.42477,30.49157],[-95.4249,30.49175],[-95.42583,30.49171],[-95.4257,30.49214],[-95.42607,30.49255],[-95.42578,30.4937],[-95.42538,30.49407],[-95.42488,30.49544],[-95.42533,30.49604],[-95.42533,30.4964],[-95.42414,30.49757],[-95.42457,30.49826],[-95.42436,30.4992],[-95.42494,30.50022],[-95.42431,30.50064],[-95.42433,30.50087],[-95.426,30.50236],[-95.42645,30.50252],[-95.42621,30.50405],[-95.42677,30.5054],[-95.42653,30.50605],[-95.426,30.50634],[-95.42666,30.50701],[-95.42627,30.50724],[-95.4264,30.50824],[-95.42608,30.50882],[-95.36187,30.50892],[-95.36205,30.50866]]]}},{"type":"Feature","properties":{"PRECINCT":"montgomery:83","COUNTY":"Montgomery"},"geometry":{"type":"Polygon","coordinates":[[[-95.26334,30.38426],[-95.26071,30.38345],[-95.2602,30.38366],[-95.25957,30.38359],[-95.25911,30.38386],[-95.25756,30.3837],[-95.25409,30.38278],[-95.25327,30.38302],[-95.25261,30.38292],[-95.25037,30.38367],[-95.24956,30.38252],[-95.24734,30.38252],[-95.24554,30.38214],[-95.24156,30.38022],[-95.23988,30.37982],[-95.23869,30.37995],[-95.23663,30.37952],[-95.23555,30.37863],[-95.23462,30.3762],[-95.23401,30.37538],[-95.23399,30.37436],[-95.23365,30.37376],[-95.23317,30.37362],[-95.23341,30.37316],[-95.23336,30.3721],[-95.23226,30.37196],[-95.231,30.37148],[-95.22952,30.36978],[-95.22888,30.36969],[-95.22853,30.36929],[-95.22805,30.36763],[-95.2273,30.36751],[-95.22726,30.36688],[-95.22745,30.36672],[-95.22695,30.36665],[-95.22715,30.36526],[-95.22704,30.36495],[-95.22675,30.36517],[-95.22646,30.36447],[-95.22707,30.36381],[-95.2263,30.36347],[-95.22599,30.3629],[-95.22533,30.36298],[-95.22482,30.36268],[-95.22427,30.36268],[-95.2239,30.36222],[-95.22326,30.36253],[-95.2228,30.3621],[-95.22178,30.36204],[-95.22159,30.36135],[-95.22072,30.3616],[-95.22041,30.36096],[-95.21972,30.36071],[-95.21908,30.36007],[-95.21834,30.3589],[-95.21868,30.35824],[-95.21847,30.35759],[-95.21793,30.35747],[-95.21802,30.35631],[-95.21636,30.35459],[-95.21537,30.35468],[-95.21493,30.35441],[-95.21426,30.35446],[-95.21404,30.35426],[-95.21424,30.35353],[-95.21284,30.35317],[-95.21265,30.35361],[-95.21082,30.35436],[-95.20957,30.35405],[-95.20874,30.35317],[-95.20839,30.35371],[-95.20775,30.35359],[-95.20706,30.35296],[-95.20636,30.35311],[-95.20498,30.35215],[-95.20381,30.35209],[-95.20379,30.35134],[-95.20334,30.35122],[-95.20344,30.35082],[-95.20291,30.35053],[-95.20326,30.35],[-95.20291,30.34918],[-95.2032,30.34861],[-95.20309,30.34801],[-95.20396,30.34714],[-95.20525,30.34708],[-95.20631,30.34634],[-95.20655,30.34544],[-95.20724,30.34599],[-95.20702,30.34506],[-95.20732,30.34373],[-95.20775,30.34314],[-95.20829,30.34352],[-95.20858,30.34331],[-95.20892,30.34355],[-95.20921,30.34342],[-95.20943,30.34238],[-95.20998,30.34208],[-95.21004,30.34008],[-95.21052,30.33945],[-95.21109,30.33935],[-95.21116,30.33873],[-95.2122,30.33854],[-95.21237,30.33918],[-95.21267,30.33859],[-95.21446,30.33805],[-95.2159,30.33829],[-95.21599,30.33808],[-95.21781,30.33744],[-95.21824,30.3371],[-95.21887,30.33749],[-95.21952,30.33753],[-95.21992,30.33721],[-95.22061,30.33739],[-95.22075,30.33707],[-95.22025,30.33667],[-95.22071,30.33653],[-95.22049,30.33578],[-95.22134,30.33563],[-95.22151,30.33535],[-95.22113,30.33511],[-95.22178,30.33489],[-95.2217,30.33444],[-95.22231,30.33436],[-95.22186,30.33336],[-95.22197,30.33233],[-95.22297,30.33195],[-95.22317,30.33159],[-95.22293,30.33095],[-95.22358,30.33071],[-95.22403,30.32996],[-95.22479,30.32983],[-95.22546,30.3285],[-95.2267,30.32702],[-95.25407,30.32895],[-95.26708,30.32903],[-95.31126,30.33188],[-95.31119,30.33289],[-95.30699,30.33261],[-95.30702,30.33345],[-95.30569,30.33335],[-95.30525,30.33539],[-95.30582,30.34908],[-95.30508,30.35476],[-95.30514,30.35648],[-95.3053,30.35696],[-95.31673,30.35713],[-95.31697,30.3573],[-95.31691,30.36419],[-95.31433,30.36442],[-95.31444,30.37557],[-95.31158,30.37521],[-95.30157,30.37481],[-95.29995,30.3763],[-95.29032,30.37582],[-95.29028,30.37477],[-95.28875,30.37172],[-95.28872,30.37064],[-95.28931,30.36908],[-95.2891,30.36576],[-95.28945,30.36415],[-95.28663,30.36413],[-95.28645,30.36611],[-95.2852,30.36724],[-95.28592,30.37015],[-95.28579,30.37067],[-95.27708,30.3761],[-95.2701,30.3809],[-95.26703,30.38229],[-95.26491,30.38271],[-95.26442,30.38298],[-95.26334,30.38426]]]}},{"type":"Feature","properties":{"PRECINCT":"montgomery:85","COUNTY":"Montgomery"},"geometry":{"type":"Polygon","coordinates":[[[-95.41967,30.44972],[-95.4171,30.44934],[-95.41668,30.44856],[-95.41602,30.44833],[-95.41612,30.4478],[-95.41475,30.44689],[-95.41499,30.44551],[-95.41393,30.44446],[-95.41353,30.44359],[-95.41266,30.44292],[-95.41232,30.44286],[-95.41147,30.44357],[-95.41118,30.44313],[-95.41068,30.44308],[-95.41044,30.44256],[-95.40964,30.44281],[-95.40912,30.44226],[-95.40896,30.44148],[-95.40832,30.44123],[-95.40801,30.44089],[-95.40787,30.44018],[-95.40732,30.43979],[-95.40721,30.43922],[-95.40673,30.43878],[-95.40673,30.43814],[-95.40642,30.43786],[-95.40692,30.43679],[-95.40583,30.43457],[-95.40647,30.43383],[-95.40644,30.43351],[-95.40568,30.4328],[-95.40631,30.43239],[-95.40673,30.4312],[-95.40694,30.42882],[-95.40641,30.42863],[-95.40618,30.42797],[-95.4057,30.42786],[-95.40549,30.42737],[-95.40491,30.42712],[-95.40493,30.42666],[-95.40557,30.42616],[-95.40554,30.42593],[-95.4044,30.42479],[-95.4044,30.42375],[-95.40229,30.42229],[-95.40221,30.42147],[-95.40176,30.42078],[-95.40215,30.4203],[-95.4007,30.41943],[-95.40051,30.41844],[-95.40083,30.41789],[-95.40051,30.41762],[-95.40065,30.41711],[-95.4003,30.41663],[-95.39909,30.41585],[-95.39816,30.41597],[-95.39798,30.4151],[-95.39742,30.41501],[-95.39742,30.41444],[-95.39639,30.41423],[-95.3965,30.4134],[-95.3957,30.41359],[-95.39552,30.41338],[-95.39573,30.4124],[-95.39438,30.41171],[-95.39351,30.41173],[-95.39351,30.4115],[-95.39409,30.41132],[-95.39417,30.41109],[-95.39298,30.41045],[-95.39235,30.41079],[-95.39174,30.4107],[-95.39174,30.4091],[-95.39147,30.40905],[-95.39121,30.40944],[-95.39087,30.40944],[-95.39076,30.40869],[-95.39031,30.40841],[-95.39005,30.40777],[-95.3902,30.40715],[-95.38954,30.40692],[-95.38946,30.40658],[-95.38883,30.4061],[-95.38864,30.40543],[-95.38886,30.40489],[-95.38846,30.40459],[-95.38883,30.40408],[-95.38859,30.40342],[-95.38938,30.40294],[-95.38936,30.40259],[-95.38854,30.40218],[-95.38846,30.40166],[-95.38804,30.40152],[-95.38798,30.4012],[-95.38859,30.40078],[-95.38854,30.39934],[-95.38782,30.39893],[-95.38711,30.3992],[-95.38693,30.39849],[-95.38605,30.39785],[-95.38566,30.39712],[-95.38521,30.39705],[-95.38404,30.39751],[-95.3837,30.3971],[-95.38367,30.39655],[-95.38338,30.39646],[-95.38225,30.39687],[-95.38193,30.39673],[-95.38138,30.39581],[-95.3805,30.39579],[-95.38045,30.39549],[-95.38106,30.3952],[-95.38098,30.39492],[-95.38024,30.39481],[-95.37968,30.39437],[-95.37931,30.39497],[-95.37887,30.39494],[-95.37823,30.39428],[-95.37741,30.39387],[-95.3767,30.39256],[-95.37556,30.39229],[-95.3763,30.39112],[-95.37625,30.39059],[-95.37535,30.38988],[-95.3754,30.3894],[-95.37575,30.38903],[-95.37678,30.38963],[-95.37783,30.38954],[-95.37844,30.38984],[-95.37921,30.38984],[-95.37979,30.39034],[-95.38034,30.39011],[-95.38109,30.39065],[-95.38294,30.39011],[-95.38375,30.38936],[-95.38498,30.38874],[-95.38562,30.38959],[-95.3864,30.38953],[-95.38644,30.38797],[-95.38571,30.38737],[-95.38586,30.38694],[-95.38569,30.38607],[-95.3852,30.38572],[-95.38532,30.38516],[-95.38286,30.38305],[-95.37913,30.38636],[-95.3788,30.3864],[-95.36731,30.37661],[-95.36729,30.37618],[-95.36877,30.37381],[-95.36958,30.37085],[-95.37234,30.36832],[-95.37702,30.37299],[-95.37935,30.37492],[-95.38373,30.3769],[-95.38863,30.37978],[-95.39431,30.38256],[-95.39633,30.38315],[-95.40192,30.38421],[-95.40601,30.38822],[-95.40826,30.38475],[-95.41015,30.38272],[-95.41243,30.37826],[-95.41396,30.37032],[-95.41545,30.3678],[-95.41665,30.36467],[-95.41711,30.36532],[-95.41912,30.36447],[-95.42044,30.36477],[-95.42078,30.36534],[-95.42118,30.36543],[-95.42221,30.36632],[-95.42371,30.36564],[-95.42469,30.36559],[-95.42495,30.36575],[-95.42472,30.36644],[-95.42482,30.36751],[-95.42379,30.36834],[-95.4239,30.36932],[-95.42324,30.3701],[-95.42303,30.37095],[-95.42414,30.37228],[-95.42504,30.37264],[-95.42562,30.37335],[-95.42639,30.37383],[-95.42636,30.37457],[-95.42676,30.37555],[-95.42768,30.37667],[-95.42906,30.37766],[-95.4298,30.37883],[-95.43075,30.37958],[-95.43162,30.37995],[-95.43302,30.37999],[-95.4335,30.38034],[-95.43418,30.38045],[-95.43442,30.381],[-95.43416,30.38199],[-95.43596,30.3837],[-95.43638,30.38391],[-95.43926,30.38423],[-95.44011,30.38457],[-95.44172,30.38627],[-95.44251,30.38665],[-95.44452,30.38674],[-95.44536,30.38702],[-95.44629,30.38784],[-95.44772,30.38844],[-95.44812,30.39004],[-95.44938,30.39029],[-95.44986,30.39061],[-95.44986,30.39148],[-95.4502,30.39183],[-95.44986,30.39368],[-95.45018,30.39393],[-95.45121,30.39389],[-95.45227,30.39483],[-95.45238,30.39636],[-95.45272,30.39679],[-95.4528,30.39817],[-95.45219,30.3998],[-95.45254,30.40357],[-95.45146,30.40429],[-95.45104,30.40582],[-95.45365,30.40799],[-95.45371,30.40971],[-95.4545,30.4107],[-95.45511,30.41092],[-95.45646,30.41081],[-95.45765,30.4117],[-95.46164,30.41117],[-95.46217,30.41092],[-95.46383,30.4109],[-95.46465,30.41126],[-95.46645,30.41275],[-95.46706,30.41376],[-95.46823,30.41783],[-95.47049,30.41899],[-95.47124,30.4214],[-95.47087,30.42157],[-95.47102,30.42192],[-95.47182,30.42204],[-95.44749,30.42768],[-95.44759,30.42806],[-95.44794,30.42825],[-95.45148,30.42939],[-95.45246,30.42939],[-95.45505,30.4287],[-95.45928,30.42957],[-95.46177,30.43038],[-95.46235,30.4322],[-95.44984,30.43762],[-95.43939,30.4432],[-95.43447,30.44657],[-95.42829,30.45182],[-95.4234,30.455],[-95.42295,30.45474],[-95.4234,30.45389],[-95.42327,30.45311],[-95.42261,30.45266],[-95.42221,30.45201],[-95.42102,30.45165],[-95.42078,30.4505],[-95.42049,30.45018],[-95.41991,30.45014],[-95.41967,30.44972]]]}},{"type":"Feature","properties":{"PRECINCT":"montgomery:86","COUNTY":"Montgomery"},"geometry":{"type":"Polygon","coordinates":[[[-95.54908,30.34245],[-95.54257,30.3424],[-95.5427,30.34192],[-95.54154,30.34105],[-95.53974,30.34139],[-95.53842,30.34048],[-95.5381,30.33979],[-95.53863,30.33846],[-95.53739,30.33819],[-95.53721,30.3377],[-95.5362,30.3369],[-95.5361,30.33637],[-95.53544,30.33605],[-95.53496,30.33546],[-95.53423,30.33534],[-95.53399,30.33472],[-95.53349,30.33445],[-95.53362,30.33399],[-95.53446,30.33402],[-95.53468,30.33372],[-95.53431,30.33285],[-95.53352,30.33237],[-95.53365,30.3315],[-95.53262,30.3312],[-95.53125,30.32957],[-95.53098,30.32875],[-95.52943,30.32728],[-95.52898,30.32638],[-95.52724,30.32508],[-95.52655,30.32421],[-95.526,30.32398],[-95.52542,30.3232],[-95.52362,30.3234],[-95.52241,30.3226],[-95.5217,30.32271],[-95.52088,30.32187],[-95.52059,30.32184],[-95.52038,30.32301],[-95.51916,30.32368],[-95.51839,30.32397],[-95.51633,30.32386],[-95.51581,30.32331],[-95.51546,30.32331],[-95.51528,30.32365],[-95.51583,30.32447],[-95.51581,30.32486],[-95.51551,30.32507],[-95.51364,30.32498],[-95.5128,30.32246],[-95.51372,30.32193],[-95.51417,30.32138],[-95.51372,30.32108],[-95.51293,30.32129],[-95.5128,30.32074],[-95.51391,30.31987],[-95.51299,30.31916],[-95.51201,30.31776],[-95.51166,30.31462],[-95.57729,30.31988],[-95.58019,30.31995],[-95.5881,30.31952],[-95.58814,30.32997],[-95.59336,30.32989],[-95.59475,30.35801],[-95.55378,30.34351],[-95.54908,30.34245]]]}},{"type":"Feature","properties":{"PRECINCT":"montgomery:9","COUNTY":"Montgomery"},"geometry":{"type":"Polygon","coordinates":[[[-95.81429,30.49874],[-95.81387,30.49864],[-95.81252,30.49915],[-95.81165,30.49835],[-95.81074,30.4981],[-95.81072,30.49706],[-95.8103,30.49582],[-95.80907,30.49433],[-95.80796,30.49375],[-95.80546,30.49308],[-95.80227,30.49046],[-95.80196,30.49031],[-95.80113,30.49081],[-95.80012,30.49083],[-95.79922,30.48948],[-95.79766,30.48849],[-95.79695,30.48829],[-95.79605,30.48737],[-95.79492,30.48678],[-95.79428,30.48606],[-95.79262,30.48492],[-95.79193,30.48371],[-95.79172,30.4819],[-95.79148,30.48157],[-95.78987,30.48146],[-95.78939,30.48116],[-95.78923,30.48061],[-95.78826,30.48025],[-95.78786,30.47921],[-95.7881,30.47768],[-95.78765,30.47688],[-95.78789,30.47491],[-95.78763,30.47427],[-95.78826,30.47317],[-95.78668,30.47177],[-95.78668,30.47072],[-95.78583,30.46916],[-95.78676,30.46817],[-95.787,30.4657],[-95.78769,30.46355],[-95.78663,30.46268],[-95.78637,30.46195],[-95.78563,30.46151],[-95.78544,30.46046],[-95.78504,30.46011],[-95.78415,30.45753],[-95.78233,30.45549],[-95.78122,30.45375],[-95.78146,30.45157],[-95.7809,30.45056],[-95.78119,30.44839],[-95.78209,30.44731],[-95.78217,30.44639],[-95.78157,30.44594],[-95.78133,30.44543],[-95.78157,30.44326],[-95.78067,30.4422],[-95.77858,30.44106],[-95.77766,30.44018],[-95.777,30.43867],[-95.77734,30.43828],[-95.77758,30.437],[-95.77687,30.43632],[-95.77584,30.43583],[-95.77484,30.43487],[-95.77433,30.43473],[-95.77402,30.4343],[-95.77402,30.43393],[-95.77463,30.43372],[-95.77481,30.43336],[-95.77553,30.43324],[-95.77558,30.4329],[-95.77426,30.43141],[-95.77384,30.43123],[-95.77296,30.43001],[-95.77312,30.42949],[-95.77452,30.42825],[-95.77479,30.42713],[-95.77302,30.42589],[-95.77268,30.42587],[-95.77136,30.42621],[-95.76966,30.42811],[-95.76911,30.42813],[-95.76869,30.42697],[-95.76863,30.42593],[-95.7698,30.42342],[-95.77017,30.42161],[-95.76925,30.42078],[-95.76811,30.42051],[-95.76819,30.41948],[-95.76748,30.41902],[-95.76745,30.41874],[-95.76819,30.41778],[-95.76851,30.41671],[-95.7693,30.41639],[-95.76941,30.41581],[-95.77012,30.41492],[-95.7701,30.4141],[-95.76878,30.41361],[-95.76859,30.41323],[-95.76905,30.41089],[-95.76968,30.4099],[-95.76973,30.40913],[-95.77031,30.40883],[-95.77037,30.4078],[-95.77011,30.40736],[-95.77021,30.40663],[-95.76937,30.4061],[-95.76931,30.40558],[-95.77016,30.40391],[-95.77016,30.40336],[-95.76918,30.40168],[-95.76905,30.40102],[-95.7695,30.40024],[-95.76964,30.39939],[-95.76898,30.39861],[-95.76908,30.39806],[-95.76972,30.39752],[-95.76956,30.39589],[-95.77022,30.39507],[-95.77035,30.39367],[-95.7717,30.39193],[-95.77173,30.39154],[-95.77017,30.39126],[-95.77031,30.38927],[-95.76983,30.38886],[-95.76986,30.38836],[-95.76938,30.38817],[-95.76973,30.38769],[-95.7701,30.38623],[-95.77092,30.38547],[-95.77089,30.38435],[-95.76968,30.38375],[-95.76902,30.38373],[-95.76928,30.38286],[-95.76881,30.38231],[-95.76952,30.3818],[-95.76971,30.38116],[-95.76918,30.38084],[-95.76913,30.38041],[-95.76865,30.37988],[-95.76765,30.37981],[-95.76696,30.37926],[-95.76717,30.37851],[-95.76887,30.37816],[-95.76887,30.37796],[-95.76839,30.3777],[-95.76818,30.3772],[-95.7676,30.37702],[-95.76723,30.37617],[-95.76659,30.37621],[-95.76649,30.37606],[-95.76657,30.37567],[-95.76702,30.3756],[-95.76723,30.37461],[-95.76844,30.3747],[-95.7689,30.37425],[-95.76897,30.37404],[-95.76868,30.37377],[-95.76911,30.37342],[-95.76905,30.37301],[-95.76927,30.37283],[-95.76912,30.37151],[-95.75745,30.38101],[-95.75535,30.38199],[-95.74671,30.38463],[-95.73897,30.38994],[-95.73673,30.39091],[-95.73384,30.39133],[-95.734,30.39092],[-95.73222,30.39098],[-95.7299,30.39032],[-95.7281,30.38952],[-95.72645,30.3884],[-95.72143,30.38433],[-95.72689,30.38198],[-95.73183,30.38181],[-95.7325,30.3808],[-95.73425,30.38043],[-95.73367,30.36883],[-95.73299,30.33057],[-95.73247,30.33004],[-95.72871,30.32796],[-95.72784,30.32774],[-95.72531,30.3277],[-95.7257,30.32715],[-95.72607,30.32706],[-95.72633,30.32523],[-95.72609,30.32369],[-95.72696,30.32062],[-95.72754,30.32025],[-95.72754,30.31966],[-95.72796,30.3192],[-95.72801,30.31854],[-95.7288,30.31819],[-95.7292,30.31739],[-95.72928,30.31615],[-95.72891,30.31439],[-95.72851,30.31412],[-95.72838,30.3135],[-95.72862,30.31295],[-95.72951,30.31272],[-95.72986,30.31322],[-95.73023,30.31299],[-95.7303,30.311],[-95.72991,30.31095],[-95.72943,30.31018],[-95.73004,30.30949],[-95.73077,30.30915],[-95.73088,30.30841],[-95.73141,30.30816],[-95.73177,30.30472],[-95.73161,30.30385],[-95.73077,30.30351],[-95.73058,30.30276],[-95.73077,30.30232],[-95.73045,30.30202],[-95.72945,30.30182],[-95.72902,30.30118],[-95.72863,30.30115],[-95.72818,30.30161],[-95.72778,30.30166],[-95.72673,30.30143],[-95.72668,30.30074],[-95.72575,30.30097],[-95.72554,30.30074],[-95.72622,30.29997],[-95.72747,30.29983],[-95.72776,30.29996],[-95.72789,30.30044],[-95.72979,30.30037],[-95.7303,30.30012],[-95.73299,30.30311],[-95.7359,30.30819],[-95.73941,30.31115],[-95.74126,30.30948],[-95.74586,30.31336],[-95.74578,30.31375],[-95.7444,30.31536],[-95.74482,30.31571],[-95.7463,30.31385],[-95.74723,30.31401],[-95.74818,30.31385],[-95.74968,30.31229],[-95.75023,30.31199],[-95.75069,30.31194],[-95.75227,30.31254],[-95.75436,30.31245],[-95.7546,30.31171],[-95.75581,30.31158],[-95.75663,30.3119],[-95.75697,30.31179],[-95.75724,30.31103],[-95.75779,30.31062],[-95.75903,30.31092],[-95.76009,30.31092],[-95.76157,30.30982],[-95.76373,30.31012],[-95.76489,30.30978],[-95.7655,30.30889],[-95.76637,30.30847],[-95.7669,30.30758],[-95.76799,30.30696],[-95.76851,30.306],[-95.76928,30.3057],[-95.77023,30.3057],[-95.77103,30.30503],[-95.77104,30.30628],[-95.77307,30.30677],[-95.77615,30.30715],[-95.77958,30.30723],[-95.7818,30.30705],[-95.78507,30.3075],[-95.78533,30.30768],[-95.78546,30.30858],[-95.7866,30.30839],[-95.78768,30.30945],[-95.78813,30.30942],[-95.78855,30.30904],[-95.79364,30.30906],[-95.79399,30.31091],[-95.79397,30.3123],[-95.79437,30.31332],[-95.79498,30.31463],[-95.79691,30.3166],[-95.79692,30.31831],[-95.79799,30.3196],[-95.79807,30.32004],[-95.79799,30.32064],[-95.796,30.32271],[-95.79528,30.32306],[-95.79415,30.3245],[-95.79529,30.32342],[-95.79611,30.32303],[-95.79682,30.32197],[-95.79809,30.32112],[-95.79902,30.32102],[-95.80082,30.32003],[-95.8024,30.31796],[-95.80282,30.31787],[-95.80388,30.31608],[-95.80433,30.31443],[-95.80435,30.3378],[-95.80459,30.34172],[-95.81395,30.45574],[-95.81386,30.45915],[-95.81417,30.45994],[-95.81434,30.46246],[-95.81464,30.46336],[-95.81748,30.50022],[-95.81342,30.50022],[-95.81347,30.49984],[-95.81408,30.49958],[-95.81429,30.49874]]]}},{"type":"Feature","properties":{"PRECINCT":"montgomery:99","COUNTY":"Montgomery"},"geometry":{"type":"Polygon","coordinates":[[[-95.54043,30.30711],[-95.53946,30.30691],[-95.53928,30.29888],[-95.5404,30.29799],[-95.54392,30.29801],[-95.54404,30.29587],[-95.56488,30.29948],[-95.56566,30.29899],[-95.56769,30.29852],[-95.57129,30.29888],[-95.57273,30.29857],[-95.57282,30.29805],[-95.5724,30.29778],[-95.57232,30.29716],[-95.57253,30.29624],[-95.57045,30.29397],[-95.56984,30.29205],[-95.5691,30.29116],[-95.56702,30.29022],[-95.56446,30.2877],[-95.56451,30.28717],[-95.56399,30.28721],[-95.56385,30.28699],[-95.56201,30.28641],[-95.56135,30.28705],[-95.56034,30.28717],[-95.5596,30.28806],[-95.5591,30.2882],[-95.55879,30.28797],[-95.559,30.28675],[-95.55879,30.2862],[-95.55805,30.28584],[-95.55665,30.28352],[-95.55657,30.28112],[-95.55691,30.27986],[-95.57476,30.2799],[-95.57451,30.27227],[-95.57741,30.2723],[-95.57719,30.27361],[-95.57753,30.27421],[-95.57819,30.2743],[-95.57774,30.27547],[-95.57785,30.27678],[-95.57861,30.27719],[-95.58009,30.27721],[-95.58046,30.27751],[-95.58207,30.27788],[-95.58273,30.27863],[-95.58334,30.27893],[-95.58394,30.2798],[-95.58523,30.27973],[-95.58621,30.28017],[-95.58626,30.28067],[-95.58568,30.28221],[-95.58579,30.28289],[-95.5861,30.28326],[-95.58608,30.28383],[-95.58634,30.2842],[-95.58737,30.28468],[-95.58703,30.28573],[-95.58721,30.28722],[-95.58745,30.28752],[-95.58827,30.28777],[-95.58903,30.28878],[-95.5899,30.29052],[-95.59038,30.29066],[-95.59032,30.29135],[-95.59172,30.29153],[-95.59204,30.2919],[-95.59273,30.29194],[-95.59304,30.29217],[-95.59381,30.29364],[-95.59315,30.29378],[-95.59275,30.29439],[-95.59331,30.29455],[-95.59399,30.29517],[-95.59439,30.29517],[-95.59455,30.29451],[-95.59484,30.29462],[-95.59489,30.29501],[-95.59529,30.29529],[-95.59518,30.29575],[-95.59563,30.29616],[-95.59631,30.29616],[-95.59674,30.29719],[-95.59795,30.29809],[-95.5983,30.30195],[-95.59982,30.30849],[-95.60016,30.31853],[-95.59316,30.31894],[-95.59318,30.31925],[-95.57872,30.31995],[-95.53827,30.31667],[-95.53971,30.31069],[-95.54049,30.3104],[-95.54043,30.30711]]]}}]}