{"type":"FeatureCollection","features":[{"type":"Feature","properties":{"PRECINCT":"1","VTD":"0001"},"geometry":{"type":"Polygon","coordinates":[[[-98.237742,30.897285],[-98.234928,30.870704],[-98.240035,30.803772],[-98.236787,30.789014],[-98.234416,30.78052],[-98.244001,30.778722],[-98.243755,30.777626],[-98.244016,30.777687],[-98.240963,30.765299],[-98.24062,30.765173],[-98.240015,30.762706],[-98.245029,30.761754],[-98.245047,30.76083],[-98.247065,30.761243],[-98.24703,30.761041],[-98.247529,30.761133],[-98.247587,30.761361],[-98.248216,30.761242],[-98.253813,30.761749],[-98.263133,30.762091],[-98.263121,30.763665],[-98.267323,30.763689],[-98.271526,30.778938],[-98.280741,30.777096],[-98.28009,30.774661],[-98.29664,30.771425],[-98.294802,30.764309],[-98.286071,30.766023],[-98.286022,30.766464],[-98.284712,30.767316],[-98.283823,30.766946],[-98.283446,30.766467],[-98.278872,30.767341],[-98.278075,30.76621],[-98.277175,30.76627],[-98.275444,30.763177],[-98.273956,30.761957],[-98.273472,30.761839],[-98.273677,30.760885],[-98.263135,30.760642],[-98.26317,30.759323],[-98.257568,30.759308],[-98.257072,30.759001],[-98.257201,30.757974],[-98.256759,30.756631],[-98.257102,30.756562],[-98.25741,30.755033],[-98.256996,30.753457],[-98.257029,30.752433],[-98.257377,30.75106],[-98.258889,30.749524],[-98.259362,30.748514],[-98.259391,30.746924],[-98.258829,30.746022],[-98.249848,30.751506],[-98.248143,30.746139],[-98.255605,30.744668],[-98.252868,30.735816],[-98.248608,30.73661],[-98.246717,30.729749],[-98.252467,30.728626],[-98.262722,30.727135],[-98.262311,30.725392],[-98.261374,30.724119],[-98.260619,30.721642],[-98.26045,30.714062],[-98.253421,30.714447],[-98.253326,30.714158],[-98.253811,30.711294],[-98.255659,30.708389],[-98.257826,30.706084],[-98.25728,30.705927],[-98.256524,30.704938],[-98.256326,30.704247],[-98.256507,30.703453],[-98.255977,30.703022],[-98.254539,30.703778],[-98.251994,30.703857],[-98.253219,30.700801],[-98.253604,30.700883],[-98.256737,30.691701],[-98.282978,30.687301],[-98.310456,30.681946],[-98.310038,30.682972],[-98.31032,30.683301],[-98.312509,30.683907],[-98.314559,30.685755],[-98.315839,30.687298],[-98.317659,30.687647],[-98.317093,30.688374],[-98.317382,30.688849],[-98.317413,30.689857],[-98.31623,30.692098],[-98.31589,30.693932],[-98.315141,30.694948],[-98.313652,30.695919],[-98.31323,30.696698],[-98.311154,30.697583],[-98.310445,30.698206],[-98.310622,30.699309],[-98.310442,30.700029],[-98.308533,30.701588],[-98.308321,30.702321],[-98.308586,30.703261],[-98.308454,30.706722],[-98.308852,30.709724],[-98.308109,30.709862],[-98.307844,30.710251],[-98.306544,30.713964],[-98.30657,30.714583],[-98.308241,30.71731],[-98.308347,30.717952],[-98.305121,30.719835],[-98.304487,30.72053],[-98.304494,30.722772],[-98.303864,30.724853],[-98.302651,30.727558],[-98.30295,30.729569],[-98.302907,30.733221],[-98.301799,30.735117],[-98.301618,30.736758],[-98.301224,30.737729],[-98.301175,30.739486],[-98.304759,30.737719],[-98.30731,30.737036],[-98.309479,30.735772],[-98.312498,30.733498],[-98.318416,30.730503],[-98.322114,30.729252],[-98.322118,30.747513],[-98.338778,30.750692],[-98.3368,30.751845],[-98.334239,30.754217],[-98.332601,30.756531],[-98.330204,30.757896],[-98.328224,30.759864],[-98.3269,30.760477],[-98.325553,30.760553],[-98.32467,30.7614],[-98.32485,30.764044],[-98.324157,30.767112],[-98.326667,30.766784],[-98.32996,30.766992],[-98.332786,30.766144],[-98.334335,30.766111],[-98.341673,30.766422],[-98.344722,30.767765],[-98.346531,30.767853],[-98.347711,30.767464],[-98.348666,30.766825],[-98.351179,30.763368],[-98.354995,30.760817],[-98.357324,30.759758],[-98.358471,30.759644],[-98.361903,30.76004],[-98.363772,30.759884],[-98.366253,30.759312],[-98.369442,30.757763],[-98.374353,30.756834],[-98.377232,30.75677],[-98.379716,30.757482],[-98.381169,30.757542],[-98.385486,30.757113],[-98.387965,30.756289],[-98.389132,30.75755],[-98.390749,30.758787],[-98.395434,30.760346],[-98.397666,30.760775],[-98.398465,30.761197],[-98.401293,30.76474],[-98.403878,30.766036],[-98.404624,30.767887],[-98.395438,30.773246],[-98.395101,30.772785],[-98.394464,30.774274],[-98.393897,30.774156],[-98.382018,30.781168],[-98.366337,30.788219],[-98.357197,30.801365],[-98.354736,30.803305],[-98.352696,30.804442],[-98.352219,30.804398],[-98.350035,30.80602],[-98.344864,30.807939],[-98.344139,30.807645],[-98.342536,30.807546],[-98.336805,30.808216],[-98.333732,30.807768],[-98.333308,30.807998],[-98.334852,30.809063],[-98.339517,30.813522],[-98.340203,30.814455],[-98.340536,30.815498],[-98.340373,30.816783],[-98.338929,30.820836],[-98.338884,30.826396],[-98.334873,30.832549],[-98.333985,30.835846],[-98.33418,30.837312],[-98.335978,30.840271],[-98.335993,30.844091],[-98.336368,30.844776],[-98.336993,30.845284],[-98.337898,30.845567],[-98.33873,30.845539],[-98.33963,30.84516],[-98.341552,30.843396],[-98.342852,30.843106],[-98.347577,30.8448],[-98.346312,30.84655],[-98.34603,30.84823],[-98.345181,30.850051],[-98.343986,30.851836],[-98.341812,30.85285],[-98.337731,30.853886],[-98.336828,30.8545],[-98.335712,30.855822],[-98.33486,30.857453],[-98.334873,30.86189],[-98.334242,30.863172],[-98.329764,30.86594],[-98.328559,30.866372],[-98.328021,30.867339],[-98.32753,30.867735],[-98.326373,30.867765],[-98.325393,30.86715],[-98.324832,30.86728],[-98.324494,30.867636],[-98.324175,30.871103],[-98.323742,30.871671],[-98.322365,30.872232],[-98.322406,30.87403],[-98.321757,30.874124],[-98.320479,30.873804],[-98.319758,30.874244],[-98.319196,30.875356],[-98.318939,30.877175],[-98.318318,30.877959],[-98.317638,30.878204],[-98.317371,30.878741],[-98.317658,30.880051],[-98.318819,30.88137],[-98.320245,30.884051],[-98.320174,30.884745],[-98.319027,30.885764],[-98.315692,30.886965],[-98.313932,30.888847],[-98.312898,30.888648],[-98.311426,30.887754],[-98.31093,30.887939],[-98.309401,30.890117],[-98.308798,30.891748],[-98.309733,30.894717],[-98.310309,30.895426],[-98.28869,30.895835],[-98.288671,30.886436],[-98.284258,30.88999],[-98.280841,30.886703],[-98.243401,30.902422],[-98.245611,30.905491],[-98.240307,30.908077],[-98.237631,30.905662],[-98.237742,30.897285]]]}},{"type":"Feature","properties":{"PRECINCT":"2","VTD":"0002"},"geometry":{"type":"Polygon","coordinates":[[[-98.216151,30.783491],[-98.216399,30.777072],[-98.216794,30.775456],[-98.218961,30.771378],[-98.219842,30.770504],[-98.220851,30.770121],[-98.218126,30.759948],[-98.216195,30.759721],[-98.214307,30.759129],[-98.213314,30.755329],[-98.217599,30.754442],[-98.216118,30.748728],[-98.215273,30.747908],[-98.220124,30.748762],[-98.220132,30.747918],[-98.2204,30.747473],[-98.219082,30.746764],[-98.218941,30.746288],[-98.221901,30.741513],[-98.220293,30.735318],[-98.230305,30.733211],[-98.230588,30.733399],[-98.237451,30.732045],[-98.237702,30.729883],[-98.241494,30.721105],[-98.239987,30.720607],[-98.247559,30.703643],[-98.248676,30.703991],[-98.248972,30.703432],[-98.253844,30.691177],[-98.256737,30.691701],[-98.253604,30.700883],[-98.253219,30.700801],[-98.251994,30.703857],[-98.254539,30.703778],[-98.255977,30.703022],[-98.256507,30.703453],[-98.256326,30.704247],[-98.256524,30.704938],[-98.25728,30.705927],[-98.257826,30.706084],[-98.255659,30.708389],[-98.253811,30.711294],[-98.253326,30.714158],[-98.253421,30.714447],[-98.26045,30.714062],[-98.260619,30.721642],[-98.261374,30.724119],[-98.262311,30.725392],[-98.262722,30.727135],[-98.252467,30.728626],[-98.246717,30.729749],[-98.248608,30.73661],[-98.252868,30.735816],[-98.255605,30.744668],[-98.248143,30.746139],[-98.249848,30.751506],[-98.258829,30.746022],[-98.259391,30.746924],[-98.259362,30.748514],[-98.258889,30.749524],[-98.257377,30.75106],[-98.257029,30.752433],[-98.256996,30.753457],[-98.25741,30.755033],[-98.257102,30.756562],[-98.256759,30.756631],[-98.257201,30.757974],[-98.257072,30.759001],[-98.257568,30.759308],[-98.26317,30.759323],[-98.263135,30.760642],[-98.273677,30.760885],[-98.273472,30.761839],[-98.273956,30.761957],[-98.275444,30.763177],[-98.277175,30.76627],[-98.278075,30.76621],[-98.278872,30.767341],[-98.283446,30.766467],[-98.283823,30.766946],[-98.284712,30.767316],[-98.286022,30.766464],[-98.286071,30.766023],[-98.294802,30.764309],[-98.29664,30.771425],[-98.28009,30.774661],[-98.280741,30.777096],[-98.271526,30.778938],[-98.267323,30.763689],[-98.263121,30.763665],[-98.263133,30.762091],[-98.253813,30.761749],[-98.248216,30.761242],[-98.247587,30.761361],[-98.247529,30.761133],[-98.24703,30.761041],[-98.247065,30.761243],[-98.245047,30.76083],[-98.245029,30.761754],[-98.240015,30.762706],[-98.24062,30.765173],[-98.240963,30.765299],[-98.244016,30.777687],[-98.243755,30.777626],[-98.244001,30.778722],[-98.234194,30.780553],[-98.234415,30.781432],[-98.229333,30.782513],[-98.22904,30.781526],[-98.22172,30.783034],[-98.216151,30.783491]]]}},{"type":"Feature","properties":{"PRECINCT":"3","VTD":"0003"},"geometry":{"type":"Polygon","coordinates":[[[-98.345881,30.601336],[-98.338855,30.601574],[-98.337214,30.601442],[-98.323331,30.595711],[-98.32178,30.59533],[-98.303848,30.593678],[-98.300245,30.59267],[-98.300193,30.592417],[-98.296236,30.591119],[-98.294829,30.589996],[-98.293116,30.587911],[-98.293409,30.587399],[-98.292559,30.586625],[-98.292145,30.58562],[-98.292206,30.584383],[-98.293417,30.579637],[-98.29329,30.578449],[-98.292809,30.577311],[-98.305214,30.5583],[-98.312115,30.562024],[-98.314822,30.563979],[-98.316574,30.56565],[-98.320342,30.567225],[-98.321376,30.568005],[-98.322439,30.568115],[-98.324474,30.567607],[-98.327716,30.566088],[-98.328555,30.565419],[-98.333042,30.56044],[-98.335997,30.55829],[-98.336813,30.557939],[-98.338237,30.555646],[-98.34253,30.555733],[-98.345222,30.556386],[-98.348088,30.557265],[-98.351982,30.558084],[-98.351983,30.558393],[-98.364288,30.571592],[-98.366057,30.572921],[-98.367333,30.573546],[-98.370311,30.574438],[-98.373199,30.574503],[-98.375946,30.573894],[-98.381343,30.570976],[-98.387864,30.56834],[-98.388134,30.569635],[-98.387572,30.570063],[-98.388157,30.570754],[-98.387287,30.571494],[-98.387798,30.572577],[-98.388361,30.573114],[-98.387519,30.573676],[-98.387156,30.574638],[-98.388142,30.574422],[-98.388332,30.575519],[-98.387711,30.575444],[-98.387644,30.575789],[-98.388722,30.576625],[-98.388137,30.577257],[-98.387474,30.576898],[-98.387257,30.577139],[-98.38759,30.577507],[-98.389176,30.578145],[-98.389265,30.578809],[-98.387653,30.581908],[-98.387561,30.584187],[-98.383019,30.582108],[-98.376283,30.593176],[-98.379169,30.594505],[-98.378838,30.595094],[-98.381783,30.59643],[-98.380716,30.598312],[-98.380113,30.598679],[-98.375653,30.600014],[-98.371029,30.605301],[-98.345881,30.601336]]]}},{"type":"Feature","properties":{"PRECINCT":"4","VTD":"0004"},"geometry":{"type":"Polygon","coordinates":[[[-98.186406,30.551378],[-98.188233,30.546687],[-98.188551,30.54455],[-98.187693,30.539016],[-98.186304,30.537106],[-98.184426,30.535483],[-98.182931,30.534757],[-98.179017,30.53397],[-98.175957,30.536952],[-98.171981,30.538767],[-98.171197,30.539039],[-98.170375,30.538944],[-98.169863,30.53865],[-98.16934,30.536723],[-98.16946,30.534543],[-98.170124,30.53331],[-98.170328,30.531559],[-98.170177,30.530965],[-98.168233,30.528301],[-98.166552,30.5266],[-98.164642,30.525609],[-98.163252,30.525255],[-98.156462,30.524905],[-98.15225,30.525626],[-98.148381,30.525798],[-98.146572,30.525593],[-98.142984,30.524644],[-98.142103,30.524708],[-98.140049,30.52564],[-98.137558,30.528024],[-98.132313,30.536245],[-98.13051,30.538315],[-98.128159,30.539489],[-98.126603,30.539734],[-98.126264,30.539449],[-98.124516,30.537366],[-98.122281,30.532425],[-98.119735,30.525027],[-98.119831,30.522816],[-98.120528,30.521573],[-98.121325,30.520929],[-98.129611,30.517495],[-98.132227,30.515889],[-98.133215,30.514727],[-98.133727,30.513349],[-98.133723,30.511754],[-98.131204,30.502249],[-98.131157,30.500573],[-98.131611,30.499381],[-98.131186,30.497719],[-98.129161,30.493101],[-98.12534,30.488426],[-98.123126,30.487041],[-98.12342,30.486482],[-98.123111,30.484723],[-98.120887,30.485021],[-98.118165,30.484793],[-98.113723,30.485576],[-98.110557,30.490909],[-98.107468,30.494268],[-98.105919,30.49534],[-98.10318,30.496693],[-98.100861,30.497463],[-98.097778,30.498058],[-98.097709,30.467626],[-98.101916,30.461356],[-98.102398,30.460305],[-98.103164,30.459695],[-98.125481,30.426164],[-98.249457,30.45889],[-98.250297,30.459454],[-98.260619,30.461935],[-98.260742,30.462815],[-98.261638,30.46435],[-98.261765,30.466525],[-98.264877,30.469707],[-98.264772,30.474018],[-98.265498,30.476197],[-98.268873,30.478652],[-98.273782,30.479561],[-98.277155,30.480531],[-98.277538,30.480886],[-98.277556,30.488543],[-98.276707,30.490476],[-98.266692,30.500736],[-98.265175,30.503742],[-98.264917,30.504951],[-98.265563,30.516209],[-98.265004,30.523686],[-98.265129,30.526506],[-98.26564,30.527166],[-98.268227,30.529147],[-98.270319,30.532329],[-98.271241,30.534698],[-98.271313,30.53825],[-98.271031,30.538663],[-98.267514,30.537023],[-98.263279,30.535499],[-98.261728,30.535399],[-98.256166,30.535932],[-98.247474,30.534861],[-98.245703,30.535484],[-98.238217,30.54094],[-98.23484,30.543662],[-98.231827,30.545069],[-98.228398,30.547297],[-98.227054,30.54789],[-98.22538,30.547925],[-98.221626,30.54665],[-98.219621,30.5467],[-98.219272,30.546523],[-98.218699,30.545631],[-98.216985,30.54552],[-98.216354,30.544729],[-98.215851,30.544663],[-98.213939,30.546416],[-98.213223,30.547967],[-98.209532,30.549399],[-98.208575,30.549449],[-98.207979,30.548559],[-98.207458,30.548479],[-98.205576,30.550255],[-98.203396,30.549182],[-98.203003,30.549602],[-98.202971,30.551015],[-98.203709,30.553601],[-98.203727,30.555331],[-98.204298,30.557461],[-98.20264,30.557476],[-98.20279,30.560157],[-98.201786,30.562545],[-98.201745,30.563236],[-98.200842,30.563585],[-98.19998,30.564922],[-98.19237,30.56249],[-98.189815,30.561055],[-98.188844,30.560087],[-98.187228,30.557184],[-98.186083,30.554195],[-98.186406,30.551378]]]}},{"type":"Feature","properties":{"PRECINCT":"5","VTD":"0005"},"geometry":{"type":"Polygon","coordinates":[[[-98.344161,30.911706],[-98.340352,30.895187],[-98.310345,30.895448],[-98.309733,30.894717],[-98.308806,30.89226],[-98.30888,30.891295],[-98.309401,30.890117],[-98.31093,30.887939],[-98.311426,30.887754],[-98.312898,30.888648],[-98.313932,30.888847],[-98.315692,30.886965],[-98.319027,30.885764],[-98.31997,30.885062],[-98.320245,30.884051],[-98.318819,30.88137],[-98.317658,30.880051],[-98.317382,30.879324],[-98.317638,30.878204],[-98.318318,30.877959],[-98.318939,30.877175],[-98.319196,30.875356],[-98.319758,30.874244],[-98.320479,30.873804],[-98.321757,30.874124],[-98.322406,30.87403],[-98.322365,30.872232],[-98.323742,30.871671],[-98.324175,30.871103],[-98.324353,30.868061],[-98.324832,30.86728],[-98.325393,30.86715],[-98.326373,30.867765],[-98.32753,30.867735],[-98.328021,30.867339],[-98.328559,30.866372],[-98.329764,30.86594],[-98.334242,30.863172],[-98.334873,30.86189],[-98.33486,30.857453],[-98.335712,30.855822],[-98.336828,30.8545],[-98.337731,30.853886],[-98.341812,30.85285],[-98.343986,30.851836],[-98.345181,30.850051],[-98.34603,30.84823],[-98.346312,30.84655],[-98.347577,30.8448],[-98.342852,30.843106],[-98.341552,30.843396],[-98.33963,30.84516],[-98.33873,30.845539],[-98.337898,30.845567],[-98.336993,30.845284],[-98.336368,30.844776],[-98.335993,30.844091],[-98.335978,30.840271],[-98.33418,30.837312],[-98.333985,30.835846],[-98.334873,30.832549],[-98.338884,30.826396],[-98.338929,30.820836],[-98.340373,30.816783],[-98.340536,30.815498],[-98.340203,30.814455],[-98.339517,30.813522],[-98.334852,30.809063],[-98.333308,30.807998],[-98.333732,30.807768],[-98.336805,30.808216],[-98.342348,30.807557],[-98.344139,30.807645],[-98.352536,30.812259],[-98.360062,30.814465],[-98.364558,30.813054],[-98.366016,30.813164],[-98.370479,30.809346],[-98.370387,30.809648],[-98.372277,30.810018],[-98.404785,30.816004],[-98.403336,30.817936],[-98.401543,30.818819],[-98.398781,30.818775],[-98.395378,30.818176],[-98.390999,30.818293],[-98.388184,30.819061],[-98.385666,30.82058],[-98.383965,30.821894],[-98.380974,30.824936],[-98.377595,30.829507],[-98.376633,30.832788],[-98.376587,30.833776],[-98.376877,30.83489],[-98.379578,30.837223],[-98.380812,30.837933],[-98.388229,30.840576],[-98.392418,30.842514],[-98.397636,30.843813],[-98.401384,30.843996],[-98.404977,30.843823],[-98.405769,30.842984],[-98.406903,30.839051],[-98.408851,30.836559],[-98.409988,30.835987],[-98.412468,30.835114],[-98.415718,30.834728],[-98.421066,30.834908],[-98.421875,30.835266],[-98.422256,30.836498],[-98.422211,30.83923],[-98.419632,30.850876],[-98.41925,30.857058],[-98.41935,30.859121],[-98.420738,30.862213],[-98.421475,30.863173],[-98.423683,30.865404],[-98.424823,30.866105],[-98.428991,30.868306],[-98.432388,30.869674],[-98.434113,30.870127],[-98.437782,30.870567],[-98.445867,30.870327],[-98.448326,30.870588],[-98.45079,30.871435],[-98.452493,30.87231],[-98.455234,30.875176],[-98.456352,30.876455],[-98.457162,30.878226],[-98.457382,30.878897],[-98.457207,30.881147],[-98.456436,30.883095],[-98.454178,30.885838],[-98.449493,30.889439],[-98.448593,30.890785],[-98.448471,30.892838],[-98.449356,30.896605],[-98.449509,30.89901],[-98.449355,30.904836],[-98.44862,30.910089],[-98.406232,30.910573],[-98.385866,30.911064],[-98.38246,30.910983],[-98.372175,30.911376],[-98.344161,30.911706]]]}},{"type":"Feature","properties":{"PRECINCT":"6","VTD":"0006"},"geometry":{"type":"Polygon","coordinates":[[[-98.129765,30.607636],[-98.128022,30.606713],[-98.118399,30.613171],[-98.107783,30.60798],[-98.099203,30.598637],[-98.099766,30.597968],[-98.099378,30.597614],[-98.097242,30.599208],[-98.094374,30.60025],[-98.09122,30.602109],[-98.086694,30.603166],[-98.085816,30.603764],[-98.08513,30.604649],[-98.08405,30.604003],[-98.082688,30.60383],[-98.078154,30.604637],[-98.077083,30.604307],[-98.076588,30.603759],[-98.076508,30.603169],[-98.076839,30.602243],[-98.076642,30.601321],[-98.076783,30.599987],[-98.075347,30.599777],[-98.073745,30.600874],[-98.07152,30.601124],[-98.070219,30.599294],[-98.068151,30.597404],[-98.067971,30.595495],[-98.067453,30.594848],[-98.067178,30.593564],[-98.066559,30.593103],[-98.116386,30.500194],[-98.116867,30.498705],[-98.123126,30.487041],[-98.12534,30.488426],[-98.129161,30.493101],[-98.131186,30.497719],[-98.131611,30.499381],[-98.131157,30.500573],[-98.131204,30.502249],[-98.133723,30.511754],[-98.133727,30.513349],[-98.133215,30.514727],[-98.132227,30.515889],[-98.129611,30.517495],[-98.121325,30.520929],[-98.120528,30.521573],[-98.119831,30.522816],[-98.119735,30.525027],[-98.122281,30.532425],[-98.124516,30.537366],[-98.126264,30.539449],[-98.126603,30.539734],[-98.128159,30.539489],[-98.13051,30.538315],[-98.132313,30.536245],[-98.137558,30.528024],[-98.140049,30.52564],[-98.142103,30.524708],[-98.142984,30.524644],[-98.146572,30.525593],[-98.148381,30.525798],[-98.15225,30.525626],[-98.156462,30.524905],[-98.163252,30.525255],[-98.164642,30.525609],[-98.166552,30.5266],[-98.168233,30.528301],[-98.170177,30.530965],[-98.170328,30.531559],[-98.170124,30.53331],[-98.16946,30.534543],[-98.16934,30.536723],[-98.169863,30.53865],[-98.170375,30.538944],[-98.171197,30.539039],[-98.171981,30.538767],[-98.175957,30.536952],[-98.179017,30.53397],[-98.182931,30.534757],[-98.184426,30.535483],[-98.186765,30.537572],[-98.187851,30.539635],[-98.188558,30.545035],[-98.188233,30.546687],[-98.186406,30.551378],[-98.186044,30.553494],[-98.186374,30.55521],[-98.18776,30.558312],[-98.188844,30.560087],[-98.189815,30.561055],[-98.19237,30.56249],[-98.194624,30.563231],[-98.193838,30.564266],[-98.193094,30.564179],[-98.192944,30.564437],[-98.193123,30.564891],[-98.193911,30.565185],[-98.193926,30.565939],[-98.194533,30.566895],[-98.193528,30.566718],[-98.192757,30.566288],[-98.19227,30.566696],[-98.190796,30.565559],[-98.190873,30.56451],[-98.190137,30.565057],[-98.188343,30.564538],[-98.187703,30.565586],[-98.188015,30.566704],[-98.186256,30.567511],[-98.185165,30.567365],[-98.184874,30.56752],[-98.182583,30.57063],[-98.18233,30.572021],[-98.183388,30.574156],[-98.182619,30.575917],[-98.179468,30.577419],[-98.177682,30.577669],[-98.177245,30.577987],[-98.177247,30.578312],[-98.177729,30.578697],[-98.179367,30.57923],[-98.17965,30.579746],[-98.179613,30.580842],[-98.178668,30.582401],[-98.178549,30.583191],[-98.178785,30.583576],[-98.180024,30.584022],[-98.180196,30.584804],[-98.178538,30.585074],[-98.177947,30.585613],[-98.178066,30.586615],[-98.179024,30.588038],[-98.178846,30.589048],[-98.176879,30.590124],[-98.174888,30.588717],[-98.175679,30.590346],[-98.176805,30.591068],[-98.177681,30.591199],[-98.178683,30.59105],[-98.179787,30.590238],[-98.180653,30.588441],[-98.181518,30.587569],[-98.182846,30.58708],[-98.18555,30.586914],[-98.158104,30.628298],[-98.12907,30.614427],[-98.130971,30.610542],[-98.129765,30.607636]]]}},{"type":"Feature","properties":{"PRECINCT":"7","VTD":"0007"},"geometry":{"type":"Polygon","coordinates":[[[-98.370387,30.809648],[-98.370479,30.809346],[-98.366016,30.813164],[-98.364558,30.813054],[-98.360062,30.814465],[-98.352536,30.812259],[-98.344864,30.807939],[-98.350035,30.80602],[-98.352219,30.804398],[-98.352696,30.804442],[-98.354736,30.803305],[-98.357197,30.801365],[-98.366337,30.788219],[-98.382018,30.781168],[-98.393897,30.774156],[-98.394464,30.774274],[-98.395101,30.772785],[-98.395438,30.773246],[-98.404624,30.767887],[-98.403878,30.766036],[-98.401293,30.76474],[-98.398465,30.761197],[-98.397666,30.760775],[-98.395434,30.760346],[-98.390749,30.758787],[-98.389132,30.75755],[-98.387965,30.756289],[-98.385486,30.757113],[-98.381169,30.757542],[-98.379716,30.757482],[-98.377472,30.756804],[-98.375904,30.756764],[-98.37604,30.755422],[-98.376348,30.754995],[-98.37688,30.754505],[-98.378903,30.753746],[-98.379372,30.753224],[-98.382216,30.746722],[-98.384781,30.746143],[-98.391408,30.746034],[-98.392914,30.74621],[-98.396324,30.747223],[-98.399263,30.749314],[-98.400156,30.75022],[-98.401703,30.750284],[-98.406853,30.751492],[-98.411769,30.751496],[-98.414986,30.751945],[-98.417744,30.751343],[-98.420204,30.751141],[-98.42234,30.750463],[-98.423248,30.750444],[-98.42453,30.750647],[-98.42663,30.751527],[-98.428956,30.754272],[-98.429909,30.756117],[-98.43029,30.757783],[-98.430214,30.76096],[-98.42923,30.763807],[-98.427856,30.766468],[-98.426907,30.767828],[-98.424355,30.77033],[-98.423866,30.771074],[-98.42289,30.773052],[-98.422531,30.775042],[-98.422714,30.776054],[-98.423546,30.777578],[-98.42971,30.783209],[-98.431206,30.784798],[-98.432098,30.78631],[-98.432543,30.78858],[-98.431996,30.790436],[-98.430885,30.791798],[-98.427711,30.794462],[-98.426453,30.795183],[-98.425045,30.795658],[-98.419941,30.7953],[-98.415596,30.79427],[-98.414474,30.794222],[-98.413376,30.794527],[-98.412033,30.795437],[-98.411224,30.796371],[-98.409378,30.799955],[-98.408958,30.80162],[-98.408653,30.80732],[-98.408042,30.809281],[-98.405434,30.813951],[-98.404785,30.816004],[-98.370387,30.809648]]]}},{"type":"Feature","properties":{"PRECINCT":"8","VTD":"0008"},"geometry":{"type":"Polygon","coordinates":[[[-98.34131,30.766373],[-98.332786,30.766144],[-98.32996,30.766992],[-98.326667,30.766784],[-98.324157,30.767112],[-98.32485,30.764044],[-98.32467,30.7614],[-98.325553,30.760553],[-98.3269,30.760477],[-98.328224,30.759864],[-98.330204,30.757896],[-98.332601,30.756531],[-98.334239,30.754217],[-98.3368,30.751845],[-98.338778,30.750692],[-98.322118,30.747513],[-98.322114,30.729252],[-98.318416,30.730503],[-98.312498,30.733498],[-98.309479,30.735772],[-98.30731,30.737036],[-98.304759,30.737719],[-98.301175,30.739486],[-98.301224,30.737729],[-98.301618,30.736758],[-98.301799,30.735117],[-98.302907,30.733221],[-98.30295,30.729569],[-98.302651,30.727558],[-98.303864,30.724853],[-98.304494,30.722772],[-98.304487,30.72053],[-98.305121,30.719835],[-98.308347,30.717952],[-98.308241,30.71731],[-98.30657,30.714583],[-98.306544,30.713964],[-98.307844,30.710251],[-98.308109,30.709862],[-98.308852,30.709724],[-98.308454,30.706722],[-98.308586,30.703261],[-98.308321,30.702321],[-98.308533,30.701588],[-98.310442,30.700029],[-98.310622,30.699309],[-98.310445,30.698206],[-98.311154,30.697583],[-98.31323,30.696698],[-98.313652,30.695919],[-98.315141,30.694948],[-98.31589,30.693932],[-98.31623,30.692098],[-98.317413,30.689857],[-98.317382,30.688849],[-98.317093,30.688374],[-98.317659,30.687647],[-98.315839,30.687298],[-98.314559,30.685755],[-98.312509,30.683907],[-98.31032,30.683301],[-98.310038,30.682972],[-98.310456,30.681946],[-98.313115,30.681606],[-98.314626,30.68031],[-98.315912,30.679678],[-98.31904,30.679529],[-98.321807,30.679839],[-98.323988,30.680338],[-98.327489,30.681548],[-98.329957,30.682838],[-98.335133,30.684175],[-98.337241,30.684359],[-98.338905,30.684995],[-98.33985,30.684817],[-98.340851,30.68398],[-98.34172,30.683702],[-98.346058,30.683472],[-98.349076,30.684473],[-98.351005,30.685746],[-98.351327,30.686521],[-98.353628,30.689688],[-98.356169,30.694727],[-98.356832,30.695565],[-98.35782,30.696268],[-98.358771,30.696601],[-98.360353,30.696722],[-98.369556,30.69626],[-98.371738,30.696406],[-98.373726,30.696937],[-98.376765,30.696186],[-98.378872,30.696463],[-98.379791,30.696873],[-98.380408,30.697608],[-98.380619,30.69853],[-98.38051,30.699658],[-98.380936,30.700649],[-98.381908,30.696525],[-98.383461,30.692886],[-98.388819,30.687373],[-98.389459,30.68647],[-98.391536,30.681829],[-98.393384,30.674052],[-98.394695,30.672546],[-98.395572,30.672141],[-98.415731,30.666473],[-98.416483,30.666049],[-98.420749,30.662109],[-98.425795,30.65689],[-98.428552,30.657893],[-98.428192,30.658905],[-98.428352,30.66073],[-98.429512,30.661806],[-98.433284,30.662809],[-98.435532,30.662848],[-98.438471,30.662329],[-98.439545,30.662844],[-98.441124,30.664818],[-98.441759,30.666352],[-98.441878,30.667533],[-98.441643,30.669157],[-98.440462,30.671723],[-98.439323,30.673054],[-98.438614,30.673454],[-98.436707,30.673967],[-98.429565,30.675167],[-98.428154,30.67503],[-98.424812,30.674179],[-98.42173,30.674023],[-98.419899,30.674273],[-98.416862,30.675362],[-98.414284,30.675884],[-98.411972,30.675806],[-98.409119,30.675123],[-98.40726,30.67505],[-98.405014,30.675642],[-98.403984,30.676203],[-98.402916,30.677359],[-98.402374,30.678497],[-98.402176,30.680794],[-98.404888,30.68782],[-98.40546,30.690226],[-98.408104,30.695124],[-98.414001,30.701834],[-98.414436,30.702959],[-98.414319,30.703743],[-98.413962,30.704392],[-98.412123,30.706022],[-98.410103,30.708462],[-98.408806,30.711155],[-98.408508,30.714973],[-98.408253,30.715669],[-98.404152,30.721083],[-98.402107,30.72184],[-98.397476,30.721252],[-98.392654,30.721233],[-98.390656,30.722862],[-98.388931,30.724985],[-98.386101,30.728905],[-98.385254,30.730635],[-98.376249,30.737055],[-98.374779,30.737761],[-98.371905,30.740485],[-98.371472,30.741378],[-98.371628,30.742922],[-98.374878,30.746384],[-98.37838,30.747328],[-98.380554,30.747265],[-98.382216,30.746722],[-98.379372,30.753224],[-98.378903,30.753746],[-98.37688,30.754505],[-98.376348,30.754995],[-98.37604,30.755422],[-98.375904,30.756764],[-98.373978,30.756878],[-98.36985,30.757648],[-98.366253,30.759312],[-98.363772,30.759884],[-98.361239,30.760022],[-98.358229,30.759643],[-98.356905,30.759887],[-98.354995,30.760817],[-98.351179,30.763368],[-98.348666,30.766825],[-98.346835,30.767789],[-98.344722,30.767765],[-98.342534,30.766661],[-98.34131,30.766373]]]}},{"type":"Feature","properties":{"PRECINCT":"10","VTD":"0010"},"geometry":{"type":"Polygon","coordinates":[[[-98.135846,30.752325],[-98.100533,30.7463],[-98.098061,30.746277],[-98.096979,30.743582],[-98.096763,30.741975],[-98.097886,30.734222],[-98.094249,30.725279],[-98.101961,30.722682],[-98.10371,30.721549],[-98.105704,30.71963],[-98.106326,30.718289],[-98.106906,30.715311],[-98.105826,30.708855],[-98.099484,30.693515],[-98.098553,30.692684],[-98.095393,30.691513],[-98.09401,30.690779],[-98.085815,30.683841],[-98.084847,30.682435],[-98.08102,30.673735],[-98.080331,30.67289],[-98.0771,30.670257],[-98.076415,30.669238],[-98.075035,30.664995],[-98.075015,30.663133],[-98.068195,30.64655],[-98.068152,30.645232],[-98.069195,30.638059],[-98.0705,30.635688],[-98.070367,30.633414],[-98.069775,30.632421],[-98.067315,30.630822],[-98.065519,30.629189],[-98.066002,30.625257],[-98.067643,30.624021],[-98.069732,30.623295],[-98.072095,30.622077],[-98.076866,30.618161],[-98.083333,30.609097],[-98.085038,30.604826],[-98.085816,30.603764],[-98.087049,30.603018],[-98.09122,30.602109],[-98.094374,30.60025],[-98.097242,30.599208],[-98.099378,30.597614],[-98.099766,30.597968],[-98.099203,30.598637],[-98.107783,30.60798],[-98.118399,30.613171],[-98.128022,30.606713],[-98.129765,30.607636],[-98.130971,30.610542],[-98.12907,30.614427],[-98.158104,30.628298],[-98.158979,30.626977],[-98.159522,30.627972],[-98.160833,30.629228],[-98.162982,30.63034],[-98.163291,30.631238],[-98.163548,30.634101],[-98.163121,30.635068],[-98.162339,30.635942],[-98.160235,30.636374],[-98.159992,30.637454],[-98.160279,30.638068],[-98.161938,30.639562],[-98.163307,30.641411],[-98.163231,30.642322],[-98.162146,30.643353],[-98.163284,30.644219],[-98.164163,30.644725],[-98.16679,30.64516],[-98.167753,30.645854],[-98.169426,30.64657],[-98.17089,30.647786],[-98.17429,30.649007],[-98.178314,30.651014],[-98.178925,30.651021],[-98.181168,30.650047],[-98.181823,30.649972],[-98.182475,30.650064],[-98.183868,30.650729],[-98.186224,30.651292],[-98.187756,30.652039],[-98.188979,30.653194],[-98.190244,30.65492],[-98.190523,30.656454],[-98.191099,30.65758],[-98.19631,30.66249],[-98.19797,30.663686],[-98.198013,30.664604],[-98.198673,30.666001],[-98.199628,30.666758],[-98.20045,30.668792],[-98.202527,30.670244],[-98.202763,30.670342],[-98.209953,30.668931],[-98.211394,30.6681],[-98.212129,30.670675],[-98.21142,30.672278],[-98.211507,30.673316],[-98.21223,30.67475],[-98.213477,30.676203],[-98.214099,30.677863],[-98.219345,30.697728],[-98.220719,30.69939],[-98.220736,30.700925],[-98.221316,30.703585],[-98.221368,30.705056],[-98.249126,30.703045],[-98.248676,30.703991],[-98.247559,30.703643],[-98.239987,30.720607],[-98.241494,30.721105],[-98.237702,30.729883],[-98.237451,30.732045],[-98.230588,30.733399],[-98.230305,30.733211],[-98.220293,30.735318],[-98.221901,30.741513],[-98.218941,30.746288],[-98.219082,30.746764],[-98.2204,30.747473],[-98.220132,30.747918],[-98.2201,30.74883],[-98.211502,30.747167],[-98.208931,30.747343],[-98.207728,30.747828],[-98.206749,30.748687],[-98.204523,30.75304],[-98.201716,30.751845],[-98.198401,30.751092],[-98.181228,30.749562],[-98.181248,30.750938],[-98.165029,30.749456],[-98.146096,30.74945],[-98.144524,30.749745],[-98.137965,30.75199],[-98.135846,30.752325]]]}},{"type":"Feature","properties":{"PRECINCT":"11","VTD":"0011"},"geometry":{"type":"Polygon","coordinates":[[[-98.182098,31.03189],[-98.18282,31.028205],[-98.184242,31.024208],[-98.191075,31.011335],[-98.195591,30.998364],[-98.200575,30.988846],[-98.219697,30.954263],[-98.235536,30.933453],[-98.236599,30.931771],[-98.237245,30.929287],[-98.237631,30.905662],[-98.240307,30.908077],[-98.245611,30.905491],[-98.243401,30.902422],[-98.280841,30.886703],[-98.284258,30.88999],[-98.288671,30.886436],[-98.28869,30.895835],[-98.313188,30.895335],[-98.340352,30.895187],[-98.344161,30.911706],[-98.372175,30.911376],[-98.38246,30.910983],[-98.385866,30.911064],[-98.406232,30.910573],[-98.44862,30.910089],[-98.447322,30.917073],[-98.445782,30.921439],[-98.444599,30.923109],[-98.441898,30.925865],[-98.440202,30.92652],[-98.435122,30.927104],[-98.429207,30.926435],[-98.425233,30.925017],[-98.422331,30.924259],[-98.420873,30.924651],[-98.419606,30.925352],[-98.418208,30.927003],[-98.417137,30.929546],[-98.416826,30.931963],[-98.414734,30.940168],[-98.414508,30.94211],[-98.414864,30.943479],[-98.416033,30.944851],[-98.418985,30.946425],[-98.422986,30.947933],[-98.426675,30.948629],[-98.434255,30.94891],[-98.441977,30.949645],[-98.445875,30.950697],[-98.447098,30.951755],[-98.450534,30.958646],[-98.452796,30.964399],[-98.452897,30.968727],[-98.452203,30.970227],[-98.443229,30.979735],[-98.442154,30.982496],[-98.441874,30.984324],[-98.442576,30.98619],[-98.446185,30.992898],[-98.454471,31.000991],[-98.458546,31.006184],[-98.459235,31.007745],[-98.459241,31.010378],[-98.458745,31.011545],[-98.456954,31.013157],[-98.451725,31.015449],[-98.448291,31.016703],[-98.445604,31.018051],[-98.442327,31.020476],[-98.441147,31.021785],[-98.440293,31.023184],[-98.439528,31.025125],[-98.4394,31.028241],[-98.439711,31.029647],[-98.372772,31.029989],[-98.182098,31.03189]]]}},{"type":"Feature","properties":{"PRECINCT":"12","VTD":"0012"},"geometry":{"type":"Polygon","coordinates":[[[-98.04678,30.751169],[-98.0458,30.749091],[-98.046301,30.748952],[-98.045919,30.748144],[-98.049056,30.746163],[-98.050047,30.746504],[-98.05225,30.742917],[-98.046833,30.740439],[-98.043181,30.739212],[-98.043953,30.737564],[-98.03987,30.735704],[-98.039805,30.735843],[-98.037075,30.734857],[-98.032842,30.734771],[-98.030829,30.733997],[-98.013475,30.721362],[-98.011587,30.719541],[-98.003491,30.710043],[-98.023201,30.673859],[-98.066559,30.593103],[-98.067178,30.593564],[-98.067453,30.594848],[-98.067971,30.595495],[-98.068151,30.597404],[-98.070219,30.599294],[-98.07152,30.601124],[-98.073745,30.600874],[-98.075347,30.599777],[-98.076554,30.59987],[-98.076844,30.600112],[-98.076642,30.601321],[-98.076839,30.602243],[-98.076498,30.60343],[-98.077083,30.604307],[-98.078518,30.604646],[-98.082688,30.60383],[-98.08405,30.604003],[-98.08513,30.604649],[-98.083333,30.609097],[-98.076866,30.618161],[-98.072095,30.622077],[-98.069732,30.623295],[-98.067643,30.624021],[-98.066002,30.625257],[-98.065519,30.629189],[-98.067315,30.630822],[-98.069775,30.632421],[-98.070367,30.633414],[-98.070511,30.634527],[-98.0705,30.635688],[-98.069423,30.637419],[-98.069055,30.638859],[-98.068149,30.645264],[-98.068324,30.647108],[-98.075015,30.663133],[-98.075035,30.664995],[-98.076415,30.669238],[-98.0771,30.670257],[-98.080331,30.67289],[-98.08102,30.673735],[-98.085382,30.683269],[-98.086748,30.684765],[-98.09401,30.690779],[-98.095393,30.691513],[-98.098553,30.692684],[-98.09977,30.693954],[-98.105504,30.707848],[-98.106446,30.712345],[-98.106876,30.715817],[-98.105934,30.719299],[-98.103433,30.721769],[-98.1013,30.72297],[-98.094249,30.725279],[-98.097886,30.734222],[-98.096763,30.741975],[-98.096979,30.743582],[-98.098061,30.746277],[-98.089503,30.748317],[-98.087817,30.748551],[-98.068644,30.747507],[-98.070436,30.751232],[-98.062879,30.749402],[-98.05673,30.748985],[-98.055985,30.7502],[-98.051698,30.748234],[-98.051123,30.749165],[-98.050635,30.748942],[-98.051419,30.750803],[-98.049053,30.751417],[-98.049411,30.751821],[-98.048137,30.752661],[-98.04678,30.751169]]]}},{"type":"Feature","properties":{"PRECINCT":"13","VTD":"0013"},"geometry":{"type":"Polygon","coordinates":[[[-98.0307,30.82372],[-98.029674,30.823741],[-98.028446,30.823299],[-98.026513,30.822193],[-98.026247,30.821411],[-98.022862,30.820226],[-98.021744,30.820364],[-98.021199,30.820979],[-98.019744,30.821533],[-98.018759,30.821422],[-98.018288,30.820918],[-98.017247,30.821191],[-98.016009,30.822042],[-98.015074,30.822204],[-98.014825,30.822884],[-98.014494,30.822993],[-98.013366,30.822351],[-98.013363,30.8216],[-98.012107,30.820615],[-98.011663,30.819759],[-98.011067,30.819515],[-98.01017,30.819602],[-98.009498,30.820091],[-98.008576,30.82015],[-98.00755,30.820036],[-98.007305,30.819608],[-98.006614,30.819429],[-98.005764,30.820042],[-98.002938,30.821031],[-98.001919,30.821062],[-98.001432,30.820678],[-98.001748,30.820039],[-98.001206,30.818688],[-98.000145,30.818153],[-97.99861,30.818179],[-97.998013,30.818616],[-97.997233,30.818369],[-97.996695,30.817815],[-97.996296,30.816547],[-97.994625,30.815458],[-97.991736,30.816726],[-97.991193,30.817153],[-97.990862,30.817845],[-97.989679,30.818796],[-97.989303,30.818851],[-97.988429,30.818379],[-97.986061,30.819291],[-97.984822,30.818539],[-97.983944,30.817592],[-97.983814,30.817223],[-97.984266,30.815605],[-97.984224,30.814626],[-97.983889,30.814182],[-97.983286,30.814304],[-97.982144,30.814979],[-97.980988,30.815215],[-97.979651,30.815933],[-97.977769,30.816149],[-97.976905,30.816793],[-97.975865,30.816728],[-97.972262,30.815778],[-97.97159,30.814969],[-97.97053,30.815078],[-97.968607,30.814558],[-97.967252,30.814722],[-97.965187,30.813604],[-97.963263,30.811726],[-97.961798,30.811479],[-97.957264,30.812642],[-97.955878,30.813627],[-97.955282,30.814783],[-97.954169,30.814572],[-97.953443,30.815029],[-97.951799,30.815548],[-97.950187,30.815218],[-97.948899,30.815323],[-97.948106,30.81504],[-97.946912,30.814185],[-97.945345,30.811755],[-97.943977,30.81062],[-97.943399,30.809718],[-97.942542,30.809513],[-97.941099,30.809913],[-97.94072,30.808802],[-97.939974,30.808251],[-97.939613,30.807232],[-97.939554,30.806541],[-97.96286,30.785641],[-97.982308,30.750182],[-98.003491,30.710043],[-98.011587,30.719541],[-98.013475,30.721362],[-98.030829,30.733997],[-98.032842,30.734771],[-98.037075,30.734857],[-98.039805,30.735843],[-98.03987,30.735704],[-98.043953,30.737564],[-98.043181,30.739212],[-98.046833,30.740439],[-98.05225,30.742917],[-98.050047,30.746504],[-98.049056,30.746163],[-98.045919,30.748144],[-98.046301,30.748952],[-98.0458,30.749091],[-98.046666,30.751114],[-98.048137,30.752661],[-98.049411,30.751821],[-98.049053,30.751417],[-98.051419,30.750803],[-98.050635,30.748942],[-98.051123,30.749165],[-98.051698,30.748234],[-98.055985,30.7502],[-98.05673,30.748985],[-98.062879,30.749402],[-98.070436,30.751232],[-98.068644,30.747507],[-98.087817,30.748551],[-98.089503,30.748317],[-98.098061,30.746277],[-98.10455,30.76222],[-98.09053,30.766634],[-98.093394,30.769151],[-98.094476,30.771697],[-98.095947,30.773736],[-98.099223,30.78141],[-98.099536,30.781468],[-98.105276,30.779639],[-98.107931,30.785922],[-98.10795,30.787255],[-98.108528,30.788801],[-98.108889,30.791579],[-98.109046,30.79191],[-98.110251,30.792621],[-98.113889,30.801179],[-98.114028,30.801353],[-98.116895,30.80047],[-98.117136,30.800627],[-98.119479,30.806159],[-98.110093,30.809097],[-98.104849,30.810506],[-98.080445,30.818271],[-98.082457,30.823025],[-98.08311,30.823903],[-98.083958,30.824478],[-98.088697,30.826656],[-98.089948,30.827812],[-98.091424,30.832232],[-98.094926,30.837587],[-98.096506,30.841596],[-98.09827,30.84369],[-98.099663,30.846214],[-98.10783,30.854041],[-98.109892,30.855562],[-98.112144,30.858555],[-98.106289,30.860269],[-98.103443,30.860629],[-98.068327,30.862121],[-98.065074,30.86271],[-98.050234,30.867517],[-98.041097,30.846316],[-98.032601,30.825742],[-98.032023,30.82492],[-98.032282,30.824619],[-98.0307,30.82372]]]}},{"type":"Feature","properties":{"PRECINCT":"14","VTD":"0014"},"geometry":{"type":"Polygon","coordinates":[[[-98.160019,31.032094],[-98.152531,31.012621],[-98.153422,31.012824],[-98.154218,31.012453],[-98.155407,31.012405],[-98.156997,31.011795],[-98.156124,31.009815],[-98.154755,31.004754],[-98.154377,31.002632],[-98.154528,31.002307],[-98.152276,31.002882],[-98.149437,30.993474],[-98.145325,30.993652],[-98.140513,30.980842],[-98.141044,30.980721],[-98.129773,30.952586],[-98.123495,30.955051],[-98.119468,30.94632],[-98.124526,30.944268],[-98.11938,30.932449],[-98.111929,30.913405],[-98.087997,30.922168],[-98.074238,30.898987],[-98.069024,30.900539],[-98.065246,30.89675],[-98.055297,30.897891],[-98.054712,30.895745],[-98.047648,30.894616],[-98.048769,30.892052],[-98.051419,30.888719],[-98.05206,30.887245],[-98.052387,30.885461],[-98.052298,30.884068],[-98.051856,30.882523],[-98.046972,30.871155],[-98.047238,30.869488],[-98.04792,30.868584],[-98.048699,30.868034],[-98.065074,30.86271],[-98.068327,30.862121],[-98.103443,30.860629],[-98.106289,30.860269],[-98.126723,30.854105],[-98.147772,30.847421],[-98.150501,30.84734],[-98.156236,30.849109],[-98.158752,30.849237],[-98.166425,30.846943],[-98.171682,30.846523],[-98.17331,30.845764],[-98.175542,30.844011],[-98.176785,30.846633],[-98.182927,30.847962],[-98.187482,30.849837],[-98.189891,30.849437],[-98.193974,30.850269],[-98.197354,30.850182],[-98.198087,30.850577],[-98.199414,30.85009],[-98.200049,30.850209],[-98.202402,30.858532],[-98.219612,30.854937],[-98.22162,30.857744],[-98.226095,30.856217],[-98.234989,30.869908],[-98.234967,30.872201],[-98.237742,30.897285],[-98.237245,30.929287],[-98.236599,30.931771],[-98.235536,30.933453],[-98.219697,30.954263],[-98.200575,30.988846],[-98.195591,30.998364],[-98.191075,31.011335],[-98.184242,31.024208],[-98.18282,31.028205],[-98.182098,31.03189],[-98.160019,31.032094]]]}},{"type":"Feature","properties":{"PRECINCT":"15","VTD":"0015"},"geometry":{"type":"Polygon","coordinates":[[[-97.856872,30.955782],[-97.840365,30.929318],[-97.829882,30.909521],[-97.828512,30.906188],[-97.8281,30.904414],[-97.874816,30.863467],[-97.878317,30.860436],[-97.878446,30.860552],[-97.939554,30.806541],[-97.939892,30.808118],[-97.94072,30.808802],[-97.941099,30.809913],[-97.942542,30.809513],[-97.943399,30.809718],[-97.943977,30.81062],[-97.945345,30.811755],[-97.946912,30.814185],[-97.948106,30.81504],[-97.948899,30.815323],[-97.950187,30.815218],[-97.951799,30.815548],[-97.953443,30.815029],[-97.954169,30.814572],[-97.955282,30.814783],[-97.955878,30.813627],[-97.957264,30.812642],[-97.961798,30.811479],[-97.963263,30.811726],[-97.965187,30.813604],[-97.967252,30.814722],[-97.968607,30.814558],[-97.97053,30.815078],[-97.97159,30.814969],[-97.972262,30.815778],[-97.975865,30.816728],[-97.976905,30.816793],[-97.977769,30.816149],[-97.979651,30.815933],[-97.980988,30.815215],[-97.982144,30.814979],[-97.983286,30.814304],[-97.983889,30.814182],[-97.984224,30.814626],[-97.984266,30.815605],[-97.983814,30.817223],[-97.983944,30.817592],[-97.984822,30.818539],[-97.986061,30.819291],[-97.988429,30.818379],[-97.989303,30.818851],[-97.989679,30.818796],[-97.990862,30.817845],[-97.991193,30.817153],[-97.991736,30.816726],[-97.994625,30.815458],[-97.996296,30.816547],[-97.996695,30.817815],[-97.997233,30.818369],[-97.998013,30.818616],[-97.99861,30.818179],[-98.000145,30.818153],[-98.001206,30.818688],[-98.001748,30.820039],[-98.001432,30.820678],[-98.001919,30.821062],[-98.002938,30.821031],[-98.005764,30.820042],[-98.006614,30.819429],[-98.007305,30.819608],[-98.00755,30.820036],[-98.008576,30.82015],[-98.009498,30.820091],[-98.01017,30.819602],[-98.011067,30.819515],[-98.011663,30.819759],[-98.012107,30.820615],[-98.013363,30.8216],[-98.013366,30.822351],[-98.014494,30.822993],[-98.014825,30.822884],[-98.015074,30.822204],[-98.016009,30.822042],[-98.017247,30.821191],[-98.018288,30.820918],[-98.018759,30.821422],[-98.019744,30.821533],[-98.021199,30.820979],[-98.021744,30.820364],[-98.022862,30.820226],[-98.026247,30.821411],[-98.026513,30.822193],[-98.028085,30.823132],[-98.029674,30.823741],[-98.030829,30.823747],[-98.032282,30.824619],[-98.032023,30.82492],[-98.032601,30.825742],[-98.041097,30.846316],[-98.050234,30.867517],[-98.048699,30.868034],[-98.04775,30.868757],[-98.047075,30.8699],[-98.046972,30.871155],[-98.051856,30.882523],[-98.052298,30.884068],[-98.05233,30.886098],[-98.051419,30.888719],[-98.048567,30.892379],[-98.046726,30.897068],[-98.042904,30.902885],[-98.041422,30.905934],[-98.03942,30.909105],[-98.035798,30.912717],[-98.030301,30.920111],[-98.024281,30.927192],[-98.016158,30.932211],[-98.015219,30.933082],[-98.014018,30.934958],[-98.001019,30.939133],[-98.000305,30.939758],[-97.999675,30.94091],[-97.999043,30.941377],[-97.992326,30.94367],[-97.991816,30.944274],[-97.991462,30.945923],[-97.990845,30.946368],[-97.989104,30.947024],[-97.988315,30.947199],[-97.98711,30.946991],[-97.984498,30.944658],[-97.983882,30.944418],[-97.983,30.944435],[-97.980331,30.946111],[-97.975374,30.947192],[-97.972625,30.948852],[-97.963628,30.951385],[-97.962832,30.952009],[-97.9623,30.951106],[-97.959383,30.94167],[-97.936333,30.947499],[-97.930985,30.931804],[-97.918537,30.935229],[-97.905813,30.939703],[-97.856872,30.955782]]]}},{"type":"Feature","properties":{"PRECINCT":"16","VTD":"0016"},"geometry":{"type":"Polygon","coordinates":[[[-97.911684,31.034919],[-97.886578,31.001664],[-97.874931,30.982467],[-97.866426,30.96942],[-97.865938,30.969429],[-97.856872,30.955782],[-97.905813,30.939703],[-97.918537,30.935229],[-97.930985,30.931804],[-97.936333,30.947499],[-97.959383,30.94167],[-97.9623,30.951106],[-97.962832,30.952009],[-97.963628,30.951385],[-97.972625,30.948852],[-97.975374,30.947192],[-97.980331,30.946111],[-97.983,30.944435],[-97.983882,30.944418],[-97.984498,30.944658],[-97.98711,30.946991],[-97.988315,30.947199],[-97.989104,30.947024],[-97.990845,30.946368],[-97.991462,30.945923],[-97.991816,30.944274],[-97.992326,30.94367],[-97.999043,30.941377],[-97.999675,30.94091],[-98.000305,30.939758],[-98.001019,30.939133],[-98.014018,30.934958],[-98.015219,30.933082],[-98.016158,30.932211],[-98.024281,30.927192],[-98.030301,30.920111],[-98.035798,30.912717],[-98.03942,30.909105],[-98.041422,30.905934],[-98.042904,30.902885],[-98.046726,30.897068],[-98.047648,30.894616],[-98.048033,30.894581],[-98.054712,30.895745],[-98.055297,30.897891],[-98.065246,30.89675],[-98.069024,30.900539],[-98.074238,30.898987],[-98.087997,30.922168],[-98.111929,30.913405],[-98.11938,30.932449],[-98.124526,30.944268],[-98.119468,30.94632],[-98.123495,30.955051],[-98.129773,30.952586],[-98.141044,30.980721],[-98.140513,30.980842],[-98.145325,30.993652],[-98.149437,30.993474],[-98.152276,31.002882],[-98.154528,31.002307],[-98.154377,31.002632],[-98.154755,31.004754],[-98.156124,31.009815],[-98.156997,31.011795],[-98.155407,31.012405],[-98.154218,31.012453],[-98.153422,31.012824],[-98.152531,31.012621],[-98.160019,31.032094],[-98.121317,31.032449],[-98.10033,31.03292],[-98.06403,31.0331],[-98.0005,31.03385],[-98.000301,31.034041],[-97.997547,31.034081],[-97.911684,31.034919]]]}},{"type":"Feature","properties":{"PRECINCT":"17","VTD":"0017"},"geometry":{"type":"Polygon","coordinates":[[[-98.234989,30.869908],[-98.226095,30.856217],[-98.22162,30.857744],[-98.219612,30.854937],[-98.202402,30.858532],[-98.200049,30.850209],[-98.199414,30.85009],[-98.198087,30.850577],[-98.197354,30.850182],[-98.193974,30.850269],[-98.189891,30.849437],[-98.187482,30.849837],[-98.182927,30.847962],[-98.176785,30.846633],[-98.175542,30.844011],[-98.17331,30.845764],[-98.171682,30.846523],[-98.166425,30.846943],[-98.158752,30.849237],[-98.156236,30.849109],[-98.150501,30.84734],[-98.147772,30.847421],[-98.112144,30.858555],[-98.109892,30.855562],[-98.10783,30.854041],[-98.099663,30.846214],[-98.09827,30.84369],[-98.096506,30.841596],[-98.094926,30.837587],[-98.091424,30.832232],[-98.089948,30.827812],[-98.088697,30.826656],[-98.083958,30.824478],[-98.08311,30.823903],[-98.082457,30.823025],[-98.080445,30.818271],[-98.104849,30.810506],[-98.110093,30.809097],[-98.119479,30.806159],[-98.117136,30.800627],[-98.116895,30.80047],[-98.114028,30.801353],[-98.113889,30.801179],[-98.110251,30.792621],[-98.109046,30.79191],[-98.108889,30.791579],[-98.108528,30.788801],[-98.10795,30.787255],[-98.107931,30.785922],[-98.105276,30.779639],[-98.099536,30.781468],[-98.099223,30.78141],[-98.095947,30.773736],[-98.094476,30.771697],[-98.093394,30.769151],[-98.09053,30.766634],[-98.10455,30.76222],[-98.098061,30.746277],[-98.100533,30.7463],[-98.135846,30.752325],[-98.137965,30.75199],[-98.144524,30.749745],[-98.146096,30.74945],[-98.165029,30.749456],[-98.181248,30.750938],[-98.181228,30.749562],[-98.198401,30.751092],[-98.201716,30.751845],[-98.204523,30.75304],[-98.206512,30.749014],[-98.207245,30.748176],[-98.208194,30.747588],[-98.209864,30.747177],[-98.211502,30.747167],[-98.215273,30.747908],[-98.215891,30.748394],[-98.217599,30.754442],[-98.213314,30.755329],[-98.214307,30.759129],[-98.216195,30.759721],[-98.218126,30.759948],[-98.220851,30.770121],[-98.219842,30.770504],[-98.218961,30.771378],[-98.216794,30.775456],[-98.216399,30.777072],[-98.216151,30.783491],[-98.22172,30.783034],[-98.22904,30.781526],[-98.229333,30.782513],[-98.234415,30.781432],[-98.234194,30.780553],[-98.234416,30.78052],[-98.236787,30.789014],[-98.240035,30.803772],[-98.234989,30.869908]]]}},{"type":"Feature","properties":{"PRECINCT":"18","VTD":"0018"},"geometry":{"type":"Polygon","coordinates":[[[-98.392567,30.618373],[-98.388178,30.615591],[-98.386848,30.617047],[-98.378162,30.611167],[-98.378245,30.611043],[-98.374574,30.608739],[-98.373896,30.609504],[-98.37318,30.610975],[-98.369039,30.609376],[-98.370016,30.606627],[-98.346772,30.602875],[-98.338521,30.603101],[-98.336988,30.602951],[-98.335383,30.602495],[-98.328538,30.599559],[-98.329438,30.598284],[-98.33617,30.601128],[-98.3375,30.601498],[-98.34699,30.601392],[-98.371029,30.605301],[-98.375653,30.600014],[-98.380413,30.598541],[-98.380905,30.598084],[-98.381783,30.59643],[-98.378838,30.595094],[-98.379169,30.594505],[-98.376283,30.593176],[-98.383019,30.582108],[-98.387561,30.584187],[-98.387653,30.581908],[-98.389265,30.578809],[-98.389176,30.578145],[-98.38759,30.577507],[-98.387257,30.577139],[-98.387474,30.576898],[-98.388137,30.577257],[-98.388722,30.576625],[-98.387644,30.575789],[-98.387711,30.575444],[-98.388332,30.575519],[-98.388142,30.574422],[-98.387156,30.574638],[-98.387519,30.573676],[-98.388361,30.573114],[-98.387798,30.572577],[-98.387287,30.571494],[-98.388157,30.570754],[-98.387572,30.570063],[-98.388134,30.569635],[-98.387864,30.56834],[-98.389915,30.567879],[-98.391769,30.567118],[-98.397536,30.564083],[-98.399914,30.563604],[-98.402271,30.563773],[-98.403379,30.564261],[-98.40442,30.565159],[-98.406556,30.567622],[-98.408172,30.569671],[-98.411148,30.574644],[-98.412156,30.577836],[-98.412429,30.580067],[-98.413346,30.582235],[-98.413705,30.58378],[-98.413699,30.585921],[-98.4132,30.586906],[-98.411835,30.588182],[-98.407944,30.5905],[-98.402519,30.593096],[-98.400696,30.594644],[-98.399996,30.597305],[-98.401407,30.603753],[-98.399106,30.607567],[-98.400011,30.608006],[-98.396944,30.612654],[-98.396996,30.613593],[-98.396161,30.614078],[-98.394532,30.616447],[-98.392567,30.618373]]]}},{"type":"Feature","properties":{"PRECINCT":"19","VTD":"0019"},"geometry":{"type":"Polygon","coordinates":[[[-98.290197,30.574732],[-98.292077,30.571959],[-98.29454,30.572831],[-98.295796,30.570886],[-98.293809,30.57011],[-98.29298,30.57061],[-98.292093,30.570176],[-98.291322,30.571299],[-98.28978,30.570592],[-98.290077,30.568653],[-98.290602,30.567909],[-98.289656,30.567448],[-98.289775,30.567252],[-98.28942,30.567085],[-98.29012,30.566081],[-98.288789,30.565315],[-98.287713,30.567113],[-98.286706,30.566581],[-98.286624,30.566383],[-98.2875,30.565123],[-98.286345,30.563738],[-98.287186,30.563386],[-98.286488,30.562723],[-98.28862,30.55948],[-98.291217,30.559817],[-98.291306,30.559343],[-98.292079,30.559484],[-98.292031,30.560185],[-98.293671,30.560476],[-98.293684,30.559705],[-98.296222,30.554677],[-98.295725,30.554526],[-98.296153,30.553599],[-98.294824,30.553256],[-98.291505,30.552926],[-98.289054,30.55306],[-98.286024,30.555609],[-98.285019,30.556725],[-98.280224,30.564124],[-98.277338,30.566289],[-98.275941,30.567082],[-98.270554,30.567988],[-98.268785,30.56819],[-98.265783,30.56784],[-98.264302,30.567428],[-98.262519,30.566412],[-98.260801,30.564857],[-98.259893,30.563269],[-98.25838,30.558973],[-98.257194,30.556961],[-98.25606,30.556008],[-98.254754,30.555329],[-98.252092,30.554489],[-98.250734,30.554364],[-98.247412,30.554414],[-98.245359,30.554969],[-98.244631,30.555373],[-98.243643,30.556638],[-98.241656,30.561523],[-98.2405,30.563166],[-98.239194,30.564356],[-98.237584,30.56478],[-98.236905,30.564735],[-98.233058,30.563148],[-98.231482,30.562014],[-98.230486,30.56179],[-98.227566,30.561777],[-98.226158,30.5621],[-98.225296,30.562433],[-98.216798,30.569258],[-98.214859,30.570126],[-98.211907,30.5698],[-98.205254,30.566818],[-98.19998,30.564922],[-98.200842,30.563585],[-98.201745,30.563236],[-98.201786,30.562545],[-98.20279,30.560157],[-98.20264,30.557476],[-98.204298,30.557461],[-98.203727,30.555331],[-98.203709,30.553601],[-98.202971,30.551015],[-98.203003,30.549602],[-98.203396,30.549182],[-98.205576,30.550255],[-98.207458,30.548479],[-98.207979,30.548559],[-98.208575,30.549449],[-98.209532,30.549399],[-98.213223,30.547967],[-98.213939,30.546416],[-98.215851,30.544663],[-98.216354,30.544729],[-98.216985,30.54552],[-98.218699,30.545631],[-98.219272,30.546523],[-98.219621,30.5467],[-98.221626,30.54665],[-98.22538,30.547925],[-98.227054,30.54789],[-98.228398,30.547297],[-98.231827,30.545069],[-98.23484,30.543662],[-98.238217,30.54094],[-98.245703,30.535484],[-98.247474,30.534861],[-98.256166,30.535932],[-98.261728,30.535399],[-98.263279,30.535499],[-98.267514,30.537023],[-98.271031,30.538663],[-98.271263,30.538386],[-98.271241,30.534698],[-98.270319,30.532329],[-98.268227,30.529147],[-98.26564,30.527166],[-98.265129,30.526506],[-98.265004,30.523686],[-98.265563,30.516209],[-98.264917,30.504951],[-98.265175,30.503742],[-98.266692,30.500736],[-98.276707,30.490476],[-98.277556,30.488543],[-98.277577,30.481063],[-98.277155,30.480531],[-98.273782,30.479561],[-98.268873,30.478652],[-98.265426,30.476116],[-98.264772,30.474018],[-98.264877,30.469707],[-98.261765,30.466525],[-98.261638,30.46435],[-98.260742,30.462815],[-98.260619,30.461935],[-98.351041,30.486096],[-98.351162,30.512487],[-98.351517,30.51719],[-98.351821,30.528514],[-98.351982,30.558084],[-98.348088,30.557265],[-98.34253,30.555733],[-98.338237,30.555646],[-98.336813,30.557939],[-98.335997,30.55829],[-98.333042,30.56044],[-98.328555,30.565419],[-98.327716,30.566088],[-98.324474,30.567607],[-98.322224,30.568122],[-98.320845,30.567776],[-98.320342,30.567225],[-98.316574,30.56565],[-98.314822,30.563979],[-98.312115,30.562024],[-98.305214,30.5583],[-98.293077,30.576868],[-98.290197,30.574732]]]}},{"type":"Feature","properties":{"PRECINCT":"20","VTD":"0020"},"geometry":{"type":"Polygon","coordinates":[[[-98.219345,30.697728],[-98.213786,30.676896],[-98.213207,30.675827],[-98.212047,30.674477],[-98.211507,30.673316],[-98.21142,30.672278],[-98.212129,30.670675],[-98.211394,30.6681],[-98.209953,30.668931],[-98.202763,30.670342],[-98.202301,30.670114],[-98.20045,30.668792],[-98.199628,30.666758],[-98.198673,30.666001],[-98.198013,30.664604],[-98.19797,30.663686],[-98.19631,30.66249],[-98.191099,30.65758],[-98.190523,30.656454],[-98.190244,30.65492],[-98.188979,30.653194],[-98.187756,30.652039],[-98.186224,30.651292],[-98.183868,30.650729],[-98.182475,30.650064],[-98.181823,30.649972],[-98.181168,30.650047],[-98.178925,30.651021],[-98.178314,30.651014],[-98.17429,30.649007],[-98.17089,30.647786],[-98.169426,30.64657],[-98.167753,30.645854],[-98.16679,30.64516],[-98.164163,30.644725],[-98.162146,30.643353],[-98.163231,30.642322],[-98.163307,30.641411],[-98.161938,30.639562],[-98.160089,30.637732],[-98.160235,30.636374],[-98.162339,30.635942],[-98.163121,30.635068],[-98.163548,30.634101],[-98.163291,30.631238],[-98.162982,30.63034],[-98.160833,30.629228],[-98.159522,30.627972],[-98.158979,30.626977],[-98.18555,30.586914],[-98.182846,30.58708],[-98.181518,30.587569],[-98.180653,30.588441],[-98.179787,30.590238],[-98.178683,30.59105],[-98.177681,30.591199],[-98.176805,30.591068],[-98.175679,30.590346],[-98.174888,30.588717],[-98.176879,30.590124],[-98.178846,30.589048],[-98.179024,30.588038],[-98.178066,30.586615],[-98.177947,30.585613],[-98.178538,30.585074],[-98.180196,30.584804],[-98.180024,30.584022],[-98.178785,30.583576],[-98.178549,30.583191],[-98.178668,30.582401],[-98.179613,30.580842],[-98.17965,30.579746],[-98.179367,30.57923],[-98.177729,30.578697],[-98.177247,30.578312],[-98.177245,30.577987],[-98.177682,30.577669],[-98.179468,30.577419],[-98.182619,30.575917],[-98.183388,30.574156],[-98.18233,30.572021],[-98.182583,30.57063],[-98.184874,30.56752],[-98.185165,30.567365],[-98.186256,30.567511],[-98.188015,30.566704],[-98.187703,30.565586],[-98.188343,30.564538],[-98.190137,30.565057],[-98.190873,30.56451],[-98.190796,30.565559],[-98.19227,30.566696],[-98.192757,30.566288],[-98.193528,30.566718],[-98.194533,30.566895],[-98.193926,30.565939],[-98.193911,30.565185],[-98.193123,30.564891],[-98.192944,30.564437],[-98.193094,30.564179],[-98.193838,30.564266],[-98.194624,30.563231],[-98.197081,30.563879],[-98.205254,30.566818],[-98.211907,30.5698],[-98.214859,30.570126],[-98.216798,30.569258],[-98.225296,30.562433],[-98.226158,30.5621],[-98.227566,30.561777],[-98.230486,30.56179],[-98.231482,30.562014],[-98.233058,30.563148],[-98.236905,30.564735],[-98.237584,30.56478],[-98.239194,30.564356],[-98.2405,30.563166],[-98.241656,30.561523],[-98.243643,30.556638],[-98.244631,30.555373],[-98.245359,30.554969],[-98.247412,30.554414],[-98.250734,30.554364],[-98.252092,30.554489],[-98.254754,30.555329],[-98.25606,30.556008],[-98.257194,30.556961],[-98.25838,30.558973],[-98.259893,30.563269],[-98.260801,30.564857],[-98.262519,30.566412],[-98.264302,30.567428],[-98.265783,30.56784],[-98.268785,30.56819],[-98.275941,30.567082],[-98.277338,30.566289],[-98.280224,30.564124],[-98.285019,30.556725],[-98.286024,30.555609],[-98.289054,30.55306],[-98.291505,30.552926],[-98.294824,30.553256],[-98.296153,30.553599],[-98.295725,30.554526],[-98.296222,30.554677],[-98.293684,30.559705],[-98.293671,30.560476],[-98.292031,30.560185],[-98.292079,30.559484],[-98.291306,30.559343],[-98.291217,30.559817],[-98.28862,30.55948],[-98.286488,30.562723],[-98.287186,30.563386],[-98.286345,30.563738],[-98.2875,30.565123],[-98.286624,30.566383],[-98.286706,30.566581],[-98.287713,30.567113],[-98.288789,30.565315],[-98.29012,30.566081],[-98.28942,30.567085],[-98.289775,30.567252],[-98.289656,30.567448],[-98.290602,30.567909],[-98.290077,30.568653],[-98.28978,30.570592],[-98.291322,30.571299],[-98.292093,30.570176],[-98.29298,30.57061],[-98.293809,30.57011],[-98.295796,30.570886],[-98.29454,30.572831],[-98.292077,30.571959],[-98.290197,30.574732],[-98.293077,30.576868],[-98.292809,30.577311],[-98.293367,30.578753],[-98.293386,30.579945],[-98.292113,30.585097],[-98.292441,30.586453],[-98.293409,30.587399],[-98.292994,30.588204],[-98.288371,30.586171],[-98.281633,30.595644],[-98.279686,30.598019],[-98.274803,30.595822],[-98.272173,30.600751],[-98.27057,30.601087],[-98.269298,30.603465],[-98.270515,30.603729],[-98.269943,30.605711],[-98.268814,30.605464],[-98.269508,30.612596],[-98.270411,30.613049],[-98.269259,30.614772],[-98.270699,30.61557],[-98.267358,30.619623],[-98.267852,30.61986],[-98.265964,30.625343],[-98.264377,30.62474],[-98.263562,30.627404],[-98.262461,30.634358],[-98.256948,30.651039],[-98.2548,30.679446],[-98.255249,30.688743],[-98.255127,30.69077],[-98.255023,30.691398],[-98.253844,30.691177],[-98.249126,30.703045],[-98.221368,30.705056],[-98.221316,30.703585],[-98.220736,30.700925],[-98.220719,30.69939],[-98.219345,30.697728]]]}},{"type":"Feature","properties":{"PRECINCT":"9","VTD":"0009"},"geometry":{"type":"Polygon","coordinates":[[[-98.377184,30.696195],[-98.375843,30.696298],[-98.373726,30.696937],[-98.371738,30.696406],[-98.369556,30.69626],[-98.363124,30.696673],[-98.359706,30.696712],[-98.358494,30.696531],[-98.357322,30.695969],[-98.356462,30.695141],[-98.35517,30.693015],[-98.353628,30.689688],[-98.351327,30.686521],[-98.351005,30.685746],[-98.349076,30.684473],[-98.346058,30.683472],[-98.345037,30.683393],[-98.341216,30.68381],[-98.33985,30.684817],[-98.338769,30.684974],[-98.337241,30.684359],[-98.335133,30.684175],[-98.329957,30.682838],[-98.327489,30.681548],[-98.323988,30.680338],[-98.321807,30.679839],[-98.31904,30.679529],[-98.316669,30.679528],[-98.315664,30.67976],[-98.312796,30.681714],[-98.311185,30.681804],[-98.282978,30.687301],[-98.270282,30.68932],[-98.257594,30.691665],[-98.255023,30.691398],[-98.255249,30.688743],[-98.2548,30.679446],[-98.256878,30.651395],[-98.262461,30.634358],[-98.263562,30.627404],[-98.264377,30.62474],[-98.265964,30.625343],[-98.267852,30.61986],[-98.267358,30.619623],[-98.270699,30.61557],[-98.269259,30.614772],[-98.270411,30.613049],[-98.269508,30.612596],[-98.268814,30.605464],[-98.269943,30.605711],[-98.270515,30.603729],[-98.269298,30.603465],[-98.27057,30.601087],[-98.272173,30.600751],[-98.274803,30.595822],[-98.279686,30.598019],[-98.281633,30.595644],[-98.288371,30.586171],[-98.292849,30.588262],[-98.293216,30.587928],[-98.294829,30.589996],[-98.296236,30.591119],[-98.300193,30.592417],[-98.300245,30.59267],[-98.303318,30.593552],[-98.304812,30.593864],[-98.32178,30.59533],[-98.323331,30.595711],[-98.329438,30.598284],[-98.328538,30.599559],[-98.336518,30.602852],[-98.338521,30.603101],[-98.346772,30.602875],[-98.370016,30.606627],[-98.369039,30.609376],[-98.37318,30.610975],[-98.373896,30.609504],[-98.374574,30.608739],[-98.378245,30.611043],[-98.378162,30.611167],[-98.386848,30.617047],[-98.388178,30.615591],[-98.392567,30.618373],[-98.394532,30.616447],[-98.396161,30.614078],[-98.396996,30.613593],[-98.396944,30.612654],[-98.400011,30.608006],[-98.399106,30.607567],[-98.401407,30.603753],[-98.400739,30.601128],[-98.400608,30.599476],[-98.401942,30.601864],[-98.406002,30.606894],[-98.409669,30.612309],[-98.417595,30.627274],[-98.41834,30.629922],[-98.418442,30.633005],[-98.418076,30.635069],[-98.41751,30.636565],[-98.416983,30.640347],[-98.417387,30.643248],[-98.417908,30.644794],[-98.419669,30.647074],[-98.428113,30.653978],[-98.428853,30.654828],[-98.428995,30.656251],[-98.428552,30.657893],[-98.425795,30.65689],[-98.420749,30.662109],[-98.416483,30.666049],[-98.415731,30.666473],[-98.395572,30.672141],[-98.394359,30.672791],[-98.393384,30.674052],[-98.391536,30.681829],[-98.389459,30.68647],[-98.388819,30.687373],[-98.383461,30.692886],[-98.381908,30.696525],[-98.380936,30.700649],[-98.38051,30.699658],[-98.380499,30.697893],[-98.380064,30.697102],[-98.3792,30.696564],[-98.377184,30.696195]]]}}]}