{"type":"FeatureCollection","features":[{"type":"Feature","properties":{"PRECINCT":"35","VTD":"0035"},"geometry":{"type":"Polygon","coordinates":[[[-101.453613,32.24263],[-101.452868,32.23999],[-101.45587,32.23666],[-101.457217,32.235635],[-101.463564,32.231828],[-101.464386,32.2348],[-101.461109,32.23554],[-101.461937,32.238174],[-101.46316,32.239044],[-101.46382,32.241204],[-101.460835,32.241842],[-101.460472,32.240599],[-101.457618,32.241249],[-101.457702,32.241497],[-101.453613,32.24263]]]}},{"type":"Feature","properties":{"PRECINCT":"16","VTD":"0016"},"geometry":{"type":"Polygon","coordinates":[[[-101.45913,32.254194],[-101.458331,32.254218],[-101.458105,32.253425],[-101.461183,32.25253],[-101.461876,32.252626],[-101.465239,32.258315],[-101.462524,32.259321],[-101.457577,32.260508],[-101.454683,32.260976],[-101.453491,32.257128],[-101.455915,32.256552],[-101.458752,32.256234],[-101.458317,32.254731],[-101.459193,32.254531],[-101.45913,32.254194]]]}},{"type":"Feature","properties":{"PRECINCT":"45","VTD":"0045"},"geometry":{"type":"Polygon","coordinates":[[[-101.404348,32.267642],[-101.403505,32.265625],[-101.403086,32.265582],[-101.401464,32.260409],[-101.451092,32.249361],[-101.455062,32.262047],[-101.438844,32.266583],[-101.437962,32.263506],[-101.431976,32.264919],[-101.425838,32.265946],[-101.404348,32.267642]]]}},{"type":"Feature","properties":{"PRECINCT":"208","VTD":"0208"},"geometry":{"type":"Polygon","coordinates":[[[-101.195569,32.180745],[-101.195569,32.175843],[-101.195299,32.171515],[-101.195972,32.170622],[-101.197695,32.170507],[-101.200172,32.16975],[-101.200684,32.169452],[-101.200684,32.168675],[-101.199956,32.167437],[-101.198745,32.166545],[-101.197506,32.164575],[-101.195325,32.163682],[-101.19554,32.16311],[-101.195082,32.162422],[-101.195055,32.161575],[-101.194652,32.160933],[-101.195082,32.159582],[-101.192094,32.16059],[-101.189859,32.161713],[-101.189455,32.162308],[-101.189402,32.163567],[-101.188971,32.164164],[-101.186925,32.164758],[-101.182203,32.166769],[-101.183382,32.117615],[-101.187109,32.114953],[-101.188832,32.114565],[-101.190776,32.114496],[-101.193682,32.112662],[-101.196642,32.111311],[-101.203047,32.102764],[-101.203503,32.101964],[-101.203366,32.100546],[-101.204039,32.099883],[-101.205142,32.099539],[-101.205761,32.098668],[-101.205195,32.097913],[-101.20393,32.094248],[-101.203903,32.093355],[-101.204816,32.089851],[-101.204815,32.088889],[-101.204292,32.087247],[-101.23898,32.087323],[-101.262744,32.087104],[-101.280043,32.087272],[-101.392968,32.087204],[-101.415827,32.106587],[-101.41805,32.108722],[-101.421379,32.113093],[-101.393786,32.12455],[-101.331366,32.149921],[-101.316691,32.153033],[-101.314349,32.152576],[-101.311657,32.151615],[-101.308588,32.150836],[-101.308296,32.154781],[-101.297118,32.157107],[-101.294349,32.148131],[-101.290148,32.150446],[-101.289016,32.151522],[-101.286943,32.154248],[-101.284249,32.155437],[-101.283334,32.156218],[-101.281744,32.157088],[-101.280939,32.157362],[-101.278486,32.157513],[-101.276818,32.157254],[-101.274286,32.156013],[-101.273556,32.155952],[-101.27216,32.155008],[-101.271267,32.154987],[-101.270814,32.154694],[-101.269344,32.154702],[-101.267996,32.153629],[-101.266017,32.153166],[-101.264073,32.153139],[-101.263329,32.152473],[-101.262393,32.152048],[-101.260162,32.152319],[-101.257906,32.152064],[-101.257333,32.150526],[-101.256579,32.152313],[-101.25596,32.151396],[-101.255638,32.150297],[-101.254586,32.149518],[-101.254019,32.148716],[-101.253535,32.148601],[-101.252968,32.148853],[-101.251027,32.148736],[-101.250018,32.148894],[-101.248695,32.149352],[-101.245892,32.149858],[-101.245433,32.15082],[-101.245082,32.151003],[-101.244303,32.15083],[-101.243703,32.151207],[-101.243619,32.151691],[-101.242883,32.15184],[-101.24267,32.152236],[-101.242146,32.152258],[-101.241352,32.152858],[-101.241217,32.153236],[-101.240416,32.153858],[-101.240991,32.154545],[-101.240048,32.155101],[-101.240191,32.155656],[-101.239965,32.15592],[-101.238446,32.155293],[-101.237257,32.155613],[-101.237109,32.156097],[-101.236204,32.155943],[-101.236722,32.15663],[-101.236031,32.157763],[-101.235501,32.157784],[-101.235405,32.158665],[-101.235043,32.158731],[-101.234687,32.157659],[-101.234396,32.157533],[-101.233944,32.157885],[-101.233918,32.158527],[-101.233072,32.159242],[-101.232872,32.160155],[-101.232575,32.160204],[-101.232569,32.159765],[-101.232019,32.159011],[-101.23136,32.159436],[-101.230449,32.159304],[-101.230126,32.159512],[-101.230152,32.159914],[-101.230578,32.159716],[-101.231147,32.159788],[-101.230488,32.160134],[-101.230766,32.160717],[-101.229978,32.16058],[-101.2301,32.160195],[-101.2299,32.160089],[-101.229157,32.160459],[-101.228543,32.159981],[-101.228492,32.161212],[-101.228124,32.161405],[-101.227865,32.160992],[-101.227426,32.161074],[-101.227303,32.161944],[-101.227956,32.162581],[-101.227485,32.162653],[-101.225959,32.162256],[-101.225921,32.162714],[-101.22552,32.162851],[-101.224945,32.162346],[-101.224842,32.162714],[-101.22417,32.163049],[-101.224267,32.163384],[-101.224835,32.163103],[-101.225191,32.163379],[-101.225889,32.163412],[-101.225631,32.164599],[-101.226129,32.164698],[-101.226445,32.165137],[-101.225437,32.165098],[-101.225218,32.165517],[-101.225631,32.165731],[-101.225141,32.1666],[-101.224223,32.166952],[-101.224663,32.167276],[-101.224618,32.167665],[-101.223325,32.167458],[-101.22266,32.167656],[-101.222641,32.169013],[-101.223029,32.169646],[-101.222338,32.170432],[-101.221789,32.171948],[-101.221356,32.172263],[-101.221744,32.172987],[-101.220768,32.173268],[-101.220032,32.173906],[-101.22075,32.174308],[-101.220743,32.174571],[-101.219651,32.174422],[-101.218921,32.175033],[-101.217745,32.175165],[-101.217163,32.175621],[-101.217454,32.176045],[-101.217241,32.176408],[-101.21845,32.17644],[-101.219154,32.177249],[-101.218915,32.177403],[-101.218476,32.177249],[-101.218528,32.177754],[-101.218159,32.177957],[-101.21814,32.177326],[-101.217946,32.177249],[-101.216266,32.17831],[-101.21626,32.178953],[-101.21699,32.178876],[-101.217498,32.179287],[-101.21641,32.180447],[-101.215067,32.180582],[-101.213153,32.179986],[-101.211132,32.179873],[-101.208301,32.178362],[-101.205714,32.177583],[-101.204044,32.176828],[-101.200066,32.177813],[-101.198935,32.177905],[-101.197185,32.1785],[-101.196377,32.179279],[-101.196189,32.181317],[-101.195569,32.180745]],[[-101.36887,32.115461],[-101.372199,32.115358],[-101.372268,32.111535],[-101.370355,32.111485],[-101.370653,32.106349],[-101.362027,32.106074],[-101.361781,32.113307],[-101.36881,32.113512],[-101.36887,32.115461]]]}},{"type":"Feature","properties":{"PRECINCT":"34A","VTD":"034A"},"geometry":{"type":"Polygon","coordinates":[[[-101.465543,32.238701],[-101.466154,32.238508],[-101.466771,32.240488],[-101.466142,32.24064],[-101.465543,32.238701]]]}},{"type":"Feature","properties":{"PRECINCT":"34","VTD":"0034"},"geometry":{"type":"Polygon","coordinates":[[[-101.480084,32.242828],[-101.479065,32.237862],[-101.474425,32.238869],[-101.473567,32.236054],[-101.471234,32.236599],[-101.471164,32.236393],[-101.465309,32.237705],[-101.466142,32.24064],[-101.46382,32.241204],[-101.46316,32.239044],[-101.461937,32.238174],[-101.461109,32.23554],[-101.464386,32.2348],[-101.463534,32.231485],[-101.466527,32.23033],[-101.473797,32.228731],[-101.473107,32.226211],[-101.475477,32.222921],[-101.476558,32.223909],[-101.477294,32.224079],[-101.477366,32.224549],[-101.479892,32.224048],[-101.479601,32.228271],[-101.480588,32.228743],[-101.48114,32.22932],[-101.482582,32.231842],[-101.483303,32.232585],[-101.487232,32.23476],[-101.488776,32.234918],[-101.490914,32.234496],[-101.491208,32.235559],[-101.491862,32.235427],[-101.492462,32.237378],[-101.491934,32.238315],[-101.492408,32.239998],[-101.480084,32.242828]]]}},{"type":"Feature","properties":{"PRECINCT":"31","VTD":"0031"},"geometry":{"type":"Polygon","coordinates":[[[-101.474425,32.238869],[-101.479065,32.237862],[-101.479675,32.23981],[-101.480084,32.242828],[-101.47886,32.243088],[-101.4779,32.243614],[-101.475952,32.24371],[-101.474425,32.238869]]]}},{"type":"Feature","properties":{"PRECINCT":"404","VTD":"0404"},"geometry":{"type":"Polygon","coordinates":[[[-101.4652,32.294252],[-101.465814,32.29323],[-101.463664,32.292071],[-101.462824,32.292146],[-101.439446,32.297283],[-101.433342,32.298485],[-101.422084,32.300218],[-101.414165,32.302304],[-101.403651,32.267691],[-101.425838,32.265946],[-101.431976,32.264919],[-101.437962,32.263506],[-101.438844,32.266583],[-101.455062,32.262047],[-101.455759,32.26452],[-101.456895,32.264265],[-101.456972,32.264515],[-101.458878,32.264094],[-101.458991,32.264466],[-101.465743,32.267915],[-101.468117,32.275646],[-101.47315,32.27456],[-101.471622,32.26968],[-101.474833,32.268937],[-101.480554,32.287948],[-101.497293,32.284135],[-101.499397,32.291099],[-101.487976,32.29354],[-101.485403,32.293819],[-101.482367,32.293841],[-101.484903,32.30227],[-101.468567,32.305965],[-101.4652,32.294252]]]}},{"type":"Feature","properties":{"PRECINCT":"13","VTD":"0013"},"geometry":{"type":"Polygon","coordinates":[[[-101.486928,32.234648],[-101.483303,32.232585],[-101.482582,32.231842],[-101.48114,32.22932],[-101.480588,32.228743],[-101.479601,32.228271],[-101.479802,32.22599],[-101.494792,32.222645],[-101.494523,32.221766],[-101.495519,32.221451],[-101.494675,32.218752],[-101.493719,32.218561],[-101.491883,32.215581],[-101.493589,32.214993],[-101.492578,32.211719],[-101.493204,32.211584],[-101.493612,32.212314],[-101.496181,32.211737],[-101.496401,32.212133],[-101.493209,32.212841],[-101.494687,32.21677],[-101.49852,32.215154],[-101.501351,32.218483],[-101.501537,32.219396],[-101.507122,32.218024],[-101.511781,32.215199],[-101.513497,32.22045],[-101.520957,32.21869],[-101.524787,32.21696],[-101.528805,32.216143],[-101.528769,32.216875],[-101.529325,32.21886],[-101.527892,32.228596],[-101.525056,32.23169],[-101.522721,32.232735],[-101.521206,32.232886],[-101.520928,32.233761],[-101.517966,32.234451],[-101.516888,32.230998],[-101.512806,32.231589],[-101.512267,32.230221],[-101.511188,32.230311],[-101.509294,32.228929],[-101.508852,32.228827],[-101.506706,32.229245],[-101.507451,32.23097],[-101.50721,32.231325],[-101.506682,32.229761],[-101.505564,32.2299],[-101.502788,32.230637],[-101.499264,32.23303],[-101.497315,32.233193],[-101.489072,32.234885],[-101.487982,32.234903],[-101.486928,32.234648]]]}},{"type":"Feature","properties":{"PRECINCT":"31A","VTD":"031A"},"geometry":{"type":"Polygon","coordinates":[[[-101.492462,32.237378],[-101.491862,32.235427],[-101.491208,32.235559],[-101.490914,32.234496],[-101.493217,32.234263],[-101.495124,32.235072],[-101.497007,32.237481],[-101.498439,32.238399],[-101.498128,32.238692],[-101.492408,32.239998],[-101.491934,32.238315],[-101.492462,32.237378]]]}},{"type":"Feature","properties":{"PRECINCT":"33","VTD":"0033"},"geometry":{"type":"Polygon","coordinates":[[[-101.469797,32.223649],[-101.47051,32.220328],[-101.473789,32.213355],[-101.471699,32.213663],[-101.466065,32.208478],[-101.4669,32.207817],[-101.466171,32.207267],[-101.465408,32.207869],[-101.464197,32.206559],[-101.463806,32.205775],[-101.46428,32.204959],[-101.463971,32.204475],[-101.465819,32.201012],[-101.471702,32.199676],[-101.472742,32.203242],[-101.475624,32.202604],[-101.475644,32.205917],[-101.474549,32.209627],[-101.474841,32.209711],[-101.475206,32.209662],[-101.475681,32.208074],[-101.477078,32.207743],[-101.476577,32.206112],[-101.476231,32.206176],[-101.476413,32.205243],[-101.481546,32.204106],[-101.481822,32.204971],[-101.48588,32.204043],[-101.486422,32.205819],[-101.49049,32.204919],[-101.49138,32.207834],[-101.494651,32.207102],[-101.494809,32.206896],[-101.494476,32.205893],[-101.495168,32.205739],[-101.494092,32.202215],[-101.498368,32.201293],[-101.50012,32.207006],[-101.498814,32.207295],[-101.499236,32.208671],[-101.496631,32.209252],[-101.497444,32.211902],[-101.496401,32.212133],[-101.496181,32.211737],[-101.493612,32.212314],[-101.493204,32.211584],[-101.492578,32.211719],[-101.493589,32.214993],[-101.491883,32.215581],[-101.493719,32.218561],[-101.494675,32.218752],[-101.495519,32.221451],[-101.494523,32.221766],[-101.494792,32.222645],[-101.479802,32.22599],[-101.479892,32.224048],[-101.477366,32.224549],[-101.477294,32.224079],[-101.476558,32.223909],[-101.475477,32.222921],[-101.473107,32.226211],[-101.473797,32.228731],[-101.470533,32.229353],[-101.469797,32.223649]]]}},{"type":"Feature","properties":{"PRECINCT":"14","VTD":"0014"},"geometry":{"type":"Polygon","coordinates":[[[-101.466771,32.240488],[-101.466154,32.238508],[-101.465543,32.238701],[-101.465309,32.237705],[-101.471164,32.236393],[-101.471234,32.236599],[-101.473567,32.236054],[-101.474404,32.238795],[-101.466771,32.240488]]]}},{"type":"Feature","properties":{"PRECINCT":"105","VTD":"0105"},"geometry":{"type":"Polygon","coordinates":[[[-101.661021,32.517926],[-101.67768,32.514522],[-101.681206,32.525228],[-101.663377,32.525167],[-101.661021,32.517926]]]}},{"type":"Feature","properties":{"PRECINCT":"304","VTD":"0304"},"geometry":{"type":"Polygon","coordinates":[[[-101.535385,32.220214],[-101.536066,32.215363],[-101.531162,32.21647],[-101.529937,32.212891],[-101.530291,32.197091],[-101.523814,32.193288],[-101.522292,32.193365],[-101.52294,32.195785],[-101.514666,32.197653],[-101.516819,32.204661],[-101.508907,32.206443],[-101.511781,32.215199],[-101.507122,32.218024],[-101.501537,32.219396],[-101.501351,32.218483],[-101.49852,32.215154],[-101.494687,32.21677],[-101.493209,32.212841],[-101.497444,32.211902],[-101.496631,32.209252],[-101.499236,32.208671],[-101.498814,32.207295],[-101.50012,32.207006],[-101.498368,32.201293],[-101.494092,32.202215],[-101.495168,32.205739],[-101.494476,32.205893],[-101.494809,32.206896],[-101.494651,32.207102],[-101.49138,32.207834],[-101.49049,32.204919],[-101.486422,32.205819],[-101.48588,32.204043],[-101.481822,32.204971],[-101.481546,32.204106],[-101.476413,32.205243],[-101.476231,32.206176],[-101.476577,32.206112],[-101.477078,32.207743],[-101.475681,32.208074],[-101.475206,32.209662],[-101.474549,32.209627],[-101.474725,32.209039],[-101.475012,32.20912],[-101.475973,32.205779],[-101.476106,32.204304],[-101.472998,32.175272],[-101.472185,32.173088],[-101.435296,32.131211],[-101.41805,32.108722],[-101.415827,32.106587],[-101.392968,32.087204],[-101.576648,32.087123],[-101.695011,32.087532],[-101.693976,32.164299],[-101.669378,32.173253],[-101.644377,32.181911],[-101.640736,32.184162],[-101.632425,32.191598],[-101.630034,32.193288],[-101.627808,32.194386],[-101.625299,32.195267],[-101.610214,32.198725],[-101.607945,32.199526],[-101.605807,32.200995],[-101.596731,32.210122],[-101.572689,32.222057],[-101.566966,32.223638],[-101.529615,32.232014],[-101.526715,32.233227],[-101.524526,32.233175],[-101.524453,32.23293],[-101.524958,32.232815],[-101.525183,32.232404],[-101.530892,32.231181],[-101.53403,32.227813],[-101.533881,32.227081],[-101.533289,32.226523],[-101.532742,32.224404],[-101.535385,32.220214]]]}},{"type":"Feature","properties":{"PRECINCT":"207","VTD":"0207"},"geometry":{"type":"Polygon","coordinates":[[[-101.177481,32.369836],[-101.180666,32.250121],[-101.180613,32.244334],[-101.182203,32.166769],[-101.186925,32.164758],[-101.188971,32.164164],[-101.189402,32.163567],[-101.189455,32.162308],[-101.189859,32.161713],[-101.192094,32.16059],[-101.195082,32.159582],[-101.194652,32.160933],[-101.195055,32.161575],[-101.195082,32.162422],[-101.19554,32.16311],[-101.195325,32.163682],[-101.197506,32.164575],[-101.198745,32.166545],[-101.199956,32.167437],[-101.200684,32.168675],[-101.200684,32.169452],[-101.200172,32.16975],[-101.197695,32.170507],[-101.195972,32.170622],[-101.195299,32.171515],[-101.195569,32.175843],[-101.195488,32.180173],[-101.195973,32.181295],[-101.196189,32.181317],[-101.196377,32.179279],[-101.197185,32.1785],[-101.198935,32.177905],[-101.200066,32.177813],[-101.204044,32.176828],[-101.205714,32.177583],[-101.208301,32.178362],[-101.211132,32.179873],[-101.213153,32.179986],[-101.215578,32.180627],[-101.21641,32.180447],[-101.217498,32.179287],[-101.21699,32.178876],[-101.216221,32.178919],[-101.21635,32.178221],[-101.217946,32.177249],[-101.21814,32.177326],[-101.218159,32.177957],[-101.218528,32.177754],[-101.218476,32.177249],[-101.218915,32.177403],[-101.219154,32.177249],[-101.21845,32.17644],[-101.217241,32.176408],[-101.217454,32.176045],[-101.217163,32.175621],[-101.217745,32.175165],[-101.218921,32.175033],[-101.219651,32.174422],[-101.220743,32.174571],[-101.22075,32.174308],[-101.220032,32.173906],[-101.220768,32.173268],[-101.221744,32.172987],[-101.221356,32.172263],[-101.221789,32.171948],[-101.222338,32.170432],[-101.223048,32.169562],[-101.222641,32.169013],[-101.22266,32.167656],[-101.223325,32.167458],[-101.224618,32.167665],[-101.224663,32.167276],[-101.224223,32.166952],[-101.225141,32.1666],[-101.225631,32.165731],[-101.225218,32.165517],[-101.225437,32.165098],[-101.226445,32.165137],[-101.226129,32.164698],[-101.225631,32.164599],[-101.225889,32.163412],[-101.225191,32.163379],[-101.224835,32.163103],[-101.224267,32.163384],[-101.22417,32.163049],[-101.224842,32.162714],[-101.224945,32.162346],[-101.22552,32.162851],[-101.225921,32.162714],[-101.225959,32.162256],[-101.227485,32.162653],[-101.227956,32.162581],[-101.227303,32.161944],[-101.227426,32.161074],[-101.227865,32.160992],[-101.228124,32.161405],[-101.228492,32.161212],[-101.228543,32.159981],[-101.229157,32.160459],[-101.2299,32.160089],[-101.2301,32.160195],[-101.229978,32.16058],[-101.230766,32.160717],[-101.230488,32.160134],[-101.231147,32.159788],[-101.230578,32.159716],[-101.230152,32.159914],[-101.230126,32.159512],[-101.230449,32.159304],[-101.23136,32.159436],[-101.232019,32.159011],[-101.232569,32.159765],[-101.232575,32.160204],[-101.232872,32.160155],[-101.233072,32.159242],[-101.233918,32.158527],[-101.233944,32.157885],[-101.234396,32.157533],[-101.234687,32.157659],[-101.235043,32.158731],[-101.235405,32.158665],[-101.235501,32.157784],[-101.236031,32.157763],[-101.236722,32.15663],[-101.236159,32.155971],[-101.237109,32.156097],[-101.237257,32.155613],[-101.238446,32.155293],[-101.239965,32.15592],[-101.240191,32.155656],[-101.240048,32.155101],[-101.240991,32.154545],[-101.240416,32.153858],[-101.241217,32.153236],[-101.241352,32.152858],[-101.242146,32.152258],[-101.24267,32.152236],[-101.242883,32.15184],[-101.243619,32.151691],[-101.243703,32.151207],[-101.244303,32.15083],[-101.245082,32.151003],[-101.245433,32.15082],[-101.245676,32.149994],[-101.246996,32.149558],[-101.248695,32.149352],[-101.251027,32.148736],[-101.25216,32.148898],[-101.253535,32.148601],[-101.254019,32.148716],[-101.254586,32.149518],[-101.255638,32.150297],[-101.25596,32.151396],[-101.256579,32.152313],[-101.257333,32.150526],[-101.257906,32.152064],[-101.260162,32.152319],[-101.262393,32.152048],[-101.263329,32.152473],[-101.264073,32.153139],[-101.266017,32.153166],[-101.267996,32.153629],[-101.269344,32.154702],[-101.270814,32.154694],[-101.271267,32.154987],[-101.27216,32.155008],[-101.273556,32.155952],[-101.274286,32.156013],[-101.276818,32.157254],[-101.279756,32.157497],[-101.281744,32.157088],[-101.283334,32.156218],[-101.284249,32.155437],[-101.286943,32.154248],[-101.289016,32.151522],[-101.290148,32.150446],[-101.294349,32.148131],[-101.297118,32.157107],[-101.308296,32.154781],[-101.308588,32.150836],[-101.311657,32.151615],[-101.314349,32.152576],[-101.316691,32.153033],[-101.348935,32.146186],[-101.367657,32.208492],[-101.366208,32.21277],[-101.364031,32.220602],[-101.363952,32.223351],[-101.367296,32.228411],[-101.367727,32.229692],[-101.369562,32.232967],[-101.370021,32.234547],[-101.372652,32.235582],[-101.374798,32.235562],[-101.376294,32.235176],[-101.377708,32.234482],[-101.378468,32.234412],[-101.378737,32.234847],[-101.378683,32.235442],[-101.377362,32.237022],[-101.375849,32.241098],[-101.375848,32.24183],[-101.376874,32.242928],[-101.376873,32.244166],[-101.377331,32.24483],[-101.379135,32.245655],[-101.382583,32.248085],[-101.383257,32.247947],[-101.383204,32.246778],[-101.383931,32.246893],[-101.384686,32.24671],[-101.384767,32.245978],[-101.385872,32.244628],[-101.386007,32.244146],[-101.387193,32.243986],[-101.38991,32.245758],[-101.390436,32.245355],[-101.390954,32.245579],[-101.391303,32.245013],[-101.392131,32.2453],[-101.392253,32.245888],[-101.391787,32.246916],[-101.392169,32.247256],[-101.393081,32.247037],[-101.393566,32.247256],[-101.393921,32.24751],[-101.394147,32.248362],[-101.394626,32.248632],[-101.39434,32.249505],[-101.394341,32.25406],[-101.394875,32.254905],[-101.396855,32.261364],[-101.401464,32.260409],[-101.403086,32.265582],[-101.403505,32.265625],[-101.404047,32.267139],[-101.404243,32.267129],[-101.404348,32.267642],[-101.403651,32.267691],[-101.403722,32.268284],[-101.405502,32.27379],[-101.37276,32.28221],[-101.368319,32.267802],[-101.333198,32.275627],[-101.333694,32.276549],[-101.335667,32.277777],[-101.336283,32.278619],[-101.34382,32.303322],[-101.310835,32.310617],[-101.32926,32.369667],[-101.332697,32.379637],[-101.336882,32.393151],[-101.336475,32.396019],[-101.339455,32.406019],[-101.337508,32.407345],[-101.31035,32.421706],[-101.219546,32.478149],[-101.216842,32.479264],[-101.174697,32.493291],[-101.177164,32.375117],[-101.177481,32.369836]],[[-101.329952,32.29043],[-101.329007,32.287661],[-101.316506,32.29056],[-101.316116,32.289217],[-101.316552,32.289116],[-101.316102,32.287647],[-101.309792,32.289105],[-101.309172,32.288893],[-101.304583,32.289842],[-101.304386,32.28914],[-101.30413,32.289178],[-101.301883,32.289741],[-101.302186,32.290792],[-101.296153,32.292166],[-101.297819,32.297351],[-101.293567,32.298198],[-101.293866,32.299349],[-101.298111,32.2984],[-101.300401,32.305706],[-101.316848,32.301724],[-101.314308,32.293726],[-101.329952,32.29043]]]}},{"type":"Feature","properties":{"PRECINCT":"12","VTD":"0012"},"geometry":{"type":"Polygon","coordinates":[[[-101.468117,32.275646],[-101.465743,32.267915],[-101.458991,32.264466],[-101.458878,32.264094],[-101.456972,32.264515],[-101.456895,32.264265],[-101.455759,32.26452],[-101.454683,32.260976],[-101.457577,32.260508],[-101.462524,32.259321],[-101.465239,32.258315],[-101.461876,32.252626],[-101.46102,32.252228],[-101.460711,32.251669],[-101.462241,32.251849],[-101.462605,32.252084],[-101.462891,32.251327],[-101.463574,32.251174],[-101.463644,32.251592],[-101.464074,32.251472],[-101.467147,32.250279],[-101.468673,32.249951],[-101.472991,32.248171],[-101.473528,32.249125],[-101.476896,32.247709],[-101.477981,32.249603],[-101.480185,32.248697],[-101.482314,32.252522],[-101.480129,32.253372],[-101.481886,32.256396],[-101.482985,32.255951],[-101.48372,32.257264],[-101.485848,32.26415],[-101.485511,32.264633],[-101.487976,32.264432],[-101.485036,32.264951],[-101.485242,32.265664],[-101.484951,32.265957],[-101.479568,32.267137],[-101.48153,32.273534],[-101.476586,32.274637],[-101.474833,32.268937],[-101.471622,32.26968],[-101.47315,32.27456],[-101.468117,32.275646]]]}},{"type":"Feature","properties":{"PRECINCT":"41","VTD":"0041"},"geometry":{"type":"Polygon","coordinates":[[[-101.474182,32.245345],[-101.475293,32.244889],[-101.476896,32.247709],[-101.475783,32.248168],[-101.474182,32.245345]]]}},{"type":"Feature","properties":{"PRECINCT":"32","VTD":"0032"},"geometry":{"type":"Polygon","coordinates":[[[-101.455375,32.242002],[-101.460472,32.240599],[-101.460835,32.241842],[-101.466771,32.240488],[-101.467067,32.241476],[-101.455921,32.24389],[-101.455375,32.242002]]]}},{"type":"Feature","properties":{"PRECINCT":"42","VTD":"0042"},"geometry":{"type":"Polygon","coordinates":[[[-101.460711,32.251669],[-101.460223,32.250418],[-101.460616,32.249924],[-101.463018,32.249435],[-101.462277,32.246782],[-101.458082,32.24776],[-101.456194,32.247258],[-101.455818,32.246851],[-101.454495,32.242434],[-101.455385,32.24223],[-101.455921,32.24389],[-101.456097,32.243879],[-101.468227,32.241208],[-101.469483,32.245179],[-101.473575,32.244177],[-101.475783,32.248168],[-101.473528,32.249125],[-101.472991,32.248171],[-101.468673,32.249951],[-101.467147,32.250279],[-101.464074,32.251472],[-101.463644,32.251592],[-101.463574,32.251174],[-101.462891,32.251327],[-101.462605,32.252084],[-101.462241,32.251849],[-101.460711,32.251669]]]}},{"type":"Feature","properties":{"PRECINCT":"405","VTD":"0405"},"geometry":{"type":"Polygon","coordinates":[[[-101.570583,32.524959],[-101.328387,32.52432],[-101.328656,32.478991],[-101.328354,32.478575],[-101.328671,32.463884],[-101.328537,32.459153],[-101.362368,32.459071],[-101.362341,32.455412],[-101.362807,32.449919],[-101.369896,32.448051],[-101.402011,32.440401],[-101.420297,32.436566],[-101.415922,32.422083],[-101.431937,32.418657],[-101.42733,32.406354],[-101.424353,32.393206],[-101.421607,32.383361],[-101.420239,32.379543],[-101.404891,32.32994],[-101.398318,32.30782],[-101.399747,32.307339],[-101.399239,32.305722],[-101.414165,32.302304],[-101.422084,32.300218],[-101.433342,32.298485],[-101.463664,32.292071],[-101.465814,32.29323],[-101.465161,32.294666],[-101.468567,32.305965],[-101.484903,32.30227],[-101.482367,32.293841],[-101.485403,32.293819],[-101.487976,32.29354],[-101.499397,32.291099],[-101.519874,32.358424],[-101.5196,32.358469],[-101.520123,32.360487],[-101.552153,32.465077],[-101.556019,32.479646],[-101.570583,32.524959]]]}},{"type":"Feature","properties":{"PRECINCT":"12A","VTD":"012A"},"geometry":{"type":"Polygon","coordinates":[[[-101.474182,32.245345],[-101.473575,32.244177],[-101.472357,32.244383],[-101.469483,32.245179],[-101.468227,32.241208],[-101.467067,32.241476],[-101.466771,32.240488],[-101.474404,32.238795],[-101.475952,32.24371],[-101.474802,32.244],[-101.475293,32.244889],[-101.474182,32.245345]]]}},{"type":"Feature","properties":{"PRECINCT":"409","VTD":"0409"},"geometry":{"type":"Polygon","coordinates":[[[-101.34382,32.303322],[-101.336153,32.278346],[-101.335547,32.277687],[-101.333793,32.276645],[-101.333198,32.275627],[-101.368319,32.267802],[-101.37276,32.28221],[-101.405502,32.27379],[-101.414165,32.302304],[-101.399239,32.305722],[-101.399747,32.307339],[-101.398318,32.30782],[-101.40996,32.346257],[-101.382664,32.373638],[-101.339455,32.406019],[-101.336475,32.396019],[-101.336882,32.393151],[-101.332697,32.379637],[-101.32926,32.369667],[-101.310835,32.310617],[-101.34382,32.303322]]]}},{"type":"Feature","properties":{"PRECINCT":"24","VTD":"0024"},"geometry":{"type":"Polygon","coordinates":[[[-101.460847,32.231777],[-101.460259,32.229869],[-101.458092,32.230357],[-101.457721,32.229161],[-101.454917,32.229785],[-101.454411,32.228139],[-101.453557,32.228099],[-101.453385,32.227129],[-101.452936,32.227216],[-101.452318,32.226536],[-101.450936,32.22718],[-101.450078,32.226442],[-101.449789,32.22669],[-101.447235,32.224597],[-101.447753,32.224105],[-101.448919,32.223693],[-101.449446,32.22469],[-101.450254,32.225399],[-101.451374,32.224449],[-101.455646,32.224493],[-101.455601,32.223636],[-101.456055,32.223176],[-101.456819,32.223187],[-101.457408,32.223669],[-101.457138,32.224093],[-101.457416,32.224498],[-101.458232,32.224497],[-101.46025,32.225437],[-101.461464,32.225278],[-101.461373,32.224989],[-101.461954,32.224829],[-101.462346,32.224219],[-101.463159,32.224455],[-101.46342,32.224712],[-101.463376,32.225753],[-101.462982,32.226193],[-101.461965,32.226419],[-101.462019,32.226594],[-101.464304,32.227892],[-101.464978,32.229836],[-101.465479,32.229196],[-101.465204,32.22793],[-101.465521,32.227641],[-101.465587,32.226786],[-101.465884,32.226432],[-101.466554,32.226298],[-101.467365,32.226962],[-101.46813,32.226612],[-101.469037,32.226641],[-101.470028,32.226239],[-101.470533,32.229353],[-101.465727,32.230576],[-101.463475,32.231596],[-101.463094,32.23062],[-101.460847,32.231777]]]}},{"type":"Feature","properties":{"PRECINCT":"104","VTD":"0104"},"geometry":{"type":"Polygon","coordinates":[[[-101.681206,32.525228],[-101.67768,32.514522],[-101.661021,32.517926],[-101.663377,32.525167],[-101.570583,32.524959],[-101.556019,32.479646],[-101.552153,32.465077],[-101.520123,32.360487],[-101.5196,32.358469],[-101.519874,32.358424],[-101.506119,32.313006],[-101.571701,32.297483],[-101.572159,32.298096],[-101.576256,32.311447],[-101.581021,32.310342],[-101.581292,32.310387],[-101.581294,32.310753],[-101.584555,32.310069],[-101.584825,32.310091],[-101.585796,32.312407],[-101.590082,32.31161],[-101.590756,32.311749],[-101.591537,32.313009],[-101.590864,32.316654],[-101.595385,32.32962],[-101.599277,32.328912],[-101.60154,32.336225],[-101.629327,32.329901],[-101.629456,32.329769],[-101.628786,32.329078],[-101.629486,32.327056],[-101.629036,32.323413],[-101.629323,32.322631],[-101.630654,32.321627],[-101.631153,32.320275],[-101.630429,32.317802],[-101.63054,32.317082],[-101.631874,32.315593],[-101.632367,32.313819],[-101.634282,32.312963],[-101.635228,32.311303],[-101.634672,32.310308],[-101.633146,32.30952],[-101.633586,32.308863],[-101.635411,32.308528],[-101.636252,32.308089],[-101.639178,32.305507],[-101.641113,32.305096],[-101.643326,32.305393],[-101.644044,32.305058],[-101.644284,32.304575],[-101.643223,32.302646],[-101.643638,32.301613],[-101.644661,32.300948],[-101.647487,32.310398],[-101.665863,32.306113],[-101.672758,32.304759],[-101.691853,32.300048],[-101.688703,32.500111],[-101.68874,32.525222],[-101.681206,32.525228]]]}},{"type":"Feature","properties":{"PRECINCT":"37","VTD":"0037"},"geometry":{"type":"Polygon","coordinates":[[[-101.520928,32.233761],[-101.521206,32.232886],[-101.522721,32.232735],[-101.525056,32.23169],[-101.527892,32.228596],[-101.529325,32.21886],[-101.528769,32.216875],[-101.528805,32.216143],[-101.524787,32.21696],[-101.520957,32.21869],[-101.513497,32.22045],[-101.508907,32.206443],[-101.516819,32.204661],[-101.514666,32.197653],[-101.52294,32.195785],[-101.522292,32.193365],[-101.523814,32.193288],[-101.530372,32.197297],[-101.529937,32.212891],[-101.531162,32.21647],[-101.536066,32.215363],[-101.535385,32.220214],[-101.532742,32.224404],[-101.533289,32.226523],[-101.533881,32.227081],[-101.53403,32.227813],[-101.530892,32.231181],[-101.525183,32.232404],[-101.524958,32.232815],[-101.524453,32.23293],[-101.524526,32.233175],[-101.522649,32.233341],[-101.520928,32.233761]]]}},{"type":"Feature","properties":{"PRECINCT":"26","VTD":"0026"},"geometry":{"type":"Polygon","coordinates":[[[-101.441237,32.24653],[-101.443906,32.245876],[-101.445767,32.2461],[-101.448351,32.245049],[-101.44969,32.244771],[-101.449517,32.244222],[-101.451487,32.243772],[-101.451714,32.243946],[-101.451879,32.2447],[-101.449805,32.245168],[-101.451092,32.249361],[-101.440013,32.251857],[-101.439643,32.250439],[-101.44107,32.248542],[-101.441983,32.248013],[-101.441237,32.24653]]]}},{"type":"Feature","properties":{"PRECINCT":"207C","VTD":"207C"},"geometry":{"type":"Polygon","coordinates":[[[-101.300401,32.305706],[-101.298111,32.2984],[-101.293866,32.299349],[-101.293567,32.298198],[-101.297819,32.297351],[-101.296153,32.292166],[-101.302186,32.290792],[-101.301883,32.289741],[-101.304386,32.28914],[-101.304583,32.289842],[-101.309172,32.288893],[-101.309792,32.289105],[-101.316102,32.287647],[-101.316552,32.289116],[-101.316116,32.289217],[-101.316506,32.29056],[-101.329007,32.287661],[-101.329952,32.29043],[-101.314308,32.293726],[-101.316848,32.301724],[-101.300401,32.305706]]]}},{"type":"Feature","properties":{"PRECINCT":"208C","VTD":"208C"},"geometry":{"type":"Polygon","coordinates":[[[-101.368774,32.115414],[-101.36881,32.113512],[-101.361781,32.113307],[-101.362027,32.106074],[-101.370653,32.106349],[-101.370355,32.111485],[-101.372268,32.111535],[-101.372199,32.115358],[-101.368774,32.115414]]]}},{"type":"Feature","properties":{"PRECINCT":"46","VTD":"0046"},"geometry":{"type":"Polygon","coordinates":[[[-101.453491,32.257128],[-101.449805,32.245168],[-101.454073,32.2442],[-101.453613,32.24263],[-101.454495,32.242434],[-101.456066,32.247179],[-101.458082,32.24776],[-101.462277,32.246782],[-101.463018,32.249435],[-101.460616,32.249924],[-101.460223,32.250418],[-101.46102,32.252228],[-101.461513,32.252468],[-101.458105,32.253425],[-101.458331,32.254218],[-101.459061,32.25408],[-101.459242,32.254359],[-101.459193,32.254531],[-101.458317,32.254731],[-101.458752,32.256234],[-101.455915,32.256552],[-101.453491,32.257128]]]}},{"type":"Feature","properties":{"PRECINCT":"408","VTD":"0408"},"geometry":{"type":"Polygon","coordinates":[[[-101.248843,32.52398],[-101.174571,32.524112],[-101.174697,32.493291],[-101.216842,32.479264],[-101.219546,32.478149],[-101.31035,32.421706],[-101.337922,32.407102],[-101.382664,32.373638],[-101.40996,32.346257],[-101.420239,32.379543],[-101.421607,32.383361],[-101.424353,32.393206],[-101.42733,32.406354],[-101.431937,32.418657],[-101.415922,32.422083],[-101.420297,32.436566],[-101.402011,32.440401],[-101.369896,32.448051],[-101.362807,32.449919],[-101.362341,32.455412],[-101.362368,32.459071],[-101.328537,32.459153],[-101.328671,32.463884],[-101.328354,32.478575],[-101.328656,32.478991],[-101.328387,32.52432],[-101.248843,32.52398]]]}},{"type":"Feature","properties":{"PRECINCT":"205","VTD":"0205"},"geometry":{"type":"Polygon","coordinates":[[[-101.393171,32.247065],[-101.392415,32.247059],[-101.392169,32.247256],[-101.391755,32.246872],[-101.392253,32.245888],[-101.391969,32.245157],[-101.391303,32.245013],[-101.390954,32.245579],[-101.390436,32.245355],[-101.38991,32.245758],[-101.387193,32.243986],[-101.386681,32.243964],[-101.386007,32.244146],[-101.385872,32.244628],[-101.384767,32.245978],[-101.384686,32.24671],[-101.383931,32.246893],[-101.383204,32.246778],[-101.383257,32.247947],[-101.382583,32.248085],[-101.379135,32.245655],[-101.377331,32.24483],[-101.376873,32.244166],[-101.376874,32.242928],[-101.375848,32.24183],[-101.375849,32.241098],[-101.377362,32.237022],[-101.378683,32.235442],[-101.378737,32.234847],[-101.378468,32.234412],[-101.377708,32.234482],[-101.376294,32.235176],[-101.374798,32.235562],[-101.372652,32.235582],[-101.370021,32.234547],[-101.369562,32.232967],[-101.367727,32.229692],[-101.367296,32.228411],[-101.363952,32.223351],[-101.364031,32.220602],[-101.366208,32.21277],[-101.367657,32.208492],[-101.348935,32.146186],[-101.331366,32.149921],[-101.393786,32.12455],[-101.421379,32.113093],[-101.435296,32.131211],[-101.472185,32.173088],[-101.472852,32.174588],[-101.473214,32.177076],[-101.476106,32.204304],[-101.475973,32.205779],[-101.475012,32.20912],[-101.474725,32.209039],[-101.475644,32.205917],[-101.475624,32.202604],[-101.472742,32.203242],[-101.471702,32.199676],[-101.465819,32.201012],[-101.463971,32.204475],[-101.46428,32.204959],[-101.463806,32.205775],[-101.464428,32.206902],[-101.465408,32.207869],[-101.466171,32.207267],[-101.4669,32.207817],[-101.466065,32.208478],[-101.471699,32.213663],[-101.473789,32.213355],[-101.470232,32.221123],[-101.469797,32.223649],[-101.470028,32.226239],[-101.469037,32.226641],[-101.46813,32.226612],[-101.467365,32.226962],[-101.466554,32.226298],[-101.465884,32.226432],[-101.465587,32.226786],[-101.465521,32.227641],[-101.465204,32.22793],[-101.465479,32.229196],[-101.464978,32.229836],[-101.464304,32.227892],[-101.462019,32.226594],[-101.461965,32.226419],[-101.462982,32.226193],[-101.463376,32.225753],[-101.46342,32.224712],[-101.463159,32.224455],[-101.462346,32.224219],[-101.461954,32.224829],[-101.461373,32.224989],[-101.461464,32.225278],[-101.46025,32.225437],[-101.458232,32.224497],[-101.457416,32.224498],[-101.457138,32.224093],[-101.457408,32.223669],[-101.456819,32.223187],[-101.456055,32.223176],[-101.455601,32.223636],[-101.455646,32.224493],[-101.451374,32.224449],[-101.450254,32.225399],[-101.449446,32.22469],[-101.448919,32.223693],[-101.447753,32.224105],[-101.447235,32.224597],[-101.449789,32.22669],[-101.450078,32.226442],[-101.450936,32.22718],[-101.452318,32.226536],[-101.452936,32.227216],[-101.453385,32.227129],[-101.453557,32.228099],[-101.454411,32.228139],[-101.454917,32.229785],[-101.457721,32.229161],[-101.458092,32.230357],[-101.460259,32.229869],[-101.460847,32.231777],[-101.460477,32.232315],[-101.450749,32.234478],[-101.450259,32.232886],[-101.446428,32.233738],[-101.446212,32.233614],[-101.445248,32.230359],[-101.443509,32.230538],[-101.440372,32.230069],[-101.438326,32.230342],[-101.438201,32.229368],[-101.435038,32.22931],[-101.435392,32.231011],[-101.436954,32.231009],[-101.437331,32.235369],[-101.437959,32.237316],[-101.441046,32.236631],[-101.440647,32.237707],[-101.441104,32.237614],[-101.441205,32.237952],[-101.440675,32.238066],[-101.439789,32.239938],[-101.440014,32.240314],[-101.439466,32.240735],[-101.439201,32.242024],[-101.438374,32.242613],[-101.437694,32.242686],[-101.437852,32.243951],[-101.439109,32.24514],[-101.438254,32.247127],[-101.436922,32.247572],[-101.434818,32.248948],[-101.433627,32.249948],[-101.433782,32.250455],[-101.429077,32.251532],[-101.429899,32.254105],[-101.396886,32.261418],[-101.394875,32.254905],[-101.394341,32.25406],[-101.39434,32.249505],[-101.394626,32.248632],[-101.393947,32.24806],[-101.393883,32.247461],[-101.393171,32.247065]]]}},{"type":"Feature","properties":{"PRECINCT":"103","VTD":"0103"},"geometry":{"type":"Polygon","coordinates":[[[-101.60154,32.336225],[-101.599277,32.328912],[-101.595385,32.32962],[-101.590864,32.316654],[-101.591537,32.313009],[-101.590756,32.311749],[-101.590082,32.31161],[-101.585796,32.312407],[-101.584825,32.310091],[-101.584555,32.310069],[-101.581294,32.310753],[-101.581292,32.310387],[-101.581021,32.310342],[-101.576256,32.311447],[-101.572159,32.298096],[-101.571701,32.297483],[-101.506119,32.313006],[-101.497293,32.284135],[-101.480554,32.287948],[-101.476586,32.274637],[-101.48153,32.273534],[-101.479568,32.267137],[-101.486175,32.265689],[-101.486529,32.266857],[-101.491694,32.265727],[-101.495847,32.279364],[-101.497075,32.279086],[-101.497438,32.280294],[-101.508343,32.277895],[-101.503575,32.262573],[-101.505332,32.262201],[-101.505168,32.261533],[-101.507945,32.26192],[-101.506705,32.257672],[-101.501188,32.258907],[-101.500846,32.25779],[-101.498454,32.258328],[-101.497742,32.256104],[-101.495472,32.256595],[-101.494833,32.254544],[-101.494364,32.2544],[-101.492702,32.254777],[-101.49222,32.253976],[-101.494301,32.253503],[-101.494129,32.252948],[-101.492327,32.253352],[-101.491481,32.250627],[-101.498127,32.251561],[-101.497561,32.249646],[-101.502172,32.249238],[-101.501316,32.246143],[-101.503188,32.245988],[-101.502977,32.245299],[-101.507408,32.240597],[-101.510377,32.239966],[-101.510946,32.241886],[-101.515964,32.240812],[-101.511956,32.237129],[-101.524553,32.234299],[-101.52478,32.233996],[-101.524526,32.233175],[-101.526715,32.233227],[-101.529615,32.232014],[-101.566966,32.223638],[-101.572689,32.222057],[-101.596731,32.210122],[-101.605807,32.200995],[-101.607945,32.199526],[-101.610214,32.198725],[-101.625299,32.195267],[-101.627808,32.194386],[-101.630034,32.193288],[-101.632425,32.191598],[-101.640736,32.184162],[-101.644377,32.181911],[-101.669378,32.173253],[-101.693976,32.164299],[-101.692441,32.250119],[-101.691853,32.300048],[-101.672758,32.304759],[-101.665863,32.306113],[-101.647487,32.310398],[-101.644732,32.300921],[-101.643638,32.301613],[-101.643223,32.302646],[-101.644284,32.304575],[-101.644044,32.305058],[-101.643326,32.305393],[-101.641113,32.305096],[-101.639178,32.305507],[-101.636252,32.308089],[-101.635411,32.308528],[-101.633586,32.308863],[-101.633146,32.30952],[-101.634672,32.310308],[-101.635228,32.311303],[-101.634282,32.312963],[-101.632367,32.313819],[-101.631874,32.315593],[-101.63054,32.317082],[-101.630429,32.317802],[-101.631153,32.320275],[-101.630654,32.321627],[-101.629323,32.322631],[-101.629036,32.323413],[-101.629486,32.327056],[-101.628786,32.329078],[-101.629456,32.329769],[-101.629327,32.329901],[-101.60154,32.336225]]]}},{"type":"Feature","properties":{"PRECINCT":"209","VTD":"0209"},"geometry":{"type":"Polygon","coordinates":[[[-101.183382,32.117615],[-101.183997,32.087208],[-101.204292,32.087247],[-101.204815,32.088889],[-101.204816,32.089851],[-101.203903,32.093355],[-101.20393,32.094248],[-101.205195,32.097913],[-101.205761,32.098668],[-101.205142,32.099539],[-101.204039,32.099883],[-101.203366,32.100546],[-101.203503,32.101964],[-101.203047,32.102764],[-101.196642,32.111311],[-101.193682,32.112662],[-101.190776,32.114496],[-101.188832,32.114565],[-101.187109,32.114953],[-101.183382,32.117615]]]}},{"type":"Feature","properties":{"PRECINCT":"25","VTD":"0025"},"geometry":{"type":"Polygon","coordinates":[[[-101.438254,32.247127],[-101.439109,32.24514],[-101.437852,32.243951],[-101.437694,32.242686],[-101.438374,32.242613],[-101.439371,32.241741],[-101.439466,32.240735],[-101.440014,32.240314],[-101.439789,32.239938],[-101.440675,32.238066],[-101.441205,32.237952],[-101.441104,32.237614],[-101.440647,32.237707],[-101.441046,32.236631],[-101.437959,32.237316],[-101.437331,32.235369],[-101.436954,32.231009],[-101.435392,32.231011],[-101.435038,32.22931],[-101.438201,32.229368],[-101.438326,32.230342],[-101.440372,32.230069],[-101.443509,32.230538],[-101.445248,32.230359],[-101.446212,32.233614],[-101.446428,32.233738],[-101.450259,32.232886],[-101.450749,32.234478],[-101.460477,32.232315],[-101.460961,32.231579],[-101.463094,32.23062],[-101.463564,32.231828],[-101.456485,32.23614],[-101.452868,32.23999],[-101.454073,32.2442],[-101.451879,32.2447],[-101.451487,32.243772],[-101.449517,32.244222],[-101.44969,32.244771],[-101.448351,32.245049],[-101.445767,32.2461],[-101.443906,32.245876],[-101.441591,32.246361],[-101.441237,32.24653],[-101.441983,32.248013],[-101.44107,32.248542],[-101.439643,32.250439],[-101.440013,32.251857],[-101.429899,32.254105],[-101.429077,32.251532],[-101.433782,32.250455],[-101.433627,32.249948],[-101.434818,32.248948],[-101.436922,32.247572],[-101.438254,32.247127]]]}},{"type":"Feature","properties":{"PRECINCT":"11","VTD":"0011"},"geometry":{"type":"Polygon","coordinates":[[[-101.497438,32.280294],[-101.497075,32.279086],[-101.495847,32.279364],[-101.491694,32.265727],[-101.486529,32.266857],[-101.486175,32.265689],[-101.484951,32.265957],[-101.485242,32.265664],[-101.485036,32.264951],[-101.487976,32.264432],[-101.485511,32.264633],[-101.485848,32.26415],[-101.48372,32.257264],[-101.482985,32.255951],[-101.481886,32.256396],[-101.480129,32.253372],[-101.482314,32.252522],[-101.480185,32.248697],[-101.477981,32.249603],[-101.474802,32.244],[-101.475952,32.24371],[-101.4779,32.243614],[-101.47886,32.243088],[-101.481419,32.242434],[-101.498128,32.238692],[-101.498439,32.238399],[-101.497007,32.237481],[-101.495124,32.235072],[-101.493746,32.234399],[-101.492412,32.234232],[-101.497845,32.2331],[-101.499264,32.23303],[-101.502788,32.230637],[-101.505314,32.229944],[-101.506682,32.229761],[-101.50721,32.231325],[-101.507451,32.23097],[-101.506706,32.229245],[-101.509065,32.228838],[-101.511188,32.230311],[-101.512267,32.230221],[-101.512806,32.231589],[-101.516888,32.230998],[-101.517966,32.234451],[-101.522649,32.233341],[-101.524526,32.233175],[-101.52478,32.233996],[-101.524553,32.234299],[-101.511956,32.237129],[-101.515964,32.240812],[-101.510946,32.241886],[-101.510377,32.239966],[-101.507408,32.240597],[-101.502977,32.245299],[-101.503188,32.245988],[-101.501316,32.246143],[-101.502172,32.249238],[-101.497561,32.249646],[-101.498127,32.251561],[-101.491481,32.250627],[-101.492327,32.253352],[-101.494129,32.252948],[-101.494301,32.253503],[-101.49222,32.253976],[-101.492702,32.254777],[-101.494364,32.2544],[-101.494833,32.254544],[-101.495472,32.256595],[-101.497742,32.256104],[-101.498454,32.258328],[-101.500846,32.25779],[-101.501188,32.258907],[-101.506705,32.257672],[-101.507945,32.26192],[-101.505168,32.261533],[-101.505332,32.262201],[-101.503575,32.262573],[-101.508343,32.277895],[-101.497438,32.280294]]]}}]}