{"type":"FeatureCollection","features":[{"type":"Feature","properties":{"PRECINCT":"harris:123","COUNTY":"Harris"},"geometry":{"type":"Polygon","coordinates":[[[-95.38059,29.73717],[-95.38447,29.73225],[-95.3875,29.73219],[-95.38911,29.73187],[-95.39469,29.73144],[-95.39469,29.73527],[-95.39551,29.73529],[-95.39569,29.73697],[-95.39748,29.73695],[-95.3975,29.7378],[-95.38113,29.73809],[-95.3814,29.73766],[-95.38059,29.73717]]]}},{"type":"Feature","properties":{"PRECINCT":"harris:134","COUNTY":"Harris"},"geometry":{"type":"Polygon","coordinates":[[[-95.28888,29.66354],[-95.28875,29.65753],[-95.28577,29.6576],[-95.28557,29.65738],[-95.28327,29.65776],[-95.26844,29.65803],[-95.266,29.65715],[-95.26451,29.65608],[-95.26693,29.65387],[-95.2672,29.65324],[-95.26688,29.63676],[-95.26557,29.63596],[-95.26463,29.63595],[-95.26461,29.63247],[-95.26682,29.63243],[-95.26686,29.6331],[-95.26913,29.63454],[-95.28569,29.63427],[-95.28534,29.62078],[-95.30437,29.62085],[-95.31131,29.64403],[-95.31103,29.64416],[-95.31264,29.64912],[-95.31283,29.64907],[-95.31465,29.655],[-95.31263,29.65534],[-95.31135,29.6572],[-95.30877,29.65793],[-95.30718,29.66097],[-95.30427,29.66355],[-95.30314,29.66298],[-95.30225,29.66174],[-95.30246,29.66163],[-95.29723,29.65911],[-95.28888,29.66354]]]}},{"type":"Feature","properties":{"PRECINCT":"harris:136","COUNTY":"Harris"},"geometry":{"type":"Polygon","coordinates":[[[-95.37296,29.71982],[-95.36865,29.71721],[-95.36715,29.7191],[-95.36484,29.71771],[-95.35971,29.7162],[-95.36043,29.71448],[-95.35587,29.7114],[-95.35655,29.7097],[-95.35754,29.71045],[-95.35807,29.71053],[-95.35993,29.71001],[-95.36224,29.71023],[-95.36396,29.71013],[-95.36724,29.70977],[-95.3694,29.70926],[-95.3699,29.7095],[-95.37037,29.71016],[-95.37042,29.71226],[-95.37136,29.71353],[-95.37281,29.71394],[-95.37469,29.71345],[-95.37534,29.71425],[-95.37637,29.71486],[-95.37675,29.7155],[-95.37683,29.7164],[-95.37546,29.71569],[-95.3749,29.71697],[-95.3735,29.71811],[-95.37296,29.71982]]]}},{"type":"Feature","properties":{"PRECINCT":"harris:156","COUNTY":"Harris"},"geometry":{"type":"Polygon","coordinates":[[[-95.33506,29.68758],[-95.34094,29.68571],[-95.34113,29.68642],[-95.34104,29.68712],[-95.33662,29.69784],[-95.34567,29.70087],[-95.34349,29.7062],[-95.33583,29.70919],[-95.33153,29.71016],[-95.32668,29.69556],[-95.32751,29.69502],[-95.3268,29.69479],[-95.32594,29.69186],[-95.33506,29.68758]]]}},{"type":"Feature","properties":{"PRECINCT":"harris:16","COUNTY":"Harris"},"geometry":{"type":"Polygon","coordinates":[[[-95.36785,29.76316],[-95.35423,29.75498],[-95.36268,29.74487],[-95.36519,29.74588],[-95.37273,29.75035],[-95.37376,29.75126],[-95.37436,29.75237],[-95.3746,29.75761],[-95.37307,29.76139],[-95.37203,29.76235],[-95.36935,29.76361],[-95.36785,29.76316]]]}},{"type":"Feature","properties":{"PRECINCT":"harris:19","COUNTY":"Harris"},"geometry":{"type":"Polygon","coordinates":[[[-95.35082,29.73813],[-95.35092,29.73796],[-95.35922,29.74327],[-95.36268,29.74487],[-95.35423,29.75498],[-95.3514,29.75325],[-95.35201,29.75248],[-95.35115,29.75196],[-95.35173,29.75121],[-95.35089,29.75069],[-95.35148,29.74994],[-95.34977,29.7489],[-95.35035,29.74817],[-95.3495,29.74765],[-95.3501,29.74691],[-95.34923,29.74639],[-95.34982,29.74565],[-95.34811,29.74462],[-95.34955,29.74281],[-95.34847,29.74248],[-95.35146,29.73867],[-95.35082,29.73813]]]}},{"type":"Feature","properties":{"PRECINCT":"harris:193","COUNTY":"Harris"},"geometry":{"type":"Polygon","coordinates":[[[-95.35968,29.72849],[-95.36268,29.72472],[-95.36435,29.72571],[-95.36583,29.72385],[-95.37097,29.72694],[-95.36799,29.7307],[-95.36884,29.73122],[-95.36738,29.73306],[-95.35968,29.72849]]]}},{"type":"Feature","properties":{"PRECINCT":"harris:194","COUNTY":"Harris"},"geometry":{"type":"Polygon","coordinates":[[[-95.38008,29.71897],[-95.39026,29.72496],[-95.3845,29.73222],[-95.37703,29.72779],[-95.38008,29.71897]]]}},{"type":"Feature","properties":{"PRECINCT":"harris:198","COUNTY":"Harris"},"geometry":{"type":"Polygon","coordinates":[[[-95.35685,29.73528],[-95.35701,29.7349],[-95.35739,29.73502],[-95.35749,29.73469],[-95.35714,29.73458],[-95.35768,29.73321],[-95.3563,29.73278],[-95.35968,29.72849],[-95.36738,29.73306],[-95.36447,29.73684],[-95.36527,29.73732],[-95.36378,29.73919],[-95.35774,29.73557],[-95.35685,29.73528]]]}},{"type":"Feature","properties":{"PRECINCT":"harris:2","COUNTY":"Harris"},"geometry":{"type":"Polygon","coordinates":[[[-95.37234,29.76877],[-95.37232,29.76727],[-95.37391,29.76745],[-95.3739,29.76376],[-95.3786,29.76359],[-95.38167,29.76268],[-95.38228,29.7636],[-95.38299,29.76393],[-95.3839,29.76323],[-95.38451,29.76195],[-95.38531,29.76165],[-95.38793,29.76157],[-95.39132,29.76257],[-95.39132,29.76781],[-95.39037,29.76968],[-95.38274,29.76909],[-95.38275,29.76992],[-95.37234,29.76877]]]}},{"type":"Feature","properties":{"PRECINCT":"harris:20","COUNTY":"Harris"},"geometry":{"type":"Polygon","coordinates":[[[-95.36268,29.74487],[-95.36761,29.73872],[-95.37039,29.7404],[-95.37434,29.73542],[-95.37624,29.73011],[-95.38298,29.73413],[-95.37095,29.74932],[-95.36519,29.74588],[-95.36268,29.74487]]]}},{"type":"Feature","properties":{"PRECINCT":"harris:21","COUNTY":"Harris"},"geometry":{"type":"Polygon","coordinates":[[[-95.36799,29.7307],[-95.37097,29.72694],[-95.37624,29.73011],[-95.37434,29.73542],[-95.37039,29.7404],[-95.36447,29.73684],[-95.36884,29.73122],[-95.36799,29.7307]]]}},{"type":"Feature","properties":{"PRECINCT":"harris:210","COUNTY":"Harris"},"geometry":{"type":"Polygon","coordinates":[[[-95.36879,29.72008],[-95.36715,29.7191],[-95.36865,29.71721],[-95.37296,29.71982],[-95.3735,29.71811],[-95.3749,29.71697],[-95.37546,29.71569],[-95.37683,29.7164],[-95.37651,29.71503],[-95.37534,29.71425],[-95.37469,29.71345],[-95.37874,29.71194],[-95.3794,29.71211],[-95.38006,29.71268],[-95.38209,29.7131],[-95.37703,29.72779],[-95.3845,29.73222],[-95.38298,29.73413],[-95.36583,29.72385],[-95.36879,29.72008]]]}},{"type":"Feature","properties":{"PRECINCT":"harris:228","COUNTY":"Harris"},"geometry":{"type":"Polygon","coordinates":[[[-95.33493,29.71327],[-95.33388,29.71329],[-95.33292,29.71437],[-95.33153,29.71016],[-95.33583,29.70919],[-95.34349,29.7062],[-95.34567,29.70087],[-95.3524,29.70293],[-95.35942,29.70237],[-95.35655,29.7097],[-95.35458,29.70934],[-95.35301,29.70945],[-95.35002,29.71043],[-95.34693,29.71114],[-95.34515,29.71234],[-95.34446,29.71254],[-95.34206,29.71209],[-95.34068,29.71141],[-95.3401,29.71133],[-95.33934,29.71227],[-95.33913,29.7139],[-95.33872,29.71465],[-95.3382,29.7149],[-95.33493,29.71327]]]}},{"type":"Feature","properties":{"PRECINCT":"harris:235","COUNTY":"Harris"},"geometry":{"type":"Polygon","coordinates":[[[-95.33662,29.69784],[-95.33965,29.69059],[-95.34565,29.69203],[-95.35176,29.69392],[-95.34855,29.70177],[-95.33662,29.69784]]]}},{"type":"Feature","properties":{"PRECINCT":"harris:236","COUNTY":"Harris"},"geometry":{"type":"Polygon","coordinates":[[[-95.33264,29.68867],[-95.33473,29.68308],[-95.33579,29.68339],[-95.3396,29.68222],[-95.33858,29.68052],[-95.33683,29.67894],[-95.33661,29.67845],[-95.33644,29.67542],[-95.33898,29.67556],[-95.3503,29.67899],[-95.35178,29.6794],[-95.35242,29.67933],[-95.35596,29.68036],[-95.35596,29.68092],[-95.35354,29.68149],[-95.3492,29.68325],[-95.33586,29.68727],[-95.33264,29.68867]]]}},{"type":"Feature","properties":{"PRECINCT":"harris:237","COUNTY":"Harris"},"geometry":{"type":"Polygon","coordinates":[[[-95.33898,29.67556],[-95.33644,29.67542],[-95.33641,29.67387],[-95.33696,29.67188],[-95.32859,29.67206],[-95.32873,29.66857],[-95.33278,29.66884],[-95.33274,29.66643],[-95.33719,29.66634],[-95.33723,29.6676],[-95.34097,29.66849],[-95.34132,29.66755],[-95.34756,29.66937],[-95.34849,29.66689],[-95.34893,29.66687],[-95.34751,29.67065],[-95.34709,29.67056],[-95.34602,29.67274],[-95.34557,29.67257],[-95.34499,29.67447],[-95.34546,29.67461],[-95.34539,29.67514],[-95.34467,29.67728],[-95.33898,29.67556]]]}},{"type":"Feature","properties":{"PRECINCT":"harris:238","COUNTY":"Harris"},"geometry":{"type":"Polygon","coordinates":[[[-95.33333,29.68529],[-95.33198,29.68523],[-95.3289,29.68614],[-95.32885,29.68386],[-95.32917,29.68351],[-95.32882,29.68261],[-95.32859,29.67206],[-95.33696,29.67188],[-95.33641,29.67387],[-95.33661,29.67845],[-95.33713,29.67935],[-95.33911,29.68116],[-95.3396,29.68222],[-95.33579,29.68339],[-95.33473,29.68308],[-95.33264,29.68867],[-95.33211,29.6889],[-95.33159,29.68789],[-95.3325,29.68746],[-95.33333,29.68529]]]}},{"type":"Feature","properties":{"PRECINCT":"harris:239","COUNTY":"Harris"},"geometry":{"type":"Polygon","coordinates":[[[-95.32873,29.66857],[-95.32868,29.66648],[-95.32218,29.66661],[-95.31922,29.66604],[-95.3182,29.66611],[-95.31685,29.66156],[-95.32855,29.66136],[-95.32858,29.66257],[-95.33682,29.66241],[-95.33713,29.6639],[-95.33719,29.66634],[-95.33274,29.66643],[-95.33278,29.66884],[-95.32873,29.66857]]]}},{"type":"Feature","properties":{"PRECINCT":"harris:24","COUNTY":"Harris"},"geometry":{"type":"Polygon","coordinates":[[[-95.35922,29.74327],[-95.35172,29.73847],[-95.35478,29.73465],[-95.35774,29.73557],[-95.36378,29.73919],[-95.36527,29.73732],[-95.36761,29.73872],[-95.36268,29.74487],[-95.35922,29.74327]]]}},{"type":"Feature","properties":{"PRECINCT":"harris:240","COUNTY":"Harris"},"geometry":{"type":"Polygon","coordinates":[[[-95.35048,29.66699],[-95.34849,29.66689],[-95.34898,29.66461],[-95.34886,29.6572],[-95.34426,29.65663],[-95.3443,29.6585],[-95.33651,29.65862],[-95.33638,29.65184],[-95.34175,29.65141],[-95.34124,29.64755],[-95.33728,29.64801],[-95.33698,29.64512],[-95.33785,29.64434],[-95.33846,29.64434],[-95.3405,29.64525],[-95.34157,29.64615],[-95.34416,29.6465],[-95.34492,29.64767],[-95.34529,29.64786],[-95.34856,29.64706],[-95.35166,29.64811],[-95.35219,29.64905],[-95.35404,29.64938],[-95.3554,29.6491],[-95.35629,29.64822],[-95.35621,29.64984],[-95.35541,29.65349],[-95.35572,29.66909],[-95.35311,29.66777],[-95.35048,29.66699]]]}},{"type":"Feature","properties":{"PRECINCT":"harris:247","COUNTY":"Harris"},"geometry":{"type":"Polygon","coordinates":[[[-95.34987,29.72642],[-95.35256,29.71964],[-95.35528,29.72046],[-95.3565,29.7205],[-95.35574,29.72239],[-95.35888,29.72295],[-95.36141,29.72374],[-95.36268,29.72472],[-95.35813,29.73042],[-95.34989,29.72784],[-95.34987,29.72642]]]}},{"type":"Feature","properties":{"PRECINCT":"harris:25","COUNTY":"Harris"},"geometry":{"type":"Polygon","coordinates":[[[-95.34558,29.7344],[-95.34749,29.72937],[-95.34956,29.73],[-95.34999,29.72881],[-95.34989,29.72784],[-95.35813,29.73042],[-95.3563,29.73278],[-95.35768,29.73321],[-95.35714,29.73458],[-95.35749,29.73469],[-95.35739,29.73502],[-95.35701,29.7349],[-95.35685,29.73528],[-95.35478,29.73465],[-95.35172,29.73847],[-95.34558,29.7344]]]}},{"type":"Feature","properties":{"PRECINCT":"harris:257","COUNTY":"Harris"},"geometry":{"type":"Polygon","coordinates":[[[-95.25811,29.65213],[-95.25292,29.6522],[-95.25159,29.6525],[-95.24428,29.64166],[-95.22906,29.6277],[-95.24066,29.62749],[-95.24022,29.62411],[-95.24033,29.62222],[-95.24214,29.61936],[-95.24264,29.61878],[-95.24369,29.61817],[-95.2454,29.61789],[-95.24654,29.61914],[-95.24684,29.61984],[-95.24706,29.62359],[-95.26678,29.62283],[-95.26663,29.62783],[-95.26624,29.62908],[-95.26475,29.63192],[-95.2646,29.63423],[-95.26463,29.63595],[-95.26557,29.63596],[-95.26688,29.63676],[-95.2672,29.65324],[-95.26693,29.65387],[-95.26451,29.65608],[-95.26078,29.65305],[-95.25949,29.65242],[-95.25811,29.65213]]]}},{"type":"Feature","properties":{"PRECINCT":"harris:275","COUNTY":"Harris"},"geometry":{"type":"Polygon","coordinates":[[[-95.27127,29.67311],[-95.27107,29.66546],[-95.26705,29.66538],[-95.26693,29.66043],[-95.26757,29.66041],[-95.26763,29.65786],[-95.2696,29.65806],[-95.2767,29.6579],[-95.27691,29.66556],[-95.27501,29.66559],[-95.27514,29.67157],[-95.27418,29.67159],[-95.27392,29.67096],[-95.27194,29.67074],[-95.272,29.67273],[-95.27127,29.67311]]]}},{"type":"Feature","properties":{"PRECINCT":"harris:276","COUNTY":"Harris"},"geometry":{"type":"Polygon","coordinates":[[[-95.34756,29.66937],[-95.34132,29.66755],[-95.34097,29.66849],[-95.33723,29.6676],[-95.33713,29.6639],[-95.33662,29.66168],[-95.33651,29.65862],[-95.3443,29.6585],[-95.34426,29.65663],[-95.34886,29.6572],[-95.34898,29.66461],[-95.34849,29.66689],[-95.34756,29.66937]]]}},{"type":"Feature","properties":{"PRECINCT":"harris:285","COUNTY":"Harris"},"geometry":{"type":"Polygon","coordinates":[[[-95.29326,29.68048],[-95.28909,29.67441],[-95.28906,29.67318],[-95.29101,29.67369],[-95.29382,29.67373],[-95.30005,29.67276],[-95.30134,29.67223],[-95.30388,29.67024],[-95.30667,29.66868],[-95.3182,29.66611],[-95.32167,29.67775],[-95.30742,29.681],[-95.30638,29.67758],[-95.30391,29.678],[-95.30374,29.67703],[-95.30068,29.67769],[-95.30092,29.6785],[-95.29483,29.67977],[-95.29326,29.68048]]]}},{"type":"Feature","properties":{"PRECINCT":"harris:288","COUNTY":"Harris"},"geometry":{"type":"Polygon","coordinates":[[[-95.32855,29.66141],[-95.31685,29.66156],[-95.31489,29.65495],[-95.31659,29.65416],[-95.3173,29.65251],[-95.31953,29.65085],[-95.32013,29.65063],[-95.32496,29.65043],[-95.32707,29.64946],[-95.3288,29.64964],[-95.32969,29.64893],[-95.33171,29.64643],[-95.33381,29.64641],[-95.33481,29.64548],[-95.33653,29.64549],[-95.33698,29.64512],[-95.33728,29.64801],[-95.34124,29.64755],[-95.34175,29.65141],[-95.33638,29.65184],[-95.33657,29.66074],[-95.33682,29.66241],[-95.32858,29.66257],[-95.32855,29.66141]]]}},{"type":"Feature","properties":{"PRECINCT":"harris:30","COUNTY":"Harris"},"geometry":{"type":"Polygon","coordinates":[[[-95.38088,29.76193],[-95.37891,29.76233],[-95.37803,29.76205],[-95.3768,29.76104],[-95.37471,29.76142],[-95.3732,29.76116],[-95.37457,29.75777],[-95.37514,29.75777],[-95.37507,29.75455],[-95.37601,29.75455],[-95.37601,29.75403],[-95.37683,29.75312],[-95.37766,29.7536],[-95.37825,29.75285],[-95.37865,29.75309],[-95.37864,29.75212],[-95.38573,29.752],[-95.38573,29.76168],[-95.38472,29.76178],[-95.3839,29.76323],[-95.38282,29.76394],[-95.38228,29.7636],[-95.38133,29.76223],[-95.38088,29.76193]]]}},{"type":"Feature","properties":{"PRECINCT":"harris:308","COUNTY":"Harris"},"geometry":{"type":"Polygon","coordinates":[[[-95.27129,29.67914],[-95.26392,29.67149],[-95.25138,29.65255],[-95.25292,29.6522],[-95.257,29.65211],[-95.25949,29.65242],[-95.26118,29.65331],[-95.26532,29.65671],[-95.26763,29.65786],[-95.26757,29.66041],[-95.26693,29.66043],[-95.26705,29.66538],[-95.27107,29.66546],[-95.27127,29.67311],[-95.272,29.67273],[-95.27215,29.67617],[-95.27334,29.67754],[-95.27129,29.67914]]]}},{"type":"Feature","properties":{"PRECINCT":"harris:32","COUNTY":"Harris"},"geometry":{"type":"Polygon","coordinates":[[[-95.37451,29.75313],[-95.37376,29.75126],[-95.37273,29.75035],[-95.37095,29.74932],[-95.37261,29.74726],[-95.37348,29.74779],[-95.37495,29.74593],[-95.3758,29.74644],[-95.37638,29.74574],[-95.37722,29.74624],[-95.37767,29.74568],[-95.37683,29.74517],[-95.37934,29.74198],[-95.37762,29.74093],[-95.37998,29.73795],[-95.38198,29.73891],[-95.38171,29.74045],[-95.38174,29.74211],[-95.38049,29.7437],[-95.38169,29.74444],[-95.38157,29.74713],[-95.38328,29.74816],[-95.38179,29.75005],[-95.38092,29.74953],[-95.37982,29.75141],[-95.37918,29.75154],[-95.37838,29.75119],[-95.37802,29.75163],[-95.37875,29.75209],[-95.37865,29.75309],[-95.37825,29.75285],[-95.37766,29.7536],[-95.37683,29.75312],[-95.37601,29.75403],[-95.37601,29.75455],[-95.37507,29.75455],[-95.37514,29.75777],[-95.37457,29.75777],[-95.37451,29.75313]]]}},{"type":"Feature","properties":{"PRECINCT":"harris:33","COUNTY":"Harris"},"geometry":{"type":"Polygon","coordinates":[[[-95.39118,29.76256],[-95.38793,29.76157],[-95.38573,29.76168],[-95.38573,29.752],[-95.37893,29.75213],[-95.37802,29.75163],[-95.37838,29.75119],[-95.37918,29.75154],[-95.37982,29.75141],[-95.38092,29.74953],[-95.38179,29.75005],[-95.38328,29.74816],[-95.38377,29.74844],[-95.38414,29.74825],[-95.392,29.74811],[-95.39248,29.76251],[-95.39118,29.76256]]]}},{"type":"Feature","properties":{"PRECINCT":"harris:34","COUNTY":"Harris"},"geometry":{"type":"Polygon","coordinates":[[[-95.38377,29.74844],[-95.38157,29.74713],[-95.38169,29.74444],[-95.38049,29.7437],[-95.38174,29.74211],[-95.38171,29.74045],[-95.38198,29.73891],[-95.37998,29.73795],[-95.38059,29.73717],[-95.3814,29.73766],[-95.38113,29.73809],[-95.39117,29.73787],[-95.39125,29.74467],[-95.39183,29.74467],[-95.392,29.74811],[-95.38414,29.74825],[-95.38377,29.74844]]]}},{"type":"Feature","properties":{"PRECINCT":"harris:36","COUNTY":"Harris"},"geometry":{"type":"Polygon","coordinates":[[[-95.27729,29.67928],[-95.2767,29.6579],[-95.28327,29.65776],[-95.28557,29.65738],[-95.28577,29.6576],[-95.28875,29.65753],[-95.28908,29.67402],[-95.28842,29.67434],[-95.28817,29.6748],[-95.28852,29.67606],[-95.28849,29.67704],[-95.28812,29.67759],[-95.28731,29.67769],[-95.2861,29.67755],[-95.28505,29.67772],[-95.28344,29.67721],[-95.28296,29.67753],[-95.28264,29.67822],[-95.28148,29.6784],[-95.28047,29.67927],[-95.27989,29.67938],[-95.27848,29.67878],[-95.27729,29.67928]]]}},{"type":"Feature","properties":{"PRECINCT":"harris:37","COUNTY":"Harris"},"geometry":{"type":"Polygon","coordinates":[[[-95.39468,29.76293],[-95.39248,29.76251],[-95.39181,29.74633],[-95.39183,29.74467],[-95.39329,29.74466],[-95.39437,29.74415],[-95.39883,29.75149],[-95.39878,29.75188],[-95.39804,29.75266],[-95.39818,29.76112],[-95.39842,29.76186],[-95.39602,29.76281],[-95.39468,29.76293]]]}},{"type":"Feature","properties":{"PRECINCT":"harris:379","COUNTY":"Harris"},"geometry":{"type":"Polygon","coordinates":[[[-95.29041,29.67317],[-95.29073,29.67177],[-95.29122,29.67125],[-95.29185,29.6714],[-95.29218,29.67272],[-95.29285,29.67299],[-95.29524,29.67259],[-95.29687,29.67185],[-95.29715,29.67121],[-95.29703,29.66873],[-95.29796,29.66696],[-95.29921,29.66651],[-95.30427,29.66355],[-95.30718,29.66097],[-95.30877,29.65793],[-95.31135,29.6572],[-95.31263,29.65534],[-95.31489,29.65495],[-95.3182,29.66611],[-95.30667,29.66868],[-95.30388,29.67024],[-95.30134,29.67223],[-95.30005,29.67276],[-95.29382,29.67373],[-95.29101,29.67369],[-95.29013,29.67348],[-95.29041,29.67317]]]}},{"type":"Feature","properties":{"PRECINCT":"harris:389","COUNTY":"Harris"},"geometry":{"type":"Polygon","coordinates":[[[-95.34555,29.7345],[-95.33752,29.72858],[-95.33292,29.71437],[-95.33341,29.71364],[-95.33412,29.71322],[-95.33493,29.71327],[-95.3382,29.7149],[-95.33872,29.71465],[-95.33903,29.71409],[-95.33975,29.71491],[-95.33999,29.71586],[-95.35256,29.71964],[-95.34987,29.72642],[-95.34999,29.72881],[-95.34956,29.73],[-95.34749,29.72937],[-95.34555,29.7345]]]}},{"type":"Feature","properties":{"PRECINCT":"harris:390","COUNTY":"Harris"},"geometry":{"type":"Polygon","coordinates":[[[-95.33903,29.71409],[-95.33957,29.71181],[-95.3401,29.71133],[-95.34068,29.71141],[-95.34206,29.71209],[-95.34446,29.71254],[-95.34515,29.71234],[-95.34693,29.71114],[-95.35002,29.71043],[-95.35301,29.70945],[-95.35458,29.70934],[-95.35655,29.7097],[-95.35256,29.71964],[-95.33999,29.71586],[-95.33975,29.71491],[-95.33903,29.71409]]]}},{"type":"Feature","properties":{"PRECINCT":"harris:418","COUNTY":"Harris"},"geometry":{"type":"Polygon","coordinates":[[[-95.21612,29.61599],[-95.21924,29.61357],[-95.22302,29.61218],[-95.22142,29.60985],[-95.21804,29.607],[-95.21848,29.60667],[-95.22099,29.60512],[-95.22538,29.60867],[-95.2262,29.60893],[-95.22795,29.60902],[-95.22828,29.60561],[-95.23126,29.60552],[-95.23257,29.6045],[-95.23332,29.60521],[-95.23364,29.60607],[-95.23429,29.60662],[-95.23524,29.60709],[-95.236,29.60694],[-95.23682,29.60869],[-95.23885,29.61048],[-95.23663,29.61249],[-95.24056,29.61585],[-95.24187,29.61602],[-95.2419,29.6168],[-95.24509,29.61674],[-95.2454,29.61789],[-95.24369,29.61817],[-95.24264,29.61878],[-95.24063,29.62155],[-95.24019,29.62335],[-95.24066,29.62749],[-95.22906,29.6277],[-95.21612,29.61599]]]}},{"type":"Feature","properties":{"PRECINCT":"harris:53","COUNTY":"Harris"},"geometry":{"type":"Polygon","coordinates":[[[-95.39179,29.76908],[-95.39727,29.76956],[-95.39769,29.79069],[-95.38783,29.79083],[-95.38768,29.78163],[-95.38711,29.78012],[-95.38706,29.77906],[-95.38754,29.77784],[-95.39048,29.77455],[-95.39073,29.77156],[-95.39179,29.76908]]]}},{"type":"Feature","properties":{"PRECINCT":"harris:536","COUNTY":"Harris"},"geometry":{"type":"Polygon","coordinates":[[[-95.2454,29.61789],[-95.24509,29.61674],[-95.2419,29.6168],[-95.24187,29.61602],[-95.24056,29.61585],[-95.23663,29.61249],[-95.24124,29.6083],[-95.24119,29.60785],[-95.2406,29.60719],[-95.24088,29.6069],[-95.2503,29.59833],[-95.2526,29.60025],[-95.254,29.60088],[-95.25391,29.60118],[-95.25465,29.60174],[-95.26648,29.60163],[-95.26678,29.62283],[-95.24706,29.62359],[-95.24684,29.61984],[-95.24654,29.61914],[-95.2454,29.61789]]]}},{"type":"Feature","properties":{"PRECINCT":"harris:538","COUNTY":"Harris"},"geometry":{"type":"Polygon","coordinates":[[[-95.35354,29.68149],[-95.35596,29.68092],[-95.35582,29.68384],[-95.35176,29.69392],[-95.34565,29.69203],[-95.33965,29.69059],[-95.34113,29.68679],[-95.34094,29.68571],[-95.3492,29.68325],[-95.35354,29.68149]]]}},{"type":"Feature","properties":{"PRECINCT":"harris:55","COUNTY":"Harris"},"geometry":{"type":"Polygon","coordinates":[[[-95.39755,29.78332],[-95.39727,29.76956],[-95.40612,29.7705],[-95.40946,29.77047],[-95.40965,29.77921],[-95.40916,29.78131],[-95.40966,29.78332],[-95.39755,29.78332]]]}},{"type":"Feature","properties":{"PRECINCT":"harris:607","COUNTY":"Harris"},"geometry":{"type":"Polygon","coordinates":[[[-95.31489,29.65495],[-95.30466,29.62086],[-95.33156,29.62094],[-95.33157,29.62822],[-95.33128,29.62945],[-95.33133,29.63759],[-95.33326,29.63753],[-95.33324,29.64228],[-95.33719,29.6423],[-95.33699,29.64303],[-95.33531,29.64312],[-95.33541,29.64422],[-95.3369,29.64388],[-95.33698,29.64512],[-95.33653,29.64549],[-95.33481,29.64548],[-95.33381,29.64641],[-95.33171,29.64643],[-95.32969,29.64893],[-95.3288,29.64964],[-95.32707,29.64946],[-95.32496,29.65043],[-95.32013,29.65063],[-95.31953,29.65085],[-95.3173,29.65251],[-95.31659,29.65416],[-95.31489,29.65495]]]}},{"type":"Feature","properties":{"PRECINCT":"harris:680","COUNTY":"Harris"},"geometry":{"type":"Polygon","coordinates":[[[-95.37226,29.76401],[-95.37226,29.76356],[-95.37042,29.76361],[-95.37024,29.76342],[-95.36935,29.76361],[-95.37203,29.76235],[-95.3732,29.76116],[-95.37471,29.76142],[-95.3768,29.76104],[-95.37839,29.76223],[-95.37968,29.76226],[-95.38088,29.76193],[-95.38167,29.76268],[-95.3786,29.76359],[-95.3739,29.76376],[-95.37391,29.76396],[-95.37248,29.76401],[-95.37226,29.76401]]]}},{"type":"Feature","properties":{"PRECINCT":"harris:681","COUNTY":"Harris"},"geometry":{"type":"Polygon","coordinates":[[[-95.37232,29.76727],[-95.37211,29.76401],[-95.37391,29.76396],[-95.37391,29.76745],[-95.37232,29.76727]]]}},{"type":"Feature","properties":{"PRECINCT":"harris:749","COUNTY":"Harris"},"geometry":{"type":"Polygon","coordinates":[[[-95.27521,29.67708],[-95.27519,29.67333],[-95.27333,29.67334],[-95.27298,29.67362],[-95.27298,29.67416],[-95.27205,29.67427],[-95.27198,29.67163],[-95.27514,29.67157],[-95.27501,29.66559],[-95.27691,29.66556],[-95.27723,29.67704],[-95.27521,29.67708]]]}},{"type":"Feature","properties":{"PRECINCT":"harris:791","COUNTY":"Harris"},"geometry":{"type":"Polygon","coordinates":[[[-95.27194,29.67074],[-95.27392,29.67096],[-95.27418,29.67159],[-95.27198,29.67163],[-95.27194,29.67074]]]}},{"type":"Feature","properties":{"PRECINCT":"harris:798","COUNTY":"Harris"},"geometry":{"type":"Polygon","coordinates":[[[-95.28906,29.67318],[-95.28888,29.66354],[-95.29723,29.65911],[-95.30246,29.66163],[-95.30225,29.66174],[-95.30314,29.66298],[-95.30412,29.66348],[-95.29921,29.66651],[-95.29796,29.66696],[-95.2971,29.66845],[-95.29715,29.67121],[-95.29687,29.67185],[-95.29651,29.67209],[-95.29524,29.67259],[-95.29285,29.67299],[-95.29218,29.67272],[-95.29185,29.6714],[-95.29122,29.67125],[-95.29073,29.67177],[-95.29041,29.67317],[-95.29013,29.67348],[-95.28906,29.67318]]]}},{"type":"Feature","properties":{"PRECINCT":"harris:801","COUNTY":"Harris"},"geometry":{"type":"Polygon","coordinates":[[[-95.27779,29.61979],[-95.27768,29.6117],[-95.28206,29.61167],[-95.28214,29.61972],[-95.28531,29.61966],[-95.28569,29.63427],[-95.27855,29.63439],[-95.27837,29.62233],[-95.27779,29.61979]]]}},{"type":"Feature","properties":{"PRECINCT":"harris:802","COUNTY":"Harris"},"geometry":{"type":"Polygon","coordinates":[[[-95.39551,29.73529],[-95.39469,29.73527],[-95.39465,29.73446],[-95.39787,29.73443],[-95.39793,29.73654],[-95.39748,29.73655],[-95.39748,29.73695],[-95.39569,29.73697],[-95.39551,29.73529]]]}},{"type":"Feature","properties":{"PRECINCT":"harris:808","COUNTY":"Harris"},"geometry":{"type":"Polygon","coordinates":[[[-95.37261,29.74726],[-95.37762,29.74093],[-95.37934,29.74198],[-95.37683,29.74517],[-95.37767,29.74568],[-95.37722,29.74624],[-95.37638,29.74574],[-95.3758,29.74644],[-95.37495,29.74593],[-95.37348,29.74779],[-95.37261,29.74726]]]}},{"type":"Feature","properties":{"PRECINCT":"harris:815","COUNTY":"Harris"},"geometry":{"type":"Polygon","coordinates":[[[-95.31123,29.64407],[-95.31283,29.64907],[-95.31264,29.64912],[-95.31103,29.64416],[-95.31123,29.64407]]]}},{"type":"Feature","properties":{"PRECINCT":"harris:820","COUNTY":"Harris"},"geometry":{"type":"Polygon","coordinates":[[[-95.30437,29.62085],[-95.30466,29.62086],[-95.31489,29.65495],[-95.31465,29.655],[-95.31432,29.65408],[-95.30437,29.62085]]]}},{"type":"Feature","properties":{"PRECINCT":"harris:822","COUNTY":"Harris"},"geometry":{"type":"Polygon","coordinates":[[[-95.32594,29.69186],[-95.32056,29.67393],[-95.3182,29.66611],[-95.31922,29.66604],[-95.32218,29.66661],[-95.32868,29.66648],[-95.32882,29.68261],[-95.32917,29.68351],[-95.32885,29.68386],[-95.3289,29.68614],[-95.33218,29.68519],[-95.33333,29.68529],[-95.3325,29.68746],[-95.33159,29.68789],[-95.33211,29.6889],[-95.32594,29.69186]]]}},{"type":"Feature","properties":{"PRECINCT":"harris:849","COUNTY":"Harris"},"geometry":{"type":"Polygon","coordinates":[[[-95.26683,29.63296],[-95.26682,29.63243],[-95.26461,29.63247],[-95.2651,29.63097],[-95.26624,29.62908],[-95.26671,29.62735],[-95.26658,29.61183],[-95.27768,29.6117],[-95.27779,29.61979],[-95.27837,29.62233],[-95.27855,29.63439],[-95.26913,29.63454],[-95.26683,29.63296]]]}},{"type":"Feature","properties":{"PRECINCT":"harris:85","COUNTY":"Harris"},"geometry":{"type":"Polygon","coordinates":[[[-95.35849,29.72288],[-95.35574,29.72239],[-95.3565,29.7205],[-95.35528,29.72046],[-95.35256,29.71964],[-95.35587,29.7114],[-95.36043,29.71448],[-95.35971,29.7162],[-95.36484,29.71771],[-95.36879,29.72008],[-95.36435,29.72571],[-95.36253,29.72463],[-95.36162,29.72382],[-95.35849,29.72288]]]}},{"type":"Feature","properties":{"PRECINCT":"harris:850","COUNTY":"Harris"},"geometry":{"type":"Polygon","coordinates":[[[-95.27129,29.67914],[-95.27334,29.67754],[-95.27215,29.67617],[-95.27205,29.67427],[-95.27298,29.67416],[-95.27298,29.67362],[-95.27333,29.67334],[-95.27519,29.67333],[-95.27521,29.67708],[-95.27723,29.67704],[-95.27729,29.67935],[-95.27644,29.6795],[-95.2754,29.67929],[-95.27388,29.67853],[-95.27349,29.67866],[-95.27341,29.68],[-95.27254,29.68041],[-95.27129,29.67914]]]}},{"type":"Feature","properties":{"PRECINCT":"harris:887","COUNTY":"Harris"},"geometry":{"type":"Polygon","coordinates":[[[-95.39133,29.76267],[-95.39228,29.76253],[-95.39223,29.76754],[-95.39182,29.76896],[-95.39092,29.76889],[-95.39132,29.76781],[-95.39133,29.76267]]]}},{"type":"Feature","properties":{"PRECINCT":"harris:921","COUNTY":"Harris"},"geometry":{"type":"Polygon","coordinates":[[[-95.30068,29.67769],[-95.30374,29.67703],[-95.30391,29.678],[-95.30092,29.6785],[-95.30068,29.67769]]]}}]}