{"type":"FeatureCollection","features":[{"type":"Feature","properties":{"PRECINCT":"1","VTD":"0001"},"geometry":{"type":"Polygon","coordinates":[[[-98.100367,27.261438],[-98.100323,27.25749],[-98.122918,27.257404],[-98.133662,27.240513],[-98.130186,27.240149],[-98.130584,27.236427],[-98.129509,27.236294],[-98.129968,27.232963],[-98.128861,27.232734],[-98.128906,27.232523],[-98.137999,27.233509],[-98.138126,27.232518],[-98.137006,27.2324],[-98.137124,27.231423],[-98.139913,27.231713],[-98.14023,27.229259],[-98.139882,27.22922],[-98.140251,27.22625],[-98.140506,27.226286],[-98.140571,27.225857],[-98.141123,27.219454],[-98.141945,27.219539],[-98.141788,27.222526],[-98.144755,27.222844],[-98.144313,27.226112],[-98.149349,27.226653],[-98.149263,27.227246],[-98.157,27.228082],[-98.157983,27.220724],[-98.162441,27.221206],[-98.162094,27.223773],[-98.15818,27.223247],[-98.158067,27.224104],[-98.161981,27.224526],[-98.161606,27.22841],[-98.165374,27.228634],[-98.16534,27.228967],[-98.188318,27.231428],[-98.190642,27.232078],[-98.191314,27.230504],[-98.193814,27.220799],[-98.198722,27.214044],[-98.200889,27.208252],[-98.201156,27.206845],[-98.202283,27.206409],[-98.202974,27.206494],[-98.202786,27.206029],[-98.202942,27.205004],[-98.203404,27.204685],[-98.202931,27.20382],[-98.202555,27.203573],[-98.202202,27.203503],[-98.201386,27.203916],[-98.201097,27.204768],[-98.199608,27.204819],[-98.199684,27.194493],[-98.202078,27.194469],[-98.202267,27.194243],[-98.201506,27.188427],[-98.203218,27.188252],[-98.205867,27.188345],[-98.210981,27.189551],[-98.21313,27.189803],[-98.21498,27.189803],[-98.217343,27.189452],[-98.220442,27.188381],[-98.250003,27.173851],[-98.253206,27.173198],[-98.264738,27.173131],[-98.26689,27.172704],[-98.266864,27.139123],[-98.280627,27.13895],[-98.280657,27.116317],[-98.292868,27.116147],[-98.29402,27.114797],[-98.296778,27.11466],[-98.301864,27.109992],[-98.301603,27.108899],[-98.302492,27.107603],[-98.3039,27.1037],[-98.303815,27.104686],[-98.302599,27.108235],[-98.302523,27.116224],[-98.340538,27.116036],[-98.340595,27.130183],[-98.358894,27.130201],[-98.3591,27.129834],[-98.35987,27.12956],[-98.367619,27.130778],[-98.369785,27.130651],[-98.370544,27.131199],[-98.371149,27.132073],[-98.373232,27.132279],[-98.374299,27.132981],[-98.374306,27.128478],[-98.407945,27.128181],[-98.413322,27.127658],[-98.414081,27.127293],[-98.415013,27.127951],[-98.416323,27.126987],[-98.417721,27.12494],[-98.434623,27.130019],[-98.434611,27.135528],[-98.434945,27.135642],[-98.435257,27.134195],[-98.437303,27.13325],[-98.438129,27.132261],[-98.440963,27.131888],[-98.451467,27.135177],[-98.451806,27.131365],[-98.452115,27.131413],[-98.45225,27.135468],[-98.452458,27.13563],[-98.467266,27.140087],[-98.467284,27.142006],[-98.49291,27.142062],[-98.492943,27.235012],[-98.496471,27.236913],[-98.502086,27.237929],[-98.504598,27.238035],[-98.506168,27.238729],[-98.509798,27.24375],[-98.510553,27.249149],[-98.510897,27.249997],[-98.512437,27.251196],[-98.514241,27.251505],[-98.519199,27.250153],[-98.520916,27.253032],[-98.521673,27.253824],[-98.522276,27.254089],[-98.523428,27.253996],[-98.526125,27.253083],[-98.527277,27.253],[-98.530048,27.253849],[-98.531082,27.254421],[-98.531575,27.254796],[-98.533064,27.25686],[-98.533612,27.258071],[-98.533661,27.260723],[-98.53411,27.261885],[-98.536646,27.265196],[-98.454524,27.264382],[-98.181042,27.26195],[-98.139073,27.261849],[-98.100367,27.261438]]]}},{"type":"Feature","properties":{"PRECINCT":"2","VTD":"0002"},"geometry":{"type":"Polygon","coordinates":[[[-97.986076,27.260494],[-97.985734,27.07438],[-97.987599,27.078676],[-97.989444,27.079212],[-98.030438,27.079156],[-98.029855,27.075772],[-98.027389,27.0674],[-98.027147,27.065611],[-98.036624,27.065328],[-98.036794,27.065573],[-98.058689,27.06559],[-98.063593,27.066983],[-98.064637,27.067047],[-98.067546,27.068456],[-98.071623,27.07193],[-98.072987,27.072699],[-98.075559,27.075077],[-98.08155,27.075529],[-98.082532,27.076349],[-98.083145,27.077806],[-98.083508,27.078093],[-98.086322,27.078866],[-98.096261,27.082258],[-98.10469,27.085673],[-98.106817,27.086314],[-98.11207,27.087322],[-98.112966,27.085418],[-98.113401,27.084959],[-98.11399,27.084982],[-98.116706,27.086013],[-98.118679,27.087572],[-98.119781,27.087961],[-98.119909,27.087021],[-98.119446,27.082871],[-98.121582,27.084058],[-98.122579,27.085255],[-98.126747,27.08889],[-98.128423,27.088115],[-98.129941,27.088485],[-98.130482,27.08842],[-98.131444,27.088017],[-98.132453,27.087209],[-98.132986,27.086099],[-98.132751,27.084598],[-98.133504,27.083666],[-98.133817,27.082417],[-98.135183,27.079694],[-98.136458,27.077988],[-98.144806,27.077684],[-98.150279,27.155827],[-98.150192,27.158471],[-98.147928,27.175042],[-98.148417,27.175239],[-98.145824,27.189833],[-98.143795,27.204605],[-98.141955,27.204405],[-98.14083,27.21089],[-98.142564,27.211102],[-98.14144,27.219488],[-98.141123,27.219454],[-98.140571,27.225857],[-98.140506,27.226286],[-98.140251,27.22625],[-98.140028,27.227958],[-98.139882,27.22922],[-98.14023,27.229259],[-98.139913,27.231713],[-98.137124,27.231423],[-98.137006,27.2324],[-98.138126,27.232518],[-98.137999,27.233509],[-98.128906,27.232523],[-98.128861,27.232734],[-98.129968,27.232963],[-98.129509,27.236294],[-98.130584,27.236427],[-98.130186,27.240149],[-98.133662,27.240513],[-98.122918,27.257404],[-98.100323,27.25749],[-98.100367,27.261438],[-98.009952,27.260498],[-98.000279,27.260676],[-97.986076,27.260494]]]}},{"type":"Feature","properties":{"PRECINCT":"3","VTD":"0003"},"geometry":{"type":"Polygon","coordinates":[[[-98.14144,27.219488],[-98.142564,27.211102],[-98.14083,27.21089],[-98.141955,27.204405],[-98.143795,27.204605],[-98.145824,27.189833],[-98.148241,27.176524],[-98.148417,27.175239],[-98.147928,27.175042],[-98.150249,27.157945],[-98.150279,27.155827],[-98.148734,27.133751],[-98.149184,27.133715],[-98.166662,27.137124],[-98.167018,27.154022],[-98.161691,27.191548],[-98.161917,27.191573],[-98.161882,27.19192],[-98.158941,27.213706],[-98.148407,27.212563],[-98.146967,27.223075],[-98.149804,27.223402],[-98.149349,27.226653],[-98.144313,27.226112],[-98.144755,27.222844],[-98.141788,27.222526],[-98.141945,27.219539],[-98.14144,27.219488]]]}},{"type":"Feature","properties":{"PRECINCT":"4","VTD":"0004"},"geometry":{"type":"Polygon","coordinates":[[[-98.158067,27.224104],[-98.15818,27.223247],[-98.162094,27.223773],[-98.162441,27.221206],[-98.157983,27.220724],[-98.157,27.228082],[-98.149263,27.227246],[-98.149804,27.223402],[-98.146967,27.223075],[-98.148407,27.212563],[-98.158941,27.213706],[-98.161882,27.19192],[-98.161917,27.191573],[-98.161691,27.191548],[-98.167018,27.154022],[-98.16548,27.040301],[-98.168679,27.040263],[-98.169734,27.039963],[-98.17141,27.039915],[-98.175633,27.039997],[-98.178623,27.040536],[-98.181614,27.040298],[-98.19108,27.040266],[-98.214089,27.01565],[-98.214864,27.016294],[-98.215171,27.016193],[-98.215343,27.016547],[-98.215611,27.01631],[-98.215851,27.016397],[-98.218343,27.018334],[-98.220916,27.019237],[-98.222686,27.018436],[-98.225476,27.018536],[-98.228143,27.01721],[-98.229305,27.016101],[-98.22998,27.015968],[-98.232513,27.014476],[-98.233228,27.014384],[-98.236028,27.010719],[-98.237229,27.010103],[-98.238839,27.007617],[-98.239843,27.006603],[-98.239801,27.019858],[-98.254404,27.020939],[-98.25449,27.018378],[-98.253976,27.017928],[-98.254039,27.016568],[-98.255712,27.016598],[-98.257032,27.015054],[-98.257581,27.014978],[-98.261107,27.015698],[-98.267365,27.015975],[-98.268319,27.014399],[-98.270268,27.015958],[-98.270269,27.016644],[-98.270932,27.017607],[-98.272227,27.018777],[-98.272631,27.018616],[-98.274485,27.01713],[-98.274822,27.015748],[-98.27601,27.014448],[-98.276812,27.011777],[-98.276642,27.010899],[-98.276701,27.000127],[-98.277749,26.996255],[-98.277681,26.995572],[-98.280107,26.997098],[-98.280696,26.997001],[-98.281077,26.996603],[-98.280989,26.982651],[-98.28398,26.982104],[-98.284214,26.981826],[-98.285748,26.982092],[-98.287217,26.981936],[-98.288019,26.982262],[-98.2885,26.982091],[-98.291869,26.982107],[-98.294555,26.981649],[-98.295037,26.982176],[-98.295231,26.984715],[-98.29715,26.984801],[-98.29774,26.985753],[-98.301403,26.988625],[-98.302114,26.989573],[-98.303923,26.990402],[-98.308085,26.993266],[-98.309149,26.994346],[-98.313914,26.996668],[-98.330298,27.009932],[-98.33093,27.009909],[-98.33257,27.008636],[-98.333053,27.008496],[-98.335132,27.009416],[-98.339573,27.010721],[-98.337871,26.979849],[-98.339764,26.980286],[-98.343373,26.978978],[-98.348235,26.977853],[-98.353302,26.977072],[-98.355786,26.976888],[-98.357322,26.977117],[-98.358855,26.976924],[-98.358782,26.975125],[-98.359189,26.974456],[-98.379282,26.973391],[-98.379261,26.971844],[-98.381091,26.972374],[-98.382213,26.972334],[-98.38297,26.972687],[-98.404173,26.962488],[-98.404656,26.961469],[-98.404498,26.960301],[-98.40386,26.959344],[-98.40338,26.957573],[-98.401974,26.954371],[-98.407513,26.958321],[-98.419695,26.964248],[-98.419091,27.000325],[-98.41838,27.021856],[-98.417883,27.055285],[-98.466542,27.054711],[-98.467266,27.140087],[-98.452458,27.13563],[-98.45225,27.135468],[-98.452115,27.131413],[-98.451806,27.131365],[-98.451467,27.135177],[-98.440963,27.131888],[-98.438129,27.132261],[-98.437303,27.13325],[-98.435257,27.134195],[-98.434945,27.135642],[-98.434611,27.135528],[-98.434623,27.130019],[-98.417721,27.12494],[-98.416323,27.126987],[-98.415013,27.127951],[-98.414081,27.127293],[-98.413322,27.127658],[-98.407945,27.128181],[-98.374306,27.128478],[-98.374299,27.132981],[-98.373232,27.132279],[-98.371149,27.132073],[-98.370544,27.131199],[-98.369785,27.130651],[-98.367619,27.130778],[-98.35987,27.12956],[-98.3591,27.129834],[-98.358894,27.130201],[-98.340595,27.130183],[-98.340538,27.116036],[-98.302523,27.116224],[-98.302599,27.108235],[-98.303815,27.104686],[-98.3039,27.1037],[-98.302492,27.107603],[-98.301603,27.108899],[-98.301864,27.109992],[-98.296778,27.11466],[-98.29402,27.114797],[-98.292868,27.116147],[-98.280657,27.116317],[-98.280627,27.13895],[-98.266864,27.139123],[-98.26689,27.172704],[-98.264738,27.173131],[-98.253206,27.173198],[-98.250003,27.173851],[-98.220442,27.188381],[-98.217343,27.189452],[-98.21498,27.189803],[-98.21313,27.189803],[-98.210981,27.189551],[-98.205867,27.188345],[-98.203218,27.188252],[-98.201506,27.188427],[-98.202267,27.194243],[-98.202078,27.194469],[-98.199684,27.194493],[-98.199608,27.204819],[-98.201097,27.204768],[-98.201386,27.203916],[-98.202202,27.203503],[-98.202555,27.203573],[-98.202931,27.20382],[-98.203404,27.204685],[-98.202942,27.205004],[-98.202786,27.206029],[-98.202974,27.206494],[-98.202283,27.206409],[-98.201156,27.206845],[-98.200889,27.208252],[-98.198722,27.214044],[-98.193814,27.220799],[-98.191314,27.230504],[-98.190642,27.232078],[-98.188318,27.231428],[-98.16534,27.228967],[-98.165374,27.228634],[-98.161606,27.22841],[-98.161981,27.224526],[-98.158067,27.224104]]]}},{"type":"Feature","properties":{"PRECINCT":"3S","VTD":"003S"},"geometry":{"type":"Polygon","coordinates":[[[-98.149848,27.133772],[-98.148734,27.133751],[-98.144806,27.077684],[-98.140201,27.077965],[-98.136702,27.077877],[-98.136346,27.07807],[-98.135183,27.079694],[-98.133817,27.082417],[-98.133504,27.083666],[-98.132751,27.084598],[-98.132993,27.085951],[-98.132668,27.086907],[-98.131444,27.088017],[-98.130482,27.08842],[-98.129941,27.088485],[-98.128423,27.088115],[-98.127172,27.088827],[-98.126462,27.08883],[-98.124403,27.086677],[-98.122579,27.085255],[-98.121582,27.084058],[-98.119446,27.082871],[-98.119909,27.087021],[-98.119781,27.087961],[-98.118679,27.087572],[-98.116706,27.086013],[-98.11399,27.084982],[-98.113401,27.084959],[-98.112966,27.085418],[-98.11207,27.087322],[-98.106817,27.086314],[-98.10469,27.085673],[-98.096261,27.082258],[-98.086322,27.078866],[-98.083508,27.078093],[-98.083145,27.077806],[-98.082532,27.076349],[-98.08155,27.075529],[-98.075559,27.075077],[-98.072987,27.072699],[-98.071623,27.07193],[-98.067667,27.068543],[-98.064637,27.067047],[-98.063593,27.066983],[-98.058689,27.06559],[-98.036794,27.065573],[-98.036624,27.065328],[-98.027147,27.065611],[-98.027389,27.0674],[-98.029855,27.075772],[-98.030519,27.079146],[-97.989594,27.079228],[-97.987599,27.078676],[-97.987422,27.078332],[-97.985734,27.07438],[-97.985702,27.070327],[-97.985853,26.998813],[-97.985494,26.780917],[-98.103165,26.781975],[-98.147054,26.782065],[-98.422616,26.783535],[-98.422316,26.795345],[-98.421824,26.858029],[-98.421454,26.875329],[-98.421171,26.877031],[-98.419695,26.964248],[-98.407513,26.958321],[-98.401974,26.954371],[-98.40338,26.957573],[-98.40386,26.959344],[-98.404498,26.960301],[-98.404656,26.961469],[-98.404173,26.962488],[-98.38297,26.972687],[-98.382213,26.972334],[-98.381091,26.972374],[-98.379261,26.971844],[-98.379282,26.973391],[-98.359189,26.974456],[-98.358782,26.975125],[-98.358855,26.976924],[-98.357322,26.977117],[-98.355786,26.976888],[-98.353302,26.977072],[-98.348235,26.977853],[-98.343373,26.978978],[-98.339764,26.980286],[-98.337871,26.979849],[-98.339573,27.010721],[-98.335132,27.009416],[-98.333053,27.008496],[-98.33257,27.008636],[-98.33093,27.009909],[-98.330298,27.009932],[-98.313914,26.996668],[-98.309149,26.994346],[-98.308085,26.993266],[-98.303923,26.990402],[-98.302114,26.989573],[-98.301403,26.988625],[-98.29774,26.985753],[-98.29715,26.984801],[-98.295231,26.984715],[-98.295037,26.982176],[-98.294555,26.981649],[-98.291869,26.982107],[-98.2885,26.982091],[-98.288019,26.982262],[-98.287217,26.981936],[-98.285748,26.982092],[-98.284214,26.981826],[-98.28398,26.982104],[-98.280989,26.982651],[-98.281077,26.996603],[-98.280696,26.997001],[-98.280107,26.997098],[-98.277681,26.995572],[-98.277749,26.996255],[-98.276701,27.000127],[-98.276642,27.010899],[-98.276812,27.011777],[-98.27601,27.014448],[-98.274822,27.015748],[-98.274485,27.01713],[-98.272631,27.018616],[-98.272227,27.018777],[-98.270932,27.017607],[-98.270269,27.016644],[-98.270268,27.015958],[-98.268319,27.014399],[-98.267365,27.015975],[-98.261107,27.015698],[-98.257581,27.014978],[-98.257032,27.015054],[-98.255712,27.016598],[-98.254039,27.016568],[-98.253976,27.017928],[-98.25449,27.018378],[-98.254404,27.020939],[-98.239801,27.019858],[-98.239843,27.006603],[-98.238839,27.007617],[-98.237229,27.010103],[-98.236028,27.010719],[-98.233228,27.014384],[-98.232513,27.014476],[-98.22998,27.015968],[-98.229305,27.016101],[-98.228143,27.01721],[-98.225476,27.018536],[-98.222686,27.018436],[-98.220916,27.019237],[-98.218343,27.018334],[-98.215851,27.016397],[-98.215611,27.01631],[-98.215343,27.016547],[-98.215171,27.016193],[-98.214864,27.016294],[-98.214089,27.01565],[-98.19108,27.040266],[-98.181614,27.040298],[-98.178623,27.040536],[-98.175633,27.039997],[-98.17141,27.039915],[-98.169734,27.039963],[-98.168679,27.040263],[-98.16548,27.040301],[-98.166662,27.137124],[-98.149848,27.133772]]]}}]}