{"type":"FeatureCollection","features":[{"type":"Feature","properties":{"PRECINCT":"1","VTD":"0001"},"geometry":{"type":"Polygon","coordinates":[[[-93.737106,30.079921],[-93.734358,30.077983],[-93.734724,30.077151],[-93.734612,30.076535],[-93.733838,30.075923],[-93.733216,30.075042],[-93.732659,30.075029],[-93.732183,30.073741],[-93.723802,30.065838],[-93.723594,30.065161],[-93.722807,30.064143],[-93.719715,30.061415],[-93.719685,30.05605],[-93.720805,30.053043],[-93.722309,30.051059],[-93.727895,30.045902],[-93.732277,30.042723],[-93.734486,30.040803],[-93.73671,30.038387],[-93.737942,30.036211],[-93.739158,30.032627],[-93.739734,30.023987],[-93.741078,30.021571],[-93.743078,30.020051],[-93.744544,30.019281],[-93.745425,30.022496],[-93.746717,30.024127],[-93.747081,30.026476],[-93.74763,30.027174],[-93.748409,30.027095],[-93.749922,30.025828],[-93.752476,30.024535],[-93.754927,30.024234],[-93.7566,30.022995],[-93.757096,30.022904],[-93.757637,30.0232],[-93.757741,30.023821],[-93.756586,30.025799],[-93.756985,30.027761],[-93.756405,30.02986],[-93.757389,30.031837],[-93.758017,30.032262],[-93.761958,30.031448],[-93.762759,30.030139],[-93.762451,30.028792],[-93.760134,30.027424],[-93.759312,30.026546],[-93.759152,30.024671],[-93.760145,30.023733],[-93.762708,30.026352],[-93.768132,30.031095],[-93.771204,30.032408],[-93.772855,30.032554],[-93.772568,30.033223],[-93.772555,30.03472],[-93.773281,30.034856],[-93.772743,30.039698],[-93.773104,30.049141],[-93.750781,30.060722],[-93.748788,30.063791],[-93.749817,30.065013],[-93.748591,30.065108],[-93.748193,30.065437],[-93.748397,30.065911],[-93.75008,30.066239],[-93.75073,30.067783],[-93.750508,30.068685],[-93.749936,30.068876],[-93.749905,30.069552],[-93.749184,30.069981],[-93.74754,30.070246],[-93.746868,30.070625],[-93.744859,30.072729],[-93.744822,30.073136],[-93.745138,30.073592],[-93.746732,30.073943],[-93.746923,30.074796],[-93.744956,30.075699],[-93.743293,30.076156],[-93.742875,30.075948],[-93.742679,30.075002],[-93.742194,30.07491],[-93.741465,30.075503],[-93.740895,30.07553],[-93.740686,30.074733],[-93.740009,30.073864],[-93.738934,30.074541],[-93.73853,30.075135],[-93.738973,30.076274],[-93.738126,30.077792],[-93.73879,30.077875],[-93.739726,30.076796],[-93.740605,30.07717],[-93.74069,30.077017],[-93.741056,30.077475],[-93.740726,30.078938],[-93.739151,30.078694],[-93.738614,30.079024],[-93.737894,30.078894],[-93.737106,30.079921]]]}},{"type":"Feature","properties":{"PRECINCT":"3","VTD":"0003"},"geometry":{"type":"Polygon","coordinates":[[[-93.703692,30.11739],[-93.7029,30.116417],[-93.702372,30.114753],[-93.702436,30.112721],[-93.702916,30.111777],[-93.70426,30.110657],[-93.705492,30.110289],[-93.710709,30.109761],[-93.712261,30.109041],[-93.712997,30.107857],[-93.713144,30.107175],[-93.714226,30.107417],[-93.715253,30.107938],[-93.715534,30.107684],[-93.715435,30.108253],[-93.71639,30.109078],[-93.717169,30.111163],[-93.717637,30.111449],[-93.718656,30.111718],[-93.719434,30.111481],[-93.720415,30.110573],[-93.72075,30.110562],[-93.721567,30.111129],[-93.722724,30.11027],[-93.724578,30.11006],[-93.725242,30.110308],[-93.726061,30.11103],[-93.726954,30.111094],[-93.727012,30.112355],[-93.727464,30.113124],[-93.729407,30.112204],[-93.730862,30.112583],[-93.731058,30.112297],[-93.730647,30.111945],[-93.73071,30.111731],[-93.732072,30.111848],[-93.733968,30.1109],[-93.735893,30.110816],[-93.735805,30.107301],[-93.733295,30.106306],[-93.732282,30.105599],[-93.732285,30.104936],[-93.747258,30.104778],[-93.747547,30.121196],[-93.740761,30.12056],[-93.733622,30.118847],[-93.724566,30.118796],[-93.722238,30.119287],[-93.716207,30.121144],[-93.701437,30.127506],[-93.700612,30.124161],[-93.700872,30.123114],[-93.70143,30.122295],[-93.702587,30.121841],[-93.706463,30.121678],[-93.707753,30.120943],[-93.707954,30.120016],[-93.70729,30.119365],[-93.706228,30.118961],[-93.703692,30.11739]]]}},{"type":"Feature","properties":{"PRECINCT":"4","VTD":"0004"},"geometry":{"type":"Polygon","coordinates":[[[-93.727319,30.113052],[-93.727012,30.112355],[-93.726954,30.111094],[-93.726061,30.11103],[-93.725242,30.110308],[-93.724578,30.11006],[-93.722724,30.11027],[-93.721567,30.111129],[-93.72075,30.110562],[-93.720415,30.110573],[-93.719434,30.111481],[-93.718656,30.111718],[-93.717637,30.111449],[-93.717169,30.111163],[-93.71639,30.109078],[-93.715435,30.108253],[-93.715534,30.107684],[-93.715253,30.107938],[-93.714226,30.107417],[-93.713144,30.107175],[-93.714597,30.101825],[-93.715493,30.100529],[-93.718021,30.098129],[-93.723109,30.094866],[-93.723765,30.09413],[-93.724101,30.09301],[-93.723141,30.088722],[-93.723077,30.084546],[-93.724005,30.082626],[-93.724805,30.082098],[-93.725802,30.081999],[-93.726859,30.082268],[-93.727418,30.082871],[-93.729718,30.088062],[-93.728662,30.088605],[-93.727836,30.090189],[-93.727933,30.090886],[-93.72874,30.091234],[-93.727011,30.091243],[-93.727199,30.102643],[-93.729926,30.102613],[-93.729895,30.100833],[-93.732233,30.10078],[-93.732282,30.105599],[-93.733295,30.106306],[-93.735805,30.107301],[-93.735893,30.110816],[-93.733968,30.1109],[-93.732072,30.111848],[-93.73071,30.111731],[-93.730647,30.111945],[-93.731058,30.112297],[-93.730862,30.112583],[-93.729407,30.112204],[-93.727667,30.113096],[-93.727319,30.113052]]]}},{"type":"Feature","properties":{"PRECINCT":"5","VTD":"0005"},"geometry":{"type":"Polygon","coordinates":[[[-93.747547,30.121196],[-93.746883,30.093208],[-93.749358,30.093469],[-93.748415,30.094588],[-93.749029,30.095517],[-93.749618,30.095567],[-93.750206,30.096217],[-93.751181,30.096184],[-93.751572,30.09745],[-93.75135,30.098324],[-93.751457,30.099144],[-93.751893,30.099683],[-93.753196,30.100338],[-93.754171,30.100399],[-93.754834,30.101192],[-93.75553,30.101198],[-93.755967,30.100653],[-93.756309,30.10062],[-93.757036,30.100786],[-93.759288,30.101975],[-93.760395,30.101618],[-93.763102,30.103137],[-93.763178,30.103681],[-93.762342,30.104699],[-93.762481,30.105331],[-93.762924,30.105491],[-93.765322,30.105305],[-93.765885,30.105701],[-93.766138,30.10618],[-93.766042,30.107093],[-93.76508,30.108033],[-93.765149,30.109332],[-93.763952,30.111416],[-93.763491,30.110448],[-93.763712,30.11184],[-93.76337,30.112813],[-93.763781,30.11377],[-93.764571,30.114238],[-93.765248,30.115031],[-93.765627,30.116467],[-93.76519,30.117517],[-93.766385,30.118728],[-93.766182,30.120218],[-93.766688,30.121654],[-93.754463,30.121789],[-93.747547,30.121196]]]}},{"type":"Feature","properties":{"PRECINCT":"6","VTD":"0006"},"geometry":{"type":"Polygon","coordinates":[[[-93.707635,30.176731],[-93.707268,30.175664],[-93.706684,30.175877],[-93.705953,30.175831],[-93.705196,30.174867],[-93.703853,30.174081],[-93.7031,30.174169],[-93.702315,30.174582],[-93.701239,30.17582],[-93.699953,30.175529],[-93.700254,30.174549],[-93.702094,30.17296],[-93.703,30.171695],[-93.703046,30.169753],[-93.702658,30.167824],[-93.701925,30.166711],[-93.700817,30.166226],[-93.702162,30.165104],[-93.702716,30.161748],[-93.70305,30.161231],[-93.705838,30.159268],[-93.706996,30.157465],[-93.707169,30.156729],[-93.707056,30.154226],[-93.706333,30.152416],[-93.706154,30.150596],[-93.706426,30.149774],[-93.707069,30.14911],[-93.709348,30.147632],[-93.709636,30.14712],[-93.709508,30.146672],[-93.709252,30.14648],[-93.708436,30.146608],[-93.706532,30.147424],[-93.703837,30.149205],[-93.70306,30.149876],[-93.701513,30.152027],[-93.70018,30.15272],[-93.698948,30.153008],[-93.697737,30.152946],[-93.69685,30.152368],[-93.696292,30.151601],[-93.695721,30.148612],[-93.694868,30.146676],[-93.6937,30.142512],[-93.693303,30.141899],[-93.691923,30.141088],[-93.689527,30.141751],[-93.688205,30.141357],[-93.688834,30.139945],[-93.690349,30.138305],[-93.692221,30.135702],[-93.692849,30.135213],[-93.693821,30.13499],[-93.694952,30.135181],[-93.695685,30.135745],[-93.697105,30.137618],[-93.698274,30.138619],[-93.699596,30.138691],[-93.700744,30.138144],[-93.701255,30.137378],[-93.701865,30.132784],[-93.701999,30.129995],[-93.701437,30.127506],[-93.717575,30.120653],[-93.724566,30.118796],[-93.7315,30.118727],[-93.734549,30.118953],[-93.740761,30.12056],[-93.747547,30.121196],[-93.747943,30.128799],[-93.754188,30.160262],[-93.75873,30.16013],[-93.760009,30.166441],[-93.755475,30.166574],[-93.757121,30.174923],[-93.754971,30.17428],[-93.7518,30.172796],[-93.749092,30.172189],[-93.748107,30.171144],[-93.74722,30.171065],[-93.744177,30.171288],[-93.740373,30.172154],[-93.734315,30.173042],[-93.731527,30.174119],[-93.730191,30.175375],[-93.728266,30.176197],[-93.725262,30.176238],[-93.720305,30.17725],[-93.717477,30.177134],[-93.716515,30.177823],[-93.71424,30.17796],[-93.710317,30.17796],[-93.70856,30.177469],[-93.707635,30.176731]]]}},{"type":"Feature","properties":{"PRECINCT":"7","VTD":"0007"},"geometry":{"type":"Polygon","coordinates":[[[-93.750498,30.141843],[-93.747815,30.127869],[-93.747547,30.121196],[-93.754463,30.121789],[-93.766688,30.121654],[-93.76665,30.122386],[-93.767206,30.122595],[-93.76789,30.122326],[-93.768911,30.123395],[-93.769089,30.124128],[-93.769486,30.124594],[-93.771026,30.125376],[-93.772221,30.1257],[-93.772607,30.126314],[-93.773904,30.126306],[-93.775017,30.127126],[-93.776647,30.127643],[-93.779988,30.128014],[-93.780635,30.129017],[-93.781504,30.129508],[-93.782041,30.129565],[-93.783763,30.130818],[-93.783682,30.131525],[-93.784205,30.132063],[-93.784535,30.132197],[-93.785395,30.131882],[-93.786875,30.132394],[-93.787715,30.132012],[-93.789554,30.132647],[-93.790875,30.132538],[-93.792039,30.133242],[-93.792621,30.13327],[-93.79359,30.132929],[-93.794362,30.133886],[-93.795279,30.133826],[-93.795646,30.135416],[-93.796235,30.135861],[-93.7985,30.136659],[-93.798196,30.137699],[-93.8,30.138304],[-93.800481,30.139784],[-93.802613,30.141352],[-93.794354,30.141282],[-93.750498,30.141843]]]}},{"type":"Feature","properties":{"PRECINCT":"8","VTD":"0008"},"geometry":{"type":"Polygon","coordinates":[[[-93.802978,30.184236],[-93.801663,30.179543],[-93.801087,30.179095],[-93.80018,30.178907],[-93.795426,30.178884],[-93.795406,30.178665],[-93.784749,30.179003],[-93.784768,30.178592],[-93.758165,30.17906],[-93.758067,30.178589],[-93.757945,30.178854],[-93.755475,30.166574],[-93.760009,30.166441],[-93.758843,30.16065],[-93.75873,30.16013],[-93.754188,30.160262],[-93.750498,30.141843],[-93.794354,30.141282],[-93.802613,30.141352],[-93.802721,30.141748],[-93.803398,30.14216],[-93.80531,30.142265],[-93.805904,30.143316],[-93.806512,30.143613],[-93.80686,30.144504],[-93.808898,30.145313],[-93.810227,30.144961],[-93.811006,30.145384],[-93.812639,30.145769],[-93.815569,30.147788],[-93.816012,30.148839],[-93.817266,30.149257],[-93.817487,30.149741],[-93.817329,30.151022],[-93.818228,30.151143],[-93.819931,30.152546],[-93.819785,30.153883],[-93.820412,30.154823],[-93.820032,30.157299],[-93.820855,30.15929],[-93.821223,30.159714],[-93.822248,30.160044],[-93.823198,30.159823],[-93.824027,30.160808],[-93.825065,30.160923],[-93.825869,30.161974],[-93.826718,30.162502],[-93.82692,30.163047],[-93.826515,30.163641],[-93.827079,30.164592],[-93.826294,30.166237],[-93.826332,30.166732],[-93.826959,30.167585],[-93.82701,30.168322],[-93.827649,30.168701],[-93.827998,30.169664],[-93.827922,30.170429],[-93.829099,30.170714],[-93.828973,30.173085],[-93.829929,30.173674],[-93.829461,30.174499],[-93.829929,30.17533],[-93.830411,30.175643],[-93.830594,30.17643],[-93.831709,30.17688],[-93.838553,30.177649],[-93.841302,30.180273],[-93.841897,30.181945],[-93.844545,30.183737],[-93.844121,30.184123],[-93.844526,30.184799],[-93.844552,30.185806],[-93.844052,30.187115],[-93.834702,30.198922],[-93.833525,30.199791],[-93.832322,30.200292],[-93.82982,30.200644],[-93.828859,30.20592],[-93.824252,30.213488],[-93.8195,30.206865],[-93.816134,30.201408],[-93.815861,30.200778],[-93.81575,30.194548],[-93.815446,30.193705],[-93.812114,30.192269],[-93.805839,30.190036],[-93.803771,30.188669],[-93.803056,30.187538],[-93.802978,30.184236]]]}},{"type":"Feature","properties":{"PRECINCT":"9","VTD":"0009"},"geometry":{"type":"Polygon","coordinates":[[[-93.716444,30.244318],[-93.706847,30.24373],[-93.705212,30.242544],[-93.704239,30.241405],[-93.703218,30.239759],[-93.703099,30.238459],[-93.703683,30.238011],[-93.704181,30.238035],[-93.706668,30.239402],[-93.707812,30.239624],[-93.708899,30.239127],[-93.70945,30.238514],[-93.709569,30.237666],[-93.708401,30.236158],[-93.707656,30.235849],[-93.706095,30.236269],[-93.705625,30.235364],[-93.704661,30.234565],[-93.70449,30.233787],[-93.705288,30.233359],[-93.707623,30.233791],[-93.709513,30.233548],[-93.71013,30.233948],[-93.71013,30.234466],[-93.709679,30.234915],[-93.709749,30.235512],[-93.710323,30.235726],[-93.711098,30.235247],[-93.710837,30.233837],[-93.711433,30.231593],[-93.711605,30.231184],[-93.713427,30.229466],[-93.713496,30.2289],[-93.71301,30.228803],[-93.711856,30.229092],[-93.71003,30.228313],[-93.709509,30.227834],[-93.709867,30.227488],[-93.711081,30.227432],[-93.711983,30.227022],[-93.713113,30.226001],[-93.713642,30.224656],[-93.713371,30.22406],[-93.711154,30.222976],[-93.711176,30.22207],[-93.712023,30.221473],[-93.712152,30.219815],[-93.713058,30.218641],[-93.713755,30.218739],[-93.714853,30.220143],[-93.716065,30.220934],[-93.717113,30.220721],[-93.718463,30.219998],[-93.71965,30.218219],[-93.719681,30.21681],[-93.719938,30.216234],[-93.720689,30.215481],[-93.720544,30.214935],[-93.719861,30.21485],[-93.720235,30.215431],[-93.719198,30.215284],[-93.718199,30.215504],[-93.71702,30.216131],[-93.717788,30.215472],[-93.719542,30.214985],[-93.719557,30.214751],[-93.719243,30.214276],[-93.718072,30.213748],[-93.717517,30.213244],[-93.717119,30.212626],[-93.717119,30.21204],[-93.717693,30.210984],[-93.720413,30.210781],[-93.720997,30.210409],[-93.721259,30.209611],[-93.720931,30.208461],[-93.719973,30.207941],[-93.718219,30.206441],[-93.717438,30.206208],[-93.717007,30.206304],[-93.71548,30.208891],[-93.714996,30.209043],[-93.714192,30.208659],[-93.715003,30.204488],[-93.714617,30.202383],[-93.715194,30.202322],[-93.7158,30.202712],[-93.716371,30.20259],[-93.717904,30.200723],[-93.717102,30.199406],[-93.71533,30.198185],[-93.714755,30.197404],[-93.714956,30.197139],[-93.716134,30.196898],[-93.717648,30.194888],[-93.717839,30.193999],[-93.717523,30.193085],[-93.716383,30.19301],[-93.714211,30.19338],[-93.713227,30.193245],[-93.712805,30.193514],[-93.712412,30.194367],[-93.710622,30.196541],[-93.710058,30.196971],[-93.709121,30.197208],[-93.708489,30.196759],[-93.708222,30.196224],[-93.70823,30.194982],[-93.70794,30.194454],[-93.707369,30.19411],[-93.706044,30.193978],[-93.705853,30.19376],[-93.705495,30.192921],[-93.705663,30.191771],[-93.708085,30.191098],[-93.708992,30.190959],[-93.71037,30.191137],[-93.711361,30.191705],[-93.711666,30.192485],[-93.712229,30.192736],[-93.712552,30.192456],[-93.71281,30.188827],[-93.712423,30.187172],[-93.711574,30.186292],[-93.710992,30.186187],[-93.710403,30.186677],[-93.709548,30.186897],[-93.70894,30.186666],[-93.708795,30.186353],[-93.708896,30.185786],[-93.709573,30.185071],[-93.709712,30.18298],[-93.710123,30.181275],[-93.710731,30.180279],[-93.710617,30.179784],[-93.708027,30.179284],[-93.70709,30.179664],[-93.706609,30.180676],[-93.706014,30.180814],[-93.705551,30.180555],[-93.705513,30.180071],[-93.705969,30.179472],[-93.706589,30.177623],[-93.706412,30.176561],[-93.705953,30.175831],[-93.706684,30.175877],[-93.707268,30.175664],[-93.707432,30.176433],[-93.707913,30.177109],[-93.709337,30.177769],[-93.710317,30.17796],[-93.716515,30.177823],[-93.717477,30.177134],[-93.720305,30.17725],[-93.725262,30.176238],[-93.728266,30.176197],[-93.730191,30.175375],[-93.731527,30.174119],[-93.734893,30.172903],[-93.740373,30.172154],[-93.744177,30.171288],[-93.747721,30.171064],[-93.748256,30.17125],[-93.749025,30.172162],[-93.7518,30.172796],[-93.754971,30.17428],[-93.757121,30.174923],[-93.757945,30.178854],[-93.758067,30.178589],[-93.758165,30.17906],[-93.784768,30.178592],[-93.784749,30.179003],[-93.795406,30.178665],[-93.795426,30.178884],[-93.80073,30.178955],[-93.801341,30.179261],[-93.801881,30.179954],[-93.80293,30.183824],[-93.803056,30.187538],[-93.803771,30.188669],[-93.805839,30.190036],[-93.812114,30.192269],[-93.815446,30.193705],[-93.81575,30.194548],[-93.815861,30.200778],[-93.816134,30.201408],[-93.8195,30.206865],[-93.824252,30.213488],[-93.822672,30.215949],[-93.822673,30.217632],[-93.822305,30.217824],[-93.820969,30.217847],[-93.820228,30.218287],[-93.814128,30.218457],[-93.814217,30.22546],[-93.813951,30.225917],[-93.802239,30.226098],[-93.801567,30.225792],[-93.800947,30.225861],[-93.801067,30.226791],[-93.800668,30.228414],[-93.800775,30.228755],[-93.803296,30.230735],[-93.803651,30.231428],[-93.803296,30.233331],[-93.802339,30.234624],[-93.803409,30.236952],[-93.790807,30.243679],[-93.750281,30.243825],[-93.716444,30.244318]]]}},{"type":"Feature","properties":{"PRECINCT":"10","VTD":"0010"},"geometry":{"type":"Polygon","coordinates":[[[-93.787049,30.077614],[-93.811151,30.054626],[-93.814024,30.052228],[-93.821212,30.045174],[-93.820852,30.046254],[-93.819714,30.047409],[-93.819771,30.047745],[-93.823603,30.049747],[-93.824179,30.049742],[-93.825563,30.049054],[-93.82672,30.047678],[-93.826202,30.0466],[-93.826907,30.046941],[-93.824937,30.045511],[-93.825106,30.044573],[-93.825639,30.044191],[-93.827036,30.044345],[-93.828528,30.044917],[-93.829217,30.045549],[-93.829711,30.046699],[-93.830223,30.046941],[-93.831494,30.046225],[-93.832467,30.045054],[-93.832904,30.044828],[-93.835471,30.044954],[-93.836501,30.045372],[-93.836989,30.04628],[-93.83702,30.047061],[-93.834789,30.048816],[-93.834833,30.049988],[-93.835219,30.050604],[-93.837217,30.050686],[-93.838166,30.05117],[-93.839141,30.054261],[-93.836882,30.055891],[-93.836178,30.056036],[-93.835394,30.057133],[-93.837789,30.060483],[-93.837422,30.06051],[-93.838156,30.061566],[-93.837075,30.06226],[-93.838377,30.061715],[-93.8387,30.061918],[-93.840969,30.064947],[-93.841085,30.065708],[-93.841623,30.066032],[-93.8423,30.066984],[-93.842414,30.06722],[-93.841579,30.067166],[-93.841031,30.067384],[-93.840725,30.067826],[-93.840719,30.068453],[-93.841731,30.069256],[-93.843414,30.069965],[-93.843118,30.073062],[-93.843675,30.07348],[-93.845407,30.073254],[-93.845793,30.073397],[-93.846261,30.074063],[-93.845844,30.074719],[-93.842712,30.075209],[-93.83073,30.075981],[-93.821708,30.079377],[-93.797695,30.082685],[-93.780616,30.083145],[-93.787049,30.077614]]]}},{"type":"Feature","properties":{"PRECINCT":"11","VTD":"0011"},"geometry":{"type":"Polygon","coordinates":[[[-93.759554,30.101986],[-93.756802,30.100692],[-93.756037,30.10062],[-93.75567,30.101137],[-93.754834,30.101192],[-93.754171,30.100399],[-93.753095,30.100305],[-93.75159,30.099419],[-93.75135,30.098324],[-93.751572,30.09745],[-93.751181,30.096184],[-93.750206,30.096217],[-93.749618,30.095567],[-93.749029,30.095517],[-93.748402,30.094483],[-93.749358,30.093469],[-93.750277,30.093566],[-93.750422,30.093384],[-93.75055,30.092152],[-93.751341,30.091542],[-93.751329,30.090788],[-93.750431,30.090507],[-93.749893,30.090726],[-93.749583,30.09116],[-93.749368,30.091116],[-93.749032,30.089818],[-93.749677,30.089119],[-93.749797,30.088547],[-93.748803,30.088311],[-93.747962,30.088691],[-93.748215,30.087904],[-93.747683,30.087591],[-93.747095,30.087553],[-93.746709,30.087173],[-93.746474,30.086475],[-93.74655,30.085644],[-93.746088,30.085226],[-93.744582,30.084765],[-93.744148,30.084169],[-93.746029,30.083965],[-93.780616,30.083145],[-93.77146,30.089443],[-93.765827,30.093744],[-93.763209,30.094856],[-93.76344,30.09481],[-93.769576,30.101426],[-93.760832,30.10186],[-93.7603,30.101618],[-93.759554,30.101986]]]}},{"type":"Feature","properties":{"PRECINCT":"12","VTD":"0012"},"geometry":{"type":"Polygon","coordinates":[[[-93.741336,30.083743],[-93.741443,30.081917],[-93.741911,30.081565],[-93.741367,30.080998],[-93.741278,30.080476],[-93.740215,30.08068],[-93.738614,30.079184],[-93.739082,30.078694],[-93.740726,30.078938],[-93.741056,30.077475],[-93.74069,30.077017],[-93.740605,30.07717],[-93.739726,30.076796],[-93.73893,30.077787],[-93.738613,30.077952],[-93.738145,30.077836],[-93.738973,30.076274],[-93.73853,30.075135],[-93.738934,30.074541],[-93.740009,30.073864],[-93.740686,30.074733],[-93.740895,30.07553],[-93.741465,30.075503],[-93.742194,30.07491],[-93.742679,30.075002],[-93.742875,30.075948],[-93.743179,30.07614],[-93.744267,30.075947],[-93.746853,30.074879],[-93.746796,30.074009],[-93.745138,30.073592],[-93.744822,30.073136],[-93.744859,30.072729],[-93.746868,30.070625],[-93.74754,30.070246],[-93.749184,30.069981],[-93.749905,30.069552],[-93.749936,30.068876],[-93.750508,30.068685],[-93.75073,30.067783],[-93.75008,30.066239],[-93.748397,30.065911],[-93.748193,30.065437],[-93.748591,30.065108],[-93.749817,30.065013],[-93.748788,30.063791],[-93.749478,30.062946],[-93.750513,30.060949],[-93.751478,30.060277],[-93.774011,30.048766],[-93.775512,30.048442],[-93.776936,30.048451],[-93.778874,30.048979],[-93.784468,30.052438],[-93.804244,30.061394],[-93.787444,30.077261],[-93.780616,30.083145],[-93.746029,30.083965],[-93.743434,30.084281],[-93.743278,30.083814],[-93.742266,30.084227],[-93.741653,30.084073],[-93.741336,30.083743]]]}},{"type":"Feature","properties":{"PRECINCT":"13","VTD":"0013"},"geometry":{"type":"Polygon","coordinates":[[[-93.78562,30.097614],[-93.784589,30.097576],[-93.783305,30.098478],[-93.781647,30.099159],[-93.779831,30.099175],[-93.777725,30.098511],[-93.777781,30.100742],[-93.772608,30.10133],[-93.769576,30.101426],[-93.76344,30.09481],[-93.763209,30.094856],[-93.765827,30.093744],[-93.77146,30.089443],[-93.780616,30.083145],[-93.797166,30.082734],[-93.80554,30.081631],[-93.805324,30.093683],[-93.79593,30.091529],[-93.795686,30.092423],[-93.799342,30.098084],[-93.798962,30.097776],[-93.795053,30.097357],[-93.791655,30.097434],[-93.790016,30.100547],[-93.790686,30.101058],[-93.789081,30.102204],[-93.789609,30.102711],[-93.789427,30.102792],[-93.785607,30.099529],[-93.78562,30.097614]]]}},{"type":"Feature","properties":{"PRECINCT":"14","VTD":"0014"},"geometry":{"type":"Polygon","coordinates":[[[-93.763705,30.111944],[-93.763491,30.110448],[-93.763952,30.111416],[-93.765149,30.109332],[-93.76508,30.108033],[-93.765998,30.107198],[-93.766138,30.10618],[-93.765429,30.105327],[-93.762924,30.105491],[-93.762481,30.105331],[-93.762342,30.104699],[-93.763178,30.103681],[-93.763102,30.103137],[-93.760832,30.10186],[-93.772608,30.10133],[-93.777781,30.100742],[-93.777725,30.098511],[-93.779831,30.099175],[-93.781647,30.099159],[-93.783305,30.098478],[-93.784589,30.097576],[-93.785487,30.097576],[-93.785664,30.097895],[-93.785607,30.099529],[-93.789314,30.102813],[-93.789609,30.102711],[-93.789081,30.102204],[-93.790686,30.101058],[-93.790016,30.100547],[-93.791471,30.097605],[-93.80367,30.114057],[-93.784851,30.120329],[-93.782199,30.121025],[-93.778724,30.121423],[-93.766688,30.121654],[-93.766182,30.120218],[-93.766385,30.118728],[-93.76519,30.117517],[-93.765627,30.116467],[-93.765248,30.115031],[-93.764571,30.114238],[-93.763781,30.11377],[-93.76337,30.112813],[-93.763705,30.111944]]]}},{"type":"Feature","properties":{"PRECINCT":"15","VTD":"0015"},"geometry":{"type":"Polygon","coordinates":[[[-93.829055,30.170632],[-93.827884,30.170374],[-93.827998,30.169664],[-93.827649,30.168701],[-93.82701,30.168322],[-93.826959,30.167585],[-93.826332,30.166732],[-93.826294,30.166237],[-93.827079,30.164592],[-93.826515,30.163641],[-93.82692,30.163047],[-93.826718,30.162502],[-93.825869,30.161974],[-93.825065,30.160923],[-93.824027,30.160808],[-93.823198,30.159823],[-93.822248,30.160044],[-93.821223,30.159714],[-93.820855,30.15929],[-93.820032,30.157299],[-93.820412,30.154823],[-93.819785,30.153883],[-93.819931,30.152546],[-93.818228,30.151143],[-93.817329,30.151022],[-93.817342,30.14935],[-93.816012,30.148839],[-93.815462,30.147695],[-93.812139,30.145582],[-93.811006,30.145384],[-93.810227,30.144961],[-93.808898,30.145313],[-93.80686,30.144504],[-93.806512,30.143613],[-93.805904,30.143316],[-93.80531,30.142265],[-93.803582,30.142199],[-93.802841,30.141869],[-93.802329,30.141055],[-93.800481,30.139784],[-93.8,30.138304],[-93.798196,30.137699],[-93.798551,30.136703],[-93.796235,30.135861],[-93.795646,30.135416],[-93.795336,30.133881],[-93.795058,30.133743],[-93.794362,30.133886],[-93.793659,30.132945],[-93.792039,30.133242],[-93.790875,30.132538],[-93.789554,30.132647],[-93.787715,30.132012],[-93.786875,30.132394],[-93.785395,30.131882],[-93.784535,30.132197],[-93.784205,30.132063],[-93.783682,30.131525],[-93.783763,30.130818],[-93.782041,30.129565],[-93.781504,30.129508],[-93.780635,30.129017],[-93.779988,30.128014],[-93.776647,30.127643],[-93.775017,30.127126],[-93.773904,30.126306],[-93.772607,30.126314],[-93.772221,30.1257],[-93.771026,30.125376],[-93.769486,30.124594],[-93.769089,30.124128],[-93.768911,30.123395],[-93.76789,30.122326],[-93.767206,30.122595],[-93.76665,30.122386],[-93.766688,30.121654],[-93.778724,30.121423],[-93.782199,30.121025],[-93.784851,30.120329],[-93.806035,30.11332],[-93.808107,30.113047],[-93.809375,30.113114],[-93.815629,30.114376],[-93.823888,30.116449],[-93.832996,30.120744],[-93.843745,30.123318],[-93.845787,30.124011],[-93.856968,30.129283],[-93.856925,30.129473],[-93.856352,30.129143],[-93.856264,30.129701],[-93.856847,30.131005],[-93.857254,30.131156],[-93.857185,30.131728],[-93.857669,30.13288],[-93.862132,30.142633],[-93.864938,30.15255],[-93.867256,30.155738],[-93.869849,30.160384],[-93.868137,30.162161],[-93.864968,30.166376],[-93.863867,30.168664],[-93.863843,30.170821],[-93.863311,30.172025],[-93.860755,30.174244],[-93.850297,30.174489],[-93.84529,30.177246],[-93.84448,30.17833],[-93.844545,30.183737],[-93.841897,30.181945],[-93.841302,30.180273],[-93.838553,30.177649],[-93.831709,30.17688],[-93.830594,30.17643],[-93.830411,30.175643],[-93.829929,30.17533],[-93.829461,30.174499],[-93.829929,30.173674],[-93.828973,30.173085],[-93.82915,30.170979],[-93.829055,30.170632]]]}},{"type":"Feature","properties":{"PRECINCT":"17","VTD":"0017"},"geometry":{"type":"Polygon","coordinates":[[[-94.021774,30.242094],[-94.021083,30.191471],[-94.023351,30.187187],[-94.026499,30.187773],[-94.042401,30.195663],[-94.045281,30.195301],[-94.051185,30.193749],[-94.0545,30.191943],[-94.055754,30.191987],[-94.058373,30.192821],[-94.058315,30.187334],[-94.057922,30.186498],[-94.056289,30.184836],[-94.056048,30.183736],[-94.057847,30.155172],[-94.058265,30.153241],[-94.063473,30.142009],[-94.077725,30.141823],[-94.078267,30.141875],[-94.079427,30.142656],[-94.079949,30.142385],[-94.080042,30.141969],[-94.079381,30.141324],[-94.07914,30.140705],[-94.080382,30.137917],[-94.080363,30.137515],[-94.079487,30.136756],[-94.079391,30.135864],[-94.080645,30.133528],[-94.080523,30.131669],[-94.080066,30.130844],[-94.077788,30.130113],[-94.077427,30.129657],[-94.078454,30.127685],[-94.079161,30.127127],[-94.078924,30.127554],[-94.079578,30.127111],[-94.087179,30.130811],[-94.092679,30.131411],[-94.095379,30.133411],[-94.098579,30.136231],[-94.10128,30.136543],[-94.105021,30.135347],[-94.105585,30.134902],[-94.106813,30.135001],[-94.108094,30.135434],[-94.109146,30.136733],[-94.108432,30.137942],[-94.106566,30.138533],[-94.104671,30.138631],[-94.102677,30.13913],[-94.101082,30.140728],[-94.100888,30.143026],[-94.103498,30.145124],[-94.106796,30.145681],[-94.10983,30.1458],[-94.11138,30.14661],[-94.11348,30.148311],[-94.11398,30.151311],[-94.113583,30.155143],[-94.11543,30.15797],[-94.115917,30.160347],[-94.114472,30.161529],[-94.114132,30.163395],[-94.113732,30.164019],[-94.110884,30.164755],[-94.11026,30.165747],[-94.110148,30.166947],[-94.110436,30.167923],[-94.11218,30.169251],[-94.1125,30.169795],[-94.112148,30.170531],[-94.114452,30.172227],[-94.114851,30.173235],[-94.114472,30.173799],[-94.112404,30.175203],[-94.111419,30.180014],[-94.111579,30.183915],[-94.110998,30.186702],[-94.110506,30.187759],[-94.110103,30.188344],[-94.109499,30.188698],[-94.108153,30.18856],[-94.107124,30.187554],[-94.106292,30.18725],[-94.105812,30.187186],[-94.10506,30.187911],[-94.104884,30.189074],[-94.105044,30.189602],[-94.105364,30.190066],[-94.107371,30.191465],[-94.107489,30.192481],[-94.106546,30.193192],[-94.10498,30.193074],[-94.103252,30.19125],[-94.102051,30.190866],[-94.101491,30.19045],[-94.10108,30.188942],[-94.100778,30.188754],[-94.100602,30.188884],[-94.099603,30.188083],[-94.097871,30.188431],[-94.096948,30.189509],[-94.097092,30.189877],[-94.098954,30.191461],[-94.099389,30.192093],[-94.099447,30.192754],[-94.099291,30.19377],[-94.098068,30.194771],[-94.097789,30.195581],[-94.098314,30.197315],[-94.098216,30.198459],[-94.097223,30.19929],[-94.095865,30.199001],[-94.095623,30.197599],[-94.095123,30.197045],[-94.094605,30.197082],[-94.094256,30.19677],[-94.093584,30.196626],[-94.091798,30.197264],[-94.091058,30.19837],[-94.09117,30.198866],[-94.09356,30.199805],[-94.094185,30.200378],[-94.093875,30.201426],[-94.092058,30.202818],[-94.091457,30.203712],[-94.091217,30.204648],[-94.091449,30.205569],[-94.09213,30.206068],[-94.092714,30.206179],[-94.093242,30.205555],[-94.09309,30.20421],[-94.093398,30.203327],[-94.094451,30.202962],[-94.095187,30.203282],[-94.096579,30.205362],[-94.098163,30.206578],[-94.098691,30.207362],[-94.099875,30.208322],[-94.100468,30.209234],[-94.101908,30.21005],[-94.102052,30.210898],[-94.102788,30.211586],[-94.10324,30.212682],[-94.103254,30.213376],[-94.103636,30.213842],[-94.104372,30.213666],[-94.1045,30.21317],[-94.104004,30.21253],[-94.103236,30.21229],[-94.102941,30.211637],[-94.103828,30.211106],[-94.105012,30.210834],[-94.106404,30.211202],[-94.110804,30.213714],[-94.113572,30.216322],[-94.11482,30.21653],[-94.117044,30.215522],[-94.117764,30.215874],[-94.117956,30.21685],[-94.116308,30.218882],[-94.11554,30.22149],[-94.1157,30.222514],[-94.117252,30.224258],[-94.11746,30.225154],[-94.11642,30.226658],[-94.116264,30.228435],[-94.116662,30.231265],[-94.117016,30.232215],[-94.117524,30.232785],[-94.117844,30.234641],[-94.117588,30.235569],[-94.11698,30.236305],[-94.1165,30.237441],[-94.116324,30.238513],[-94.116548,30.239841],[-94.117604,30.241665],[-94.021774,30.242094]]]}},{"type":"Feature","properties":{"PRECINCT":"18","VTD":"0018"},"geometry":{"type":"Polygon","coordinates":[[[-93.967798,30.193832],[-93.967529,30.179626],[-93.954018,30.179701],[-93.953984,30.174389],[-93.945347,30.174408],[-93.94536,30.178431],[-93.944942,30.178143],[-93.944432,30.161704],[-93.946349,30.16054],[-93.945004,30.158585],[-93.944909,30.158073],[-93.945352,30.156985],[-93.945664,30.1542],[-93.947786,30.151692],[-93.947972,30.150341],[-93.947781,30.139539],[-93.944579,30.130221],[-93.954544,30.129973],[-93.958111,30.131481],[-93.966567,30.13797],[-93.974528,30.145173],[-93.994911,30.134244],[-94.000687,30.135448],[-94.001292,30.136078],[-94.001371,30.136554],[-94.001173,30.137096],[-94.000122,30.138014],[-94.001838,30.137189],[-94.002652,30.137174],[-94.002199,30.143358],[-94.002358,30.147704],[-94.002736,30.148326],[-94.003201,30.148348],[-94.003247,30.148811],[-94.003203,30.163636],[-94.004102,30.165432],[-94.007017,30.168641],[-94.004538,30.169739],[-94.001489,30.17429],[-94.001381,30.174729],[-94.002378,30.177279],[-94.003881,30.176364],[-94.003222,30.177167],[-94.00148,30.178118],[-94.001701,30.180302],[-94.001194,30.180698],[-94.000251,30.180653],[-93.998534,30.180987],[-93.9968,30.182473],[-93.995908,30.182793],[-93.995839,30.183607],[-93.995516,30.183976],[-93.993509,30.184884],[-93.992806,30.183608],[-93.992177,30.180732],[-93.988703,30.184001],[-93.986406,30.185795],[-93.984817,30.186659],[-93.983102,30.188205],[-93.98231,30.18853],[-93.980019,30.190214],[-93.978513,30.192013],[-93.977133,30.19307],[-93.976164,30.193367],[-93.971735,30.192642],[-93.967798,30.193832]]]}},{"type":"Feature","properties":{"PRECINCT":"19","VTD":"0019"},"geometry":{"type":"Polygon","coordinates":[[[-94.035293,30.142572],[-94.031634,30.142367],[-94.002667,30.142641],[-94.002245,30.142785],[-94.002652,30.137174],[-94.001838,30.137189],[-94.000122,30.138014],[-94.001173,30.137096],[-94.001371,30.136554],[-94.001292,30.136078],[-94.000687,30.135448],[-93.994911,30.134244],[-94.034849,30.112715],[-94.035953,30.113768],[-94.036308,30.113724],[-94.036788,30.114131],[-94.037946,30.114379],[-94.039604,30.113333],[-94.039627,30.119697],[-94.043201,30.11976],[-94.043456,30.1188],[-94.04853,30.115316],[-94.04851,30.115945],[-94.049375,30.114957],[-94.050758,30.120015],[-94.053894,30.11817],[-94.054465,30.117732],[-94.054249,30.117425],[-94.055898,30.117161],[-94.056278,30.116679],[-94.057736,30.116273],[-94.058877,30.115406],[-94.059274,30.114617],[-94.061628,30.114991],[-94.061875,30.115382],[-94.062134,30.115365],[-94.062691,30.115156],[-94.062773,30.114892],[-94.063166,30.114914],[-94.063159,30.113897],[-94.063571,30.113737],[-94.06395,30.113968],[-94.064229,30.114898],[-94.064102,30.115607],[-94.064368,30.116746],[-94.065678,30.11663],[-94.066064,30.116834],[-94.066089,30.117065],[-94.065633,30.117466],[-94.06564,30.118198],[-94.067797,30.117736],[-94.067879,30.117054],[-94.06662,30.115899],[-94.066184,30.114903],[-94.066171,30.112615],[-94.066633,30.111669],[-94.067727,30.110547],[-94.068695,30.110183],[-94.069846,30.110293],[-94.071624,30.110959],[-94.071795,30.111382],[-94.071422,30.11207],[-94.071422,30.113209],[-94.072118,30.11377],[-94.072846,30.113626],[-94.07379,30.113789],[-94.073678,30.114111],[-94.074278,30.116511],[-94.076878,30.119511],[-94.078378,30.122211],[-94.078778,30.124511],[-94.079578,30.127111],[-94.078924,30.127554],[-94.079161,30.127127],[-94.078454,30.127685],[-94.077427,30.129657],[-94.077788,30.130113],[-94.080066,30.130844],[-94.080523,30.131669],[-94.080645,30.133528],[-94.079391,30.135864],[-94.079487,30.136756],[-94.080363,30.137515],[-94.080382,30.137917],[-94.07914,30.140705],[-94.079381,30.141324],[-94.080042,30.141969],[-94.079949,30.142385],[-94.079427,30.142656],[-94.078267,30.141875],[-94.077725,30.141823],[-94.049987,30.14221],[-94.049639,30.142438],[-94.049873,30.142518],[-94.048698,30.1455],[-94.046194,30.156053],[-94.043553,30.151558],[-94.040581,30.145096],[-94.035293,30.142572]]]}},{"type":"Feature","properties":{"PRECINCT":"20","VTD":"0020"},"geometry":{"type":"Polygon","coordinates":[[[-94.012673,30.12465],[-94.012332,30.123797],[-93.996073,30.123752],[-93.996018,30.121697],[-93.99724,30.12169],[-93.997189,30.117098],[-93.998406,30.117094],[-93.998419,30.114462],[-94.004474,30.114272],[-94.004228,30.10216],[-94.030151,30.103112],[-94.034317,30.102447],[-94.034216,30.103174],[-94.033134,30.103712],[-94.032413,30.104609],[-94.031805,30.105896],[-94.031741,30.107409],[-94.032209,30.108047],[-94.032234,30.108756],[-94.034849,30.112715],[-94.012673,30.12465]]]}},{"type":"Feature","properties":{"PRECINCT":"21","VTD":"0021"},"geometry":{"type":"Polygon","coordinates":[[[-94.039627,30.119697],[-94.039604,30.113333],[-94.037946,30.114379],[-94.036788,30.114131],[-94.036308,30.113724],[-94.035605,30.113559],[-94.034233,30.111925],[-94.032234,30.108756],[-94.032209,30.108047],[-94.031773,30.107629],[-94.031805,30.105896],[-94.03209,30.105258],[-94.032735,30.104086],[-94.034216,30.103174],[-94.034317,30.102447],[-94.094079,30.085012],[-94.093779,30.086612],[-94.091579,30.087112],[-94.087878,30.087412],[-94.086378,30.089012],[-94.087278,30.091212],[-94.089278,30.091612],[-94.092628,30.08997],[-94.094082,30.090532],[-94.094188,30.091038],[-94.091038,30.094736],[-94.089879,30.097612],[-94.087278,30.102812],[-94.087278,30.104912],[-94.086278,30.105012],[-94.084178,30.104112],[-94.081178,30.104312],[-94.078678,30.106112],[-94.076978,30.109611],[-94.074378,30.112111],[-94.07379,30.113789],[-94.072846,30.113626],[-94.072118,30.11377],[-94.07153,30.113368],[-94.07134,30.11267],[-94.071795,30.111382],[-94.071517,30.110882],[-94.068948,30.110172],[-94.067727,30.110547],[-94.066633,30.111669],[-94.066171,30.112615],[-94.066038,30.114122],[-94.06662,30.115899],[-94.067879,30.117054],[-94.067797,30.117736],[-94.06564,30.118198],[-94.065633,30.117466],[-94.066089,30.117065],[-94.066064,30.116834],[-94.065678,30.11663],[-94.064368,30.116746],[-94.064102,30.115607],[-94.064229,30.114898],[-94.06395,30.113968],[-94.063571,30.113737],[-94.063159,30.113897],[-94.063166,30.114914],[-94.062773,30.114892],[-94.062691,30.115156],[-94.062134,30.115365],[-94.061875,30.115382],[-94.061628,30.114991],[-94.059274,30.114617],[-94.058877,30.115406],[-94.057736,30.116273],[-94.056278,30.116679],[-94.055898,30.117161],[-94.054249,30.117425],[-94.054465,30.117732],[-94.053894,30.11817],[-94.050758,30.120015],[-94.049375,30.114957],[-94.04851,30.115945],[-94.04853,30.115316],[-94.043456,30.1188],[-94.043201,30.11976],[-94.039627,30.119697]]]}},{"type":"Feature","properties":{"PRECINCT":"22","VTD":"0022"},"geometry":{"type":"Polygon","coordinates":[[[-93.950278,30.100003],[-93.950419,30.099645],[-93.951229,30.099656],[-93.960136,30.100006],[-93.960053,30.087335],[-93.961126,30.087223],[-93.961465,30.086875],[-93.961469,30.08018],[-93.961921,30.079889],[-93.964857,30.079846],[-93.966334,30.079475],[-93.976242,30.079259],[-93.975215,30.078829],[-93.974722,30.077982],[-93.974564,30.069709],[-93.975221,30.069653],[-93.979235,30.067679],[-94.007658,30.067192],[-94.010332,30.066504],[-94.018431,30.063502],[-94.019199,30.063449],[-94.031776,30.058812],[-94.031576,30.060712],[-94.027176,30.063712],[-94.027476,30.066012],[-94.029876,30.067212],[-94.032976,30.066812],[-94.035576,30.064712],[-94.038376,30.063212],[-94.042977,30.063712],[-94.046377,30.066212],[-94.048077,30.070512],[-94.046877,30.072512],[-94.046777,30.074112],[-94.049377,30.076312],[-94.050277,30.077812],[-94.051877,30.078712],[-94.055777,30.077612],[-94.056377,30.075612],[-94.057777,30.074812],[-94.059677,30.075212],[-94.064377,30.077212],[-94.070418,30.078028],[-94.077247,30.076241],[-94.081978,30.076212],[-94.083578,30.076912],[-94.084378,30.077612],[-94.084978,30.078412],[-94.085078,30.079112],[-94.085978,30.080112],[-94.091379,30.082012],[-94.093539,30.083684],[-94.094079,30.085012],[-94.037022,30.10175],[-94.03305,30.102734],[-94.030744,30.103072],[-94.016246,30.102675],[-93.950278,30.100003]]]}},{"type":"Feature","properties":{"PRECINCT":"23","VTD":"0023"},"geometry":{"type":"Polygon","coordinates":[[[-93.898874,30.098168],[-93.89797,30.097973],[-93.886016,30.097518],[-93.885665,30.097018],[-93.883963,30.096902],[-93.882199,30.094679],[-93.881504,30.092632],[-93.88034,30.092852],[-93.879429,30.093594],[-93.878012,30.093252],[-93.87738,30.092851],[-93.876754,30.091706],[-93.876736,30.090309],[-93.876059,30.089709],[-93.874467,30.089614],[-93.874018,30.089218],[-93.87384,30.087975],[-93.873459,30.086754],[-93.873213,30.086589],[-93.870569,30.08736],[-93.869411,30.08686],[-93.868975,30.086948],[-93.867754,30.087708],[-93.8668,30.08877],[-93.863713,30.089322],[-93.86329,30.089729],[-93.861696,30.090197],[-93.861405,30.090115],[-93.861303,30.089367],[-93.860905,30.089537],[-93.860823,30.090258],[-93.860393,30.090461],[-93.859893,30.089527],[-93.858672,30.08967],[-93.858419,30.089852],[-93.858938,30.090429],[-93.858514,30.09071],[-93.857869,30.090539],[-93.85728,30.08966],[-93.857312,30.089214],[-93.857963,30.088372],[-93.856944,30.088604],[-93.856419,30.08807],[-93.856621,30.087366],[-93.857431,30.087113],[-93.857399,30.086898],[-93.856684,30.086794],[-93.856109,30.087289],[-93.855577,30.087229],[-93.855261,30.086943],[-93.855495,30.086189],[-93.855235,30.085898],[-93.854135,30.086058],[-93.854445,30.08625],[-93.854394,30.086553],[-93.853515,30.086778],[-93.852939,30.086592],[-93.851712,30.085552],[-93.850972,30.085475],[-93.849644,30.086059],[-93.849739,30.086428],[-93.850086,30.086147],[-93.850409,30.086493],[-93.850403,30.087214],[-93.849303,30.087418],[-93.848765,30.087192],[-93.848537,30.086505],[-93.847974,30.086065],[-93.848132,30.085124],[-93.846772,30.085988],[-93.846804,30.086252],[-93.847151,30.086406],[-93.846943,30.087369],[-93.84595,30.087716],[-93.844989,30.08754],[-93.843976,30.086979],[-93.843843,30.085857],[-93.843527,30.08649],[-93.842473,30.086498],[-93.842171,30.086083],[-93.843873,30.08416],[-93.843583,30.082776],[-93.84399,30.082254],[-93.845175,30.082401],[-93.845747,30.082097],[-93.84618,30.080941],[-93.845874,30.080613],[-93.845226,30.080469],[-93.845225,30.07986],[-93.846644,30.078272],[-93.847194,30.077134],[-93.846371,30.076473],[-93.845633,30.075008],[-93.846261,30.074063],[-93.845793,30.073397],[-93.845407,30.073254],[-93.843675,30.07348],[-93.843118,30.073062],[-93.843414,30.069965],[-93.841731,30.069256],[-93.840719,30.068453],[-93.840725,30.067826],[-93.841031,30.067384],[-93.841579,30.067166],[-93.842414,30.06722],[-93.8423,30.066984],[-93.841623,30.066032],[-93.841085,30.065708],[-93.840969,30.064947],[-93.8387,30.061918],[-93.838377,30.061715],[-93.837075,30.06226],[-93.838156,30.061566],[-93.837422,30.06051],[-93.837789,30.060483],[-93.835394,30.057133],[-93.836178,30.056036],[-93.836882,30.055891],[-93.839141,30.054261],[-93.839387,30.054217],[-93.839653,30.054833],[-93.840254,30.05524],[-93.841025,30.055262],[-93.843055,30.053748],[-93.84406,30.052334],[-93.847436,30.051481],[-93.85032,30.052745],[-93.853893,30.052695],[-93.85574,30.0543],[-93.856315,30.054388],[-93.857308,30.053967],[-93.857188,30.061108],[-93.861556,30.060937],[-93.862309,30.059303],[-93.864944,30.059111],[-93.867591,30.058418],[-93.891129,30.05806],[-93.892716,30.057528],[-93.896143,30.057066],[-93.897981,30.057029],[-93.900506,30.055845],[-93.903815,30.05521],[-93.910998,30.050801],[-93.9158,30.048263],[-93.917606,30.046991],[-93.917473,30.043027],[-93.918063,30.041655],[-93.917648,30.037497],[-93.917194,30.006235],[-93.916819,29.996013],[-93.91802,29.996013],[-93.91975,29.995491],[-93.924872,29.993013],[-93.931072,29.991113],[-93.948073,29.997213],[-93.954373,30.001113],[-93.957473,30.011812],[-93.960609,30.013428],[-93.967973,30.013112],[-93.975774,30.009713],[-93.981774,30.008913],[-93.983174,30.010813],[-93.982474,30.015312],[-93.980574,30.020012],[-93.983074,30.021812],[-93.986174,30.021612],[-93.991974,30.016413],[-93.996774,30.013113],[-93.999775,30.014713],[-94.000775,30.018313],[-93.999875,30.024212],[-93.998687,30.026756],[-93.998543,30.028516],[-93.998575,30.029156],[-93.998911,30.029636],[-94.000095,30.030548],[-94.001039,30.030964],[-94.005075,30.031112],[-94.007875,30.029612],[-94.010975,30.028812],[-94.012675,30.028812],[-94.018475,30.030112],[-94.022076,30.029412],[-94.023976,30.028213],[-94.024976,30.027213],[-94.027376,30.025713],[-94.029476,30.025513],[-94.030876,30.026413],[-94.031976,30.028013],[-94.032876,30.033912],[-94.035876,30.041412],[-94.035276,30.044112],[-94.032876,30.046612],[-94.030276,30.048112],[-94.028681,30.051812],[-94.029776,30.055612],[-94.031776,30.058812],[-94.019199,30.063449],[-94.018431,30.063502],[-94.010332,30.066504],[-94.007658,30.067192],[-93.979235,30.067679],[-93.975221,30.069653],[-93.974564,30.069709],[-93.974722,30.077982],[-93.975215,30.078829],[-93.976242,30.079259],[-93.966334,30.079475],[-93.964857,30.079846],[-93.961921,30.079889],[-93.961469,30.08018],[-93.961465,30.086875],[-93.961126,30.087223],[-93.960053,30.087335],[-93.960136,30.100006],[-93.950419,30.099645],[-93.950278,30.100003],[-93.906555,30.098305],[-93.898874,30.098168]]]}},{"type":"Feature","properties":{"PRECINCT":"24","VTD":"0024"},"geometry":{"type":"Polygon","coordinates":[[[-93.777341,30.048516],[-93.774849,30.048537],[-93.773104,30.049141],[-93.772743,30.039698],[-93.773281,30.034856],[-93.772555,30.03472],[-93.772568,30.033223],[-93.772855,30.032554],[-93.771204,30.032408],[-93.768132,30.031095],[-93.768393,30.030546],[-93.770367,30.030086],[-93.771575,30.029091],[-93.771505,30.028406],[-93.770373,30.027386],[-93.769611,30.025581],[-93.76975,30.024754],[-93.771224,30.023744],[-93.771823,30.023717],[-93.772491,30.024008],[-93.772893,30.024641],[-93.772352,30.029038],[-93.773068,30.030085],[-93.773731,30.030585],[-93.775076,30.030753],[-93.776053,30.030315],[-93.776291,30.02971],[-93.776327,30.027863],[-93.776695,30.027408],[-93.777712,30.027049],[-93.778288,30.027519],[-93.778428,30.028073],[-93.778253,30.028762],[-93.778533,30.031021],[-93.778917,30.032144],[-93.779511,30.03266],[-93.780122,30.032841],[-93.781729,30.032495],[-93.78496,30.0305],[-93.78571,30.030426],[-93.786339,30.030669],[-93.78812,30.033474],[-93.788347,30.034142],[-93.788293,30.035174],[-93.788714,30.035802],[-93.789229,30.035873],[-93.790701,30.033736],[-93.791191,30.033421],[-93.791959,30.033269],[-93.79271,30.033405],[-93.793269,30.033828],[-93.793618,30.03466],[-93.793182,30.036926],[-93.795622,30.037499],[-93.796084,30.036194],[-93.796982,30.035556],[-93.802391,30.033483],[-93.810243,30.031267],[-93.827188,30.031596],[-93.829656,30.03173],[-93.834239,30.032379],[-93.823538,30.042714],[-93.817197,30.049195],[-93.811151,30.054626],[-93.804244,30.061394],[-93.784468,30.052438],[-93.779335,30.049215],[-93.777341,30.048516]]]}},{"type":"Feature","properties":{"PRECINCT":"25","VTD":"0025"},"geometry":{"type":"Polygon","coordinates":[[[-93.79271,30.033405],[-93.791959,30.033269],[-93.790701,30.033736],[-93.789229,30.035873],[-93.788714,30.035802],[-93.788293,30.035174],[-93.788347,30.034142],[-93.787701,30.032731],[-93.786339,30.030669],[-93.78571,30.030426],[-93.78496,30.0305],[-93.781729,30.032495],[-93.780122,30.032841],[-93.779511,30.03266],[-93.778917,30.032144],[-93.778533,30.031021],[-93.778253,30.028762],[-93.778428,30.028073],[-93.778288,30.027519],[-93.777712,30.027049],[-93.776695,30.027408],[-93.776327,30.027863],[-93.776291,30.02971],[-93.776053,30.030315],[-93.775076,30.030753],[-93.773731,30.030585],[-93.773068,30.030085],[-93.772352,30.029038],[-93.772893,30.024641],[-93.772491,30.024008],[-93.771823,30.023717],[-93.771224,30.023744],[-93.76975,30.024754],[-93.769611,30.025581],[-93.770373,30.027386],[-93.771505,30.028406],[-93.771575,30.029091],[-93.770367,30.030086],[-93.768393,30.030546],[-93.768132,30.031095],[-93.762708,30.026352],[-93.760145,30.023733],[-93.759152,30.024671],[-93.759312,30.026546],[-93.760134,30.027424],[-93.762451,30.028792],[-93.762759,30.030139],[-93.761958,30.031448],[-93.758017,30.032262],[-93.757389,30.031837],[-93.756405,30.02986],[-93.756985,30.027761],[-93.756586,30.025799],[-93.757741,30.023821],[-93.757637,30.0232],[-93.757096,30.022904],[-93.7566,30.022995],[-93.754927,30.024234],[-93.752476,30.024535],[-93.749922,30.025828],[-93.748409,30.027095],[-93.74763,30.027174],[-93.747081,30.026476],[-93.746717,30.024127],[-93.745425,30.022496],[-93.744544,30.019281],[-93.74879,30.017491],[-93.755014,30.015363],[-93.758534,30.012499],[-93.765159,30.00578],[-93.767239,30.00338],[-93.768444,30.001694],[-93.769383,29.9977],[-93.770567,29.996532],[-93.771575,29.995924],[-93.772935,29.995588],[-93.776807,29.995396],[-93.778888,29.99487],[-93.780823,29.994276],[-93.783175,29.99322],[-93.786935,29.99058],[-93.789431,29.987812],[-93.790087,29.986564],[-93.792423,29.979108],[-93.794439,29.974773],[-93.796151,29.972037],[-93.803591,29.962309],[-93.806551,29.957445],[-93.807815,29.954549],[-93.810375,29.947349],[-93.813735,29.935126],[-93.814982,29.927878],[-93.81655,29.920726],[-93.817286,29.918422],[-93.818998,29.914822],[-93.830374,29.894358],[-93.838374,29.882853],[-93.845079,29.874835],[-93.850478,29.868933],[-93.854412,29.865053],[-93.846695,29.890919],[-93.841095,29.91287],[-93.838967,29.926438],[-93.838824,29.936934],[-93.839112,29.939798],[-93.840552,29.946741],[-93.841416,29.949301],[-93.843896,29.954805],[-93.847432,29.960037],[-93.849657,29.962725],[-93.852041,29.964965],[-93.855625,29.967829],[-93.857977,29.975061],[-93.858489,29.975973],[-93.860169,29.977397],[-93.871738,29.98098],[-93.868045,29.997771],[-93.866076,30.001468],[-93.864099,30.003663],[-93.840477,30.026392],[-93.834177,30.026406],[-93.831604,30.025981],[-93.830282,30.025972],[-93.829656,30.03173],[-93.810243,30.031267],[-93.802391,30.033483],[-93.796982,30.035556],[-93.796084,30.036194],[-93.795622,30.037499],[-93.793182,30.036926],[-93.793618,30.03466],[-93.793269,30.033828],[-93.79271,30.033405]]]}},{"type":"Feature","properties":{"PRECINCT":"26","VTD":"0026"},"geometry":{"type":"Polygon","coordinates":[[[-93.84076,30.055273],[-93.840254,30.05524],[-93.839653,30.054833],[-93.839387,30.054217],[-93.839141,30.054261],[-93.838564,30.051923],[-93.837938,30.050972],[-93.837217,30.050686],[-93.835478,30.050675],[-93.834985,30.050395],[-93.8347,30.049492],[-93.834789,30.048816],[-93.837077,30.046846],[-93.836989,30.04628],[-93.836343,30.045234],[-93.835471,30.044954],[-93.832904,30.044828],[-93.832467,30.045054],[-93.831494,30.046225],[-93.830223,30.046941],[-93.829711,30.046699],[-93.829217,30.045549],[-93.828528,30.044917],[-93.827036,30.044345],[-93.825639,30.044191],[-93.825106,30.044573],[-93.824937,30.045511],[-93.826907,30.046941],[-93.826202,30.0466],[-93.82672,30.047678],[-93.825804,30.048894],[-93.824179,30.049742],[-93.823338,30.049692],[-93.819973,30.047987],[-93.819714,30.047409],[-93.820852,30.046254],[-93.821212,30.045174],[-93.823538,30.042714],[-93.834239,30.032379],[-93.829656,30.03173],[-93.830282,30.025972],[-93.831604,30.025981],[-93.834177,30.026406],[-93.840477,30.026392],[-93.857529,30.010057],[-93.85788,30.021497],[-93.857632,30.023797],[-93.857762,30.029867],[-93.84593,30.029783],[-93.846025,30.033854],[-93.850824,30.034727],[-93.850992,30.042226],[-93.850402,30.044373],[-93.850561,30.050846],[-93.85117,30.051622],[-93.852082,30.052004],[-93.853939,30.052466],[-93.857064,30.05251],[-93.857308,30.053967],[-93.856315,30.054388],[-93.85574,30.0543],[-93.853893,30.052695],[-93.85032,30.052745],[-93.847436,30.051481],[-93.84406,30.052334],[-93.843055,30.053748],[-93.84076,30.055273]]]}},{"type":"Feature","properties":{"PRECINCT":"27","VTD":"0027"},"geometry":{"type":"Polygon","coordinates":[[[-93.988339,30.227168],[-93.988472,30.212893],[-93.982364,30.212996],[-93.982153,30.202564],[-93.972661,30.204349],[-93.9724,30.201999],[-93.96851,30.198722],[-93.968536,30.198287],[-93.96952,30.197296],[-93.973997,30.194269],[-93.977133,30.19307],[-93.978513,30.192013],[-93.980019,30.190214],[-93.98231,30.18853],[-93.983102,30.188205],[-93.984817,30.186659],[-93.986406,30.185795],[-93.988703,30.184001],[-93.992177,30.180732],[-93.992806,30.183608],[-93.993509,30.184884],[-93.995516,30.183976],[-93.995839,30.183607],[-93.995908,30.182793],[-93.9968,30.182473],[-93.998534,30.180987],[-94.001542,30.180549],[-94.001726,30.179994],[-94.00148,30.178118],[-94.003222,30.177167],[-94.003881,30.176364],[-94.002378,30.177279],[-94.001381,30.174729],[-94.001489,30.17429],[-94.004538,30.169739],[-94.007017,30.168641],[-94.004102,30.165432],[-94.003269,30.163973],[-94.003222,30.156672],[-94.010129,30.15954],[-94.017854,30.161961],[-94.021594,30.167199],[-94.023181,30.170691],[-94.024029,30.173204],[-94.024294,30.180741],[-94.023583,30.186245],[-94.023351,30.187187],[-94.021083,30.191471],[-94.021774,30.242094],[-93.989365,30.242152],[-93.989514,30.229401],[-93.988339,30.227168]]]}},{"type":"Feature","properties":{"PRECINCT":"28","VTD":"0028"},"geometry":{"type":"Polygon","coordinates":[[[-93.857188,30.061108],[-93.857321,30.05374],[-93.857064,30.05251],[-93.853939,30.052466],[-93.852082,30.052004],[-93.85117,30.051622],[-93.850561,30.050846],[-93.850402,30.044373],[-93.850992,30.042226],[-93.850824,30.034727],[-93.846025,30.033854],[-93.84593,30.029783],[-93.857762,30.029867],[-93.857632,30.023797],[-93.85788,30.021497],[-93.857529,30.010057],[-93.865206,30.002507],[-93.867281,29.999524],[-93.868554,29.996114],[-93.871738,29.98098],[-93.884183,29.982243],[-93.887668,29.983123],[-93.896671,29.984712],[-93.903471,29.985513],[-93.907571,29.988913],[-93.909671,29.992913],[-93.913781,29.995988],[-93.916819,29.996013],[-93.917194,30.006235],[-93.917648,30.037497],[-93.918063,30.041655],[-93.917473,30.043027],[-93.917606,30.046991],[-93.9158,30.048263],[-93.910998,30.050801],[-93.903975,30.055132],[-93.900506,30.055845],[-93.89788,30.057049],[-93.896143,30.057066],[-93.893038,30.05748],[-93.890535,30.058098],[-93.867591,30.058418],[-93.864944,30.059111],[-93.862309,30.059303],[-93.861556,30.060937],[-93.857188,30.061108]]]}},{"type":"Feature","properties":{"PRECINCT":"29","VTD":"0029"},"geometry":{"type":"Polygon","coordinates":[[[-93.942017,30.123124],[-93.937319,30.110151],[-93.934789,30.105092],[-93.934995,30.099481],[-94.004228,30.10216],[-94.004474,30.114272],[-93.998419,30.114462],[-93.998406,30.117094],[-93.997189,30.117098],[-93.99724,30.12169],[-93.996018,30.121697],[-93.996057,30.122663],[-93.994288,30.122981],[-93.98939,30.123043],[-93.942017,30.123124]]]}},{"type":"Feature","properties":{"PRECINCT":"30","VTD":"0030"},"geometry":{"type":"Polygon","coordinates":[[[-93.809375,30.113114],[-93.806493,30.113213],[-93.80367,30.114057],[-93.791471,30.097605],[-93.791915,30.097384],[-93.795053,30.097357],[-93.798962,30.097776],[-93.799342,30.098084],[-93.795686,30.092423],[-93.79593,30.091529],[-93.805324,30.093683],[-93.80554,30.081631],[-93.821708,30.079377],[-93.83073,30.075981],[-93.842712,30.075209],[-93.845691,30.074734],[-93.845633,30.075008],[-93.846371,30.076473],[-93.847194,30.077134],[-93.846644,30.078272],[-93.845225,30.07986],[-93.845226,30.080469],[-93.845874,30.080613],[-93.84618,30.080941],[-93.845489,30.082304],[-93.84399,30.082254],[-93.843583,30.082776],[-93.843873,30.08416],[-93.843245,30.084978],[-93.84269,30.085284],[-93.842144,30.086143],[-93.842473,30.086498],[-93.843318,30.086572],[-93.843843,30.085857],[-93.843976,30.086979],[-93.844989,30.08754],[-93.84595,30.087716],[-93.846943,30.087369],[-93.847151,30.086406],[-93.846804,30.086252],[-93.846772,30.085988],[-93.848132,30.085124],[-93.847974,30.086065],[-93.848537,30.086505],[-93.848765,30.087192],[-93.849303,30.087418],[-93.849916,30.087434],[-93.850454,30.087104],[-93.850409,30.086493],[-93.850086,30.086147],[-93.849739,30.086428],[-93.849707,30.085982],[-93.851288,30.085453],[-93.851712,30.085552],[-93.853192,30.086729],[-93.854046,30.086696],[-93.854464,30.086376],[-93.854343,30.08614],[-93.854027,30.086129],[-93.855235,30.085898],[-93.855495,30.086189],[-93.855261,30.086943],[-93.855577,30.087229],[-93.856109,30.087289],[-93.856684,30.086794],[-93.857399,30.086898],[-93.857431,30.087113],[-93.856621,30.087366],[-93.856413,30.087982],[-93.856944,30.088604],[-93.857963,30.088372],[-93.857261,30.089341],[-93.857521,30.090105],[-93.857401,30.090699],[-93.856971,30.090903],[-93.85718,30.091469],[-93.857496,30.091541],[-93.858192,30.092371],[-93.857655,30.093823],[-93.857839,30.094698],[-93.857239,30.096377],[-93.857072,30.096371],[-93.857778,30.098076],[-93.857873,30.100144],[-93.858829,30.100688],[-93.858779,30.101541],[-93.861032,30.104103],[-93.863196,30.104488],[-93.864778,30.104102],[-93.866246,30.10491],[-93.86617,30.105636],[-93.865393,30.106335],[-93.865387,30.10705],[-93.864774,30.108304],[-93.862541,30.110071],[-93.862466,30.111281],[-93.861594,30.112723],[-93.861639,30.113873],[-93.86057,30.116062],[-93.860735,30.116794],[-93.862216,30.117971],[-93.861717,30.118972],[-93.861484,30.120864],[-93.862782,30.121997],[-93.863776,30.124054],[-93.863655,30.12534],[-93.862807,30.125571],[-93.862383,30.126111],[-93.861638,30.129208],[-93.861936,30.129631],[-93.863291,30.130456],[-93.863868,30.131913],[-93.860983,30.131214],[-93.844887,30.12367],[-93.832996,30.120744],[-93.824809,30.116842],[-93.822797,30.116083],[-93.809375,30.113114]]]}},{"type":"Feature","properties":{"PRECINCT":"31","VTD":"0031"},"geometry":{"type":"Polygon","coordinates":[[[-93.790807,30.243679],[-93.803409,30.236952],[-93.802339,30.234624],[-93.803296,30.233331],[-93.803651,30.231428],[-93.803296,30.230735],[-93.800775,30.228755],[-93.800668,30.228414],[-93.801067,30.226791],[-93.800947,30.225861],[-93.801567,30.225792],[-93.802239,30.226098],[-93.813951,30.225917],[-93.814217,30.22546],[-93.814128,30.218457],[-93.820228,30.218287],[-93.820969,30.217847],[-93.822603,30.217731],[-93.822672,30.215949],[-93.828859,30.20592],[-93.82982,30.200644],[-93.832322,30.200292],[-93.833525,30.199791],[-93.834702,30.198922],[-93.844052,30.187115],[-93.844552,30.185806],[-93.844526,30.184799],[-93.844121,30.184123],[-93.844627,30.183594],[-93.844536,30.178138],[-93.84529,30.177246],[-93.849341,30.174931],[-93.861886,30.191672],[-93.863433,30.193202],[-93.866604,30.195635],[-93.867455,30.196639],[-93.877002,30.211536],[-93.879481,30.218321],[-93.880955,30.22085],[-93.891214,30.22079],[-93.897272,30.221511],[-93.899399,30.221266],[-93.904453,30.219968],[-93.904912,30.22045],[-93.906021,30.220632],[-93.907357,30.221248],[-93.91172,30.2239],[-93.91203,30.22598],[-93.911954,30.228009],[-93.913248,30.230162],[-93.913631,30.231641],[-93.914852,30.232927],[-93.914879,30.233637],[-93.915491,30.23471],[-93.91631,30.235375],[-93.920007,30.235384],[-93.920162,30.238947],[-93.922714,30.242572],[-93.790807,30.243679]]]}},{"type":"Feature","properties":{"PRECINCT":"32","VTD":"0032"},"geometry":{"type":"Polygon","coordinates":[[[-93.857184,30.131648],[-93.857254,30.131156],[-93.856847,30.131005],[-93.856264,30.129701],[-93.856352,30.129143],[-93.861531,30.131422],[-93.863868,30.131913],[-93.863291,30.130456],[-93.861936,30.129631],[-93.861638,30.129208],[-93.862383,30.126111],[-93.862807,30.125571],[-93.863655,30.12534],[-93.863776,30.124054],[-93.862782,30.121997],[-93.861484,30.120864],[-93.861717,30.118972],[-93.862216,30.117971],[-93.860735,30.116794],[-93.86057,30.116062],[-93.861639,30.113873],[-93.861594,30.112723],[-93.862466,30.111281],[-93.862541,30.110071],[-93.864774,30.108304],[-93.865387,30.10705],[-93.865393,30.106335],[-93.866082,30.105746],[-93.86629,30.105234],[-93.866157,30.104838],[-93.86486,30.104118],[-93.863196,30.104488],[-93.861032,30.104103],[-93.858779,30.101541],[-93.858829,30.100688],[-93.857873,30.100144],[-93.857778,30.098076],[-93.857072,30.096371],[-93.857239,30.096377],[-93.857839,30.094698],[-93.857655,30.093823],[-93.858167,30.092789],[-93.858129,30.09219],[-93.85718,30.091469],[-93.856971,30.090903],[-93.857331,30.090826],[-93.857521,30.090105],[-93.858059,30.090638],[-93.858805,30.090677],[-93.858925,30.090242],[-93.858457,30.089791],[-93.859734,30.089499],[-93.860089,30.089653],[-93.860456,30.090451],[-93.860823,30.090258],[-93.860905,30.089537],[-93.861234,30.089356],[-93.861405,30.090115],[-93.861696,30.090197],[-93.86329,30.089729],[-93.863713,30.089322],[-93.8668,30.08877],[-93.867754,30.087708],[-93.868975,30.086948],[-93.869411,30.08686],[-93.870569,30.08736],[-93.873213,30.086589],[-93.873459,30.086754],[-93.87384,30.087975],[-93.874018,30.089218],[-93.874467,30.089614],[-93.876059,30.089709],[-93.876736,30.090309],[-93.876754,30.091706],[-93.87738,30.092851],[-93.878012,30.093252],[-93.879429,30.093594],[-93.88034,30.092852],[-93.881504,30.092632],[-93.882199,30.094679],[-93.883552,30.096544],[-93.884254,30.097001],[-93.885905,30.097101],[-93.886016,30.097518],[-93.934995,30.099481],[-93.934789,30.105092],[-93.937319,30.110151],[-93.942017,30.123124],[-93.931571,30.123129],[-93.921334,30.130291],[-93.91568,30.13019],[-93.915786,30.131044],[-93.915871,30.131345],[-93.925935,30.131342],[-93.94481,30.130882],[-93.947825,30.14006],[-93.947972,30.150341],[-93.947786,30.151692],[-93.945738,30.154024],[-93.945352,30.156985],[-93.944897,30.158212],[-93.946205,30.160354],[-93.892506,30.189225],[-93.873929,30.169188],[-93.869677,30.16001],[-93.867256,30.155738],[-93.864938,30.15255],[-93.862132,30.142633],[-93.857184,30.131648]]]}},{"type":"Feature","properties":{"PRECINCT":"33","VTD":"0033"},"geometry":{"type":"Polygon","coordinates":[[[-93.954544,30.129973],[-93.944579,30.130221],[-93.94481,30.130882],[-93.925935,30.131342],[-93.915871,30.131345],[-93.91568,30.13019],[-93.921334,30.130291],[-93.931571,30.123129],[-93.98939,30.123043],[-93.994288,30.122981],[-93.996057,30.122663],[-93.996073,30.123752],[-94.012332,30.123797],[-94.012673,30.12465],[-93.974528,30.145173],[-93.966567,30.13797],[-93.958631,30.131804],[-93.954544,30.129973]]]}},{"type":"Feature","properties":{"PRECINCT":"34","VTD":"0034"},"geometry":{"type":"Polygon","coordinates":[[[-94.042401,30.195663],[-94.026499,30.187773],[-94.023351,30.187187],[-94.024294,30.180741],[-94.024029,30.173204],[-94.023181,30.170691],[-94.021594,30.167199],[-94.017854,30.161961],[-94.010129,30.15954],[-94.003222,30.156672],[-94.003247,30.148811],[-94.003201,30.148348],[-94.002736,30.148326],[-94.002344,30.147631],[-94.002245,30.142785],[-94.002667,30.142641],[-94.031634,30.142367],[-94.035293,30.142572],[-94.040581,30.145096],[-94.043553,30.151558],[-94.046194,30.156053],[-94.048698,30.1455],[-94.049873,30.142518],[-94.049645,30.142465],[-94.049739,30.142317],[-94.050244,30.142164],[-94.063473,30.142009],[-94.058265,30.153241],[-94.057847,30.155172],[-94.056048,30.183736],[-94.056289,30.184836],[-94.057922,30.186498],[-94.058315,30.187334],[-94.058373,30.192821],[-94.055754,30.191987],[-94.0545,30.191943],[-94.051185,30.193749],[-94.045281,30.195301],[-94.042401,30.195663]]]}},{"type":"Feature","properties":{"PRECINCT":"2","VTD":"0002"},"geometry":{"type":"Polygon","coordinates":[[[-93.732285,30.104936],[-93.732233,30.10078],[-93.729895,30.100833],[-93.729926,30.102613],[-93.727199,30.102643],[-93.727011,30.091243],[-93.72874,30.091234],[-93.727933,30.090886],[-93.727836,30.090189],[-93.728102,30.089418],[-93.728997,30.088397],[-93.729718,30.088062],[-93.730313,30.089034],[-93.731079,30.089518],[-93.731591,30.089009],[-93.731973,30.089058],[-93.733127,30.088374],[-93.733765,30.08757],[-93.734085,30.086162],[-93.733745,30.08459],[-93.73325,30.083623],[-93.732216,30.082349],[-93.72591,30.078469],[-93.720716,30.072981],[-93.717008,30.069583],[-93.715462,30.068917],[-93.705124,30.067025],[-93.703105,30.066261],[-93.701323,30.064708],[-93.70058,30.063683],[-93.699421,30.060323],[-93.699516,30.058578],[-93.700189,30.057],[-93.701092,30.05604],[-93.704151,30.054208],[-93.706578,30.053751],[-93.708045,30.0538],[-93.711074,30.054391],[-93.711797,30.055671],[-93.712112,30.059221],[-93.713772,30.065687],[-93.715461,30.066579],[-93.716813,30.065848],[-93.717884,30.065554],[-93.718816,30.064796],[-93.719453,30.063808],[-93.719715,30.061415],[-93.722807,30.064143],[-93.723594,30.065161],[-93.723802,30.065838],[-93.732183,30.073741],[-93.732659,30.075029],[-93.733216,30.075042],[-93.733838,30.075923],[-93.734612,30.076535],[-93.734724,30.077151],[-93.734358,30.077983],[-93.737106,30.079921],[-93.737818,30.078933],[-93.738415,30.078927],[-93.740215,30.08068],[-93.741221,30.08041],[-93.741367,30.080998],[-93.741911,30.081565],[-93.741443,30.081917],[-93.741469,30.083947],[-93.742266,30.084227],[-93.743278,30.083814],[-93.743434,30.084281],[-93.744148,30.084169],[-93.744582,30.084765],[-93.746088,30.085226],[-93.746676,30.085914],[-93.746474,30.086475],[-93.746709,30.087173],[-93.747095,30.087553],[-93.747683,30.087591],[-93.748215,30.087904],[-93.747962,30.088691],[-93.748803,30.088311],[-93.749797,30.088547],[-93.749677,30.089119],[-93.749032,30.089818],[-93.749368,30.091116],[-93.749583,30.09116],[-93.749893,30.090726],[-93.750431,30.090507],[-93.751329,30.090788],[-93.751341,30.091542],[-93.75055,30.092152],[-93.7506,30.093103],[-93.750277,30.093566],[-93.746883,30.093208],[-93.747258,30.104778],[-93.732285,30.104936]]]}},{"type":"Feature","properties":{"PRECINCT":"16","VTD":"0016"},"geometry":{"type":"Polygon","coordinates":[[[-93.920162,30.238947],[-93.920007,30.235384],[-93.91631,30.235375],[-93.915491,30.23471],[-93.914879,30.233637],[-93.914852,30.232927],[-93.913631,30.231641],[-93.913248,30.230162],[-93.911954,30.228009],[-93.91203,30.22598],[-93.911606,30.223741],[-93.906546,30.22083],[-93.904912,30.22045],[-93.904453,30.219968],[-93.899399,30.221266],[-93.897272,30.221511],[-93.891214,30.22079],[-93.880955,30.22085],[-93.879481,30.218321],[-93.877002,30.211536],[-93.867455,30.196639],[-93.866604,30.195635],[-93.863433,30.193202],[-93.861886,30.191672],[-93.849341,30.174931],[-93.850588,30.17444],[-93.860243,30.174337],[-93.861112,30.174071],[-93.863091,30.17229],[-93.863609,30.171558],[-93.863868,30.17059],[-93.863867,30.168664],[-93.864968,30.166376],[-93.868137,30.162161],[-93.869849,30.160384],[-93.873095,30.167511],[-93.874438,30.169864],[-93.892506,30.189225],[-93.946205,30.160354],[-93.946349,30.16054],[-93.944432,30.161704],[-93.944942,30.178143],[-93.94536,30.178431],[-93.945347,30.174408],[-93.953984,30.174389],[-93.954018,30.179701],[-93.967529,30.179626],[-93.967798,30.193832],[-93.971735,30.192642],[-93.976164,30.193367],[-93.973997,30.194269],[-93.96952,30.197296],[-93.968536,30.198287],[-93.96851,30.198722],[-93.9724,30.201999],[-93.972661,30.204349],[-93.982153,30.202564],[-93.982364,30.212996],[-93.988472,30.212893],[-93.988339,30.227168],[-93.989514,30.229401],[-93.989365,30.242152],[-93.922714,30.242572],[-93.920162,30.238947]]]}}]}