{"type":"FeatureCollection","features":[{"type":"Feature","properties":{"PRECINCT":"1","VTD":"0001"},"geometry":{"type":"Polygon","coordinates":[[[-97.784193,32.268276],[-97.782928,32.268299],[-97.781258,32.267901],[-97.779911,32.266403],[-97.776618,32.265391],[-97.773016,32.263047],[-97.770115,32.261829],[-97.768994,32.260102],[-97.768657,32.259088],[-97.767256,32.259067],[-97.765231,32.257729],[-97.760451,32.250675],[-97.756813,32.248529],[-97.758724,32.247992],[-97.759681,32.248005],[-97.760523,32.248534],[-97.761128,32.248646],[-97.761926,32.248251],[-97.762255,32.247278],[-97.762042,32.246359],[-97.759483,32.243366],[-97.756254,32.240208],[-97.755462,32.239023],[-97.755758,32.238732],[-97.754359,32.238034],[-97.756214,32.235001],[-97.755499,32.23467],[-97.758026,32.230654],[-97.760215,32.231614],[-97.759979,32.232185],[-97.760714,32.232732],[-97.764277,32.230069],[-97.768987,32.232732],[-97.770257,32.23288],[-97.770492,32.233271],[-97.773156,32.232696],[-97.774352,32.231984],[-97.778074,32.228662],[-97.783672,32.22045],[-97.785082,32.219179],[-97.788051,32.217159],[-97.788921,32.216281],[-97.789675,32.214876],[-97.792346,32.207815],[-97.792338,32.204385],[-97.792845,32.202787],[-97.794385,32.201283],[-97.799213,32.19811],[-97.800478,32.197836],[-97.806061,32.197758],[-97.808379,32.197483],[-97.809257,32.197137],[-97.811985,32.195334],[-97.813126,32.19488],[-97.826131,32.190886],[-97.827963,32.190887],[-97.847317,32.19262],[-97.84877,32.19253],[-97.864578,32.187116],[-97.866164,32.186985],[-97.868991,32.187147],[-97.871309,32.18692],[-97.881527,32.182569],[-97.883034,32.181555],[-97.883879,32.180576],[-97.887522,32.173108],[-97.888526,32.171709],[-97.890042,32.170623],[-97.89853,32.166883],[-97.903305,32.161187],[-97.904938,32.158473],[-97.940474,32.221738],[-97.945625,32.233468],[-97.886646,32.263484],[-97.880054,32.266635],[-97.862991,32.275392],[-97.858177,32.278159],[-97.806822,32.304223],[-97.79847,32.293472],[-97.785294,32.26921],[-97.784514,32.26883],[-97.784193,32.268276]]]}},{"type":"Feature","properties":{"PRECINCT":"2","VTD":"0002"},"geometry":{"type":"Polygon","coordinates":[[[-97.752333,32.231861],[-97.753398,32.23012],[-97.753164,32.228819],[-97.752279,32.22519],[-97.751896,32.224823],[-97.747449,32.222599],[-97.739709,32.217711],[-97.738735,32.217501],[-97.73645,32.217531],[-97.732768,32.216618],[-97.73122,32.215714],[-97.717693,32.19548],[-97.717717,32.194693],[-97.718635,32.193512],[-97.716084,32.191545],[-97.710967,32.184416],[-97.709269,32.183412],[-97.695333,32.178312],[-97.694111,32.177484],[-97.692475,32.175244],[-97.698514,32.172127],[-97.699683,32.170983],[-97.701309,32.170538],[-97.703378,32.169598],[-97.710564,32.165895],[-97.711633,32.165123],[-97.740029,32.150971],[-97.740427,32.151083],[-97.746193,32.148145],[-97.745988,32.147857],[-97.754538,32.143413],[-97.758313,32.141492],[-97.759972,32.140985],[-97.777751,32.131928],[-97.779227,32.130961],[-97.791058,32.125146],[-97.864864,32.087328],[-97.883428,32.120412],[-97.888254,32.12854],[-97.904938,32.158473],[-97.903305,32.161187],[-97.89853,32.166883],[-97.890042,32.170623],[-97.888526,32.171709],[-97.887522,32.173108],[-97.884043,32.180316],[-97.883034,32.181555],[-97.881527,32.182569],[-97.871461,32.186873],[-97.869842,32.187121],[-97.864578,32.187116],[-97.854744,32.19058],[-97.848148,32.192625],[-97.827963,32.190887],[-97.826131,32.190886],[-97.813126,32.19488],[-97.811985,32.195334],[-97.809257,32.197137],[-97.808379,32.197483],[-97.806061,32.197758],[-97.800478,32.197836],[-97.798861,32.198265],[-97.793723,32.201774],[-97.792845,32.202787],[-97.792338,32.204385],[-97.792346,32.207815],[-97.789675,32.214876],[-97.788921,32.216281],[-97.788051,32.217159],[-97.783979,32.220126],[-97.778074,32.228662],[-97.773441,32.232577],[-97.770492,32.233271],[-97.770257,32.23288],[-97.768987,32.232732],[-97.764277,32.230069],[-97.760714,32.232732],[-97.759979,32.232185],[-97.760215,32.231614],[-97.758026,32.230654],[-97.755499,32.23467],[-97.752948,32.233494],[-97.75377,32.232377],[-97.752333,32.231861]]]}},{"type":"Feature","properties":{"PRECINCT":"4","VTD":"0004"},"geometry":{"type":"Polygon","coordinates":[[[-97.615043,32.235934],[-97.615055,32.203581],[-97.619132,32.204098],[-97.625971,32.203995],[-97.628013,32.204977],[-97.630885,32.207403],[-97.649908,32.197024],[-97.66326,32.19053],[-97.692475,32.175244],[-97.694111,32.177484],[-97.695333,32.178312],[-97.709269,32.183412],[-97.710967,32.184416],[-97.716084,32.191545],[-97.718635,32.193512],[-97.717717,32.194693],[-97.717693,32.19548],[-97.73122,32.215714],[-97.732768,32.216618],[-97.73645,32.217531],[-97.738735,32.217501],[-97.739709,32.217711],[-97.747449,32.222599],[-97.752011,32.224905],[-97.752279,32.22519],[-97.753398,32.23012],[-97.752333,32.231861],[-97.75377,32.232377],[-97.752948,32.233494],[-97.756214,32.235001],[-97.755064,32.236854],[-97.754284,32.236474],[-97.753465,32.237679],[-97.75174,32.237715],[-97.751534,32.237899],[-97.751405,32.238284],[-97.751806,32.239956],[-97.750568,32.240062],[-97.750279,32.241672],[-97.744695,32.244018],[-97.734521,32.24927],[-97.729504,32.251229],[-97.713877,32.25847],[-97.696962,32.264899],[-97.670756,32.271512],[-97.668399,32.271848],[-97.656804,32.272007],[-97.654614,32.272227],[-97.653397,32.272487],[-97.641584,32.276682],[-97.614641,32.281576],[-97.614282,32.256191],[-97.615043,32.235934]]]}},{"type":"Feature","properties":{"PRECINCT":"3","VTD":"0003"},"geometry":{"type":"Polygon","coordinates":[[[-97.615286,32.318618],[-97.614641,32.281576],[-97.641584,32.276682],[-97.653397,32.272487],[-97.654614,32.272227],[-97.656804,32.272007],[-97.668399,32.271848],[-97.670756,32.271512],[-97.696962,32.264899],[-97.713877,32.25847],[-97.729504,32.251229],[-97.734521,32.24927],[-97.744695,32.244018],[-97.750279,32.241672],[-97.750568,32.240062],[-97.751806,32.239956],[-97.751484,32.237959],[-97.75174,32.237715],[-97.753465,32.237679],[-97.754284,32.236474],[-97.755064,32.236854],[-97.754377,32.238061],[-97.755758,32.238732],[-97.755462,32.239023],[-97.756254,32.240208],[-97.759483,32.243366],[-97.762042,32.246359],[-97.762255,32.247278],[-97.761926,32.248251],[-97.761128,32.248646],[-97.760523,32.248534],[-97.759681,32.248005],[-97.758724,32.247992],[-97.756813,32.248529],[-97.760451,32.250675],[-97.765231,32.257729],[-97.767256,32.259067],[-97.768657,32.259088],[-97.768994,32.260102],[-97.770115,32.261829],[-97.773016,32.263047],[-97.776618,32.265391],[-97.779911,32.266403],[-97.781258,32.267901],[-97.782928,32.268299],[-97.784193,32.268276],[-97.784514,32.26883],[-97.785294,32.26921],[-97.79847,32.293472],[-97.806822,32.304223],[-97.78276,32.316493],[-97.617331,32.318613],[-97.615286,32.318618]]]}}]}