{"type":"FeatureCollection","features":[{"type":"Feature","properties":{"PRECINCT":"1","VTD":"0001"},"geometry":{"type":"Polygon","coordinates":[[[-102.508648,32.325345],[-102.2329,32.324701],[-102.211111,32.323679],[-102.211017,32.1863],[-102.211249,32.0868],[-102.316696,32.08721],[-102.393144,32.086851],[-102.450601,32.087018],[-102.466702,32.137187],[-102.520723,32.241925],[-102.547035,32.320273],[-102.544665,32.320776],[-102.544192,32.319284],[-102.534499,32.321395],[-102.524613,32.32201],[-102.511185,32.325043],[-102.508648,32.325345]]]}},{"type":"Feature","properties":{"PRECINCT":"2","VTD":"0002"},"geometry":{"type":"Polygon","coordinates":[[[-103.000955,32.522869],[-102.99628,32.523154],[-102.738398,32.523002],[-102.613521,32.523153],[-102.557402,32.353723],[-102.546881,32.319777],[-102.548064,32.31948],[-102.548381,32.320483],[-102.549572,32.320215],[-102.549916,32.321242],[-102.551091,32.32098],[-102.552465,32.32531],[-102.552875,32.325229],[-102.553274,32.326384],[-102.565364,32.323653],[-102.565707,32.324837],[-102.570499,32.323731],[-102.567273,32.313454],[-102.572414,32.310875],[-102.574154,32.310217],[-102.773867,32.261494],[-102.870004,32.238273],[-102.870708,32.239077],[-102.871828,32.239683],[-102.873003,32.24079],[-102.873428,32.240895],[-102.880406,32.239922],[-102.909886,32.23293],[-102.924816,32.225846],[-102.956188,32.218995],[-102.95735,32.217268],[-102.958537,32.216571],[-102.959975,32.214501],[-102.961541,32.213498],[-102.965097,32.212353],[-102.968197,32.210453],[-102.979969,32.200472],[-102.981989,32.198456],[-102.993303,32.194173],[-102.996832,32.193576],[-103.000452,32.192315],[-103.009924,32.189776],[-103.02942,32.189439],[-103.043673,32.189544],[-103.043671,32.18727],[-103.051911,32.187245],[-103.051858,32.183671],[-103.058403,32.183626],[-103.058645,32.180718],[-103.058969,32.179962],[-103.059777,32.179962],[-103.059781,32.145523],[-103.064114,32.145527],[-103.064558,32.145126],[-103.064788,32.240487],[-103.064696,32.522193],[-103.000955,32.522869]]]}},{"type":"Feature","properties":{"PRECINCT":"3","VTD":"0003"},"geometry":{"type":"Polygon","coordinates":[[[-102.500444,32.523035],[-102.476311,32.523329],[-102.473262,32.522923],[-102.37544,32.523109],[-102.371534,32.523371],[-102.240807,32.523146],[-102.211037,32.523244],[-102.210843,32.500102],[-102.21121,32.375107],[-102.211111,32.323679],[-102.2329,32.324701],[-102.507775,32.325362],[-102.511185,32.325043],[-102.524613,32.32201],[-102.534499,32.321395],[-102.544192,32.319284],[-102.544665,32.320776],[-102.547035,32.320273],[-102.557402,32.353723],[-102.613521,32.523153],[-102.500444,32.523035]]]}},{"type":"Feature","properties":{"PRECINCT":"4","VTD":"0004"},"geometry":{"type":"Polygon","coordinates":[[[-102.553274,32.326384],[-102.552875,32.325229],[-102.552465,32.32531],[-102.551091,32.32098],[-102.549916,32.321242],[-102.549572,32.320215],[-102.548381,32.320483],[-102.548064,32.31948],[-102.546881,32.319777],[-102.520589,32.241613],[-102.466702,32.137187],[-102.450601,32.087018],[-102.70692,32.086732],[-102.718247,32.086946],[-102.799086,32.085795],[-102.801559,32.087153],[-103.064516,32.087051],[-103.06438,32.13754],[-103.064558,32.145126],[-103.064114,32.145527],[-103.059781,32.145523],[-103.059777,32.179962],[-103.058969,32.179962],[-103.058645,32.180718],[-103.058403,32.183626],[-103.051858,32.183671],[-103.051911,32.187245],[-103.043671,32.18727],[-103.043673,32.189544],[-103.02942,32.189439],[-103.009924,32.189776],[-103.000452,32.192315],[-102.996832,32.193576],[-102.993303,32.194173],[-102.981989,32.198456],[-102.979969,32.200472],[-102.968197,32.210453],[-102.965097,32.212353],[-102.961541,32.213498],[-102.959975,32.214501],[-102.958537,32.216571],[-102.95735,32.217268],[-102.956188,32.218995],[-102.924816,32.225846],[-102.909886,32.23293],[-102.880406,32.239922],[-102.873428,32.240895],[-102.873003,32.24079],[-102.871828,32.239683],[-102.870708,32.239077],[-102.870004,32.238273],[-102.775591,32.261074],[-102.574753,32.310049],[-102.572414,32.310875],[-102.567273,32.313454],[-102.570499,32.323731],[-102.565707,32.324837],[-102.565364,32.323653],[-102.553274,32.326384]]]}}]}