{"type":"FeatureCollection","features":[{"type":"Feature","properties":{"PRECINCT":"denton:2004","COUNTY":"Denton"},"geometry":{"type":"Polygon","coordinates":[[[-96.89169,33.00566],[-96.89184,33.00231],[-96.89227,33.0015],[-96.89366,33.00018],[-96.89385,32.99897],[-96.89098,32.99902],[-96.89008,32.99928],[-96.88853,33.00016],[-96.88677,33.00027],[-96.887,32.99744],[-96.88974,32.99344],[-96.88996,32.98983],[-96.89062,32.98802],[-96.91,32.98835],[-96.9099,32.99888],[-96.89849,32.99891],[-96.89838,33.00443],[-96.89332,33.00438],[-96.89327,33.00562],[-96.89169,33.00566]]]}},{"type":"Feature","properties":{"PRECINCT":"denton:2005","COUNTY":"Denton"},"geometry":{"type":"Polygon","coordinates":[[[-96.90983,33.00261],[-96.908,33.00253],[-96.90597,33.00208],[-96.90396,33.00206],[-96.89995,33.00418],[-96.89838,33.00443],[-96.89849,32.99891],[-96.9099,32.99888],[-96.91,32.98835],[-96.92722,32.98854],[-96.92708,32.99726],[-96.92809,32.99746],[-96.92783,33.00454],[-96.91516,33.00459],[-96.9152,33.01232],[-96.91181,33.01228],[-96.91036,33.0092],[-96.90983,33.00261]]]}},{"type":"Feature","properties":{"PRECINCT":"denton:2006","COUNTY":"Denton"},"geometry":{"type":"Polygon","coordinates":[[[-96.91753,33.02735],[-96.91516,33.01861],[-96.91181,33.01228],[-96.9152,33.01232],[-96.91516,33.00459],[-96.92783,33.00454],[-96.92809,32.99746],[-96.92708,32.99726],[-96.92722,32.98854],[-96.94245,32.9888],[-96.94487,32.9893],[-96.94712,32.99083],[-96.94978,32.99113],[-96.94992,32.99177],[-96.94968,32.99229],[-96.94799,32.9942],[-96.94819,32.9943],[-96.94778,32.99471],[-96.94699,32.99492],[-96.94404,32.99451],[-96.94348,32.99512],[-96.94366,32.99642],[-96.9413,32.99701],[-96.94037,32.9976],[-96.93987,32.99824],[-96.93975,32.99885],[-96.94047,32.99978],[-96.94182,33.0004],[-96.94458,33.0011],[-96.94463,33.00199],[-96.94377,33.00237],[-96.94242,33.00205],[-96.94175,33.00231],[-96.93932,33.00253],[-96.93878,33.0038],[-96.93814,33.00397],[-96.93762,33.00458],[-96.937,33.00479],[-96.93706,33.00583],[-96.93595,33.00479],[-96.9355,33.0049],[-96.93539,33.00518],[-96.93596,33.00587],[-96.93482,33.00573],[-96.93506,33.00639],[-96.93492,33.00671],[-96.93387,33.00672],[-96.9336,33.00691],[-96.93387,33.00753],[-96.93351,33.00793],[-96.93357,33.00927],[-96.93274,33.00902],[-96.93217,33.00956],[-96.93232,33.00988],[-96.93332,33.01011],[-96.93357,33.01068],[-96.93339,33.01088],[-96.93261,33.01087],[-96.93201,33.01154],[-96.93138,33.01157],[-96.93027,33.01257],[-96.9291,33.01294],[-96.9269,33.01306],[-96.92683,33.01286],[-96.9273,33.0126],[-96.92701,33.01219],[-96.9261,33.0125],[-96.9258,33.0129],[-96.92599,33.01353],[-96.92569,33.01469],[-96.92682,33.01494],[-96.92696,33.01536],[-96.92674,33.01557],[-96.92641,33.01539],[-96.92613,33.0155],[-96.92589,33.01611],[-96.92604,33.01667],[-96.92532,33.0172],[-96.92447,33.01855],[-96.92298,33.01951],[-96.92202,33.02072],[-96.92153,33.02436],[-96.92113,33.02459],[-96.92037,33.02419],[-96.91974,33.02473],[-96.92021,33.02563],[-96.91886,33.02549],[-96.9191,33.02657],[-96.91753,33.02735]]]}},{"type":"Feature","properties":{"PRECINCT":"denton:2007","COUNTY":"Denton"},"geometry":{"type":"Polygon","coordinates":[[[-96.91856,33.03523],[-96.91012,33.03518],[-96.91013,33.03455],[-96.91098,33.03297],[-96.91111,33.03165],[-96.91224,33.03162],[-96.91234,33.03095],[-96.91474,33.03093],[-96.91483,33.03051],[-96.91554,33.03044],[-96.91548,33.02985],[-96.91599,33.02938],[-96.91656,33.02827],[-96.91817,33.02831],[-96.91791,33.02727],[-96.91768,33.02727],[-96.9191,33.02657],[-96.91886,33.02549],[-96.92014,33.0257],[-96.92025,33.0254],[-96.91974,33.02489],[-96.91989,33.02456],[-96.92037,33.02419],[-96.92113,33.02459],[-96.92153,33.02436],[-96.92202,33.02072],[-96.92298,33.01951],[-96.92447,33.01855],[-96.92532,33.0172],[-96.92604,33.01667],[-96.92589,33.01611],[-96.92613,33.0155],[-96.92641,33.01539],[-96.92674,33.01557],[-96.92696,33.01536],[-96.92682,33.01494],[-96.92569,33.01469],[-96.92599,33.01353],[-96.9258,33.0129],[-96.9261,33.0125],[-96.92701,33.01219],[-96.9273,33.0126],[-96.92683,33.01286],[-96.9269,33.01306],[-96.9291,33.01294],[-96.93027,33.01257],[-96.93138,33.01157],[-96.93201,33.01154],[-96.93261,33.01087],[-96.93339,33.01088],[-96.93357,33.01068],[-96.93332,33.01011],[-96.93232,33.00988],[-96.93217,33.00956],[-96.93274,33.00902],[-96.93357,33.00927],[-96.93351,33.00793],[-96.93387,33.00753],[-96.9336,33.00691],[-96.93387,33.00672],[-96.93492,33.00671],[-96.93506,33.00639],[-96.93482,33.00573],[-96.93596,33.00587],[-96.93538,33.00513],[-96.93572,33.00479],[-96.93713,33.0058],[-96.937,33.00479],[-96.93762,33.00458],[-96.9381,33.004],[-96.93899,33.00353],[-96.93968,33.00479],[-96.94029,33.0053],[-96.94173,33.00608],[-96.94309,33.0064],[-96.94571,33.00646],[-96.94973,33.00506],[-96.95039,33.00502],[-96.95096,33.00528],[-96.95127,33.0056],[-96.94267,33.0123],[-96.93902,33.0156],[-96.9234,33.03751],[-96.91854,33.03749],[-96.91856,33.03523]]]}},{"type":"Feature","properties":{"PRECINCT":"denton:2009","COUNTY":"Denton"},"geometry":{"type":"Polygon","coordinates":[[[-96.89825,33.01656],[-96.89788,33.01097],[-96.89857,33.00961],[-96.89823,33.00843],[-96.89838,33.00443],[-96.89995,33.00418],[-96.90396,33.00206],[-96.90597,33.00208],[-96.908,33.00253],[-96.90983,33.00252],[-96.91036,33.0092],[-96.91174,33.01215],[-96.90696,33.01239],[-96.90702,33.01662],[-96.89825,33.01656]]]}},{"type":"Feature","properties":{"PRECINCT":"denton:2010","COUNTY":"Denton"},"geometry":{"type":"Polygon","coordinates":[[[-96.85747,33.01904],[-96.85732,33.01169],[-96.88702,33.0117],[-96.887,33.0071],[-96.88569,33.00476],[-96.8857,33.00271],[-96.88669,33.00096],[-96.88677,33.00027],[-96.88853,33.00016],[-96.8905,32.99913],[-96.89385,32.99897],[-96.89366,33.00018],[-96.89227,33.0015],[-96.89184,33.00231],[-96.89169,33.00566],[-96.89327,33.00562],[-96.89332,33.00438],[-96.89838,33.00443],[-96.89823,33.00843],[-96.89857,33.00961],[-96.89787,33.01107],[-96.89827,33.01482],[-96.89174,33.01478],[-96.89175,33.01615],[-96.88692,33.01615],[-96.88695,33.01514],[-96.87457,33.0151],[-96.87452,33.01542],[-96.87372,33.01523],[-96.86598,33.01528],[-96.86591,33.019],[-96.85747,33.01904]]]}},{"type":"Feature","properties":{"PRECINCT":"denton:3008","COUNTY":"Denton"},"geometry":{"type":"Polygon","coordinates":[[[-97.04447,33.06538],[-97.04072,33.06518],[-97.03835,33.06368],[-97.03584,33.06361],[-97.03584,33.04909],[-97.0361,33.04221],[-97.04331,33.04233],[-97.04456,33.04219],[-97.04447,33.06538]]]}},{"type":"Feature","properties":{"PRECINCT":"denton:3009","COUNTY":"Denton"},"geometry":{"type":"Polygon","coordinates":[[[-97.03192,33.05669],[-97.03038,33.05607],[-97.02853,33.05397],[-97.02309,33.05118],[-97.02151,33.04969],[-97.02066,33.04746],[-97.02071,33.04201],[-97.0361,33.04221],[-97.03584,33.05673],[-97.03192,33.05669]]]}},{"type":"Feature","properties":{"PRECINCT":"denton:3010","COUNTY":"Denton"},"geometry":{"type":"Polygon","coordinates":[[[-97.02071,33.04201],[-97.0207,33.03878],[-97.02028,33.0381],[-97.01924,33.03737],[-97.01901,33.03681],[-97.01919,33.02769],[-97.01297,33.02764],[-97.01319,33.02557],[-97.01059,33.02555],[-97.01062,33.02182],[-97.0104,33.02102],[-97.00967,33.02034],[-97.00849,33.02005],[-97.00771,33.01955],[-97.005,33.0154],[-97.00487,33.01465],[-97.00634,33.01464],[-97.00766,33.01586],[-97.0086,33.01592],[-97.00868,33.01711],[-97.00908,33.0177],[-97.0085,33.01895],[-97.00961,33.01959],[-97.01005,33.01959],[-97.01097,33.01874],[-97.01093,33.01836],[-97.01031,33.01796],[-97.01033,33.01767],[-97.01269,33.01756],[-97.01373,33.01819],[-97.01425,33.01941],[-97.01468,33.01932],[-97.01489,33.01953],[-97.01511,33.02007],[-97.01484,33.02084],[-97.01593,33.02166],[-97.01808,33.02164],[-97.01847,33.02253],[-97.01937,33.0224],[-97.02107,33.02283],[-97.02197,33.02193],[-97.02297,33.02199],[-97.02504,33.0214],[-97.02563,33.02269],[-97.02645,33.0232],[-97.02852,33.02548],[-97.02877,33.02674],[-97.03069,33.02693],[-97.03201,33.02733],[-97.0337,33.02723],[-97.03526,33.02756],[-97.03595,33.02721],[-97.03611,33.02625],[-97.03646,33.02642],[-97.0361,33.04221],[-97.02071,33.04201]]]}},{"type":"Feature","properties":{"PRECINCT":"denton:3011","COUNTY":"Denton"},"geometry":{"type":"Polygon","coordinates":[[[-97.00563,33.04178],[-96.99104,33.0285],[-96.98793,33.02469],[-96.98809,33.02456],[-96.9907,33.0275],[-96.99281,33.02751],[-96.99298,33.02766],[-96.99306,33.01799],[-96.99444,33.01816],[-96.99552,33.01751],[-96.99637,33.0179],[-96.99654,33.01834],[-96.99892,33.01845],[-96.99932,33.01863],[-96.99979,33.02],[-96.99979,33.02151],[-97.0011,33.0215],[-97.00136,33.02303],[-97.0014,33.02763],[-97.01919,33.02769],[-97.01901,33.03681],[-97.01924,33.03737],[-97.02028,33.0381],[-97.0207,33.03878],[-97.02071,33.04201],[-97.01945,33.04208],[-97.01773,33.0426],[-97.01093,33.04615],[-97.00854,33.04633],[-97.00745,33.04416],[-97.00563,33.04178]]]}},{"type":"Feature","properties":{"PRECINCT":"denton:3012","COUNTY":"Denton"},"geometry":{"type":"Polygon","coordinates":[[[-97.03399,33.02726],[-97.03201,33.02733],[-97.03069,33.02693],[-97.02877,33.02674],[-97.0286,33.02559],[-97.02783,33.02485],[-97.02797,33.01975],[-97.0273,33.0167],[-97.02737,33.01473],[-97.02768,33.0135],[-97.03358,33.01347],[-97.03354,33.01689],[-97.03542,33.01689],[-97.03539,33.02076],[-97.03685,33.02076],[-97.03646,33.02642],[-97.03611,33.02625],[-97.03598,33.02717],[-97.03563,33.02749],[-97.03399,33.02726]]]}},{"type":"Feature","properties":{"PRECINCT":"denton:3013","COUNTY":"Denton"},"geometry":{"type":"Polygon","coordinates":[[[-97.02496,33.02137],[-97.02297,33.02199],[-97.02197,33.02193],[-97.02107,33.02283],[-97.01926,33.02239],[-97.01937,33.00604],[-97.01575,33.00581],[-97.01596,32.99128],[-97.01659,32.99132],[-97.01666,32.98949],[-97.02078,32.98954],[-97.02081,32.99005],[-97.02037,32.99085],[-97.02064,32.99117],[-97.02141,32.99119],[-97.02197,32.99145],[-97.02209,32.99225],[-97.02166,32.99321],[-97.0223,32.99364],[-97.0233,32.99347],[-97.02402,32.99269],[-97.02405,32.99164],[-97.02517,32.98958],[-97.02834,32.98961],[-97.02834,32.99891],[-97.02787,32.99896],[-97.02778,32.99918],[-97.02768,33.0135],[-97.02737,33.01473],[-97.0273,33.0167],[-97.02797,33.01975],[-97.02783,33.02485],[-97.02645,33.0232],[-97.02563,33.02269],[-97.02496,33.02137]]]}},{"type":"Feature","properties":{"PRECINCT":"denton:3014","COUNTY":"Denton"},"geometry":{"type":"Polygon","coordinates":[[[-97.01808,33.02164],[-97.01589,33.02164],[-97.01478,33.02078],[-97.01511,33.02007],[-97.0148,33.0194],[-97.01425,33.01941],[-97.01373,33.01819],[-97.01269,33.01756],[-97.01033,33.01767],[-97.01031,33.01796],[-97.01093,33.01836],[-97.01097,33.01874],[-97.01005,33.01959],[-97.00952,33.01955],[-97.0085,33.01895],[-97.00908,33.0177],[-97.00868,33.01711],[-97.0086,33.01592],[-97.00766,33.01586],[-97.00634,33.01464],[-97.00487,33.01465],[-97.00491,33.01019],[-97.007,33.01054],[-97.00741,33.00975],[-97.00729,33.00849],[-97.00809,33.00851],[-97.00807,33.0075],[-97.01015,33.0075],[-97.01017,33.00678],[-97.00925,33.00678],[-97.00925,33.00482],[-97.01036,33.00494],[-97.01298,33.00578],[-97.01788,33.00584],[-97.01937,33.00604],[-97.01926,33.02239],[-97.01844,33.02251],[-97.01808,33.02164]]]}},{"type":"Feature","properties":{"PRECINCT":"denton:3015","COUNTY":"Denton"},"geometry":{"type":"Polygon","coordinates":[[[-97.01297,33.02764],[-97.0014,33.02763],[-97.00136,33.02303],[-97.0011,33.0215],[-96.99979,33.02151],[-96.99979,33.02],[-96.99932,33.01863],[-96.99892,33.01845],[-96.99654,33.01834],[-96.99637,33.0179],[-96.99552,33.01751],[-96.99444,33.01816],[-96.99306,33.01799],[-96.99312,33.01206],[-96.99399,33.01198],[-96.99492,33.01157],[-96.99626,33.01006],[-96.99689,33.00985],[-97.00491,33.01019],[-97.005,33.0154],[-97.00771,33.01955],[-97.00849,33.02005],[-97.00967,33.02034],[-97.0104,33.02102],[-97.01062,33.02182],[-97.01059,33.02555],[-97.01319,33.02557],[-97.01297,33.02764]]]}},{"type":"Feature","properties":{"PRECINCT":"denton:3016","COUNTY":"Denton"},"geometry":{"type":"Polygon","coordinates":[[[-96.99312,33.01206],[-96.99328,33.00317],[-96.99381,33.00176],[-96.99523,32.99999],[-97.00196,32.99627],[-97.01058,32.98943],[-97.01666,32.98949],[-97.01659,32.99132],[-97.01596,32.99128],[-97.01575,33.00581],[-97.01298,33.00578],[-97.01036,33.00494],[-97.00925,33.00482],[-97.00925,33.00678],[-97.01017,33.00678],[-97.01015,33.0075],[-97.00807,33.0075],[-97.00809,33.00851],[-97.00729,33.00849],[-97.00741,33.00975],[-97.007,33.01054],[-97.00549,33.01017],[-97.00321,33.01],[-96.99689,33.00985],[-96.99626,33.01006],[-96.99492,33.01157],[-96.99399,33.01198],[-96.99312,33.01206]]]}},{"type":"Feature","properties":{"PRECINCT":"denton:3017","COUNTY":"Denton"},"geometry":{"type":"Polygon","coordinates":[[[-96.99298,33.02766],[-96.99281,33.02751],[-96.9907,33.0275],[-96.98809,33.02456],[-96.98791,33.02466],[-96.97789,33.01142],[-96.97543,33.00922],[-96.97189,33.00689],[-96.97338,33.00531],[-96.97537,33.00465],[-96.9841,33.00459],[-96.98791,33.00345],[-96.99323,33.00348],[-96.99298,33.02766]]]}},{"type":"Feature","properties":{"PRECINCT":"denton:3018","COUNTY":"Denton"},"geometry":{"type":"Polygon","coordinates":[[[-96.98579,33.04633],[-96.98469,33.04337],[-96.98367,33.04167],[-96.98386,33.04156],[-96.97863,33.03355],[-96.97305,33.02735],[-96.97593,33.02729],[-96.97594,33.02536],[-96.97565,33.02443],[-96.97333,33.02169],[-96.97434,33.0212],[-96.97693,33.02081],[-96.97819,33.02041],[-96.98287,33.01791],[-96.99009,33.02753],[-97.00563,33.04178],[-97.00745,33.04416],[-97.00854,33.04633],[-96.98579,33.04633]]]}},{"type":"Feature","properties":{"PRECINCT":"denton:3019","COUNTY":"Denton"},"geometry":{"type":"Polygon","coordinates":[[[-96.972,33.00675],[-96.94849,32.99365],[-96.94968,32.99229],[-96.94992,32.99144],[-96.94955,32.99099],[-96.9484,32.99087],[-96.95303,32.99065],[-96.95339,32.99529],[-96.9554,32.99545],[-96.95924,32.99543],[-96.95866,32.98901],[-96.96667,32.98908],[-96.96667,32.98974],[-96.96842,32.99086],[-96.97238,32.99097],[-96.97392,32.99061],[-96.97453,32.99209],[-96.97707,32.99108],[-96.98007,32.9892],[-96.99311,32.98932],[-96.9934,32.98944],[-96.99334,32.99339],[-97.00581,32.99325],[-97.00196,32.99627],[-96.99538,32.99986],[-96.99381,33.00176],[-96.99323,33.00348],[-96.98753,33.00349],[-96.9841,33.00459],[-96.97515,33.00466],[-96.97338,33.00531],[-96.972,33.00675]]]}},{"type":"Feature","properties":{"PRECINCT":"denton:3022","COUNTY":"Denton"},"geometry":{"type":"Polygon","coordinates":[[[-96.97453,32.99209],[-96.97392,32.99061],[-96.97238,32.99097],[-96.96842,32.99086],[-96.96667,32.98974],[-96.96667,32.98908],[-96.98007,32.9892],[-96.97629,32.99146],[-96.97453,32.99209]]]}},{"type":"Feature","properties":{"PRECINCT":"denton:3023","COUNTY":"Denton"},"geometry":{"type":"Polygon","coordinates":[[[-96.99334,32.99339],[-96.9934,32.98944],[-96.99311,32.98932],[-97.01058,32.98943],[-97.00581,32.99325],[-97.00534,32.99329],[-96.99334,32.99339]]]}},{"type":"Feature","properties":{"PRECINCT":"denton:3024","COUNTY":"Denton"},"geometry":{"type":"Polygon","coordinates":[[[-97.07071,33.01374],[-97.04933,33.01368],[-97.04812,33.01328],[-97.04708,33.01251],[-97.04543,33.01074],[-97.04379,33.01009],[-97.02877,33.00984],[-97.02764,33.00967],[-97.02778,32.99918],[-97.02787,32.99896],[-97.02834,32.99891],[-97.02834,32.98961],[-97.0618,32.9899],[-97.0653,32.99747],[-97.0663,32.9985],[-97.06849,32.9998],[-97.06964,33.00138],[-97.07077,33.00502],[-97.07071,33.01374]]]}},{"type":"Feature","properties":{"PRECINCT":"denton:3025","COUNTY":"Denton"},"geometry":{"type":"Polygon","coordinates":[[[-97.0717,33.01373],[-97.07071,33.01374],[-97.07077,33.00502],[-97.06964,33.00138],[-97.06849,32.9998],[-97.0663,32.9985],[-97.0653,32.99747],[-97.0618,32.9899],[-97.08645,32.99006],[-97.08639,32.992],[-97.08562,32.9917],[-97.0868,32.99406],[-97.08858,32.99876],[-97.08842,33.01385],[-97.07747,33.0138],[-97.07671,33.01402],[-97.07438,33.01539],[-97.07337,33.01429],[-97.0717,33.01373]]]}},{"type":"Feature","properties":{"PRECINCT":"denton:3026","COUNTY":"Denton"},"geometry":{"type":"Polygon","coordinates":[[[-97.043,33.02077],[-97.03539,33.02076],[-97.03542,33.01689],[-97.03354,33.01689],[-97.03358,33.01347],[-97.02768,33.0135],[-97.02764,33.00967],[-97.02877,33.00984],[-97.04326,33.01003],[-97.04456,33.01029],[-97.04506,33.01051],[-97.04506,33.01246],[-97.04539,33.0137],[-97.04695,33.01551],[-97.04865,33.01631],[-97.05362,33.01772],[-97.05518,33.01886],[-97.05372,33.01968],[-97.05239,33.01993],[-97.04771,33.01877],[-97.04677,33.01873],[-97.04561,33.01914],[-97.04399,33.02041],[-97.043,33.02077]]]}},{"type":"Feature","properties":{"PRECINCT":"denton:3027","COUNTY":"Denton"},"geometry":{"type":"Polygon","coordinates":[[[-97.04539,33.0137],[-97.04506,33.01246],[-97.04506,33.01051],[-97.04763,33.01299],[-97.04933,33.01368],[-97.07071,33.01374],[-97.07074,33.02687],[-97.07057,33.03421],[-97.07027,33.03594],[-97.06214,33.03431],[-97.06235,33.03323],[-97.06225,33.03163],[-97.063,33.02935],[-97.06241,33.02754],[-97.06082,33.02628],[-97.05739,33.02546],[-97.05631,33.02463],[-97.0559,33.02345],[-97.05586,33.02025],[-97.05557,33.01944],[-97.05476,33.01843],[-97.05345,33.01765],[-97.04747,33.01583],[-97.04602,33.01466],[-97.04539,33.0137]]]}},{"type":"Feature","properties":{"PRECINCT":"denton:3028","COUNTY":"Denton"},"geometry":{"type":"Polygon","coordinates":[[[-97.04412,33.04223],[-97.0361,33.04221],[-97.03631,33.02801],[-97.03685,33.02076],[-97.04315,33.02074],[-97.04399,33.02041],[-97.04561,33.01914],[-97.04677,33.01873],[-97.04771,33.01877],[-97.05239,33.01993],[-97.05372,33.01968],[-97.05518,33.01886],[-97.05586,33.02025],[-97.0559,33.02345],[-97.05631,33.02463],[-97.05739,33.02546],[-97.06112,33.02643],[-97.06207,33.02714],[-97.06274,33.02809],[-97.06299,33.02956],[-97.06225,33.03163],[-97.06235,33.03323],[-97.06214,33.03431],[-97.06078,33.03416],[-97.0574,33.03447],[-97.05405,33.03571],[-97.04533,33.04173],[-97.04412,33.04223]]]}},{"type":"Feature","properties":{"PRECINCT":"denton:3029","COUNTY":"Denton"},"geometry":{"type":"Polygon","coordinates":[[[-97.05888,33.0522],[-97.05785,33.05191],[-97.0545,33.05002],[-97.04584,33.04984],[-97.04453,33.04964],[-97.04453,33.0421],[-97.05405,33.03571],[-97.05725,33.0345],[-97.06114,33.03417],[-97.06214,33.03431],[-97.06196,33.05228],[-97.05888,33.0522]]]}},{"type":"Feature","properties":{"PRECINCT":"denton:3030","COUNTY":"Denton"},"geometry":{"type":"Polygon","coordinates":[[[-97.04459,33.06042],[-97.04453,33.04964],[-97.04584,33.04984],[-97.0541,33.04995],[-97.05521,33.05032],[-97.05827,33.05208],[-97.06196,33.05228],[-97.06185,33.06073],[-97.04459,33.06042]]]}},{"type":"Feature","properties":{"PRECINCT":"denton:3032","COUNTY":"Denton"},"geometry":{"type":"Polygon","coordinates":[[[-96.96113,33.0428],[-96.9631,33.03998],[-96.96313,33.03926],[-96.96256,33.03772],[-96.9611,33.03593],[-96.96064,33.03495],[-96.96062,33.0343],[-96.96113,33.03359],[-96.96299,33.0327],[-96.96318,33.03196],[-96.96288,33.03154],[-96.96161,33.03107],[-96.96044,33.03127],[-96.95919,33.03181],[-96.95889,33.03182],[-96.9583,33.03133],[-96.95873,33.03004],[-96.96037,33.02809],[-96.96046,33.02742],[-96.96007,33.0265],[-96.95843,33.02593],[-96.95657,33.02615],[-96.95085,33.02454],[-96.94792,33.02503],[-96.94663,33.0256],[-96.94561,33.02651],[-96.94487,33.02647],[-96.94431,33.02584],[-96.94491,33.02315],[-96.94419,33.0211],[-96.94478,33.01953],[-96.94592,33.01818],[-96.94653,33.01788],[-96.94835,33.01795],[-96.9493,33.01849],[-96.94989,33.01829],[-96.95001,33.01695],[-96.95079,33.01539],[-96.95099,33.01418],[-96.95062,33.01306],[-96.9492,33.01118],[-96.94894,33.01014],[-96.94968,33.00845],[-96.95126,33.00719],[-96.95158,33.00655],[-96.95119,33.00549],[-96.95025,33.005],[-96.94571,33.00646],[-96.9424,33.00628],[-96.94029,33.0053],[-96.93914,33.00395],[-96.93901,33.00306],[-96.93942,33.00249],[-96.94175,33.00231],[-96.94242,33.00205],[-96.94377,33.00237],[-96.94463,33.00199],[-96.94458,33.0011],[-96.94089,33.00004],[-96.94027,32.99961],[-96.93974,32.99876],[-96.93999,32.99801],[-96.94077,32.99728],[-96.94366,32.99642],[-96.94348,32.99512],[-96.94419,32.99446],[-96.94741,32.99488],[-96.94819,32.9943],[-96.94799,32.9942],[-96.94849,32.99365],[-96.972,33.00675],[-96.97189,33.00689],[-96.97622,33.00983],[-96.97772,33.01124],[-96.98287,33.01791],[-96.97819,33.02041],[-96.97693,33.02081],[-96.97434,33.0212],[-96.97333,33.02169],[-96.97565,33.02443],[-96.97594,33.02536],[-96.97593,33.02729],[-96.97305,33.02735],[-96.97831,33.03309],[-96.98386,33.04156],[-96.9832,33.04192],[-96.98015,33.04188],[-96.98108,33.04304],[-96.97831,33.04379],[-96.96173,33.04581],[-96.96086,33.04369],[-96.96113,33.0428]]]}},{"type":"Feature","properties":{"PRECINCT":"denton:3033","COUNTY":"Denton"},"geometry":{"type":"Polygon","coordinates":[[[-97.06213,33.03444],[-97.06358,33.03456],[-97.07027,33.03594],[-97.06942,33.03839],[-97.06941,33.04723],[-97.07008,33.04851],[-97.07287,33.05088],[-97.07399,33.05223],[-97.07523,33.05525],[-97.07524,33.05916],[-97.06185,33.05908],[-97.06213,33.03444]]]}},{"type":"Feature","properties":{"PRECINCT":"denton:3098","COUNTY":"Denton"},"geometry":{"type":"Polygon","coordinates":[[[-97.02189,32.99136],[-97.02073,32.9912],[-97.02037,32.99085],[-97.02081,32.99005],[-97.02078,32.98954],[-97.02517,32.98958],[-97.02405,32.99164],[-97.02406,32.99262],[-97.02316,32.99353],[-97.0223,32.99364],[-97.0218,32.99346],[-97.02165,32.99289],[-97.02209,32.99225],[-97.02209,32.9917],[-97.02189,32.99136]]]}},{"type":"Feature","properties":{"PRECINCT":"denton:3099","COUNTY":"Denton"},"geometry":{"type":"Polygon","coordinates":[[[-96.95339,32.99529],[-96.95303,32.99065],[-96.94712,32.99083],[-96.94487,32.9893],[-96.94245,32.9888],[-96.95866,32.98901],[-96.95924,32.99543],[-96.95339,32.99529]]]}},{"type":"Feature","properties":{"PRECINCT":"denton:4024","COUNTY":"Denton"},"geometry":{"type":"Polygon","coordinates":[[[-97.08415,33.0536],[-97.0838,33.05315],[-97.08402,33.05297],[-97.08392,33.05276],[-97.08306,33.05193],[-97.08248,33.05173],[-97.08147,33.05199],[-97.08017,33.05175],[-97.07991,33.05106],[-97.07836,33.05059],[-97.07678,33.05087],[-97.0756,33.05056],[-97.07475,33.05076],[-97.07287,33.04995],[-97.07193,33.0501],[-97.06976,33.0481],[-97.06936,33.04692],[-97.06941,33.03867],[-97.06959,33.03746],[-97.07027,33.03594],[-97.07349,33.03665],[-97.07644,33.03688],[-97.07745,33.03719],[-97.07829,33.03787],[-97.08026,33.04061],[-97.08198,33.0415],[-97.09472,33.04156],[-97.09448,33.04304],[-97.09312,33.04697],[-97.09305,33.05096],[-97.09185,33.05067],[-97.09151,33.05082],[-97.09027,33.05036],[-97.08997,33.04982],[-97.08954,33.04978],[-97.08786,33.05121],[-97.08752,33.05107],[-97.0874,33.05157],[-97.08654,33.05211],[-97.08618,33.05282],[-97.08508,33.05359],[-97.08415,33.0536]]]}},{"type":"Feature","properties":{"PRECINCT":"denton:4025","COUNTY":"Denton"},"geometry":{"type":"Polygon","coordinates":[[[-97.08198,33.0415],[-97.08026,33.04061],[-97.07829,33.03787],[-97.07745,33.03719],[-97.07644,33.03688],[-97.07349,33.03665],[-97.07027,33.03594],[-97.07057,33.03421],[-97.07074,33.02687],[-97.07071,33.01374],[-97.07256,33.01388],[-97.07376,33.01461],[-97.07438,33.01539],[-97.07675,33.02032],[-97.07803,33.02116],[-97.08101,33.02143],[-97.08235,33.02201],[-97.08322,33.02288],[-97.08441,33.02523],[-97.08525,33.02611],[-97.08694,33.02668],[-97.0908,33.02671],[-97.09069,33.02917],[-97.0909,33.03018],[-97.09149,33.03103],[-97.09352,33.0328],[-97.09428,33.03392],[-97.09457,33.03512],[-97.09472,33.04156],[-97.08198,33.0415]]]}},{"type":"Feature","properties":{"PRECINCT":"denton:4026","COUNTY":"Denton"},"geometry":{"type":"Polygon","coordinates":[[[-97.08171,33.02165],[-97.07803,33.02116],[-97.07675,33.02032],[-97.07438,33.01539],[-97.07671,33.01402],[-97.07747,33.0138],[-97.08842,33.01385],[-97.08836,33.02197],[-97.08893,33.02331],[-97.09055,33.025],[-97.0908,33.02671],[-97.08694,33.02668],[-97.08569,33.02635],[-97.08457,33.02549],[-97.08272,33.0223],[-97.08171,33.02165]]]}},{"type":"Feature","properties":{"PRECINCT":"denton:4027","COUNTY":"Denton"},"geometry":{"type":"Polygon","coordinates":[[[-97.09769,33.04155],[-97.09472,33.04156],[-97.0944,33.03422],[-97.09352,33.0328],[-97.09149,33.03103],[-97.0909,33.03018],[-97.09069,33.02917],[-97.09074,33.02544],[-97.09026,33.02458],[-97.08893,33.02331],[-97.08843,33.02235],[-97.08858,32.99876],[-97.0868,32.99406],[-97.08562,32.9917],[-97.08639,32.992],[-97.08645,32.99006],[-97.08816,32.99007],[-97.10552,32.99595],[-97.10485,32.99886],[-97.10595,32.99916],[-97.10542,33.0003],[-97.10542,33.00094],[-97.10649,33.00109],[-97.1078,33.00276],[-97.10816,33.00372],[-97.1087,33.00397],[-97.10829,33.00443],[-97.10783,33.00445],[-97.10726,33.00516],[-97.10816,33.00614],[-97.10838,33.0073],[-97.10791,33.00823],[-97.1085,33.00882],[-97.10854,33.01022],[-97.10925,33.01106],[-97.11004,33.01129],[-97.10924,33.01149],[-97.10972,33.01166],[-97.11034,33.01233],[-97.11028,33.01249],[-97.10996,33.01242],[-97.10959,33.01185],[-97.10884,33.01158],[-97.10866,33.01198],[-97.10763,33.0125],[-97.10644,33.01394],[-97.10793,33.01509],[-97.10809,33.01649],[-97.10732,33.01688],[-97.10756,33.01746],[-97.10734,33.01798],[-97.10769,33.01947],[-97.10872,33.02103],[-97.10852,33.0212],[-97.10596,33.02136],[-97.1058,33.02802],[-97.10529,33.02961],[-97.10509,33.03609],[-97.10577,33.03939],[-97.10916,33.03942],[-97.10962,33.03968],[-97.1098,33.04669],[-97.10449,33.0455],[-97.09939,33.04201],[-97.09769,33.04155]]]}},{"type":"Feature","properties":{"PRECINCT":"denton:4028","COUNTY":"Denton"},"geometry":{"type":"Polygon","coordinates":[[[-97.15996,33.07201],[-97.16002,33.06757],[-97.16116,33.06756],[-97.16116,33.06457],[-97.15727,33.06455],[-97.1572,33.06154],[-97.15251,33.06149],[-97.15257,33.05952],[-97.16054,33.05948],[-97.16056,33.05372],[-97.15657,33.05364],[-97.15666,33.05471],[-97.15171,33.05466],[-97.15171,33.05452],[-97.15042,33.05443],[-97.14619,33.05453],[-97.14615,33.05522],[-97.14297,33.05517],[-97.13979,33.05634],[-97.13921,33.05669],[-97.13904,33.05803],[-97.132,33.058],[-97.1311,33.05909],[-97.12939,33.05833],[-97.12887,33.05752],[-97.12901,33.05111],[-97.1245,33.05116],[-97.11938,33.05091],[-97.11941,33.0545],[-97.11476,33.05462],[-97.11475,33.05479],[-97.10969,33.05473],[-97.10962,33.03968],[-97.10916,33.03942],[-97.10577,33.03939],[-97.10509,33.03589],[-97.10529,33.02961],[-97.1058,33.02802],[-97.10596,33.02136],[-97.10852,33.0212],[-97.10872,33.02103],[-97.10769,33.01947],[-97.10734,33.01798],[-97.10756,33.01746],[-97.10732,33.01688],[-97.10809,33.01649],[-97.10793,33.01509],[-97.10644,33.01394],[-97.10763,33.0125],[-97.10866,33.01198],[-97.10884,33.01158],[-97.10959,33.01185],[-97.10996,33.01242],[-97.11028,33.01249],[-97.11034,33.01233],[-97.10972,33.01166],[-97.10924,33.01149],[-97.11004,33.01129],[-97.10925,33.01106],[-97.10854,33.01022],[-97.1085,33.00882],[-97.10791,33.00823],[-97.10838,33.0073],[-97.10816,33.00614],[-97.10726,33.00516],[-97.10783,33.00445],[-97.10864,33.00418],[-97.10868,33.0039],[-97.10816,33.00372],[-97.1078,33.00276],[-97.10649,33.00109],[-97.10542,33.00094],[-97.10542,33.0003],[-97.10595,32.99916],[-97.10485,32.99886],[-97.10552,32.99595],[-97.11762,33.00082],[-97.12576,33.00311],[-97.17092,33.02904],[-97.17196,33.03081],[-97.17195,33.03171],[-97.1727,33.03321],[-97.17554,33.03605],[-97.17615,33.03693],[-97.17729,33.0378],[-97.1781,33.03812],[-97.18004,33.03799],[-97.18024,33.03878],[-97.1811,33.03906],[-97.18123,33.03878],[-97.18146,33.03881],[-97.18174,33.03793],[-97.1821,33.03807],[-97.18164,33.04112],[-97.18207,33.04176],[-97.18216,33.04247],[-97.18052,33.04249],[-97.17995,33.0428],[-97.17978,33.0433],[-97.18103,33.04355],[-97.18125,33.04439],[-97.18092,33.04507],[-97.18176,33.04628],[-97.18107,33.04683],[-97.18049,33.04816],[-97.1814,33.04894],[-97.18096,33.04922],[-97.18047,33.04923],[-97.18028,33.04974],[-97.18187,33.05007],[-97.18278,33.05071],[-97.18308,33.05247],[-97.18336,33.05285],[-97.18291,33.05349],[-97.1825,33.0533],[-97.1818,33.05361],[-97.18228,33.05447],[-97.18191,33.05483],[-97.18174,33.05556],[-97.18102,33.05607],[-97.18044,33.05706],[-97.17976,33.05754],[-97.17949,33.05865],[-97.17852,33.05948],[-97.17743,33.0609],[-97.17767,33.06154],[-97.17706,33.06276],[-97.17838,33.06251],[-97.17824,33.06339],[-97.1786,33.06377],[-97.17799,33.0644],[-97.17923,33.06515],[-97.17819,33.06575],[-97.17854,33.06635],[-97.17834,33.06702],[-97.17874,33.06743],[-97.17848,33.06777],[-97.17872,33.06808],[-97.17854,33.06829],[-97.17909,33.0688],[-97.17808,33.06882],[-97.17806,33.06769],[-97.1727,33.06764],[-97.17263,33.07211],[-97.15996,33.07201]]]}},{"type":"Feature","properties":{"PRECINCT":"denton:4030","COUNTY":"Denton"},"geometry":{"type":"Polygon","coordinates":[[[-97.13024,32.99034],[-97.16726,32.99056],[-97.16717,33.01075],[-97.15771,33.01062],[-97.13355,32.9995],[-97.13359,32.992],[-97.13024,32.99034]]]}},{"type":"Feature","properties":{"PRECINCT":"denton:4031","COUNTY":"Denton"},"geometry":{"type":"Polygon","coordinates":[[[-97.15122,33.01772],[-97.12576,33.00311],[-97.11762,33.00082],[-97.10841,32.997],[-97.08816,32.99007],[-97.13024,32.99034],[-97.13359,32.992],[-97.13355,32.9995],[-97.15771,33.01062],[-97.16717,33.01075],[-97.16726,32.99056],[-97.18381,32.99067],[-97.19193,32.99301],[-97.20454,32.99719],[-97.20414,32.99757],[-97.20432,32.9982],[-97.20383,32.99933],[-97.20357,32.9997],[-97.20245,33.00033],[-97.20293,33.00166],[-97.20184,33.00241],[-97.20107,33.00351],[-97.19961,33.00375],[-97.19916,33.00348],[-97.19838,33.00382],[-97.19759,33.00369],[-97.19712,33.00326],[-97.19691,33.00254],[-97.19662,33.00244],[-97.19629,33.00295],[-97.19479,33.00411],[-97.19381,33.00412],[-97.19298,33.00482],[-97.19098,33.00485],[-97.19046,33.0045],[-97.18882,33.00409],[-97.18836,33.00437],[-97.18675,33.0045],[-97.18666,33.00472],[-97.18735,33.00524],[-97.18737,33.0056],[-97.18688,33.00579],[-97.18667,33.00624],[-97.18558,33.0064],[-97.18539,33.00672],[-97.18428,33.00731],[-97.18375,33.00796],[-97.18392,33.00841],[-97.18348,33.00914],[-97.18394,33.00957],[-97.18343,33.01046],[-97.18237,33.01116],[-97.18048,33.01188],[-97.17973,33.01247],[-97.17934,33.01228],[-97.17936,33.01175],[-97.17908,33.01149],[-97.17766,33.01093],[-97.17639,33.01173],[-97.17549,33.01163],[-97.17479,33.01125],[-97.17436,33.01208],[-97.17394,33.01232],[-97.1735,33.01221],[-97.17332,33.01174],[-97.17238,33.01175],[-97.172,33.01154],[-97.17105,33.01191],[-97.17046,33.01174],[-97.16964,33.01197],[-97.16965,33.01251],[-97.1704,33.01282],[-97.17001,33.01391],[-97.16952,33.01465],[-97.16833,33.01514],[-97.16915,33.01664],[-97.16903,33.01745],[-97.16783,33.01783],[-97.16588,33.01759],[-97.16473,33.0172],[-97.15468,33.01649],[-97.15345,33.01666],[-97.15122,33.01772]]]}},{"type":"Feature","properties":{"PRECINCT":"denton:4032","COUNTY":"Denton"},"geometry":{"type":"Polygon","coordinates":[[[-97.17175,33.0295],[-97.15122,33.01772],[-97.15345,33.01666],[-97.15468,33.01649],[-97.16473,33.0172],[-97.16588,33.01759],[-97.16783,33.01783],[-97.16903,33.01745],[-97.16915,33.01664],[-97.16833,33.01514],[-97.16952,33.01465],[-97.17001,33.01391],[-97.1704,33.01282],[-97.16965,33.01251],[-97.16964,33.01197],[-97.17046,33.01174],[-97.17105,33.01191],[-97.172,33.01154],[-97.17238,33.01175],[-97.17332,33.01174],[-97.1735,33.01221],[-97.17394,33.01232],[-97.17436,33.01208],[-97.17479,33.01125],[-97.17549,33.01163],[-97.17639,33.01173],[-97.17766,33.01093],[-97.17908,33.01149],[-97.17936,33.01175],[-97.17934,33.01228],[-97.17973,33.01247],[-97.18048,33.01188],[-97.18237,33.01116],[-97.18343,33.01046],[-97.18394,33.00957],[-97.18348,33.00914],[-97.18392,33.00841],[-97.18375,33.00796],[-97.18428,33.00731],[-97.18539,33.00672],[-97.18558,33.0064],[-97.18667,33.00624],[-97.18688,33.00579],[-97.18737,33.0056],[-97.18735,33.00524],[-97.18666,33.00472],[-97.18675,33.0045],[-97.18836,33.00437],[-97.18882,33.00409],[-97.19046,33.0045],[-97.19098,33.00485],[-97.19298,33.00482],[-97.19381,33.00412],[-97.19479,33.00411],[-97.19629,33.00295],[-97.19662,33.00244],[-97.19691,33.00254],[-97.19712,33.00326],[-97.19759,33.00369],[-97.19838,33.00382],[-97.19916,33.00348],[-97.19961,33.00375],[-97.20107,33.00351],[-97.20184,33.00241],[-97.20293,33.00166],[-97.20245,33.00033],[-97.20357,32.9997],[-97.20383,32.99933],[-97.20432,32.9982],[-97.20414,32.99757],[-97.20454,32.99719],[-97.19193,32.99301],[-97.19198,32.99292],[-97.21701,33.00115],[-97.21729,33.00449],[-97.21742,33.00425],[-97.21743,33.00801],[-97.20829,33.00811],[-97.20838,33.01525],[-97.20641,33.01524],[-97.20631,33.02127],[-97.20434,33.02124],[-97.20435,33.02375],[-97.19927,33.02384],[-97.19609,33.02362],[-97.19638,33.02316],[-97.19532,33.02267],[-97.19504,33.02273],[-97.19392,33.02417],[-97.19231,33.02459],[-97.19137,33.02402],[-97.1906,33.02251],[-97.19003,33.02219],[-97.18815,33.0219],[-97.1879,33.02202],[-97.18781,33.02294],[-97.18733,33.02396],[-97.1869,33.02438],[-97.18568,33.02486],[-97.18318,33.02513],[-97.18303,33.02566],[-97.18368,33.02606],[-97.18396,33.02663],[-97.18373,33.02761],[-97.18317,33.02778],[-97.18231,33.02753],[-97.18087,33.02645],[-97.18027,33.02664],[-97.18034,33.03299],[-97.1771,33.03294],[-97.17276,33.03048],[-97.17175,33.0295]]]}},{"type":"Feature","properties":{"PRECINCT":"denton:4033","COUNTY":"Denton"},"geometry":{"type":"Polygon","coordinates":[[[-97.25708,33.02307],[-97.24806,33.02],[-97.24663,33.02043],[-97.237,33.01669],[-97.22536,33.0146],[-97.22304,33.01373],[-97.22136,33.01271],[-97.22063,33.013],[-97.21915,33.01522],[-97.20838,33.01525],[-97.20829,33.00811],[-97.21743,33.00801],[-97.21742,33.00425],[-97.21729,33.00449],[-97.21701,33.00115],[-97.19198,32.99292],[-97.18381,32.99067],[-97.25416,32.99105],[-97.25435,32.99291],[-97.24952,32.99285],[-97.24945,32.99886],[-97.2508,32.99981],[-97.24966,33.0008],[-97.24911,33.00188],[-97.24892,33.00787],[-97.25257,33.0079],[-97.25359,33.00737],[-97.25636,33.008],[-97.2539,33.00798],[-97.2537,33.01547],[-97.25819,33.0155],[-97.25811,33.02121],[-97.25802,33.02173],[-97.25802,33.02157],[-97.25708,33.02307]]]}}]}