{"type":"FeatureCollection","features":[{"type":"Feature","properties":{"PRECINCT":"101","VTD":"0101"},"geometry":{"type":"Polygon","coordinates":[[[-95.883162,32.89802],[-95.882831,32.83836],[-95.850674,32.838202],[-95.850536,32.855922],[-95.850212,32.857511],[-95.850528,32.858355],[-95.850492,32.868251],[-95.85047,32.868969],[-95.850173,32.869193],[-95.82817,32.869182],[-95.828503,32.863714],[-95.830047,32.86207],[-95.830781,32.860698],[-95.831986,32.860106],[-95.834196,32.860025],[-95.834289,32.856157],[-95.833803,32.849373],[-95.822142,32.849283],[-95.820796,32.849688],[-95.816654,32.849696],[-95.816518,32.851177],[-95.813931,32.852655],[-95.813846,32.853295],[-95.811919,32.856026],[-95.811642,32.860144],[-95.804942,32.860293],[-95.804665,32.860449],[-95.804309,32.861652],[-95.803725,32.862101],[-95.802925,32.862322],[-95.782508,32.862492],[-95.781548,32.862972],[-95.774326,32.863272],[-95.771629,32.868637],[-95.773462,32.868476],[-95.773502,32.869255],[-95.7757,32.869231],[-95.775826,32.871571],[-95.773584,32.871716],[-95.768584,32.871896],[-95.767918,32.871245],[-95.768114,32.870965],[-95.767912,32.87048],[-95.768205,32.869904],[-95.76797,32.868845],[-95.7632,32.869197],[-95.755746,32.867382],[-95.755752,32.867773],[-95.748057,32.863463],[-95.728818,32.854875],[-95.729137,32.833565],[-95.729715,32.832082],[-95.731135,32.830798],[-95.731862,32.829729],[-95.732081,32.826518],[-95.73245,32.824829],[-95.732501,32.816829],[-95.733295,32.813079],[-95.733201,32.805174],[-95.732958,32.804116],[-95.733345,32.803662],[-95.733379,32.793353],[-95.720613,32.79316],[-95.720652,32.769075],[-95.720955,32.768817],[-95.726413,32.769088],[-95.726499,32.770111],[-95.726742,32.770305],[-95.734819,32.770342],[-95.734987,32.76918],[-95.734818,32.768983],[-95.735104,32.768774],[-95.734687,32.767955],[-95.734928,32.767702],[-95.734414,32.767159],[-95.734251,32.766416],[-95.734921,32.766168],[-95.735135,32.765729],[-95.735056,32.764818],[-95.734666,32.764384],[-95.734939,32.763274],[-95.734444,32.762878],[-95.734268,32.761817],[-95.734053,32.761702],[-95.73391,32.761961],[-95.732349,32.76061],[-95.732478,32.758659],[-95.733089,32.758082],[-95.733427,32.758225],[-95.733596,32.757725],[-95.734792,32.757109],[-95.735052,32.756048],[-95.734883,32.755834],[-95.732184,32.755505],[-95.731572,32.755209],[-95.730577,32.754083],[-95.730095,32.753127],[-95.728755,32.751891],[-95.72735,32.750709],[-95.726433,32.750348],[-95.7259,32.749763],[-95.725093,32.749769],[-95.724541,32.749522],[-95.724235,32.748911],[-95.723568,32.748586],[-95.723356,32.748144],[-95.724653,32.748379],[-95.725423,32.748226],[-95.725103,32.74694],[-95.725678,32.746772],[-95.726093,32.7475],[-95.727101,32.748238],[-95.727667,32.748209],[-95.727937,32.7479],[-95.72888,32.748458],[-95.730281,32.7483],[-95.730918,32.749122],[-95.73177,32.74938],[-95.732198,32.748924],[-95.731265,32.747915],[-95.731499,32.747095],[-95.732491,32.746319],[-95.733043,32.746102],[-95.733518,32.746179],[-95.733827,32.746623],[-95.733495,32.746991],[-95.73358,32.747821],[-95.735758,32.750371],[-95.736042,32.751405],[-95.735312,32.75168],[-95.733348,32.751159],[-95.732816,32.751748],[-95.732969,32.752246],[-95.733321,32.752744],[-95.733894,32.753003],[-95.736674,32.753877],[-95.738719,32.756648],[-95.739182,32.756833],[-95.740176,32.756689],[-95.740398,32.756449],[-95.740488,32.755896],[-95.739806,32.755065],[-95.740426,32.754587],[-95.742701,32.754573],[-95.743802,32.755498],[-95.744685,32.755592],[-95.74547,32.755253],[-95.746047,32.754351],[-95.746756,32.753816],[-95.747505,32.754299],[-95.748521,32.754227],[-95.748431,32.754891],[-95.749135,32.755556],[-95.749442,32.756386],[-95.749662,32.756498],[-95.750282,32.756112],[-95.750834,32.756113],[-95.752201,32.756853],[-95.752265,32.75761],[-95.752794,32.757906],[-95.754113,32.75784],[-95.75614,32.756588],[-95.756125,32.755707],[-95.754952,32.754896],[-95.755058,32.754289],[-95.755767,32.754103],[-95.756924,32.754582],[-95.757648,32.755422],[-95.75929,32.755916],[-95.760062,32.757983],[-95.760597,32.758331],[-95.761359,32.758015],[-95.761949,32.757134],[-95.761712,32.755575],[-95.762335,32.755446],[-95.762818,32.755794],[-95.76366,32.757686],[-95.764269,32.758206],[-95.764385,32.759399],[-95.764118,32.759728],[-95.763331,32.759842],[-95.762967,32.760123],[-95.763123,32.761437],[-95.762277,32.761744],[-95.761744,32.761293],[-95.761432,32.761299],[-95.761146,32.761557],[-95.761178,32.76204],[-95.761685,32.76281],[-95.76281,32.762728],[-95.763681,32.763244],[-95.764728,32.763464],[-95.76502,32.763998],[-95.764395,32.765135],[-95.763081,32.766283],[-95.763269,32.767162],[-95.762885,32.768475],[-95.762442,32.768783],[-95.761642,32.768656],[-95.761109,32.76887],[-95.761108,32.769858],[-95.761537,32.770314],[-95.7625,32.770601],[-95.763554,32.769865],[-95.764243,32.769739],[-95.764828,32.770173],[-95.765465,32.771591],[-95.76607,32.77102],[-95.766447,32.77113],[-95.766525,32.77169],[-95.766876,32.771911],[-95.768717,32.7714],[-95.769263,32.772197],[-95.770147,32.772741],[-95.770557,32.772588],[-95.770739,32.772198],[-95.771305,32.772011],[-95.772261,32.772686],[-95.772566,32.772665],[-95.772372,32.771099],[-95.772866,32.770726],[-95.773601,32.770742],[-95.774258,32.771303],[-95.775845,32.770787],[-95.776319,32.772122],[-95.777678,32.773299],[-95.778283,32.773617],[-95.779395,32.773673],[-95.779993,32.773079],[-95.779584,32.772332],[-95.778634,32.771469],[-95.778921,32.770832],[-95.779552,32.770788],[-95.779877,32.771524],[-95.780286,32.77181],[-95.782445,32.772162],[-95.783057,32.771645],[-95.782875,32.770393],[-95.783565,32.77008],[-95.784683,32.770135],[-95.785392,32.770986],[-95.785021,32.771855],[-95.786146,32.772152],[-95.786705,32.773294],[-95.788311,32.773207],[-95.790796,32.772312],[-95.791264,32.772367],[-95.791732,32.772757],[-95.791531,32.773311],[-95.79101,32.773532],[-95.790379,32.773268],[-95.789794,32.773426],[-95.789612,32.773724],[-95.789735,32.774597],[-95.790268,32.7748],[-95.792226,32.774516],[-95.794509,32.775835],[-95.795432,32.775813],[-95.795881,32.775483],[-95.79592,32.774879],[-95.795029,32.773153],[-95.797078,32.772522],[-95.797716,32.772742],[-95.798925,32.773786],[-95.799614,32.773868],[-95.80033,32.773643],[-95.801917,32.774116],[-95.804603,32.771341],[-95.804843,32.771512],[-95.804726,32.772556],[-95.805299,32.772748],[-95.806294,32.772435],[-95.806612,32.773671],[-95.807035,32.773929],[-95.807562,32.773857],[-95.807984,32.773511],[-95.807985,32.772945],[-95.807328,32.771577],[-95.807503,32.770615],[-95.806899,32.770138],[-95.806788,32.769753],[-95.806964,32.769435],[-95.807764,32.769468],[-95.808102,32.76927],[-95.808063,32.768873],[-95.807582,32.768506],[-95.807731,32.768017],[-95.80885,32.767885],[-95.809611,32.767358],[-95.810749,32.76727],[-95.812101,32.766831],[-95.813116,32.765946],[-95.815834,32.76549],[-95.816718,32.76594],[-95.816868,32.766286],[-95.816673,32.766775],[-95.814572,32.766743],[-95.813109,32.767149],[-95.813467,32.768071],[-95.814566,32.768281],[-95.814462,32.76867],[-95.813753,32.76916],[-95.813695,32.769714],[-95.814807,32.770957],[-95.816029,32.769281],[-95.817356,32.768186],[-95.818117,32.76838],[-95.818338,32.769649],[-95.819021,32.770028],[-95.819456,32.769692],[-95.8193,32.767868],[-95.820315,32.76733],[-95.821667,32.767473],[-95.822155,32.768638],[-95.822558,32.768742],[-95.823345,32.767753],[-95.825751,32.768005],[-95.826518,32.767214],[-95.827871,32.76684],[-95.82975,32.767108],[-95.829712,32.768758],[-95.831221,32.770274],[-95.834206,32.770702],[-95.835331,32.771921],[-95.837256,32.771321],[-95.837958,32.771316],[-95.838127,32.771085],[-95.837913,32.770569],[-95.838179,32.770366],[-95.839454,32.770623],[-95.840176,32.770563],[-95.840891,32.770151],[-95.842081,32.770457],[-95.842849,32.770325],[-95.843759,32.769134],[-95.844084,32.769292],[-95.844338,32.770122],[-95.844747,32.770425],[-95.845125,32.770331],[-95.84517,32.769491],[-95.845436,32.769287],[-95.846139,32.769688],[-95.847075,32.769589],[-95.847719,32.770159],[-95.847967,32.771155],[-95.84863,32.771484],[-95.849157,32.771385],[-95.849989,32.770713],[-95.850646,32.770713],[-95.851407,32.771532],[-95.852676,32.77201],[-95.851844,32.773324],[-95.85215,32.774208],[-95.852865,32.77458],[-95.854803,32.774563],[-95.855474,32.775608],[-95.856632,32.776376],[-95.856645,32.77664],[-95.855904,32.777068],[-95.855403,32.77785],[-95.854669,32.778273],[-95.854753,32.778592],[-95.855788,32.77886],[-95.857778,32.778481],[-95.858278,32.778188],[-95.858167,32.777453],[-95.858947,32.777046],[-95.859773,32.777068],[-95.861204,32.776654],[-95.863688,32.77689],[-95.864307,32.777791],[-95.863878,32.778978],[-95.86548,32.780994],[-95.865213,32.781844],[-95.865344,32.782384],[-95.866528,32.783102],[-95.866886,32.783042],[-95.867425,32.782476],[-95.867848,32.782449],[-95.870066,32.783479],[-95.869904,32.784184],[-95.870562,32.785024],[-95.872097,32.78538],[-95.872579,32.785753],[-95.872748,32.786517],[-95.872144,32.787534],[-95.872567,32.788401],[-95.873641,32.788324],[-95.874186,32.787407],[-95.875286,32.787146],[-95.87541,32.787455],[-95.874896,32.788077],[-95.874805,32.788829],[-95.874916,32.789372],[-95.875376,32.789505],[-95.877061,32.788093],[-95.877289,32.787543],[-95.878486,32.78777],[-95.878362,32.788198],[-95.8771,32.789082],[-95.877684,32.791247],[-95.878373,32.791638],[-95.87901,32.79166],[-95.879407,32.791122],[-95.878673,32.789627],[-95.879181,32.789248],[-95.879792,32.789386],[-95.881899,32.791271],[-95.882692,32.791755],[-95.883505,32.791887],[-95.884376,32.79281],[-95.889507,32.795119],[-95.890905,32.797092],[-95.890793,32.798279],[-95.891053,32.798999],[-95.891717,32.79891],[-95.892328,32.79845],[-95.893155,32.798352],[-95.893037,32.798961],[-95.892237,32.799467],[-95.89225,32.800109],[-95.892633,32.800593],[-95.893056,32.800566],[-95.8937,32.799566],[-95.894722,32.799099],[-95.895151,32.79988],[-95.89491,32.801039],[-95.89353,32.802526],[-95.893693,32.802956],[-95.894583,32.803643],[-95.895117,32.803846],[-95.895403,32.803714],[-95.895403,32.802726],[-95.895937,32.802187],[-95.896854,32.802307],[-95.897719,32.803016],[-95.898455,32.802138],[-95.89932,32.802183],[-95.900068,32.803046],[-95.901161,32.803381],[-95.901264,32.803649],[-95.900919,32.804271],[-95.901264,32.804584],[-95.902442,32.804975],[-95.903632,32.805858],[-95.905509,32.806111],[-95.906737,32.806858],[-95.906285,32.807492],[-95.904268,32.808475],[-95.904255,32.809018],[-95.905036,32.809655],[-95.907839,32.810716],[-95.910273,32.810932],[-95.910747,32.811239],[-95.912507,32.811631],[-95.912939,32.81154],[-95.913729,32.810898],[-95.915246,32.810808],[-95.915766,32.810988],[-95.913376,32.812399],[-95.911176,32.814293],[-95.907792,32.818996],[-95.905156,32.82177],[-95.893153,32.831342],[-95.891766,32.832836],[-95.890307,32.835611],[-95.887543,32.846736],[-95.887699,32.847257],[-95.887503,32.847664],[-95.888466,32.848],[-95.888636,32.848291],[-95.889234,32.848335],[-95.889593,32.847714],[-95.889196,32.847143],[-95.88971,32.847214],[-95.889768,32.848658],[-95.889475,32.848835],[-95.889657,32.849252],[-95.889429,32.849438],[-95.889311,32.851],[-95.889617,32.850802],[-95.890491,32.84828],[-95.892241,32.849038],[-95.89105,32.848742],[-95.891265,32.849148],[-95.891532,32.848962],[-95.891499,32.84922],[-95.892046,32.849325],[-95.892241,32.849742],[-95.892534,32.849539],[-95.892391,32.849116],[-95.89254,32.849176],[-95.892657,32.849534],[-95.892344,32.850763],[-95.89213,32.85089],[-95.891427,32.850648],[-95.891134,32.850955],[-95.891713,32.850951],[-95.891882,32.85134],[-95.891784,32.852099],[-95.89153,32.852072],[-95.891283,32.852598],[-95.891517,32.853028],[-95.891771,32.853066],[-95.892175,32.852148],[-95.892656,32.851737],[-95.893464,32.851439],[-95.893861,32.85156],[-95.894557,32.853056],[-95.895142,32.853468],[-95.894869,32.85378],[-95.895259,32.854391],[-95.894367,32.854874],[-95.893898,32.855522],[-95.894093,32.856105],[-95.894172,32.85555],[-95.894823,32.855089],[-95.895454,32.855462],[-95.895161,32.856017],[-95.895454,32.856023],[-95.895721,32.85566],[-95.896072,32.855913],[-95.896053,32.855468],[-95.896463,32.854968],[-95.896125,32.854183],[-95.896249,32.85382],[-95.896632,32.85437],[-95.897531,32.854183],[-95.899353,32.855865],[-95.899776,32.855787],[-95.900505,32.856068],[-95.900258,32.855821],[-95.901065,32.856046],[-95.900733,32.856184],[-95.901273,32.856271],[-95.901806,32.857391],[-95.903173,32.857025],[-95.904247,32.857267],[-95.904286,32.857805],[-95.904917,32.858316],[-95.904683,32.858662],[-95.904787,32.859492],[-95.904338,32.859327],[-95.904507,32.859882],[-95.904318,32.8602],[-95.903595,32.860486],[-95.904474,32.860497],[-95.904389,32.860948],[-95.903634,32.861435],[-95.902189,32.860909],[-95.902658,32.86142],[-95.90312,32.861424],[-95.901961,32.862057],[-95.901121,32.862183],[-95.901902,32.862397],[-95.903361,32.862063],[-95.903589,32.861601],[-95.903159,32.862803],[-95.903289,32.863045],[-95.902534,32.863546],[-95.903165,32.863414],[-95.901895,32.863951],[-95.900795,32.863903],[-95.900437,32.864358],[-95.899747,32.864446],[-95.899675,32.864621],[-95.900007,32.864644],[-95.900001,32.865496],[-95.900202,32.865561],[-95.900424,32.864672],[-95.901407,32.864517],[-95.902064,32.864765],[-95.903796,32.864089],[-95.904805,32.862991],[-95.905789,32.862721],[-95.906303,32.862364],[-95.906329,32.862063],[-95.910684,32.863646],[-95.910098,32.86475],[-95.91011,32.865371],[-95.909407,32.86542],[-95.908516,32.865091],[-95.907194,32.865744],[-95.906348,32.865882],[-95.906322,32.866079],[-95.907077,32.866145],[-95.907031,32.866782],[-95.907402,32.866629],[-95.907643,32.865952],[-95.908249,32.865893],[-95.908281,32.866645],[-95.908027,32.866771],[-95.908014,32.867178],[-95.909251,32.866525],[-95.909381,32.866734],[-95.909081,32.866903],[-95.909374,32.866843],[-95.909837,32.867146],[-95.909869,32.867613],[-95.909505,32.867787],[-95.909205,32.868453],[-95.90871,32.868485],[-95.908925,32.86881],[-95.908495,32.868766],[-95.908775,32.869261],[-95.907877,32.868634],[-95.907304,32.86927],[-95.907759,32.869749],[-95.908274,32.869233],[-95.908345,32.869359],[-95.907955,32.869968],[-95.907291,32.87015],[-95.907486,32.870403],[-95.907108,32.870435],[-95.907121,32.870755],[-95.906027,32.871381],[-95.905565,32.871249],[-95.905467,32.871775],[-95.904985,32.872161],[-95.904731,32.873617],[-95.905102,32.873468],[-95.905356,32.872721],[-95.905213,32.872496],[-95.905539,32.872166],[-95.906509,32.872013],[-95.907153,32.871667],[-95.907518,32.871682],[-95.907876,32.872134],[-95.907818,32.871623],[-95.908241,32.871041],[-95.908716,32.871012],[-95.908794,32.870534],[-95.909725,32.870305],[-95.909934,32.869931],[-95.910767,32.869689],[-95.911001,32.869387],[-95.911763,32.869304],[-95.911692,32.868772],[-95.912115,32.868091],[-95.912818,32.868167],[-95.913183,32.866855],[-95.914433,32.866695],[-95.914322,32.867635],[-95.914667,32.868146],[-95.915142,32.868322],[-95.915116,32.868958],[-95.91438,32.869289],[-95.914055,32.869909],[-95.912954,32.869981],[-95.91298,32.870694],[-95.912088,32.872349],[-95.912583,32.872172],[-95.913201,32.87265],[-95.914132,32.872371],[-95.914276,32.872864],[-95.91354,32.873019],[-95.913364,32.873514],[-95.913065,32.873662],[-95.911932,32.873524],[-95.911639,32.873776],[-95.911398,32.8737],[-95.911235,32.874425],[-95.910206,32.873903],[-95.909725,32.87392],[-95.910161,32.874046],[-95.910798,32.875241],[-95.91072,32.875597],[-95.91031,32.875829],[-95.90906,32.875669],[-95.908662,32.876921],[-95.906852,32.876965],[-95.906689,32.877163],[-95.906982,32.877992],[-95.908219,32.878168],[-95.90898,32.878767],[-95.90704,32.879437],[-95.904806,32.881085],[-95.90437,32.881217],[-95.903797,32.880991],[-95.903042,32.881068],[-95.902749,32.881562],[-95.903243,32.882413],[-95.902689,32.883035],[-95.902637,32.884084],[-95.901654,32.884183],[-95.900105,32.88299],[-95.899004,32.882616],[-95.898581,32.882796],[-95.898658,32.884088],[-95.899616,32.88383],[-95.900273,32.884901],[-95.900071,32.886418],[-95.899666,32.887286],[-95.898807,32.888104],[-95.896977,32.888664],[-95.895693,32.889746],[-95.897048,32.889916],[-95.896865,32.890406],[-95.896403,32.890559],[-95.897054,32.890763],[-95.897138,32.891016],[-95.896272,32.891861],[-95.896949,32.89163],[-95.898141,32.891911],[-95.898681,32.893461],[-95.898446,32.894851],[-95.898641,32.89567],[-95.899188,32.895423],[-95.900738,32.895577],[-95.900333,32.896383],[-95.900607,32.896746],[-95.900477,32.896914],[-95.889508,32.898018],[-95.883162,32.89802]]]}},{"type":"Feature","properties":{"PRECINCT":"102","VTD":"0102"},"geometry":{"type":"Polygon","coordinates":[[[-95.930359,32.896682],[-95.908926,32.89629],[-95.900477,32.896914],[-95.900607,32.896746],[-95.900333,32.896383],[-95.900738,32.895577],[-95.899188,32.895423],[-95.898641,32.89567],[-95.898446,32.894851],[-95.898681,32.893461],[-95.898141,32.891911],[-95.896949,32.89163],[-95.896272,32.891861],[-95.897138,32.891016],[-95.897054,32.890763],[-95.896403,32.890559],[-95.896865,32.890406],[-95.897048,32.889916],[-95.895693,32.889746],[-95.896977,32.888664],[-95.898807,32.888104],[-95.899666,32.887286],[-95.900071,32.886418],[-95.900273,32.884901],[-95.899616,32.88383],[-95.898658,32.884088],[-95.898581,32.882796],[-95.899004,32.882616],[-95.900105,32.88299],[-95.901654,32.884183],[-95.902637,32.884084],[-95.902689,32.883035],[-95.903243,32.882413],[-95.902749,32.881562],[-95.903042,32.881068],[-95.903797,32.880991],[-95.90437,32.881217],[-95.904806,32.881085],[-95.90704,32.879437],[-95.908889,32.878855],[-95.908987,32.878652],[-95.908662,32.878349],[-95.906982,32.877992],[-95.906722,32.87702],[-95.908662,32.876921],[-95.90906,32.875669],[-95.91031,32.875829],[-95.91072,32.875597],[-95.910798,32.875241],[-95.910161,32.874046],[-95.909725,32.87392],[-95.910206,32.873903],[-95.911235,32.874425],[-95.911398,32.8737],[-95.911639,32.873776],[-95.911932,32.873524],[-95.913065,32.873662],[-95.913364,32.873514],[-95.91354,32.873019],[-95.914276,32.872864],[-95.914132,32.872371],[-95.913201,32.87265],[-95.912583,32.872172],[-95.912088,32.872349],[-95.91298,32.870694],[-95.912954,32.869981],[-95.914133,32.869866],[-95.914296,32.869366],[-95.915116,32.868958],[-95.915194,32.868443],[-95.914322,32.867635],[-95.91453,32.866729],[-95.913183,32.866855],[-95.912818,32.868167],[-95.912115,32.868091],[-95.911692,32.868772],[-95.911763,32.869304],[-95.911001,32.869387],[-95.910767,32.869689],[-95.909934,32.869931],[-95.909725,32.870305],[-95.908794,32.870534],[-95.908716,32.871012],[-95.908241,32.871041],[-95.907818,32.871623],[-95.907876,32.872134],[-95.907518,32.871682],[-95.907153,32.871667],[-95.906509,32.872013],[-95.905539,32.872166],[-95.905213,32.872496],[-95.905356,32.872721],[-95.905102,32.873468],[-95.904731,32.873617],[-95.904985,32.872161],[-95.905467,32.871775],[-95.905565,32.871249],[-95.906027,32.871381],[-95.907121,32.870755],[-95.907108,32.870435],[-95.907486,32.870403],[-95.907291,32.87015],[-95.907955,32.869968],[-95.908345,32.869359],[-95.908274,32.869233],[-95.907759,32.869749],[-95.907304,32.86927],[-95.907877,32.868634],[-95.908775,32.869261],[-95.908495,32.868766],[-95.908925,32.86881],[-95.90871,32.868485],[-95.909205,32.868453],[-95.909505,32.867787],[-95.909869,32.867613],[-95.909837,32.867146],[-95.909374,32.866843],[-95.909081,32.866903],[-95.909381,32.866734],[-95.909251,32.866525],[-95.908014,32.867178],[-95.908027,32.866771],[-95.908281,32.866645],[-95.908249,32.865893],[-95.907643,32.865952],[-95.907402,32.866629],[-95.907031,32.866782],[-95.907077,32.866145],[-95.906322,32.866079],[-95.906348,32.865882],[-95.907194,32.865744],[-95.908516,32.865091],[-95.909407,32.86542],[-95.91011,32.865371],[-95.910098,32.86475],[-95.910684,32.863646],[-95.906329,32.862063],[-95.906303,32.862364],[-95.905789,32.862721],[-95.904805,32.862991],[-95.903796,32.864089],[-95.902064,32.864765],[-95.901407,32.864517],[-95.900424,32.864672],[-95.900202,32.865561],[-95.900001,32.865496],[-95.900007,32.864644],[-95.899675,32.864621],[-95.899747,32.864446],[-95.900437,32.864358],[-95.900795,32.863903],[-95.901895,32.863951],[-95.903165,32.863414],[-95.902534,32.863546],[-95.903289,32.863045],[-95.903159,32.862803],[-95.903491,32.862112],[-95.903589,32.861601],[-95.903361,32.862063],[-95.901902,32.862397],[-95.901121,32.862183],[-95.901961,32.862057],[-95.90312,32.861424],[-95.902658,32.86142],[-95.902189,32.860909],[-95.903634,32.861435],[-95.904389,32.860948],[-95.904474,32.860497],[-95.903595,32.860486],[-95.904318,32.8602],[-95.904507,32.859882],[-95.904338,32.859327],[-95.904787,32.859492],[-95.904683,32.858662],[-95.904917,32.858316],[-95.904286,32.857805],[-95.904247,32.857267],[-95.903173,32.857025],[-95.901806,32.857391],[-95.901273,32.856271],[-95.900733,32.856184],[-95.901065,32.856046],[-95.900258,32.855821],[-95.900505,32.856068],[-95.899776,32.855787],[-95.899353,32.855865],[-95.897531,32.854183],[-95.896632,32.85437],[-95.896249,32.85382],[-95.896125,32.854183],[-95.896463,32.854968],[-95.896053,32.855468],[-95.896072,32.855913],[-95.895721,32.85566],[-95.895454,32.856023],[-95.895161,32.856017],[-95.895454,32.855462],[-95.894823,32.855089],[-95.894172,32.85555],[-95.894093,32.856105],[-95.893898,32.855522],[-95.894367,32.854874],[-95.895259,32.854391],[-95.894869,32.85378],[-95.895142,32.853468],[-95.894557,32.853056],[-95.893861,32.85156],[-95.893464,32.851439],[-95.892656,32.851737],[-95.892175,32.852148],[-95.891771,32.853066],[-95.891517,32.853028],[-95.891283,32.852598],[-95.89153,32.852072],[-95.891784,32.852099],[-95.891882,32.85134],[-95.891713,32.850951],[-95.891134,32.850955],[-95.891427,32.850648],[-95.89213,32.85089],[-95.892344,32.850763],[-95.892657,32.849534],[-95.89254,32.849176],[-95.892391,32.849116],[-95.892534,32.849539],[-95.892241,32.849742],[-95.892046,32.849325],[-95.891499,32.84922],[-95.891532,32.848962],[-95.891265,32.849148],[-95.89105,32.848742],[-95.892,32.84911],[-95.892241,32.849038],[-95.890491,32.84828],[-95.889617,32.850802],[-95.889311,32.851],[-95.889429,32.849438],[-95.889657,32.849252],[-95.889475,32.848835],[-95.889768,32.848658],[-95.88971,32.847214],[-95.889196,32.847143],[-95.889593,32.847714],[-95.889234,32.848335],[-95.888636,32.848291],[-95.888466,32.848],[-95.887503,32.847664],[-95.887699,32.847257],[-95.887543,32.846736],[-95.890307,32.835611],[-95.891766,32.832836],[-95.893153,32.831342],[-95.905156,32.82177],[-95.907792,32.818996],[-95.911176,32.814293],[-95.913376,32.812399],[-95.915766,32.810988],[-95.916421,32.811309],[-95.916297,32.811705],[-95.916669,32.813456],[-95.917707,32.813374],[-95.918792,32.814866],[-95.920011,32.815132],[-95.920982,32.81505],[-95.922362,32.815557],[-95.922524,32.816308],[-95.921459,32.817172],[-95.921543,32.818036],[-95.922315,32.818117],[-95.923571,32.817648],[-95.924056,32.817664],[-95.924523,32.81801],[-95.924628,32.818389],[-95.924305,32.81931],[-95.924029,32.819519],[-95.922391,32.819723],[-95.922011,32.820805],[-95.922154,32.821047],[-95.924562,32.821021],[-95.92482,32.822311],[-95.925667,32.822771],[-95.926981,32.822068],[-95.927543,32.822374],[-95.926497,32.825384],[-95.927725,32.826118],[-95.927554,32.827101],[-95.927069,32.827353],[-95.926069,32.827022],[-95.925498,32.827233],[-95.92586,32.828403],[-95.925641,32.829323],[-95.927461,32.831153],[-95.928632,32.831685],[-95.929546,32.832507],[-95.931318,32.834758],[-95.932852,32.835451],[-95.933566,32.836903],[-95.934433,32.837217],[-95.935328,32.838047],[-95.934824,32.839387],[-95.934939,32.840339],[-95.937101,32.840829],[-95.937301,32.841064],[-95.937178,32.841847],[-95.938102,32.842968],[-95.938521,32.843024],[-95.94031,32.841085],[-95.941452,32.840938],[-95.941072,32.842261],[-95.941225,32.842714],[-95.94173,32.842641],[-95.942434,32.841566],[-95.943081,32.84134],[-95.943243,32.842196],[-95.943653,32.842542],[-95.943054,32.843358],[-95.942997,32.843826],[-95.943683,32.845044],[-95.944074,32.845188],[-95.945045,32.844744],[-95.946997,32.844968],[-95.947349,32.844637],[-95.946463,32.844186],[-95.946605,32.843524],[-95.946814,32.843266],[-95.949032,32.842416],[-95.949318,32.842513],[-95.94931,32.843707],[-95.949873,32.845046],[-95.950368,32.845246],[-95.951453,32.84485],[-95.951663,32.845689],[-95.952083,32.846004],[-95.952587,32.845987],[-95.953539,32.845453],[-95.956424,32.844941],[-95.957254,32.845957],[-95.958016,32.846231],[-95.957778,32.846933],[-95.957969,32.847748],[-95.958674,32.848216],[-95.958304,32.849822],[-95.958486,32.850451],[-95.959982,32.851337],[-95.961248,32.851425],[-95.961735,32.852707],[-95.96385,32.854101],[-95.965088,32.854301],[-95.966298,32.854155],[-95.967489,32.855541],[-95.968642,32.856032],[-95.968785,32.856451],[-95.968071,32.856952],[-95.968215,32.857461],[-95.968025,32.857808],[-95.969073,32.858316],[-95.969958,32.858032],[-95.970977,32.858491],[-95.970693,32.859482],[-95.970779,32.860208],[-95.971103,32.860571],[-95.97257,32.860909],[-95.973142,32.861505],[-95.974181,32.861722],[-95.9746,32.862108],[-95.974772,32.862761],[-95.978089,32.865018],[-95.978737,32.865961],[-95.980091,32.866863],[-95.980396,32.867379],[-95.980112,32.868671],[-95.981074,32.868783],[-95.981608,32.86967],[-95.982446,32.869555],[-95.98279,32.870548],[-95.983477,32.871257],[-95.984859,32.87228],[-95.985707,32.872343],[-95.986403,32.872738],[-95.986719,32.873666],[-95.986282,32.875121],[-95.987034,32.87556],[-95.987358,32.876131],[-95.986106,32.877511],[-95.986069,32.878076],[-95.98664,32.879621],[-95.986515,32.880108],[-95.986073,32.880436],[-95.983704,32.881217],[-95.9828,32.881808],[-95.982753,32.882925],[-95.983335,32.884542],[-95.982932,32.885427],[-95.982268,32.885644],[-95.981589,32.885516],[-95.979739,32.886491],[-95.97909,32.885958],[-95.978302,32.886121],[-95.977365,32.887521],[-95.976813,32.889694],[-95.97737,32.891029],[-95.976345,32.891801],[-95.976689,32.892362],[-95.977501,32.892473],[-95.977612,32.893344],[-95.977372,32.893783],[-95.976112,32.894776],[-95.9753,32.894665],[-95.97452,32.895289],[-95.974192,32.896141],[-95.974561,32.897607],[-95.974147,32.897879],[-95.973494,32.897652],[-95.972827,32.898176],[-95.972662,32.899092],[-95.973459,32.899397],[-95.973744,32.899863],[-95.972119,32.900731],[-95.972851,32.901682],[-95.972569,32.901871],[-95.970436,32.907908],[-95.963648,32.90864],[-95.955792,32.908107],[-95.95341,32.907572],[-95.951702,32.906878],[-95.93587,32.898275],[-95.932845,32.897112],[-95.930359,32.896682]]]}},{"type":"Feature","properties":{"PRECINCT":"203","VTD":"0203"},"geometry":{"type":"Polygon","coordinates":[[[-95.658262,32.904221],[-95.640555,32.76495],[-95.638329,32.745374],[-95.637936,32.743764],[-95.634949,32.721064],[-95.635017,32.72038],[-95.636552,32.723503],[-95.636724,32.724393],[-95.637085,32.724666],[-95.639597,32.724488],[-95.640128,32.723894],[-95.640112,32.723321],[-95.639276,32.721653],[-95.640115,32.720757],[-95.640746,32.718514],[-95.641211,32.717989],[-95.641685,32.717858],[-95.64194,32.71889],[-95.642375,32.719023],[-95.646624,32.717913],[-95.648119,32.719257],[-95.648499,32.719282],[-95.648913,32.71806],[-95.649867,32.718009],[-95.650406,32.717739],[-95.650578,32.716571],[-95.652173,32.716242],[-95.65224,32.715879],[-95.651703,32.715691],[-95.651455,32.715303],[-95.651662,32.714405],[-95.652137,32.713949],[-95.652592,32.713766],[-95.653564,32.71407],[-95.654689,32.713113],[-95.655361,32.714123],[-95.657039,32.714128],[-95.657942,32.713116],[-95.658825,32.712522],[-95.658865,32.711733],[-95.659803,32.711402],[-95.662674,32.711751],[-95.662626,32.712162],[-95.661594,32.71284],[-95.661462,32.713537],[-95.661849,32.714018],[-95.663218,32.714441],[-95.663678,32.715356],[-95.664084,32.715659],[-95.666077,32.715549],[-95.666873,32.713755],[-95.667699,32.713268],[-95.668227,32.713433],[-95.668426,32.714672],[-95.667707,32.71591],[-95.667927,32.716352],[-95.670458,32.716336],[-95.671622,32.717028],[-95.672295,32.717858],[-95.673414,32.718442],[-95.673728,32.718891],[-95.673624,32.719295],[-95.671514,32.720698],[-95.671297,32.721649],[-95.671582,32.722378],[-95.672126,32.723084],[-95.67282,32.723264],[-95.673556,32.722206],[-95.674207,32.721728],[-95.674568,32.721837],[-95.675195,32.72262],[-95.676769,32.72316],[-95.677137,32.723695],[-95.677094,32.72515],[-95.677608,32.726312],[-95.677457,32.727126],[-95.67775,32.72797],[-95.678288,32.727972],[-95.679198,32.727355],[-95.679745,32.727334],[-95.680198,32.727621],[-95.680381,32.728178],[-95.68114,32.728484],[-95.681968,32.727742],[-95.683153,32.728203],[-95.684175,32.727462],[-95.684899,32.727348],[-95.68537,32.727589],[-95.685135,32.728572],[-95.685551,32.728821],[-95.686005,32.72883],[-95.687389,32.728167],[-95.688453,32.728465],[-95.689145,32.729295],[-95.689042,32.729667],[-95.687521,32.729934],[-95.687046,32.730365],[-95.687007,32.730885],[-95.687321,32.731249],[-95.688927,32.730572],[-95.689363,32.730628],[-95.689334,32.730945],[-95.688692,32.731501],[-95.689094,32.732888],[-95.68962,32.73364],[-95.68931,32.734522],[-95.690083,32.736081],[-95.691181,32.737276],[-95.691626,32.737432],[-95.692517,32.736978],[-95.693481,32.737073],[-95.69504,32.736613],[-95.695457,32.736761],[-95.695648,32.737505],[-95.696259,32.737707],[-95.698086,32.737665],[-95.700114,32.738128],[-95.701238,32.737628],[-95.701803,32.737629],[-95.702071,32.737948],[-95.702113,32.738947],[-95.701212,32.739525],[-95.701489,32.739905],[-95.702331,32.740318],[-95.702157,32.742137],[-95.702341,32.742431],[-95.703641,32.741846],[-95.704945,32.742817],[-95.70642,32.742511],[-95.706815,32.74362],[-95.707064,32.74376],[-95.707976,32.742972],[-95.708328,32.743051],[-95.709473,32.744253],[-95.709469,32.745291],[-95.710052,32.745595],[-95.711824,32.745111],[-95.712839,32.744131],[-95.713692,32.743839],[-95.715944,32.744038],[-95.717656,32.744901],[-95.719194,32.745339],[-95.721008,32.746296],[-95.721598,32.747017],[-95.724235,32.748911],[-95.724541,32.749522],[-95.725093,32.749769],[-95.7259,32.749763],[-95.726433,32.750348],[-95.727448,32.750776],[-95.729991,32.753017],[-95.730974,32.754599],[-95.7318,32.755363],[-95.734941,32.755867],[-95.734792,32.757109],[-95.733596,32.757725],[-95.733427,32.758225],[-95.733089,32.758082],[-95.732478,32.758659],[-95.732349,32.76061],[-95.73391,32.761961],[-95.734053,32.761702],[-95.73432,32.761888],[-95.734444,32.762878],[-95.734939,32.763274],[-95.734666,32.764384],[-95.735193,32.765312],[-95.734992,32.766092],[-95.734251,32.766416],[-95.734414,32.767159],[-95.734928,32.767702],[-95.734687,32.767955],[-95.735104,32.768774],[-95.734818,32.768983],[-95.734987,32.76918],[-95.734819,32.770342],[-95.726742,32.770305],[-95.726499,32.770111],[-95.726413,32.769088],[-95.720955,32.768817],[-95.720652,32.769075],[-95.720613,32.79316],[-95.733379,32.793353],[-95.733324,32.803821],[-95.732958,32.804116],[-95.731816,32.802874],[-95.730235,32.802231],[-95.715697,32.802265],[-95.716514,32.807125],[-95.71651,32.810524],[-95.716216,32.811954],[-95.716246,32.818996],[-95.715741,32.820878],[-95.715836,32.833757],[-95.720124,32.841213],[-95.720107,32.84611],[-95.719831,32.848587],[-95.719578,32.848996],[-95.720259,32.849449],[-95.720034,32.84995],[-95.720153,32.866504],[-95.714451,32.866645],[-95.712714,32.8671],[-95.711486,32.86781],[-95.710524,32.868752],[-95.708472,32.871761],[-95.707121,32.872996],[-95.707136,32.873932],[-95.702309,32.874129],[-95.702434,32.881745],[-95.702861,32.883012],[-95.702629,32.884315],[-95.693065,32.88946],[-95.693057,32.892353],[-95.695062,32.894354],[-95.69518,32.896915],[-95.694678,32.89755],[-95.69403,32.897661],[-95.690517,32.897326],[-95.686657,32.894339],[-95.686055,32.893096],[-95.682635,32.894733],[-95.682347,32.89775],[-95.681861,32.899068],[-95.681763,32.90104],[-95.682096,32.901296],[-95.682199,32.901806],[-95.681993,32.902096],[-95.682039,32.905183],[-95.680118,32.903471],[-95.67918,32.903427],[-95.678119,32.902861],[-95.677506,32.903191],[-95.676784,32.902839],[-95.675513,32.902987],[-95.675149,32.902437],[-95.674556,32.90285],[-95.673781,32.902564],[-95.672647,32.902591],[-95.671912,32.901283],[-95.671912,32.90074],[-95.669489,32.899613],[-95.668369,32.899569],[-95.667288,32.89781],[-95.667412,32.897607],[-95.66775,32.897706],[-95.668258,32.898442],[-95.669554,32.898712],[-95.670368,32.899256],[-95.671423,32.899414],[-95.672283,32.899068],[-95.673716,32.899558],[-95.675143,32.899299],[-95.675527,32.899789],[-95.676028,32.899026],[-95.677175,32.898882],[-95.677429,32.898234],[-95.678236,32.898888],[-95.67879,32.898828],[-95.67892,32.898361],[-95.67907,32.898778],[-95.679357,32.898669],[-95.67909,32.898273],[-95.679552,32.897779],[-95.680021,32.89813],[-95.680125,32.897942],[-95.680763,32.897938],[-95.68092,32.898173],[-95.680939,32.897812],[-95.681285,32.897987],[-95.681519,32.897834],[-95.68232,32.89679],[-95.682405,32.895015],[-95.68204,32.894817],[-95.679552,32.895398],[-95.678732,32.89508],[-95.678093,32.894036],[-95.677455,32.89474],[-95.676758,32.894624],[-95.676127,32.894112],[-95.676074,32.894328],[-95.677462,32.89569],[-95.677266,32.896515],[-95.676406,32.897168],[-95.675364,32.897278],[-95.675091,32.89785],[-95.674094,32.897734],[-95.673143,32.896535],[-95.673293,32.896057],[-95.673091,32.896003],[-95.673072,32.895531],[-95.672635,32.896535],[-95.672218,32.896728],[-95.671938,32.896591],[-95.671938,32.896816],[-95.671098,32.89741],[-95.670733,32.896827],[-95.671118,32.895739],[-95.671027,32.895294],[-95.670676,32.895299],[-95.670831,32.895767],[-95.670642,32.896051],[-95.669626,32.896492],[-95.669692,32.895947],[-95.669366,32.895712],[-95.669086,32.895882],[-95.668591,32.895359],[-95.66848,32.894882],[-95.668754,32.894173],[-95.668187,32.894167],[-95.668155,32.892964],[-95.669419,32.892722],[-95.669809,32.893168],[-95.669581,32.892832],[-95.670122,32.89248],[-95.669529,32.892662],[-95.669308,32.892228],[-95.668676,32.892552],[-95.668248,32.891921],[-95.668155,32.892623],[-95.667504,32.892524],[-95.667673,32.892816],[-95.66723,32.893518],[-95.667126,32.894788],[-95.666846,32.894261],[-95.666513,32.894744],[-95.666422,32.894035],[-95.665302,32.892588],[-95.664975,32.893119],[-95.6651,32.894629],[-95.664175,32.894661],[-95.660532,32.900303],[-95.660207,32.900489],[-95.659301,32.902485],[-95.659053,32.904501],[-95.658262,32.904221]]]}},{"type":"Feature","properties":{"PRECINCT":"204","VTD":"0204"},"geometry":{"type":"Polygon","coordinates":[[[-95.691237,32.908459],[-95.690234,32.908966],[-95.688345,32.906498],[-95.685883,32.905543],[-95.684723,32.905367],[-95.683818,32.90435],[-95.683388,32.904559],[-95.683571,32.904947],[-95.683069,32.904828],[-95.682385,32.904992],[-95.682333,32.905295],[-95.682039,32.905183],[-95.681993,32.902096],[-95.682199,32.901806],[-95.682096,32.901296],[-95.681763,32.90104],[-95.681861,32.899068],[-95.682347,32.89775],[-95.682635,32.894733],[-95.686055,32.893096],[-95.686657,32.894339],[-95.690517,32.897326],[-95.69403,32.897661],[-95.694879,32.897426],[-95.695189,32.896833],[-95.695062,32.894354],[-95.693057,32.892353],[-95.693065,32.88946],[-95.702629,32.884315],[-95.702861,32.883012],[-95.702434,32.881745],[-95.702309,32.874129],[-95.707136,32.873932],[-95.707121,32.872996],[-95.708472,32.871761],[-95.710524,32.868752],[-95.711486,32.86781],[-95.712714,32.8671],[-95.714451,32.866645],[-95.720153,32.866504],[-95.720034,32.84995],[-95.720259,32.849449],[-95.719578,32.848996],[-95.719831,32.848587],[-95.720107,32.84611],[-95.720124,32.841213],[-95.715836,32.833757],[-95.715741,32.820878],[-95.716246,32.818996],[-95.716216,32.811954],[-95.71651,32.810524],[-95.716514,32.807125],[-95.715697,32.802265],[-95.729653,32.802185],[-95.730602,32.802326],[-95.731528,32.802698],[-95.732425,32.803389],[-95.733143,32.80471],[-95.733295,32.813079],[-95.732501,32.816829],[-95.732492,32.823994],[-95.732034,32.826935],[-95.731966,32.829383],[-95.731135,32.830798],[-95.729715,32.832082],[-95.729137,32.833565],[-95.728818,32.854875],[-95.748057,32.863463],[-95.755752,32.867773],[-95.755746,32.867382],[-95.7632,32.869197],[-95.76797,32.868845],[-95.768205,32.869904],[-95.767912,32.87048],[-95.768114,32.870965],[-95.767918,32.871245],[-95.768584,32.871896],[-95.773584,32.871716],[-95.773743,32.877204],[-95.771425,32.877204],[-95.770887,32.877526],[-95.769208,32.876333],[-95.765441,32.874516],[-95.763761,32.877052],[-95.761845,32.881833],[-95.760234,32.884112],[-95.755525,32.884119],[-95.755656,32.883201],[-95.758142,32.881044],[-95.758115,32.878072],[-95.742449,32.878099],[-95.742241,32.87829],[-95.742222,32.87925],[-95.741908,32.879533],[-95.739092,32.880131],[-95.737742,32.879945],[-95.737709,32.882446],[-95.728746,32.882453],[-95.724947,32.882847],[-95.723535,32.882455],[-95.723483,32.882916],[-95.722662,32.88335],[-95.723092,32.883476],[-95.723008,32.883685],[-95.722292,32.88401],[-95.721895,32.884686],[-95.721706,32.88612],[-95.720294,32.887818],[-95.71959,32.887659],[-95.719493,32.88806],[-95.718686,32.888412],[-95.718601,32.88973],[-95.718165,32.890313],[-95.717631,32.890209],[-95.717384,32.890642],[-95.716648,32.890538],[-95.716375,32.890841],[-95.715352,32.891044],[-95.715046,32.891649],[-95.714571,32.891934],[-95.714298,32.892764],[-95.71491,32.894599],[-95.714331,32.896434],[-95.71426,32.897633],[-95.713928,32.898111],[-95.713791,32.897858],[-95.713511,32.898078],[-95.713212,32.897913],[-95.711942,32.899205],[-95.711981,32.899912],[-95.711584,32.900117],[-95.711812,32.900661],[-95.711037,32.900947],[-95.711402,32.900534],[-95.711024,32.899853],[-95.710522,32.8996],[-95.71034,32.90037],[-95.710138,32.899892],[-95.709304,32.900249],[-95.708419,32.900222],[-95.704947,32.901525],[-95.703768,32.900349],[-95.703469,32.900332],[-95.703303,32.899611],[-95.701026,32.901531],[-95.700297,32.903998],[-95.698454,32.90475],[-95.697594,32.904817],[-95.697634,32.90569],[-95.696552,32.907883],[-95.696168,32.908191],[-95.695198,32.908113],[-95.695419,32.908839],[-95.692651,32.909498],[-95.692456,32.910294],[-95.692039,32.910378],[-95.691068,32.910179],[-95.691237,32.908459]]]}},{"type":"Feature","properties":{"PRECINCT":"305","VTD":"0305"},"geometry":{"type":"Polygon","coordinates":[[[-95.667728,32.979554],[-95.658262,32.904221],[-95.659053,32.904501],[-95.659301,32.902485],[-95.660207,32.900489],[-95.660532,32.900303],[-95.664175,32.894661],[-95.6651,32.894629],[-95.664975,32.893119],[-95.665302,32.892588],[-95.666422,32.894035],[-95.666513,32.894744],[-95.666846,32.894261],[-95.667126,32.894788],[-95.66723,32.893518],[-95.667673,32.892816],[-95.667504,32.892524],[-95.668155,32.892623],[-95.668248,32.891921],[-95.668676,32.892552],[-95.669308,32.892228],[-95.669529,32.892662],[-95.670122,32.89248],[-95.669581,32.892832],[-95.669809,32.893168],[-95.669419,32.892722],[-95.668155,32.892964],[-95.668187,32.894167],[-95.668754,32.894173],[-95.66848,32.894882],[-95.668591,32.895359],[-95.669086,32.895882],[-95.669366,32.895712],[-95.669692,32.895947],[-95.669626,32.896492],[-95.670642,32.896051],[-95.670831,32.895767],[-95.670676,32.895299],[-95.671027,32.895294],[-95.671118,32.895739],[-95.670733,32.896827],[-95.671098,32.89741],[-95.671938,32.896816],[-95.671938,32.896591],[-95.672218,32.896728],[-95.672635,32.896535],[-95.673072,32.895531],[-95.673091,32.896003],[-95.673293,32.896057],[-95.673143,32.896535],[-95.674094,32.897734],[-95.675091,32.89785],[-95.675364,32.897278],[-95.676406,32.897168],[-95.677266,32.896515],[-95.677462,32.89569],[-95.676074,32.894328],[-95.676127,32.894112],[-95.676758,32.894624],[-95.677455,32.89474],[-95.678093,32.894036],[-95.678732,32.89508],[-95.679552,32.895398],[-95.68204,32.894817],[-95.682405,32.895015],[-95.68232,32.89679],[-95.681519,32.897834],[-95.681285,32.897987],[-95.680939,32.897812],[-95.68092,32.898173],[-95.680763,32.897938],[-95.680125,32.897942],[-95.680021,32.89813],[-95.679552,32.897779],[-95.67909,32.898273],[-95.679357,32.898669],[-95.67907,32.898778],[-95.67892,32.898361],[-95.67879,32.898828],[-95.678236,32.898888],[-95.677429,32.898234],[-95.677175,32.898882],[-95.676028,32.899026],[-95.675527,32.899789],[-95.675143,32.899299],[-95.673716,32.899558],[-95.672283,32.899068],[-95.671423,32.899414],[-95.670368,32.899256],[-95.669554,32.898712],[-95.668258,32.898442],[-95.66775,32.897706],[-95.667412,32.897607],[-95.667294,32.897843],[-95.668369,32.899569],[-95.669489,32.899613],[-95.671912,32.90074],[-95.671912,32.901283],[-95.672647,32.902591],[-95.673781,32.902564],[-95.674556,32.90285],[-95.675149,32.902437],[-95.675513,32.902987],[-95.676784,32.902839],[-95.677506,32.903191],[-95.678119,32.902861],[-95.67918,32.903427],[-95.680118,32.903471],[-95.682261,32.905301],[-95.68247,32.904966],[-95.683571,32.904947],[-95.683388,32.904559],[-95.683818,32.90435],[-95.684723,32.905367],[-95.685883,32.905543],[-95.688345,32.906498],[-95.690234,32.908966],[-95.69125,32.908476],[-95.691192,32.910272],[-95.692371,32.910378],[-95.692651,32.909498],[-95.695419,32.908839],[-95.69525,32.90807],[-95.695732,32.908217],[-95.696403,32.90807],[-95.697634,32.90569],[-95.697594,32.904817],[-95.698454,32.90475],[-95.700297,32.903998],[-95.701026,32.901531],[-95.703303,32.899611],[-95.703469,32.900332],[-95.703768,32.900349],[-95.704947,32.901525],[-95.708419,32.900222],[-95.709304,32.900249],[-95.710138,32.899892],[-95.71034,32.90037],[-95.710522,32.8996],[-95.711024,32.899853],[-95.711402,32.900534],[-95.711037,32.900947],[-95.71193,32.901331],[-95.712379,32.900709],[-95.712333,32.900073],[-95.713655,32.900105],[-95.712626,32.901259],[-95.710608,32.902441],[-95.709104,32.90399],[-95.707417,32.904486],[-95.707035,32.90502],[-95.706804,32.904766],[-95.704935,32.905206],[-95.703678,32.905113],[-95.7033,32.905371],[-95.703183,32.906547],[-95.703398,32.906937],[-95.704167,32.907519],[-95.705411,32.90737],[-95.706017,32.908244],[-95.705555,32.909536],[-95.704383,32.910635],[-95.704526,32.911485],[-95.705366,32.911316],[-95.705783,32.911492],[-95.705933,32.911706],[-95.705347,32.912321],[-95.706311,32.912672],[-95.706943,32.912684],[-95.70764,32.912332],[-95.708663,32.912486],[-95.712024,32.911551],[-95.713587,32.91143],[-95.714961,32.911039],[-95.716576,32.909171],[-95.716934,32.9084],[-95.717905,32.908775],[-95.717879,32.909247],[-95.71644,32.910621],[-95.716206,32.91111],[-95.716336,32.911923],[-95.717307,32.912753],[-95.718193,32.913114],[-95.720115,32.912956],[-95.712818,32.921729],[-95.714418,32.921144],[-95.715342,32.920138],[-95.716482,32.919901],[-95.717225,32.920236],[-95.717342,32.919434],[-95.717753,32.919527],[-95.718899,32.91856],[-95.719153,32.919114],[-95.717694,32.919939],[-95.717532,32.920637],[-95.71716,32.920862],[-95.717265,32.921258],[-95.717714,32.921967],[-95.719819,32.923401],[-95.721579,32.925147],[-95.72197,32.925702],[-95.722244,32.927273],[-95.724128,32.927669],[-95.724408,32.927909],[-95.724415,32.928542],[-95.724721,32.927992],[-95.726135,32.928596],[-95.726493,32.929124],[-95.726891,32.929212],[-95.729439,32.931507],[-95.729766,32.932903],[-95.730307,32.933577],[-95.7341,32.935297],[-95.735129,32.935346],[-95.735475,32.935104],[-95.73667,32.929493],[-95.736787,32.929257],[-95.738103,32.92886],[-95.739615,32.929608],[-95.74086,32.929805],[-95.741531,32.930376],[-95.7426,32.930573],[-95.741812,32.931052],[-95.742483,32.931969],[-95.742353,32.931161],[-95.742939,32.931055],[-95.743916,32.931281],[-95.744131,32.930974],[-95.745232,32.930847],[-95.746137,32.930028],[-95.746379,32.930405],[-95.745285,32.931472],[-95.74535,32.931841],[-95.74634,32.931764],[-95.746751,32.93195],[-95.747213,32.931692],[-95.749889,32.932414],[-95.753036,32.930027],[-95.753681,32.930059],[-95.75432,32.92924],[-95.755115,32.929423],[-95.757435,32.92752],[-95.757038,32.927346],[-95.757839,32.92672],[-95.758647,32.926544],[-95.759175,32.927214],[-95.760198,32.927253],[-95.759982,32.927705],[-95.759526,32.927672],[-95.7595,32.927836],[-95.761057,32.928689],[-95.761122,32.929007],[-95.762829,32.92909],[-95.763089,32.929206],[-95.763186,32.929992],[-95.764033,32.929969],[-95.764652,32.930239],[-95.765076,32.929871],[-95.765128,32.929284],[-95.765356,32.92924],[-95.767975,32.929685],[-95.770829,32.929214],[-95.772796,32.929868],[-95.774008,32.929676],[-95.775031,32.930028],[-95.77565,32.929775],[-95.777213,32.930655],[-95.777429,32.930138],[-95.778627,32.930013],[-95.779624,32.930722],[-95.780464,32.930843],[-95.781403,32.930618],[-95.782973,32.931216],[-95.783181,32.930618],[-95.783696,32.930289],[-95.783371,32.929442],[-95.783898,32.929634],[-95.784843,32.929146],[-95.784895,32.929657],[-95.785442,32.929822],[-95.786054,32.930388],[-95.785801,32.929662],[-95.786374,32.928905],[-95.786791,32.928839],[-95.787416,32.929833],[-95.787273,32.930416],[-95.788217,32.930338],[-95.788263,32.93085],[-95.787996,32.93124],[-95.788934,32.932102],[-95.789201,32.932004],[-95.789357,32.931482],[-95.78909,32.930943],[-95.789631,32.931004],[-95.78997,32.930526],[-95.790595,32.931382],[-95.790042,32.931548],[-95.789989,32.932086],[-95.790589,32.932053],[-95.791123,32.932685],[-95.791677,32.932696],[-95.791768,32.93313],[-95.792654,32.932861],[-95.792967,32.932065],[-95.7941,32.932322],[-95.794191,32.932796],[-95.795703,32.933614],[-95.796185,32.933208],[-95.796491,32.93329],[-95.796986,32.934241],[-95.796289,32.934581],[-95.796862,32.9349],[-95.797006,32.935708],[-95.798048,32.93573],[-95.799052,32.935378],[-95.79984,32.935856],[-95.800908,32.93551],[-95.801443,32.935549],[-95.802987,32.936917],[-95.803032,32.937626],[-95.804055,32.938361],[-95.803886,32.938499],[-95.803195,32.93828],[-95.803319,32.93862],[-95.802967,32.938758],[-95.803078,32.939439],[-95.803566,32.939631],[-95.803892,32.939087],[-95.804225,32.938994],[-95.804909,32.939252],[-95.804915,32.93945],[-95.804231,32.939504],[-95.804629,32.940027],[-95.804635,32.940807],[-95.806323,32.940421],[-95.806466,32.940697],[-95.805515,32.941076],[-95.806231,32.941564],[-95.806518,32.942241],[-95.807189,32.941851],[-95.808264,32.942131],[-95.808571,32.941735],[-95.809313,32.942224],[-95.809457,32.942939],[-95.808734,32.943323],[-95.809978,32.944406],[-95.809542,32.945014],[-95.808897,32.945191],[-95.809177,32.945943],[-95.809926,32.946168],[-95.810773,32.945608],[-95.811262,32.945741],[-95.811496,32.946164],[-95.811972,32.946399],[-95.811685,32.947125],[-95.812435,32.946702],[-95.812689,32.94679],[-95.813015,32.947806],[-95.812318,32.94807],[-95.812441,32.948466],[-95.813888,32.94946],[-95.814077,32.949278],[-95.813634,32.948087],[-95.81424,32.947311],[-95.814214,32.947795],[-95.815484,32.947839],[-95.815439,32.948405],[-95.816345,32.94829],[-95.8174,32.949163],[-95.817648,32.949778],[-95.818326,32.949728],[-95.819043,32.950508],[-95.818632,32.950657],[-95.818645,32.950882],[-95.819167,32.950761],[-95.819564,32.951015],[-95.819584,32.951909],[-95.818867,32.952405],[-95.818776,32.952866],[-95.818228,32.953173],[-95.818085,32.953722],[-95.818522,32.954124],[-95.819095,32.953992],[-95.819793,32.955613],[-95.820842,32.955838],[-95.822257,32.958278],[-95.822452,32.959349],[-95.823554,32.960046],[-95.823463,32.960349],[-95.82287,32.9606],[-95.822192,32.961607],[-95.821293,32.962018],[-95.821319,32.962463],[-95.820804,32.962569],[-95.821267,32.96275],[-95.820785,32.963414],[-95.820655,32.965573],[-95.820107,32.966178],[-95.819671,32.9672],[-95.81958,32.968684],[-95.818896,32.96949],[-95.819215,32.969986],[-95.819926,32.969925],[-95.820349,32.97081],[-95.819606,32.971238],[-95.819717,32.971908],[-95.819072,32.971777],[-95.818766,32.972107],[-95.8196,32.972304],[-95.819502,32.972842],[-95.818407,32.972914],[-95.818036,32.972673],[-95.817775,32.972898],[-95.817723,32.973244],[-95.818016,32.97343],[-95.817547,32.973843],[-95.817534,32.974392],[-95.817651,32.974662],[-95.818016,32.974573],[-95.817762,32.974997],[-95.818192,32.975502],[-95.817619,32.976024],[-95.818277,32.976107],[-95.818447,32.976408],[-95.81803,32.977007],[-95.818134,32.977424],[-95.817404,32.977612],[-95.817756,32.978116],[-95.81685,32.978425],[-95.816752,32.978898],[-95.817496,32.978997],[-95.817072,32.979581],[-95.786839,32.979706],[-95.750239,32.980227],[-95.712385,32.979536],[-95.699715,32.979711],[-95.667728,32.979554]]]}},{"type":"Feature","properties":{"PRECINCT":"306","VTD":"0306"},"geometry":{"type":"Polygon","coordinates":[[[-95.7341,32.935297],[-95.730307,32.933577],[-95.729766,32.932903],[-95.729439,32.931507],[-95.726891,32.929212],[-95.726493,32.929124],[-95.726135,32.928596],[-95.724721,32.927992],[-95.724415,32.928542],[-95.724408,32.927909],[-95.724128,32.927669],[-95.722244,32.927273],[-95.72197,32.925702],[-95.721579,32.925147],[-95.719819,32.923401],[-95.717714,32.921967],[-95.717265,32.921258],[-95.71716,32.920862],[-95.717532,32.920637],[-95.717694,32.919939],[-95.719153,32.919114],[-95.718899,32.91856],[-95.717753,32.919527],[-95.717342,32.919434],[-95.717225,32.920236],[-95.716482,32.919901],[-95.715342,32.920138],[-95.714418,32.921144],[-95.712818,32.921729],[-95.720115,32.912956],[-95.718193,32.913114],[-95.717307,32.912753],[-95.716336,32.911923],[-95.716206,32.91111],[-95.71644,32.910621],[-95.717879,32.909247],[-95.717905,32.908775],[-95.716934,32.9084],[-95.716576,32.909171],[-95.714961,32.911039],[-95.713587,32.91143],[-95.712024,32.911551],[-95.708663,32.912486],[-95.70764,32.912332],[-95.706943,32.912684],[-95.706311,32.912672],[-95.705347,32.912321],[-95.705875,32.911563],[-95.705366,32.911316],[-95.704585,32.911507],[-95.704396,32.911184],[-95.704422,32.910569],[-95.705718,32.909228],[-95.706017,32.908371],[-95.705737,32.907651],[-95.7053,32.907349],[-95.704043,32.907486],[-95.703196,32.90664],[-95.703157,32.905613],[-95.7036,32.905129],[-95.704935,32.905206],[-95.706804,32.904766],[-95.707065,32.905008],[-95.707417,32.904486],[-95.709104,32.90399],[-95.710608,32.902441],[-95.712626,32.901259],[-95.713245,32.900402],[-95.713681,32.900199],[-95.712333,32.900073],[-95.712379,32.900709],[-95.71193,32.901331],[-95.711037,32.900947],[-95.711812,32.900661],[-95.711584,32.900117],[-95.711981,32.899912],[-95.711942,32.899205],[-95.713212,32.897913],[-95.713511,32.898078],[-95.713791,32.897858],[-95.713811,32.898133],[-95.714195,32.897819],[-95.714351,32.896341],[-95.71491,32.894599],[-95.714298,32.892764],[-95.714525,32.892006],[-95.715137,32.891544],[-95.715352,32.891044],[-95.716375,32.890841],[-95.716648,32.890538],[-95.717384,32.890642],[-95.717631,32.890209],[-95.718165,32.890313],[-95.718601,32.88973],[-95.718686,32.888412],[-95.719493,32.88806],[-95.71959,32.887659],[-95.720294,32.887818],[-95.721706,32.88612],[-95.721895,32.884686],[-95.722292,32.88401],[-95.723008,32.883685],[-95.723092,32.883476],[-95.722662,32.88335],[-95.723483,32.882916],[-95.723535,32.882455],[-95.724947,32.882847],[-95.728746,32.882453],[-95.737709,32.882446],[-95.737742,32.879945],[-95.739092,32.880131],[-95.741908,32.879533],[-95.742222,32.87925],[-95.742241,32.87829],[-95.742449,32.878099],[-95.758115,32.878072],[-95.758142,32.881044],[-95.755656,32.883201],[-95.755525,32.884119],[-95.760234,32.884112],[-95.761845,32.881833],[-95.763761,32.877052],[-95.765441,32.874516],[-95.769208,32.876333],[-95.770887,32.877526],[-95.771425,32.877204],[-95.773743,32.877204],[-95.773584,32.871716],[-95.775826,32.871571],[-95.775839,32.87198],[-95.775201,32.872],[-95.775327,32.873696],[-95.781093,32.875689],[-95.780921,32.877997],[-95.783869,32.877398],[-95.792045,32.877411],[-95.791978,32.884698],[-95.795041,32.884659],[-95.795277,32.887445],[-95.80021,32.887543],[-95.800266,32.892194],[-95.797238,32.892207],[-95.797073,32.893366],[-95.821651,32.900515],[-95.824333,32.901615],[-95.827459,32.903346],[-95.827295,32.907733],[-95.82705,32.908033],[-95.825958,32.908079],[-95.825846,32.908374],[-95.825899,32.913744],[-95.824879,32.914749],[-95.82465,32.9168],[-95.824285,32.916998],[-95.821447,32.917097],[-95.81518,32.920727],[-95.815097,32.92129],[-95.814077,32.922201],[-95.811764,32.923327],[-95.807362,32.923591],[-95.804958,32.924039],[-95.802518,32.926995],[-95.802495,32.927663],[-95.80304,32.928029],[-95.802526,32.928837],[-95.802379,32.930296],[-95.800792,32.929966],[-95.799756,32.929246],[-95.796928,32.928866],[-95.796889,32.929119],[-95.796407,32.929384],[-95.795599,32.929181],[-95.795195,32.929285],[-95.794993,32.929796],[-95.794335,32.930224],[-95.79384,32.929927],[-95.793319,32.930329],[-95.792928,32.930146],[-95.792511,32.930366],[-95.791899,32.930103],[-95.790837,32.930338],[-95.790159,32.930213],[-95.789664,32.930982],[-95.78909,32.930943],[-95.78937,32.931339],[-95.788992,32.932119],[-95.787996,32.93124],[-95.788263,32.93085],[-95.788217,32.930338],[-95.787273,32.930416],[-95.787338,32.92963],[-95.786628,32.928773],[-95.785801,32.929662],[-95.786139,32.930371],[-95.784895,32.929657],[-95.784843,32.929146],[-95.783898,32.929634],[-95.783371,32.929442],[-95.783696,32.930289],[-95.783181,32.930618],[-95.782973,32.931216],[-95.781403,32.930618],[-95.780464,32.930843],[-95.779624,32.930722],[-95.778627,32.930013],[-95.777429,32.930138],[-95.777213,32.930655],[-95.77565,32.929775],[-95.775031,32.930028],[-95.774008,32.929676],[-95.772796,32.929868],[-95.770829,32.929214],[-95.767975,32.929685],[-95.765356,32.92924],[-95.765128,32.929284],[-95.765076,32.929871],[-95.764652,32.930239],[-95.764033,32.929969],[-95.763186,32.929992],[-95.763089,32.929206],[-95.762829,32.92909],[-95.761122,32.929007],[-95.761057,32.928689],[-95.7595,32.927836],[-95.759526,32.927672],[-95.759982,32.927705],[-95.760198,32.927253],[-95.759175,32.927214],[-95.758647,32.926544],[-95.757839,32.92672],[-95.757038,32.927346],[-95.757435,32.92752],[-95.755115,32.929423],[-95.75432,32.92924],[-95.753681,32.930059],[-95.753036,32.930027],[-95.749889,32.932414],[-95.747213,32.931692],[-95.746751,32.93195],[-95.74634,32.931764],[-95.74535,32.931841],[-95.745285,32.931472],[-95.746379,32.930405],[-95.746137,32.930028],[-95.745232,32.930847],[-95.744131,32.930974],[-95.743916,32.931281],[-95.742939,32.931055],[-95.742353,32.931161],[-95.742555,32.93198],[-95.741812,32.931052],[-95.7426,32.930573],[-95.741531,32.930376],[-95.74086,32.929805],[-95.739615,32.929608],[-95.738149,32.928866],[-95.736787,32.929257],[-95.735514,32.935032],[-95.735195,32.935335],[-95.7341,32.935297]]]}},{"type":"Feature","properties":{"PRECINCT":"407","VTD":"0407"},"geometry":{"type":"Polygon","coordinates":[[[-95.818613,32.952982],[-95.818867,32.952405],[-95.819577,32.952014],[-95.819466,32.950865],[-95.818645,32.950882],[-95.818632,32.950657],[-95.819043,32.950508],[-95.818326,32.949728],[-95.817648,32.949778],[-95.8174,32.949163],[-95.816345,32.94829],[-95.815439,32.948405],[-95.815484,32.947839],[-95.814214,32.947795],[-95.81424,32.947311],[-95.813634,32.948087],[-95.814077,32.949278],[-95.813777,32.94941],[-95.81265,32.948746],[-95.812318,32.94818],[-95.813015,32.947806],[-95.812689,32.94679],[-95.812435,32.946702],[-95.811685,32.947125],[-95.811972,32.946399],[-95.811496,32.946164],[-95.811262,32.945741],[-95.810773,32.945608],[-95.809926,32.946168],[-95.809177,32.945943],[-95.808897,32.945191],[-95.809542,32.945014],[-95.809978,32.944406],[-95.808734,32.943323],[-95.809457,32.942939],[-95.809313,32.942224],[-95.808571,32.941735],[-95.808264,32.942131],[-95.807189,32.941851],[-95.806518,32.942241],[-95.806231,32.941564],[-95.805515,32.941076],[-95.806466,32.940697],[-95.806323,32.940421],[-95.804635,32.940807],[-95.804629,32.940027],[-95.804231,32.939504],[-95.804915,32.93945],[-95.804909,32.939252],[-95.804225,32.938994],[-95.803892,32.939087],[-95.803566,32.939631],[-95.803078,32.939439],[-95.802967,32.938758],[-95.803319,32.93862],[-95.803195,32.93828],[-95.803886,32.938499],[-95.804055,32.938361],[-95.803032,32.937626],[-95.802987,32.936917],[-95.802459,32.93629],[-95.801136,32.935494],[-95.79984,32.935856],[-95.79913,32.935378],[-95.79784,32.935763],[-95.797006,32.935708],[-95.796862,32.9349],[-95.796289,32.934581],[-95.796986,32.934241],[-95.796491,32.93329],[-95.796185,32.933208],[-95.795703,32.933614],[-95.794191,32.932796],[-95.7941,32.932322],[-95.792967,32.932065],[-95.792654,32.932861],[-95.791768,32.93313],[-95.791677,32.932696],[-95.791123,32.932685],[-95.790589,32.932053],[-95.789989,32.932086],[-95.790042,32.931548],[-95.790595,32.931382],[-95.789911,32.93052],[-95.790159,32.930213],[-95.790837,32.930338],[-95.791697,32.930098],[-95.792511,32.930366],[-95.792928,32.930146],[-95.793319,32.930329],[-95.793755,32.929927],[-95.794335,32.930224],[-95.794993,32.929796],[-95.795195,32.929285],[-95.795599,32.929181],[-95.796407,32.929384],[-95.79702,32.928857],[-95.799756,32.929246],[-95.800792,32.929966],[-95.802379,32.930296],[-95.802526,32.928837],[-95.80304,32.928029],[-95.802495,32.927663],[-95.802518,32.926995],[-95.804958,32.924039],[-95.807362,32.923591],[-95.811764,32.923327],[-95.814077,32.922201],[-95.815097,32.92129],[-95.81518,32.920727],[-95.821447,32.917097],[-95.824576,32.916863],[-95.824879,32.914749],[-95.825899,32.913744],[-95.825846,32.908374],[-95.825958,32.908079],[-95.82705,32.908033],[-95.827295,32.907733],[-95.827459,32.903346],[-95.824333,32.901615],[-95.821651,32.900515],[-95.797073,32.893366],[-95.797238,32.892207],[-95.800266,32.892194],[-95.80021,32.887543],[-95.795277,32.887445],[-95.795041,32.884659],[-95.791978,32.884698],[-95.792045,32.877411],[-95.783869,32.877398],[-95.780921,32.877997],[-95.781093,32.875689],[-95.775327,32.873696],[-95.775201,32.872],[-95.775839,32.87198],[-95.7757,32.869231],[-95.773502,32.869255],[-95.773462,32.868476],[-95.771629,32.868637],[-95.774326,32.863272],[-95.781548,32.862972],[-95.782508,32.862492],[-95.802925,32.862322],[-95.803725,32.862101],[-95.804309,32.861652],[-95.804665,32.860449],[-95.804942,32.860293],[-95.811642,32.860144],[-95.811919,32.856026],[-95.813846,32.853295],[-95.813931,32.852655],[-95.816518,32.851177],[-95.816654,32.849696],[-95.820796,32.849688],[-95.822142,32.849283],[-95.833803,32.849373],[-95.834289,32.856157],[-95.834196,32.860025],[-95.831986,32.860106],[-95.830781,32.860698],[-95.830047,32.86207],[-95.828503,32.863714],[-95.82817,32.869182],[-95.850173,32.869193],[-95.85047,32.868969],[-95.850492,32.868251],[-95.850528,32.858355],[-95.850212,32.857511],[-95.850536,32.855922],[-95.850674,32.838202],[-95.882831,32.83836],[-95.883211,32.87919],[-95.883082,32.90079],[-95.882108,32.906247],[-95.880838,32.909748],[-95.871454,32.92673],[-95.87111,32.934181],[-95.871204,32.937302],[-95.869677,32.937317],[-95.868873,32.937683],[-95.86248,32.94359],[-95.861186,32.945379],[-95.860333,32.946143],[-95.853376,32.948459],[-95.847981,32.952582],[-95.846275,32.953381],[-95.844541,32.953688],[-95.818082,32.95366],[-95.818228,32.953173],[-95.818613,32.952982]]]}},{"type":"Feature","properties":{"PRECINCT":"408","VTD":"0408"},"geometry":{"type":"Polygon","coordinates":[[[-95.817404,32.978898],[-95.816928,32.978969],[-95.81672,32.978733],[-95.816935,32.978347],[-95.817756,32.978116],[-95.817404,32.977612],[-95.818134,32.977424],[-95.81803,32.977007],[-95.818447,32.976408],[-95.818277,32.976107],[-95.817619,32.976024],[-95.818192,32.975502],[-95.817762,32.974997],[-95.818016,32.974573],[-95.817651,32.974662],[-95.817534,32.974392],[-95.817547,32.973843],[-95.818016,32.97343],[-95.817723,32.973244],[-95.817775,32.972898],[-95.818036,32.972673],[-95.818407,32.972914],[-95.819502,32.972842],[-95.8196,32.972304],[-95.818766,32.972107],[-95.819072,32.971777],[-95.819717,32.971908],[-95.819606,32.971238],[-95.820349,32.97081],[-95.819926,32.969925],[-95.819215,32.969986],[-95.818896,32.96949],[-95.81958,32.968684],[-95.819671,32.9672],[-95.820107,32.966178],[-95.820655,32.965573],[-95.820785,32.963414],[-95.821267,32.96275],[-95.820804,32.962569],[-95.821319,32.962463],[-95.821293,32.962018],[-95.822192,32.961607],[-95.82287,32.9606],[-95.823554,32.960123],[-95.82242,32.959299],[-95.822257,32.958278],[-95.820842,32.955838],[-95.819793,32.955613],[-95.819095,32.953992],[-95.818522,32.954124],[-95.818082,32.95366],[-95.844541,32.953688],[-95.846275,32.953381],[-95.847981,32.952582],[-95.853376,32.948459],[-95.860333,32.946143],[-95.861186,32.945379],[-95.86248,32.94359],[-95.868873,32.937683],[-95.869677,32.937317],[-95.871204,32.937302],[-95.871372,32.926991],[-95.879577,32.912309],[-95.881149,32.909014],[-95.882732,32.903599],[-95.883162,32.89802],[-95.889759,32.898001],[-95.907848,32.896304],[-95.930359,32.896682],[-95.932845,32.897112],[-95.93587,32.898275],[-95.951702,32.906878],[-95.95341,32.907572],[-95.955792,32.908107],[-95.963648,32.90864],[-95.970436,32.907908],[-95.9453,32.979877],[-95.94022,32.980007],[-95.905049,32.979692],[-95.898203,32.979796],[-95.896895,32.979594],[-95.872388,32.979373],[-95.862521,32.979571],[-95.817072,32.979581],[-95.817404,32.978898]]]}}]}