{"type":"FeatureCollection","features":[{"type":"Feature","properties":{"PRECINCT":"1","VTD":"0001"},"geometry":{"type":"Polygon","coordinates":[[[-100.786565,35.620485],[-100.750419,35.620166],[-100.741672,35.619786],[-100.682563,35.620144],[-100.625414,35.61953],[-100.598023,35.619745],[-100.540158,35.619296],[-100.539885,35.586517],[-100.540215,35.552325],[-100.540105,35.544242],[-100.539478,35.531807],[-100.539728,35.531622],[-100.538889,35.404114],[-100.569121,35.4037],[-100.636665,35.403332],[-100.715359,35.402466],[-100.718578,35.402538],[-100.729389,35.406549],[-100.81632,35.405893],[-100.816366,35.42027],[-100.812786,35.432156],[-100.813091,35.433919],[-100.813735,35.434702],[-100.81034,35.434779],[-100.810101,35.43501],[-100.81131,35.437451],[-100.811851,35.439281],[-100.812027,35.446928],[-100.812516,35.44866],[-100.811906,35.448732],[-100.812041,35.465034],[-100.811092,35.499118],[-100.810534,35.533872],[-100.810795,35.534358],[-100.810939,35.548411],[-100.8125,35.548727],[-100.812419,35.567756],[-100.813573,35.620199],[-100.800008,35.620125],[-100.786565,35.620485]]]}},{"type":"Feature","properties":{"PRECINCT":"2","VTD":"0002"},"geometry":{"type":"Polygon","coordinates":[[[-101.026027,35.619112],[-100.99004,35.619382],[-100.875423,35.619152],[-100.866022,35.619737],[-100.840542,35.620137],[-100.813573,35.620199],[-100.812419,35.567756],[-100.8125,35.548727],[-100.810939,35.548411],[-100.810795,35.534358],[-100.810534,35.533872],[-100.811092,35.499118],[-100.812041,35.465034],[-100.811906,35.448732],[-100.812516,35.44866],[-100.812027,35.446928],[-100.811851,35.439281],[-100.81131,35.437451],[-100.810101,35.43501],[-100.81034,35.434779],[-100.813735,35.434702],[-100.813091,35.433919],[-100.812786,35.432156],[-100.816366,35.42027],[-100.81632,35.405893],[-100.883697,35.405379],[-100.883735,35.401297],[-100.964223,35.401037],[-100.966165,35.401477],[-101.009126,35.401095],[-101.086019,35.400783],[-101.085956,35.48881],[-101.086192,35.50044],[-101.085935,35.619102],[-101.026027,35.619112]],[[-100.967774,35.572649],[-100.980845,35.572443],[-100.980723,35.563377],[-100.99089,35.563295],[-100.990966,35.556284],[-100.993888,35.556284],[-100.993898,35.553552],[-100.990862,35.553589],[-100.990843,35.548696],[-100.991924,35.548744],[-100.991934,35.547609],[-100.995664,35.547574],[-100.995427,35.544679],[-100.992053,35.544588],[-100.991925,35.540175],[-100.989714,35.540333],[-100.98973,35.54468],[-100.987465,35.54468],[-100.98739,35.54243],[-100.985081,35.542438],[-100.985014,35.544699],[-100.980808,35.544711],[-100.980839,35.540415],[-100.983712,35.540398],[-100.983713,35.538945],[-100.983034,35.538946],[-100.983053,35.537237],[-100.985295,35.537241],[-100.985442,35.53884],[-100.987568,35.538811],[-100.987504,35.53313],[-100.985292,35.533147],[-100.985116,35.531495],[-100.984329,35.531505],[-100.984264,35.523497],[-100.97896,35.525936],[-100.978593,35.525126],[-100.978595,35.524069],[-100.980809,35.524016],[-100.980785,35.518546],[-100.971904,35.518655],[-100.971877,35.522287],[-100.9692,35.522319],[-100.969221,35.519719],[-100.967499,35.519737],[-100.967495,35.51871],[-100.963034,35.518761],[-100.963029,35.522409],[-100.959738,35.522462],[-100.959754,35.520853],[-100.958626,35.520857],[-100.958623,35.524152],[-100.95718,35.52477],[-100.968138,35.540426],[-100.966046,35.541407],[-100.967212,35.543143],[-100.968252,35.542633],[-100.97191,35.547775],[-100.963004,35.547885],[-100.962992,35.544931],[-100.962184,35.544677],[-100.961386,35.543748],[-100.95936,35.543301],[-100.957873,35.541221],[-100.940531,35.549328],[-100.941405,35.550113],[-100.945549,35.550101],[-100.945552,35.562712],[-100.936376,35.562764],[-100.937555,35.56529],[-100.938519,35.565258],[-100.938757,35.565722],[-100.939999,35.565584],[-100.940188,35.565159],[-100.940868,35.565008],[-100.941323,35.564617],[-100.941089,35.564154],[-100.945499,35.564184],[-100.945521,35.571972],[-100.954478,35.571964],[-100.95447,35.57263],[-100.961605,35.574577],[-100.959823,35.577075],[-100.961419,35.577268],[-100.963097,35.577135],[-100.963017,35.574963],[-100.967715,35.574878],[-100.967774,35.572649]]]}},{"type":"Feature","properties":{"PRECINCT":"3","VTD":"0003"},"geometry":{"type":"Polygon","coordinates":[[[-100.81632,35.405893],[-100.815452,35.359775],[-100.815638,35.330853],[-100.814199,35.283131],[-100.813958,35.260305],[-100.813992,35.259915],[-100.814267,35.259759],[-100.814986,35.223284],[-100.814735,35.21946],[-100.814902,35.215201],[-100.814316,35.213873],[-100.814204,35.183206],[-100.856644,35.183327],[-100.865345,35.183116],[-100.875422,35.183248],[-100.875422,35.183026],[-100.905856,35.183144],[-100.907821,35.182915],[-100.914164,35.183168],[-100.972393,35.183255],[-101.000427,35.182992],[-101.001418,35.182842],[-101.086281,35.18214],[-101.086438,35.249907],[-101.086019,35.400783],[-101.009126,35.401095],[-100.966165,35.401477],[-100.964223,35.401037],[-100.883735,35.401297],[-100.883697,35.405379],[-100.81632,35.405893]]]}},{"type":"Feature","properties":{"PRECINCT":"4","VTD":"0004"},"geometry":{"type":"Polygon","coordinates":[[[-100.729389,35.406549],[-100.718578,35.402538],[-100.715359,35.402466],[-100.636665,35.403332],[-100.569121,35.4037],[-100.538889,35.404114],[-100.538144,35.293854],[-100.538978,35.183144],[-100.556522,35.182963],[-100.57758,35.183145],[-100.624436,35.182971],[-100.814204,35.183206],[-100.814316,35.213873],[-100.814902,35.215201],[-100.814735,35.21946],[-100.814986,35.223284],[-100.814267,35.259759],[-100.813992,35.259915],[-100.813958,35.260305],[-100.814199,35.283131],[-100.815638,35.330853],[-100.815452,35.359775],[-100.81632,35.405893],[-100.729389,35.406549]]]}},{"type":"Feature","properties":{"PRECINCT":"5","VTD":"0005"},"geometry":{"type":"Polygon","coordinates":[[[-100.959803,35.574053],[-100.961296,35.571655],[-100.961492,35.570686],[-100.961469,35.56248],[-100.963062,35.562444],[-100.963032,35.55341],[-100.971897,35.553335],[-100.971912,35.551424],[-100.982353,35.551337],[-100.982362,35.563361],[-100.980723,35.563377],[-100.980845,35.572443],[-100.967774,35.572649],[-100.967715,35.574878],[-100.963017,35.574963],[-100.963097,35.577135],[-100.961419,35.577268],[-100.959823,35.577075],[-100.961605,35.574577],[-100.959803,35.574053]]]}},{"type":"Feature","properties":{"PRECINCT":"6","VTD":"0006"},"geometry":{"type":"Polygon","coordinates":[[[-100.945499,35.564184],[-100.941089,35.564154],[-100.941323,35.564617],[-100.940868,35.565008],[-100.940188,35.565159],[-100.939999,35.565584],[-100.938757,35.565722],[-100.938519,35.565258],[-100.937555,35.56529],[-100.936436,35.563011],[-100.936376,35.562764],[-100.945552,35.562712],[-100.945549,35.550101],[-100.941405,35.550113],[-100.940531,35.549328],[-100.957873,35.541221],[-100.95936,35.543301],[-100.961386,35.543748],[-100.962184,35.544677],[-100.962992,35.544931],[-100.963062,35.562444],[-100.961469,35.56248],[-100.961492,35.570686],[-100.961296,35.571655],[-100.959803,35.574053],[-100.95447,35.57263],[-100.954478,35.571964],[-100.945521,35.571972],[-100.945499,35.564184]]]}},{"type":"Feature","properties":{"PRECINCT":"7","VTD":"0007"},"geometry":{"type":"Polygon","coordinates":[[[-100.982362,35.563361],[-100.982353,35.551337],[-100.971912,35.551424],[-100.971897,35.553335],[-100.963032,35.55341],[-100.963004,35.547885],[-100.97191,35.547775],[-100.968252,35.542633],[-100.967212,35.543143],[-100.966046,35.541407],[-100.968138,35.540426],[-100.95718,35.52477],[-100.958623,35.524152],[-100.958626,35.520857],[-100.959754,35.520853],[-100.959738,35.522462],[-100.963029,35.522409],[-100.963034,35.518761],[-100.967495,35.51871],[-100.967499,35.519737],[-100.969221,35.519719],[-100.9692,35.522319],[-100.971877,35.522287],[-100.971904,35.518655],[-100.980785,35.518546],[-100.980809,35.524016],[-100.978595,35.524069],[-100.978593,35.525126],[-100.97896,35.525936],[-100.984264,35.523497],[-100.984329,35.531505],[-100.985116,35.531495],[-100.985292,35.533147],[-100.987504,35.53313],[-100.987568,35.538811],[-100.985442,35.53884],[-100.985295,35.537241],[-100.983053,35.537237],[-100.983034,35.538946],[-100.983713,35.538945],[-100.983712,35.540398],[-100.980839,35.540415],[-100.980808,35.544711],[-100.985014,35.544699],[-100.985081,35.542438],[-100.98739,35.54243],[-100.987465,35.54468],[-100.98973,35.54468],[-100.989714,35.540333],[-100.991925,35.540175],[-100.992053,35.544588],[-100.995427,35.544679],[-100.995664,35.547574],[-100.991934,35.547609],[-100.991924,35.548744],[-100.990843,35.548696],[-100.990862,35.553589],[-100.993898,35.553552],[-100.993888,35.556284],[-100.990966,35.556284],[-100.99089,35.563295],[-100.982362,35.563361]]]}}]}