{"type":"FeatureCollection","features":[{"type":"Feature","properties":{"PRECINCT":"tarrant:1001","COUNTY":"Tarrant"},"geometry":{"type":"Polygon","coordinates":[[[-97.32318,32.76268],[-97.32149,32.75021],[-97.32125,32.74707],[-97.3214,32.74499],[-97.33013,32.74522],[-97.33027,32.74672],[-97.33292,32.74684],[-97.33301,32.75116],[-97.33363,32.75092],[-97.33567,32.75099],[-97.33571,32.75183],[-97.33745,32.75182],[-97.33898,32.75417],[-97.33373,32.75676],[-97.33415,32.75741],[-97.3294,32.75969],[-97.32735,32.76031],[-97.3252,32.76174],[-97.32318,32.76268]]]}},{"type":"Feature","properties":{"PRECINCT":"tarrant:1005","COUNTY":"Tarrant"},"geometry":{"type":"Polygon","coordinates":[[[-97.31031,32.74245],[-97.30974,32.74198],[-97.30933,32.74119],[-97.30925,32.73551],[-97.32033,32.7354],[-97.32028,32.73765],[-97.32006,32.73766],[-97.31994,32.7399],[-97.31929,32.74252],[-97.31214,32.74252],[-97.31201,32.74301],[-97.31031,32.74245]]]}},{"type":"Feature","properties":{"PRECINCT":"tarrant:1008","COUNTY":"Tarrant"},"geometry":{"type":"Polygon","coordinates":[[[-97.30171,32.76223],[-97.30183,32.75744],[-97.30303,32.75487],[-97.30327,32.75376],[-97.30318,32.74838],[-97.30335,32.74836],[-97.30371,32.75384],[-97.30429,32.75416],[-97.307,32.75449],[-97.30836,32.75535],[-97.30901,32.75665],[-97.30898,32.75964],[-97.30763,32.75992],[-97.30762,32.76125],[-97.30645,32.76126],[-97.30643,32.76227],[-97.30525,32.76226],[-97.30527,32.76067],[-97.30407,32.76116],[-97.30407,32.76226],[-97.30171,32.76223]]]}},{"type":"Feature","properties":{"PRECINCT":"tarrant:1010","COUNTY":"Tarrant"},"geometry":{"type":"Polygon","coordinates":[[[-97.29467,32.74726],[-97.29478,32.74679],[-97.29558,32.74616],[-97.29616,32.74352],[-97.29714,32.74278],[-97.29744,32.74155],[-97.29586,32.73964],[-97.2947,32.73888],[-97.29436,32.7376],[-97.29339,32.73688],[-97.29333,32.73558],[-97.29399,32.73418],[-97.29443,32.73387],[-97.29537,32.73405],[-97.29613,32.73393],[-97.29732,32.73118],[-97.29977,32.73138],[-97.30693,32.73141],[-97.30835,32.7329],[-97.30909,32.73443],[-97.30943,32.74149],[-97.31031,32.74245],[-97.31171,32.74296],[-97.30804,32.74274],[-97.30305,32.74382],[-97.30337,32.7472],[-97.30336,32.74742],[-97.30317,32.74739],[-97.3032,32.74856],[-97.2946,32.74931],[-97.29504,32.7481],[-97.29467,32.74726]]]}},{"type":"Feature","properties":{"PRECINCT":"tarrant:1012","COUNTY":"Tarrant"},"geometry":{"type":"Polygon","coordinates":[[[-97.19879,32.74576],[-97.19879,32.73636],[-97.21389,32.7365],[-97.21899,32.7376],[-97.22521,32.73777],[-97.22495,32.74124],[-97.22373,32.7446],[-97.22433,32.74363],[-97.22427,32.74607],[-97.21632,32.74613],[-97.19879,32.74576]]]}},{"type":"Feature","properties":{"PRECINCT":"tarrant:1013","COUNTY":"Tarrant"},"geometry":{"type":"Polygon","coordinates":[[[-97.26461,32.67479],[-97.2646,32.66606],[-97.2637,32.66604],[-97.26362,32.66137],[-97.28141,32.66133],[-97.28025,32.66625],[-97.28011,32.67824],[-97.29148,32.68839],[-97.26788,32.67758],[-97.26868,32.67664],[-97.26461,32.67479]]]}},{"type":"Feature","properties":{"PRECINCT":"tarrant:1025","COUNTY":"Tarrant"},"geometry":{"type":"Polygon","coordinates":[[[-97.26553,32.63092],[-97.26557,32.63028],[-97.2661,32.63029],[-97.26613,32.6291],[-97.26141,32.62919],[-97.26146,32.62787],[-97.26277,32.62786],[-97.26318,32.62491],[-97.2647,32.62491],[-97.2647,32.62374],[-97.26895,32.62374],[-97.26878,32.62561],[-97.26934,32.62561],[-97.26933,32.62373],[-97.28711,32.62374],[-97.28712,32.6165],[-97.2946,32.61649],[-97.29329,32.62003],[-97.29323,32.62359],[-97.29703,32.62456],[-97.30122,32.62706],[-97.3013,32.63102],[-97.26553,32.63092]]]}},{"type":"Feature","properties":{"PRECINCT":"tarrant:1056","COUNTY":"Tarrant"},"geometry":{"type":"Polygon","coordinates":[[[-97.307,32.75449],[-97.30429,32.75416],[-97.30366,32.75372],[-97.30305,32.74382],[-97.3081,32.74274],[-97.30988,32.74273],[-97.31201,32.74301],[-97.31214,32.74252],[-97.31929,32.74252],[-97.31994,32.7399],[-97.32006,32.73766],[-97.32028,32.73765],[-97.32033,32.7354],[-97.32426,32.7355],[-97.32425,32.73795],[-97.32178,32.73771],[-97.32125,32.74707],[-97.32238,32.75715],[-97.32085,32.75782],[-97.31864,32.75802],[-97.30898,32.75964],[-97.30886,32.75614],[-97.30813,32.75512],[-97.307,32.75449]]]}},{"type":"Feature","properties":{"PRECINCT":"tarrant:1059","COUNTY":"Tarrant"},"geometry":{"type":"Polygon","coordinates":[[[-97.30925,32.73551],[-97.30898,32.73408],[-97.30835,32.7329],[-97.30516,32.72972],[-97.31121,32.72978],[-97.31063,32.72877],[-97.31062,32.72712],[-97.3183,32.72704],[-97.31833,32.7244],[-97.3227,32.7244],[-97.32254,32.72603],[-97.32637,32.72592],[-97.32636,32.72902],[-97.32589,32.73001],[-97.32589,32.73306],[-97.32424,32.73305],[-97.32426,32.7355],[-97.30925,32.73551]]]}},{"type":"Feature","properties":{"PRECINCT":"tarrant:1064","COUNTY":"Tarrant"},"geometry":{"type":"Polygon","coordinates":[[[-97.17906,32.78026],[-97.17925,32.77966],[-97.17978,32.7797],[-97.17906,32.78026]]]}},{"type":"Feature","properties":{"PRECINCT":"tarrant:1078","COUNTY":"Tarrant"},"geometry":{"type":"Polygon","coordinates":[[[-97.30078,32.70778],[-97.30312,32.70432],[-97.30256,32.70343],[-97.30295,32.70258],[-97.30354,32.70249],[-97.30425,32.70307],[-97.30507,32.7032],[-97.30732,32.70148],[-97.30753,32.70041],[-97.30652,32.69953],[-97.30575,32.69797],[-97.30595,32.69657],[-97.31001,32.69938],[-97.31389,32.70023],[-97.31623,32.70098],[-97.31743,32.70152],[-97.31708,32.70197],[-97.31856,32.70284],[-97.31848,32.70777],[-97.31263,32.70785],[-97.31263,32.70589],[-97.31106,32.70594],[-97.30959,32.71045],[-97.30124,32.71046],[-97.30023,32.7103],[-97.29965,32.70964],[-97.30027,32.70942],[-97.30054,32.70907],[-97.30078,32.70778]]]}},{"type":"Feature","properties":{"PRECINCT":"tarrant:1079","COUNTY":"Tarrant"},"geometry":{"type":"Polygon","coordinates":[[[-97.30968,32.72711],[-97.30978,32.71737],[-97.32474,32.71732],[-97.3227,32.7244],[-97.31833,32.7244],[-97.3183,32.72704],[-97.30968,32.72711]]]}},{"type":"Feature","properties":{"PRECINCT":"tarrant:1084","COUNTY":"Tarrant"},"geometry":{"type":"Polygon","coordinates":[[[-97.26906,32.62373],[-97.26933,32.62373],[-97.26934,32.62561],[-97.26878,32.62561],[-97.26906,32.62373]]]}},{"type":"Feature","properties":{"PRECINCT":"tarrant:1089","COUNTY":"Tarrant"},"geometry":{"type":"Polygon","coordinates":[[[-97.30734,32.71737],[-97.31106,32.70594],[-97.31263,32.70589],[-97.31263,32.70785],[-97.31848,32.70777],[-97.31845,32.71043],[-97.32024,32.71039],[-97.32027,32.713],[-97.32055,32.71299],[-97.32041,32.71738],[-97.30734,32.71737]]]}},{"type":"Feature","properties":{"PRECINCT":"tarrant:1090","COUNTY":"Tarrant"},"geometry":{"type":"Polygon","coordinates":[[[-97.30693,32.73141],[-97.29732,32.73118],[-97.29736,32.73055],[-97.29658,32.72777],[-97.29454,32.72749],[-97.29371,32.72649],[-97.2936,32.72556],[-97.29455,32.72414],[-97.29385,32.72324],[-97.29306,32.7198],[-97.29461,32.71831],[-97.29628,32.71767],[-97.29651,32.71648],[-97.29817,32.71298],[-97.29747,32.71267],[-97.29748,32.71223],[-97.29794,32.71177],[-97.29924,32.71204],[-97.29979,32.71136],[-97.29937,32.71062],[-97.29942,32.70971],[-97.29965,32.70964],[-97.30012,32.71023],[-97.3007,32.71045],[-97.30959,32.71045],[-97.30734,32.71737],[-97.30978,32.71737],[-97.30968,32.72711],[-97.31062,32.72712],[-97.31063,32.72877],[-97.31121,32.72978],[-97.30516,32.72972],[-97.30693,32.73141]]]}},{"type":"Feature","properties":{"PRECINCT":"tarrant:1099","COUNTY":"Tarrant"},"geometry":{"type":"Polygon","coordinates":[[[-97.22427,32.74607],[-97.22433,32.74363],[-97.22373,32.7446],[-97.22506,32.74058],[-97.22521,32.73777],[-97.22494,32.73774],[-97.22497,32.73484],[-97.22459,32.73626],[-97.22458,32.73562],[-97.22194,32.73571],[-97.22195,32.7349],[-97.22085,32.7349],[-97.22125,32.73372],[-97.22052,32.73356],[-97.22153,32.73036],[-97.22009,32.73083],[-97.22012,32.73068],[-97.2233,32.72955],[-97.22529,32.72944],[-97.22525,32.73284],[-97.23644,32.73117],[-97.23643,32.73789],[-97.23445,32.73797],[-97.23438,32.74607],[-97.23026,32.7461],[-97.23035,32.74168],[-97.22793,32.74169],[-97.22787,32.7461],[-97.22671,32.74609],[-97.22674,32.74169],[-97.22556,32.74169],[-97.22549,32.74608],[-97.22427,32.74607]]]}},{"type":"Feature","properties":{"PRECINCT":"tarrant:1104","COUNTY":"Tarrant"},"geometry":{"type":"Polygon","coordinates":[[[-97.29055,32.70258],[-97.28729,32.70228],[-97.28611,32.70293],[-97.28156,32.70018],[-97.28061,32.69918],[-97.28019,32.69774],[-97.28015,32.68321],[-97.29148,32.68839],[-97.28736,32.68484],[-97.28922,32.68479],[-97.2969,32.68711],[-97.29952,32.6875],[-97.30328,32.6892],[-97.30441,32.69026],[-97.30464,32.69112],[-97.30425,32.69335],[-97.30438,32.69448],[-97.30495,32.69561],[-97.30595,32.69657],[-97.30575,32.69797],[-97.30652,32.69953],[-97.30747,32.7003],[-97.30755,32.70071],[-97.30725,32.70159],[-97.30529,32.70314],[-97.30442,32.70314],[-97.30341,32.70246],[-97.30274,32.70275],[-97.3026,32.70368],[-97.30312,32.70432],[-97.30243,32.70497],[-97.30088,32.70757],[-97.3007,32.70874],[-97.30027,32.70942],[-97.29965,32.70964],[-97.29862,32.70784],[-97.29716,32.70717],[-97.29542,32.70585],[-97.29432,32.70469],[-97.29306,32.70422],[-97.29229,32.70326],[-97.29055,32.70258]]]}},{"type":"Feature","properties":{"PRECINCT":"tarrant:1106","COUNTY":"Tarrant"},"geometry":{"type":"Polygon","coordinates":[[[-97.26287,32.71585],[-97.25608,32.71562],[-97.25607,32.70667],[-97.25353,32.70666],[-97.25345,32.69893],[-97.2596,32.69902],[-97.26165,32.70001],[-97.2623,32.70009],[-97.26292,32.70065],[-97.26287,32.71585]]]}},{"type":"Feature","properties":{"PRECINCT":"tarrant:1126","COUNTY":"Tarrant"},"geometry":{"type":"Polygon","coordinates":[[[-97.18329,32.75794],[-97.18315,32.75182],[-97.18114,32.74854],[-97.18113,32.74661],[-97.18165,32.74565],[-97.19879,32.74576],[-97.19859,32.75382],[-97.19317,32.7538],[-97.19317,32.75304],[-97.19095,32.75308],[-97.19094,32.75771],[-97.19005,32.75763],[-97.19006,32.75468],[-97.19024,32.75433],[-97.18945,32.7538],[-97.18922,32.75433],[-97.18923,32.75764],[-97.18612,32.75737],[-97.18329,32.75794]]]}},{"type":"Feature","properties":{"PRECINCT":"tarrant:1127","COUNTY":"Tarrant"},"geometry":{"type":"Polygon","coordinates":[[[-97.22539,32.72046],[-97.2376,32.72068],[-97.23732,32.73064],[-97.23651,32.73091],[-97.23644,32.73117],[-97.22525,32.73284],[-97.22539,32.72046]]]}},{"type":"Feature","properties":{"PRECINCT":"tarrant:1146","COUNTY":"Tarrant"},"geometry":{"type":"Polygon","coordinates":[[[-97.22577,32.76007],[-97.22585,32.75955],[-97.22399,32.75919],[-97.22095,32.75932],[-97.21993,32.7591],[-97.21869,32.75667],[-97.21658,32.75474],[-97.22232,32.74607],[-97.23358,32.74608],[-97.23355,32.74831],[-97.23452,32.74815],[-97.23527,32.7477],[-97.23598,32.74822],[-97.23653,32.74741],[-97.23665,32.74607],[-97.23812,32.74605],[-97.23952,32.7457],[-97.24361,32.74568],[-97.24358,32.74688],[-97.24237,32.74695],[-97.24218,32.74735],[-97.24244,32.74757],[-97.24358,32.74757],[-97.24338,32.75182],[-97.2425,32.75214],[-97.24175,32.75311],[-97.24138,32.75739],[-97.2403,32.76005],[-97.23957,32.76006],[-97.23961,32.76049],[-97.23835,32.76055],[-97.23834,32.76078],[-97.23673,32.76081],[-97.22577,32.76007]]]}},{"type":"Feature","properties":{"PRECINCT":"tarrant:1149","COUNTY":"Tarrant"},"geometry":{"type":"Polygon","coordinates":[[[-97.25936,32.69899],[-97.24516,32.69891],[-97.24174,32.69768],[-97.23711,32.69759],[-97.23935,32.69247],[-97.24029,32.68952],[-97.2408,32.66877],[-97.24109,32.66719],[-97.2418,32.66564],[-97.26345,32.67563],[-97.26319,32.67648],[-97.26318,32.69165],[-97.26296,32.69278],[-97.26292,32.70065],[-97.2623,32.70009],[-97.26165,32.70001],[-97.26034,32.69925],[-97.25936,32.69899]]]}},{"type":"Feature","properties":{"PRECINCT":"tarrant:1151","COUNTY":"Tarrant"},"geometry":{"type":"Polygon","coordinates":[[[-97.2253,32.77419],[-97.22403,32.77464],[-97.22302,32.77292],[-97.22283,32.77145],[-97.2236,32.769],[-97.22515,32.7688],[-97.22672,32.76811],[-97.22773,32.76719],[-97.22868,32.76554],[-97.23013,32.76654],[-97.23059,32.76604],[-97.23139,32.76575],[-97.23356,32.76561],[-97.23371,32.76587],[-97.23751,32.76564],[-97.23798,32.76543],[-97.23736,32.76423],[-97.23894,32.76404],[-97.24072,32.76326],[-97.24159,32.76471],[-97.24222,32.76718],[-97.24289,32.76868],[-97.24283,32.77016],[-97.24123,32.77014],[-97.24009,32.77048],[-97.23269,32.77479],[-97.22496,32.77683],[-97.22481,32.77633],[-97.22607,32.7759],[-97.2263,32.77541],[-97.226,32.77461],[-97.2253,32.77419]]]}},{"type":"Feature","properties":{"PRECINCT":"tarrant:1153","COUNTY":"Tarrant"},"geometry":{"type":"Polygon","coordinates":[[[-97.26991,32.66136],[-97.26992,32.64619],[-97.27202,32.64621],[-97.27202,32.64559],[-97.27792,32.64557],[-97.27792,32.64847],[-97.28486,32.64842],[-97.28141,32.66133],[-97.26991,32.66136]]]}},{"type":"Feature","properties":{"PRECINCT":"tarrant:1154","COUNTY":"Tarrant"},"geometry":{"type":"Polygon","coordinates":[[[-97.28736,32.68484],[-97.28011,32.67824],[-97.28019,32.67177],[-97.29523,32.67225],[-97.29333,32.66954],[-97.29289,32.6685],[-97.29293,32.66723],[-97.29358,32.66586],[-97.30087,32.66902],[-97.30339,32.66958],[-97.30632,32.66982],[-97.30949,32.67222],[-97.31303,32.67609],[-97.31408,32.67765],[-97.31472,32.67959],[-97.31522,32.68437],[-97.31264,32.6844],[-97.31296,32.68362],[-97.31084,32.68198],[-97.31256,32.6808],[-97.31106,32.67638],[-97.31111,32.67592],[-97.31157,32.6755],[-97.3107,32.67471],[-97.31005,32.67497],[-97.31048,32.67857],[-97.31118,32.67933],[-97.3116,32.68056],[-97.3089,32.68244],[-97.30642,32.68314],[-97.30626,32.68439],[-97.28777,32.68485],[-97.28736,32.68484]]]}},{"type":"Feature","properties":{"PRECINCT":"tarrant:1170","COUNTY":"Tarrant"},"geometry":{"type":"Polygon","coordinates":[[[-97.23961,32.76049],[-97.23957,32.76006],[-97.2403,32.76005],[-97.24131,32.75769],[-97.24175,32.75311],[-97.2425,32.75214],[-97.24338,32.75182],[-97.24358,32.74757],[-97.24244,32.74757],[-97.24218,32.74735],[-97.24237,32.74695],[-97.24358,32.74688],[-97.24361,32.74568],[-97.24206,32.74568],[-97.24208,32.74223],[-97.23861,32.74217],[-97.23863,32.73964],[-97.24213,32.74077],[-97.24504,32.74101],[-97.245,32.74343],[-97.24877,32.74343],[-97.24875,32.74455],[-97.25252,32.7446],[-97.25255,32.74344],[-97.25606,32.74348],[-97.25607,32.74096],[-97.26173,32.74096],[-97.26184,32.74571],[-97.26264,32.74569],[-97.26165,32.74696],[-97.26167,32.75735],[-97.26025,32.75748],[-97.2579,32.75838],[-97.23961,32.76049]]]}},{"type":"Feature","properties":{"PRECINCT":"tarrant:1184","COUNTY":"Tarrant"},"geometry":{"type":"Polygon","coordinates":[[[-97.23674,32.6976],[-97.22626,32.69759],[-97.22526,32.69689],[-97.2254,32.69617],[-97.22556,32.69607],[-97.22566,32.69611],[-97.2254,32.69626],[-97.22549,32.69674],[-97.22571,32.69629],[-97.22654,32.69742],[-97.22608,32.6963],[-97.22766,32.69572],[-97.23069,32.69561],[-97.2324,32.69528],[-97.23288,32.69498],[-97.23219,32.69455],[-97.23242,32.6943],[-97.23264,32.69437],[-97.23329,32.69325],[-97.23386,32.6928],[-97.23238,32.69018],[-97.2323,32.6895],[-97.23233,32.68807],[-97.23345,32.68782],[-97.23227,32.68775],[-97.2317,32.68675],[-97.23137,32.68528],[-97.23156,32.68427],[-97.23247,32.68388],[-97.23198,32.68385],[-97.23208,32.68238],[-97.23151,32.68185],[-97.23044,32.68174],[-97.22997,32.68129],[-97.23025,32.68024],[-97.22976,32.6773],[-97.22998,32.67666],[-97.2306,32.67543],[-97.23122,32.67482],[-97.23183,32.67458],[-97.23186,32.67528],[-97.2322,32.67529],[-97.23222,32.67439],[-97.23304,32.67343],[-97.23371,32.67164],[-97.23271,32.66979],[-97.2323,32.66953],[-97.23188,32.66961],[-97.23164,32.66931],[-97.23159,32.66812],[-97.23517,32.66812],[-97.23743,32.66784],[-97.23926,32.66702],[-97.24137,32.66535],[-97.2418,32.66564],[-97.2412,32.66686],[-97.24082,32.66842],[-97.24041,32.67905],[-97.24003,32.67899],[-97.23992,32.68955],[-97.23973,32.69059],[-97.23775,32.69565],[-97.23674,32.6976]]]}},{"type":"Feature","properties":{"PRECINCT":"tarrant:1188","COUNTY":"Tarrant"},"geometry":{"type":"Polygon","coordinates":[[[-97.21409,32.72792],[-97.20724,32.72773],[-97.20757,32.72724],[-97.20757,32.72497],[-97.20853,32.72566],[-97.20887,32.72622],[-97.20925,32.72603],[-97.20899,32.72497],[-97.20829,32.72378],[-97.20874,32.72287],[-97.20953,32.72238],[-97.20971,32.72194],[-97.21024,32.72175],[-97.2112,32.72196],[-97.21242,32.72333],[-97.21223,32.72443],[-97.21156,32.72502],[-97.2118,32.72515],[-97.21172,32.72565],[-97.21206,32.72594],[-97.21185,32.72704],[-97.21237,32.72666],[-97.21389,32.72757],[-97.21402,32.72705],[-97.21375,32.7264],[-97.21323,32.72603],[-97.2134,32.72571],[-97.21315,32.72521],[-97.21351,32.72448],[-97.21404,32.72459],[-97.21464,32.72526],[-97.21601,32.72565],[-97.21658,32.72604],[-97.21742,32.72581],[-97.21868,32.7269],[-97.21927,32.72654],[-97.21748,32.72548],[-97.21773,32.72474],[-97.21686,32.72438],[-97.21493,32.72256],[-97.21469,32.722],[-97.21502,32.72169],[-97.21415,32.72158],[-97.21368,32.72129],[-97.2149,32.72061],[-97.215,32.72033],[-97.21406,32.72054],[-97.21363,32.72031],[-97.2132,32.72056],[-97.21231,32.71993],[-97.21236,32.71961],[-97.21321,32.71915],[-97.21286,32.7189],[-97.21311,32.71867],[-97.21709,32.71948],[-97.22497,32.7195],[-97.22552,32.71968],[-97.22529,32.72944],[-97.2233,32.72955],[-97.21982,32.73073],[-97.21738,32.73064],[-97.21426,32.73011],[-97.21427,32.72814],[-97.21409,32.72792]]]}},{"type":"Feature","properties":{"PRECINCT":"tarrant:1189","COUNTY":"Tarrant"},"geometry":{"type":"Polygon","coordinates":[[[-97.32712,32.66148],[-97.32783,32.65881],[-97.33072,32.65076],[-97.33664,32.64849],[-97.338,32.64822],[-97.34068,32.64854],[-97.34061,32.64989],[-97.34858,32.64969],[-97.34857,32.64878],[-97.35335,32.64883],[-97.35285,32.66146],[-97.33372,32.66148],[-97.33286,32.66121],[-97.33189,32.66259],[-97.33181,32.66447],[-97.32691,32.66543],[-97.32712,32.66148]]]}},{"type":"Feature","properties":{"PRECINCT":"tarrant:1211","COUNTY":"Tarrant"},"geometry":{"type":"Polygon","coordinates":[[[-97.23853,32.72111],[-97.23715,32.72053],[-97.22539,32.72046],[-97.22552,32.71968],[-97.22497,32.7195],[-97.21709,32.71948],[-97.21318,32.71869],[-97.2142,32.71776],[-97.21534,32.71555],[-97.21582,32.71552],[-97.21618,32.71579],[-97.21677,32.71561],[-97.2169,32.71532],[-97.21695,32.71564],[-97.21756,32.7159],[-97.21712,32.71699],[-97.21781,32.71651],[-97.21797,32.71537],[-97.21965,32.71615],[-97.21984,32.71664],[-97.22022,32.71688],[-97.22019,32.71637],[-97.221,32.71636],[-97.22097,32.71608],[-97.21988,32.7158],[-97.21871,32.71479],[-97.21885,32.71431],[-97.21982,32.71385],[-97.21991,32.71337],[-97.21931,32.71331],[-97.21936,32.71282],[-97.21891,32.71236],[-97.21904,32.71125],[-97.2201,32.71051],[-97.22061,32.70972],[-97.22152,32.70966],[-97.22219,32.70901],[-97.22322,32.70983],[-97.22381,32.71004],[-97.22398,32.70993],[-97.22333,32.70974],[-97.22235,32.70881],[-97.22188,32.70894],[-97.22148,32.70867],[-97.22017,32.70856],[-97.21832,32.70924],[-97.21738,32.71198],[-97.21682,32.7121],[-97.21749,32.71283],[-97.21703,32.7129],[-97.21687,32.71377],[-97.21619,32.71345],[-97.2163,32.7131],[-97.21556,32.7127],[-97.21501,32.7127],[-97.21479,32.7131],[-97.21423,32.71329],[-97.21429,32.71274],[-97.21565,32.71184],[-97.21675,32.71057],[-97.2166,32.70981],[-97.21734,32.70919],[-97.22,32.70799],[-97.22132,32.7077],[-97.22284,32.70678],[-97.22406,32.70695],[-97.22298,32.7064],[-97.22327,32.70454],[-97.22297,32.70418],[-97.22255,32.70421],[-97.22146,32.70518],[-97.22185,32.70529],[-97.22195,32.70567],[-97.22228,32.70585],[-97.22178,32.70632],[-97.22045,32.70662],[-97.21981,32.70654],[-97.21937,32.70589],[-97.21924,32.70645],[-97.21879,32.70687],[-97.21633,32.70705],[-97.21529,32.70631],[-97.21574,32.7058],[-97.2177,32.70481],[-97.21836,32.70374],[-97.2183,32.70238],[-97.21676,32.70136],[-97.21668,32.70098],[-97.21725,32.69912],[-97.21838,32.69751],[-97.21901,32.69733],[-97.2195,32.69749],[-97.21965,32.69724],[-97.22051,32.69733],[-97.22102,32.69769],[-97.22138,32.69851],[-97.22203,32.69889],[-97.22289,32.69855],[-97.22349,32.69771],[-97.22427,32.69773],[-97.22454,32.69736],[-97.22527,32.69709],[-97.22526,32.69689],[-97.22626,32.69759],[-97.23739,32.69759],[-97.23156,32.70815],[-97.23325,32.70862],[-97.24185,32.70875],[-97.24334,32.7093],[-97.24679,32.71148],[-97.24847,32.71172],[-97.24841,32.71829],[-97.25205,32.7183],[-97.25227,32.71901],[-97.25225,32.72116],[-97.23853,32.72111]]]}},{"type":"Feature","properties":{"PRECINCT":"tarrant:1227","COUNTY":"Tarrant"},"geometry":{"type":"Polygon","coordinates":[[[-97.16724,32.7657],[-97.165,32.76566],[-97.16462,32.76494],[-97.1609,32.76237],[-97.1585,32.76034],[-97.18329,32.75999],[-97.18331,32.76516],[-97.18478,32.76782],[-97.18506,32.77123],[-97.18666,32.77308],[-97.1866,32.78028],[-97.17672,32.77949],[-97.17568,32.77901],[-97.175,32.77781],[-97.1749,32.77298],[-97.17439,32.77239],[-97.17036,32.77019],[-97.16933,32.76928],[-97.16769,32.76745],[-97.16724,32.7657]]]}},{"type":"Feature","properties":{"PRECINCT":"tarrant:1236","COUNTY":"Tarrant"},"geometry":{"type":"Polygon","coordinates":[[[-97.26167,32.75735],[-97.26169,32.7468],[-97.26264,32.74569],[-97.26718,32.74344],[-97.26778,32.74337],[-97.27082,32.74395],[-97.27089,32.74521],[-97.28146,32.74517],[-97.28161,32.74633],[-97.28434,32.74627],[-97.28435,32.74751],[-97.28581,32.74772],[-97.28941,32.74771],[-97.28943,32.74968],[-97.2806,32.75028],[-97.27748,32.75094],[-97.27432,32.75213],[-97.26555,32.75686],[-97.26545,32.7567],[-97.26346,32.75726],[-97.26167,32.75735]]]}},{"type":"Feature","properties":{"PRECINCT":"tarrant:1251","COUNTY":"Tarrant"},"geometry":{"type":"Polygon","coordinates":[[[-97.34862,32.63482],[-97.3486,32.61644],[-97.34907,32.61516],[-97.35087,32.61234],[-97.34989,32.61413],[-97.35276,32.61411],[-97.35313,32.61472],[-97.35669,32.61474],[-97.35832,32.61527],[-97.35838,32.61729],[-97.35938,32.6181],[-97.35907,32.61861],[-97.35785,32.61865],[-97.35788,32.61938],[-97.36019,32.61928],[-97.36026,32.61817],[-97.36321,32.61818],[-97.36423,32.61782],[-97.36521,32.6185],[-97.36687,32.61854],[-97.36657,32.62238],[-97.36747,32.6224],[-97.36767,32.62029],[-97.36847,32.62036],[-97.36836,32.62158],[-97.36854,32.62209],[-97.36995,32.62186],[-97.36995,32.62437],[-97.36642,32.62458],[-97.36634,32.62318],[-97.36497,32.62311],[-97.36392,32.62383],[-97.36332,32.62333],[-97.36178,32.62474],[-97.36165,32.62546],[-97.35743,32.62548],[-97.35695,32.62714],[-97.35693,32.63096],[-97.35765,32.6348],[-97.34862,32.63482]]]}},{"type":"Feature","properties":{"PRECINCT":"tarrant:1257","COUNTY":"Tarrant"},"geometry":{"type":"Polygon","coordinates":[[[-97.3561,32.66171],[-97.35285,32.66146],[-97.35335,32.64883],[-97.35806,32.64867],[-97.36768,32.64963],[-97.3619,32.65534],[-97.36189,32.65937],[-97.36523,32.6594],[-97.36568,32.65918],[-97.36824,32.66071],[-97.36653,32.6629],[-97.35601,32.66297],[-97.3561,32.66171]]]}},{"type":"Feature","properties":{"PRECINCT":"tarrant:1270","COUNTY":"Tarrant"},"geometry":{"type":"Polygon","coordinates":[[[-97.21899,32.7376],[-97.21389,32.7365],[-97.19879,32.73636],[-97.19881,32.72832],[-97.19967,32.728],[-97.20322,32.72776],[-97.20371,32.72795],[-97.20414,32.72795],[-97.20361,32.72776],[-97.21397,32.72791],[-97.21427,32.72814],[-97.21426,32.73011],[-97.21882,32.73081],[-97.22012,32.73068],[-97.22009,32.73083],[-97.22153,32.73036],[-97.22052,32.73356],[-97.22125,32.73372],[-97.22085,32.7349],[-97.22195,32.7349],[-97.22194,32.73571],[-97.22458,32.73562],[-97.22459,32.73626],[-97.22497,32.73484],[-97.22494,32.73774],[-97.21899,32.7376]]]}},{"type":"Feature","properties":{"PRECINCT":"tarrant:1277","COUNTY":"Tarrant"},"geometry":{"type":"Polygon","coordinates":[[[-97.26044,32.75745],[-97.26167,32.75735],[-97.26168,32.7604],[-97.26004,32.76257],[-97.25881,32.7658],[-97.25881,32.76693],[-97.25726,32.76794],[-97.25502,32.77027],[-97.25412,32.77079],[-97.25192,32.77113],[-97.24283,32.77016],[-97.24289,32.76868],[-97.24222,32.76718],[-97.24159,32.76471],[-97.2399,32.76211],[-97.23963,32.7607],[-97.25699,32.75868],[-97.26044,32.75745]]]}},{"type":"Feature","properties":{"PRECINCT":"tarrant:1278","COUNTY":"Tarrant"},"geometry":{"type":"Polygon","coordinates":[[[-97.18329,32.75794],[-97.18612,32.75737],[-97.18923,32.75764],[-97.18922,32.75433],[-97.18945,32.7538],[-97.19024,32.75433],[-97.19006,32.75468],[-97.19005,32.75763],[-97.19094,32.75771],[-97.19095,32.75308],[-97.19317,32.75304],[-97.19317,32.7538],[-97.19859,32.75382],[-97.1986,32.75353],[-97.20189,32.75349],[-97.20202,32.75263],[-97.20367,32.75262],[-97.20365,32.75435],[-97.20458,32.75435],[-97.2046,32.75183],[-97.20553,32.75185],[-97.20551,32.75435],[-97.20641,32.75435],[-97.20641,32.75731],[-97.20733,32.75731],[-97.20735,32.75434],[-97.21051,32.75432],[-97.20954,32.75261],[-97.21543,32.75276],[-97.21612,32.7521],[-97.21627,32.75154],[-97.21804,32.75153],[-97.21614,32.75446],[-97.21658,32.75474],[-97.21416,32.7599],[-97.18329,32.75999],[-97.18329,32.75794]]]}},{"type":"Feature","properties":{"PRECINCT":"tarrant:1279","COUNTY":"Tarrant"},"geometry":{"type":"Polygon","coordinates":[[[-97.20641,32.75731],[-97.20641,32.75435],[-97.20551,32.75435],[-97.20553,32.75185],[-97.2046,32.75183],[-97.20458,32.75435],[-97.20365,32.75435],[-97.20367,32.75262],[-97.20202,32.75263],[-97.20189,32.75349],[-97.1986,32.75353],[-97.19879,32.74576],[-97.21632,32.74613],[-97.22232,32.74607],[-97.21658,32.75474],[-97.21614,32.75446],[-97.21804,32.75153],[-97.21627,32.75154],[-97.21612,32.7521],[-97.21543,32.75276],[-97.20954,32.75261],[-97.21051,32.75432],[-97.20735,32.75434],[-97.20733,32.75731],[-97.20641,32.75731]]]}},{"type":"Feature","properties":{"PRECINCT":"tarrant:1291","COUNTY":"Tarrant"},"geometry":{"type":"Polygon","coordinates":[[[-97.29523,32.67225],[-97.28019,32.67177],[-97.28025,32.66625],[-97.28868,32.63378],[-97.29222,32.63381],[-97.29223,32.63365],[-97.29269,32.63364],[-97.29269,32.63103],[-97.30431,32.63104],[-97.30443,32.62756],[-97.32148,32.62766],[-97.32137,32.64374],[-97.32158,32.64369],[-97.32158,32.65157],[-97.32137,32.66135],[-97.32076,32.66679],[-97.31082,32.66922],[-97.3061,32.66964],[-97.30632,32.66982],[-97.30339,32.66958],[-97.30087,32.66902],[-97.29358,32.66586],[-97.29293,32.66723],[-97.29289,32.6685],[-97.29333,32.66954],[-97.29523,32.67225]]]}},{"type":"Feature","properties":{"PRECINCT":"tarrant:1293","COUNTY":"Tarrant"},"geometry":{"type":"Polygon","coordinates":[[[-97.26788,32.67758],[-97.24137,32.66535],[-97.24401,32.66311],[-97.24566,32.66221],[-97.24824,32.66145],[-97.26362,32.66137],[-97.2637,32.66604],[-97.2646,32.66606],[-97.26461,32.67479],[-97.26868,32.67664],[-97.26788,32.67758]]]}},{"type":"Feature","properties":{"PRECINCT":"tarrant:1295","COUNTY":"Tarrant"},"geometry":{"type":"Polygon","coordinates":[[[-97.28011,32.64313],[-97.2802,32.63395],[-97.27237,32.63381],[-97.27236,32.6345],[-97.26994,32.63457],[-97.26995,32.63515],[-97.26131,32.63514],[-97.26137,32.63096],[-97.29269,32.63103],[-97.29269,32.63364],[-97.29223,32.63365],[-97.29222,32.63381],[-97.28868,32.63378],[-97.28621,32.64315],[-97.28011,32.64313]]]}},{"type":"Feature","properties":{"PRECINCT":"tarrant:1297","COUNTY":"Tarrant"},"geometry":{"type":"Polygon","coordinates":[[[-97.25205,32.7183],[-97.24841,32.71829],[-97.24847,32.71172],[-97.24679,32.71148],[-97.24334,32.7093],[-97.24185,32.70875],[-97.23325,32.70862],[-97.23156,32.70815],[-97.23739,32.69759],[-97.24174,32.69768],[-97.24516,32.69891],[-97.25345,32.69893],[-97.25353,32.70666],[-97.25607,32.70667],[-97.25608,32.71562],[-97.26287,32.71585],[-97.26286,32.71839],[-97.26113,32.7181],[-97.25786,32.71808],[-97.25786,32.72122],[-97.25225,32.72116],[-97.25225,32.71861],[-97.25205,32.7183]]]}},{"type":"Feature","properties":{"PRECINCT":"tarrant:1300","COUNTY":"Tarrant"},"geometry":{"type":"Polygon","coordinates":[[[-97.33072,32.65076],[-97.33265,32.64513],[-97.33401,32.63519],[-97.34381,32.63504],[-97.34499,32.63475],[-97.34588,32.63409],[-97.34701,32.63466],[-97.34862,32.63482],[-97.34858,32.64969],[-97.34061,32.64989],[-97.34068,32.64854],[-97.338,32.64822],[-97.33664,32.64849],[-97.33072,32.65076]]]}},{"type":"Feature","properties":{"PRECINCT":"tarrant:1301","COUNTY":"Tarrant"},"geometry":{"type":"Polygon","coordinates":[[[-97.26992,32.64551],[-97.27005,32.64617],[-97.26991,32.66136],[-97.24953,32.66135],[-97.24694,32.66176],[-97.24465,32.66273],[-97.24415,32.65879],[-97.24282,32.65646],[-97.25263,32.65647],[-97.25267,32.64555],[-97.26992,32.64551]]]}},{"type":"Feature","properties":{"PRECINCT":"tarrant:1311","COUNTY":"Tarrant"},"geometry":{"type":"Polygon","coordinates":[[[-97.18165,32.74565],[-97.18236,32.74457],[-97.18254,32.74296],[-97.18242,32.73067],[-97.19564,32.72869],[-97.19884,32.72857],[-97.19879,32.74576],[-97.18165,32.74565]]]}},{"type":"Feature","properties":{"PRECINCT":"tarrant:1346","COUNTY":"Tarrant"},"geometry":{"type":"Polygon","coordinates":[[[-97.2374,32.73031],[-97.2376,32.72068],[-97.23853,32.72111],[-97.25695,32.72121],[-97.25695,32.72322],[-97.2574,32.72351],[-97.25746,32.7243],[-97.25735,32.73123],[-97.24514,32.73118],[-97.2374,32.73031]]]}},{"type":"Feature","properties":{"PRECINCT":"tarrant:1366","COUNTY":"Tarrant"},"geometry":{"type":"Polygon","coordinates":[[[-97.26137,32.63096],[-97.26138,32.63029],[-97.2655,32.63026],[-97.26562,32.63042],[-97.26551,32.63098],[-97.26137,32.63096]]]}},{"type":"Feature","properties":{"PRECINCT":"tarrant:1376","COUNTY":"Tarrant"},"geometry":{"type":"Polygon","coordinates":[[[-97.3381,32.75967],[-97.33586,32.75874],[-97.3342,32.7591],[-97.33385,32.7583],[-97.33436,32.75779],[-97.33373,32.75676],[-97.33898,32.75417],[-97.34075,32.75673],[-97.34238,32.75809],[-97.34196,32.75791],[-97.33904,32.75971],[-97.3381,32.75967]]]}},{"type":"Feature","properties":{"PRECINCT":"tarrant:1378","COUNTY":"Tarrant"},"geometry":{"type":"Polygon","coordinates":[[[-97.32146,32.63516],[-97.32154,32.61399],[-97.34969,32.61413],[-97.3489,32.61551],[-97.34851,32.61706],[-97.34862,32.63482],[-97.34701,32.63466],[-97.34588,32.63409],[-97.34499,32.63475],[-97.34381,32.63504],[-97.32459,32.6352],[-97.32146,32.63516]]]}},{"type":"Feature","properties":{"PRECINCT":"tarrant:1407","COUNTY":"Tarrant"},"geometry":{"type":"Polygon","coordinates":[[[-97.22793,32.74169],[-97.23035,32.74168],[-97.23026,32.7461],[-97.22787,32.7461],[-97.22793,32.74169]]]}},{"type":"Feature","properties":{"PRECINCT":"tarrant:1414","COUNTY":"Tarrant"},"geometry":{"type":"Polygon","coordinates":[[[-97.22556,32.74169],[-97.22674,32.74169],[-97.22671,32.74609],[-97.22549,32.74608],[-97.22556,32.74169]]]}},{"type":"Feature","properties":{"PRECINCT":"tarrant:1415","COUNTY":"Tarrant"},"geometry":{"type":"Polygon","coordinates":[[[-97.23355,32.74831],[-97.23358,32.74608],[-97.23438,32.74607],[-97.23445,32.73797],[-97.23643,32.73789],[-97.23645,32.73105],[-97.23732,32.73064],[-97.2374,32.73031],[-97.24514,32.73118],[-97.26193,32.73126],[-97.26195,32.73425],[-97.2537,32.73468],[-97.25369,32.74097],[-97.25607,32.74096],[-97.25606,32.74348],[-97.25255,32.74344],[-97.25252,32.7446],[-97.24875,32.74455],[-97.24877,32.74343],[-97.245,32.74343],[-97.24504,32.74101],[-97.24213,32.74077],[-97.23863,32.73964],[-97.23861,32.74217],[-97.2421,32.74225],[-97.24206,32.74568],[-97.23952,32.7457],[-97.23812,32.74605],[-97.23665,32.74607],[-97.23653,32.74741],[-97.23598,32.74822],[-97.23527,32.7477],[-97.23452,32.74815],[-97.23355,32.74831]]]}},{"type":"Feature","properties":{"PRECINCT":"tarrant:1439","COUNTY":"Tarrant"},"geometry":{"type":"Polygon","coordinates":[[[-97.26998,32.62373],[-97.26992,32.61646],[-97.28712,32.6165],[-97.28711,32.62374],[-97.26998,32.62373]]]}},{"type":"Feature","properties":{"PRECINCT":"tarrant:1440","COUNTY":"Tarrant"},"geometry":{"type":"Polygon","coordinates":[[[-97.34857,32.64878],[-97.34862,32.63482],[-97.3596,32.6348],[-97.35956,32.64085],[-97.36127,32.64093],[-97.36127,32.64167],[-97.35957,32.64172],[-97.35956,32.644],[-97.36315,32.64411],[-97.36324,32.64479],[-97.36439,32.64613],[-97.36152,32.64707],[-97.3608,32.64812],[-97.36057,32.64894],[-97.35785,32.64867],[-97.35553,32.64887],[-97.34857,32.64878]]]}},{"type":"Feature","properties":{"PRECINCT":"tarrant:1444","COUNTY":"Tarrant"},"geometry":{"type":"Polygon","coordinates":[[[-97.3627,32.62386],[-97.36332,32.62333],[-97.36392,32.62383],[-97.36477,32.62316],[-97.36621,32.62313],[-97.36642,32.62458],[-97.36415,32.62474],[-97.3627,32.62386]]]}},{"type":"Feature","properties":{"PRECINCT":"tarrant:1460","COUNTY":"Tarrant"},"geometry":{"type":"Polygon","coordinates":[[[-97.21277,32.77833],[-97.213,32.76309],[-97.21416,32.7599],[-97.22377,32.75995],[-97.23425,32.76072],[-97.23963,32.7607],[-97.2399,32.76211],[-97.24072,32.76326],[-97.23894,32.76404],[-97.23736,32.76423],[-97.23798,32.76543],[-97.23775,32.76555],[-97.23371,32.76587],[-97.23356,32.76561],[-97.23117,32.76578],[-97.23013,32.76654],[-97.22868,32.76554],[-97.22773,32.76719],[-97.22672,32.76811],[-97.22515,32.7688],[-97.2236,32.769],[-97.22283,32.77145],[-97.22313,32.77322],[-97.22403,32.77464],[-97.2253,32.77419],[-97.226,32.77461],[-97.22628,32.77512],[-97.22607,32.7759],[-97.22481,32.77633],[-97.22496,32.77683],[-97.22329,32.77707],[-97.22077,32.77703],[-97.21593,32.77816],[-97.21277,32.77833]]]}},{"type":"Feature","properties":{"PRECINCT":"tarrant:1479","COUNTY":"Tarrant"},"geometry":{"type":"Polygon","coordinates":[[[-97.26184,32.74571],[-97.26173,32.74096],[-97.27089,32.74101],[-97.27082,32.74395],[-97.26745,32.74337],[-97.26285,32.74563],[-97.26222,32.74572],[-97.26184,32.74571]]]}},{"type":"Feature","properties":{"PRECINCT":"tarrant:1489","COUNTY":"Tarrant"},"geometry":{"type":"Polygon","coordinates":[[[-97.16689,32.757],[-97.16377,32.75767],[-97.16373,32.75749],[-97.1648,32.75723],[-97.16481,32.75695],[-97.16587,32.75571],[-97.16604,32.75009],[-97.16849,32.74956],[-97.17181,32.74921],[-97.17197,32.74799],[-97.17295,32.74646],[-97.17323,32.74558],[-97.1733,32.74121],[-97.17579,32.739],[-97.1776,32.73679],[-97.17912,32.73582],[-97.17944,32.7309],[-97.18001,32.73082],[-97.17999,32.73102],[-97.18242,32.73067],[-97.18254,32.74296],[-97.1823,32.74474],[-97.18113,32.74661],[-97.18114,32.74854],[-97.18315,32.75182],[-97.18329,32.75999],[-97.1671,32.76022],[-97.16704,32.7586],[-97.16752,32.75712],[-97.16689,32.757]]]}},{"type":"Feature","properties":{"PRECINCT":"tarrant:1490","COUNTY":"Tarrant"},"geometry":{"type":"Polygon","coordinates":[[[-97.14974,32.77617],[-97.14936,32.77615],[-97.14905,32.77541],[-97.14907,32.77325],[-97.14856,32.77196],[-97.14864,32.77155],[-97.14908,32.7712],[-97.15053,32.77096],[-97.15135,32.76977],[-97.15215,32.76952],[-97.15281,32.76868],[-97.1527,32.76784],[-97.15209,32.76702],[-97.15126,32.76728],[-97.15137,32.7687],[-97.15071,32.76942],[-97.15049,32.76929],[-97.15019,32.76798],[-97.14941,32.76774],[-97.14953,32.76458],[-97.1516,32.76444],[-97.15177,32.76025],[-97.1585,32.76034],[-97.1609,32.76237],[-97.16333,32.76405],[-97.16316,32.76453],[-97.16352,32.76478],[-97.16346,32.76523],[-97.16218,32.76515],[-97.16099,32.76584],[-97.16017,32.76665],[-97.16063,32.76706],[-97.15995,32.76762],[-97.16123,32.76933],[-97.16109,32.77033],[-97.15766,32.76907],[-97.15318,32.77592],[-97.1531,32.77861],[-97.15173,32.77808],[-97.14974,32.77617]]]}},{"type":"Feature","properties":{"PRECINCT":"tarrant:1491","COUNTY":"Tarrant"},"geometry":{"type":"Polygon","coordinates":[[[-97.22577,32.76007],[-97.21416,32.7599],[-97.21658,32.75474],[-97.21869,32.75667],[-97.21993,32.7591],[-97.22095,32.75932],[-97.22399,32.75919],[-97.22585,32.75955],[-97.22577,32.76007]]]}},{"type":"Feature","properties":{"PRECINCT":"tarrant:1514","COUNTY":"Tarrant"},"geometry":{"type":"Polygon","coordinates":[[[-97.19884,32.72857],[-97.19564,32.72869],[-97.18129,32.73082],[-97.18133,32.7304],[-97.19401,32.72861],[-97.19758,32.72831],[-97.19881,32.72832],[-97.19884,32.72857]]]}},{"type":"Feature","properties":{"PRECINCT":"tarrant:1518","COUNTY":"Tarrant"},"geometry":{"type":"Polygon","coordinates":[[[-97.15177,32.76025],[-97.15176,32.75952],[-97.15359,32.75967],[-97.15523,32.75739],[-97.15641,32.7577],[-97.15641,32.75755],[-97.16373,32.75749],[-97.16377,32.75767],[-97.16643,32.757],[-97.16752,32.75712],[-97.16704,32.7586],[-97.1671,32.76022],[-97.15556,32.76037],[-97.15177,32.76025]]]}},{"type":"Feature","properties":{"PRECINCT":"tarrant:1543","COUNTY":"Tarrant"},"geometry":{"type":"Polygon","coordinates":[[[-97.36657,32.62238],[-97.36687,32.61854],[-97.36521,32.6185],[-97.36423,32.61782],[-97.36321,32.61818],[-97.36026,32.61817],[-97.36019,32.61928],[-97.35788,32.61938],[-97.35785,32.61865],[-97.35907,32.61861],[-97.35938,32.6181],[-97.35838,32.61729],[-97.35832,32.61527],[-97.35669,32.61474],[-97.36944,32.61456],[-97.37149,32.6149],[-97.37036,32.61863],[-97.36995,32.62186],[-97.36854,32.62209],[-97.36836,32.62158],[-97.36847,32.62036],[-97.36767,32.62029],[-97.36747,32.6224],[-97.36657,32.62238]]]}},{"type":"Feature","properties":{"PRECINCT":"tarrant:1559","COUNTY":"Tarrant"},"geometry":{"type":"Polygon","coordinates":[[[-97.32146,32.63526],[-97.32734,32.6352],[-97.32713,32.63817],[-97.3247,32.63816],[-97.32469,32.63964],[-97.32179,32.63965],[-97.32177,32.64364],[-97.32137,32.64374],[-97.32146,32.63526]]]}},{"type":"Feature","properties":{"PRECINCT":"tarrant:1577","COUNTY":"Tarrant"},"geometry":{"type":"Polygon","coordinates":[[[-97.27792,32.64847],[-97.27792,32.64557],[-97.27202,32.64559],[-97.27202,32.64621],[-97.27005,32.64621],[-97.27004,32.64551],[-97.25267,32.64555],[-97.25268,32.63212],[-97.25293,32.63026],[-97.25375,32.63026],[-97.25375,32.63098],[-97.26137,32.63096],[-97.26131,32.63514],[-97.26995,32.63515],[-97.26994,32.63457],[-97.27236,32.6345],[-97.27237,32.63381],[-97.2802,32.63395],[-97.28011,32.64313],[-97.28621,32.64315],[-97.28486,32.64842],[-97.27792,32.64847]]]}},{"type":"Feature","properties":{"PRECINCT":"tarrant:1578","COUNTY":"Tarrant"},"geometry":{"type":"Polygon","coordinates":[[[-97.3013,32.63102],[-97.30122,32.62706],[-97.29703,32.62456],[-97.29323,32.62359],[-97.29329,32.62003],[-97.2946,32.61649],[-97.28712,32.6165],[-97.28712,32.61362],[-97.28762,32.61323],[-97.28949,32.61338],[-97.28958,32.61264],[-97.28898,32.61214],[-97.28809,32.61281],[-97.28712,32.61319],[-97.28712,32.61055],[-97.28582,32.61019],[-97.28582,32.60832],[-97.28645,32.60832],[-97.2865,32.60977],[-97.28838,32.60989],[-97.28841,32.60897],[-97.28906,32.60836],[-97.29008,32.60824],[-97.29031,32.60778],[-97.29156,32.60737],[-97.29125,32.60668],[-97.29226,32.60635],[-97.29386,32.60633],[-97.2946,32.60609],[-97.29423,32.60516],[-97.29419,32.60406],[-97.30871,32.60411],[-97.3087,32.60268],[-97.30964,32.60315],[-97.31042,32.6031],[-97.31039,32.6039],[-97.31098,32.60357],[-97.31107,32.60399],[-97.3118,32.60427],[-97.31202,32.6042],[-97.31179,32.60362],[-97.31226,32.60386],[-97.31293,32.60372],[-97.31328,32.60478],[-97.31385,32.60455],[-97.31389,32.60426],[-97.31449,32.60419],[-97.3145,32.60454],[-97.31478,32.60472],[-97.3157,32.60438],[-97.31619,32.60469],[-97.317,32.6046],[-97.31739,32.60486],[-97.31738,32.60566],[-97.31985,32.60567],[-97.32114,32.61173],[-97.32112,32.62752],[-97.32148,32.62766],[-97.30443,32.62756],[-97.30431,32.63104],[-97.3013,32.63102]]]}},{"type":"Feature","properties":{"PRECINCT":"tarrant:1605","COUNTY":"Tarrant"},"geometry":{"type":"Polygon","coordinates":[[[-97.14966,32.75962],[-97.14996,32.75899],[-97.15086,32.75871],[-97.15224,32.75762],[-97.15377,32.75742],[-97.15488,32.75778],[-97.15359,32.75967],[-97.15176,32.75952],[-97.15177,32.76025],[-97.14974,32.7602],[-97.14966,32.75962]]]}},{"type":"Feature","properties":{"PRECINCT":"tarrant:1607","COUNTY":"Tarrant"},"geometry":{"type":"Polygon","coordinates":[[[-97.14974,32.7602],[-97.15177,32.76025],[-97.1516,32.76444],[-97.14953,32.76458],[-97.14941,32.76774],[-97.14919,32.76781],[-97.14916,32.76476],[-97.14974,32.7602]]]}},{"type":"Feature","properties":{"PRECINCT":"tarrant:1610","COUNTY":"Tarrant"},"geometry":{"type":"Polygon","coordinates":[[[-97.16544,32.76695],[-97.16428,32.76687],[-97.16287,32.76632],[-97.16285,32.76586],[-97.16724,32.76579],[-97.16759,32.76726],[-97.16833,32.76828],[-97.16658,32.76942],[-97.16544,32.76695]]]}},{"type":"Feature","properties":{"PRECINCT":"tarrant:1621","COUNTY":"Tarrant"},"geometry":{"type":"Polygon","coordinates":[[[-97.28654,32.60979],[-97.28645,32.60832],[-97.28582,32.60832],[-97.28583,32.60684],[-97.28484,32.60642],[-97.28484,32.604],[-97.29419,32.60406],[-97.29423,32.60516],[-97.2946,32.60609],[-97.29386,32.60633],[-97.29226,32.60635],[-97.29125,32.60668],[-97.29156,32.60737],[-97.29031,32.60778],[-97.29008,32.60824],[-97.28906,32.60836],[-97.28841,32.60897],[-97.28838,32.60989],[-97.28654,32.60979]]]}},{"type":"Feature","properties":{"PRECINCT":"tarrant:1651","COUNTY":"Tarrant"},"geometry":{"type":"Polygon","coordinates":[[[-97.15488,32.75778],[-97.15377,32.75742],[-97.15442,32.75701],[-97.15641,32.75755],[-97.15641,32.7577],[-97.15523,32.75739],[-97.15488,32.75778]]]}},{"type":"Feature","properties":{"PRECINCT":"tarrant:1652","COUNTY":"Tarrant"},"geometry":{"type":"Polygon","coordinates":[[[-97.31351,32.67416],[-97.31221,32.67426],[-97.31163,32.67451],[-97.30949,32.67222],[-97.3061,32.66964],[-97.31082,32.66922],[-97.32076,32.66679],[-97.32073,32.66706],[-97.31731,32.66785],[-97.31433,32.66904],[-97.3119,32.66947],[-97.31291,32.67026],[-97.31416,32.67015],[-97.31575,32.67455],[-97.31519,32.67505],[-97.31463,32.67503],[-97.31351,32.67416]]]}},{"type":"Feature","properties":{"PRECINCT":"tarrant:1677","COUNTY":"Tarrant"},"geometry":{"type":"Polygon","coordinates":[[[-97.32154,32.74184],[-97.32178,32.73771],[-97.32425,32.73795],[-97.32426,32.7355],[-97.32586,32.73556],[-97.32586,32.7418],[-97.32154,32.74184]]]}},{"type":"Feature","properties":{"PRECINCT":"tarrant:1679","COUNTY":"Tarrant"},"geometry":{"type":"Polygon","coordinates":[[[-97.24152,32.76035],[-97.2579,32.75838],[-97.25699,32.75868],[-97.2471,32.7599],[-97.23834,32.76078],[-97.23835,32.76055],[-97.24152,32.76035]]]}},{"type":"Feature","properties":{"PRECINCT":"tarrant:1714","COUNTY":"Tarrant"},"geometry":{"type":"Polygon","coordinates":[[[-97.19342,32.78166],[-97.18894,32.7805],[-97.1866,32.78028],[-97.18666,32.77308],[-97.18506,32.77123],[-97.18478,32.76782],[-97.18331,32.76516],[-97.18329,32.75999],[-97.21416,32.7599],[-97.213,32.76309],[-97.21277,32.77833],[-97.2109,32.77837],[-97.20775,32.77994],[-97.20115,32.77999],[-97.19883,32.78117],[-97.1959,32.78099],[-97.19424,32.78158],[-97.19342,32.78166]]]}},{"type":"Feature","properties":{"PRECINCT":"tarrant:1739","COUNTY":"Tarrant"},"geometry":{"type":"Polygon","coordinates":[[[-97.28712,32.61362],[-97.28712,32.61319],[-97.28809,32.61281],[-97.28898,32.61214],[-97.28958,32.61264],[-97.28949,32.61338],[-97.28762,32.61323],[-97.28712,32.61362]]]}},{"type":"Feature","properties":{"PRECINCT":"tarrant:1740","COUNTY":"Tarrant"},"geometry":{"type":"Polygon","coordinates":[[[-97.32114,32.61173],[-97.31985,32.60567],[-97.31738,32.60566],[-97.31739,32.60486],[-97.32011,32.60513],[-97.32144,32.61111],[-97.32148,32.62752],[-97.32112,32.62752],[-97.32114,32.61173]]]}},{"type":"Feature","properties":{"PRECINCT":"tarrant:1752","COUNTY":"Tarrant"},"geometry":{"type":"Polygon","coordinates":[[[-97.17999,32.73059],[-97.18001,32.73082],[-97.17944,32.7309],[-97.17945,32.73066],[-97.17999,32.73059]]]}},{"type":"Feature","properties":{"PRECINCT":"tarrant:1753","COUNTY":"Tarrant"},"geometry":{"type":"Polygon","coordinates":[[[-97.18004,32.73058],[-97.18107,32.73043],[-97.18133,32.7304],[-97.18129,32.73082],[-97.17999,32.73102],[-97.18004,32.73058]]]}},{"type":"Feature","properties":{"PRECINCT":"tarrant:1801","COUNTY":"Tarrant"},"geometry":{"type":"Polygon","coordinates":[[[-97.22228,32.70585],[-97.22146,32.70518],[-97.22164,32.70493],[-97.22255,32.70421],[-97.22319,32.70428],[-97.22302,32.70581],[-97.22296,32.70528],[-97.2227,32.70532],[-97.22272,32.70515],[-97.222,32.70557],[-97.22228,32.70585]]]}},{"type":"Feature","properties":{"PRECINCT":"tarrant:1821","COUNTY":"Tarrant"},"geometry":{"type":"Polygon","coordinates":[[[-97.23983,32.69013],[-97.24003,32.67899],[-97.24041,32.67905],[-97.24029,32.68952],[-97.23994,32.69093],[-97.23781,32.69626],[-97.23711,32.69759],[-97.23674,32.6976],[-97.23775,32.69565],[-97.23983,32.69013]]]}},{"type":"Feature","properties":{"PRECINCT":"tarrant:2600","COUNTY":"Tarrant"},"geometry":{"type":"Polygon","coordinates":[[[-97.23212,32.67447],[-97.2322,32.67529],[-97.23186,32.67528],[-97.23183,32.67458],[-97.23212,32.67447]]]}},{"type":"Feature","properties":{"PRECINCT":"tarrant:2601","COUNTY":"Tarrant"},"geometry":{"type":"Polygon","coordinates":[[[-97.23126,32.66859],[-97.23148,32.66807],[-97.23171,32.66808],[-97.23164,32.66931],[-97.23126,32.66859]]]}},{"type":"Feature","properties":{"PRECINCT":"tarrant:2609","COUNTY":"Tarrant"},"geometry":{"type":"Polygon","coordinates":[[[-97.2198,32.71636],[-97.21902,32.71595],[-97.2194,32.71543],[-97.21999,32.71586],[-97.22104,32.71615],[-97.221,32.71636],[-97.22016,32.7164],[-97.22029,32.71687],[-97.21984,32.71664],[-97.2198,32.71636]]]}},{"type":"Feature","properties":{"PRECINCT":"tarrant:2745","COUNTY":"Tarrant"},"geometry":{"type":"Polygon","coordinates":[[[-97.15006,32.75747],[-97.15119,32.75687],[-97.15272,32.75668],[-97.15213,32.75487],[-97.152,32.75361],[-97.15094,32.75156],[-97.15176,32.75124],[-97.15341,32.75321],[-97.1556,32.75381],[-97.1576,32.75341],[-97.161,32.75173],[-97.16157,32.75202],[-97.16094,32.75305],[-97.15949,32.7536],[-97.15948,32.75411],[-97.15849,32.75501],[-97.15788,32.75523],[-97.15766,32.75576],[-97.15542,32.75646],[-97.15363,32.75747],[-97.15224,32.75762],[-97.15086,32.75871],[-97.14996,32.75899],[-97.14969,32.75997],[-97.14918,32.75993],[-97.14931,32.75881],[-97.15018,32.75758],[-97.15006,32.75747]]]}},{"type":"Feature","properties":{"PRECINCT":"tarrant:2755","COUNTY":"Tarrant"},"geometry":{"type":"Polygon","coordinates":[[[-97.20322,32.72776],[-97.20361,32.72776],[-97.20414,32.72795],[-97.20371,32.72795],[-97.20322,32.72776]]]}},{"type":"Feature","properties":{"PRECINCT":"tarrant:2775","COUNTY":"Tarrant"},"geometry":{"type":"Polygon","coordinates":[[[-97.22191,32.70913],[-97.22175,32.70882],[-97.22203,32.70884],[-97.22191,32.70913]]]}},{"type":"Feature","properties":{"PRECINCT":"tarrant:2827A","COUNTY":"Tarrant"},"geometry":{"type":"Polygon","coordinates":[[[-97.2219,32.69882],[-97.22277,32.69846],[-97.22355,32.69761],[-97.22422,32.69762],[-97.22448,32.6973],[-97.22505,32.69702],[-97.22509,32.69678],[-97.22526,32.69689],[-97.22527,32.69709],[-97.22454,32.69736],[-97.22427,32.69773],[-97.22349,32.69771],[-97.22281,32.6986],[-97.2219,32.69882]]]}},{"type":"Feature","properties":{"PRECINCT":"tarrant:2827B","COUNTY":"Tarrant"},"geometry":{"type":"Polygon","coordinates":[[[-97.22506,32.69655],[-97.22556,32.69607],[-97.22526,32.69689],[-97.22506,32.69655]]]}},{"type":"Feature","properties":{"PRECINCT":"tarrant:4006","COUNTY":"Tarrant"},"geometry":{"type":"Polygon","coordinates":[[[-97.33344,32.74522],[-97.3214,32.74499],[-97.32154,32.74184],[-97.32586,32.7418],[-97.32586,32.73556],[-97.32426,32.7355],[-97.32424,32.73305],[-97.33156,32.73314],[-97.33157,32.73522],[-97.33182,32.73625],[-97.33166,32.7421],[-97.33976,32.74253],[-97.33493,32.74485],[-97.33344,32.74522]]]}},{"type":"Feature","properties":{"PRECINCT":"tarrant:4253","COUNTY":"Tarrant"},"geometry":{"type":"Polygon","coordinates":[[[-97.3359,32.7742],[-97.33276,32.77467],[-97.33188,32.77362],[-97.33073,32.76993],[-97.33147,32.76975],[-97.33149,32.76952],[-97.3312,32.76871],[-97.33039,32.76889],[-97.32955,32.76645],[-97.32931,32.7632],[-97.3285,32.76185],[-97.32894,32.76147],[-97.32814,32.76037],[-97.32755,32.76063],[-97.32722,32.76038],[-97.3294,32.75969],[-97.33415,32.75741],[-97.33436,32.75779],[-97.33387,32.75817],[-97.33382,32.75856],[-97.3342,32.7591],[-97.33191,32.7604],[-97.33107,32.76142],[-97.33095,32.76334],[-97.33128,32.76535],[-97.33281,32.76859],[-97.33392,32.77013],[-97.33841,32.77257],[-97.33784,32.77253],[-97.33773,32.77275],[-97.33927,32.77398],[-97.33993,32.77532],[-97.34002,32.77623],[-97.33965,32.77814],[-97.33795,32.77808],[-97.33786,32.77684],[-97.33719,32.77486],[-97.3359,32.7742]]]}},{"type":"Feature","properties":{"PRECINCT":"tarrant:4370","COUNTY":"Tarrant"},"geometry":{"type":"Polygon","coordinates":[[[-97.32589,32.73306],[-97.32589,32.7306],[-97.3264,32.73064],[-97.32643,32.73311],[-97.32589,32.73306]]]}},{"type":"Feature","properties":{"PRECINCT":"tarrant:4432","COUNTY":"Tarrant"},"geometry":{"type":"Polygon","coordinates":[[[-97.32254,32.72603],[-97.32288,32.72351],[-97.32474,32.71732],[-97.32423,32.71727],[-97.3242,32.7171],[-97.32426,32.71298],[-97.32511,32.71302],[-97.32623,32.71382],[-97.3264,32.71424],[-97.32633,32.72364],[-97.32469,32.72595],[-97.32254,32.72603]]]}},{"type":"Feature","properties":{"PRECINCT":"tarrant:4458","COUNTY":"Tarrant"},"geometry":{"type":"Polygon","coordinates":[[[-97.33292,32.74684],[-97.33027,32.74672],[-97.33013,32.74522],[-97.33297,32.74528],[-97.33292,32.74684]]]}},{"type":"Feature","properties":{"PRECINCT":"tarrant:4492","COUNTY":"Tarrant"},"geometry":{"type":"Polygon","coordinates":[[[-97.33746,32.75187],[-97.33571,32.75183],[-97.33567,32.75099],[-97.33363,32.75092],[-97.33301,32.75116],[-97.33297,32.74528],[-97.33493,32.74485],[-97.33976,32.74253],[-97.33166,32.7421],[-97.33182,32.73625],[-97.33157,32.73522],[-97.33156,32.73314],[-97.33245,32.73314],[-97.33245,32.7344],[-97.33333,32.73439],[-97.33335,32.73558],[-97.3342,32.73543],[-97.33512,32.7356],[-97.33751,32.73557],[-97.33767,32.73315],[-97.34027,32.73315],[-97.34026,32.7377],[-97.33951,32.73769],[-97.33958,32.73849],[-97.33931,32.73849],[-97.33928,32.73928],[-97.3423,32.73935],[-97.3423,32.73848],[-97.34368,32.73852],[-97.34353,32.73994],[-97.34305,32.74041],[-97.34213,32.74081],[-97.34168,32.7418],[-97.3421,32.74295],[-97.34164,32.74495],[-97.34163,32.7478],[-97.34244,32.7478],[-97.34244,32.75005],[-97.34412,32.7501],[-97.34417,32.74769],[-97.34584,32.74769],[-97.34646,32.74719],[-97.34656,32.74678],[-97.3494,32.74692],[-97.34707,32.75],[-97.34559,32.75456],[-97.34238,32.75809],[-97.34065,32.75661],[-97.33746,32.75187]]]}},{"type":"Feature","properties":{"PRECINCT":"tarrant:4494","COUNTY":"Tarrant"},"geometry":{"type":"Polygon","coordinates":[[[-97.33873,32.77276],[-97.33488,32.77079],[-97.33342,32.76955],[-97.33128,32.76535],[-97.331,32.76412],[-97.331,32.76174],[-97.33191,32.7604],[-97.3329,32.75968],[-97.33465,32.75889],[-97.33586,32.75874],[-97.3381,32.75967],[-97.33904,32.75971],[-97.34196,32.75791],[-97.34704,32.76179],[-97.34415,32.76761],[-97.34356,32.77317],[-97.34259,32.77172],[-97.33937,32.77339],[-97.33873,32.77276]]]}},{"type":"Feature","properties":{"PRECINCT":"tarrant:4495","COUNTY":"Tarrant"},"geometry":{"type":"Polygon","coordinates":[[[-97.28922,32.68479],[-97.3055,32.68444],[-97.30533,32.68553],[-97.30633,32.68669],[-97.30711,32.68837],[-97.30729,32.68927],[-97.30709,32.69128],[-97.30776,32.69163],[-97.30799,32.69208],[-97.30579,32.69474],[-97.30595,32.69657],[-97.30495,32.69561],[-97.30438,32.69448],[-97.30425,32.69335],[-97.30464,32.69112],[-97.30441,32.69026],[-97.30366,32.68944],[-97.29952,32.6875],[-97.2969,32.68711],[-97.28922,32.68479]]]}},{"type":"Feature","properties":{"PRECINCT":"tarrant:4587","COUNTY":"Tarrant"},"geometry":{"type":"Polygon","coordinates":[[[-97.32048,32.71731],[-97.32055,32.71299],[-97.321,32.71302],[-97.321,32.71128],[-97.3222,32.7113],[-97.32216,32.71299],[-97.32426,32.71298],[-97.32423,32.71727],[-97.32048,32.71731]]]}}]}