{"type":"FeatureCollection","features":[{"type":"Feature","properties":{"PRECINCT":"1","VTD":"0001"},"geometry":{"type":"Polygon","coordinates":[[[-98.590495,32.016525],[-98.588081,32.016504],[-98.587048,32.015679],[-98.58588,32.015547],[-98.584795,32.01442],[-98.583104,32.013612],[-98.582258,32.013332],[-98.581077,32.013409],[-98.578708,32.012183],[-98.576248,32.011726],[-98.575222,32.011842],[-98.572989,32.011144],[-98.571104,32.011545],[-98.570465,32.01099],[-98.568742,32.010776],[-98.568045,32.010286],[-98.566973,32.010726],[-98.566567,32.010682],[-98.563801,32.008466],[-98.5636,32.007028],[-98.563313,32.006644],[-98.559403,32.006362],[-98.55917,32.005869],[-98.559031,32.001603],[-98.558279,32.000971],[-98.556964,32.001331],[-98.556355,32.001143],[-98.55581,32.000146],[-98.555812,31.999137],[-98.55465,31.99775],[-98.553697,31.997335],[-98.552531,31.997213],[-98.547116,31.997585],[-98.543825,31.996769],[-98.540122,31.995466],[-98.538817,31.993166],[-98.537028,31.992325],[-98.536591,31.991241],[-98.536654,31.989288],[-98.536049,31.986793],[-98.536061,31.984407],[-98.534832,31.981334],[-98.533978,31.980362],[-98.530885,31.979282],[-98.529523,31.978255],[-98.526211,31.976526],[-98.522263,31.975214],[-98.517459,31.974751],[-98.513919,31.97498],[-98.515351,31.972043],[-98.519689,31.971255],[-98.520105,31.970055],[-98.520862,31.969772],[-98.522508,31.969643],[-98.522676,31.968958],[-98.522437,31.964207],[-98.526123,31.962347],[-98.52751,31.962184],[-98.527536,31.960924],[-98.52885,31.959977],[-98.529225,31.959183],[-98.530184,31.958247],[-98.532475,31.954991],[-98.534007,31.954619],[-98.534164,31.949613],[-98.540119,31.945066],[-98.540199,31.941605],[-98.544295,31.941596],[-98.548808,31.9379],[-98.551001,31.934567],[-98.552562,31.932834],[-98.553789,31.930504],[-98.555319,31.929354],[-98.560518,31.926478],[-98.562962,31.925539],[-98.573299,31.925541],[-98.574506,31.925194],[-98.580797,31.925188],[-98.582113,31.923653],[-98.589356,31.917509],[-98.60202,31.907761],[-98.602926,31.906835],[-98.603728,31.905239],[-98.603928,31.904261],[-98.603875,31.897427],[-98.617626,31.897319],[-98.618993,31.896994],[-98.620372,31.896003],[-98.624134,31.896357],[-98.630447,31.895766],[-98.631548,31.895813],[-98.639416,31.897424],[-98.648734,31.898118],[-98.649621,31.897957],[-98.654915,31.895968],[-98.655989,31.89583],[-98.657735,31.895992],[-98.660393,31.896704],[-98.66668,31.896685],[-98.667351,31.896846],[-98.67119,31.898956],[-98.674949,31.90024],[-98.678788,31.902442],[-98.681715,31.903245],[-98.683483,31.903369],[-98.687187,31.902666],[-98.689398,31.901834],[-98.690668,31.900699],[-98.692378,31.901561],[-98.693382,31.916902],[-98.697887,31.916639],[-98.70041,31.916923],[-98.700742,31.917199],[-98.699849,31.91726],[-98.699972,31.920226],[-98.699739,31.920175],[-98.701094,31.948488],[-98.700296,31.948492],[-98.701101,31.971172],[-98.676654,31.971656],[-98.676441,31.967906],[-98.641919,31.968245],[-98.629018,31.968562],[-98.628761,31.956231],[-98.61962,31.952828],[-98.619228,31.952843],[-98.619263,31.962351],[-98.612641,31.962483],[-98.612392,31.956904],[-98.600327,31.957166],[-98.600148,31.957346],[-98.601225,31.958649],[-98.601278,31.970608],[-98.600786,31.972424],[-98.600053,31.981818],[-98.600104,31.993767],[-98.598642,31.998202],[-98.598953,31.999913],[-98.599618,32.001427],[-98.5996,32.00275],[-98.600164,32.004051],[-98.598688,32.005134],[-98.598301,32.006003],[-98.597147,32.00724],[-98.59705,32.008093],[-98.596431,32.009446],[-98.596554,32.010051],[-98.597309,32.00966],[-98.598949,32.011761],[-98.599162,32.012475],[-98.597627,32.013906],[-98.597259,32.01395],[-98.597104,32.013614],[-98.596781,32.013548],[-98.595968,32.014033],[-98.595858,32.014297],[-98.596259,32.014533],[-98.595813,32.015166],[-98.594329,32.015006],[-98.593812,32.014572],[-98.593109,32.015045],[-98.592489,32.014638],[-98.592341,32.015133],[-98.591631,32.015095],[-98.591444,32.015321],[-98.591618,32.015854],[-98.592263,32.015694],[-98.592444,32.016101],[-98.590495,32.016525]]]}},{"type":"Feature","properties":{"PRECINCT":"2","VTD":"0002"},"geometry":{"type":"Polygon","coordinates":[[[-98.432232,31.953093],[-98.430515,31.953138],[-98.424629,31.951068],[-98.417284,31.953962],[-98.424232,31.936398],[-98.424072,31.93535],[-98.423235,31.934461],[-98.422918,31.933551],[-98.424917,31.928292],[-98.424823,31.927391],[-98.424186,31.926677],[-98.42243,31.925989],[-98.421898,31.925502],[-98.421639,31.924892],[-98.421642,31.92285],[-98.420817,31.921992],[-98.415385,31.921052],[-98.411738,31.91798],[-98.410265,31.917344],[-98.403832,31.915399],[-98.402969,31.914573],[-98.402932,31.91355],[-98.411775,31.891066],[-98.413392,31.892164],[-98.413005,31.892637],[-98.413056,31.89317],[-98.414171,31.893737],[-98.415454,31.895409],[-98.415396,31.895629],[-98.414564,31.895986],[-98.415163,31.89691],[-98.416047,31.897004],[-98.416491,31.897317],[-98.416104,31.897818],[-98.416156,31.898137],[-98.417516,31.898698],[-98.419495,31.898896],[-98.419598,31.899265],[-98.418908,31.900012],[-98.418863,31.90076],[-98.41963,31.90081],[-98.420307,31.900376],[-98.420707,31.900854],[-98.42119,31.900926],[-98.422331,31.90031],[-98.422312,31.900986],[-98.423356,31.901685],[-98.4248,31.902092],[-98.425761,31.901559],[-98.426218,31.90196],[-98.426876,31.902032],[-98.428146,31.900921],[-98.428655,31.901592],[-98.428997,31.90096],[-98.429713,31.901103],[-98.431157,31.900481],[-98.432749,31.89887],[-98.433368,31.898947],[-98.433465,31.898523],[-98.434,31.898144],[-98.434309,31.898232],[-98.434438,31.898573],[-98.43438,31.899337],[-98.434084,31.899755],[-98.434341,31.900146],[-98.43469,31.900234],[-98.434915,31.899596],[-98.435167,31.899519],[-98.435547,31.900008],[-98.436346,31.899871],[-98.437139,31.900338],[-98.43721,31.900789],[-98.43663,31.901042],[-98.436952,31.902021],[-98.435818,31.902395],[-98.436475,31.902588],[-98.437281,31.902478],[-98.437126,31.903204],[-98.435702,31.903721],[-98.434586,31.903556],[-98.434335,31.904045],[-98.434883,31.904342],[-98.435399,31.905013],[-98.434354,31.905189],[-98.433684,31.906382],[-98.433754,31.906602],[-98.434689,31.907042],[-98.434902,31.90812],[-98.434399,31.908395],[-98.434115,31.908907],[-98.434921,31.908709],[-98.435211,31.908863],[-98.435611,31.909693],[-98.435392,31.910546],[-98.435772,31.911129],[-98.43683,31.911085],[-98.437365,31.911662],[-98.437655,31.911646],[-98.43779,31.911398],[-98.43741,31.910584],[-98.438951,31.909715],[-98.43975,31.909594],[-98.440343,31.908984],[-98.441078,31.909094],[-98.441678,31.908747],[-98.443464,31.907053],[-98.443812,31.907488],[-98.443077,31.908027],[-98.443019,31.908478],[-98.443374,31.90856],[-98.443651,31.908192],[-98.44447,31.908153],[-98.443993,31.907691],[-98.444089,31.907246],[-98.445185,31.907213],[-98.445598,31.907823],[-98.444998,31.908302],[-98.44545,31.908434],[-98.445598,31.908912],[-98.446133,31.908566],[-98.446584,31.907427],[-98.446945,31.907229],[-98.4471,31.90774],[-98.447532,31.907642],[-98.448254,31.908235],[-98.448048,31.90911],[-98.448319,31.908796],[-98.448841,31.908796],[-98.449099,31.909159],[-98.449576,31.90922],[-98.449699,31.909594],[-98.449022,31.910188],[-98.449544,31.910578],[-98.449525,31.910798],[-98.448809,31.910925],[-98.448538,31.91126],[-98.449544,31.911656],[-98.44948,31.911837],[-98.448854,31.91175],[-98.448538,31.912113],[-98.448816,31.913124],[-98.449125,31.913201],[-98.449725,31.912921],[-98.449802,31.91225],[-98.450743,31.912404],[-98.450937,31.911903],[-98.451897,31.911909],[-98.452097,31.912882],[-98.451672,31.913669],[-98.451807,31.913982],[-98.451485,31.914142],[-98.451002,31.913883],[-98.450537,31.914708],[-98.45104,31.915368],[-98.451369,31.914389],[-98.451975,31.914648],[-98.452742,31.91429],[-98.453116,31.914565],[-98.453297,31.91539],[-98.453071,31.915775],[-98.45222,31.915753],[-98.451827,31.916243],[-98.451911,31.916611],[-98.451343,31.916738],[-98.460758,31.919689],[-98.466129,31.906501],[-98.483748,31.906693],[-98.484005,31.901736],[-98.485972,31.901414],[-98.491083,31.902925],[-98.491652,31.885981],[-98.486386,31.885893],[-98.486421,31.879819],[-98.492199,31.879774],[-98.493187,31.875398],[-98.492793,31.875061],[-98.493043,31.874576],[-98.493734,31.874336],[-98.493996,31.874009],[-98.494025,31.87177],[-98.499246,31.871195],[-98.498828,31.854922],[-98.524591,31.854352],[-98.524627,31.842635],[-98.541175,31.842436],[-98.541075,31.825091],[-98.536988,31.825091],[-98.537012,31.816955],[-98.524554,31.816837],[-98.524499,31.809944],[-98.514949,31.810143],[-98.519434,31.806381],[-98.507897,31.804985],[-98.509679,31.799098],[-98.502895,31.79714],[-98.504834,31.790147],[-98.502585,31.789219],[-98.494178,31.78676],[-98.491181,31.785201],[-98.489912,31.784967],[-98.484793,31.782927],[-98.490521,31.77115],[-98.472931,31.765175],[-98.480036,31.749771],[-98.453921,31.741654],[-98.452215,31.744314],[-98.447516,31.742828],[-98.447508,31.741982],[-98.448886,31.736494],[-98.443413,31.734984],[-98.446633,31.728064],[-98.442077,31.726696],[-98.441234,31.724241],[-98.442885,31.719615],[-98.442078,31.718493],[-98.440272,31.717936],[-98.437992,31.716883],[-98.447266,31.692529],[-98.463736,31.683989],[-98.492802,31.723608],[-98.500318,31.723232],[-98.521263,31.720203],[-98.595796,31.710931],[-98.618519,31.707765],[-98.625322,31.706444],[-98.668441,31.700514],[-98.783403,31.870438],[-98.786057,31.875147],[-98.790238,31.881217],[-98.769306,31.881306],[-98.757214,31.88303],[-98.757008,31.901692],[-98.740633,31.901737],[-98.741519,31.903591],[-98.729982,31.903615],[-98.72993,31.899988],[-98.715311,31.899988],[-98.712891,31.888012],[-98.705756,31.888498],[-98.70505,31.890966],[-98.704433,31.891854],[-98.699211,31.894949],[-98.697386,31.897384],[-98.696789,31.897828],[-98.693296,31.899002],[-98.691772,31.899796],[-98.689398,31.901834],[-98.688451,31.902301],[-98.686297,31.902914],[-98.683483,31.903369],[-98.681715,31.903245],[-98.678788,31.902442],[-98.674949,31.90024],[-98.67119,31.898956],[-98.667351,31.896846],[-98.66668,31.896685],[-98.660393,31.896704],[-98.657735,31.895992],[-98.655989,31.89583],[-98.654915,31.895968],[-98.649621,31.897957],[-98.648734,31.898118],[-98.639416,31.897424],[-98.631548,31.895813],[-98.624134,31.896357],[-98.620372,31.896003],[-98.618993,31.896994],[-98.617626,31.897319],[-98.603875,31.897427],[-98.603928,31.904261],[-98.603195,31.906418],[-98.591031,31.906544],[-98.590833,31.906366],[-98.590824,31.904284],[-98.589165,31.904817],[-98.589113,31.90211],[-98.586082,31.902083],[-98.586423,31.898533],[-98.585541,31.898519],[-98.585317,31.89806],[-98.580135,31.898467],[-98.573488,31.900911],[-98.570444,31.902388],[-98.522451,31.931034],[-98.519732,31.932088],[-98.502663,31.936529],[-98.477406,31.948014],[-98.469845,31.950618],[-98.468049,31.951584],[-98.456703,31.959893],[-98.432232,31.953093]]]}},{"type":"Feature","properties":{"PRECINCT":"4","VTD":"0004"},"geometry":{"type":"Polygon","coordinates":[[[-98.650071,32.025613],[-98.649173,32.026168],[-98.648818,32.025849],[-98.648754,32.025228],[-98.647541,32.024067],[-98.646049,32.024875],[-98.644739,32.024572],[-98.644442,32.02516],[-98.643305,32.025165],[-98.635664,32.022539],[-98.632889,32.02107],[-98.632385,32.021322],[-98.631946,32.020844],[-98.63041,32.020546],[-98.629939,32.020254],[-98.629384,32.020408],[-98.628641,32.021167],[-98.62482,32.022656],[-98.623684,32.022371],[-98.623348,32.023108],[-98.621987,32.023493],[-98.620993,32.024566],[-98.620412,32.024605],[-98.619456,32.023561],[-98.61923,32.023654],[-98.619198,32.0241],[-98.618908,32.024171],[-98.618243,32.024194],[-98.617726,32.02382],[-98.616797,32.023919],[-98.616822,32.023237],[-98.616144,32.022902],[-98.61595,32.022968],[-98.616022,32.023689],[-98.615828,32.023843],[-98.614511,32.024008],[-98.613904,32.023502],[-98.613362,32.023987],[-98.612607,32.023663],[-98.612187,32.023707],[-98.611729,32.023349],[-98.610722,32.023718],[-98.609992,32.023086],[-98.609579,32.023026],[-98.609857,32.024032],[-98.609677,32.024604],[-98.609005,32.024593],[-98.608314,32.023268],[-98.607327,32.024379],[-98.606836,32.024429],[-98.606029,32.023857],[-98.606054,32.022631],[-98.605854,32.022312],[-98.605105,32.022197],[-98.604418,32.021684],[-98.603788,32.021966],[-98.603433,32.021636],[-98.602471,32.021824],[-98.602135,32.021296],[-98.600631,32.020284],[-98.599527,32.020477],[-98.599114,32.02084],[-98.598804,32.020538],[-98.596906,32.020203],[-98.596855,32.021209],[-98.596371,32.021495],[-98.595622,32.021556],[-98.595448,32.022288],[-98.595222,32.022277],[-98.59475,32.021353],[-98.593885,32.020743],[-98.593375,32.020055],[-98.592665,32.019918],[-98.59171,32.020287],[-98.590735,32.020133],[-98.589527,32.018445],[-98.588495,32.018638],[-98.588333,32.018286],[-98.588817,32.017576],[-98.588262,32.016553],[-98.590289,32.016547],[-98.592322,32.016167],[-98.592444,32.015821],[-98.592005,32.015672],[-98.591728,32.015926],[-98.591444,32.015321],[-98.591631,32.015095],[-98.592341,32.015133],[-98.592489,32.014638],[-98.593154,32.015045],[-98.593812,32.014572],[-98.594258,32.014984],[-98.595697,32.01521],[-98.596259,32.014533],[-98.595858,32.014297],[-98.595968,32.014033],[-98.596781,32.013548],[-98.597104,32.013614],[-98.597259,32.01395],[-98.597627,32.013906],[-98.599162,32.012475],[-98.598949,32.011761],[-98.597309,32.00966],[-98.596554,32.010051],[-98.596431,32.009446],[-98.59705,32.008093],[-98.597147,32.00724],[-98.598301,32.006003],[-98.598688,32.005134],[-98.600164,32.004051],[-98.5996,32.00275],[-98.599618,32.001427],[-98.598953,31.999913],[-98.598642,31.998202],[-98.600104,31.993767],[-98.600053,31.981818],[-98.600786,31.972424],[-98.601278,31.970608],[-98.601225,31.958649],[-98.600148,31.957346],[-98.600327,31.957166],[-98.612392,31.956904],[-98.612641,31.962483],[-98.619263,31.962351],[-98.619228,31.952843],[-98.61962,31.952828],[-98.628761,31.956231],[-98.629018,31.968562],[-98.641919,31.968245],[-98.676441,31.967906],[-98.676654,31.971656],[-98.701101,31.971172],[-98.701505,31.981888],[-98.703945,31.983374],[-98.697484,31.995176],[-98.690569,32.0039],[-98.690453,32.009691],[-98.690695,32.010352],[-98.689862,32.010357],[-98.689901,32.010957],[-98.688384,32.011237],[-98.687984,32.011848],[-98.687816,32.013245],[-98.688088,32.013492],[-98.687991,32.014152],[-98.688604,32.014251],[-98.688352,32.014955],[-98.686422,32.016137],[-98.685944,32.017325],[-98.684234,32.017276],[-98.684092,32.017611],[-98.682104,32.018816],[-98.681968,32.019261],[-98.681277,32.019668],[-98.677695,32.018837],[-98.677249,32.018254],[-98.676488,32.017897],[-98.676088,32.017908],[-98.676139,32.018232],[-98.675683,32.018421],[-98.675614,32.017709],[-98.67459,32.017308],[-98.672537,32.01755],[-98.669549,32.015773],[-98.669155,32.01579],[-98.666993,32.01723],[-98.666069,32.018841],[-98.666379,32.019881],[-98.666191,32.020761],[-98.665384,32.02081],[-98.664655,32.020463],[-98.663732,32.020656],[-98.66297,32.02043],[-98.662318,32.020595],[-98.661428,32.019957],[-98.661402,32.019385],[-98.66097,32.018923],[-98.660757,32.01911],[-98.660414,32.018983],[-98.66035,32.019968],[-98.66013,32.020023],[-98.660305,32.019742],[-98.660137,32.019643],[-98.659801,32.019671],[-98.660272,32.020666],[-98.660368,32.022915],[-98.659367,32.023608],[-98.661768,32.0245],[-98.66162,32.025578],[-98.661006,32.02638],[-98.660231,32.026512],[-98.659547,32.026424],[-98.657894,32.025594],[-98.657507,32.025665],[-98.657127,32.025412],[-98.65641,32.025549],[-98.655603,32.026924],[-98.655389,32.028194],[-98.654743,32.028942],[-98.653562,32.028012],[-98.652581,32.026791],[-98.650071,32.025613]]]}},{"type":"Feature","properties":{"PRECINCT":"5","VTD":"0005"},"geometry":{"type":"Polygon","coordinates":[[[-98.505308,31.975476],[-98.505136,31.97342],[-98.504555,31.973596],[-98.504866,31.972485],[-98.505286,31.972117],[-98.50506,31.971869],[-98.505241,31.971743],[-98.505898,31.971952],[-98.505853,31.971677],[-98.504623,31.969394],[-98.504436,31.968443],[-98.504714,31.967634],[-98.504411,31.967469],[-98.504056,31.967739],[-98.503721,31.965436],[-98.502569,31.963373],[-98.502514,31.962618],[-98.499102,31.961632],[-98.495869,31.960239],[-98.493652,31.96544],[-98.492048,31.96703],[-98.491134,31.967501],[-98.479622,31.964207],[-98.475697,31.961678],[-98.472973,31.960334],[-98.472554,31.960356],[-98.472831,31.959955],[-98.472502,31.959663],[-98.471599,31.960236],[-98.47146,31.960028],[-98.468897,31.959285],[-98.462412,31.95909],[-98.461275,31.959129],[-98.459846,31.959527],[-98.458179,31.960342],[-98.456557,31.960029],[-98.467738,31.951804],[-98.469845,31.950618],[-98.477406,31.948014],[-98.502663,31.936529],[-98.519732,31.932088],[-98.522451,31.931034],[-98.570444,31.902388],[-98.572716,31.901231],[-98.578722,31.898846],[-98.58063,31.898374],[-98.585298,31.89806],[-98.585541,31.898519],[-98.586423,31.898533],[-98.586082,31.902083],[-98.589113,31.90211],[-98.589165,31.904817],[-98.590824,31.904284],[-98.590833,31.906366],[-98.591031,31.906544],[-98.603195,31.906418],[-98.60202,31.907761],[-98.589356,31.917509],[-98.582113,31.923653],[-98.580797,31.925188],[-98.574506,31.925194],[-98.573299,31.925541],[-98.562962,31.925539],[-98.559591,31.926889],[-98.555201,31.929429],[-98.553467,31.93085],[-98.552562,31.932834],[-98.551001,31.934567],[-98.548614,31.938096],[-98.544295,31.941596],[-98.540199,31.941605],[-98.540119,31.945066],[-98.534164,31.949613],[-98.534007,31.954619],[-98.532475,31.954991],[-98.530184,31.958247],[-98.529225,31.959183],[-98.52885,31.959977],[-98.527536,31.960924],[-98.52751,31.962184],[-98.526123,31.962347],[-98.522437,31.964207],[-98.522676,31.968958],[-98.522451,31.969701],[-98.520862,31.969772],[-98.520105,31.970055],[-98.519689,31.971255],[-98.515351,31.972043],[-98.513919,31.97498],[-98.505308,31.975476]]]}},{"type":"Feature","properties":{"PRECINCT":"6","VTD":"0006"},"geometry":{"type":"Polygon","coordinates":[[[-98.452066,31.915863],[-98.453071,31.915775],[-98.453278,31.915538],[-98.453007,31.914416],[-98.452517,31.914312],[-98.451937,31.914648],[-98.451369,31.914389],[-98.45104,31.915368],[-98.450537,31.914708],[-98.451002,31.913883],[-98.451485,31.914142],[-98.451807,31.913982],[-98.451672,31.913669],[-98.452097,31.912882],[-98.451897,31.911909],[-98.450937,31.911903],[-98.450743,31.912404],[-98.449802,31.91225],[-98.449725,31.912921],[-98.449125,31.913201],[-98.448816,31.913124],[-98.448538,31.912113],[-98.448854,31.91175],[-98.44948,31.911837],[-98.449544,31.911656],[-98.448538,31.91126],[-98.448809,31.910925],[-98.449525,31.910798],[-98.449544,31.910578],[-98.449022,31.910188],[-98.449699,31.909594],[-98.449576,31.90922],[-98.449099,31.909159],[-98.448841,31.908796],[-98.448319,31.908796],[-98.448048,31.90911],[-98.448254,31.908235],[-98.447532,31.907642],[-98.4471,31.90774],[-98.446945,31.907229],[-98.446584,31.907427],[-98.446133,31.908566],[-98.445598,31.908912],[-98.44545,31.908434],[-98.444998,31.908302],[-98.445598,31.907823],[-98.445185,31.907213],[-98.444089,31.907246],[-98.443993,31.907691],[-98.44447,31.908153],[-98.443651,31.908192],[-98.443374,31.90856],[-98.443019,31.908478],[-98.443077,31.908027],[-98.443812,31.907488],[-98.443464,31.907053],[-98.441678,31.908747],[-98.441078,31.909094],[-98.440343,31.908984],[-98.43975,31.909594],[-98.438951,31.909715],[-98.43741,31.910584],[-98.43779,31.911398],[-98.437655,31.911646],[-98.437365,31.911662],[-98.43683,31.911085],[-98.43565,31.911024],[-98.435392,31.910546],[-98.435585,31.909479],[-98.435211,31.908863],[-98.434921,31.908709],[-98.434115,31.908907],[-98.434399,31.908395],[-98.434902,31.90812],[-98.434689,31.907042],[-98.433754,31.906602],[-98.433684,31.906382],[-98.434354,31.905189],[-98.435399,31.905013],[-98.434883,31.904342],[-98.434335,31.904045],[-98.434586,31.903556],[-98.435702,31.903721],[-98.437126,31.903204],[-98.437281,31.902478],[-98.436475,31.902588],[-98.435818,31.902395],[-98.436952,31.902021],[-98.43663,31.901042],[-98.4373,31.900558],[-98.436578,31.899942],[-98.435547,31.900008],[-98.435167,31.899519],[-98.434915,31.899596],[-98.43469,31.900234],[-98.434341,31.900146],[-98.434084,31.899755],[-98.434406,31.899238],[-98.434309,31.898232],[-98.433826,31.898171],[-98.433368,31.898947],[-98.432749,31.89887],[-98.431157,31.900481],[-98.429713,31.901103],[-98.428997,31.90096],[-98.428655,31.901592],[-98.428146,31.900921],[-98.426876,31.902032],[-98.426218,31.90196],[-98.425761,31.901559],[-98.4248,31.902092],[-98.423356,31.901685],[-98.422312,31.900986],[-98.422331,31.90031],[-98.4213,31.900909],[-98.420707,31.900854],[-98.420215,31.900373],[-98.41972,31.900777],[-98.419127,31.900848],[-98.418818,31.900727],[-98.418799,31.900375],[-98.419598,31.899265],[-98.419495,31.898896],[-98.417516,31.898698],[-98.416156,31.898137],[-98.416104,31.897818],[-98.416491,31.897317],[-98.416047,31.897004],[-98.415163,31.89691],[-98.414564,31.895986],[-98.415396,31.895629],[-98.415454,31.895409],[-98.414171,31.893737],[-98.413056,31.89317],[-98.413005,31.892637],[-98.413392,31.892164],[-98.411775,31.891066],[-98.414334,31.884468],[-98.418655,31.875208],[-98.426299,31.854737],[-98.430351,31.845035],[-98.426156,31.843667],[-98.42118,31.842606],[-98.419173,31.842485],[-98.417073,31.842736],[-98.39988,31.846944],[-98.37073,31.847798],[-98.370505,31.84731],[-98.371329,31.847068],[-98.37149,31.845627],[-98.372133,31.844686],[-98.372229,31.844075],[-98.37319,31.844339],[-98.373125,31.843503],[-98.373704,31.843497],[-98.373582,31.842931],[-98.377546,31.840142],[-98.377992,31.83896],[-98.37841,31.838784],[-98.379067,31.839109],[-98.380768,31.839181],[-98.379734,31.837792],[-98.379448,31.834821],[-98.378972,31.833386],[-98.379205,31.832134],[-98.380062,31.831154],[-98.384196,31.821291],[-98.389962,31.806347],[-98.406809,31.811004],[-98.406946,31.811318],[-98.40725,31.811377],[-98.407567,31.811127],[-98.409643,31.811366],[-98.409971,31.810511],[-98.411677,31.809246],[-98.412226,31.807294],[-98.413618,31.807251],[-98.415287,31.805444],[-98.415513,31.803635],[-98.416624,31.800475],[-98.416213,31.799713],[-98.41627,31.799196],[-98.418545,31.793029],[-98.41857,31.791698],[-98.420635,31.787641],[-98.424565,31.789296],[-98.425665,31.790138],[-98.426492,31.791151],[-98.4277,31.791219],[-98.428844,31.786544],[-98.430651,31.783865],[-98.43918,31.786161],[-98.439763,31.786072],[-98.44393,31.774887],[-98.444087,31.771575],[-98.445553,31.769772],[-98.447371,31.769534],[-98.448195,31.76881],[-98.4519,31.758354],[-98.449532,31.755737],[-98.449276,31.754441],[-98.449424,31.753695],[-98.448866,31.750659],[-98.447083,31.746917],[-98.446623,31.745015],[-98.447404,31.743836],[-98.447516,31.742828],[-98.452215,31.744314],[-98.453921,31.741654],[-98.480036,31.749771],[-98.472931,31.765175],[-98.490521,31.77115],[-98.484793,31.782927],[-98.489912,31.784967],[-98.491181,31.785201],[-98.494178,31.78676],[-98.502585,31.789219],[-98.504834,31.790147],[-98.502895,31.79714],[-98.509679,31.799098],[-98.507897,31.804985],[-98.519434,31.806381],[-98.514949,31.810143],[-98.524499,31.809944],[-98.524554,31.816837],[-98.537012,31.816955],[-98.536988,31.825091],[-98.541075,31.825091],[-98.541175,31.842436],[-98.524627,31.842635],[-98.524591,31.854352],[-98.498828,31.854922],[-98.499246,31.871195],[-98.494025,31.87177],[-98.493996,31.874009],[-98.493734,31.874336],[-98.493043,31.874576],[-98.492793,31.875061],[-98.493187,31.875398],[-98.492199,31.879774],[-98.486421,31.879819],[-98.486386,31.885893],[-98.491652,31.885981],[-98.491083,31.902925],[-98.485972,31.901414],[-98.484005,31.901736],[-98.483748,31.906693],[-98.466129,31.906501],[-98.460758,31.919689],[-98.451343,31.916738],[-98.451911,31.916611],[-98.452066,31.915863]]]}},{"type":"Feature","properties":{"PRECINCT":"7","VTD":"0007"},"geometry":{"type":"Polygon","coordinates":[[[-98.329061,31.935208],[-98.317976,31.931559],[-98.317231,31.931665],[-98.312402,31.930336],[-98.309632,31.93043],[-98.307568,31.93132],[-98.304156,31.93406],[-98.302891,31.934548],[-98.301736,31.934703],[-98.300336,31.93454],[-98.288319,31.931005],[-98.289581,31.930277],[-98.303255,31.895752],[-98.303121,31.895089],[-98.301707,31.894985],[-98.300878,31.893606],[-98.30498,31.883684],[-98.304886,31.883479],[-98.303403,31.882896],[-98.307213,31.87341],[-98.296149,31.865831],[-98.301699,31.84993],[-98.302371,31.849553],[-98.302731,31.848517],[-98.304082,31.848193],[-98.304258,31.849525],[-98.304624,31.849775],[-98.304951,31.849656],[-98.305565,31.848492],[-98.30585,31.848524],[-98.306108,31.848993],[-98.305901,31.85022],[-98.306378,31.850575],[-98.306969,31.85015],[-98.307003,31.848891],[-98.307669,31.84876],[-98.307944,31.849211],[-98.307857,31.850086],[-98.308402,31.851283],[-98.308932,31.851531],[-98.30985,31.851388],[-98.309946,31.852621],[-98.310508,31.85275],[-98.311161,31.852155],[-98.312127,31.85171],[-98.312935,31.851731],[-98.313289,31.852436],[-98.312943,31.853813],[-98.314153,31.853846],[-98.315231,31.854315],[-98.316439,31.853971],[-98.31762,31.854867],[-98.318461,31.856039],[-98.31971,31.856913],[-98.320199,31.856567],[-98.319465,31.856396],[-98.318968,31.855759],[-98.319085,31.855627],[-98.319825,31.855819],[-98.319729,31.855104],[-98.320302,31.85478],[-98.320057,31.854356],[-98.320657,31.854505],[-98.320843,31.854224],[-98.320547,31.85374],[-98.320618,31.853306],[-98.320882,31.8533],[-98.321088,31.853658],[-98.321417,31.853251],[-98.321836,31.853537],[-98.322467,31.853306],[-98.323015,31.853416],[-98.323711,31.85286],[-98.323743,31.852475],[-98.324535,31.852651],[-98.324104,31.852173],[-98.32429,31.85176],[-98.324071,31.851287],[-98.3244,31.850578],[-98.325424,31.849698],[-98.324902,31.849258],[-98.324986,31.848774],[-98.326023,31.847184],[-98.326919,31.847366],[-98.327344,31.847223],[-98.327711,31.847432],[-98.328716,31.846706],[-98.329998,31.847019],[-98.331699,31.846414],[-98.331957,31.845814],[-98.331512,31.845237],[-98.331299,31.844313],[-98.332304,31.843581],[-98.333528,31.843163],[-98.334031,31.842344],[-98.332967,31.842294],[-98.33242,31.840771],[-98.332523,31.840194],[-98.33354,31.839924],[-98.334075,31.839071],[-98.335215,31.838103],[-98.335466,31.837614],[-98.335549,31.836101],[-98.338107,31.835777],[-98.338886,31.834709],[-98.339382,31.834429],[-98.339756,31.834429],[-98.34133,31.835311],[-98.344867,31.826612],[-98.344541,31.824967],[-98.342928,31.822371],[-98.342856,31.820705],[-98.350566,31.800711],[-98.351206,31.796381],[-98.353429,31.791635],[-98.338228,31.787227],[-98.337923,31.786895],[-98.323934,31.78248],[-98.327139,31.774614],[-98.307401,31.768862],[-98.308502,31.766045],[-98.305607,31.765218],[-98.3239,31.755754],[-98.326656,31.754098],[-98.329417,31.752928],[-98.375317,31.729626],[-98.447266,31.692529],[-98.437992,31.716883],[-98.440272,31.717936],[-98.442078,31.718493],[-98.442885,31.719615],[-98.441234,31.724241],[-98.442077,31.726696],[-98.446633,31.728064],[-98.443413,31.734984],[-98.448886,31.736494],[-98.447508,31.741982],[-98.447404,31.743836],[-98.446625,31.745094],[-98.447083,31.746917],[-98.448866,31.750659],[-98.449424,31.753695],[-98.449276,31.754441],[-98.449532,31.755737],[-98.4519,31.758354],[-98.448195,31.76881],[-98.447371,31.769534],[-98.445553,31.769772],[-98.444087,31.771575],[-98.44393,31.774887],[-98.439763,31.786072],[-98.43918,31.786161],[-98.430651,31.783865],[-98.428844,31.786544],[-98.4277,31.791219],[-98.426492,31.791151],[-98.425665,31.790138],[-98.424565,31.789296],[-98.420635,31.787641],[-98.41857,31.791698],[-98.418545,31.793029],[-98.41627,31.799196],[-98.416213,31.799713],[-98.416624,31.800475],[-98.415513,31.803635],[-98.415287,31.805444],[-98.413618,31.807251],[-98.412226,31.807294],[-98.411677,31.809246],[-98.409971,31.810511],[-98.409643,31.811366],[-98.407567,31.811127],[-98.40725,31.811377],[-98.406946,31.811318],[-98.406809,31.811004],[-98.389962,31.806347],[-98.384196,31.821291],[-98.380062,31.831154],[-98.379205,31.832134],[-98.378972,31.833386],[-98.379448,31.834821],[-98.379734,31.837792],[-98.380768,31.839181],[-98.379067,31.839109],[-98.37841,31.838784],[-98.377992,31.83896],[-98.377546,31.840142],[-98.373582,31.842931],[-98.373704,31.843497],[-98.373125,31.843503],[-98.37319,31.844339],[-98.372229,31.844075],[-98.372133,31.844686],[-98.37149,31.845627],[-98.371329,31.847068],[-98.370505,31.84731],[-98.37073,31.847798],[-98.39988,31.846944],[-98.417073,31.842736],[-98.419173,31.842485],[-98.42118,31.842606],[-98.426156,31.843667],[-98.430351,31.845035],[-98.426299,31.854737],[-98.418655,31.875208],[-98.414334,31.884468],[-98.400766,31.918869],[-98.391742,31.942707],[-98.390943,31.943002],[-98.385506,31.942897],[-98.385142,31.943126],[-98.37576,31.940349],[-98.343156,31.931953],[-98.33603,31.953756],[-98.329554,31.94427],[-98.33147,31.938652],[-98.331348,31.937346],[-98.330866,31.936458],[-98.330049,31.935643],[-98.329061,31.935208]]]}},{"type":"Feature","properties":{"PRECINCT":"9","VTD":"0009"},"geometry":{"type":"Polygon","coordinates":[[[-98.251211,31.980127],[-98.156568,31.841713],[-98.25029,31.793845],[-98.305607,31.765218],[-98.308502,31.766045],[-98.307401,31.768862],[-98.327139,31.774614],[-98.323934,31.78248],[-98.337923,31.786895],[-98.338228,31.787227],[-98.353429,31.791635],[-98.351206,31.796381],[-98.350566,31.800711],[-98.342856,31.820705],[-98.342928,31.822371],[-98.344541,31.824967],[-98.344867,31.826612],[-98.34133,31.835311],[-98.339756,31.834429],[-98.339382,31.834429],[-98.338886,31.834709],[-98.338107,31.835777],[-98.335549,31.836101],[-98.335466,31.837614],[-98.335215,31.838103],[-98.334075,31.839071],[-98.33354,31.839924],[-98.332523,31.840194],[-98.33242,31.840771],[-98.332967,31.842294],[-98.334031,31.842344],[-98.333528,31.843163],[-98.332304,31.843581],[-98.331299,31.844313],[-98.331512,31.845237],[-98.331957,31.845814],[-98.331699,31.846414],[-98.329998,31.847019],[-98.328716,31.846706],[-98.327711,31.847432],[-98.327344,31.847223],[-98.326919,31.847366],[-98.326023,31.847184],[-98.324986,31.848774],[-98.324902,31.849258],[-98.325424,31.849698],[-98.3244,31.850578],[-98.324071,31.851287],[-98.32429,31.85176],[-98.324104,31.852173],[-98.324535,31.852651],[-98.323743,31.852475],[-98.323711,31.85286],[-98.323015,31.853416],[-98.322467,31.853306],[-98.321836,31.853537],[-98.321417,31.853251],[-98.321088,31.853658],[-98.320882,31.8533],[-98.320618,31.853306],[-98.320547,31.85374],[-98.320843,31.854224],[-98.320657,31.854505],[-98.320057,31.854356],[-98.320302,31.85478],[-98.319729,31.855104],[-98.319825,31.855819],[-98.319085,31.855627],[-98.318968,31.855759],[-98.319465,31.856396],[-98.320199,31.856567],[-98.31971,31.856913],[-98.318461,31.856039],[-98.31762,31.854867],[-98.316439,31.853971],[-98.315231,31.854315],[-98.314153,31.853846],[-98.312943,31.853813],[-98.313289,31.852436],[-98.312935,31.851731],[-98.312127,31.85171],[-98.311161,31.852155],[-98.310508,31.85275],[-98.309946,31.852621],[-98.30985,31.851388],[-98.308932,31.851531],[-98.308402,31.851283],[-98.307857,31.850086],[-98.307944,31.849211],[-98.307669,31.84876],[-98.307003,31.848891],[-98.306969,31.85015],[-98.306378,31.850575],[-98.305901,31.85022],[-98.306108,31.848993],[-98.30585,31.848524],[-98.305565,31.848492],[-98.304951,31.849656],[-98.304624,31.849775],[-98.304258,31.849525],[-98.304082,31.848193],[-98.302731,31.848517],[-98.302371,31.849553],[-98.301699,31.84993],[-98.296149,31.865831],[-98.307213,31.87341],[-98.303403,31.882896],[-98.304886,31.883479],[-98.30498,31.883684],[-98.300878,31.893606],[-98.301707,31.894985],[-98.303121,31.895089],[-98.303255,31.895752],[-98.289581,31.930277],[-98.288319,31.931005],[-98.300336,31.93454],[-98.301736,31.934703],[-98.302891,31.934548],[-98.304156,31.93406],[-98.307568,31.93132],[-98.309632,31.93043],[-98.31205,31.930288],[-98.317231,31.931665],[-98.317976,31.931559],[-98.319285,31.932262],[-98.329061,31.935208],[-98.330049,31.935643],[-98.330866,31.936458],[-98.331348,31.937346],[-98.33147,31.938652],[-98.329554,31.94427],[-98.327499,31.941261],[-98.251211,31.980127]]]}},{"type":"Feature","properties":{"PRECINCT":"10","VTD":"0010"},"geometry":{"type":"Polygon","coordinates":[[[-98.428431,32.084873],[-98.428237,32.08487],[-98.402753,32.049123],[-98.401379,32.047734],[-98.400714,32.04628],[-98.399109,32.044915],[-98.397527,32.042289],[-98.396233,32.04121],[-98.394889,32.039378],[-98.367326,32.000107],[-98.364975,31.996146],[-98.33603,31.953756],[-98.343156,31.931953],[-98.37576,31.940349],[-98.385142,31.943126],[-98.385506,31.942897],[-98.391542,31.942924],[-98.402894,31.913655],[-98.402969,31.914573],[-98.403627,31.915298],[-98.411377,31.917795],[-98.412799,31.918696],[-98.415385,31.921052],[-98.420177,31.921793],[-98.420997,31.922101],[-98.421718,31.923106],[-98.42162,31.924653],[-98.421898,31.925502],[-98.42243,31.925989],[-98.424186,31.926677],[-98.424823,31.927391],[-98.424917,31.928292],[-98.422918,31.933551],[-98.423235,31.934461],[-98.424072,31.93535],[-98.424232,31.936398],[-98.417284,31.953962],[-98.424629,31.951068],[-98.430515,31.953138],[-98.432232,31.953093],[-98.433577,31.953367],[-98.454706,31.959244],[-98.456491,31.959782],[-98.456703,31.959893],[-98.456557,31.960029],[-98.458179,31.960342],[-98.459846,31.959527],[-98.461275,31.959129],[-98.468897,31.959285],[-98.47146,31.960028],[-98.471599,31.960236],[-98.472502,31.959663],[-98.472831,31.959955],[-98.472554,31.960356],[-98.472973,31.960334],[-98.475697,31.961678],[-98.479622,31.964207],[-98.491134,31.967501],[-98.492048,31.96703],[-98.493652,31.96544],[-98.495869,31.960239],[-98.499102,31.961632],[-98.502514,31.962618],[-98.502569,31.963373],[-98.503721,31.965436],[-98.504056,31.967739],[-98.504411,31.967469],[-98.504714,31.967634],[-98.504436,31.968443],[-98.504623,31.969394],[-98.505898,31.971952],[-98.505112,31.971759],[-98.505286,31.972117],[-98.504866,31.972485],[-98.504556,31.973458],[-98.504717,31.97364],[-98.505136,31.97342],[-98.505216,31.973618],[-98.505308,31.975476],[-98.503944,31.975508],[-98.502067,31.975077],[-98.499743,31.973346],[-98.4948,31.973097],[-98.490694,31.973802],[-98.478871,31.976682],[-98.477577,31.977733],[-98.4707,31.986288],[-98.469649,31.988038],[-98.47005,31.990511],[-98.470818,31.991382],[-98.471802,31.991816],[-98.47419,31.992285],[-98.477622,31.992006],[-98.481371,31.990757],[-98.488829,31.987719],[-98.490505,31.987643],[-98.491904,31.988208],[-98.493649,31.9895],[-98.493996,31.990892],[-98.493352,31.993289],[-98.489474,31.998953],[-98.486697,32.003611],[-98.485695,32.005747],[-98.485006,32.008095],[-98.48497,32.009366],[-98.485442,32.011214],[-98.485774,32.011791],[-98.486558,32.012279],[-98.488998,32.012341],[-98.49255,32.012034],[-98.496633,32.011173],[-98.500064,32.011091],[-98.50248,32.0123],[-98.504195,32.013939],[-98.505427,32.016705],[-98.504028,32.017495],[-98.503943,32.018144],[-98.503124,32.019679],[-98.501727,32.019569],[-98.501155,32.019717],[-98.499582,32.020676],[-98.495768,32.020728],[-98.490914,32.021607],[-98.490422,32.022189],[-98.491563,32.021872],[-98.492911,32.022263],[-98.493152,32.022752],[-98.492927,32.023726],[-98.491283,32.024787],[-98.49028,32.025071],[-98.489401,32.025901],[-98.488563,32.026211],[-98.488291,32.026542],[-98.488547,32.027235],[-98.490232,32.027601],[-98.490854,32.028589],[-98.49221,32.029526],[-98.492511,32.030302],[-98.493873,32.031097],[-98.495637,32.035526],[-98.495541,32.036158],[-98.496431,32.036569],[-98.496497,32.037361],[-98.495224,32.038914],[-98.495146,32.039865],[-98.494747,32.040558],[-98.494979,32.041361],[-98.494347,32.042217],[-98.494475,32.042676],[-98.495532,32.043333],[-98.494587,32.044301],[-98.494664,32.045124],[-98.49401,32.045887],[-98.490807,32.045018],[-98.490246,32.045396],[-98.490065,32.04489],[-98.489077,32.044407],[-98.488018,32.044428],[-98.487345,32.045856],[-98.485655,32.048041],[-98.484347,32.050341],[-98.476547,32.047723],[-98.465458,32.04488],[-98.464311,32.044227],[-98.45098,32.040543],[-98.449731,32.039846],[-98.449213,32.038469],[-98.44732,32.038071],[-98.443084,32.047893],[-98.436509,32.064984],[-98.429989,32.081133],[-98.429105,32.082767],[-98.428431,32.084873]]]}},{"type":"Feature","properties":{"PRECINCT":"11","VTD":"0011"},"geometry":{"type":"Polygon","coordinates":[[[-98.488012,32.105069],[-98.479619,32.102456],[-98.475555,32.100926],[-98.440828,32.090858],[-98.438567,32.090044],[-98.433761,32.087729],[-98.432162,32.08742],[-98.430146,32.087553],[-98.428237,32.08487],[-98.428431,32.084873],[-98.429105,32.082767],[-98.430108,32.080847],[-98.436509,32.064984],[-98.443084,32.047893],[-98.44732,32.038071],[-98.449213,32.038469],[-98.449731,32.039846],[-98.45098,32.040543],[-98.464311,32.044227],[-98.465458,32.04488],[-98.476547,32.047723],[-98.484347,32.050341],[-98.485655,32.048041],[-98.487345,32.045856],[-98.488018,32.044428],[-98.489077,32.044407],[-98.490065,32.04489],[-98.490246,32.045396],[-98.490807,32.045018],[-98.49401,32.045887],[-98.494664,32.045124],[-98.494587,32.044301],[-98.495532,32.043333],[-98.494475,32.042676],[-98.494347,32.042217],[-98.494979,32.041361],[-98.494747,32.040558],[-98.495146,32.039865],[-98.495224,32.038914],[-98.496497,32.037361],[-98.496431,32.036569],[-98.495541,32.036158],[-98.495637,32.035526],[-98.493873,32.031097],[-98.492511,32.030302],[-98.49221,32.029526],[-98.490854,32.028589],[-98.490232,32.027601],[-98.488756,32.027323],[-98.488299,32.026945],[-98.488563,32.026211],[-98.489401,32.025901],[-98.49028,32.025071],[-98.491283,32.024787],[-98.492927,32.023726],[-98.493152,32.022752],[-98.492911,32.022263],[-98.491563,32.021872],[-98.490422,32.022189],[-98.490597,32.021895],[-98.49125,32.021439],[-98.493853,32.020976],[-98.497697,32.020607],[-98.499582,32.020676],[-98.501155,32.019717],[-98.501727,32.019569],[-98.503124,32.019679],[-98.503943,32.018144],[-98.504028,32.017495],[-98.505427,32.016705],[-98.506031,32.02158],[-98.506901,32.023834],[-98.508133,32.024838],[-98.509728,32.025002],[-98.510888,32.025637],[-98.515141,32.026885],[-98.516856,32.02832],[-98.52256,32.034506],[-98.523019,32.037498],[-98.521183,32.042128],[-98.521062,32.043909],[-98.521763,32.044955],[-98.522584,32.045795],[-98.524614,32.04686],[-98.528965,32.048212],[-98.529593,32.048643],[-98.532161,32.048965],[-98.534601,32.050717],[-98.536243,32.052338],[-98.539582,32.053769],[-98.540712,32.055001],[-98.541587,32.055175],[-98.540996,32.06475],[-98.541274,32.070222],[-98.541042,32.07271],[-98.540112,32.076898],[-98.536421,32.086838],[-98.536032,32.088671],[-98.536327,32.091206],[-98.539396,32.098348],[-98.539631,32.100818],[-98.537077,32.108744],[-98.536521,32.108615],[-98.536703,32.107973],[-98.533159,32.10709],[-98.532845,32.108014],[-98.528693,32.107044],[-98.529505,32.104901],[-98.526445,32.103987],[-98.522353,32.114667],[-98.510732,32.11125],[-98.503119,32.109577],[-98.49325,32.107969],[-98.491548,32.107224],[-98.488012,32.105069]]]}},{"type":"Feature","properties":{"PRECINCT":"12","VTD":"0012"},"geometry":{"type":"Polygon","coordinates":[[[-98.543306,32.250155],[-98.541384,32.246927],[-98.534993,32.237657],[-98.500315,32.187749],[-98.496575,32.182668],[-98.454405,32.121648],[-98.430146,32.087553],[-98.432162,32.08742],[-98.433761,32.087729],[-98.438567,32.090044],[-98.440828,32.090858],[-98.476549,32.10123],[-98.479619,32.102456],[-98.487152,32.104685],[-98.491548,32.107224],[-98.49325,32.107969],[-98.503119,32.109577],[-98.510732,32.11125],[-98.522353,32.114667],[-98.526445,32.103987],[-98.529505,32.104901],[-98.528693,32.107044],[-98.532845,32.108014],[-98.533159,32.10709],[-98.536703,32.107973],[-98.536521,32.108615],[-98.537077,32.108744],[-98.538233,32.105223],[-98.539631,32.100818],[-98.539659,32.099505],[-98.539396,32.098348],[-98.536327,32.091206],[-98.536032,32.088671],[-98.536421,32.086838],[-98.540112,32.076898],[-98.541042,32.07271],[-98.541274,32.070222],[-98.540996,32.06475],[-98.541587,32.055175],[-98.542985,32.054699],[-98.543554,32.053764],[-98.544994,32.052808],[-98.548669,32.050988],[-98.553169,32.05079],[-98.554861,32.049613],[-98.55645,32.049108],[-98.558077,32.04963],[-98.559362,32.050527],[-98.560292,32.052429],[-98.559801,32.053364],[-98.560556,32.053881],[-98.560459,32.054613],[-98.560046,32.055042],[-98.561803,32.05678],[-98.563036,32.056411],[-98.563385,32.057126],[-98.562997,32.057616],[-98.563772,32.058149],[-98.56403,32.058144],[-98.564386,32.057374],[-98.564993,32.057192],[-98.565193,32.057467],[-98.56496,32.05794],[-98.565626,32.057951],[-98.56589,32.058303],[-98.566194,32.058259],[-98.566246,32.057792],[-98.56746,32.05712],[-98.568564,32.056801],[-98.568674,32.05607],[-98.569113,32.055922],[-98.569461,32.056257],[-98.570004,32.056279],[-98.570178,32.056158],[-98.569881,32.055421],[-98.570243,32.05535],[-98.570766,32.055762],[-98.571334,32.055003],[-98.571812,32.055454],[-98.572567,32.05497],[-98.572813,32.056009],[-98.5732,32.056152],[-98.573872,32.055443],[-98.574937,32.055305],[-98.575913,32.055393],[-98.577385,32.055178],[-98.579929,32.055481],[-98.580155,32.055695],[-98.579748,32.056196],[-98.580123,32.05702],[-98.580336,32.057009],[-98.580349,32.058065],[-98.581357,32.058879],[-98.582481,32.059236],[-98.583327,32.060435],[-98.582875,32.061123],[-98.583075,32.062091],[-98.580742,32.063788],[-98.612104,32.069643],[-98.613161,32.068225],[-98.616284,32.066752],[-98.61862,32.066342],[-98.618293,32.067325],[-98.618663,32.068152],[-98.619068,32.068357],[-98.666237,32.067676],[-98.666726,32.067956],[-98.667789,32.070272],[-98.668368,32.070888],[-98.669028,32.071185],[-98.66949,32.071207],[-98.66961,32.070951],[-98.672302,32.071364],[-98.67599,32.070423],[-98.67661,32.070721],[-98.676397,32.071815],[-98.677153,32.072123],[-98.680634,32.072723],[-98.681913,32.072662],[-98.682695,32.072255],[-98.683237,32.071496],[-98.683838,32.069769],[-98.68429,32.069319],[-98.68513,32.069005],[-98.686466,32.069506],[-98.687171,32.070182],[-98.690787,32.072497],[-98.692002,32.073509],[-98.692338,32.0744],[-98.693009,32.075038],[-98.696149,32.075527],[-98.696769,32.07583],[-98.697538,32.079839],[-98.700794,32.082819],[-98.701795,32.083226],[-98.702396,32.083012],[-98.703067,32.081906],[-98.706529,32.078463],[-98.709958,32.076818],[-98.710639,32.074777],[-98.711746,32.075012],[-98.712017,32.075329],[-98.712136,32.080404],[-98.712113,32.106019],[-98.714095,32.106121],[-98.715405,32.105862],[-98.728861,32.099583],[-98.736406,32.098073],[-98.738796,32.097849],[-98.761755,32.097811],[-98.762116,32.134596],[-98.761915,32.135021],[-98.762591,32.155159],[-98.756302,32.158235],[-98.750333,32.161508],[-98.660752,32.204175],[-98.625331,32.223094],[-98.62203,32.224579],[-98.5722,32.250136],[-98.554964,32.259559],[-98.551158,32.261436],[-98.543306,32.250155]]]}},{"type":"Feature","properties":{"PRECINCT":"13","VTD":"0013"},"geometry":{"type":"Polygon","coordinates":[[[-98.612104,32.069643],[-98.580742,32.063788],[-98.583075,32.062091],[-98.582875,32.061123],[-98.583327,32.060435],[-98.582481,32.059236],[-98.581357,32.058879],[-98.580349,32.058065],[-98.580336,32.057009],[-98.580123,32.05702],[-98.579748,32.056196],[-98.580155,32.055695],[-98.579929,32.055481],[-98.577385,32.055178],[-98.575913,32.055393],[-98.574937,32.055305],[-98.573872,32.055443],[-98.5732,32.056152],[-98.572813,32.056009],[-98.572567,32.05497],[-98.571812,32.055454],[-98.571334,32.055003],[-98.570766,32.055762],[-98.570243,32.05535],[-98.569881,32.055421],[-98.570178,32.056158],[-98.570004,32.056279],[-98.569461,32.056257],[-98.569113,32.055922],[-98.568674,32.05607],[-98.568564,32.056801],[-98.56746,32.05712],[-98.566246,32.057792],[-98.566194,32.058259],[-98.56589,32.058303],[-98.565626,32.057951],[-98.56496,32.05794],[-98.565193,32.057467],[-98.564993,32.057192],[-98.564386,32.057374],[-98.56403,32.058144],[-98.563772,32.058149],[-98.562997,32.057616],[-98.563385,32.057126],[-98.563036,32.056411],[-98.561803,32.05678],[-98.560046,32.055042],[-98.560459,32.054613],[-98.560556,32.053881],[-98.559801,32.053364],[-98.560292,32.052429],[-98.559362,32.050527],[-98.558077,32.04963],[-98.556779,32.049174],[-98.555346,32.049366],[-98.553169,32.05079],[-98.548669,32.050988],[-98.544994,32.052808],[-98.543554,32.053764],[-98.542985,32.054699],[-98.541881,32.055144],[-98.541093,32.055177],[-98.539582,32.053769],[-98.536243,32.052338],[-98.534601,32.050717],[-98.532161,32.048965],[-98.529593,32.048643],[-98.528965,32.048212],[-98.524614,32.04686],[-98.522584,32.045795],[-98.521062,32.043909],[-98.521183,32.042128],[-98.523019,32.037498],[-98.52256,32.034506],[-98.516856,32.02832],[-98.515141,32.026885],[-98.510888,32.025637],[-98.509728,32.025002],[-98.508133,32.024838],[-98.506901,32.023834],[-98.506031,32.02158],[-98.505427,32.016705],[-98.504195,32.013939],[-98.50248,32.0123],[-98.500064,32.011091],[-98.496633,32.011173],[-98.49255,32.012034],[-98.488998,32.012341],[-98.486558,32.012279],[-98.485774,32.011791],[-98.485442,32.011214],[-98.48497,32.009366],[-98.485006,32.008095],[-98.485695,32.005747],[-98.486697,32.003611],[-98.489474,31.998953],[-98.493352,31.993289],[-98.493996,31.990892],[-98.493649,31.9895],[-98.491904,31.988208],[-98.490505,31.987643],[-98.488829,31.987719],[-98.48756,31.988132],[-98.481371,31.990757],[-98.477622,31.992006],[-98.47419,31.992285],[-98.471802,31.991816],[-98.470818,31.991382],[-98.47005,31.990511],[-98.469649,31.988038],[-98.4707,31.986288],[-98.477577,31.977733],[-98.478871,31.976682],[-98.482242,31.975755],[-98.490694,31.973802],[-98.4948,31.973097],[-98.499743,31.973346],[-98.502067,31.975077],[-98.503944,31.975508],[-98.517459,31.974751],[-98.522263,31.975214],[-98.526211,31.976526],[-98.529523,31.978255],[-98.530885,31.979282],[-98.533978,31.980362],[-98.534832,31.981334],[-98.536061,31.984407],[-98.536049,31.986793],[-98.536654,31.989288],[-98.536591,31.991241],[-98.537028,31.992325],[-98.538817,31.993166],[-98.540122,31.995466],[-98.543825,31.996769],[-98.547116,31.997585],[-98.552531,31.997213],[-98.553697,31.997335],[-98.55465,31.99775],[-98.555812,31.999137],[-98.55581,32.000146],[-98.556355,32.001143],[-98.556964,32.001331],[-98.558279,32.000971],[-98.559031,32.001603],[-98.55917,32.005869],[-98.559403,32.006362],[-98.563313,32.006644],[-98.5636,32.007028],[-98.563801,32.008466],[-98.566567,32.010682],[-98.566973,32.010726],[-98.568045,32.010286],[-98.568742,32.010776],[-98.570465,32.01099],[-98.571104,32.011545],[-98.573241,32.011171],[-98.575222,32.011842],[-98.576248,32.011726],[-98.578708,32.012183],[-98.581077,32.013409],[-98.5828,32.01348],[-98.584795,32.01442],[-98.58588,32.015547],[-98.587048,32.015679],[-98.588262,32.016553],[-98.588817,32.017576],[-98.588333,32.018286],[-98.588495,32.018638],[-98.589527,32.018445],[-98.590735,32.020133],[-98.59171,32.020287],[-98.592665,32.019918],[-98.593375,32.020055],[-98.593885,32.020743],[-98.59475,32.021353],[-98.595222,32.022277],[-98.595448,32.022288],[-98.595622,32.021556],[-98.596371,32.021495],[-98.596855,32.021209],[-98.596906,32.020203],[-98.598804,32.020538],[-98.599114,32.02084],[-98.599527,32.020477],[-98.600631,32.020284],[-98.602135,32.021296],[-98.602471,32.021824],[-98.603433,32.021636],[-98.603788,32.021966],[-98.604418,32.021684],[-98.605105,32.022197],[-98.605854,32.022312],[-98.606054,32.022631],[-98.606029,32.023857],[-98.606836,32.024429],[-98.607327,32.024379],[-98.608314,32.023268],[-98.609005,32.024593],[-98.609677,32.024604],[-98.609857,32.024032],[-98.609579,32.023026],[-98.609992,32.023086],[-98.610722,32.023718],[-98.611729,32.023349],[-98.612187,32.023707],[-98.612607,32.023663],[-98.613362,32.023987],[-98.613904,32.023502],[-98.614511,32.024008],[-98.615828,32.023843],[-98.616022,32.023689],[-98.61595,32.022968],[-98.616144,32.022902],[-98.616822,32.023237],[-98.616797,32.023919],[-98.617726,32.02382],[-98.618243,32.024194],[-98.618908,32.024171],[-98.619198,32.0241],[-98.61923,32.023654],[-98.619456,32.023561],[-98.620257,32.024501],[-98.620819,32.024594],[-98.621451,32.024286],[-98.621987,32.023493],[-98.623348,32.023108],[-98.623684,32.022371],[-98.62482,32.022656],[-98.627599,32.021546],[-98.626794,32.046074],[-98.626599,32.04641],[-98.626628,32.054192],[-98.624727,32.055877],[-98.622875,32.058547],[-98.621009,32.060338],[-98.61862,32.066342],[-98.616284,32.066752],[-98.613161,32.068225],[-98.612104,32.069643]]]}},{"type":"Feature","properties":{"PRECINCT":"14","VTD":"0014"},"geometry":{"type":"Polygon","coordinates":[[[-98.762116,32.134596],[-98.761755,32.097811],[-98.738796,32.097849],[-98.736406,32.098073],[-98.728861,32.099583],[-98.715405,32.105862],[-98.714095,32.106121],[-98.712113,32.106019],[-98.712017,32.075329],[-98.711746,32.075012],[-98.710639,32.074777],[-98.710991,32.0742],[-98.713446,32.07404],[-98.714951,32.074738],[-98.715319,32.075266],[-98.715784,32.075167],[-98.719032,32.072252],[-98.719916,32.070541],[-98.721835,32.070282],[-98.72394,32.069319],[-98.7266,32.068774],[-98.728725,32.069032],[-98.729093,32.068806],[-98.729125,32.068053],[-98.72959,32.067755],[-98.729784,32.067975],[-98.729746,32.068811],[-98.731322,32.069449],[-98.732007,32.069377],[-98.731231,32.068343],[-98.732361,32.068101],[-98.732652,32.0682],[-98.732536,32.0687],[-98.732781,32.069179],[-98.733845,32.068452],[-98.734454,32.068375],[-98.735436,32.068611],[-98.736302,32.069282],[-98.737212,32.06954],[-98.737523,32.070194],[-98.738168,32.069969],[-98.738271,32.068753],[-98.737799,32.068286],[-98.73752,32.065987],[-98.738089,32.06547],[-98.737733,32.065173],[-98.737875,32.06481],[-98.738618,32.064612],[-98.738979,32.064177],[-98.739185,32.063061],[-98.738707,32.062632],[-98.737221,32.062242],[-98.736576,32.062715],[-98.735756,32.062842],[-98.735381,32.063139],[-98.735207,32.062743],[-98.734174,32.063134],[-98.733281,32.06127],[-98.735005,32.059438],[-98.734733,32.058729],[-98.734242,32.058382],[-98.734494,32.057222],[-98.735094,32.0566],[-98.73457,32.055704],[-98.734809,32.054873],[-98.733911,32.054098],[-98.733807,32.053603],[-98.734375,32.052795],[-98.734304,32.052195],[-98.734478,32.051893],[-98.734923,32.051821],[-98.735272,32.051937],[-98.735544,32.05258],[-98.736706,32.052348],[-98.737584,32.051886],[-98.738145,32.051039],[-98.73759,32.050401],[-98.736653,32.050044],[-98.735859,32.050292],[-98.735659,32.050182],[-98.735342,32.049489],[-98.735858,32.048796],[-98.736949,32.048466],[-98.736516,32.047553],[-98.737129,32.047113],[-98.737652,32.046073],[-98.737516,32.045831],[-98.737135,32.046128],[-98.73667,32.046024],[-98.737187,32.04538],[-98.737128,32.044665],[-98.736198,32.044649],[-98.73594,32.043962],[-98.736314,32.043742],[-98.736876,32.043819],[-98.737457,32.043279],[-98.738257,32.043059],[-98.738832,32.042608],[-98.738663,32.041992],[-98.737862,32.041651],[-98.737442,32.03976],[-98.737855,32.03944],[-98.73892,32.039539],[-98.740211,32.038411],[-98.740062,32.036998],[-98.739648,32.037064],[-98.739467,32.036789],[-98.73957,32.036217],[-98.739977,32.035843],[-98.739595,32.034688],[-98.740234,32.03405],[-98.741027,32.03262],[-98.742641,32.032536],[-98.745036,32.031749],[-98.748566,32.030026],[-98.748734,32.029569],[-98.749328,32.02908],[-98.748391,32.027969],[-98.7485,32.027452],[-98.747977,32.026985],[-98.74808,32.026204],[-98.747841,32.025615],[-98.749622,32.024779],[-98.750353,32.023623],[-98.750805,32.023651],[-98.751703,32.023217],[-98.752052,32.022673],[-98.753743,32.022597],[-98.754369,32.022316],[-98.754718,32.021772],[-98.755622,32.022031],[-98.756228,32.022675],[-98.757042,32.02262],[-98.757487,32.022296],[-98.758217,32.022181],[-98.758481,32.02239],[-98.758171,32.02311],[-98.759107,32.023671],[-98.759603,32.024392],[-98.760346,32.0247],[-98.761141,32.022875],[-98.762606,32.02232],[-98.762232,32.021258],[-98.762969,32.020346],[-98.763343,32.020203],[-98.765577,32.020539],[-98.766829,32.01988],[-98.767739,32.020518],[-98.769244,32.019842],[-98.769953,32.020491],[-98.76996,32.021025],[-98.770211,32.021052],[-98.771742,32.019254],[-98.772672,32.018776],[-98.801836,32.031385],[-98.804884,32.032992],[-98.824666,32.046304],[-98.827408,32.04919],[-98.831173,32.055116],[-98.833584,32.057419],[-98.853092,32.068129],[-98.890798,32.094208],[-98.875335,32.10166],[-98.860613,32.109153],[-98.82457,32.125139],[-98.811786,32.131616],[-98.797013,32.138344],[-98.762591,32.155159],[-98.761915,32.135021],[-98.762116,32.134596]]]}},{"type":"Feature","properties":{"PRECINCT":"15","VTD":"0015"},"geometry":{"type":"Polygon","coordinates":[[[-98.77272,32.018794],[-98.771742,32.019254],[-98.770211,32.021052],[-98.76996,32.021025],[-98.769953,32.020491],[-98.769244,32.019842],[-98.767739,32.020518],[-98.766829,32.01988],[-98.765577,32.020539],[-98.763343,32.020203],[-98.762969,32.020346],[-98.762232,32.021258],[-98.762606,32.02232],[-98.761141,32.022875],[-98.760346,32.0247],[-98.759603,32.024392],[-98.759107,32.023671],[-98.758171,32.02311],[-98.758423,32.022252],[-98.757623,32.022252],[-98.757042,32.02262],[-98.756228,32.022675],[-98.755622,32.022031],[-98.754718,32.021772],[-98.754369,32.022316],[-98.753743,32.022597],[-98.752284,32.022568],[-98.751703,32.023217],[-98.750805,32.023651],[-98.750353,32.023623],[-98.749744,32.024691],[-98.747841,32.025615],[-98.74808,32.026204],[-98.747977,32.026985],[-98.748494,32.02743],[-98.748391,32.027969],[-98.749276,32.028948],[-98.749315,32.029267],[-98.748811,32.029487],[-98.748463,32.030092],[-98.746043,32.031363],[-98.742641,32.032536],[-98.740995,32.032647],[-98.740234,32.03405],[-98.739531,32.034798],[-98.739977,32.035843],[-98.73957,32.036217],[-98.739467,32.036789],[-98.739648,32.037064],[-98.740062,32.036998],[-98.740192,32.03845],[-98.73892,32.039539],[-98.737855,32.03944],[-98.737487,32.039677],[-98.7379,32.041545],[-98.735358,32.04168],[-98.724545,32.033286],[-98.723706,32.01766],[-98.712065,32.005699],[-98.709323,32.004512],[-98.708366,32.00463],[-98.707308,32.005071],[-98.706585,32.00495],[-98.70592,32.005599],[-98.705043,32.005626],[-98.703042,32.006485],[-98.702642,32.006842],[-98.702816,32.007238],[-98.702158,32.007354],[-98.700835,32.008151],[-98.699525,32.008481],[-98.698724,32.008327],[-98.697989,32.008481],[-98.696756,32.010813],[-98.696524,32.010632],[-98.695852,32.010736],[-98.694994,32.009928],[-98.692915,32.009092],[-98.690818,32.010346],[-98.690525,32.010029],[-98.690569,32.0039],[-98.697484,31.995176],[-98.703945,31.983374],[-98.701505,31.981888],[-98.700296,31.948492],[-98.701094,31.948488],[-98.699739,31.920175],[-98.699972,31.920226],[-98.699849,31.91726],[-98.700742,31.917199],[-98.70041,31.916923],[-98.697887,31.916639],[-98.693382,31.916902],[-98.692378,31.901561],[-98.690668,31.900699],[-98.691772,31.899796],[-98.693296,31.899002],[-98.696789,31.897828],[-98.697386,31.897384],[-98.699211,31.894949],[-98.704433,31.891854],[-98.70505,31.890966],[-98.705756,31.888498],[-98.712891,31.888012],[-98.715311,31.899988],[-98.72993,31.899988],[-98.729982,31.903615],[-98.741519,31.903591],[-98.740633,31.901737],[-98.757008,31.901692],[-98.757214,31.88303],[-98.769306,31.881306],[-98.790238,31.881217],[-98.859739,31.982465],[-98.871436,32.000144],[-98.924401,32.078018],[-98.890798,32.094208],[-98.853092,32.068129],[-98.833584,32.057419],[-98.831173,32.055116],[-98.827408,32.04919],[-98.824666,32.046304],[-98.804884,32.032992],[-98.801836,32.031385],[-98.77272,32.018794]]]}},{"type":"Feature","properties":{"PRECINCT":"16","VTD":"0016"},"geometry":{"type":"Polygon","coordinates":[[[-98.696045,32.075511],[-98.693009,32.075038],[-98.692338,32.0744],[-98.692002,32.073509],[-98.690787,32.072497],[-98.687171,32.070182],[-98.686466,32.069506],[-98.68513,32.069005],[-98.68429,32.069319],[-98.683838,32.069769],[-98.683237,32.071496],[-98.682695,32.072255],[-98.681913,32.072662],[-98.680634,32.072723],[-98.677153,32.072123],[-98.676397,32.071815],[-98.67661,32.070721],[-98.67599,32.070423],[-98.672302,32.071364],[-98.66961,32.070951],[-98.66949,32.071207],[-98.669028,32.071185],[-98.668368,32.070888],[-98.667789,32.070272],[-98.666726,32.067956],[-98.666251,32.067677],[-98.61876,32.068239],[-98.618296,32.067126],[-98.620953,32.060429],[-98.622875,32.058547],[-98.624727,32.055877],[-98.626648,32.054137],[-98.626599,32.04641],[-98.626794,32.046074],[-98.627599,32.021546],[-98.628641,32.021167],[-98.629532,32.02032],[-98.630062,32.020276],[-98.63041,32.020546],[-98.631946,32.020844],[-98.632385,32.021322],[-98.632889,32.02107],[-98.635664,32.022539],[-98.643944,32.025287],[-98.644623,32.025017],[-98.644739,32.024572],[-98.645275,32.024589],[-98.645843,32.024919],[-98.647541,32.024067],[-98.648754,32.025228],[-98.648818,32.025849],[-98.649173,32.026168],[-98.650071,32.025613],[-98.65202,32.026461],[-98.654743,32.028942],[-98.655389,32.028194],[-98.655603,32.026924],[-98.65641,32.025549],[-98.657127,32.025412],[-98.657507,32.025665],[-98.657894,32.025594],[-98.659547,32.026424],[-98.660231,32.026512],[-98.661006,32.02638],[-98.66162,32.025578],[-98.661768,32.0245],[-98.659367,32.023608],[-98.660368,32.022915],[-98.660272,32.020666],[-98.659801,32.019671],[-98.660137,32.019643],[-98.660305,32.019742],[-98.66013,32.020023],[-98.66035,32.019968],[-98.660414,32.018983],[-98.660757,32.01911],[-98.66097,32.018923],[-98.661402,32.019385],[-98.661428,32.019957],[-98.662318,32.020595],[-98.66297,32.02043],[-98.663732,32.020656],[-98.664655,32.020463],[-98.665384,32.02081],[-98.666191,32.020761],[-98.666379,32.019881],[-98.666069,32.018841],[-98.666993,32.01723],[-98.669155,32.01579],[-98.669549,32.015773],[-98.672537,32.01755],[-98.67459,32.017308],[-98.675614,32.017709],[-98.675683,32.018421],[-98.676139,32.018232],[-98.676088,32.017908],[-98.676488,32.017897],[-98.677249,32.018254],[-98.677695,32.018837],[-98.681277,32.019668],[-98.681968,32.019261],[-98.682104,32.018816],[-98.684092,32.017611],[-98.684234,32.017276],[-98.685944,32.017325],[-98.686422,32.016137],[-98.688352,32.014955],[-98.688604,32.014251],[-98.687991,32.014152],[-98.688088,32.013492],[-98.687816,32.013245],[-98.687952,32.011914],[-98.688384,32.011237],[-98.689901,32.010957],[-98.689862,32.010357],[-98.69105,32.010253],[-98.692915,32.009092],[-98.694994,32.009928],[-98.695852,32.010736],[-98.696524,32.010632],[-98.696756,32.010813],[-98.697989,32.008481],[-98.698724,32.008327],[-98.699525,32.008481],[-98.700835,32.008151],[-98.702158,32.007354],[-98.702816,32.007238],[-98.702642,32.006842],[-98.703042,32.006485],[-98.705043,32.005626],[-98.70592,32.005599],[-98.706585,32.00495],[-98.707308,32.005071],[-98.708366,32.00463],[-98.709323,32.004512],[-98.712065,32.005699],[-98.723706,32.01766],[-98.724545,32.033286],[-98.735358,32.04168],[-98.7379,32.041545],[-98.738818,32.042201],[-98.738799,32.042679],[-98.738412,32.042982],[-98.737457,32.043279],[-98.736876,32.043819],[-98.736314,32.043742],[-98.73594,32.043962],[-98.736198,32.044649],[-98.737128,32.044665],[-98.737187,32.04538],[-98.73667,32.046024],[-98.737135,32.046128],[-98.737516,32.045831],[-98.737652,32.046073],[-98.737129,32.047113],[-98.736516,32.047553],[-98.736949,32.048466],[-98.735858,32.048796],[-98.735342,32.049489],[-98.735407,32.049968],[-98.735859,32.050292],[-98.736653,32.050044],[-98.73759,32.050401],[-98.738171,32.050907],[-98.737584,32.051886],[-98.736706,32.052348],[-98.735544,32.05258],[-98.735272,32.051937],[-98.734923,32.051821],[-98.734478,32.051893],[-98.734304,32.052195],[-98.734375,32.052795],[-98.733807,32.053603],[-98.733911,32.054098],[-98.734809,32.054873],[-98.73457,32.055704],[-98.735094,32.0566],[-98.734494,32.057222],[-98.734242,32.058382],[-98.734733,32.058729],[-98.735005,32.059438],[-98.733281,32.06127],[-98.734174,32.063134],[-98.735207,32.062743],[-98.735381,32.063139],[-98.735756,32.062842],[-98.736576,32.062715],[-98.737221,32.062242],[-98.738707,32.062632],[-98.739185,32.063061],[-98.738979,32.064177],[-98.738618,32.064612],[-98.737875,32.06481],[-98.737733,32.065173],[-98.738089,32.06547],[-98.73752,32.065987],[-98.737799,32.068286],[-98.738271,32.068753],[-98.738168,32.069969],[-98.737523,32.070194],[-98.737212,32.06954],[-98.736302,32.069282],[-98.735436,32.068611],[-98.734454,32.068375],[-98.733845,32.068452],[-98.732781,32.069179],[-98.732536,32.0687],[-98.732652,32.0682],[-98.732361,32.068101],[-98.731231,32.068343],[-98.732007,32.069377],[-98.731322,32.069449],[-98.729746,32.068811],[-98.729784,32.067975],[-98.72959,32.067755],[-98.729125,32.068053],[-98.729093,32.068806],[-98.728725,32.069032],[-98.7266,32.068774],[-98.72394,32.069319],[-98.721835,32.070282],[-98.720078,32.07047],[-98.719697,32.070728],[-98.719032,32.072252],[-98.715784,32.075167],[-98.715319,32.075266],[-98.714951,32.074738],[-98.713446,32.07404],[-98.710914,32.074244],[-98.709958,32.076818],[-98.706529,32.078463],[-98.703067,32.081906],[-98.702396,32.083012],[-98.701795,32.083226],[-98.700794,32.082819],[-98.697538,32.079839],[-98.696872,32.076006],[-98.696045,32.075511]]]}}]}