{"type":"FeatureCollection","features":[{"type":"Feature","properties":{"PRECINCT":"harris:119","COUNTY":"Harris"},"geometry":{"type":"Polygon","coordinates":[[[-95.8072,29.87492],[-95.80676,29.8314],[-95.80658,29.83116],[-95.80672,29.81853],[-95.80712,29.81761],[-95.80861,29.816],[-95.80904,29.81488],[-95.80902,29.80528],[-95.81548,29.80522],[-95.81544,29.80158],[-95.82496,29.80151],[-95.82497,29.80044],[-95.8302,29.80042],[-95.83769,29.82138],[-95.83995,29.82834],[-95.85685,29.87458],[-95.8072,29.87492]]]}},{"type":"Feature","properties":{"PRECINCT":"harris:121","COUNTY":"Harris"},"geometry":{"type":"Polygon","coordinates":[[[-95.91248,30.05243],[-95.8152,30.01585],[-95.81509,29.99592],[-95.81447,29.99553],[-95.80909,29.9956],[-95.80935,29.99518],[-95.80834,29.95012],[-95.80957,29.94972],[-95.81068,29.95057],[-95.81159,29.95063],[-95.81219,29.9501],[-95.81234,29.94841],[-95.81275,29.94816],[-95.8135,29.94824],[-95.8145,29.94785],[-95.81522,29.94793],[-95.81584,29.94772],[-95.81694,29.94682],[-95.81862,29.94615],[-95.81986,29.94529],[-95.82067,29.94516],[-95.82335,29.94308],[-95.82435,29.94187],[-95.82512,29.9415],[-95.82628,29.93971],[-95.82696,29.93933],[-95.82746,29.93933],[-95.82852,29.94011],[-95.82961,29.94012],[-95.83009,29.93925],[-95.82964,29.9375],[-95.83028,29.93611],[-95.83096,29.93543],[-95.83137,29.93335],[-95.83373,29.9319],[-95.83466,29.93083],[-95.83434,29.92865],[-95.83482,29.92692],[-95.83534,29.92612],[-95.8353,29.92456],[-95.83598,29.92416],[-95.83753,29.92442],[-95.83957,29.92341],[-95.84065,29.92055],[-95.8434,29.91949],[-95.84441,29.91888],[-95.84584,29.91902],[-95.84715,29.91876],[-95.84792,29.9168],[-95.84941,29.91636],[-95.85211,29.91486],[-95.85353,29.91314],[-95.85355,29.91116],[-95.85416,29.90971],[-95.86152,29.90998],[-95.86802,29.90915],[-95.86897,29.90883],[-95.88787,29.96097],[-95.88928,29.96508],[-95.89221,29.97563],[-95.89391,29.98046],[-95.90239,30.0024],[-95.92127,30.05406],[-95.92117,30.05529],[-95.91848,30.05467],[-95.91399,30.05301],[-95.91313,30.05292],[-95.91314,30.05269],[-95.91248,30.05243]]]}},{"type":"Feature","properties":{"PRECINCT":"harris:143","COUNTY":"Harris"},"geometry":{"type":"Polygon","coordinates":[[[-95.68816,29.92027],[-95.68627,29.92033],[-95.686,29.90852],[-95.69383,29.90767],[-95.69864,29.90761],[-95.70026,29.90789],[-95.70382,29.9095],[-95.70421,29.90748],[-95.70531,29.90715],[-95.70537,29.90536],[-95.70588,29.90379],[-95.70679,29.9047],[-95.70739,29.90434],[-95.70775,29.90468],[-95.70815,29.90423],[-95.7094,29.90446],[-95.71197,29.9042],[-95.71754,29.90429],[-95.72023,29.90514],[-95.72265,29.90724],[-95.72358,29.90774],[-95.72474,29.90772],[-95.72631,29.90838],[-95.72627,29.91121],[-95.72798,29.91452],[-95.72832,29.91612],[-95.72842,29.92636],[-95.70214,29.92306],[-95.6972,29.92169],[-95.69004,29.92075],[-95.68816,29.92027]]]}},{"type":"Feature","properties":{"PRECINCT":"harris:149","COUNTY":"Harris"},"geometry":{"type":"Polygon","coordinates":[[[-95.71879,29.88863],[-95.71967,29.88729],[-95.72221,29.88518],[-95.72318,29.88396],[-95.72383,29.8821],[-95.72384,29.8797],[-95.74154,29.87958],[-95.74376,29.87891],[-95.74665,29.87653],[-95.74875,29.87556],[-95.75016,29.87527],[-95.75719,29.87526],[-95.75723,29.88515],[-95.7576,29.88731],[-95.75735,29.88986],[-95.7579,29.88985],[-95.75798,29.89041],[-95.75822,29.90444],[-95.75912,29.90714],[-95.76179,29.91248],[-95.76214,29.92345],[-95.76397,29.93644],[-95.76537,29.93956],[-95.7686,29.94458],[-95.76944,29.94691],[-95.76958,29.9492],[-95.74353,29.94948],[-95.74334,29.94967],[-95.74341,29.95605],[-95.74325,29.95625],[-95.71839,29.95647],[-95.71794,29.95662],[-95.71793,29.9563],[-95.71905,29.95626],[-95.71814,29.9545],[-95.71816,29.95276],[-95.71856,29.95154],[-95.7198,29.94935],[-95.72028,29.94709],[-95.71978,29.94503],[-95.71793,29.94246],[-95.72674,29.93674],[-95.72762,29.93569],[-95.72826,29.93441],[-95.72847,29.93237],[-95.72832,29.91612],[-95.72798,29.91452],[-95.72627,29.91121],[-95.72627,29.90609],[-95.72598,29.90506],[-95.72526,29.90384],[-95.7201,29.89902],[-95.71897,29.89738],[-95.71857,29.89617],[-95.71839,29.89421],[-95.71835,29.89028],[-95.71879,29.88863]]]}},{"type":"Feature","properties":{"PRECINCT":"harris:331","COUNTY":"Harris"},"geometry":{"type":"Polygon","coordinates":[[[-95.77384,29.87515],[-95.77374,29.86063],[-95.75707,29.86079],[-95.75694,29.84628],[-95.79025,29.846],[-95.79001,29.81695],[-95.79308,29.81693],[-95.79295,29.80178],[-95.81544,29.80158],[-95.81548,29.80522],[-95.80902,29.80528],[-95.80904,29.81488],[-95.80861,29.816],[-95.80712,29.81761],[-95.80672,29.81853],[-95.80658,29.83116],[-95.80676,29.8314],[-95.8072,29.87492],[-95.77384,29.87515]]]}},{"type":"Feature","properties":{"PRECINCT":"harris:362","COUNTY":"Harris"},"geometry":{"type":"Polygon","coordinates":[[[-95.7721,29.7693],[-95.77147,29.76949],[-95.77038,29.76749],[-95.76757,29.76866],[-95.76647,29.76934],[-95.76426,29.7672],[-95.76304,29.76476],[-95.76188,29.76535],[-95.75959,29.76723],[-95.75728,29.76495],[-95.75664,29.76458],[-95.75162,29.7645],[-95.75145,29.74647],[-95.76857,29.75598],[-95.77167,29.7581],[-95.77584,29.76045],[-95.77571,29.76564],[-95.7767,29.77221],[-95.77678,29.77526],[-95.77618,29.77511],[-95.77423,29.77302],[-95.7721,29.7693]]]}},{"type":"Feature","properties":{"PRECINCT":"harris:509","COUNTY":"Harris"},"geometry":{"type":"Polygon","coordinates":[[[-95.73575,29.78517],[-95.73549,29.76974],[-95.73493,29.76726],[-95.73488,29.76368],[-95.73436,29.76122],[-95.73433,29.75952],[-95.73682,29.75945],[-95.74157,29.75866],[-95.75159,29.75855],[-95.75187,29.7851],[-95.73575,29.78517]]]}},{"type":"Feature","properties":{"PRECINCT":"harris:511","COUNTY":"Harris"},"geometry":{"type":"Polygon","coordinates":[[[-95.6898,29.96384],[-95.6894,29.96397],[-95.68806,29.96271],[-95.68772,29.96305],[-95.67337,29.95328],[-95.68627,29.92632],[-95.68627,29.92033],[-95.68816,29.92027],[-95.69004,29.92075],[-95.69599,29.92148],[-95.70214,29.92306],[-95.72842,29.92636],[-95.72841,29.93389],[-95.72783,29.93536],[-95.72674,29.93674],[-95.71671,29.94325],[-95.71529,29.9438],[-95.71184,29.944],[-95.70952,29.94469],[-95.70589,29.94725],[-95.70473,29.94873],[-95.70268,29.9572],[-95.70277,29.96834],[-95.70233,29.96986],[-95.70109,29.97157],[-95.6898,29.96384]]]}},{"type":"Feature","properties":{"PRECINCT":"harris:522","COUNTY":"Harris"},"geometry":{"type":"Polygon","coordinates":[[[-95.71893,29.78491],[-95.71885,29.77525],[-95.72159,29.77554],[-95.72162,29.77023],[-95.72349,29.77016],[-95.72481,29.76977],[-95.728,29.76737],[-95.7318,29.77067],[-95.73238,29.77152],[-95.73399,29.77051],[-95.73551,29.77045],[-95.73575,29.78517],[-95.71893,29.78491]]]}},{"type":"Feature","properties":{"PRECINCT":"harris:547","COUNTY":"Harris"},"geometry":{"type":"Polygon","coordinates":[[[-95.76895,29.77381],[-95.75642,29.77371],[-95.75519,29.77252],[-95.75174,29.77251],[-95.75162,29.7645],[-95.75664,29.76458],[-95.75728,29.76495],[-95.75959,29.76723],[-95.76188,29.76535],[-95.76304,29.76476],[-95.76426,29.7672],[-95.76647,29.76934],[-95.76757,29.76866],[-95.77038,29.76749],[-95.77147,29.76949],[-95.77208,29.76925],[-95.77331,29.77152],[-95.77069,29.77297],[-95.769,29.77325],[-95.76895,29.77381]]]}},{"type":"Feature","properties":{"PRECINCT":"harris:603","COUNTY":"Harris"},"geometry":{"type":"Polygon","coordinates":[[[-95.75223,29.81722],[-95.752,29.80199],[-95.79295,29.80178],[-95.79308,29.81693],[-95.75223,29.81722]]]}},{"type":"Feature","properties":{"PRECINCT":"harris:619","COUNTY":"Harris"},"geometry":{"type":"Polygon","coordinates":[[[-95.7318,29.77067],[-95.728,29.76737],[-95.72481,29.76977],[-95.72349,29.77016],[-95.72219,29.77023],[-95.72216,29.76715],[-95.72104,29.76716],[-95.72101,29.76477],[-95.72101,29.76397],[-95.72215,29.76397],[-95.72216,29.76264],[-95.72105,29.76204],[-95.71771,29.7595],[-95.71946,29.75756],[-95.72117,29.75461],[-95.72939,29.74615],[-95.73272,29.7482],[-95.7336,29.74925],[-95.73416,29.75056],[-95.73435,29.76102],[-95.73482,29.76321],[-95.7349,29.76696],[-95.73551,29.77045],[-95.73399,29.77051],[-95.73238,29.77152],[-95.7318,29.77067]]]}},{"type":"Feature","properties":{"PRECINCT":"harris:624","COUNTY":"Harris"},"geometry":{"type":"Polygon","coordinates":[[[-95.76807,29.99807],[-95.76797,29.96078],[-95.76878,29.96005],[-95.76956,29.96016],[-95.76957,29.94806],[-95.76944,29.94691],[-95.7686,29.94458],[-95.76537,29.93956],[-95.76397,29.93644],[-95.76214,29.92345],[-95.76179,29.91248],[-95.75912,29.90714],[-95.75822,29.90444],[-95.75798,29.89041],[-95.7579,29.88985],[-95.75735,29.88986],[-95.7576,29.88731],[-95.75723,29.88515],[-95.75719,29.87526],[-95.85685,29.87458],[-95.86897,29.90883],[-95.86802,29.90915],[-95.86152,29.90998],[-95.85416,29.90971],[-95.85355,29.91116],[-95.85353,29.91314],[-95.85211,29.91486],[-95.84941,29.91636],[-95.84792,29.9168],[-95.84715,29.91876],[-95.84584,29.91902],[-95.84441,29.91888],[-95.8434,29.91949],[-95.84065,29.92055],[-95.83957,29.92341],[-95.83753,29.92442],[-95.83598,29.92416],[-95.8353,29.92456],[-95.83534,29.92612],[-95.83482,29.92692],[-95.83434,29.92865],[-95.83466,29.93083],[-95.83373,29.9319],[-95.83137,29.93335],[-95.83096,29.93543],[-95.83028,29.93611],[-95.82964,29.9375],[-95.83009,29.93925],[-95.82961,29.94012],[-95.82852,29.94011],[-95.82746,29.93933],[-95.82696,29.93933],[-95.82628,29.93971],[-95.82512,29.9415],[-95.82435,29.94187],[-95.82335,29.94308],[-95.82067,29.94516],[-95.81986,29.94529],[-95.81862,29.94615],[-95.81694,29.94682],[-95.81584,29.94772],[-95.81522,29.94793],[-95.8145,29.94785],[-95.8135,29.94824],[-95.81275,29.94816],[-95.81234,29.94841],[-95.81219,29.9501],[-95.81159,29.95063],[-95.81068,29.95057],[-95.80957,29.94972],[-95.80834,29.95012],[-95.80935,29.99518],[-95.80909,29.9956],[-95.81447,29.99553],[-95.81509,29.99592],[-95.8152,30.01585],[-95.76807,29.99807]]]}},{"type":"Feature","properties":{"PRECINCT":"harris:639","COUNTY":"Harris"},"geometry":{"type":"Polygon","coordinates":[[[-95.80861,29.78412],[-95.81219,29.78086],[-95.82597,29.78862],[-95.8302,29.80042],[-95.82497,29.80044],[-95.82496,29.80151],[-95.80184,29.80172],[-95.80177,29.78525],[-95.80448,29.78528],[-95.80676,29.78494],[-95.80861,29.78412]]]}},{"type":"Feature","properties":{"PRECINCT":"harris:644","COUNTY":"Harris"},"geometry":{"type":"Polygon","coordinates":[[[-95.73433,29.75952],[-95.73428,29.75147],[-95.73396,29.74996],[-95.73333,29.74886],[-95.73243,29.74795],[-95.72939,29.74615],[-95.73051,29.74432],[-95.73131,29.74222],[-95.72775,29.74143],[-95.72942,29.73447],[-95.73001,29.73476],[-95.7304,29.7343],[-95.73867,29.73931],[-95.74254,29.74118],[-95.75145,29.74647],[-95.75153,29.75862],[-95.74157,29.75866],[-95.73682,29.75945],[-95.73488,29.75952],[-95.73433,29.75952]]]}},{"type":"Feature","properties":{"PRECINCT":"harris:709","COUNTY":"Harris"},"geometry":{"type":"Polygon","coordinates":[[[-95.67947,29.93002],[-95.67848,29.93016],[-95.67719,29.93151],[-95.67401,29.92947],[-95.67325,29.92863],[-95.67282,29.91135],[-95.67128,29.91068],[-95.66967,29.90894],[-95.6685,29.90813],[-95.66961,29.90584],[-95.67125,29.90611],[-95.67542,29.90611],[-95.67776,29.90635],[-95.68025,29.90698],[-95.68361,29.9083],[-95.686,29.90852],[-95.68637,29.92585],[-95.68253,29.93419],[-95.68106,29.93357],[-95.68045,29.93306],[-95.68033,29.9325],[-95.68061,29.93087],[-95.68011,29.93024],[-95.67947,29.93002]]]}},{"type":"Feature","properties":{"PRECINCT":"harris:720","COUNTY":"Harris"},"geometry":{"type":"Polygon","coordinates":[[[-95.80184,29.80172],[-95.752,29.80199],[-95.75187,29.7851],[-95.79129,29.78539],[-95.80177,29.78525],[-95.80184,29.80172]]]}},{"type":"Feature","properties":{"PRECINCT":"harris:751","COUNTY":"Harris"},"geometry":{"type":"Polygon","coordinates":[[[-95.75187,29.7851],[-95.75174,29.77251],[-95.75519,29.77252],[-95.75642,29.77371],[-95.75721,29.77386],[-95.76895,29.77381],[-95.769,29.77325],[-95.77069,29.77297],[-95.77331,29.77152],[-95.7748,29.7737],[-95.77618,29.77511],[-95.77678,29.77526],[-95.7767,29.77221],[-95.77571,29.76564],[-95.77584,29.76045],[-95.81219,29.78086],[-95.80861,29.78412],[-95.80676,29.78494],[-95.80448,29.78528],[-95.76243,29.78529],[-95.75187,29.7851]]]}},{"type":"Feature","properties":{"PRECINCT":"harris:772","COUNTY":"Harris"},"geometry":{"type":"Polygon","coordinates":[[[-95.70505,29.77573],[-95.70187,29.77535],[-95.70141,29.75],[-95.70171,29.74617],[-95.70275,29.74714],[-95.70285,29.74972],[-95.70315,29.75108],[-95.70411,29.75275],[-95.7054,29.75397],[-95.70624,29.75443],[-95.7085,29.75512],[-95.7132,29.75604],[-95.71538,29.75379],[-95.71707,29.75506],[-95.7149,29.7573],[-95.72105,29.76204],[-95.72216,29.76264],[-95.72215,29.76397],[-95.72101,29.76397],[-95.72104,29.76716],[-95.72216,29.76715],[-95.72219,29.77023],[-95.72162,29.77023],[-95.72159,29.77554],[-95.71989,29.77525],[-95.71628,29.77532],[-95.71117,29.77671],[-95.70954,29.77689],[-95.7079,29.77669],[-95.70505,29.77573]]]}},{"type":"Feature","properties":{"PRECINCT":"harris:803","COUNTY":"Harris"},"geometry":{"type":"Polygon","coordinates":[[[-95.686,29.90852],[-95.68336,29.90824],[-95.68025,29.90698],[-95.67776,29.90635],[-95.67542,29.90611],[-95.67125,29.90611],[-95.66961,29.90584],[-95.66969,29.90111],[-95.66836,29.89629],[-95.66834,29.89548],[-95.66854,29.89548],[-95.66846,29.89025],[-95.67099,29.88977],[-95.67094,29.88819],[-95.67141,29.88762],[-95.67525,29.88744],[-95.67526,29.8882],[-95.67737,29.88819],[-95.67758,29.88837],[-95.67582,29.88992],[-95.67675,29.89066],[-95.68333,29.88559],[-95.68345,29.89402],[-95.68598,29.90784],[-95.686,29.90852]]]}},{"type":"Feature","properties":{"PRECINCT":"harris:862","COUNTY":"Harris"},"geometry":{"type":"Polygon","coordinates":[[[-95.66712,29.93186],[-95.66567,29.92886],[-95.6656,29.92725],[-95.6661,29.92558],[-95.66819,29.92157],[-95.66851,29.91902],[-95.66844,29.91313],[-95.66798,29.9111],[-95.66807,29.9101],[-95.66468,29.91008],[-95.66468,29.90843],[-95.66488,29.90758],[-95.66583,29.90647],[-95.66698,29.90694],[-95.6674,29.90656],[-95.66759,29.90544],[-95.66782,29.90547],[-95.66817,29.90293],[-95.66977,29.90292],[-95.66966,29.90563],[-95.6685,29.90813],[-95.66967,29.90894],[-95.67128,29.91068],[-95.67282,29.91135],[-95.67325,29.92863],[-95.67401,29.92947],[-95.67719,29.93151],[-95.67848,29.93016],[-95.67921,29.92997],[-95.68011,29.93024],[-95.68066,29.93102],[-95.68033,29.9325],[-95.68045,29.93306],[-95.68106,29.93357],[-95.68253,29.93419],[-95.67337,29.95328],[-95.66281,29.94558],[-95.66308,29.94554],[-95.6658,29.94285],[-95.66805,29.94172],[-95.66751,29.94039],[-95.66747,29.93903],[-95.66782,29.93424],[-95.66712,29.93186]]]}},{"type":"Feature","properties":{"PRECINCT":"harris:901","COUNTY":"Harris"},"geometry":{"type":"Polygon","coordinates":[[[-95.78196,30.00433],[-95.78195,30.0033],[-95.81488,30.01572],[-95.8152,30.01585],[-95.81523,30.01688],[-95.80783,30.01378],[-95.79872,30.01032],[-95.78673,30.00587],[-95.78196,30.00433]]]}},{"type":"Feature","properties":{"PRECINCT":"harris:919","COUNTY":"Harris"},"geometry":{"type":"Polygon","coordinates":[[[-95.77366,29.86067],[-95.77384,29.87515],[-95.75719,29.87526],[-95.75707,29.86079],[-95.77366,29.86067]]]}},{"type":"Feature","properties":{"PRECINCT":"harris:923","COUNTY":"Harris"},"geometry":{"type":"Polygon","coordinates":[[[-95.70277,29.96834],[-95.70282,29.95636],[-95.70452,29.94926],[-95.70589,29.94725],[-95.71009,29.94442],[-95.71184,29.944],[-95.71529,29.9438],[-95.71671,29.94325],[-95.71793,29.94246],[-95.71978,29.94503],[-95.72028,29.94709],[-95.7198,29.94935],[-95.71856,29.95154],[-95.71816,29.95276],[-95.71814,29.9545],[-95.71905,29.95626],[-95.71793,29.9563],[-95.71794,29.95662],[-95.71839,29.95647],[-95.74325,29.95625],[-95.74341,29.95605],[-95.74334,29.94967],[-95.74353,29.94948],[-95.76958,29.9492],[-95.76956,29.96016],[-95.76878,29.96005],[-95.76797,29.96078],[-95.76807,29.99807],[-95.71235,29.97707],[-95.70597,29.97461],[-95.70428,29.97376],[-95.70109,29.97157],[-95.70233,29.96986],[-95.70277,29.96834]]]}}]}