{"type":"FeatureCollection","features":[{"type":"Feature","properties":{"PRECINCT":"2B","VTD":"002B"},"geometry":{"type":"Polygon","coordinates":[[[-98.581162,28.603583],[-98.573636,28.602986],[-98.573045,28.600378],[-98.566818,28.591012],[-98.5648,28.58892],[-98.563609,28.586999],[-98.563082,28.585109],[-98.55527,28.58127],[-98.546021,28.582194],[-98.545762,28.54059],[-98.548468,28.514278],[-98.548622,28.502683],[-98.432507,28.566029],[-98.432283,28.564649],[-98.431722,28.563989],[-98.432452,28.563505],[-98.43234,28.562762],[-98.431997,28.562691],[-98.432034,28.562415],[-98.431074,28.562157],[-98.429946,28.56093],[-98.427871,28.559994],[-98.427916,28.558485],[-98.427554,28.557734],[-98.427229,28.55744],[-98.426023,28.557072],[-98.424515,28.555993],[-98.425067,28.554205],[-98.424824,28.553567],[-98.425429,28.552147],[-98.425024,28.552164],[-98.425279,28.551729],[-98.424897,28.547501],[-98.424112,28.54585],[-98.422661,28.544931],[-98.418926,28.544325],[-98.409265,28.54034],[-98.402931,28.539674],[-98.40126,28.539266],[-98.399776,28.538397],[-98.398476,28.537255],[-98.397424,28.53519],[-98.39727,28.532635],[-98.398167,28.529428],[-98.398909,28.528368],[-98.400147,28.527336],[-98.404725,28.525759],[-98.407975,28.522362],[-98.410357,28.520378],[-98.412831,28.517008],[-98.418089,28.513856],[-98.418924,28.51266],[-98.419698,28.510459],[-98.420904,28.508964],[-98.426873,28.505947],[-98.431265,28.504615],[-98.433461,28.504289],[-98.436245,28.504262],[-98.439059,28.504887],[-98.441843,28.506056],[-98.443731,28.506514],[-98.44605,28.507442],[-98.452111,28.509154],[-98.453657,28.509344],[-98.459039,28.509208],[-98.461451,28.508774],[-98.464079,28.507551],[-98.465997,28.505893],[-98.467914,28.502686],[-98.468192,28.501816],[-98.468188,28.49975],[-98.469489,28.496938],[-98.469053,28.495095],[-98.469464,28.494539],[-98.471052,28.494109],[-98.472695,28.491754],[-98.472701,28.491451],[-98.472122,28.49133],[-98.471786,28.490841],[-98.472358,28.488667],[-98.473765,28.487973],[-98.474463,28.487131],[-98.475316,28.486873],[-98.475658,28.485618],[-98.475963,28.485288],[-98.477109,28.485293],[-98.477632,28.484996],[-98.478435,28.483229],[-98.478952,28.483306],[-98.479363,28.483873],[-98.480098,28.483614],[-98.479967,28.482876],[-98.478989,28.482855],[-98.478459,28.481534],[-98.478683,28.481083],[-98.479418,28.481132],[-98.479841,28.479922],[-98.480762,28.479586],[-98.481005,28.479674],[-98.48103,28.480295],[-98.480682,28.480813],[-98.480894,28.480978],[-98.48151,28.480207],[-98.482544,28.48008],[-98.482319,28.479563],[-98.482612,28.479321],[-98.483876,28.479425],[-98.484262,28.47926],[-98.485277,28.478561],[-98.485684,28.477884],[-98.487163,28.478733],[-98.490495,28.477935],[-98.491887,28.477278],[-98.493129,28.477564],[-98.49362,28.477439],[-98.496068,28.474996],[-98.49524,28.477286],[-98.496119,28.477847],[-98.496617,28.477065],[-98.497507,28.47707],[-98.498385,28.476465],[-98.498565,28.475892],[-98.499113,28.47576],[-98.49968,28.475997],[-98.500555,28.475891],[-98.501925,28.477031],[-98.502492,28.476602],[-98.503618,28.477862],[-98.503998,28.477681],[-98.504316,28.477059],[-98.504621,28.477093],[-98.504783,28.477874],[-98.505804,28.478463],[-98.506893,28.478541],[-98.507722,28.478161],[-98.508214,28.478662],[-98.508457,28.478354],[-98.509478,28.478074],[-98.509864,28.478509],[-98.510163,28.47836],[-98.510761,28.478482],[-98.511228,28.478124],[-98.511745,28.478565],[-98.511988,28.4784],[-98.511676,28.477965],[-98.511782,28.477772],[-98.513022,28.477817],[-98.513209,28.477201],[-98.514074,28.477459],[-98.514635,28.477317],[-98.51443,28.476816],[-98.514654,28.476244],[-98.514909,28.476101],[-98.515358,28.476348],[-98.515433,28.475771],[-98.516024,28.475798],[-98.516149,28.475045],[-98.517575,28.47483],[-98.520515,28.474854],[-98.524551,28.473259],[-98.525099,28.472786],[-98.526967,28.47272],[-98.527447,28.471725],[-98.528263,28.470888],[-98.527858,28.47009],[-98.52797,28.469733],[-98.528301,28.469683],[-98.5285,28.4703],[-98.530493,28.468517],[-98.529939,28.467296],[-98.530213,28.466091],[-98.530096,28.46444],[-98.531198,28.463274],[-98.532344,28.463169],[-98.532387,28.462938],[-98.532076,28.462724],[-98.532107,28.46219],[-98.533428,28.462053],[-98.532388,28.460677],[-98.532626,28.459486],[-98.544704,28.459868],[-98.5487,28.462367],[-98.54769,28.463651],[-98.547342,28.464749],[-98.547886,28.47105],[-98.565628,28.468231],[-98.602755,28.468016],[-98.740553,28.494532],[-98.748997,28.495494],[-98.751111,28.495526],[-98.751707,28.495785],[-98.764399,28.49716],[-98.801034,28.496575],[-98.801464,28.542518],[-98.801026,28.580041],[-98.801171,28.599424],[-98.794651,28.599397],[-98.79323,28.599701],[-98.789714,28.599539],[-98.790023,28.598841],[-98.790591,28.598334],[-98.79046,28.597393],[-98.790734,28.597316],[-98.790423,28.596618],[-98.79109,28.595952],[-98.791121,28.594961],[-98.791677,28.594092],[-98.791539,28.59374],[-98.791028,28.593487],[-98.79124,28.59325],[-98.790935,28.593019],[-98.791153,28.592507],[-98.790966,28.592452],[-98.790904,28.591907],[-98.79111,28.591742],[-98.790898,28.591511],[-98.791359,28.59117],[-98.791309,28.590587],[-98.791896,28.59024],[-98.791403,28.589508],[-98.791628,28.589096],[-98.790873,28.588738],[-98.790493,28.588199],[-98.790069,28.588287],[-98.790294,28.586906],[-98.790045,28.585904],[-98.78886,28.585662],[-98.788605,28.584413],[-98.788263,28.584279],[-98.79047,28.569306],[-98.742035,28.569321],[-98.73541,28.568659],[-98.734865,28.56814],[-98.73444,28.567127],[-98.733295,28.56687],[-98.730472,28.567497],[-98.728736,28.568679],[-98.703387,28.568826],[-98.689407,28.559072],[-98.686955,28.558368],[-98.686199,28.557849],[-98.685755,28.558215],[-98.685507,28.55918],[-98.679896,28.568933],[-98.675359,28.569028],[-98.668358,28.57228],[-98.666543,28.573614],[-98.637298,28.587451],[-98.636233,28.587902],[-98.633373,28.588368],[-98.630289,28.590724],[-98.626767,28.592393],[-98.597988,28.598443],[-98.596186,28.599399],[-98.594959,28.601],[-98.590318,28.603283],[-98.581162,28.603583]]]}},{"type":"Feature","properties":{"PRECINCT":"4B","VTD":"004B"},"geometry":{"type":"Polygon","coordinates":[[[-98.544704,28.459868],[-98.533294,28.459462],[-98.508417,28.460308],[-98.49096,28.460289],[-98.490378,28.420932],[-98.490445,28.407356],[-98.490894,28.406987],[-98.490905,28.406481],[-98.490448,28.406089],[-98.490517,28.402104],[-98.485734,28.402077],[-98.485882,28.353219],[-98.474292,28.345036],[-98.474246,28.332711],[-98.475077,28.330924],[-98.474726,28.330641],[-98.474993,28.330267],[-98.473949,28.330371],[-98.473469,28.329431],[-98.473811,28.329122],[-98.473649,28.328792],[-98.472816,28.328853],[-98.473009,28.329233],[-98.472754,28.329381],[-98.47248,28.32887],[-98.471697,28.328496],[-98.471614,28.327954],[-98.471841,28.327764],[-98.472535,28.327842],[-98.473677,28.326912],[-98.473295,28.325774],[-98.473682,28.325297],[-98.47443,28.325075],[-98.474682,28.324195],[-98.475394,28.324513],[-98.47627,28.324124],[-98.477015,28.32316],[-98.477835,28.322958],[-98.479344,28.322114],[-98.480074,28.322204],[-98.481369,28.321057],[-98.481785,28.321037],[-98.482645,28.32175],[-98.483743,28.321793],[-98.483994,28.321311],[-98.484723,28.321183],[-98.484385,28.320369],[-98.484854,28.320132],[-98.485815,28.319941],[-98.486856,28.320601],[-98.487077,28.319784],[-98.487899,28.318869],[-98.488672,28.319393],[-98.489211,28.318567],[-98.49081,28.319483],[-98.491571,28.319522],[-98.492138,28.319834],[-98.492738,28.319136],[-98.493869,28.318604],[-98.494153,28.318668],[-98.494461,28.319167],[-98.496138,28.318798],[-98.497163,28.319167],[-98.498848,28.318212],[-98.499774,28.318626],[-98.499832,28.317746],[-98.500357,28.317487],[-98.50072,28.317622],[-98.500841,28.318408],[-98.501318,28.318444],[-98.501664,28.318154],[-98.501651,28.317491],[-98.502657,28.316516],[-98.504161,28.316689],[-98.505138,28.316344],[-98.505758,28.316368],[-98.506469,28.315969],[-98.506593,28.316395],[-98.507538,28.316331],[-98.508366,28.315734],[-98.508993,28.3161],[-98.509145,28.315623],[-98.510388,28.316033],[-98.510516,28.316686],[-98.510966,28.316661],[-98.511494,28.316288],[-98.511819,28.317276],[-98.513452,28.318713],[-98.516373,28.319493],[-98.517815,28.318977],[-98.519513,28.320151],[-98.520198,28.32017],[-98.520181,28.320719],[-98.520741,28.321586],[-98.520604,28.322101],[-98.521621,28.322334],[-98.521793,28.322749],[-98.522243,28.322601],[-98.522618,28.32296],[-98.522984,28.322743],[-98.523495,28.323099],[-98.523875,28.32254],[-98.524744,28.322333],[-98.52542,28.322959],[-98.528497,28.322313],[-98.530986,28.322327],[-98.531631,28.321676],[-98.533574,28.321553],[-98.534481,28.321746],[-98.534935,28.322189],[-98.53571,28.322377],[-98.536218,28.322944],[-98.538024,28.323099],[-98.538654,28.323398],[-98.538972,28.323894],[-98.53968,28.32391],[-98.540157,28.323222],[-98.540605,28.323064],[-98.540321,28.322711],[-98.540514,28.322315],[-98.541013,28.322328],[-98.541541,28.322716],[-98.542045,28.322627],[-98.542949,28.321954],[-98.54395,28.321966],[-98.544737,28.32099],[-98.545394,28.320596],[-98.54686,28.320316],[-98.546839,28.319865],[-98.547456,28.319104],[-98.548095,28.319338],[-98.548114,28.318926],[-98.548765,28.318251],[-98.548841,28.317607],[-98.54913,28.317299],[-98.548944,28.316459],[-98.5491,28.31636],[-98.549655,28.316774],[-98.54997,28.316217],[-98.550891,28.315854],[-98.551028,28.315425],[-98.550748,28.314192],[-98.550922,28.314022],[-98.55196,28.313983],[-98.551973,28.313505],[-98.551451,28.312938],[-98.551581,28.312591],[-98.552352,28.312575],[-98.552638,28.31302],[-98.552868,28.313031],[-98.553291,28.312602],[-98.553926,28.311161],[-98.554578,28.310511],[-98.557121,28.309126],[-98.563128,28.322326],[-98.563608,28.324577],[-98.564656,28.333356],[-98.564705,28.335913],[-98.564249,28.338591],[-98.554182,28.367665],[-98.553123,28.371683],[-98.553245,28.410473],[-98.550738,28.443798],[-98.550909,28.446039],[-98.552731,28.454137],[-98.552812,28.455541],[-98.55258,28.456673],[-98.551168,28.459058],[-98.547663,28.45681],[-98.545239,28.460158],[-98.544704,28.459868]]]}},{"type":"Feature","properties":{"PRECINCT":"2A","VTD":"002A"},"geometry":{"type":"Polygon","coordinates":[[[-98.438955,28.601978],[-98.438808,28.588337],[-98.437356,28.587093],[-98.435295,28.581006],[-98.434664,28.580391],[-98.433355,28.580147],[-98.432919,28.579695],[-98.433361,28.579159],[-98.432713,28.577905],[-98.433155,28.577442],[-98.432806,28.576738],[-98.433062,28.576568],[-98.433211,28.574928],[-98.432931,28.574488],[-98.43242,28.574592],[-98.432738,28.574091],[-98.43184,28.573173],[-98.431965,28.572523],[-98.432314,28.572529],[-98.432457,28.572232],[-98.431977,28.571582],[-98.432133,28.57101],[-98.432538,28.570889],[-98.432906,28.571038],[-98.433642,28.570476],[-98.43353,28.569734],[-98.433019,28.569376],[-98.43338,28.56882],[-98.433424,28.567736],[-98.432726,28.567478],[-98.432339,28.56778],[-98.432096,28.567439],[-98.432507,28.566029],[-98.548622,28.502683],[-98.548468,28.514278],[-98.545762,28.54059],[-98.546021,28.582194],[-98.55527,28.58127],[-98.563082,28.585109],[-98.563609,28.586999],[-98.5648,28.58892],[-98.566818,28.591012],[-98.573045,28.600378],[-98.573636,28.602986],[-98.581162,28.603583],[-98.590318,28.603283],[-98.594959,28.601],[-98.596186,28.599399],[-98.597988,28.598443],[-98.626767,28.592393],[-98.630289,28.590724],[-98.633373,28.588368],[-98.636233,28.587902],[-98.637298,28.587451],[-98.666543,28.573614],[-98.668358,28.57228],[-98.675359,28.569028],[-98.679896,28.568933],[-98.685507,28.55918],[-98.685755,28.558215],[-98.686199,28.557849],[-98.686955,28.558368],[-98.689407,28.559072],[-98.703387,28.568826],[-98.728736,28.568679],[-98.730472,28.567497],[-98.733295,28.56687],[-98.73444,28.567127],[-98.734865,28.56814],[-98.73541,28.568659],[-98.742035,28.569321],[-98.79047,28.569306],[-98.788263,28.584279],[-98.788605,28.584413],[-98.78886,28.585662],[-98.790045,28.585904],[-98.790294,28.586906],[-98.790069,28.588287],[-98.790493,28.588199],[-98.790873,28.588738],[-98.791628,28.589096],[-98.791403,28.589508],[-98.791896,28.59024],[-98.791309,28.590587],[-98.791359,28.59117],[-98.790898,28.591511],[-98.79111,28.591742],[-98.790904,28.591907],[-98.790966,28.592452],[-98.791153,28.592507],[-98.790935,28.593019],[-98.79124,28.59325],[-98.791028,28.593487],[-98.791539,28.59374],[-98.791677,28.594092],[-98.791121,28.594961],[-98.79109,28.595952],[-98.790423,28.596618],[-98.790734,28.597316],[-98.79046,28.597393],[-98.790591,28.598334],[-98.790023,28.598841],[-98.789714,28.599539],[-98.79323,28.599701],[-98.794651,28.599397],[-98.801171,28.599424],[-98.801645,28.625291],[-98.800848,28.647306],[-98.737762,28.648171],[-98.686681,28.648364],[-98.438317,28.64817],[-98.438955,28.601978]]]}},{"type":"Feature","properties":{"PRECINCT":"3","VTD":"0003"},"geometry":{"type":"Polygon","coordinates":[[[-98.335047,28.648275],[-98.334395,28.500269],[-98.334267,28.387474],[-98.334785,28.387475],[-98.335202,28.387203],[-98.335713,28.385905],[-98.338005,28.385506],[-98.339295,28.385998],[-98.340612,28.386136],[-98.341382,28.385528],[-98.342274,28.385277],[-98.343179,28.385605],[-98.343435,28.386202],[-98.344388,28.386357],[-98.344975,28.387027],[-98.345674,28.386653],[-98.346283,28.385963],[-98.349231,28.384746],[-98.350495,28.385241],[-98.351208,28.385188],[-98.35387,28.383674],[-98.354106,28.382893],[-98.353933,28.38171],[-98.354335,28.380987],[-98.354919,28.380796],[-98.356006,28.38088],[-98.356785,28.378974],[-98.358886,28.378102],[-98.35979,28.37706],[-98.361274,28.376614],[-98.363313,28.376723],[-98.365089,28.376206],[-98.367105,28.37606],[-98.370419,28.374725],[-98.371712,28.374927],[-98.373711,28.374004],[-98.374038,28.373071],[-98.375744,28.372555],[-98.376147,28.371885],[-98.37704,28.371195],[-98.37763,28.371297],[-98.378464,28.37089],[-98.379299,28.371604],[-98.379784,28.371625],[-98.380059,28.370696],[-98.38095,28.370426],[-98.381494,28.369785],[-98.381693,28.368705],[-98.382263,28.368249],[-98.382762,28.367346],[-98.382964,28.366265],[-98.383468,28.365423],[-98.383787,28.36519],[-98.384762,28.365335],[-98.385085,28.364744],[-98.386079,28.364259],[-98.386124,28.362667],[-98.385422,28.361435],[-98.385288,28.36029],[-98.385509,28.359922],[-98.386423,28.359163],[-98.387218,28.359475],[-98.388004,28.359418],[-98.388917,28.35813],[-98.389924,28.357662],[-98.390572,28.35778],[-98.392011,28.357281],[-98.392158,28.352748],[-98.392855,28.351928],[-98.393529,28.351622],[-98.394204,28.352545],[-98.395861,28.353017],[-98.396516,28.352831],[-98.397727,28.351077],[-98.397372,28.350318],[-98.397745,28.349822],[-98.400557,28.346621],[-98.402856,28.34618],[-98.403376,28.344745],[-98.403313,28.344053],[-98.403793,28.343564],[-98.405363,28.342753],[-98.405752,28.341085],[-98.406249,28.340815],[-98.406586,28.34016],[-98.407635,28.339946],[-98.408938,28.338382],[-98.409722,28.337794],[-98.410541,28.33765],[-98.410868,28.336817],[-98.411604,28.336618],[-98.412116,28.336084],[-98.412821,28.33608],[-98.41316,28.335514],[-98.41447,28.335003],[-98.41557,28.335136],[-98.416184,28.334474],[-98.416957,28.334461],[-98.418064,28.33531],[-98.418071,28.336196],[-98.41876,28.337237],[-98.419644,28.337408],[-98.419542,28.338147],[-98.41986,28.338609],[-98.421381,28.338967],[-98.424537,28.340478],[-98.42496,28.340343],[-98.424872,28.339641],[-98.425462,28.338963],[-98.428359,28.337955],[-98.428248,28.337265],[-98.428635,28.336778],[-98.428961,28.336727],[-98.429629,28.337177],[-98.43026,28.336482],[-98.430662,28.336392],[-98.430615,28.337501],[-98.431129,28.337754],[-98.431756,28.336701],[-98.433675,28.336583],[-98.434286,28.33568],[-98.436588,28.336219],[-98.437305,28.336711],[-98.438776,28.336523],[-98.441191,28.337354],[-98.442998,28.337105],[-98.443895,28.337236],[-98.444245,28.336497],[-98.444966,28.336647],[-98.445815,28.335961],[-98.445405,28.335076],[-98.445789,28.334904],[-98.446006,28.334449],[-98.445925,28.333694],[-98.446225,28.333309],[-98.447246,28.3328],[-98.447157,28.331707],[-98.448237,28.330498],[-98.450224,28.330157],[-98.451456,28.329406],[-98.452767,28.329293],[-98.453455,28.328826],[-98.454039,28.329373],[-98.45477,28.329468],[-98.455865,28.330359],[-98.457911,28.330624],[-98.46,28.328467],[-98.460796,28.328463],[-98.46212,28.328922],[-98.46244,28.329894],[-98.463449,28.330104],[-98.463736,28.330059],[-98.463923,28.329585],[-98.46535,28.330009],[-98.466075,28.329904],[-98.466636,28.329411],[-98.467411,28.32913],[-98.467938,28.328015],[-98.468276,28.328064],[-98.46868,28.328817],[-98.469928,28.328232],[-98.471184,28.328792],[-98.471664,28.328424],[-98.47248,28.32887],[-98.472754,28.329381],[-98.473009,28.329233],[-98.472816,28.328853],[-98.473649,28.328792],[-98.473811,28.329122],[-98.473469,28.329431],[-98.473855,28.330278],[-98.474975,28.330201],[-98.474726,28.330641],[-98.475077,28.330924],[-98.474246,28.332711],[-98.474292,28.345036],[-98.485882,28.353219],[-98.485734,28.402077],[-98.490517,28.402104],[-98.490448,28.406089],[-98.490905,28.406481],[-98.490894,28.406987],[-98.490445,28.407356],[-98.490378,28.420932],[-98.49096,28.460289],[-98.508417,28.460308],[-98.532626,28.459486],[-98.532388,28.460677],[-98.533452,28.461987],[-98.532774,28.462245],[-98.532107,28.46219],[-98.532076,28.462724],[-98.532387,28.462938],[-98.532344,28.463169],[-98.531198,28.463274],[-98.530096,28.46444],[-98.530213,28.466091],[-98.529939,28.467296],[-98.530437,28.468633],[-98.5285,28.4703],[-98.528301,28.469683],[-98.52797,28.469733],[-98.527858,28.47009],[-98.528263,28.470888],[-98.527447,28.471725],[-98.526967,28.47272],[-98.525099,28.472786],[-98.524551,28.473259],[-98.520515,28.474854],[-98.517575,28.47483],[-98.516149,28.475045],[-98.516024,28.475798],[-98.515433,28.475771],[-98.515358,28.476348],[-98.514909,28.476101],[-98.514654,28.476244],[-98.51443,28.476816],[-98.514635,28.477317],[-98.514074,28.477459],[-98.513209,28.477201],[-98.513022,28.477817],[-98.511782,28.477772],[-98.511676,28.477965],[-98.511988,28.4784],[-98.511745,28.478565],[-98.511228,28.478124],[-98.510761,28.478482],[-98.510163,28.47836],[-98.509864,28.478509],[-98.509478,28.478074],[-98.508457,28.478354],[-98.508214,28.478662],[-98.507722,28.478161],[-98.506893,28.478541],[-98.505804,28.478463],[-98.504783,28.477874],[-98.504621,28.477093],[-98.504316,28.477059],[-98.503998,28.477681],[-98.503618,28.477862],[-98.502492,28.476602],[-98.501925,28.477031],[-98.500555,28.475891],[-98.49968,28.475997],[-98.499113,28.47576],[-98.498565,28.475892],[-98.498385,28.476465],[-98.497507,28.47707],[-98.496617,28.477065],[-98.496119,28.477847],[-98.49524,28.477286],[-98.496068,28.474996],[-98.49362,28.477439],[-98.493129,28.477564],[-98.491887,28.477278],[-98.490495,28.477935],[-98.487163,28.478733],[-98.485684,28.477884],[-98.485277,28.478561],[-98.484262,28.47926],[-98.483876,28.479425],[-98.482612,28.479321],[-98.482319,28.479563],[-98.482544,28.48008],[-98.48151,28.480207],[-98.480894,28.480978],[-98.480682,28.480813],[-98.48103,28.480295],[-98.481005,28.479674],[-98.480762,28.479586],[-98.479841,28.479922],[-98.479418,28.481132],[-98.478683,28.481083],[-98.478459,28.481534],[-98.478989,28.482855],[-98.479967,28.482876],[-98.480098,28.483614],[-98.479363,28.483873],[-98.478952,28.483306],[-98.478435,28.483229],[-98.477632,28.484996],[-98.477109,28.485293],[-98.475963,28.485288],[-98.475658,28.485618],[-98.475316,28.486873],[-98.474463,28.487131],[-98.473765,28.487973],[-98.472358,28.488667],[-98.471786,28.490841],[-98.472122,28.49133],[-98.472701,28.491451],[-98.472695,28.491754],[-98.471052,28.494109],[-98.469464,28.494539],[-98.469053,28.495095],[-98.469489,28.496938],[-98.468188,28.49975],[-98.468192,28.501816],[-98.467914,28.502686],[-98.465997,28.505893],[-98.464079,28.507551],[-98.461451,28.508774],[-98.459039,28.509208],[-98.453657,28.509344],[-98.452111,28.509154],[-98.44605,28.507442],[-98.443731,28.506514],[-98.441843,28.506056],[-98.439059,28.504887],[-98.436245,28.504262],[-98.433461,28.504289],[-98.431265,28.504615],[-98.426873,28.505947],[-98.420904,28.508964],[-98.419698,28.510459],[-98.418924,28.51266],[-98.418089,28.513856],[-98.412831,28.517008],[-98.410357,28.520378],[-98.407975,28.522362],[-98.404725,28.525759],[-98.400147,28.527336],[-98.398909,28.528368],[-98.398167,28.529428],[-98.39727,28.532635],[-98.397424,28.53519],[-98.398476,28.537255],[-98.399776,28.538397],[-98.40126,28.539266],[-98.402931,28.539674],[-98.409265,28.54034],[-98.418926,28.544325],[-98.422661,28.544931],[-98.424112,28.54585],[-98.424897,28.547501],[-98.425279,28.551729],[-98.425024,28.552164],[-98.425429,28.552147],[-98.424824,28.553567],[-98.425067,28.554205],[-98.424515,28.555993],[-98.426023,28.557072],[-98.427229,28.55744],[-98.427554,28.557734],[-98.427916,28.558485],[-98.427871,28.559994],[-98.429946,28.56093],[-98.431074,28.562157],[-98.432034,28.562415],[-98.431997,28.562691],[-98.432427,28.562955],[-98.432452,28.563505],[-98.431722,28.563989],[-98.432283,28.564649],[-98.432184,28.564985],[-98.432489,28.565513],[-98.432476,28.566581],[-98.432096,28.567439],[-98.432339,28.56778],[-98.432726,28.567478],[-98.433424,28.567736],[-98.43338,28.56882],[-98.433019,28.569376],[-98.43353,28.569734],[-98.433642,28.570476],[-98.432906,28.571038],[-98.432538,28.570889],[-98.432133,28.57101],[-98.431977,28.571582],[-98.432457,28.572232],[-98.432314,28.572529],[-98.431965,28.572523],[-98.43184,28.573173],[-98.432738,28.574091],[-98.43242,28.574592],[-98.432931,28.574488],[-98.433211,28.574928],[-98.433062,28.576568],[-98.432806,28.576738],[-98.433155,28.577442],[-98.432713,28.577905],[-98.433361,28.579159],[-98.432919,28.579695],[-98.433355,28.580147],[-98.434664,28.580391],[-98.435295,28.581006],[-98.437356,28.587093],[-98.438814,28.588376],[-98.438826,28.601898],[-98.439035,28.604178],[-98.438609,28.620554],[-98.438317,28.64817],[-98.335047,28.648275]]]}},{"type":"Feature","properties":{"PRECINCT":"4A","VTD":"004A"},"geometry":{"type":"Polygon","coordinates":[[[-98.334267,28.387474],[-98.334462,28.295378],[-98.334257,28.295357],[-98.334208,28.257499],[-98.334414,28.240346],[-98.334323,28.0578],[-98.499167,28.05754],[-98.566106,28.057127],[-98.803325,28.05748],[-98.802273,28.116064],[-98.801824,28.125311],[-98.800082,28.202333],[-98.780384,28.202406],[-98.776516,28.201943],[-98.774189,28.201256],[-98.727647,28.182998],[-98.714181,28.179655],[-98.713546,28.179858],[-98.71318,28.180397],[-98.712664,28.180221],[-98.712366,28.180458],[-98.712043,28.180386],[-98.711497,28.180672],[-98.711137,28.181746],[-98.710826,28.181944],[-98.711267,28.182169],[-98.71128,28.182643],[-98.710479,28.182582],[-98.70974,28.183105],[-98.7101,28.183556],[-98.710007,28.183727],[-98.709131,28.183408],[-98.708634,28.184283],[-98.708082,28.184558],[-98.707765,28.185141],[-98.707355,28.184982],[-98.707343,28.184745],[-98.705865,28.18474],[-98.705927,28.185125],[-98.705449,28.185918],[-98.705803,28.18649],[-98.705455,28.186506],[-98.705523,28.186297],[-98.705045,28.186286],[-98.704548,28.185846],[-98.704356,28.186061],[-98.704635,28.186572],[-98.704511,28.186936],[-98.702753,28.187869],[-98.702667,28.188147],[-98.702946,28.188603],[-98.70212,28.188994],[-98.701953,28.189792],[-98.701487,28.189764],[-98.701108,28.190029],[-98.701636,28.190722],[-98.701648,28.191162],[-98.700965,28.191757],[-98.700698,28.192384],[-98.699941,28.192868],[-98.69986,28.193429],[-98.699326,28.193683],[-98.698885,28.195873],[-98.697904,28.197458],[-98.697258,28.197557],[-98.697289,28.198327],[-98.696705,28.198608],[-98.697016,28.199527],[-98.694848,28.201673],[-98.695047,28.203241],[-98.694575,28.204634],[-98.691898,28.206296],[-98.690469,28.207473],[-98.689457,28.207814],[-98.688295,28.208788],[-98.687978,28.209245],[-98.687699,28.210555],[-98.686903,28.210968],[-98.686413,28.211688],[-98.686624,28.21286],[-98.685934,28.213059],[-98.685742,28.213532],[-98.685226,28.213862],[-98.685524,28.21483],[-98.684474,28.215793],[-98.683375,28.215623],[-98.682996,28.215843],[-98.682878,28.216256],[-98.680846,28.216773],[-98.680542,28.217499],[-98.67925,28.217824],[-98.678647,28.21822],[-98.678386,28.21871],[-98.677106,28.219783],[-98.676503,28.21992],[-98.673807,28.219469],[-98.673217,28.219782],[-98.672826,28.220431],[-98.672968,28.220839],[-98.672291,28.221372],[-98.672546,28.221697],[-98.673478,28.221934],[-98.673154,28.222704],[-98.673483,28.224421],[-98.673191,28.224834],[-98.672489,28.224641],[-98.672266,28.224812],[-98.672353,28.225136],[-98.6728,28.225533],[-98.673378,28.225604],[-98.67339,28.225846],[-98.672843,28.226545],[-98.671762,28.226545],[-98.670743,28.22808],[-98.669426,28.228779],[-98.668027,28.230286],[-98.666859,28.230814],[-98.667145,28.231711],[-98.666163,28.232162],[-98.666082,28.232449],[-98.667219,28.233126],[-98.667325,28.234072],[-98.666554,28.234776],[-98.666013,28.234551],[-98.665665,28.234661],[-98.66546,28.23515],[-98.664715,28.23509],[-98.663112,28.235469],[-98.662378,28.235904],[-98.661409,28.235612],[-98.660819,28.235859],[-98.659899,28.236822],[-98.659619,28.237802],[-98.658973,28.238033],[-98.658438,28.238594],[-98.65781,28.240024],[-98.657394,28.240321],[-98.656791,28.240129],[-98.655187,28.241526],[-98.654939,28.242494],[-98.654112,28.243006],[-98.653844,28.24404],[-98.652558,28.244293],[-98.652235,28.24453],[-98.652316,28.244909],[-98.651887,28.245526],[-98.650352,28.245921],[-98.650208,28.247451],[-98.650432,28.247897],[-98.649872,28.248794],[-98.650475,28.250378],[-98.650133,28.250752],[-98.649325,28.250675],[-98.649859,28.251654],[-98.649722,28.252083],[-98.648187,28.252848],[-98.647814,28.252848],[-98.647485,28.252512],[-98.647038,28.252534],[-98.646571,28.253183],[-98.646167,28.253189],[-98.645838,28.252781],[-98.645011,28.253612],[-98.64406,28.253705],[-98.643451,28.253413],[-98.643694,28.25294],[-98.64275,28.252951],[-98.643011,28.252114],[-98.642116,28.251646],[-98.641134,28.251531],[-98.640854,28.251987],[-98.641687,28.252461],[-98.640978,28.252972],[-98.641386,28.253575],[-98.640668,28.253814],[-98.640201,28.253368],[-98.639916,28.253363],[-98.639915,28.253841],[-98.639238,28.25427],[-98.638337,28.254325],[-98.637802,28.254875],[-98.637895,28.255684],[-98.637522,28.25613],[-98.637546,28.257131],[-98.637217,28.257318],[-98.636862,28.257098],[-98.636427,28.257769],[-98.636315,28.258611],[-98.636712,28.259244],[-98.6366,28.259557],[-98.634823,28.259551],[-98.633778,28.260993],[-98.63333,28.261251],[-98.632573,28.260348],[-98.632411,28.26108],[-98.633018,28.261258],[-98.632916,28.261862],[-98.631553,28.261652],[-98.630477,28.261806],[-98.628705,28.262933],[-98.628575,28.263258],[-98.628028,28.263257],[-98.627425,28.26373],[-98.626405,28.264005],[-98.625864,28.264572],[-98.625037,28.264802],[-98.624553,28.265386],[-98.624671,28.266146],[-98.622875,28.266488],[-98.622695,28.266912],[-98.622801,28.267858],[-98.622466,28.268298],[-98.621962,28.268238],[-98.621074,28.268558],[-98.620701,28.268987],[-98.62021,28.268442],[-98.61918,28.268493],[-98.61903,28.269013],[-98.619465,28.269653],[-98.61829,28.270077],[-98.617563,28.270744],[-98.61673,28.270727],[-98.615799,28.272786],[-98.61501,28.273749],[-98.613686,28.274294],[-98.613128,28.275395],[-98.611928,28.27594],[-98.611058,28.276749],[-98.609784,28.276899],[-98.609418,28.277834],[-98.60851,28.277757],[-98.608007,28.278159],[-98.608529,28.278704],[-98.609089,28.278484],[-98.610015,28.278659],[-98.610519,28.278929],[-98.610525,28.279237],[-98.607821,28.28036],[-98.607703,28.280614],[-98.608182,28.280993],[-98.608133,28.281323],[-98.606933,28.281329],[-98.60643,28.28188],[-98.605603,28.281797],[-98.605006,28.282029],[-98.604783,28.283558],[-98.604528,28.283834],[-98.603596,28.283729],[-98.602949,28.284137],[-98.601719,28.284038],[-98.601277,28.284335],[-98.600637,28.284154],[-98.60009,28.28444],[-98.599966,28.284743],[-98.600345,28.285111],[-98.599923,28.285337],[-98.599294,28.284952],[-98.598176,28.284925],[-98.598455,28.28536],[-98.597952,28.285761],[-98.59835,28.286042],[-98.597529,28.286075],[-98.597088,28.287264],[-98.597462,28.288018],[-98.59684,28.288381],[-98.596909,28.288865],[-98.595579,28.289834],[-98.595237,28.290412],[-98.594466,28.290616],[-98.594,28.290467],[-98.593378,28.291144],[-98.59257,28.290996],[-98.592241,28.29159],[-98.59175,28.291777],[-98.590637,28.291739],[-98.590239,28.290919],[-98.589648,28.291062],[-98.589375,28.291981],[-98.587672,28.291597],[-98.587485,28.291756],[-98.587678,28.292262],[-98.58728,28.292494],[-98.587498,28.292983],[-98.585844,28.293297],[-98.585558,28.293859],[-98.585058,28.293591],[-98.584666,28.293674],[-98.584812,28.294414],[-98.585571,28.294464],[-98.585235,28.294844],[-98.583538,28.295328],[-98.582649,28.295301],[-98.582363,28.296143],[-98.581723,28.296489],[-98.580635,28.296655],[-98.579662,28.296361],[-98.579491,28.29584],[-98.579932,28.295879],[-98.580007,28.295708],[-98.579024,28.294443],[-98.578552,28.294894],[-98.578588,28.295974],[-98.57762,28.296077],[-98.577174,28.294647],[-98.576762,28.294514],[-98.576215,28.294991],[-98.576289,28.295357],[-98.575947,28.295747],[-98.574287,28.295753],[-98.573672,28.295995],[-98.571732,28.297795],[-98.570719,28.297426],[-98.569581,28.298257],[-98.567685,28.29845],[-98.567219,28.299699],[-98.567635,28.300535],[-98.567088,28.301151],[-98.566846,28.30218],[-98.565658,28.302802],[-98.564987,28.304431],[-98.56426,28.304855],[-98.563632,28.305653],[-98.562562,28.305669],[-98.561549,28.307458],[-98.560517,28.307568],[-98.554578,28.310511],[-98.553926,28.311161],[-98.553291,28.312602],[-98.552868,28.313031],[-98.552638,28.31302],[-98.552352,28.312575],[-98.551581,28.312591],[-98.551451,28.312938],[-98.552004,28.313796],[-98.551886,28.314044],[-98.550922,28.314022],[-98.550748,28.314192],[-98.550984,28.315766],[-98.54997,28.316217],[-98.549655,28.316774],[-98.54905,28.316355],[-98.548857,28.316679],[-98.54913,28.317299],[-98.548841,28.317607],[-98.548765,28.318251],[-98.548114,28.318926],[-98.548095,28.319338],[-98.547456,28.319104],[-98.546839,28.319865],[-98.54686,28.320316],[-98.546074,28.320357],[-98.544819,28.320924],[-98.544049,28.321926],[-98.542949,28.321954],[-98.542045,28.322627],[-98.541541,28.322716],[-98.5406,28.322277],[-98.540321,28.322711],[-98.540605,28.323064],[-98.54006,28.32332],[-98.539859,28.323827],[-98.539378,28.323953],[-98.538972,28.323894],[-98.538654,28.323398],[-98.538024,28.323099],[-98.536218,28.322944],[-98.53571,28.322377],[-98.534935,28.322189],[-98.534481,28.321746],[-98.533574,28.321553],[-98.531631,28.321676],[-98.530986,28.322327],[-98.528497,28.322313],[-98.52542,28.322959],[-98.524963,28.322427],[-98.524596,28.322333],[-98.523875,28.32254],[-98.523595,28.323081],[-98.522984,28.322743],[-98.522618,28.32296],[-98.522243,28.322601],[-98.521793,28.322749],[-98.521621,28.322334],[-98.520649,28.322163],[-98.520741,28.321586],[-98.520181,28.320719],[-98.520198,28.32017],[-98.519513,28.320151],[-98.517815,28.318977],[-98.516373,28.319493],[-98.513452,28.318713],[-98.511819,28.317276],[-98.511494,28.316288],[-98.510966,28.316661],[-98.510516,28.316686],[-98.510388,28.316033],[-98.509145,28.315623],[-98.508993,28.3161],[-98.508366,28.315734],[-98.507538,28.316331],[-98.506593,28.316395],[-98.506469,28.315969],[-98.505758,28.316368],[-98.505138,28.316344],[-98.504161,28.316689],[-98.502466,28.316583],[-98.501651,28.317491],[-98.501664,28.318154],[-98.501216,28.318468],[-98.500841,28.318408],[-98.50072,28.317622],[-98.500357,28.317487],[-98.499832,28.317746],[-98.49992,28.318398],[-98.499689,28.318658],[-98.498934,28.318202],[-98.497163,28.319167],[-98.496138,28.318798],[-98.495343,28.318867],[-98.494691,28.319194],[-98.493869,28.318604],[-98.492738,28.319136],[-98.492138,28.319834],[-98.491571,28.319522],[-98.49081,28.319483],[-98.489211,28.318567],[-98.488672,28.319393],[-98.48804,28.318882],[-98.487807,28.318934],[-98.487077,28.319784],[-98.486856,28.320601],[-98.485815,28.319941],[-98.484521,28.320271],[-98.484407,28.320575],[-98.484723,28.321183],[-98.483994,28.321311],[-98.483856,28.321778],[-98.482645,28.32175],[-98.481785,28.321037],[-98.481369,28.321057],[-98.480074,28.322204],[-98.479344,28.322114],[-98.477835,28.322958],[-98.477015,28.32316],[-98.47627,28.324124],[-98.475394,28.324513],[-98.474682,28.324195],[-98.47443,28.325075],[-98.473682,28.325297],[-98.473295,28.325774],[-98.473677,28.326912],[-98.472535,28.327842],[-98.471686,28.327833],[-98.471664,28.328424],[-98.471293,28.328787],[-98.469928,28.328232],[-98.46868,28.328817],[-98.468276,28.328064],[-98.467938,28.328015],[-98.467411,28.32913],[-98.466636,28.329411],[-98.466075,28.329904],[-98.46535,28.330009],[-98.463923,28.329585],[-98.463736,28.330059],[-98.463449,28.330104],[-98.46244,28.329894],[-98.46212,28.328922],[-98.460796,28.328463],[-98.46,28.328467],[-98.457911,28.330624],[-98.455865,28.330359],[-98.454687,28.329419],[-98.454039,28.329373],[-98.453538,28.328816],[-98.452767,28.329293],[-98.451456,28.329406],[-98.450224,28.330157],[-98.448484,28.330331],[-98.447157,28.331707],[-98.447193,28.332872],[-98.445998,28.333539],[-98.446006,28.334449],[-98.445789,28.334904],[-98.445405,28.335076],[-98.445815,28.335961],[-98.444966,28.336647],[-98.444245,28.336497],[-98.443895,28.337236],[-98.442998,28.337105],[-98.441191,28.337354],[-98.438776,28.336523],[-98.437305,28.336711],[-98.436588,28.336219],[-98.434286,28.33568],[-98.433675,28.336583],[-98.431756,28.336701],[-98.431129,28.337754],[-98.430615,28.337501],[-98.430662,28.336392],[-98.43026,28.336482],[-98.429629,28.337177],[-98.428961,28.336727],[-98.428635,28.336778],[-98.428248,28.337265],[-98.428359,28.337955],[-98.425462,28.338963],[-98.424872,28.339641],[-98.42496,28.340343],[-98.424341,28.340483],[-98.421381,28.338967],[-98.41986,28.338609],[-98.419542,28.338147],[-98.419644,28.337408],[-98.41876,28.337237],[-98.418071,28.336196],[-98.418064,28.33531],[-98.416957,28.334461],[-98.416184,28.334474],[-98.41557,28.335136],[-98.41433,28.335043],[-98.41316,28.335514],[-98.412821,28.33608],[-98.412116,28.336084],[-98.411604,28.336618],[-98.410868,28.336817],[-98.410541,28.33765],[-98.409722,28.337794],[-98.408938,28.338382],[-98.407635,28.339946],[-98.406586,28.34016],[-98.406249,28.340815],[-98.405752,28.341085],[-98.405363,28.342753],[-98.403793,28.343564],[-98.403313,28.344053],[-98.403376,28.344745],[-98.402856,28.34618],[-98.400557,28.346621],[-98.397745,28.349822],[-98.397372,28.350318],[-98.397727,28.351077],[-98.396516,28.352831],[-98.395861,28.353017],[-98.394204,28.352545],[-98.393529,28.351622],[-98.392855,28.351928],[-98.392158,28.352748],[-98.392011,28.357281],[-98.390572,28.35778],[-98.389924,28.357662],[-98.388917,28.35813],[-98.388004,28.359418],[-98.387218,28.359475],[-98.386423,28.359163],[-98.385509,28.359922],[-98.385288,28.36029],[-98.385422,28.361435],[-98.386124,28.362667],[-98.386079,28.364259],[-98.385085,28.364744],[-98.384762,28.365335],[-98.383787,28.36519],[-98.383468,28.365423],[-98.382964,28.366265],[-98.382762,28.367346],[-98.382263,28.368249],[-98.381693,28.368705],[-98.381494,28.369785],[-98.38095,28.370426],[-98.380059,28.370696],[-98.379784,28.371625],[-98.379299,28.371604],[-98.378464,28.37089],[-98.37763,28.371297],[-98.37704,28.371195],[-98.376147,28.371885],[-98.375744,28.372555],[-98.374038,28.373071],[-98.373711,28.374004],[-98.371712,28.374927],[-98.370419,28.374725],[-98.367105,28.37606],[-98.365089,28.376206],[-98.363313,28.376723],[-98.361274,28.376614],[-98.35979,28.37706],[-98.358886,28.378102],[-98.356785,28.378974],[-98.356006,28.38088],[-98.354919,28.380796],[-98.354335,28.380987],[-98.353933,28.38171],[-98.354106,28.382893],[-98.35387,28.383674],[-98.351208,28.385188],[-98.350495,28.385241],[-98.349231,28.384746],[-98.346283,28.385963],[-98.345674,28.386653],[-98.344975,28.387027],[-98.344388,28.386357],[-98.343435,28.386202],[-98.343179,28.385605],[-98.342274,28.385277],[-98.341382,28.385528],[-98.340612,28.386136],[-98.339295,28.385998],[-98.338005,28.385506],[-98.337183,28.385776],[-98.335942,28.385803],[-98.335651,28.385974],[-98.335552,28.386589],[-98.335026,28.387338],[-98.334267,28.387474]]]}},{"type":"Feature","properties":{"PRECINCT":"1","VTD":"0001"},"geometry":{"type":"Polygon","coordinates":[[[-98.739753,28.494414],[-98.602755,28.468016],[-98.565628,28.468231],[-98.547886,28.47105],[-98.547342,28.464749],[-98.54769,28.463651],[-98.5487,28.462367],[-98.545239,28.460158],[-98.547663,28.45681],[-98.551168,28.459058],[-98.55258,28.456673],[-98.552743,28.455989],[-98.552789,28.454473],[-98.550909,28.446039],[-98.550738,28.443798],[-98.553245,28.410473],[-98.553123,28.371683],[-98.554182,28.367665],[-98.564249,28.338591],[-98.564705,28.335913],[-98.564656,28.333356],[-98.563608,28.324577],[-98.563128,28.322326],[-98.557121,28.309126],[-98.558776,28.308569],[-98.560517,28.307568],[-98.561549,28.307458],[-98.562562,28.305669],[-98.563632,28.305653],[-98.56426,28.304855],[-98.564987,28.304431],[-98.565658,28.302802],[-98.566846,28.30218],[-98.567088,28.301151],[-98.567635,28.300535],[-98.567219,28.299699],[-98.567685,28.29845],[-98.569581,28.298257],[-98.570719,28.297426],[-98.571732,28.297795],[-98.573672,28.295995],[-98.574287,28.295753],[-98.575947,28.295747],[-98.576289,28.295357],[-98.576215,28.294991],[-98.576762,28.294514],[-98.577174,28.294647],[-98.57762,28.296077],[-98.578588,28.295974],[-98.578552,28.294894],[-98.579024,28.294443],[-98.580007,28.295708],[-98.579932,28.295879],[-98.579491,28.29584],[-98.579662,28.296361],[-98.580635,28.296655],[-98.581723,28.296489],[-98.582363,28.296143],[-98.582649,28.295301],[-98.583538,28.295328],[-98.585235,28.294844],[-98.585571,28.294464],[-98.584812,28.294414],[-98.584666,28.293674],[-98.585058,28.293591],[-98.585558,28.293859],[-98.585844,28.293297],[-98.587498,28.292983],[-98.58728,28.292494],[-98.587678,28.292262],[-98.587485,28.291756],[-98.587672,28.291597],[-98.589375,28.291981],[-98.589648,28.291062],[-98.590239,28.290919],[-98.590637,28.291739],[-98.59175,28.291777],[-98.592241,28.29159],[-98.59257,28.290996],[-98.593378,28.291144],[-98.594,28.290467],[-98.594796,28.290599],[-98.59533,28.290357],[-98.595579,28.289834],[-98.596909,28.288865],[-98.59684,28.288381],[-98.597462,28.288018],[-98.597088,28.287264],[-98.597529,28.286075],[-98.59835,28.286042],[-98.597952,28.285761],[-98.598455,28.28536],[-98.598176,28.284925],[-98.599294,28.284952],[-98.599923,28.285337],[-98.600345,28.285111],[-98.599966,28.284743],[-98.60009,28.28444],[-98.600637,28.284154],[-98.601277,28.284335],[-98.601719,28.284038],[-98.602949,28.284137],[-98.603596,28.283729],[-98.604528,28.283834],[-98.604783,28.283558],[-98.605006,28.282029],[-98.605603,28.281797],[-98.60643,28.28188],[-98.606933,28.281329],[-98.608133,28.281323],[-98.608182,28.280993],[-98.607703,28.280614],[-98.607821,28.28036],[-98.609586,28.279479],[-98.610444,28.279303],[-98.610575,28.279044],[-98.609375,28.278494],[-98.608529,28.278704],[-98.608057,28.278088],[-98.60851,28.277757],[-98.609418,28.277834],[-98.609784,28.276899],[-98.611058,28.276749],[-98.611928,28.27594],[-98.613128,28.275395],[-98.613686,28.274294],[-98.61501,28.273749],[-98.615799,28.272786],[-98.61673,28.270727],[-98.617563,28.270744],[-98.61829,28.270077],[-98.619465,28.269653],[-98.61903,28.269013],[-98.61918,28.268493],[-98.62021,28.268442],[-98.620701,28.268987],[-98.621074,28.268558],[-98.621962,28.268238],[-98.622466,28.268298],[-98.622801,28.267858],[-98.622695,28.266912],[-98.622875,28.266488],[-98.624671,28.266146],[-98.624553,28.265386],[-98.625037,28.264802],[-98.625864,28.264572],[-98.626405,28.264005],[-98.627425,28.26373],[-98.628028,28.263257],[-98.628575,28.263258],[-98.628705,28.262933],[-98.630477,28.261806],[-98.631553,28.261652],[-98.632916,28.261862],[-98.633018,28.261258],[-98.632411,28.26108],[-98.632573,28.260348],[-98.63333,28.261251],[-98.633778,28.260993],[-98.634823,28.259551],[-98.6366,28.259557],[-98.636712,28.259244],[-98.636315,28.258611],[-98.636427,28.257769],[-98.636862,28.257098],[-98.637217,28.257318],[-98.637546,28.257131],[-98.637522,28.25613],[-98.637895,28.255684],[-98.637802,28.254875],[-98.638337,28.254325],[-98.639238,28.25427],[-98.639915,28.253841],[-98.639916,28.253363],[-98.640201,28.253368],[-98.640668,28.253814],[-98.641386,28.253575],[-98.640978,28.252972],[-98.641687,28.252461],[-98.640854,28.251987],[-98.641134,28.251531],[-98.642116,28.251646],[-98.643011,28.252114],[-98.64275,28.252951],[-98.643694,28.25294],[-98.643451,28.253413],[-98.64406,28.253705],[-98.645011,28.253612],[-98.645838,28.252781],[-98.646167,28.253189],[-98.646571,28.253183],[-98.647038,28.252534],[-98.647485,28.252512],[-98.647814,28.252848],[-98.648187,28.252848],[-98.649722,28.252083],[-98.649859,28.251654],[-98.649325,28.250675],[-98.650133,28.250752],[-98.650475,28.250378],[-98.649872,28.248794],[-98.650432,28.247897],[-98.650208,28.247451],[-98.650352,28.245921],[-98.651887,28.245526],[-98.652316,28.244909],[-98.652235,28.24453],[-98.652558,28.244293],[-98.653844,28.24404],[-98.654112,28.243006],[-98.654939,28.242494],[-98.655187,28.241526],[-98.656791,28.240129],[-98.657394,28.240321],[-98.65781,28.240024],[-98.658438,28.238594],[-98.658973,28.238033],[-98.659619,28.237802],[-98.659899,28.236822],[-98.660819,28.235859],[-98.661409,28.235612],[-98.662378,28.235904],[-98.663112,28.235469],[-98.664715,28.23509],[-98.66546,28.23515],[-98.665665,28.234661],[-98.666013,28.234551],[-98.666554,28.234776],[-98.666927,28.234457],[-98.66743,28.233935],[-98.667219,28.233126],[-98.666082,28.232449],[-98.666163,28.232162],[-98.667145,28.231711],[-98.666859,28.230814],[-98.668027,28.230286],[-98.669426,28.228779],[-98.670743,28.22808],[-98.671762,28.226545],[-98.672843,28.226545],[-98.67339,28.225846],[-98.673378,28.225604],[-98.6728,28.225533],[-98.672353,28.225136],[-98.672266,28.224812],[-98.672489,28.224641],[-98.673191,28.224834],[-98.673483,28.224421],[-98.673154,28.222704],[-98.673478,28.221934],[-98.672546,28.221697],[-98.672291,28.221372],[-98.672968,28.220839],[-98.672826,28.220431],[-98.673086,28.219903],[-98.673807,28.219469],[-98.676503,28.21992],[-98.677106,28.219783],[-98.678386,28.21871],[-98.678647,28.21822],[-98.67925,28.217824],[-98.680542,28.217499],[-98.680846,28.216773],[-98.682878,28.216256],[-98.682996,28.215843],[-98.683375,28.215623],[-98.68422,28.215826],[-98.684679,28.215689],[-98.685524,28.21483],[-98.685263,28.213785],[-98.685742,28.213532],[-98.685934,28.213059],[-98.686624,28.21286],[-98.686413,28.211688],[-98.686903,28.210968],[-98.687699,28.210555],[-98.687978,28.209245],[-98.688295,28.208788],[-98.689457,28.207814],[-98.690469,28.207473],[-98.691898,28.206296],[-98.694575,28.204634],[-98.695047,28.203241],[-98.694848,28.201673],[-98.697016,28.199527],[-98.696705,28.198608],[-98.697289,28.198327],[-98.697258,28.197557],[-98.697904,28.197458],[-98.698885,28.195873],[-98.699326,28.193683],[-98.69986,28.193429],[-98.699941,28.192868],[-98.700698,28.192384],[-98.700965,28.191757],[-98.701648,28.191162],[-98.701636,28.190722],[-98.701108,28.190029],[-98.701487,28.189764],[-98.701953,28.189792],[-98.70212,28.188994],[-98.702946,28.188603],[-98.702667,28.188147],[-98.70276,28.18786],[-98.704511,28.186936],[-98.704635,28.186572],[-98.704356,28.186061],[-98.704548,28.185846],[-98.705045,28.186286],[-98.705523,28.186297],[-98.705455,28.186506],[-98.705803,28.18649],[-98.705449,28.185918],[-98.705927,28.185125],[-98.705865,28.18474],[-98.707343,28.184745],[-98.707355,28.184982],[-98.707765,28.185141],[-98.708082,28.184558],[-98.708634,28.184283],[-98.709131,28.183408],[-98.710007,28.183727],[-98.7101,28.183556],[-98.709727,28.18332],[-98.709839,28.182984],[-98.710479,28.182582],[-98.71128,28.182643],[-98.711267,28.182169],[-98.710801,28.182021],[-98.711553,28.180948],[-98.711497,28.180672],[-98.712043,28.180386],[-98.712441,28.180436],[-98.712577,28.180221],[-98.71318,28.180397],[-98.713546,28.179858],[-98.714181,28.179655],[-98.7283,28.183223],[-98.773149,28.200853],[-98.775997,28.201812],[-98.780384,28.202406],[-98.800082,28.202333],[-98.80051,28.238245],[-98.801209,28.250271],[-98.801248,28.374884],[-98.800709,28.474767],[-98.801034,28.496575],[-98.763296,28.497097],[-98.751707,28.495785],[-98.751111,28.495526],[-98.748997,28.495494],[-98.739753,28.494414]]]}}]}