{"type":"FeatureCollection","features":[{"type":"Feature","properties":{"PRECINCT":"101","VTD":"0101"},"geometry":{"type":"Polygon","coordinates":[[[-96.579668,29.719136],[-96.569427,29.718353],[-96.569068,29.71865],[-96.567701,29.718276],[-96.567474,29.718034],[-96.56413,29.717533],[-96.558499,29.715691],[-96.55547,29.715411],[-96.553429,29.714734],[-96.55035,29.71309],[-96.547328,29.712824],[-96.546959,29.710897],[-96.546877,29.705343],[-96.540535,29.705453],[-96.540569,29.706562],[-96.539265,29.706559],[-96.539277,29.705468],[-96.537977,29.705436],[-96.537978,29.706559],[-96.536902,29.706373],[-96.537587,29.703032],[-96.53719,29.700998],[-96.536481,29.6997],[-96.536489,29.698925],[-96.535888,29.69882],[-96.53432,29.697187],[-96.532672,29.695974],[-96.535154,29.694219],[-96.538736,29.692971],[-96.53858,29.69257],[-96.53824,29.692653],[-96.537495,29.69114],[-96.538784,29.690592],[-96.537376,29.687195],[-96.538215,29.685472],[-96.538428,29.685198],[-96.538822,29.685165],[-96.540121,29.685863],[-96.538405,29.68803],[-96.538596,29.688531],[-96.539997,29.689804],[-96.539657,29.689893],[-96.54038,29.692778],[-96.541777,29.692208],[-96.543454,29.692132],[-96.545314,29.696751],[-96.551988,29.697273],[-96.551883,29.698317],[-96.553257,29.698493],[-96.553191,29.699121],[-96.554633,29.698634],[-96.55461,29.697481],[-96.555451,29.697185],[-96.55547,29.698353],[-96.562615,29.695951],[-96.562456,29.693825],[-96.56025,29.680509],[-96.560122,29.677884],[-96.560411,29.677246],[-96.568881,29.668084],[-96.558869,29.658526],[-96.558574,29.657518],[-96.553598,29.652196],[-96.552081,29.650271],[-96.555426,29.634023],[-96.554293,29.606664],[-96.548074,29.59431],[-96.547999,29.592159],[-96.545677,29.589246],[-96.545131,29.562133],[-96.544378,29.561141],[-96.544212,29.548872],[-96.544231,29.548445],[-96.544744,29.547779],[-96.544463,29.547537],[-96.541939,29.548182],[-96.541676,29.547818],[-96.575561,29.53417],[-96.575584,29.534658],[-96.576502,29.534387],[-96.603336,29.534065],[-96.603577,29.534219],[-96.604008,29.561748],[-96.604236,29.564235],[-96.605686,29.564426],[-96.616728,29.56424],[-96.616915,29.580172],[-96.637379,29.579956],[-96.63776,29.580469],[-96.637764,29.591302],[-96.637279,29.593541],[-96.6388,29.593439],[-96.638954,29.600896],[-96.628793,29.601065],[-96.62922,29.626774],[-96.630417,29.626378],[-96.632557,29.626428],[-96.63486,29.625225],[-96.636427,29.62538],[-96.636812,29.62476],[-96.636895,29.624001],[-96.636272,29.623297],[-96.636713,29.622494],[-96.638129,29.622918],[-96.63901,29.622836],[-96.640325,29.623453],[-96.64118,29.623101],[-96.641331,29.624091],[-96.641683,29.624663],[-96.641713,29.62603],[-96.642279,29.627026],[-96.642128,29.627207],[-96.642474,29.628082],[-96.644204,29.629605],[-96.644222,29.63027],[-96.644788,29.631513],[-96.645965,29.631767],[-96.64604,29.63302],[-96.647122,29.63362],[-96.647814,29.633746],[-96.648531,29.634483],[-96.649853,29.635144],[-96.650186,29.635694],[-96.651168,29.636161],[-96.651457,29.636062],[-96.651923,29.635265],[-96.652295,29.635128],[-96.652439,29.635606],[-96.65276,29.635612],[-96.652892,29.636431],[-96.652533,29.636689],[-96.652936,29.637074],[-96.65422,29.637267],[-96.654566,29.637025],[-96.654906,29.637152],[-96.655366,29.667844],[-96.64906,29.668208],[-96.64224,29.668308],[-96.639531,29.668572],[-96.637136,29.669076],[-96.633193,29.671134],[-96.632291,29.672043],[-96.631696,29.673094],[-96.63098,29.675783],[-96.629784,29.677249],[-96.626786,29.679188],[-96.625454,29.6798],[-96.620895,29.681127],[-96.618787,29.682212],[-96.61724,29.682505],[-96.610256,29.682637],[-96.601217,29.684088],[-96.594441,29.68408],[-96.592387,29.68479],[-96.591641,29.685728],[-96.591415,29.686481],[-96.59153,29.693623],[-96.61965,29.693413],[-96.651313,29.691542],[-96.64834,29.692241],[-96.594441,29.700797],[-96.585298,29.702038],[-96.576335,29.703637],[-96.578717,29.710619],[-96.579668,29.719136]]]}},{"type":"Feature","properties":{"PRECINCT":"102","VTD":"0102"},"geometry":{"type":"Polygon","coordinates":[[[-96.466173,29.568697],[-96.447357,29.53756],[-96.427882,29.509518],[-96.508038,29.475256],[-96.508035,29.473706],[-96.507621,29.472842],[-96.508759,29.472364],[-96.508809,29.472166],[-96.508489,29.472232],[-96.508313,29.471814],[-96.508778,29.471331],[-96.507918,29.470935],[-96.507208,29.470951],[-96.507202,29.470676],[-96.507799,29.470511],[-96.507987,29.470121],[-96.507623,29.469868],[-96.50751,29.469433],[-96.50714,29.469389],[-96.507096,29.468938],[-96.506669,29.469037],[-96.505965,29.4688],[-96.505745,29.46841],[-96.506097,29.467981],[-96.50618,29.467382],[-96.505665,29.466876],[-96.505325,29.467019],[-96.505125,29.466595],[-96.50466,29.466436],[-96.505269,29.466084],[-96.505163,29.465606],[-96.505703,29.465095],[-96.505616,29.464006],[-96.506006,29.463841],[-96.506376,29.463957],[-96.506282,29.463649],[-96.505554,29.463335],[-96.505479,29.46311],[-96.505711,29.462929],[-96.505705,29.462511],[-96.506151,29.462236],[-96.506133,29.462016],[-96.505712,29.461862],[-96.506171,29.461439],[-96.505995,29.46096],[-96.506579,29.46101],[-96.50651,29.461857],[-96.507188,29.461527],[-96.506956,29.460702],[-96.507126,29.460543],[-96.507647,29.460708],[-96.507918,29.460401],[-96.507522,29.460307],[-96.507773,29.459922],[-96.507504,29.459493],[-96.507994,29.459037],[-96.507957,29.458614],[-96.507561,29.458624],[-96.506889,29.458113],[-96.507229,29.456662],[-96.506809,29.455881],[-96.507129,29.455216],[-96.50684,29.455205],[-96.506451,29.454737],[-96.50642,29.454501],[-96.506816,29.454149],[-96.506295,29.453582],[-96.506264,29.453132],[-96.505472,29.45262],[-96.505027,29.45168],[-96.50499,29.450789],[-96.505223,29.450245],[-96.505016,29.45008],[-96.505311,29.449436],[-96.505003,29.449354],[-96.504941,29.448535],[-96.504533,29.448122],[-96.504728,29.447809],[-96.505143,29.447787],[-96.505206,29.447336],[-96.504735,29.447215],[-96.504741,29.446902],[-96.504427,29.446764],[-96.504666,29.445868],[-96.503743,29.445422],[-96.503555,29.444977],[-96.503622,29.444717],[-96.508716,29.442566],[-96.5014,29.429316],[-96.504357,29.428302],[-96.505261,29.428528],[-96.506103,29.428198],[-96.506461,29.427627],[-96.507642,29.427171],[-96.512353,29.427128],[-96.512251,29.418346],[-96.507786,29.40979],[-96.507782,29.407683],[-96.543746,29.407197],[-96.543584,29.395372],[-96.544826,29.395339],[-96.544857,29.394663],[-96.544269,29.360078],[-96.558754,29.359571],[-96.559676,29.35926],[-96.573023,29.359309],[-96.57321,29.359492],[-96.573177,29.36231],[-96.573357,29.362572],[-96.586458,29.362314],[-96.621459,29.398688],[-96.619518,29.399239],[-96.615999,29.400954],[-96.614528,29.400702],[-96.61358,29.400099],[-96.612581,29.399792],[-96.610093,29.39926],[-96.609035,29.399454],[-96.606653,29.401198],[-96.604979,29.403485],[-96.603759,29.404716],[-96.602749,29.405361],[-96.601298,29.405424],[-96.600555,29.404827],[-96.601064,29.402539],[-96.599249,29.399079],[-96.598984,29.395524],[-96.597855,29.393324],[-96.595597,29.392112],[-96.594292,29.391804],[-96.593014,29.39224],[-96.591913,29.394346],[-96.591127,29.39434],[-96.589539,29.392032],[-96.590071,29.389635],[-96.590004,29.388573],[-96.589876,29.388368],[-96.589296,29.388573],[-96.588409,29.388408],[-96.588031,29.388601],[-96.588229,29.398968],[-96.587508,29.399102],[-96.599085,29.420856],[-96.60045,29.41993],[-96.60215,29.419509],[-96.602492,29.420499],[-96.602084,29.420631],[-96.602373,29.421109],[-96.602807,29.421241],[-96.602732,29.421785],[-96.604566,29.422346],[-96.605056,29.42295],[-96.605069,29.424627],[-96.605565,29.42477],[-96.606796,29.424627],[-96.607782,29.425308],[-96.607971,29.426496],[-96.607475,29.427414],[-96.60762,29.428217],[-96.608695,29.429756],[-96.608821,29.430465],[-96.609198,29.430751],[-96.608985,29.43195],[-96.609952,29.43328],[-96.609193,29.434495],[-96.609426,29.435573],[-96.611003,29.436628],[-96.611698,29.4362],[-96.611737,29.435918],[-96.613007,29.436534],[-96.613629,29.437419],[-96.613252,29.437881],[-96.613679,29.43854],[-96.613636,29.439431],[-96.61549,29.440734],[-96.615716,29.441938],[-96.6174,29.442443],[-96.618217,29.443102],[-96.618763,29.443267],[-96.618921,29.44358],[-96.619523,29.443113],[-96.62073,29.443442],[-96.621779,29.443227],[-96.622597,29.446499],[-96.622547,29.447103],[-96.623081,29.447395],[-96.623232,29.447944],[-96.623735,29.448126],[-96.624565,29.450176],[-96.624961,29.450071],[-96.625212,29.450287],[-96.624997,29.451403],[-96.624214,29.4516],[-96.624013,29.45209],[-96.62468,29.453096],[-96.624646,29.453484],[-96.621617,29.453747],[-96.624367,29.461016],[-96.626101,29.461104],[-96.626407,29.476103],[-96.626234,29.477629],[-96.62662,29.487079],[-96.599428,29.487692],[-96.59869,29.487303],[-96.586166,29.487494],[-96.586167,29.500458],[-96.576572,29.500554],[-96.576839,29.516723],[-96.578883,29.516694],[-96.579066,29.529018],[-96.579032,29.531059],[-96.576727,29.531152],[-96.576759,29.533664],[-96.497553,29.565444],[-96.495385,29.565888],[-96.473261,29.568616],[-96.468653,29.56845],[-96.466173,29.568697]]]}},{"type":"Feature","properties":{"PRECINCT":"103","VTD":"0103"},"geometry":{"type":"Polygon","coordinates":[[[-96.420711,29.497929],[-96.406863,29.461986],[-96.402949,29.450307],[-96.396407,29.453091],[-96.396001,29.452289],[-96.394831,29.451093],[-96.392794,29.450249],[-96.385982,29.450062],[-96.384819,29.449711],[-96.383601,29.4487],[-96.382664,29.448313],[-96.376882,29.44707],[-96.373869,29.445456],[-96.37299,29.445691],[-96.371877,29.445326],[-96.370452,29.443854],[-96.369558,29.44159],[-96.369782,29.440134],[-96.371223,29.437204],[-96.371514,29.43526],[-96.37134,29.434049],[-96.371018,29.433387],[-96.369744,29.432367],[-96.368096,29.431785],[-96.365631,29.432079],[-96.363242,29.43286],[-96.361856,29.433872],[-96.361413,29.435799],[-96.361139,29.43636],[-96.360483,29.436899],[-96.358505,29.437666],[-96.357893,29.437717],[-96.357526,29.437487],[-96.356702,29.435633],[-96.357554,29.432152],[-96.361243,29.428946],[-96.367568,29.426405],[-96.368879,29.424313],[-96.369173,29.423007],[-96.369026,29.422082],[-96.368568,29.421122],[-96.367508,29.420274],[-96.365858,29.419757],[-96.360619,29.420145],[-96.359368,29.420394],[-96.35659,29.421435],[-96.354586,29.420844],[-96.352716,29.418621],[-96.351674,29.415543],[-96.350907,29.414079],[-96.349561,29.412831],[-96.347358,29.411569],[-96.348621,29.406792],[-96.349217,29.406052],[-96.353194,29.404736],[-96.361376,29.400485],[-96.362455,29.39969],[-96.375814,29.393271],[-96.383826,29.388936],[-96.407743,29.375382],[-96.512742,29.316762],[-96.604259,29.265823],[-96.617163,29.259978],[-96.625251,29.255951],[-96.640315,29.247804],[-96.643316,29.25025],[-96.658466,29.263876],[-96.625291,29.28814],[-96.617042,29.293873],[-96.560555,29.335439],[-96.586458,29.362314],[-96.573357,29.362572],[-96.573177,29.36231],[-96.57321,29.359492],[-96.573023,29.359309],[-96.559676,29.35926],[-96.558754,29.359571],[-96.544269,29.360078],[-96.544857,29.394663],[-96.544826,29.395339],[-96.543584,29.395372],[-96.543746,29.407197],[-96.507782,29.407683],[-96.507786,29.40979],[-96.512251,29.418346],[-96.512353,29.427128],[-96.507642,29.427171],[-96.506461,29.427627],[-96.506103,29.428198],[-96.505261,29.428528],[-96.504357,29.428302],[-96.5014,29.429316],[-96.508716,29.442566],[-96.503622,29.444717],[-96.503555,29.444977],[-96.503743,29.445422],[-96.504666,29.445868],[-96.504427,29.446764],[-96.504741,29.446902],[-96.504735,29.447215],[-96.505206,29.447336],[-96.505143,29.447787],[-96.504728,29.447809],[-96.504533,29.448122],[-96.504941,29.448535],[-96.505003,29.449354],[-96.505311,29.449436],[-96.505016,29.45008],[-96.505223,29.450245],[-96.50499,29.450789],[-96.505027,29.45168],[-96.505472,29.45262],[-96.506264,29.453132],[-96.506295,29.453582],[-96.506816,29.454149],[-96.50642,29.454501],[-96.506451,29.454737],[-96.50684,29.455205],[-96.507129,29.455216],[-96.506809,29.455881],[-96.507229,29.456662],[-96.506889,29.458113],[-96.507561,29.458624],[-96.507957,29.458614],[-96.507994,29.459037],[-96.507504,29.459493],[-96.507773,29.459922],[-96.507522,29.460307],[-96.507918,29.460401],[-96.507647,29.460708],[-96.507126,29.460543],[-96.506956,29.460702],[-96.507188,29.461527],[-96.50651,29.461857],[-96.506579,29.46101],[-96.505995,29.46096],[-96.506171,29.461439],[-96.505712,29.461862],[-96.506133,29.462016],[-96.506151,29.462236],[-96.505705,29.462511],[-96.505711,29.462929],[-96.505479,29.46311],[-96.505554,29.463335],[-96.506282,29.463649],[-96.506376,29.463957],[-96.506006,29.463841],[-96.505616,29.464006],[-96.505703,29.465095],[-96.505163,29.465606],[-96.505269,29.466084],[-96.50466,29.466436],[-96.505125,29.466595],[-96.505325,29.467019],[-96.505665,29.466876],[-96.50618,29.467382],[-96.506097,29.467981],[-96.505745,29.46841],[-96.505965,29.4688],[-96.506669,29.469037],[-96.507096,29.468938],[-96.50714,29.469389],[-96.50751,29.469433],[-96.507623,29.469868],[-96.507987,29.470121],[-96.507799,29.470511],[-96.507202,29.470676],[-96.507208,29.470951],[-96.507918,29.470935],[-96.508778,29.471331],[-96.508313,29.471814],[-96.508489,29.472232],[-96.508809,29.472166],[-96.508759,29.472364],[-96.507621,29.472842],[-96.508035,29.473706],[-96.508038,29.475256],[-96.427882,29.509518],[-96.424968,29.505352],[-96.420711,29.497929]]]}},{"type":"Feature","properties":{"PRECINCT":"201","VTD":"0201"},"geometry":{"type":"Polygon","coordinates":[[[-96.721458,29.772132],[-96.720135,29.772144],[-96.718541,29.77265],[-96.71435,29.775251],[-96.710979,29.776802],[-96.707487,29.77765],[-96.698014,29.780488],[-96.695752,29.780884],[-96.693886,29.780587],[-96.689814,29.779091],[-96.688894,29.778564],[-96.68919,29.778272],[-96.689033,29.778052],[-96.688176,29.777728],[-96.686915,29.778058],[-96.682945,29.778003],[-96.679648,29.778492],[-96.676692,29.778371],[-96.674341,29.777799],[-96.671252,29.776455],[-96.670196,29.774952],[-96.669884,29.77353],[-96.669939,29.772758],[-96.6713,29.770545],[-96.670127,29.767615],[-96.669383,29.766977],[-96.668779,29.765751],[-96.66835,29.764426],[-96.668414,29.763942],[-96.66888,29.763613],[-96.669567,29.762266],[-96.673153,29.758962],[-96.677338,29.756999],[-96.680684,29.754542],[-96.680904,29.753959],[-96.680829,29.75116],[-96.6802,29.748369],[-96.679431,29.746956],[-96.677189,29.744316],[-96.673006,29.741407],[-96.670064,29.739812],[-96.666228,29.736881],[-96.660888,29.732041],[-96.655624,29.724034],[-96.651059,29.718898],[-96.649202,29.718034],[-96.645517,29.717054],[-96.644169,29.71691],[-96.641561,29.717465],[-96.640913,29.717811],[-96.640244,29.718569],[-96.639241,29.722616],[-96.637797,29.724699],[-96.637148,29.725325],[-96.635277,29.726336],[-96.633676,29.726671],[-96.630735,29.726037],[-96.627932,29.725755],[-96.626087,29.725243],[-96.617255,29.723919],[-96.6151,29.723799],[-96.611585,29.724187],[-96.612323,29.722815],[-96.612245,29.72235],[-96.61161,29.721101],[-96.61017,29.720225],[-96.607998,29.720301],[-96.607276,29.720868],[-96.607304,29.724687],[-96.605848,29.724753],[-96.602799,29.724501],[-96.599107,29.723715],[-96.593394,29.721462],[-96.591252,29.720913],[-96.589734,29.720963],[-96.579741,29.719966],[-96.578717,29.710619],[-96.576335,29.703637],[-96.585298,29.702038],[-96.594441,29.700797],[-96.64834,29.692241],[-96.651313,29.691542],[-96.61965,29.693413],[-96.59153,29.693623],[-96.591415,29.686481],[-96.591641,29.685728],[-96.592387,29.68479],[-96.593266,29.684341],[-96.594441,29.68408],[-96.601217,29.684088],[-96.610256,29.682637],[-96.61724,29.682505],[-96.618787,29.682212],[-96.620895,29.681127],[-96.625454,29.6798],[-96.626786,29.679188],[-96.629784,29.677249],[-96.63098,29.675783],[-96.631696,29.673094],[-96.632291,29.672043],[-96.633193,29.671134],[-96.637136,29.669076],[-96.639531,29.668572],[-96.64224,29.668308],[-96.64906,29.668208],[-96.655366,29.667844],[-96.654906,29.637152],[-96.654566,29.637025],[-96.65422,29.637267],[-96.652936,29.637074],[-96.652533,29.636689],[-96.652892,29.636431],[-96.65276,29.635612],[-96.652439,29.635606],[-96.652295,29.635128],[-96.651923,29.635265],[-96.651457,29.636062],[-96.651168,29.636161],[-96.650186,29.635694],[-96.649853,29.635144],[-96.648531,29.634483],[-96.647814,29.633746],[-96.647122,29.63362],[-96.64604,29.63302],[-96.645965,29.631767],[-96.644788,29.631513],[-96.644222,29.63027],[-96.644204,29.629605],[-96.642474,29.628082],[-96.642128,29.627207],[-96.642279,29.627026],[-96.641713,29.62603],[-96.641683,29.624663],[-96.641331,29.624091],[-96.64118,29.623101],[-96.640325,29.623453],[-96.63901,29.622836],[-96.638129,29.622918],[-96.636713,29.622494],[-96.636272,29.623297],[-96.636895,29.624001],[-96.636812,29.62476],[-96.636427,29.62538],[-96.63486,29.625225],[-96.632557,29.626428],[-96.630417,29.626378],[-96.62922,29.626774],[-96.628793,29.601065],[-96.638954,29.600896],[-96.6388,29.593439],[-96.637279,29.593541],[-96.637764,29.591302],[-96.637608,29.580083],[-96.640118,29.579039],[-96.641996,29.578633],[-96.643087,29.57746],[-96.64586,29.575961],[-96.645506,29.574674],[-96.645255,29.574348],[-96.64459,29.574157],[-96.643691,29.572777],[-96.643315,29.5711],[-96.643662,29.569384],[-96.644713,29.566911],[-96.644425,29.564211],[-96.645199,29.562584],[-96.644615,29.562435],[-96.644162,29.562006],[-96.643609,29.560125],[-96.642566,29.558899],[-96.642428,29.557926],[-96.641322,29.557035],[-96.640883,29.555077],[-96.640411,29.554681],[-96.639947,29.551382],[-96.63925,29.550678],[-96.638804,29.549594],[-96.637792,29.54889],[-96.637805,29.548297],[-96.637415,29.54751],[-96.63641,29.546262],[-96.630571,29.540953],[-96.629364,29.541189],[-96.628779,29.540815],[-96.628164,29.539946],[-96.626957,29.539352],[-96.626511,29.538252],[-96.625569,29.53724],[-96.62523,29.53636],[-96.625137,29.534083],[-96.623404,29.53245],[-96.622133,29.53178],[-96.622459,29.52958],[-96.623408,29.528359],[-96.624891,29.527875],[-96.626047,29.526837],[-96.626161,29.525914],[-96.625281,29.52522],[-96.625074,29.524396],[-96.626779,29.522692],[-96.627364,29.520718],[-96.628704,29.519493],[-96.628957,29.516826],[-96.627744,29.516298],[-96.627317,29.515622],[-96.627399,29.515264],[-96.628311,29.514533],[-96.628676,29.51394],[-96.628383,29.512905],[-96.638831,29.508722],[-96.63949,29.510337],[-96.64025,29.511085],[-96.646101,29.513419],[-96.646887,29.514046],[-96.647722,29.515855],[-96.64967,29.51707],[-96.651411,29.517802],[-96.651675,29.518869],[-96.651536,29.51943],[-96.652491,29.520794],[-96.652454,29.52114],[-96.651498,29.522146],[-96.651686,29.523169],[-96.652942,29.52539],[-96.654281,29.526155],[-96.654513,29.527376],[-96.65506,29.528459],[-96.65494,29.529987],[-96.656468,29.530697],[-96.657329,29.532011],[-96.657309,29.533034],[-96.655926,29.533902],[-96.655674,29.534359],[-96.656655,29.535734],[-96.656887,29.537543],[-96.657444,29.538485],[-96.707459,29.517327],[-96.706788,29.516806],[-96.705613,29.516586],[-96.704217,29.515305],[-96.703236,29.514827],[-96.702488,29.514013],[-96.70179,29.51266],[-96.702016,29.511599],[-96.702525,29.511082],[-96.706347,29.511263],[-96.70702,29.510834],[-96.707302,29.510042],[-96.705843,29.50571],[-96.705548,29.503494],[-96.705635,29.501443],[-96.705019,29.500002],[-96.704083,29.498608],[-96.7037,29.496623],[-96.704039,29.495139],[-96.705453,29.494512],[-96.706151,29.493423],[-96.706192,29.49252],[-96.705365,29.490921],[-96.703008,29.488551],[-96.702685,29.486255],[-96.706155,29.486696],[-96.793132,29.577378],[-96.832812,29.576863],[-96.833177,29.577943],[-96.834794,29.579934],[-96.835744,29.580638],[-96.83653,29.580907],[-96.838575,29.582743],[-96.839205,29.584629],[-96.839261,29.58541],[-96.838947,29.586163],[-96.836821,29.587775],[-96.836362,29.588418],[-96.835664,29.59301],[-96.833582,29.594951],[-96.833293,29.595814],[-96.834589,29.597332],[-96.835854,29.598355],[-96.837093,29.598783],[-96.836936,29.599718],[-96.837692,29.60068],[-96.837616,29.601775],[-96.837931,29.603793],[-96.838907,29.604265],[-96.839347,29.60509],[-96.840354,29.605227],[-96.841261,29.607647],[-96.84245,29.608004],[-96.843318,29.608686],[-96.84425,29.608944],[-96.8442,29.609714],[-96.843634,29.610924],[-96.842338,29.612826],[-96.842376,29.613893],[-96.843131,29.61485],[-96.842861,29.616082],[-96.842987,29.616417],[-96.843503,29.616725],[-96.844497,29.616889],[-96.846221,29.616609],[-96.846624,29.616928],[-96.847348,29.61706],[-96.848708,29.618181],[-96.848953,29.618918],[-96.847242,29.620172],[-96.847299,29.620491],[-96.847821,29.620881],[-96.852692,29.62198],[-96.853932,29.622474],[-96.854581,29.623024],[-96.857136,29.62321],[-96.859144,29.624376],[-96.859075,29.626725],[-96.861177,29.62734],[-96.86306,29.628279],[-96.862752,29.629302],[-96.86289,29.629742],[-96.86413,29.629786],[-96.865566,29.630153],[-96.865861,29.630428],[-96.865956,29.630857],[-96.865579,29.632023],[-96.864996,29.632706],[-96.874222,29.632706],[-96.760547,29.748926],[-96.754346,29.755502],[-96.750254,29.758794],[-96.724118,29.785497],[-96.724116,29.784134],[-96.724311,29.784096],[-96.72496,29.781572],[-96.727908,29.778696],[-96.728185,29.77819],[-96.728197,29.776045],[-96.72698,29.774545],[-96.724818,29.773044],[-96.721458,29.772132]]]}},{"type":"Feature","properties":{"PRECINCT":"202","VTD":"0202"},"geometry":{"type":"Polygon","coordinates":[[[-96.616915,29.580172],[-96.616728,29.56424],[-96.605686,29.564426],[-96.604236,29.564235],[-96.604063,29.563988],[-96.603577,29.534219],[-96.603336,29.534065],[-96.577208,29.534372],[-96.575584,29.534658],[-96.575561,29.53417],[-96.576759,29.533664],[-96.576727,29.531152],[-96.579032,29.531059],[-96.578883,29.516694],[-96.576839,29.516723],[-96.576572,29.500554],[-96.586167,29.500458],[-96.586166,29.487494],[-96.59869,29.487303],[-96.599428,29.487692],[-96.62662,29.487079],[-96.626234,29.477629],[-96.626407,29.476103],[-96.626101,29.461104],[-96.624367,29.461016],[-96.621617,29.453747],[-96.624646,29.453484],[-96.62468,29.453096],[-96.624013,29.45209],[-96.624214,29.4516],[-96.624997,29.451403],[-96.625212,29.450287],[-96.624961,29.450071],[-96.624565,29.450176],[-96.623735,29.448126],[-96.623232,29.447944],[-96.623081,29.447395],[-96.622547,29.447103],[-96.622597,29.446499],[-96.621779,29.443227],[-96.62073,29.443442],[-96.619523,29.443113],[-96.618921,29.44358],[-96.618763,29.443267],[-96.618217,29.443102],[-96.6174,29.442443],[-96.615716,29.441938],[-96.61549,29.440734],[-96.613636,29.439431],[-96.613679,29.43854],[-96.613252,29.437881],[-96.613629,29.437419],[-96.613007,29.436534],[-96.611737,29.435918],[-96.611698,29.4362],[-96.611003,29.436628],[-96.609426,29.435573],[-96.609193,29.434495],[-96.609952,29.43328],[-96.608985,29.43195],[-96.609198,29.430751],[-96.608821,29.430465],[-96.608695,29.429756],[-96.60762,29.428217],[-96.607475,29.427414],[-96.607971,29.426496],[-96.607782,29.425308],[-96.606796,29.424627],[-96.605565,29.42477],[-96.605069,29.424627],[-96.605056,29.42295],[-96.604566,29.422346],[-96.602732,29.421785],[-96.602807,29.421241],[-96.602373,29.421109],[-96.602084,29.420631],[-96.602492,29.420499],[-96.60215,29.419509],[-96.60045,29.41993],[-96.599085,29.420856],[-96.587508,29.399102],[-96.588229,29.398968],[-96.588031,29.388601],[-96.588409,29.388408],[-96.589296,29.388573],[-96.589876,29.388368],[-96.590004,29.388573],[-96.590071,29.389635],[-96.589539,29.392032],[-96.591127,29.39434],[-96.591913,29.394346],[-96.593014,29.39224],[-96.594292,29.391804],[-96.595597,29.392112],[-96.597855,29.393324],[-96.598984,29.395524],[-96.599249,29.399079],[-96.601064,29.402539],[-96.600555,29.404827],[-96.601298,29.405424],[-96.602749,29.405361],[-96.603759,29.404716],[-96.604979,29.403485],[-96.606653,29.401198],[-96.609035,29.399454],[-96.610093,29.39926],[-96.612581,29.399792],[-96.61358,29.400099],[-96.614528,29.400702],[-96.615999,29.400954],[-96.619518,29.399239],[-96.621459,29.398688],[-96.687582,29.466496],[-96.706155,29.486696],[-96.702685,29.486255],[-96.703008,29.488551],[-96.705365,29.490921],[-96.706192,29.49252],[-96.706151,29.493423],[-96.705453,29.494512],[-96.704039,29.495139],[-96.7037,29.496623],[-96.704083,29.498608],[-96.705019,29.500002],[-96.705635,29.501443],[-96.705548,29.503494],[-96.705843,29.50571],[-96.706717,29.507849],[-96.707246,29.510422],[-96.706963,29.510895],[-96.706196,29.511291],[-96.702525,29.511082],[-96.702016,29.511599],[-96.70179,29.51266],[-96.702488,29.514013],[-96.703236,29.514827],[-96.704217,29.515305],[-96.705613,29.516586],[-96.706788,29.516806],[-96.707459,29.517327],[-96.657444,29.538485],[-96.656887,29.537543],[-96.656655,29.535734],[-96.655674,29.534359],[-96.655926,29.533902],[-96.657309,29.533034],[-96.657329,29.532011],[-96.656468,29.530697],[-96.65494,29.529987],[-96.65506,29.528459],[-96.654513,29.527376],[-96.654281,29.526155],[-96.652942,29.52539],[-96.651686,29.523169],[-96.651498,29.522146],[-96.652454,29.52114],[-96.652491,29.520794],[-96.65158,29.51954],[-96.65155,29.518055],[-96.651198,29.517599],[-96.64967,29.51707],[-96.647722,29.515855],[-96.646887,29.514046],[-96.646101,29.513419],[-96.64025,29.511085],[-96.63949,29.510337],[-96.638831,29.508722],[-96.628383,29.512905],[-96.628676,29.51394],[-96.628311,29.514533],[-96.627399,29.515264],[-96.627317,29.515622],[-96.627744,29.516298],[-96.628957,29.516826],[-96.628704,29.519493],[-96.627364,29.520718],[-96.626779,29.522692],[-96.625074,29.524396],[-96.625281,29.52522],[-96.626161,29.525914],[-96.626047,29.526837],[-96.624998,29.527809],[-96.623477,29.528315],[-96.62315,29.528656],[-96.622459,29.52958],[-96.622133,29.53178],[-96.623404,29.53245],[-96.625137,29.534083],[-96.62523,29.53636],[-96.625569,29.53724],[-96.626511,29.538252],[-96.626957,29.539352],[-96.628164,29.539946],[-96.628779,29.540815],[-96.629364,29.541189],[-96.630571,29.540953],[-96.63641,29.546262],[-96.637415,29.54751],[-96.637805,29.548297],[-96.637792,29.54889],[-96.638804,29.549594],[-96.63925,29.550678],[-96.639903,29.551288],[-96.640411,29.554681],[-96.640883,29.555077],[-96.641265,29.556914],[-96.642428,29.557926],[-96.642566,29.558899],[-96.643609,29.560125],[-96.644162,29.562006],[-96.644615,29.562435],[-96.645193,29.56254],[-96.644425,29.564211],[-96.644713,29.566911],[-96.643662,29.569384],[-96.643315,29.5711],[-96.643691,29.572777],[-96.64459,29.574157],[-96.645255,29.574348],[-96.645506,29.574674],[-96.64586,29.575961],[-96.643087,29.57746],[-96.641996,29.578633],[-96.640118,29.579039],[-96.637608,29.580083],[-96.635813,29.579936],[-96.616915,29.580172]]]}},{"type":"Feature","properties":{"PRECINCT":"302","VTD":"0302"},"geometry":{"type":"Polygon","coordinates":[[[-96.495235,29.875227],[-96.485091,29.867335],[-96.483919,29.86717],[-96.481491,29.868419],[-96.480507,29.868485],[-96.47883,29.869118],[-96.476736,29.868646],[-96.475259,29.867459],[-96.474458,29.867464],[-96.473323,29.866893],[-96.472761,29.864963],[-96.471139,29.863738],[-96.470654,29.862853],[-96.468957,29.861457],[-96.468029,29.861215],[-96.46808,29.860868],[-96.467645,29.86072],[-96.467008,29.860863],[-96.466692,29.86055],[-96.464857,29.860743],[-96.464289,29.859759],[-96.464434,29.858994],[-96.462737,29.858329],[-96.462718,29.85767],[-96.461886,29.857241],[-96.461059,29.856191],[-96.461085,29.855559],[-96.460757,29.855652],[-96.460403,29.855411],[-96.460523,29.854674],[-96.45911,29.854905],[-96.457918,29.855477],[-96.457666,29.855372],[-96.457647,29.854823],[-96.45643,29.855131],[-96.455162,29.854801],[-96.454024,29.853158],[-96.453395,29.852686],[-96.44885,29.843536],[-96.447055,29.839638],[-96.446193,29.835178],[-96.445698,29.833854],[-96.444021,29.831721],[-96.444209,29.831596],[-96.449605,29.832746],[-96.455118,29.833022],[-96.455734,29.832745],[-96.455919,29.831784],[-96.456267,29.831501],[-96.456535,29.833075],[-96.45627,29.833449],[-96.456333,29.833993],[-96.456667,29.834334],[-96.457361,29.834394],[-96.457727,29.835153],[-96.458269,29.835647],[-96.458332,29.836252],[-96.458931,29.836505],[-96.45919,29.836967],[-96.461063,29.83783],[-96.4624,29.838857],[-96.462709,29.83949],[-96.463964,29.839632],[-96.464506,29.839456],[-96.465376,29.840171],[-96.465761,29.840011],[-96.46624,29.839143],[-96.46706,29.838934],[-96.467477,29.839342],[-96.470326,29.836708],[-96.474316,29.840406],[-96.480292,29.832935],[-96.480243,29.836617],[-96.494028,29.836865],[-96.496651,29.835143],[-96.497867,29.833993],[-96.499222,29.83214],[-96.499158,29.831673],[-96.499518,29.83159],[-96.499467,29.831228],[-96.5,29.830689],[-96.500373,29.8297],[-96.501457,29.829354],[-96.502417,29.827557],[-96.503521,29.826761],[-96.504486,29.825238],[-96.506637,29.823573],[-96.507685,29.822079],[-96.508385,29.821974],[-96.508978,29.821375],[-96.509231,29.820166],[-96.508778,29.817857],[-96.50903,29.817614],[-96.507802,29.816978],[-96.50722,29.816285],[-96.505573,29.813202],[-96.504264,29.809851],[-96.503421,29.808897],[-96.502051,29.807912],[-96.50234,29.806931],[-96.501283,29.803173],[-96.497576,29.798744],[-96.493491,29.795118],[-96.490305,29.792667],[-96.488079,29.791357],[-96.48453,29.787973],[-96.4832,29.786269],[-96.482563,29.784603],[-96.4827,29.782531],[-96.482517,29.781327],[-96.481199,29.780024],[-96.480764,29.778639],[-96.480883,29.778034],[-96.482319,29.775681],[-96.482244,29.775241],[-96.481651,29.774576],[-96.481744,29.772245],[-96.481378,29.7691],[-96.48207,29.766731],[-96.481773,29.766086],[-96.490495,29.766035],[-96.490599,29.767918],[-96.491168,29.768992],[-96.49167,29.768839],[-96.496114,29.768969],[-96.498587,29.769244],[-96.498782,29.768786],[-96.499318,29.768934],[-96.500753,29.768275],[-96.500678,29.767671],[-96.501157,29.767643],[-96.501019,29.766835],[-96.501926,29.766269],[-96.502462,29.766264],[-96.502827,29.766831],[-96.504075,29.766105],[-96.504642,29.766331],[-96.505764,29.765941],[-96.506004,29.765419],[-96.506514,29.765568],[-96.507674,29.765315],[-96.507958,29.764331],[-96.508468,29.7642],[-96.508733,29.763787],[-96.509628,29.763249],[-96.509742,29.76276],[-96.509572,29.76171],[-96.508628,29.760456],[-96.509032,29.759093],[-96.511364,29.758219],[-96.512303,29.756829],[-96.51432,29.755583],[-96.515922,29.754847],[-96.520065,29.753505],[-96.521586,29.753286],[-96.525788,29.753441],[-96.539605,29.752878],[-96.541898,29.753719],[-96.547405,29.758108],[-96.547291,29.760389],[-96.548532,29.761868],[-96.549735,29.762841],[-96.54954,29.763749],[-96.549754,29.764672],[-96.553308,29.767416],[-96.554234,29.769862],[-96.554076,29.770704],[-96.555065,29.772265],[-96.554889,29.772507],[-96.555973,29.773183],[-96.556748,29.774602],[-96.557145,29.774783],[-96.557662,29.77458],[-96.558166,29.773535],[-96.560012,29.774113],[-96.56022,29.774624],[-96.560951,29.774618],[-96.561399,29.774333],[-96.562869,29.774083],[-96.563539,29.773636],[-96.566405,29.769468],[-96.566551,29.767579],[-96.57212,29.767538],[-96.572419,29.767273],[-96.590728,29.767304],[-96.632773,29.827974],[-96.632797,29.828525],[-96.635538,29.831514],[-96.635714,29.837306],[-96.645062,29.837493],[-96.645793,29.838054],[-96.645826,29.840842],[-96.646271,29.841468],[-96.649921,29.841951],[-96.65248,29.843533],[-96.656001,29.84423],[-96.662102,29.843165],[-96.662551,29.842699],[-96.663614,29.83955],[-96.664159,29.83896],[-96.666629,29.839651],[-96.667139,29.840964],[-96.668109,29.84153],[-96.672926,29.843098],[-96.651189,29.868751],[-96.646191,29.87363],[-96.645289,29.875228],[-96.625251,29.898647],[-96.620622,29.903643],[-96.569844,29.961516],[-96.535705,29.907326],[-96.503717,29.882384],[-96.495235,29.875227]]]}},{"type":"Feature","properties":{"PRECINCT":"303","VTD":"0303"},"geometry":{"type":"Polygon","coordinates":[[[-96.449966,29.856417],[-96.44738,29.855279],[-96.446693,29.855252],[-96.446333,29.854422],[-96.445929,29.854207],[-96.445482,29.854537],[-96.444769,29.854301],[-96.444914,29.85484],[-96.444618,29.855367],[-96.44352,29.85468],[-96.444107,29.854004],[-96.443911,29.853641],[-96.443306,29.85363],[-96.442726,29.853949],[-96.442347,29.853493],[-96.441401,29.85374],[-96.440802,29.853614],[-96.440859,29.852926],[-96.439566,29.850271],[-96.437902,29.849188],[-96.43659,29.849479],[-96.434749,29.847945],[-96.434572,29.847379],[-96.435209,29.846566],[-96.434402,29.845675],[-96.43502,29.844427],[-96.434062,29.843168],[-96.434762,29.842371],[-96.434724,29.841904],[-96.433797,29.841189],[-96.431994,29.84153],[-96.430329,29.841156],[-96.429383,29.840562],[-96.427851,29.840886],[-96.427328,29.840105],[-96.425707,29.839116],[-96.425007,29.838297],[-96.425443,29.837065],[-96.425178,29.836581],[-96.424838,29.836378],[-96.423955,29.836664],[-96.423665,29.83651],[-96.424006,29.834905],[-96.423558,29.834531],[-96.422511,29.834761],[-96.421698,29.83397],[-96.421686,29.833343],[-96.422278,29.832788],[-96.422197,29.830853],[-96.421907,29.83049],[-96.420614,29.830358],[-96.420621,29.830017],[-96.421188,29.829555],[-96.421031,29.829269],[-96.419165,29.829445],[-96.417885,29.828472],[-96.415445,29.827916],[-96.414355,29.826014],[-96.413283,29.824985],[-96.412224,29.824545],[-96.411039,29.824688],[-96.410655,29.825297],[-96.410112,29.825485],[-96.409065,29.825259],[-96.408561,29.82411],[-96.408013,29.823819],[-96.407452,29.823934],[-96.407086,29.824478],[-96.406033,29.825236],[-96.405131,29.825544],[-96.403908,29.825054],[-96.4029,29.825186],[-96.401317,29.824817],[-96.401624,29.823448],[-96.401368,29.822932],[-96.401319,29.821442],[-96.400525,29.820007],[-96.401197,29.819549],[-96.400933,29.818952],[-96.401585,29.816564],[-96.389075,29.806958],[-96.396348,29.799973],[-96.400981,29.796984],[-96.400933,29.793972],[-96.400618,29.793768],[-96.400454,29.793246],[-96.400518,29.790931],[-96.400014,29.789656],[-96.400348,29.784929],[-96.409936,29.773198],[-96.418588,29.765421],[-96.417988,29.762883],[-96.417186,29.761281],[-96.417058,29.759866],[-96.41654,29.759228],[-96.41551,29.758839],[-96.416096,29.756743],[-96.417182,29.755764],[-96.415252,29.754523],[-96.408152,29.752214],[-96.407602,29.751803],[-96.406586,29.750301],[-96.406784,29.749339],[-96.406066,29.748844],[-96.405795,29.749092],[-96.405222,29.748707],[-96.405241,29.748316],[-96.404648,29.748228],[-96.405057,29.747298],[-96.409069,29.743612],[-96.410128,29.742249],[-96.417376,29.735556],[-96.420091,29.733396],[-96.424036,29.731377],[-96.424071,29.730997],[-96.423728,29.730564],[-96.416702,29.724514],[-96.41793,29.723874],[-96.441622,29.719068],[-96.458194,29.717362],[-96.485621,29.713503],[-96.484491,29.713837],[-96.484014,29.714674],[-96.485265,29.713886],[-96.485232,29.714598],[-96.486692,29.72125],[-96.484391,29.725462],[-96.484725,29.731073],[-96.483626,29.732124],[-96.481928,29.735305],[-96.481895,29.737473],[-96.481546,29.738528],[-96.481543,29.739553],[-96.482095,29.741],[-96.48363,29.743406],[-96.484985,29.744058],[-96.486437,29.747115],[-96.487524,29.748529],[-96.488961,29.749812],[-96.49036,29.75192],[-96.49082,29.75595],[-96.491827,29.757463],[-96.492129,29.758791],[-96.490826,29.761641],[-96.490495,29.766035],[-96.481773,29.766086],[-96.48207,29.766731],[-96.481378,29.7691],[-96.481744,29.772245],[-96.481651,29.774576],[-96.482244,29.775241],[-96.482319,29.775681],[-96.480858,29.778089],[-96.480859,29.779332],[-96.481351,29.780211],[-96.482517,29.781327],[-96.4827,29.782531],[-96.482563,29.784603],[-96.482998,29.785868],[-96.48378,29.787126],[-96.488079,29.791357],[-96.490305,29.792667],[-96.493491,29.795118],[-96.497576,29.798744],[-96.501283,29.803173],[-96.50234,29.806931],[-96.502051,29.807912],[-96.503421,29.808897],[-96.504264,29.809851],[-96.505573,29.813202],[-96.50722,29.816285],[-96.507802,29.816978],[-96.50903,29.817614],[-96.508778,29.817928],[-96.509231,29.820166],[-96.509136,29.820958],[-96.508713,29.821722],[-96.507685,29.822079],[-96.506637,29.823573],[-96.504486,29.825238],[-96.503521,29.826761],[-96.502417,29.827557],[-96.501457,29.829354],[-96.500373,29.8297],[-96.5,29.830689],[-96.499467,29.831228],[-96.499518,29.83159],[-96.499158,29.831673],[-96.499222,29.83214],[-96.497867,29.833993],[-96.494703,29.836584],[-96.494028,29.836865],[-96.480243,29.836617],[-96.480292,29.832935],[-96.474316,29.840406],[-96.470326,29.836708],[-96.467477,29.839342],[-96.46706,29.838934],[-96.46624,29.839143],[-96.465679,29.840083],[-96.465162,29.840111],[-96.464506,29.839456],[-96.463964,29.839632],[-96.462709,29.83949],[-96.4624,29.838857],[-96.461063,29.83783],[-96.45919,29.836967],[-96.458931,29.836505],[-96.458332,29.836252],[-96.458269,29.835647],[-96.457727,29.835153],[-96.457361,29.834394],[-96.456434,29.834147],[-96.456245,29.833619],[-96.456535,29.833075],[-96.456267,29.831501],[-96.455919,29.831784],[-96.455734,29.832745],[-96.455118,29.833022],[-96.448718,29.832634],[-96.444209,29.831596],[-96.444021,29.831721],[-96.445177,29.832984],[-96.445938,29.834454],[-96.447358,29.840432],[-96.453395,29.852686],[-96.454024,29.853158],[-96.455162,29.854801],[-96.454645,29.854949],[-96.454891,29.855625],[-96.453662,29.85634],[-96.451681,29.855994],[-96.449966,29.856417]]]}},{"type":"Feature","properties":{"PRECINCT":"305","VTD":"0305"},"geometry":{"type":"Polygon","coordinates":[[[-96.645826,29.840842],[-96.645621,29.837771],[-96.645062,29.837493],[-96.635714,29.837306],[-96.635538,29.831514],[-96.632797,29.828525],[-96.632773,29.827974],[-96.590728,29.767304],[-96.572419,29.767273],[-96.57212,29.767538],[-96.566551,29.767579],[-96.566405,29.769468],[-96.563539,29.773636],[-96.562869,29.774083],[-96.561399,29.774333],[-96.560951,29.774618],[-96.56022,29.774624],[-96.560012,29.774113],[-96.558166,29.773535],[-96.557662,29.77458],[-96.557038,29.774756],[-96.556748,29.774602],[-96.555973,29.773183],[-96.554889,29.772507],[-96.555065,29.772265],[-96.554076,29.770704],[-96.554234,29.769862],[-96.553308,29.767416],[-96.549754,29.764672],[-96.54954,29.763749],[-96.549735,29.762841],[-96.548532,29.761868],[-96.547291,29.760389],[-96.547405,29.758108],[-96.541898,29.753719],[-96.539605,29.752878],[-96.525788,29.753441],[-96.521586,29.753286],[-96.518934,29.753788],[-96.51432,29.755583],[-96.512303,29.756829],[-96.511364,29.758219],[-96.509032,29.759093],[-96.508628,29.760456],[-96.509572,29.76171],[-96.509742,29.76276],[-96.509628,29.763249],[-96.508733,29.763787],[-96.508468,29.7642],[-96.507958,29.764331],[-96.507674,29.765315],[-96.506514,29.765568],[-96.506004,29.765419],[-96.505764,29.765941],[-96.504642,29.766331],[-96.504075,29.766105],[-96.502827,29.766831],[-96.502462,29.766264],[-96.501926,29.766269],[-96.501019,29.766835],[-96.501157,29.767643],[-96.500678,29.767671],[-96.500753,29.768275],[-96.499318,29.768934],[-96.498782,29.768786],[-96.498587,29.769244],[-96.496114,29.768969],[-96.49167,29.768839],[-96.491168,29.768992],[-96.490599,29.767918],[-96.490445,29.766628],[-96.490826,29.761641],[-96.491835,29.75957],[-96.492113,29.75824],[-96.49082,29.75595],[-96.490497,29.752322],[-96.488961,29.749812],[-96.487524,29.748529],[-96.486437,29.747115],[-96.484985,29.744058],[-96.48363,29.743406],[-96.482095,29.741],[-96.481543,29.739553],[-96.481546,29.738528],[-96.481895,29.737473],[-96.481928,29.735305],[-96.483626,29.732124],[-96.484725,29.731073],[-96.484391,29.725462],[-96.48674,29.720906],[-96.485321,29.715035],[-96.485265,29.713886],[-96.484014,29.714674],[-96.484491,29.713837],[-96.485621,29.713503],[-96.482284,29.713943],[-96.482258,29.713744],[-96.492429,29.712297],[-96.504512,29.709299],[-96.512625,29.704366],[-96.518912,29.702393],[-96.528061,29.698967],[-96.53194,29.696276],[-96.532038,29.696438],[-96.532672,29.695974],[-96.53432,29.697187],[-96.535888,29.69882],[-96.536489,29.698925],[-96.536481,29.6997],[-96.53719,29.700998],[-96.537587,29.703032],[-96.536902,29.706373],[-96.537978,29.706559],[-96.537977,29.705436],[-96.539277,29.705468],[-96.539265,29.706559],[-96.540569,29.706562],[-96.540535,29.705453],[-96.546877,29.705343],[-96.546959,29.710897],[-96.547328,29.712824],[-96.55035,29.71309],[-96.553429,29.714734],[-96.55547,29.715411],[-96.558499,29.715691],[-96.56413,29.717533],[-96.567474,29.718034],[-96.567701,29.718276],[-96.569068,29.71865],[-96.569427,29.718353],[-96.576922,29.718792],[-96.579668,29.719136],[-96.579741,29.719966],[-96.589734,29.720963],[-96.591252,29.720913],[-96.593394,29.721462],[-96.599107,29.723715],[-96.602799,29.724501],[-96.605848,29.724753],[-96.607304,29.724687],[-96.607276,29.720868],[-96.607998,29.720301],[-96.61017,29.720225],[-96.61161,29.721101],[-96.612245,29.72235],[-96.612323,29.722815],[-96.611585,29.724187],[-96.6151,29.723799],[-96.617255,29.723919],[-96.626087,29.725243],[-96.627932,29.725755],[-96.630735,29.726037],[-96.633676,29.726671],[-96.635277,29.726336],[-96.636927,29.725452],[-96.638402,29.72399],[-96.638951,29.723231],[-96.639563,29.721653],[-96.640144,29.718767],[-96.640913,29.717811],[-96.641561,29.717465],[-96.644169,29.71691],[-96.646613,29.717313],[-96.650467,29.718535],[-96.651532,29.719299],[-96.655624,29.724034],[-96.660888,29.732041],[-96.666228,29.736881],[-96.670064,29.739812],[-96.673006,29.741407],[-96.677189,29.744316],[-96.679431,29.746956],[-96.6802,29.748369],[-96.680829,29.75116],[-96.680904,29.753959],[-96.680684,29.754542],[-96.677338,29.756999],[-96.673153,29.758962],[-96.669567,29.762266],[-96.66888,29.763613],[-96.668414,29.763942],[-96.66835,29.764426],[-96.668779,29.765751],[-96.669383,29.766977],[-96.670127,29.767615],[-96.6713,29.770545],[-96.669939,29.772758],[-96.669884,29.77353],[-96.670196,29.774952],[-96.671252,29.776455],[-96.674341,29.777799],[-96.676692,29.778371],[-96.679648,29.778492],[-96.682945,29.778003],[-96.686915,29.778058],[-96.688176,29.777728],[-96.689033,29.778052],[-96.68919,29.778272],[-96.688894,29.778564],[-96.689814,29.779091],[-96.693886,29.780587],[-96.695752,29.780884],[-96.698014,29.780488],[-96.707487,29.77765],[-96.710979,29.776802],[-96.71435,29.775251],[-96.718024,29.772903],[-96.720135,29.772144],[-96.721881,29.772193],[-96.724465,29.772857],[-96.727535,29.77505],[-96.728197,29.776045],[-96.728248,29.778019],[-96.727908,29.778696],[-96.72496,29.781572],[-96.724311,29.784096],[-96.724116,29.784134],[-96.724118,29.785497],[-96.717043,29.792706],[-96.71434,29.796079],[-96.704477,29.806735],[-96.672926,29.843098],[-96.668109,29.84153],[-96.667139,29.840964],[-96.666629,29.839651],[-96.664159,29.83896],[-96.663614,29.83955],[-96.662551,29.842699],[-96.662102,29.843165],[-96.656392,29.844219],[-96.654948,29.844058],[-96.65248,29.843533],[-96.649921,29.841951],[-96.646271,29.841468],[-96.645826,29.840842]]]}},{"type":"Feature","properties":{"PRECINCT":"401","VTD":"0401"},"geometry":{"type":"Polygon","coordinates":[[[-96.480728,29.709032],[-96.466717,29.697109],[-96.460018,29.703027],[-96.459932,29.702781],[-96.459243,29.702828],[-96.457796,29.703431],[-96.456733,29.703105],[-96.456156,29.701946],[-96.45612,29.701071],[-96.456907,29.699876],[-96.463306,29.694242],[-96.461544,29.692363],[-96.459477,29.690355],[-96.457101,29.688961],[-96.452702,29.688718],[-96.451875,29.688424],[-96.438158,29.677166],[-96.430362,29.675323],[-96.429561,29.674857],[-96.428056,29.673383],[-96.42942,29.670254],[-96.429179,29.669693],[-96.42936,29.669102],[-96.430592,29.668736],[-96.431856,29.668897],[-96.432708,29.668372],[-96.433391,29.668327],[-96.435381,29.669153],[-96.436769,29.669476],[-96.437156,29.668937],[-96.436589,29.668251],[-96.435102,29.667331],[-96.435757,29.666745],[-96.436456,29.666718],[-96.437721,29.665976],[-96.437759,29.664618],[-96.440938,29.664162],[-96.44204,29.663557],[-96.44243,29.663716],[-96.442663,29.663392],[-96.44321,29.663458],[-96.445458,29.662281],[-96.445841,29.661611],[-96.445854,29.660165],[-96.445797,29.659961],[-96.445332,29.659851],[-96.445275,29.659571],[-96.445426,29.659247],[-96.446521,29.659049],[-96.445791,29.658488],[-96.446307,29.657498],[-96.447157,29.656938],[-96.447534,29.657526],[-96.447415,29.658197],[-96.448776,29.657701],[-96.448124,29.655695],[-96.447902,29.653999],[-96.448595,29.653524],[-96.448554,29.652871],[-96.447797,29.651436],[-96.446937,29.64878],[-96.445341,29.646468],[-96.441215,29.642703],[-96.435123,29.637747],[-96.433307,29.635416],[-96.431743,29.632598],[-96.431106,29.632222],[-96.430173,29.630784],[-96.429906,29.629917],[-96.429912,29.628812],[-96.430207,29.628439],[-96.429042,29.626191],[-96.427595,29.6224],[-96.426985,29.621545],[-96.425517,29.620571],[-96.423596,29.620019],[-96.418705,29.619503],[-96.417979,29.61909],[-96.41718,29.618188],[-96.416813,29.617048],[-96.416953,29.615982],[-96.417799,29.614689],[-96.420381,29.61368],[-96.424205,29.61285],[-96.426199,29.611707],[-96.429186,29.609563],[-96.429934,29.609321],[-96.430991,29.609765],[-96.433127,29.609936],[-96.435901,29.610613],[-96.437588,29.611758],[-96.439612,29.614318],[-96.440588,29.614592],[-96.441521,29.614728],[-96.443307,29.614513],[-96.447789,29.612985],[-96.450979,29.611136],[-96.453201,29.609472],[-96.453898,29.608669],[-96.456487,29.602772],[-96.457023,29.599938],[-96.456685,29.598915],[-96.452734,29.594784],[-96.450171,29.593116],[-96.447451,29.592787],[-96.440688,29.592895],[-96.433187,29.592551],[-96.429068,29.591704],[-96.42895,29.592097],[-96.426422,29.591024],[-96.423982,29.588885],[-96.423001,29.587253],[-96.420121,29.583646],[-96.417242,29.580535],[-96.418013,29.58],[-96.413513,29.576443],[-96.410953,29.57504],[-96.406483,29.573159],[-96.401284,29.567715],[-96.399945,29.565911],[-96.399675,29.564916],[-96.399689,29.563366],[-96.401872,29.559716],[-96.402577,29.557682],[-96.401692,29.554246],[-96.398827,29.547538],[-96.398778,29.545449],[-96.398125,29.543085],[-96.398616,29.542502],[-96.399944,29.538154],[-96.400699,29.536791],[-96.40185,29.535258],[-96.404271,29.534362],[-96.405157,29.533824],[-96.406459,29.531889],[-96.406793,29.530245],[-96.40602,29.528667],[-96.404116,29.527111],[-96.401985,29.526319],[-96.401143,29.526335],[-96.396857,29.52513],[-96.396429,29.524596],[-96.396574,29.523656],[-96.39709,29.522777],[-96.399115,29.521293],[-96.400158,29.520799],[-96.40322,29.519799],[-96.404835,29.519888],[-96.405602,29.519464],[-96.406432,29.519404],[-96.407557,29.518118],[-96.408362,29.516551],[-96.408595,29.515276],[-96.409337,29.515062],[-96.412727,29.51576],[-96.413157,29.51603],[-96.417364,29.520268],[-96.419782,29.52213],[-96.421397,29.522729],[-96.423071,29.522588],[-96.433892,29.518153],[-96.447357,29.53756],[-96.466173,29.568697],[-96.468653,29.56845],[-96.473261,29.568616],[-96.495385,29.565888],[-96.497553,29.565444],[-96.541676,29.547818],[-96.541939,29.548182],[-96.544463,29.547537],[-96.544744,29.547779],[-96.544231,29.548445],[-96.544212,29.548872],[-96.544378,29.561141],[-96.545131,29.562133],[-96.545677,29.589246],[-96.547999,29.592159],[-96.548074,29.59431],[-96.554293,29.606664],[-96.555426,29.634023],[-96.552081,29.650271],[-96.553598,29.652196],[-96.558574,29.657518],[-96.558869,29.658526],[-96.568881,29.668084],[-96.560411,29.677246],[-96.560122,29.677884],[-96.56025,29.680509],[-96.562456,29.693825],[-96.562615,29.695951],[-96.55547,29.698353],[-96.555451,29.697185],[-96.55461,29.697481],[-96.554633,29.698634],[-96.553191,29.699121],[-96.553257,29.698493],[-96.551883,29.698317],[-96.551988,29.697273],[-96.545314,29.696751],[-96.543454,29.692132],[-96.541777,29.692208],[-96.54038,29.692778],[-96.539657,29.689893],[-96.539997,29.689804],[-96.538596,29.688531],[-96.538405,29.68803],[-96.540121,29.685863],[-96.538822,29.685165],[-96.538428,29.685198],[-96.537376,29.687195],[-96.538784,29.690592],[-96.537495,29.69114],[-96.53824,29.692653],[-96.53858,29.69257],[-96.538736,29.692971],[-96.535154,29.694219],[-96.528061,29.698967],[-96.518912,29.702393],[-96.512625,29.704366],[-96.505724,29.708681],[-96.503526,29.709619],[-96.492429,29.712297],[-96.482258,29.713744],[-96.481696,29.710792],[-96.480728,29.709032]]]}},{"type":"Feature","properties":{"PRECINCT":"402","VTD":"0402"},"geometry":{"type":"Polygon","coordinates":[[[-96.295377,29.735832],[-96.293236,29.735689],[-96.292707,29.735276],[-96.29129,29.734951],[-96.290528,29.734187],[-96.2901,29.733308],[-96.289955,29.732104],[-96.290585,29.731395],[-96.291562,29.73079],[-96.291644,29.730263],[-96.292022,29.729883],[-96.29177,29.728366],[-96.291424,29.727965],[-96.290133,29.727376],[-96.288867,29.727783],[-96.288262,29.727706],[-96.286562,29.728024],[-96.284635,29.727644],[-96.283898,29.727705],[-96.28194,29.727006],[-96.280863,29.726159],[-96.280384,29.726148],[-96.278055,29.723794],[-96.276771,29.72176],[-96.276746,29.72054],[-96.275456,29.718868],[-96.272938,29.717598],[-96.271836,29.717537],[-96.270986,29.71724],[-96.270117,29.71658],[-96.269967,29.715216],[-96.27071,29.713678],[-96.27187,29.712436],[-96.271701,29.709786],[-96.270273,29.70757],[-96.270204,29.706641],[-96.270462,29.705833],[-96.273845,29.703713],[-96.275539,29.70157],[-96.276068,29.701806],[-96.277101,29.701565],[-96.277769,29.700108],[-96.277159,29.69891],[-96.275195,29.697776],[-96.273948,29.697457],[-96.273136,29.696753],[-96.272816,29.695478],[-96.272363,29.694719],[-96.272194,29.691817],[-96.271043,29.690002],[-96.269293,29.688699],[-96.268173,29.688314],[-96.267676,29.687605],[-96.266304,29.686955],[-96.26609,29.686647],[-96.266053,29.685938],[-96.265732,29.685757],[-96.265078,29.683113],[-96.263518,29.681991],[-96.263159,29.681105],[-96.263223,29.680501],[-96.262411,29.679852],[-96.261876,29.678978],[-96.261758,29.677147],[-96.262123,29.676493],[-96.262029,29.676081],[-96.262407,29.675746],[-96.262621,29.674443],[-96.261936,29.67292],[-96.261345,29.672469],[-96.260521,29.671182],[-96.260666,29.670798],[-96.25976,29.66933],[-96.256696,29.667061],[-96.254759,29.666413],[-96.25394,29.666546],[-96.251278,29.666083],[-96.250315,29.665395],[-96.247666,29.664676],[-96.245791,29.663458],[-96.245337,29.663366],[-96.244316,29.662028],[-96.24389,29.661001],[-96.243046,29.660395],[-96.241579,29.658669],[-96.240354,29.657821],[-96.239089,29.657842],[-96.237512,29.65937],[-96.236561,29.659422],[-96.236403,29.660108],[-96.236042,29.660352],[-96.234744,29.660748],[-96.23335,29.660741],[-96.232213,29.661107],[-96.231301,29.661538],[-96.230899,29.662161],[-96.228987,29.66341],[-96.227708,29.663838],[-96.226637,29.664552],[-96.224679,29.66489],[-96.221865,29.663962],[-96.220726,29.662775],[-96.220185,29.66253],[-96.218611,29.662533],[-96.218592,29.661927],[-96.218327,29.661765],[-96.216705,29.661684],[-96.213577,29.660909],[-96.212841,29.66022],[-96.212746,29.659577],[-96.212196,29.659584],[-96.21155,29.658963],[-96.211245,29.658041],[-96.208905,29.656408],[-96.208051,29.656479],[-96.20647,29.655802],[-96.20494,29.656085],[-96.202359,29.657134],[-96.199251,29.656472],[-96.195625,29.653518],[-96.193785,29.649953],[-96.191239,29.648665],[-96.19057,29.647853],[-96.189978,29.647574],[-96.189418,29.645469],[-96.189557,29.644685],[-96.188298,29.642893],[-96.187153,29.642316],[-96.183595,29.642015],[-96.181203,29.641238],[-96.179505,29.639281],[-96.179102,29.637473],[-96.178341,29.636165],[-96.175422,29.633806],[-96.204902,29.607636],[-96.205778,29.60652],[-96.225711,29.588598],[-96.229071,29.585341],[-96.307672,29.514523],[-96.347358,29.411569],[-96.349561,29.412831],[-96.350907,29.414079],[-96.351674,29.415543],[-96.352716,29.418621],[-96.354088,29.420413],[-96.35516,29.421125],[-96.35659,29.421435],[-96.359368,29.420394],[-96.360619,29.420145],[-96.365858,29.419757],[-96.367508,29.420274],[-96.368568,29.421122],[-96.368863,29.421637],[-96.369163,29.422683],[-96.369099,29.423544],[-96.368647,29.424891],[-96.367568,29.426405],[-96.361243,29.428946],[-96.357554,29.432152],[-96.356702,29.435633],[-96.357526,29.437487],[-96.357893,29.437717],[-96.358505,29.437666],[-96.360483,29.436899],[-96.361139,29.43636],[-96.361413,29.435799],[-96.361856,29.433872],[-96.363242,29.43286],[-96.365631,29.432079],[-96.368096,29.431785],[-96.369744,29.432367],[-96.371018,29.433387],[-96.37134,29.434049],[-96.371514,29.43526],[-96.371223,29.437204],[-96.369782,29.440134],[-96.369558,29.44159],[-96.370452,29.443854],[-96.371877,29.445326],[-96.37299,29.445691],[-96.373869,29.445456],[-96.376882,29.44707],[-96.382664,29.448313],[-96.383601,29.4487],[-96.384819,29.449711],[-96.385982,29.450062],[-96.392794,29.450249],[-96.394831,29.451093],[-96.396001,29.452289],[-96.396407,29.453091],[-96.402949,29.450307],[-96.406863,29.461986],[-96.420711,29.497929],[-96.424968,29.505352],[-96.433796,29.518068],[-96.423071,29.522588],[-96.421397,29.522729],[-96.419782,29.52213],[-96.417364,29.520268],[-96.413157,29.51603],[-96.412727,29.51576],[-96.409337,29.515062],[-96.408595,29.515276],[-96.408362,29.516551],[-96.407557,29.518118],[-96.406432,29.519404],[-96.405602,29.519464],[-96.404835,29.519888],[-96.40322,29.519799],[-96.400158,29.520799],[-96.399115,29.521293],[-96.396725,29.523162],[-96.396429,29.524596],[-96.396857,29.52513],[-96.403569,29.526803],[-96.405725,29.528332],[-96.406793,29.530245],[-96.406459,29.531889],[-96.405157,29.533824],[-96.404271,29.534362],[-96.40185,29.535258],[-96.400699,29.536791],[-96.399944,29.538154],[-96.398616,29.542502],[-96.398125,29.543085],[-96.398778,29.545449],[-96.398827,29.547538],[-96.401692,29.554246],[-96.402577,29.557682],[-96.401444,29.560552],[-96.39977,29.563128],[-96.399675,29.564916],[-96.399945,29.565911],[-96.400995,29.56739],[-96.406483,29.573159],[-96.410953,29.57504],[-96.413513,29.576443],[-96.418013,29.58],[-96.417242,29.580535],[-96.420121,29.583646],[-96.423001,29.587253],[-96.423982,29.588885],[-96.426422,29.591024],[-96.42895,29.592097],[-96.429068,29.591704],[-96.433187,29.592551],[-96.440688,29.592895],[-96.447451,29.592787],[-96.450171,29.593116],[-96.452734,29.594784],[-96.456821,29.599136],[-96.456961,29.60076],[-96.456487,29.602772],[-96.453898,29.608669],[-96.453201,29.609472],[-96.450979,29.611136],[-96.447789,29.612985],[-96.443307,29.614513],[-96.441521,29.614728],[-96.440588,29.614592],[-96.439612,29.614318],[-96.437588,29.611758],[-96.435901,29.610613],[-96.433127,29.609936],[-96.430991,29.609765],[-96.429934,29.609321],[-96.429186,29.609563],[-96.426199,29.611707],[-96.424205,29.61285],[-96.420381,29.61368],[-96.417799,29.614689],[-96.417214,29.615337],[-96.416798,29.616653],[-96.41718,29.618188],[-96.417979,29.61909],[-96.418705,29.619503],[-96.424509,29.620248],[-96.426093,29.620852],[-96.42723,29.621835],[-96.430207,29.628439],[-96.42984,29.629274],[-96.430173,29.630784],[-96.431106,29.632222],[-96.431743,29.632598],[-96.433307,29.635416],[-96.435123,29.637747],[-96.444212,29.64532],[-96.445341,29.646468],[-96.446937,29.64878],[-96.447797,29.651436],[-96.448554,29.652871],[-96.448595,29.653524],[-96.447902,29.653999],[-96.448124,29.655695],[-96.448776,29.657701],[-96.447415,29.658197],[-96.447534,29.657526],[-96.447157,29.656938],[-96.446307,29.657498],[-96.445791,29.658488],[-96.446521,29.659049],[-96.446219,29.659241],[-96.445514,29.659219],[-96.4453,29.659434],[-96.445332,29.659851],[-96.445829,29.660016],[-96.445885,29.660643],[-96.44581,29.661748],[-96.445332,29.662375],[-96.444205,29.662793],[-96.44321,29.663458],[-96.442663,29.663392],[-96.44243,29.663716],[-96.44192,29.66359],[-96.441039,29.664134],[-96.437759,29.664618],[-96.437721,29.665976],[-96.436456,29.666718],[-96.435757,29.666745],[-96.435102,29.667331],[-96.436589,29.668251],[-96.437156,29.668937],[-96.436769,29.669476],[-96.435381,29.669153],[-96.433391,29.668327],[-96.432708,29.668372],[-96.431856,29.668897],[-96.430592,29.668736],[-96.42936,29.669102],[-96.429179,29.669693],[-96.42942,29.670254],[-96.428056,29.673383],[-96.426216,29.672101],[-96.411739,29.664689],[-96.407824,29.662916],[-96.405846,29.661352],[-96.375162,29.689581],[-96.373745,29.690415],[-96.372105,29.69084],[-96.370234,29.692192],[-96.360941,29.700853],[-96.372204,29.709995],[-96.374845,29.710417],[-96.375365,29.710726],[-96.379547,29.714345],[-96.381002,29.715343],[-96.381248,29.716368],[-96.380447,29.718591],[-96.380529,29.719292],[-96.381277,29.719984],[-96.384022,29.720626],[-96.385258,29.721133],[-96.390585,29.725539],[-96.390801,29.726572],[-96.390295,29.727415],[-96.390717,29.72939],[-96.296692,29.748457],[-96.296905,29.746931],[-96.29637,29.744506],[-96.296496,29.74416],[-96.296251,29.743863],[-96.296402,29.742989],[-96.29685,29.741675],[-96.29857,29.739439],[-96.298791,29.738097],[-96.298312,29.737207],[-96.296964,29.736327],[-96.295377,29.735832]]]}},{"type":"Feature","properties":{"PRECINCT":"304","VTD":"0304"},"geometry":{"type":"Polygon","coordinates":[[[-96.335717,29.818253],[-96.334872,29.817302],[-96.332111,29.815224],[-96.33138,29.81507],[-96.330869,29.814449],[-96.331178,29.812888],[-96.331316,29.809046],[-96.332078,29.806594],[-96.331498,29.804384],[-96.331914,29.803472],[-96.332676,29.802839],[-96.333931,29.802834],[-96.335834,29.803235],[-96.337328,29.802701],[-96.337384,29.801272],[-96.336628,29.80092],[-96.334932,29.801157],[-96.334239,29.800877],[-96.333716,29.800382],[-96.333602,29.799596],[-96.332902,29.798348],[-96.331591,29.79776],[-96.330243,29.797887],[-96.328976,29.79864],[-96.327766,29.798409],[-96.327444,29.797491],[-96.326511,29.797156],[-96.324854,29.796046],[-96.321986,29.792385],[-96.32094,29.791956],[-96.319515,29.791967],[-96.318066,29.791231],[-96.317209,29.788499],[-96.316528,29.787839],[-96.315394,29.787278],[-96.314663,29.786014],[-96.314657,29.785503],[-96.315652,29.784216],[-96.31574,29.783227],[-96.314921,29.781144],[-96.314934,29.779901],[-96.315394,29.779066],[-96.316623,29.777884],[-96.317763,29.777565],[-96.319338,29.776345],[-96.319628,29.775652],[-96.319483,29.774564],[-96.318393,29.773503],[-96.317127,29.773211],[-96.316112,29.773255],[-96.314121,29.771188],[-96.313756,29.769523],[-96.313793,29.768484],[-96.314518,29.765834],[-96.313957,29.764042],[-96.31397,29.762827],[-96.313107,29.76097],[-96.312313,29.760326],[-96.311721,29.75887],[-96.31184,29.756357],[-96.31036,29.755176],[-96.307882,29.753922],[-96.306251,29.753705],[-96.303728,29.75241],[-96.302521,29.752369],[-96.299029,29.751178],[-96.297194,29.749718],[-96.296692,29.748457],[-96.390717,29.72939],[-96.390295,29.727415],[-96.390801,29.726572],[-96.390585,29.725539],[-96.385258,29.721133],[-96.384022,29.720626],[-96.381277,29.719984],[-96.380529,29.719292],[-96.380447,29.718591],[-96.381248,29.716368],[-96.381002,29.715343],[-96.379547,29.714345],[-96.375365,29.710726],[-96.374845,29.710417],[-96.372204,29.709995],[-96.360941,29.700853],[-96.370234,29.692192],[-96.372105,29.69084],[-96.373745,29.690415],[-96.375162,29.689581],[-96.405846,29.661352],[-96.407824,29.662916],[-96.411739,29.664689],[-96.426216,29.672101],[-96.427742,29.673083],[-96.429561,29.674857],[-96.430362,29.675323],[-96.438158,29.677166],[-96.451875,29.688424],[-96.452702,29.688718],[-96.457101,29.688961],[-96.459477,29.690355],[-96.463306,29.694242],[-96.456907,29.699876],[-96.45612,29.701071],[-96.456156,29.701946],[-96.456733,29.703105],[-96.457796,29.703431],[-96.459243,29.702828],[-96.459932,29.702781],[-96.460018,29.703027],[-96.466717,29.697109],[-96.480728,29.709032],[-96.481696,29.710792],[-96.482284,29.713943],[-96.458194,29.717362],[-96.441622,29.719068],[-96.41793,29.723874],[-96.416702,29.724514],[-96.423728,29.730564],[-96.424071,29.730997],[-96.424036,29.731377],[-96.420091,29.733396],[-96.417376,29.735556],[-96.410128,29.742249],[-96.409069,29.743612],[-96.405057,29.747298],[-96.404648,29.748228],[-96.405241,29.748316],[-96.405222,29.748707],[-96.405795,29.749092],[-96.406066,29.748844],[-96.406784,29.749339],[-96.406586,29.750301],[-96.407602,29.751803],[-96.408152,29.752214],[-96.415252,29.754523],[-96.417182,29.755764],[-96.416096,29.756743],[-96.41551,29.758839],[-96.41654,29.759228],[-96.417058,29.759866],[-96.417186,29.761281],[-96.417988,29.762883],[-96.418588,29.765421],[-96.409936,29.773198],[-96.400348,29.784929],[-96.400014,29.789656],[-96.400518,29.790931],[-96.400454,29.793246],[-96.400618,29.793768],[-96.400933,29.793972],[-96.400981,29.796984],[-96.396348,29.799973],[-96.389075,29.806958],[-96.401585,29.816564],[-96.400933,29.818952],[-96.401197,29.819549],[-96.400525,29.820007],[-96.401319,29.821442],[-96.401368,29.822932],[-96.401624,29.823448],[-96.401317,29.824817],[-96.396565,29.822578],[-96.395417,29.822831],[-96.394913,29.823281],[-96.394711,29.823902],[-96.394244,29.824193],[-96.393771,29.824193],[-96.393254,29.823544],[-96.393904,29.822478],[-96.393602,29.821824],[-96.39306,29.821758],[-96.392032,29.822203],[-96.39079,29.822153],[-96.389952,29.821938],[-96.389542,29.821394],[-96.389032,29.821305],[-96.388426,29.822471],[-96.386995,29.822541],[-96.385538,29.823217],[-96.383716,29.823656],[-96.383047,29.82404],[-96.382416,29.825079],[-96.381344,29.825128],[-96.379938,29.825512],[-96.379327,29.825303],[-96.378981,29.82395],[-96.378477,29.8235],[-96.377682,29.823472],[-96.376144,29.824169],[-96.375513,29.824141],[-96.374282,29.823607],[-96.373096,29.823723],[-96.371394,29.823383],[-96.369616,29.823582],[-96.368967,29.823054],[-96.368575,29.822131],[-96.368134,29.821884],[-96.367182,29.821999],[-96.366665,29.821846],[-96.366469,29.821576],[-96.366475,29.820521],[-96.366217,29.820356],[-96.365404,29.820411],[-96.364867,29.819323],[-96.364255,29.818944],[-96.363398,29.818933],[-96.362629,29.819934],[-96.362138,29.820039],[-96.361785,29.819984],[-96.360883,29.818912],[-96.358632,29.818907],[-96.357447,29.819298],[-96.355425,29.822075],[-96.354782,29.823647],[-96.35431,29.824043],[-96.352879,29.824384],[-96.352545,29.826792],[-96.352199,29.827342],[-96.349999,29.828359],[-96.346859,29.828877],[-96.344476,29.830147],[-96.343247,29.829697],[-96.342742,29.828976],[-96.342969,29.826332],[-96.342735,29.825348],[-96.342275,29.824634],[-96.340011,29.823474],[-96.337937,29.821815],[-96.335717,29.818253]]]}}]}