{"type":"FeatureCollection","features":[{"type":"Feature","properties":{"PRECINCT":"101","VTD":"0101"},"geometry":{"type":"Polygon","coordinates":[[[-96.886488,31.378994],[-96.886001,31.37901],[-96.88586,31.379538],[-96.88536,31.379087],[-96.88436,31.379411],[-96.884034,31.379306],[-96.8839,31.377564],[-96.88424,31.376299],[-96.883895,31.375859],[-96.882799,31.375782],[-96.881608,31.375133],[-96.881539,31.374876],[-96.88193,31.374321],[-96.881456,31.373661],[-96.881527,31.372787],[-96.879362,31.372869],[-96.878548,31.372385],[-96.878889,31.370604],[-96.878159,31.369746],[-96.878076,31.369201],[-96.878391,31.368756],[-96.878967,31.368624],[-96.879166,31.36797],[-96.878788,31.367976],[-96.878359,31.367585],[-96.878475,31.36681],[-96.877989,31.365716],[-96.878297,31.364572],[-96.87596,31.363428],[-96.874998,31.363906],[-96.874546,31.363844],[-96.874289,31.363552],[-96.874154,31.362508],[-96.873289,31.361876],[-96.872834,31.361821],[-96.871169,31.362339],[-96.870964,31.362223],[-96.872084,31.360832],[-96.871634,31.35766],[-96.871851,31.357435],[-96.872819,31.357484],[-96.871979,31.356989],[-96.871627,31.356335],[-96.871895,31.355945],[-96.871338,31.355252],[-96.870767,31.354978],[-96.870998,31.354191],[-96.870823,31.351833],[-96.87156,31.351096],[-96.871551,31.3508],[-96.87127,31.350922],[-96.87115,31.350651],[-96.871162,31.349777],[-96.870822,31.349892],[-96.870598,31.349596],[-96.869669,31.349426],[-96.869143,31.348392],[-96.868663,31.348332],[-96.868131,31.348602],[-96.866824,31.347624],[-96.865913,31.345788],[-96.866541,31.345425],[-96.866925,31.344611],[-96.8672,31.344798],[-96.866912,31.344451],[-96.866297,31.344963],[-96.865746,31.345024],[-96.86212,31.343365],[-96.861543,31.342458],[-96.861857,31.341924],[-96.862376,31.341825],[-96.862516,31.340632],[-96.861594,31.340418],[-96.8606,31.338637],[-96.860913,31.336702],[-96.861233,31.336521],[-96.861573,31.336647],[-96.861528,31.336323],[-96.85999,31.335531],[-96.859836,31.334778],[-96.859561,31.334773],[-96.859047,31.332206],[-96.857913,31.331134],[-96.857554,31.330084],[-96.856913,31.329832],[-96.856631,31.329172],[-96.856631,31.328644],[-96.85715,31.328094],[-96.857194,31.327171],[-96.857693,31.326643],[-96.857719,31.325675],[-96.857546,31.325357],[-96.857008,31.325236],[-96.857014,31.324499],[-96.85629,31.324147],[-96.856207,31.323889],[-96.856635,31.323202],[-96.856123,31.322113],[-96.855226,31.321679],[-96.854899,31.321927],[-96.854868,31.322587],[-96.854093,31.322153],[-96.853446,31.322285],[-96.853074,31.321625],[-96.853593,31.321042],[-96.85292,31.320707],[-96.853426,31.320196],[-96.852362,31.319371],[-96.853163,31.319069],[-96.852657,31.318041],[-96.851875,31.317645],[-96.849832,31.317404],[-96.850024,31.31698],[-96.849666,31.316486],[-96.849569,31.315568],[-96.849005,31.315084],[-96.849281,31.314375],[-96.848531,31.313671],[-96.848659,31.312506],[-96.848281,31.312209],[-96.847717,31.312281],[-96.847506,31.313133],[-96.847212,31.312853],[-96.846841,31.313199],[-96.846315,31.312484],[-96.845989,31.311366],[-96.864059,31.306621],[-96.866583,31.306225],[-96.874491,31.306317],[-96.874387,31.309215],[-96.874672,31.311589],[-96.875723,31.314255],[-96.877111,31.315972],[-96.877353,31.3158],[-96.875851,31.31371],[-96.875028,31.311619],[-96.884749,31.311679],[-96.884696,31.312221],[-96.886573,31.312269],[-96.886703,31.31248],[-96.889966,31.312448],[-96.890017,31.307476],[-96.889759,31.307477],[-96.889795,31.306298],[-96.897992,31.306295],[-96.897984,31.314224],[-96.896447,31.314243],[-96.896022,31.315172],[-96.894057,31.317329],[-96.892452,31.321044],[-96.890726,31.325362],[-96.890174,31.327669],[-96.890208,31.333248],[-96.894211,31.346406],[-96.894458,31.346309],[-96.90354,31.376161],[-96.88776,31.383794],[-96.886525,31.381886],[-96.886506,31.381353],[-96.887141,31.38005],[-96.886885,31.379269],[-96.886488,31.378994]]]}},{"type":"Feature","properties":{"PRECINCT":"102","VTD":"0102"},"geometry":{"type":"Polygon","coordinates":[[[-96.904964,31.380697],[-96.894458,31.346309],[-96.894211,31.346406],[-96.890208,31.333248],[-96.890133,31.328034],[-96.890726,31.325362],[-96.894057,31.317329],[-96.896022,31.315172],[-96.896447,31.314243],[-96.897984,31.314224],[-96.90058,31.314639],[-96.901213,31.314954],[-96.902639,31.315009],[-96.904746,31.31479],[-96.90753,31.314873],[-96.90773,31.314534],[-96.907892,31.314616],[-96.907776,31.312066],[-96.908006,31.31134],[-96.907629,31.310867],[-96.907936,31.310296],[-96.907546,31.309575],[-96.907419,31.308069],[-96.908251,31.307371],[-96.90788,31.306134],[-96.907952,31.305527],[-96.964178,31.289851],[-96.968571,31.288026],[-96.97025,31.289864],[-96.972018,31.291171],[-96.971872,31.294483],[-96.9726,31.296445],[-96.975392,31.299722],[-96.979235,31.301643],[-96.981234,31.301765],[-96.985986,31.301568],[-96.988943,31.301927],[-96.994824,31.303332],[-96.997187,31.304273],[-96.997971,31.304808],[-96.998495,31.305582],[-96.998518,31.306258],[-96.998234,31.307159],[-96.997289,31.308338],[-96.991527,31.310713],[-96.988765,31.311485],[-96.985595,31.311422],[-96.983518,31.311641],[-96.982508,31.313556],[-96.982496,31.314355],[-96.983408,31.31592],[-96.985033,31.316642],[-96.987841,31.3169],[-96.990793,31.316155],[-96.992672,31.316494],[-96.994054,31.317245],[-96.997624,31.320739],[-96.999502,31.320827],[-97.002411,31.322081],[-97.002976,31.322863],[-97.00326,31.3242],[-97.00304,31.325621],[-97.00242,31.326716],[-97.001702,31.327419],[-97.000066,31.328292],[-96.998004,31.329019],[-96.995781,31.329412],[-96.993819,31.32893],[-96.989184,31.326588],[-96.985674,31.325388],[-96.980799,31.326223],[-96.979583,31.326317],[-96.978997,31.326134],[-96.977385,31.326728],[-96.974442,31.328513],[-96.973731,31.32922],[-96.972965,31.330293],[-96.972045,31.332641],[-96.971779,31.335103],[-96.972464,31.336539],[-96.973196,31.337079],[-96.97398,31.337323],[-96.975932,31.337103],[-96.980346,31.335399],[-96.983431,31.334832],[-96.985648,31.335022],[-96.990119,31.336274],[-96.994185,31.336029],[-96.99828,31.336265],[-97.000166,31.337596],[-97.000485,31.338413],[-97.000478,31.339521],[-96.999646,31.341314],[-96.997016,31.343922],[-96.9926,31.346914],[-96.98914,31.348474],[-96.987351,31.348843],[-96.980626,31.349155],[-96.978476,31.349663],[-96.97635,31.350619],[-96.975125,31.351546],[-96.974021,31.353208],[-96.972654,31.355979],[-96.97138,31.359616],[-96.970619,31.360896],[-96.96916,31.362468],[-96.96785,31.362997],[-96.963147,31.36302],[-96.960133,31.363907],[-96.95772,31.365512],[-96.95663,31.367244],[-96.955835,31.36679],[-96.948402,31.360601],[-96.946992,31.361714],[-96.946608,31.362423],[-96.943744,31.362869],[-96.942059,31.363501],[-96.941245,31.363468],[-96.940714,31.363155],[-96.939362,31.364578],[-96.938894,31.365903],[-96.938035,31.36719],[-96.937324,31.367091],[-96.937023,31.367459],[-96.936671,31.36719],[-96.9361,31.367734],[-96.935293,31.367723],[-96.934838,31.36813],[-96.933839,31.368388],[-96.933627,31.368707],[-96.933352,31.368586],[-96.933134,31.368866],[-96.932704,31.368883],[-96.932108,31.369377],[-96.93198,31.369817],[-96.93173,31.369812],[-96.931487,31.369443],[-96.930583,31.3698],[-96.930474,31.370438],[-96.929968,31.370455],[-96.930141,31.370834],[-96.929994,31.371263],[-96.929244,31.371208],[-96.929071,31.371807],[-96.928437,31.372076],[-96.928507,31.372324],[-96.92745,31.373264],[-96.927475,31.37389],[-96.926302,31.373901],[-96.926091,31.374116],[-96.926165,31.374622],[-96.923763,31.373307],[-96.923695,31.37187],[-96.923193,31.371483],[-96.920115,31.373178],[-96.911393,31.37403],[-96.904647,31.377524],[-96.905376,31.380504],[-96.904964,31.380697]]]}},{"type":"Feature","properties":{"PRECINCT":"103","VTD":"0103"},"geometry":{"type":"Polygon","coordinates":[[[-96.749948,31.448429],[-96.712542,31.39204],[-96.71314,31.391355],[-96.713384,31.39152],[-96.713961,31.391383],[-96.714454,31.391729],[-96.714146,31.390575],[-96.714826,31.390976],[-96.715159,31.390921],[-96.715223,31.390442],[-96.714236,31.389827],[-96.714607,31.389387],[-96.71519,31.389689],[-96.71562,31.389052],[-96.715831,31.389612],[-96.716389,31.389909],[-96.716722,31.389848],[-96.716728,31.389304],[-96.715863,31.38892],[-96.716235,31.38876],[-96.71635,31.388265],[-96.71708,31.388579],[-96.71749,31.387721],[-96.717215,31.387583],[-96.717029,31.387847],[-96.716811,31.387727],[-96.717484,31.386957],[-96.717291,31.386484],[-96.717599,31.386253],[-96.71822,31.386643],[-96.718009,31.387023],[-96.718522,31.386643],[-96.719688,31.386407],[-96.720098,31.387072],[-96.720784,31.387016],[-96.720521,31.387324],[-96.720521,31.388198],[-96.720726,31.388369],[-96.721277,31.388017],[-96.721188,31.387626],[-96.721367,31.387538],[-96.722508,31.387736],[-96.722687,31.387972],[-96.723424,31.387538],[-96.723828,31.387719],[-96.724065,31.387499],[-96.724276,31.387681],[-96.724866,31.387032],[-96.725808,31.387504],[-96.725872,31.387059],[-96.726346,31.387328],[-96.726551,31.387037],[-96.726974,31.387246],[-96.727576,31.386795],[-96.727461,31.387361],[-96.728114,31.387344],[-96.728236,31.387009],[-96.728256,31.387822],[-96.72848,31.387987],[-96.728749,31.387894],[-96.728871,31.387492],[-96.72955,31.387866],[-96.730223,31.387563],[-96.730088,31.387987],[-96.730774,31.38775],[-96.731171,31.388184],[-96.731485,31.388003],[-96.731408,31.387656],[-96.731709,31.387178],[-96.731921,31.387953],[-96.732991,31.387612],[-96.733517,31.388189],[-96.734004,31.388123],[-96.733805,31.387606],[-96.733343,31.387678],[-96.733228,31.387518],[-96.733958,31.386853],[-96.73365,31.385594],[-96.734989,31.385544],[-96.735489,31.385225],[-96.73545,31.384896],[-96.73463,31.38428],[-96.734681,31.384005],[-96.735213,31.384137],[-96.735418,31.383967],[-96.734841,31.38317],[-96.736422,31.381448],[-96.736179,31.38091],[-96.735583,31.380839],[-96.735243,31.380432],[-96.735518,31.378651],[-96.73724,31.376319],[-96.737989,31.37567],[-96.738912,31.375373],[-96.739483,31.374905],[-96.739264,31.373124],[-96.740737,31.372046],[-96.740609,31.371611],[-96.73959,31.371458],[-96.739551,31.370776],[-96.739955,31.370738],[-96.740743,31.369979],[-96.741011,31.368775],[-96.741882,31.368923],[-96.742305,31.368565],[-96.741888,31.367768],[-96.742106,31.367422],[-96.742689,31.367471],[-96.742894,31.366922],[-96.74233,31.366586],[-96.742362,31.366295],[-96.742945,31.366234],[-96.743822,31.365349],[-96.745238,31.365733],[-96.745154,31.36492],[-96.745378,31.364414],[-96.746518,31.363759],[-96.747402,31.363534],[-96.747812,31.362967],[-96.747504,31.362264],[-96.747696,31.361769],[-96.746676,31.360439],[-96.74715,31.35951],[-96.746554,31.35863],[-96.746611,31.357525],[-96.747431,31.357602],[-96.747866,31.35802],[-96.74834,31.357871],[-96.748852,31.357041],[-96.750508,31.355547],[-96.749857,31.355276],[-96.750297,31.354651],[-96.750048,31.354029],[-96.750259,31.35376],[-96.751067,31.353282],[-96.751484,31.352678],[-96.752323,31.352926],[-96.753572,31.352162],[-96.753752,31.351013],[-96.754406,31.350552],[-96.75351,31.349111],[-96.753856,31.348628],[-96.754805,31.348205],[-96.755113,31.34682],[-96.754716,31.346105],[-96.755709,31.345891],[-96.75562,31.345116],[-96.756319,31.344446],[-96.755884,31.343907],[-96.755231,31.343582],[-96.755852,31.343274],[-96.755539,31.342785],[-96.756058,31.342214],[-96.757249,31.341708],[-96.757032,31.340576],[-96.757391,31.340384],[-96.757788,31.340609],[-96.758416,31.340461],[-96.758173,31.339889],[-96.758955,31.338389],[-96.760589,31.337329],[-96.760423,31.336532],[-96.760622,31.336059],[-96.760379,31.335833],[-96.760545,31.335471],[-96.759713,31.335206],[-96.759623,31.334706],[-96.760443,31.334514],[-96.761507,31.333261],[-96.762026,31.333228],[-96.762603,31.332789],[-96.763358,31.332707],[-96.763564,31.331987],[-96.763436,31.33119],[-96.764121,31.331184],[-96.764474,31.330904],[-96.764275,31.330519],[-96.763654,31.330211],[-96.763552,31.329628],[-96.764321,31.329095],[-96.76459,31.328414],[-96.76525,31.328607],[-96.765577,31.328414],[-96.765251,31.327117],[-96.765917,31.327112],[-96.766365,31.32681],[-96.767121,31.326925],[-96.767691,31.326414],[-96.768549,31.326453],[-96.769228,31.326816],[-96.770259,31.325662],[-96.77017,31.324997],[-96.770708,31.32426],[-96.770773,31.323634],[-96.770427,31.323034],[-96.770645,31.32249],[-96.77046,31.321759],[-96.771382,31.321611],[-96.772958,31.320688],[-96.773362,31.319869],[-96.773919,31.319721],[-96.77454,31.3191],[-96.775059,31.319391],[-96.775827,31.319293],[-96.77607,31.319518],[-96.776192,31.319958],[-96.775859,31.320458],[-96.776006,31.32087],[-96.777953,31.320349],[-96.778273,31.31986],[-96.779061,31.319992],[-96.77981,31.319844],[-96.780668,31.320119],[-96.781763,31.31974],[-96.782403,31.31985],[-96.783748,31.318707],[-96.783979,31.318174],[-96.784914,31.317267],[-96.786951,31.316481],[-96.787002,31.315799],[-96.787751,31.315214],[-96.795539,31.318922],[-96.798167,31.319768],[-96.801094,31.319995],[-96.806924,31.319941],[-96.818784,31.318467],[-96.845989,31.311366],[-96.846315,31.312484],[-96.846841,31.313199],[-96.847212,31.312853],[-96.847506,31.313133],[-96.847717,31.312281],[-96.848281,31.312209],[-96.848659,31.312506],[-96.848531,31.313671],[-96.849281,31.314375],[-96.849005,31.315084],[-96.849569,31.315568],[-96.849666,31.316486],[-96.850024,31.31698],[-96.849832,31.317404],[-96.851875,31.317645],[-96.852657,31.318041],[-96.853163,31.319069],[-96.852362,31.319371],[-96.853426,31.320196],[-96.85292,31.320707],[-96.853593,31.321042],[-96.853074,31.321625],[-96.853446,31.322285],[-96.854093,31.322153],[-96.854868,31.322587],[-96.854899,31.321927],[-96.855226,31.321679],[-96.856123,31.322113],[-96.856635,31.323202],[-96.856207,31.323889],[-96.85629,31.324147],[-96.857014,31.324499],[-96.857008,31.325236],[-96.857546,31.325357],[-96.857719,31.325675],[-96.857693,31.326643],[-96.857194,31.327171],[-96.85715,31.328094],[-96.856631,31.328644],[-96.856631,31.329172],[-96.856913,31.329832],[-96.857554,31.330084],[-96.857913,31.331134],[-96.859047,31.332206],[-96.859561,31.334773],[-96.859836,31.334778],[-96.85999,31.335531],[-96.861528,31.336323],[-96.861573,31.336647],[-96.861233,31.336521],[-96.860913,31.336702],[-96.8606,31.338637],[-96.861594,31.340418],[-96.862516,31.340632],[-96.862376,31.341825],[-96.861857,31.341924],[-96.861543,31.342458],[-96.86212,31.343365],[-96.865746,31.345024],[-96.866297,31.344963],[-96.866912,31.344451],[-96.8672,31.344798],[-96.866925,31.344611],[-96.866541,31.345425],[-96.865913,31.345788],[-96.866824,31.347624],[-96.868131,31.348602],[-96.868663,31.348332],[-96.869143,31.348392],[-96.869669,31.349426],[-96.870598,31.349596],[-96.870822,31.349892],[-96.871162,31.349777],[-96.87115,31.350651],[-96.87127,31.350922],[-96.871551,31.3508],[-96.87156,31.351096],[-96.870823,31.351833],[-96.870998,31.354191],[-96.870767,31.354978],[-96.871338,31.355252],[-96.871895,31.355945],[-96.871627,31.356335],[-96.871979,31.356989],[-96.872819,31.357484],[-96.871851,31.357435],[-96.871634,31.35766],[-96.872084,31.360832],[-96.870964,31.362223],[-96.871169,31.362339],[-96.872834,31.361821],[-96.873289,31.361876],[-96.874154,31.362508],[-96.874289,31.363552],[-96.874546,31.363844],[-96.874998,31.363906],[-96.87596,31.363428],[-96.878355,31.364644],[-96.877989,31.365716],[-96.878475,31.36681],[-96.878359,31.367585],[-96.878788,31.367976],[-96.879166,31.36797],[-96.878967,31.368624],[-96.878391,31.368756],[-96.878076,31.369201],[-96.878159,31.369746],[-96.878889,31.370604],[-96.878548,31.372385],[-96.879362,31.372869],[-96.881527,31.372787],[-96.881456,31.373661],[-96.88193,31.374321],[-96.881539,31.374876],[-96.881608,31.375133],[-96.882799,31.375782],[-96.883895,31.375859],[-96.88424,31.376299],[-96.8839,31.377564],[-96.884034,31.379306],[-96.88436,31.379411],[-96.88536,31.379087],[-96.88586,31.379538],[-96.886001,31.37901],[-96.88677,31.379126],[-96.887141,31.38005],[-96.886487,31.381726],[-96.88776,31.383794],[-96.90354,31.376161],[-96.904964,31.380697],[-96.905331,31.380593],[-96.904647,31.377524],[-96.911516,31.374],[-96.920115,31.373178],[-96.923193,31.371483],[-96.923695,31.37187],[-96.923763,31.373307],[-96.926165,31.374622],[-96.926091,31.374116],[-96.926302,31.373901],[-96.927475,31.37389],[-96.92745,31.373264],[-96.928507,31.372324],[-96.928437,31.372076],[-96.929071,31.371807],[-96.929244,31.371208],[-96.929994,31.371263],[-96.930141,31.370834],[-96.929968,31.370455],[-96.930474,31.370438],[-96.930583,31.3698],[-96.931487,31.369443],[-96.93173,31.369812],[-96.93198,31.369817],[-96.932108,31.369377],[-96.932704,31.368883],[-96.933134,31.368866],[-96.933352,31.368586],[-96.933627,31.368707],[-96.933839,31.368388],[-96.934838,31.36813],[-96.935293,31.367723],[-96.9361,31.367734],[-96.936671,31.36719],[-96.937023,31.367459],[-96.937324,31.367091],[-96.938035,31.36719],[-96.938894,31.365903],[-96.939362,31.364578],[-96.940714,31.363155],[-96.941245,31.363468],[-96.942059,31.363501],[-96.943744,31.362869],[-96.946608,31.362423],[-96.946992,31.361714],[-96.948402,31.360601],[-96.955835,31.36679],[-96.95663,31.367244],[-96.956552,31.367554],[-96.957021,31.368315],[-96.960795,31.372396],[-96.961087,31.373404],[-96.963192,31.374716],[-96.965704,31.375813],[-96.969869,31.376838],[-96.974126,31.377296],[-96.977491,31.376663],[-96.97863,31.376124],[-96.982464,31.37295],[-96.984548,31.371874],[-96.987583,31.370708],[-96.992797,31.370117],[-96.99672,31.370497],[-96.998875,31.371349],[-97.004218,31.375236],[-97.01084,31.378166],[-97.0122,31.379073],[-97.013741,31.380871],[-97.014444,31.38222],[-97.015097,31.384637],[-97.015236,31.386535],[-97.014966,31.387639],[-97.014411,31.38848],[-97.011235,31.390773],[-97.009189,31.391425],[-97.003933,31.391998],[-96.999979,31.393241],[-96.99755,31.394712],[-96.995101,31.397551],[-96.994131,31.39958],[-96.992486,31.404664],[-96.992658,31.406072],[-96.994157,31.40819],[-96.995881,31.408609],[-96.997802,31.408437],[-96.999786,31.407657],[-97.004747,31.406897],[-97.010176,31.406983],[-97.012981,31.407825],[-97.014963,31.408744],[-97.016142,31.409497],[-97.017623,31.410927],[-96.979774,31.429857],[-96.932944,31.453876],[-96.887235,31.47756],[-96.870129,31.486788],[-96.857726,31.493057],[-96.85098,31.496794],[-96.801123,31.522269],[-96.749948,31.448429]]]}},{"type":"Feature","properties":{"PRECINCT":"201","VTD":"0201"},"geometry":{"type":"Polygon","coordinates":[[[-96.712542,31.39204],[-96.70134,31.375175],[-96.596862,31.2209],[-96.620843,31.209053],[-96.625151,31.206542],[-96.678404,31.179673],[-96.69416,31.172174],[-96.704165,31.166714],[-96.729054,31.154183],[-96.72919,31.153927],[-96.732025,31.152772],[-96.750257,31.143482],[-96.78772,31.125441],[-96.791322,31.123765],[-96.792411,31.123475],[-96.830497,31.10522],[-96.829398,31.108621],[-96.829603,31.110411],[-96.872204,31.088683],[-96.873491,31.090103],[-96.875343,31.092747],[-96.883171,31.104461],[-96.882458,31.104828],[-96.88846,31.113066],[-96.890848,31.115195],[-96.893731,31.121007],[-96.857628,31.139509],[-96.855157,31.135894],[-96.854542,31.133653],[-96.854101,31.132941],[-96.85237,31.126643],[-96.850095,31.12146],[-96.824664,31.134617],[-96.825248,31.137843],[-96.826079,31.139311],[-96.825798,31.141318],[-96.826348,31.14267],[-96.827499,31.143899],[-96.828386,31.144375],[-96.829718,31.144684],[-96.835086,31.144336],[-96.837324,31.143888],[-96.841102,31.143832],[-96.844716,31.144157],[-96.848412,31.144808],[-96.851235,31.146526],[-96.852359,31.147688],[-96.852961,31.148787],[-96.852883,31.149487],[-96.853322,31.151242],[-96.854107,31.152785],[-96.855173,31.153797],[-96.863281,31.158696],[-96.865803,31.159457],[-96.867156,31.160113],[-96.868407,31.16042],[-96.869411,31.160408],[-96.874919,31.162544],[-96.878578,31.165445],[-96.880245,31.169124],[-96.880407,31.170174],[-96.879435,31.170932],[-96.876856,31.171396],[-96.874902,31.172137],[-96.872856,31.173627],[-96.872531,31.174044],[-96.872019,31.175851],[-96.872447,31.179161],[-96.873976,31.182075],[-96.875174,31.18355],[-96.876883,31.185032],[-96.881267,31.187623],[-96.887478,31.188893],[-96.888457,31.189381],[-96.889094,31.189996],[-96.891024,31.194849],[-96.892118,31.196897],[-96.892028,31.198081],[-96.891397,31.199208],[-96.891548,31.200309],[-96.892077,31.201243],[-96.89325,31.202085],[-96.89325,31.202466],[-96.893459,31.202556],[-96.893951,31.21554],[-96.887028,31.218732],[-96.86025,31.231943],[-96.861063,31.23261],[-96.861531,31.235023],[-96.860886,31.237228],[-96.859377,31.239741],[-96.857004,31.242336],[-96.856,31.243013],[-96.855744,31.243645],[-96.855943,31.244371],[-96.856609,31.245305],[-96.858119,31.246344],[-96.859732,31.247058],[-96.860564,31.247778],[-96.860814,31.248316],[-96.860929,31.250001],[-96.863374,31.251484],[-96.863336,31.252325],[-96.861712,31.255141],[-96.860957,31.255828],[-96.860868,31.256477],[-96.859454,31.257368],[-96.857598,31.257039],[-96.856984,31.257523],[-96.856677,31.258166],[-96.857004,31.258798],[-96.856914,31.259167],[-96.858041,31.259595],[-96.858937,31.260156],[-96.859219,31.260595],[-96.860032,31.260617],[-96.860576,31.261112],[-96.860704,31.26181],[-96.859399,31.263003],[-96.859073,31.26402],[-96.8586,31.264218],[-96.857365,31.264065],[-96.85668,31.264395],[-96.856584,31.264835],[-96.857314,31.265153],[-96.857577,31.265544],[-96.856969,31.266825],[-96.856342,31.267111],[-96.854557,31.267342],[-96.852887,31.268497],[-96.852759,31.269234],[-96.853239,31.269487],[-96.853092,31.269921],[-96.854648,31.270668],[-96.854488,31.270943],[-96.853995,31.271075],[-96.853381,31.271917],[-96.853765,31.272406],[-96.854744,31.272642],[-96.854988,31.273115],[-96.854924,31.273626],[-96.854112,31.274753],[-96.853785,31.274748],[-96.853887,31.274148],[-96.853375,31.273703],[-96.853081,31.273725],[-96.852294,31.274116],[-96.852057,31.274985],[-96.851603,31.275496],[-96.851699,31.276178],[-96.851501,31.276414],[-96.850733,31.27648],[-96.849875,31.275898],[-96.848473,31.27625],[-96.848006,31.277311],[-96.847392,31.277658],[-96.847539,31.278246],[-96.847373,31.278493],[-96.843315,31.279973],[-96.842951,31.280908],[-96.841242,31.282156],[-96.840903,31.283388],[-96.841915,31.284102],[-96.841832,31.284949],[-96.842062,31.285526],[-96.84148,31.286147],[-96.841589,31.286862],[-96.840994,31.288176],[-96.838882,31.289281],[-96.838549,31.288644],[-96.837729,31.288446],[-96.835777,31.290134],[-96.834446,31.292141],[-96.832206,31.293054],[-96.831367,31.292955],[-96.830016,31.293183],[-96.827848,31.294063],[-96.827169,31.294742],[-96.822029,31.295506],[-96.820609,31.29603],[-96.818513,31.295193],[-96.818199,31.294886],[-96.816592,31.294979],[-96.815484,31.294539],[-96.814709,31.29344],[-96.814601,31.29234],[-96.81366,31.292065],[-96.812693,31.292236],[-96.812206,31.292884],[-96.811278,31.29278],[-96.808948,31.294808],[-96.808244,31.294286],[-96.806925,31.294511],[-96.806739,31.294764],[-96.806906,31.295528],[-96.806694,31.295677],[-96.805497,31.295275],[-96.805145,31.295457],[-96.804863,31.296177],[-96.80268,31.296259],[-96.802814,31.297677],[-96.80106,31.298018],[-96.80099,31.299079],[-96.799946,31.299051],[-96.799389,31.300211],[-96.799043,31.300195],[-96.798698,31.299771],[-96.798461,31.299887],[-96.798307,31.300568],[-96.798608,31.301305],[-96.797999,31.301976],[-96.797807,31.302855],[-96.796815,31.302839],[-96.796341,31.303328],[-96.7954,31.30297],[-96.795022,31.303872],[-96.793632,31.304004],[-96.793216,31.30479],[-96.792384,31.304899],[-96.792377,31.305724],[-96.791743,31.305999],[-96.791461,31.306554],[-96.790168,31.306306],[-96.790097,31.30679],[-96.791211,31.308055],[-96.791275,31.308456],[-96.790942,31.308841],[-96.791313,31.309171],[-96.791262,31.309434],[-96.790942,31.310287],[-96.789917,31.310875],[-96.789923,31.311133],[-96.790544,31.311639],[-96.789577,31.312172],[-96.789391,31.313816],[-96.788264,31.31387],[-96.788226,31.314728],[-96.787073,31.315701],[-96.786951,31.316481],[-96.784914,31.317267],[-96.783979,31.318174],[-96.783748,31.318707],[-96.782403,31.31985],[-96.781763,31.31974],[-96.780668,31.320119],[-96.77981,31.319844],[-96.779061,31.319992],[-96.778273,31.31986],[-96.777953,31.320349],[-96.776006,31.32087],[-96.775859,31.320458],[-96.776192,31.319958],[-96.77607,31.319518],[-96.775827,31.319293],[-96.775059,31.319391],[-96.77454,31.3191],[-96.773919,31.319721],[-96.773362,31.319869],[-96.772958,31.320688],[-96.771382,31.321611],[-96.77046,31.321759],[-96.770645,31.32249],[-96.770427,31.323034],[-96.770773,31.323634],[-96.770708,31.32426],[-96.77017,31.324997],[-96.770259,31.325662],[-96.769228,31.326816],[-96.768549,31.326453],[-96.767691,31.326414],[-96.767121,31.326925],[-96.766365,31.32681],[-96.765917,31.327112],[-96.765251,31.327117],[-96.765577,31.328414],[-96.76525,31.328607],[-96.76459,31.328414],[-96.764321,31.329095],[-96.763552,31.329628],[-96.763654,31.330211],[-96.764275,31.330519],[-96.764474,31.330904],[-96.764121,31.331184],[-96.763436,31.33119],[-96.763564,31.331987],[-96.763358,31.332707],[-96.762603,31.332789],[-96.762026,31.333228],[-96.761507,31.333261],[-96.760443,31.334514],[-96.759623,31.334706],[-96.759713,31.335206],[-96.760545,31.335471],[-96.760379,31.335833],[-96.760622,31.336059],[-96.760423,31.336532],[-96.760589,31.337329],[-96.758955,31.338389],[-96.758173,31.339889],[-96.758416,31.340461],[-96.757788,31.340609],[-96.757391,31.340384],[-96.757032,31.340576],[-96.757249,31.341708],[-96.756058,31.342214],[-96.755539,31.342785],[-96.755852,31.343274],[-96.755231,31.343582],[-96.755884,31.343907],[-96.756319,31.344446],[-96.75562,31.345116],[-96.755709,31.345891],[-96.754716,31.346105],[-96.755113,31.34682],[-96.754805,31.348205],[-96.753856,31.348628],[-96.75351,31.349111],[-96.754406,31.350552],[-96.753752,31.351013],[-96.753572,31.352162],[-96.752323,31.352926],[-96.751484,31.352678],[-96.751067,31.353282],[-96.750259,31.35376],[-96.750048,31.354029],[-96.750297,31.354651],[-96.749857,31.355276],[-96.750508,31.355547],[-96.748852,31.357041],[-96.74834,31.357871],[-96.747866,31.35802],[-96.747431,31.357602],[-96.746611,31.357525],[-96.746554,31.35863],[-96.74715,31.35951],[-96.746676,31.360439],[-96.747696,31.361769],[-96.747504,31.362264],[-96.747812,31.362967],[-96.747402,31.363534],[-96.746518,31.363759],[-96.745378,31.364414],[-96.745154,31.36492],[-96.745238,31.365733],[-96.743822,31.365349],[-96.742945,31.366234],[-96.742362,31.366295],[-96.74233,31.366586],[-96.742894,31.366922],[-96.742689,31.367471],[-96.742106,31.367422],[-96.741888,31.367768],[-96.742305,31.368565],[-96.741882,31.368923],[-96.741011,31.368775],[-96.740743,31.369979],[-96.739955,31.370738],[-96.739551,31.370776],[-96.73959,31.371458],[-96.740609,31.371611],[-96.740737,31.372046],[-96.739264,31.373124],[-96.739483,31.374905],[-96.738912,31.375373],[-96.737989,31.37567],[-96.73724,31.376319],[-96.735518,31.378651],[-96.735243,31.380432],[-96.735583,31.380839],[-96.736179,31.38091],[-96.736422,31.381448],[-96.734841,31.38317],[-96.735418,31.383967],[-96.735213,31.384137],[-96.734681,31.384005],[-96.73463,31.38428],[-96.73545,31.384896],[-96.735489,31.385225],[-96.734989,31.385544],[-96.73365,31.385594],[-96.733958,31.386853],[-96.733228,31.387518],[-96.733343,31.387678],[-96.733805,31.387606],[-96.734004,31.388123],[-96.733517,31.388189],[-96.732991,31.387612],[-96.731921,31.387953],[-96.731709,31.387178],[-96.731408,31.387656],[-96.731485,31.388003],[-96.731171,31.388184],[-96.730774,31.38775],[-96.730088,31.387987],[-96.730223,31.387563],[-96.72955,31.387866],[-96.728871,31.387492],[-96.728749,31.387894],[-96.72848,31.387987],[-96.728256,31.387822],[-96.728236,31.387009],[-96.728114,31.387344],[-96.727461,31.387361],[-96.727576,31.386795],[-96.726974,31.387246],[-96.726551,31.387037],[-96.726346,31.387328],[-96.725872,31.387059],[-96.725808,31.387504],[-96.724866,31.387032],[-96.724276,31.387681],[-96.724065,31.387499],[-96.723828,31.387719],[-96.723424,31.387538],[-96.722687,31.387972],[-96.722508,31.387736],[-96.721367,31.387538],[-96.721188,31.387626],[-96.721277,31.388017],[-96.720726,31.388369],[-96.720521,31.388198],[-96.720521,31.387324],[-96.720784,31.387016],[-96.720098,31.387072],[-96.719688,31.386407],[-96.718522,31.386643],[-96.718009,31.387023],[-96.71822,31.386643],[-96.717599,31.386253],[-96.717291,31.386484],[-96.717484,31.386957],[-96.716811,31.387727],[-96.717029,31.387847],[-96.717215,31.387583],[-96.71749,31.387721],[-96.71708,31.388579],[-96.71635,31.388265],[-96.716235,31.38876],[-96.715863,31.38892],[-96.716728,31.389304],[-96.716722,31.389848],[-96.716389,31.389909],[-96.715831,31.389612],[-96.715517,31.389046],[-96.71519,31.389689],[-96.714684,31.389365],[-96.714236,31.389827],[-96.715255,31.39053],[-96.715011,31.391003],[-96.714108,31.390618],[-96.714454,31.391729],[-96.713961,31.391383],[-96.713384,31.39152],[-96.71314,31.391355],[-96.712542,31.39204]]]}},{"type":"Feature","properties":{"PRECINCT":"202","VTD":"0202"},"geometry":{"type":"Polygon","coordinates":[[[-96.799673,31.31996],[-96.798167,31.319768],[-96.795539,31.318922],[-96.787751,31.315214],[-96.788226,31.314728],[-96.788264,31.31387],[-96.789391,31.313816],[-96.789577,31.312172],[-96.790544,31.311639],[-96.789923,31.311133],[-96.789917,31.310875],[-96.790942,31.310287],[-96.79132,31.309242],[-96.790942,31.308841],[-96.791275,31.308456],[-96.791211,31.308055],[-96.790097,31.30679],[-96.790168,31.306306],[-96.791461,31.306554],[-96.791743,31.305999],[-96.792377,31.305724],[-96.792384,31.304899],[-96.793216,31.30479],[-96.793632,31.304004],[-96.795022,31.303872],[-96.7954,31.30297],[-96.796341,31.303328],[-96.796815,31.302839],[-96.797807,31.302855],[-96.797999,31.301976],[-96.798608,31.301305],[-96.798307,31.300568],[-96.798461,31.299887],[-96.798698,31.299771],[-96.799043,31.300195],[-96.799389,31.300211],[-96.799946,31.299051],[-96.80099,31.299079],[-96.80106,31.298018],[-96.802814,31.297677],[-96.80268,31.296259],[-96.804863,31.296177],[-96.805145,31.295457],[-96.805497,31.295275],[-96.806694,31.295677],[-96.806912,31.295457],[-96.806765,31.294654],[-96.807514,31.294319],[-96.808244,31.294286],[-96.808948,31.294808],[-96.810606,31.293527],[-96.811086,31.292901],[-96.811451,31.29273],[-96.812206,31.292884],[-96.812763,31.292203],[-96.81366,31.292065],[-96.814601,31.29234],[-96.814934,31.293901],[-96.815881,31.294759],[-96.816592,31.294979],[-96.818199,31.294886],[-96.819527,31.295666],[-96.82086,31.296014],[-96.822029,31.295506],[-96.827169,31.294742],[-96.827848,31.294063],[-96.830016,31.293183],[-96.83275,31.292911],[-96.834536,31.29208],[-96.835777,31.290134],[-96.837518,31.288556],[-96.838178,31.288418],[-96.838638,31.288737],[-96.838882,31.289281],[-96.840994,31.288176],[-96.841589,31.286862],[-96.84148,31.286147],[-96.842062,31.285443],[-96.841832,31.284949],[-96.841915,31.284102],[-96.840993,31.283564],[-96.84098,31.282711],[-96.841242,31.282156],[-96.843219,31.2806],[-96.843315,31.279973],[-96.847373,31.278493],[-96.847539,31.278246],[-96.847392,31.277658],[-96.848006,31.277311],[-96.848473,31.27625],[-96.849875,31.275898],[-96.850733,31.27648],[-96.851501,31.276414],[-96.851699,31.276178],[-96.851603,31.275496],[-96.852511,31.273962],[-96.853375,31.273703],[-96.853887,31.274148],[-96.853785,31.274748],[-96.853984,31.27483],[-96.854924,31.273626],[-96.854744,31.272642],[-96.853765,31.272406],[-96.853387,31.272032],[-96.853995,31.271075],[-96.854488,31.270943],[-96.854648,31.270668],[-96.853092,31.269921],[-96.853239,31.269487],[-96.852759,31.269234],[-96.852887,31.268497],[-96.854557,31.267342],[-96.856342,31.267111],[-96.856969,31.266825],[-96.857577,31.265544],[-96.857314,31.265153],[-96.856584,31.264835],[-96.85668,31.264395],[-96.857365,31.264065],[-96.8586,31.264218],[-96.859073,31.26402],[-96.859399,31.263003],[-96.860704,31.26181],[-96.860576,31.261112],[-96.860032,31.260617],[-96.859219,31.260595],[-96.858937,31.260156],[-96.858041,31.259595],[-96.856914,31.259167],[-96.857004,31.258798],[-96.856671,31.258282],[-96.856811,31.257787],[-96.857694,31.257011],[-96.859275,31.257379],[-96.860047,31.25699],[-96.864804,31.261873],[-96.871826,31.272316],[-96.874908,31.278125],[-96.87535,31.279825],[-96.875334,31.284671],[-96.874545,31.302815],[-96.877175,31.303388],[-96.880776,31.303328],[-96.881113,31.303284],[-96.881045,31.301876],[-96.884778,31.30185],[-96.884728,31.302353],[-96.888127,31.302296],[-96.888131,31.302032],[-96.889269,31.302015],[-96.88928,31.302272],[-96.890064,31.302255],[-96.890051,31.30176],[-96.892571,31.300445],[-96.894174,31.300455],[-96.894167,31.301222],[-96.897977,31.3012],[-96.897988,31.300444],[-96.899343,31.300417],[-96.899343,31.300202],[-96.899966,31.300179],[-96.901176,31.301623],[-96.900996,31.302879],[-96.902695,31.302735],[-96.904555,31.305128],[-96.904774,31.306274],[-96.907952,31.305527],[-96.908021,31.305722],[-96.90788,31.306134],[-96.908251,31.307371],[-96.907419,31.308069],[-96.907546,31.309575],[-96.907936,31.310296],[-96.907629,31.310867],[-96.908006,31.31134],[-96.907776,31.312066],[-96.907909,31.314567],[-96.90753,31.314873],[-96.901213,31.314954],[-96.90058,31.314639],[-96.897984,31.314224],[-96.897992,31.306295],[-96.889795,31.306298],[-96.889759,31.307477],[-96.890017,31.307476],[-96.889966,31.312448],[-96.886703,31.31248],[-96.886573,31.312269],[-96.884696,31.312221],[-96.884749,31.311679],[-96.875028,31.311619],[-96.875851,31.31371],[-96.877353,31.3158],[-96.877111,31.315972],[-96.875723,31.314255],[-96.874672,31.311589],[-96.874387,31.309215],[-96.874491,31.306317],[-96.866583,31.306225],[-96.863355,31.3068],[-96.818784,31.318467],[-96.806924,31.319941],[-96.799673,31.31996]]]}},{"type":"Feature","properties":{"PRECINCT":"203","VTD":"0203"},"geometry":{"type":"Polygon","coordinates":[[[-96.904555,31.305128],[-96.902695,31.302735],[-96.900996,31.302879],[-96.901176,31.301623],[-96.899966,31.300179],[-96.899343,31.300202],[-96.899343,31.300417],[-96.897988,31.300444],[-96.897977,31.3012],[-96.894167,31.301222],[-96.894174,31.300455],[-96.892571,31.300445],[-96.890051,31.30176],[-96.890064,31.302255],[-96.88928,31.302272],[-96.889269,31.302015],[-96.888131,31.302032],[-96.888127,31.302296],[-96.884728,31.302353],[-96.884778,31.30185],[-96.881045,31.301876],[-96.881113,31.303284],[-96.880776,31.303328],[-96.877175,31.303388],[-96.874545,31.302815],[-96.875334,31.284671],[-96.87535,31.279825],[-96.874908,31.278125],[-96.871826,31.272316],[-96.865302,31.262538],[-96.860047,31.25699],[-96.860951,31.256389],[-96.860957,31.255828],[-96.861712,31.255141],[-96.863336,31.252325],[-96.863374,31.251484],[-96.860929,31.250001],[-96.860814,31.248316],[-96.860564,31.247778],[-96.859732,31.247058],[-96.858119,31.246344],[-96.856609,31.245305],[-96.855943,31.244371],[-96.855744,31.243464],[-96.859377,31.239741],[-96.860886,31.237228],[-96.861531,31.235023],[-96.861063,31.23261],[-96.86025,31.231943],[-96.887028,31.218732],[-96.893951,31.21554],[-96.893715,31.207381],[-96.893459,31.202556],[-96.89325,31.202466],[-96.89325,31.202085],[-96.895125,31.202636],[-96.898146,31.202713],[-96.901774,31.201802],[-96.904773,31.200665],[-96.906175,31.200484],[-96.906791,31.200582],[-96.907615,31.201075],[-96.907945,31.201877],[-96.907444,31.203199],[-96.906458,31.204244],[-96.906118,31.205787],[-96.905288,31.207653],[-96.905432,31.210544],[-96.904502,31.212781],[-96.904715,31.213586],[-96.905274,31.214381],[-96.906005,31.214919],[-96.908016,31.215668],[-96.90911,31.215593],[-96.910351,31.214865],[-96.911638,31.215109],[-96.914513,31.214867],[-96.914894,31.215147],[-96.917835,31.214466],[-96.920632,31.214408],[-96.922479,31.214715],[-96.924437,31.215427],[-96.925227,31.215261],[-96.9275,31.215715],[-96.930595,31.217376],[-96.932826,31.219551],[-96.934308,31.222207],[-96.93702,31.228168],[-96.93704,31.229599],[-96.936491,31.231103],[-96.934667,31.233969],[-96.933549,31.234884],[-96.933425,31.235389],[-96.932411,31.236383],[-96.931221,31.236587],[-96.930608,31.236216],[-96.929072,31.236475],[-96.923077,31.238006],[-96.921665,31.238632],[-96.919933,31.240124],[-96.919507,31.241091],[-96.92015,31.244696],[-96.920374,31.245386],[-96.921038,31.246213],[-96.921852,31.250553],[-96.922577,31.252632],[-96.926623,31.254918],[-96.92899,31.256576],[-96.930653,31.257284],[-96.932465,31.257875],[-96.935477,31.258117],[-96.935924,31.260888],[-96.935729,31.261947],[-96.935942,31.264807],[-96.936407,31.266447],[-96.937532,31.268885],[-96.939063,31.271031],[-96.940767,31.272823],[-96.94683,31.278078],[-96.947821,31.278462],[-96.948914,31.278564],[-96.950521,31.278403],[-96.952858,31.277512],[-96.953568,31.276488],[-96.953869,31.274619],[-96.953384,31.273628],[-96.953343,31.272516],[-96.953728,31.271949],[-96.954658,31.271383],[-96.956721,31.271181],[-96.959048,31.271808],[-96.961354,31.273406],[-96.965642,31.283896],[-96.968571,31.288026],[-96.964178,31.289851],[-96.905672,31.306156],[-96.904774,31.306274],[-96.904555,31.305128]]]}},{"type":"Feature","properties":{"PRECINCT":"301","VTD":"0301"},"geometry":{"type":"Polygon","coordinates":[[[-96.959048,31.271808],[-96.956721,31.271181],[-96.954658,31.271383],[-96.953728,31.271949],[-96.953343,31.272516],[-96.953384,31.273628],[-96.953869,31.274619],[-96.953568,31.276488],[-96.952858,31.277512],[-96.950521,31.278403],[-96.948914,31.278564],[-96.947821,31.278462],[-96.94683,31.278078],[-96.940767,31.272823],[-96.939063,31.271031],[-96.937532,31.268885],[-96.936407,31.266447],[-96.935942,31.264807],[-96.935729,31.261947],[-96.935924,31.260888],[-96.935477,31.258117],[-96.932465,31.257875],[-96.930653,31.257284],[-96.92899,31.256576],[-96.926623,31.254918],[-96.922577,31.252632],[-96.921852,31.250553],[-96.921038,31.246213],[-96.920374,31.245386],[-96.92015,31.244696],[-96.919507,31.241091],[-96.919933,31.240124],[-96.921665,31.238632],[-96.923077,31.238006],[-96.929072,31.236475],[-96.930608,31.236216],[-96.931221,31.236587],[-96.932411,31.236383],[-96.933425,31.235389],[-96.933549,31.234884],[-96.934667,31.233969],[-96.936913,31.23009],[-96.93709,31.228775],[-96.936732,31.22742],[-96.933548,31.220686],[-96.932147,31.218773],[-96.930595,31.217376],[-96.929432,31.216669],[-96.92979,31.216307],[-96.926976,31.214959],[-96.925249,31.214822],[-96.923848,31.213464],[-96.921789,31.212353],[-96.920983,31.212259],[-96.919467,31.212704],[-96.918238,31.21332],[-96.91781,31.21399],[-96.916895,31.214435],[-96.917375,31.214155],[-96.916658,31.214089],[-96.915846,31.214562],[-96.914848,31.214798],[-96.914656,31.214583],[-96.91337,31.214754],[-96.912596,31.214566],[-96.910325,31.214698],[-96.908566,31.215456],[-96.907773,31.215423],[-96.906007,31.214697],[-96.905227,31.213982],[-96.904895,31.213261],[-96.904889,31.212844],[-96.905747,31.211046],[-96.905646,31.20755],[-96.906919,31.205367],[-96.908289,31.203861],[-96.908359,31.203026],[-96.908033,31.202542],[-96.908245,31.201404],[-96.9104,31.200459],[-96.913151,31.200196],[-96.913739,31.199794],[-96.91459,31.200201],[-96.914961,31.200141],[-96.914507,31.198871],[-96.914795,31.198497],[-96.917295,31.199146],[-96.91798,31.199053],[-96.918574,31.199729],[-96.919821,31.200279],[-96.920422,31.201286],[-96.920173,31.201472],[-96.919239,31.20139],[-96.918823,31.201692],[-96.918862,31.202242],[-96.920397,31.202413],[-96.921305,31.202138],[-96.922309,31.202875],[-96.92545,31.202309],[-96.925872,31.202001],[-96.926498,31.202073],[-96.927151,31.20259],[-96.928296,31.202711],[-96.928673,31.20226],[-96.929185,31.202155],[-96.930106,31.202645],[-96.930515,31.203305],[-96.931871,31.203343],[-96.933732,31.204388],[-96.933719,31.204839],[-96.934666,31.204844],[-96.93535,31.205685],[-96.931587,31.199168],[-96.926595,31.184029],[-96.924667,31.181396],[-96.938316,31.174845],[-96.947921,31.169756],[-96.95767,31.164977],[-96.963855,31.161707],[-96.965228,31.160742],[-96.972088,31.157234],[-96.973589,31.155276],[-96.976854,31.153704],[-96.97932,31.153144],[-96.983069,31.151398],[-96.984783,31.149845],[-96.992767,31.145684],[-96.993195,31.145192],[-96.995036,31.140295],[-96.996675,31.138679],[-97.002817,31.135594],[-97.004369,31.137837],[-97.009764,31.135106],[-97.009966,31.134837],[-97.014979,31.13269],[-97.0164,31.13276],[-97.017929,31.133689],[-97.025701,31.144693],[-97.026612,31.145394],[-97.027695,31.14574],[-97.028906,31.145706],[-97.03,31.145283],[-97.057263,31.131239],[-97.063202,31.128464],[-97.063518,31.129098],[-97.0633,31.129692],[-97.064022,31.130005],[-97.064067,31.130582],[-97.064623,31.130747],[-97.064879,31.131066],[-97.065307,31.132644],[-97.064841,31.133463],[-97.065224,31.133815],[-97.065148,31.134343],[-97.065467,31.134458],[-97.065819,31.135052],[-97.066541,31.134486],[-97.067263,31.134744],[-97.067449,31.136636],[-97.066886,31.137153],[-97.067551,31.137631],[-97.067142,31.137939],[-97.067187,31.138588],[-97.068222,31.139539],[-97.069079,31.139731],[-97.069526,31.140638],[-97.070364,31.140589],[-97.071009,31.141095],[-97.072173,31.140853],[-97.072678,31.141226],[-97.073272,31.1411],[-97.073432,31.141754],[-97.074091,31.141556],[-97.074142,31.142046],[-97.074487,31.142166],[-97.074954,31.141936],[-97.075177,31.141281],[-97.076424,31.141243],[-97.076673,31.14072],[-97.077529,31.140379],[-97.078488,31.140528],[-97.078744,31.140912],[-97.079409,31.140401],[-97.079792,31.141011],[-97.080061,31.140824],[-97.08093,31.140824],[-97.08132,31.14194],[-97.08203,31.141638],[-97.082362,31.14216],[-97.083705,31.141528],[-97.083973,31.141593],[-97.083954,31.142077],[-97.084261,31.142231],[-97.085277,31.141131],[-97.086421,31.141346],[-97.086466,31.141857],[-97.087297,31.141873],[-97.087598,31.142225],[-97.087559,31.142605],[-97.08717,31.142945],[-97.087572,31.14344],[-97.088084,31.143066],[-97.087905,31.14267],[-97.088518,31.142198],[-97.088838,31.142291],[-97.088991,31.142769],[-97.089714,31.142906],[-97.090059,31.143748],[-97.090737,31.143181],[-97.09121,31.143209],[-97.091536,31.143665],[-97.091121,31.144671],[-97.091217,31.144979],[-97.092156,31.145155],[-97.092802,31.145726],[-97.093544,31.145473],[-97.09417,31.146281],[-97.094036,31.146556],[-97.093506,31.146578],[-97.093276,31.146815],[-97.093449,31.1477],[-97.093071,31.147981],[-97.093104,31.148234],[-97.093641,31.148349],[-97.09403,31.148057],[-97.09444,31.148129],[-97.094516,31.147535],[-97.095668,31.146976],[-97.091442,31.157531],[-97.090526,31.159219],[-97.075557,31.179856],[-97.07463,31.180785],[-97.072841,31.181946],[-97.041709,31.197889],[-97.039709,31.1992],[-97.038905,31.200386],[-97.043251,31.206617],[-97.038735,31.209139],[-97.038322,31.210029],[-97.038666,31.21025],[-97.038416,31.210561],[-97.039146,31.214346],[-97.040105,31.214977],[-97.039448,31.21584],[-97.036946,31.218983],[-97.033234,31.216791],[-97.036119,31.21311],[-97.036108,31.212371],[-97.035086,31.211703],[-97.030527,31.214072],[-97.028608,31.212807],[-97.024752,31.21722],[-97.0163,31.230237],[-96.98907,31.264568],[-96.975528,31.283394],[-96.973351,31.285618],[-96.972053,31.286475],[-96.968571,31.288026],[-96.965642,31.283896],[-96.961354,31.273406],[-96.959048,31.271808]]]}},{"type":"Feature","properties":{"PRECINCT":"302","VTD":"0302"},"geometry":{"type":"Polygon","coordinates":[[[-96.926472,31.215398],[-96.925227,31.215261],[-96.924437,31.215427],[-96.922479,31.214715],[-96.920632,31.214408],[-96.917835,31.214466],[-96.914894,31.215147],[-96.914513,31.214867],[-96.911638,31.215109],[-96.910351,31.214865],[-96.909395,31.215468],[-96.908563,31.215695],[-96.907045,31.215389],[-96.905451,31.214535],[-96.904812,31.213785],[-96.904502,31.212781],[-96.905432,31.210544],[-96.905288,31.207653],[-96.906118,31.205787],[-96.906458,31.204244],[-96.907792,31.202616],[-96.90794,31.201697],[-96.90773,31.20118],[-96.906634,31.20053],[-96.904813,31.200655],[-96.901774,31.201802],[-96.898063,31.202723],[-96.895125,31.202636],[-96.89312,31.202019],[-96.892077,31.201243],[-96.891548,31.200309],[-96.891397,31.199208],[-96.892028,31.198081],[-96.892118,31.196897],[-96.891024,31.194849],[-96.890076,31.19207],[-96.888909,31.189756],[-96.887478,31.188893],[-96.88324,31.188128],[-96.8806,31.187316],[-96.876073,31.184404],[-96.873976,31.182075],[-96.873409,31.181113],[-96.872447,31.179161],[-96.872057,31.176602],[-96.872101,31.175244],[-96.872546,31.17401],[-96.874902,31.172137],[-96.876856,31.171396],[-96.879435,31.170932],[-96.880407,31.170174],[-96.880245,31.169124],[-96.878578,31.165445],[-96.874919,31.162544],[-96.869411,31.160408],[-96.868407,31.16042],[-96.867156,31.160113],[-96.865803,31.159457],[-96.863281,31.158696],[-96.855173,31.153797],[-96.854107,31.152785],[-96.853322,31.151242],[-96.852883,31.149487],[-96.852961,31.148787],[-96.852359,31.147688],[-96.851235,31.146526],[-96.848412,31.144808],[-96.844716,31.144157],[-96.841102,31.143832],[-96.837324,31.143888],[-96.835086,31.144336],[-96.829885,31.144695],[-96.827905,31.144154],[-96.826661,31.143095],[-96.825959,31.141876],[-96.825747,31.140854],[-96.826079,31.139311],[-96.825248,31.137843],[-96.824664,31.134617],[-96.850095,31.12146],[-96.85237,31.126643],[-96.854101,31.132941],[-96.854542,31.133653],[-96.855157,31.135894],[-96.85742,31.139393],[-96.857859,31.139486],[-96.893731,31.121007],[-96.890848,31.115195],[-96.88846,31.113066],[-96.882458,31.104828],[-96.883171,31.104461],[-96.875343,31.092747],[-96.873491,31.090103],[-96.872204,31.088683],[-96.881001,31.084369],[-96.89739,31.075838],[-96.911558,31.068979],[-96.948831,31.048441],[-97.003257,31.020339],[-97.004176,31.021063],[-97.007265,31.022479],[-97.008288,31.023456],[-97.024917,31.048483],[-97.033041,31.059889],[-97.028155,31.062385],[-97.029268,31.064238],[-97.062285,31.069393],[-97.039687,31.080123],[-97.022873,31.088866],[-97.022509,31.088924],[-97.022272,31.088697],[-97.02476,31.092358],[-97.016342,31.096846],[-97.017052,31.09732],[-97.018598,31.097788],[-97.018348,31.098854],[-97.018622,31.099795],[-97.018053,31.100515],[-97.018251,31.101565],[-97.019439,31.1014],[-97.019829,31.101631],[-97.02004,31.101313],[-97.022148,31.10221],[-97.024218,31.102496],[-97.024435,31.102815],[-97.025393,31.103178],[-97.024978,31.103657],[-97.024895,31.104173],[-97.02593,31.104273],[-97.025623,31.104839],[-97.026613,31.105285],[-97.026357,31.105713],[-97.026478,31.10617],[-97.026996,31.105933],[-97.02766,31.10661],[-97.028108,31.106247],[-97.028478,31.106687],[-97.029085,31.106605],[-97.030216,31.106952],[-97.03051,31.106814],[-97.030586,31.107617],[-97.031021,31.107381],[-97.032114,31.107513],[-97.031743,31.107859],[-97.0318,31.108525],[-97.032119,31.108838],[-97.032586,31.108695],[-97.032861,31.108239],[-97.033244,31.108184],[-97.033378,31.108646],[-97.033902,31.108981],[-97.034522,31.108839],[-97.034809,31.109509],[-97.035436,31.10918],[-97.035704,31.109268],[-97.035442,31.109719],[-97.035589,31.109944],[-97.036087,31.109719],[-97.036228,31.110186],[-97.037966,31.110104],[-97.038292,31.110703],[-97.038886,31.110775],[-97.038899,31.111231],[-97.039531,31.111424],[-97.039192,31.111919],[-97.039787,31.111946],[-97.040425,31.112403],[-97.040553,31.113414],[-97.042809,31.114416],[-97.042738,31.11479],[-97.043582,31.114696],[-97.043594,31.115191],[-97.044361,31.115329],[-97.044546,31.115741],[-97.045358,31.116011],[-97.044795,31.116527],[-97.045032,31.117077],[-97.046176,31.116978],[-97.04647,31.116698],[-97.046968,31.117231],[-97.047543,31.117061],[-97.047991,31.117435],[-97.048604,31.117463],[-97.048438,31.118166],[-97.047818,31.118777],[-97.047881,31.119134],[-97.048501,31.119046],[-97.049166,31.119299],[-97.050259,31.119943],[-97.051255,31.120905],[-97.052367,31.121026],[-97.052987,31.120531],[-97.05346,31.12046],[-97.054304,31.121351],[-97.056771,31.121417],[-97.057071,31.122027],[-97.057863,31.122627],[-97.059346,31.122594],[-97.059896,31.122792],[-97.06042,31.12338],[-97.060484,31.124722],[-97.060641,31.125073],[-97.060955,31.125156],[-97.060865,31.125629],[-97.061281,31.12636],[-97.062118,31.126129],[-97.062553,31.126393],[-97.063202,31.128464],[-97.057263,31.131239],[-97.03,31.145283],[-97.028522,31.145764],[-97.027044,31.145579],[-97.025701,31.144693],[-97.018126,31.133935],[-97.01677,31.132889],[-97.015389,31.13265],[-97.01418,31.132885],[-97.010964,31.134552],[-97.009966,31.134837],[-97.009764,31.135106],[-97.004369,31.137837],[-97.002817,31.135594],[-96.996042,31.139122],[-96.995036,31.140295],[-96.992921,31.145565],[-96.984783,31.149845],[-96.983208,31.151324],[-96.97932,31.153144],[-96.976854,31.153704],[-96.973951,31.155081],[-96.97323,31.155592],[-96.972088,31.157234],[-96.965228,31.160742],[-96.963855,31.161707],[-96.938316,31.174845],[-96.924667,31.181396],[-96.926595,31.184029],[-96.931587,31.199168],[-96.93535,31.205685],[-96.934666,31.204844],[-96.933719,31.204839],[-96.933732,31.204388],[-96.931871,31.203343],[-96.930515,31.203305],[-96.930106,31.202645],[-96.929185,31.202155],[-96.928673,31.20226],[-96.928296,31.202711],[-96.927151,31.20259],[-96.926498,31.202073],[-96.925872,31.202001],[-96.92545,31.202309],[-96.922309,31.202875],[-96.921305,31.202138],[-96.920397,31.202413],[-96.918862,31.202242],[-96.918823,31.201692],[-96.919239,31.20139],[-96.920173,31.201472],[-96.920422,31.201286],[-96.919821,31.200279],[-96.918574,31.199729],[-96.91798,31.199053],[-96.917295,31.199146],[-96.914795,31.198497],[-96.914507,31.198871],[-96.914961,31.200141],[-96.91459,31.200201],[-96.913739,31.199794],[-96.913151,31.200196],[-96.9104,31.200459],[-96.908245,31.201404],[-96.908033,31.202542],[-96.908359,31.203026],[-96.908289,31.203861],[-96.906919,31.205367],[-96.905646,31.20755],[-96.905747,31.211046],[-96.904882,31.21313],[-96.905227,31.213982],[-96.906007,31.214697],[-96.907773,31.215423],[-96.908566,31.215456],[-96.910325,31.214698],[-96.912596,31.214566],[-96.91337,31.214754],[-96.914656,31.214583],[-96.914848,31.214798],[-96.915846,31.214562],[-96.916658,31.214089],[-96.917375,31.214155],[-96.916895,31.214435],[-96.91781,31.21399],[-96.918238,31.21332],[-96.919467,31.212704],[-96.920446,31.212341],[-96.921402,31.212286],[-96.922096,31.212457],[-96.923848,31.213464],[-96.925249,31.214822],[-96.926976,31.214959],[-96.92979,31.216307],[-96.929432,31.216669],[-96.926472,31.215398]]]}},{"type":"Feature","properties":{"PRECINCT":"303","VTD":"0303"},"geometry":{"type":"Polygon","coordinates":[[[-97.120115,31.151045],[-97.119258,31.150402],[-97.119187,31.149726],[-97.117506,31.150156],[-97.117404,31.150491],[-97.117097,31.150519],[-97.116362,31.150057],[-97.116508,31.149183],[-97.115556,31.149403],[-97.115255,31.148457],[-97.114942,31.148518],[-97.114642,31.149101],[-97.113197,31.148964],[-97.112736,31.149267],[-97.112097,31.149333],[-97.111637,31.149124],[-97.111541,31.148695],[-97.110594,31.147937],[-97.109917,31.148383],[-97.109124,31.148295],[-97.109233,31.148966],[-97.108869,31.149158],[-97.108357,31.148889],[-97.107916,31.149186],[-97.107405,31.149005],[-97.106721,31.149753],[-97.105672,31.149621],[-97.105544,31.149121],[-97.105103,31.149071],[-97.104771,31.148681],[-97.103729,31.149121],[-97.103479,31.149001],[-97.103486,31.148489],[-97.103108,31.148572],[-97.102571,31.148116],[-97.102258,31.148204],[-97.102246,31.148731],[-97.101612,31.148347],[-97.101197,31.14871],[-97.099477,31.148749],[-97.099548,31.14959],[-97.098819,31.149777],[-97.098608,31.149255],[-97.09795,31.149513],[-97.097585,31.148848],[-97.097617,31.148524],[-97.098211,31.148364],[-97.097847,31.147034],[-97.096785,31.147177],[-97.096466,31.14688],[-97.095494,31.147001],[-97.094516,31.147535],[-97.09444,31.148129],[-97.09403,31.148057],[-97.093641,31.148349],[-97.093104,31.148234],[-97.093071,31.147981],[-97.093449,31.1477],[-97.093276,31.146815],[-97.094177,31.146336],[-97.093544,31.145473],[-97.092802,31.145726],[-97.092061,31.145111],[-97.091293,31.145034],[-97.091121,31.144671],[-97.091536,31.143665],[-97.091293,31.143286],[-97.090737,31.143181],[-97.090059,31.143748],[-97.089714,31.142906],[-97.088991,31.142769],[-97.08871,31.142214],[-97.088096,31.142434],[-97.087879,31.142742],[-97.088084,31.143066],[-97.087528,31.143424],[-97.08717,31.142945],[-97.087559,31.142605],[-97.087598,31.142225],[-97.087297,31.141873],[-97.086466,31.141857],[-97.086421,31.141346],[-97.085277,31.141131],[-97.084261,31.142231],[-97.083954,31.142077],[-97.083973,31.141593],[-97.083705,31.141528],[-97.082362,31.14216],[-97.08203,31.141638],[-97.08132,31.14194],[-97.080815,31.14078],[-97.079792,31.141011],[-97.079409,31.140401],[-97.078744,31.140912],[-97.078488,31.140528],[-97.077529,31.140379],[-97.076673,31.14072],[-97.076424,31.141243],[-97.075177,31.141281],[-97.074954,31.141936],[-97.074487,31.142166],[-97.074142,31.142046],[-97.074091,31.141556],[-97.073432,31.141754],[-97.073272,31.1411],[-97.072678,31.141226],[-97.072173,31.140853],[-97.071009,31.141095],[-97.070364,31.140589],[-97.069526,31.140638],[-97.069079,31.139731],[-97.068222,31.139539],[-97.067187,31.138588],[-97.067142,31.137939],[-97.067551,31.137631],[-97.066886,31.137153],[-97.067449,31.136636],[-97.067263,31.134744],[-97.066541,31.134486],[-97.065819,31.135052],[-97.065467,31.134458],[-97.065148,31.134343],[-97.065224,31.133815],[-97.064841,31.133463],[-97.065307,31.132644],[-97.06479,31.130863],[-97.064125,31.130632],[-97.064022,31.130005],[-97.0633,31.129692],[-97.063511,31.129015],[-97.062872,31.127866],[-97.062553,31.126393],[-97.062118,31.126129],[-97.061281,31.12636],[-97.060865,31.125629],[-97.060955,31.125156],[-97.060509,31.124804],[-97.060458,31.123512],[-97.060126,31.122951],[-97.059346,31.122594],[-97.057863,31.122627],[-97.057071,31.122027],[-97.056771,31.121417],[-97.054304,31.121351],[-97.05346,31.12046],[-97.052987,31.120531],[-97.052367,31.121026],[-97.051255,31.120905],[-97.050259,31.119943],[-97.049166,31.119299],[-97.048501,31.119046],[-97.047881,31.119134],[-97.047818,31.118777],[-97.048438,31.118166],[-97.048604,31.117463],[-97.047991,31.117435],[-97.047543,31.117061],[-97.046968,31.117231],[-97.04647,31.116698],[-97.046176,31.116978],[-97.045032,31.117077],[-97.044795,31.116527],[-97.045358,31.116011],[-97.044546,31.115741],[-97.044361,31.115329],[-97.043594,31.115191],[-97.043582,31.114696],[-97.042738,31.11479],[-97.042809,31.114416],[-97.040553,31.113414],[-97.040425,31.112403],[-97.039787,31.111946],[-97.039192,31.111919],[-97.039531,31.111424],[-97.038899,31.111231],[-97.038886,31.110775],[-97.038292,31.110703],[-97.037966,31.110104],[-97.036228,31.110186],[-97.036087,31.109719],[-97.035589,31.109944],[-97.035442,31.109719],[-97.035704,31.109268],[-97.035436,31.10918],[-97.034809,31.109509],[-97.034522,31.108839],[-97.033902,31.108981],[-97.033378,31.108646],[-97.033244,31.108184],[-97.032861,31.108239],[-97.032586,31.108695],[-97.032119,31.108838],[-97.0318,31.108525],[-97.031743,31.107859],[-97.032114,31.107513],[-97.031021,31.107381],[-97.030586,31.107617],[-97.03051,31.106814],[-97.030216,31.106952],[-97.029085,31.106605],[-97.028478,31.106687],[-97.028108,31.106247],[-97.02766,31.10661],[-97.026996,31.105933],[-97.026478,31.10617],[-97.026357,31.105713],[-97.026613,31.105285],[-97.025623,31.104839],[-97.02593,31.104273],[-97.024895,31.104173],[-97.024978,31.103657],[-97.025393,31.103178],[-97.024435,31.102815],[-97.024218,31.102496],[-97.022148,31.10221],[-97.02004,31.101313],[-97.019829,31.101631],[-97.019439,31.1014],[-97.018251,31.101565],[-97.018053,31.100515],[-97.018622,31.099795],[-97.018348,31.098854],[-97.018598,31.097788],[-97.017052,31.09732],[-97.016342,31.096846],[-97.02476,31.092358],[-97.022272,31.088697],[-97.022509,31.088924],[-97.022873,31.088866],[-97.039687,31.080123],[-97.062285,31.069393],[-97.029268,31.064238],[-97.028155,31.062385],[-97.033041,31.059889],[-97.024917,31.048483],[-97.008288,31.023456],[-97.007265,31.022479],[-97.004176,31.021063],[-97.003257,31.020339],[-97.070057,30.986031],[-97.120578,31.058092],[-97.173077,31.131903],[-97.16638,31.130073],[-97.165716,31.130058],[-97.155101,31.135455],[-97.153365,31.13612],[-97.14342,31.141352],[-97.134712,31.145603],[-97.13269,31.146372],[-97.130367,31.147937],[-97.125674,31.150418],[-97.1252,31.150953],[-97.124603,31.150587],[-97.123989,31.15123],[-97.122915,31.150307],[-97.122423,31.15061],[-97.121994,31.150357],[-97.121969,31.150885],[-97.121438,31.150979],[-97.121157,31.151292],[-97.120115,31.151045]]]}},{"type":"Feature","properties":{"PRECINCT":"401","VTD":"0401"},"geometry":{"type":"Polygon","coordinates":[[[-96.978283,31.279596],[-96.98907,31.264568],[-97.0163,31.230237],[-97.024752,31.21722],[-97.028608,31.212807],[-97.030527,31.214072],[-97.035086,31.211703],[-97.036108,31.212371],[-97.036119,31.21311],[-97.033234,31.216791],[-97.036946,31.218983],[-97.039448,31.21584],[-97.040105,31.214977],[-97.039146,31.214346],[-97.038416,31.210561],[-97.038666,31.21025],[-97.038322,31.210029],[-97.038735,31.209139],[-97.043251,31.206617],[-97.038905,31.200386],[-97.039709,31.1992],[-97.041709,31.197889],[-97.072841,31.181946],[-97.074855,31.180576],[-97.076176,31.179062],[-97.0909,31.158661],[-97.095668,31.146976],[-97.096466,31.14688],[-97.096785,31.147177],[-97.097904,31.147078],[-97.098211,31.148364],[-97.097617,31.148524],[-97.097585,31.148848],[-97.09795,31.149513],[-97.098608,31.149255],[-97.098819,31.149777],[-97.099548,31.14959],[-97.099477,31.148749],[-97.101197,31.14871],[-97.101612,31.148347],[-97.102246,31.148731],[-97.102258,31.148204],[-97.102571,31.148116],[-97.103108,31.148572],[-97.103486,31.148489],[-97.103479,31.149001],[-97.103729,31.149121],[-97.104771,31.148681],[-97.105103,31.149071],[-97.105544,31.149121],[-97.105672,31.149621],[-97.106721,31.149753],[-97.107405,31.149005],[-97.107916,31.149186],[-97.108357,31.148889],[-97.108869,31.149158],[-97.109233,31.148966],[-97.109124,31.148295],[-97.109917,31.148383],[-97.110594,31.147937],[-97.111541,31.148695],[-97.111637,31.149124],[-97.112097,31.149333],[-97.112736,31.149267],[-97.113197,31.148964],[-97.114642,31.149101],[-97.114942,31.148518],[-97.115255,31.148457],[-97.115556,31.149403],[-97.116508,31.149183],[-97.116362,31.150057],[-97.117097,31.150519],[-97.117404,31.150491],[-97.117506,31.150156],[-97.119187,31.149726],[-97.119258,31.150402],[-97.120115,31.151045],[-97.121157,31.151292],[-97.121438,31.150979],[-97.121969,31.150885],[-97.121994,31.150357],[-97.122423,31.15061],[-97.122915,31.150307],[-97.124117,31.15123],[-97.124481,31.150642],[-97.124788,31.150581],[-97.1252,31.150953],[-97.125674,31.150418],[-97.130367,31.147937],[-97.13269,31.146372],[-97.134712,31.145603],[-97.14342,31.141352],[-97.153365,31.13612],[-97.155101,31.135455],[-97.165716,31.130058],[-97.16638,31.130073],[-97.173077,31.131903],[-97.223812,31.202877],[-97.228286,31.209225],[-97.23195,31.214919],[-97.234259,31.217717],[-97.226234,31.221468],[-97.222881,31.216459],[-97.206881,31.223971],[-97.20259,31.224382],[-97.20096,31.224756],[-97.197933,31.226214],[-97.194887,31.230092],[-97.193406,31.231274],[-97.185091,31.235197],[-97.181931,31.237026],[-97.175358,31.239964],[-97.172581,31.242094],[-97.16563,31.245406],[-97.16453,31.245606],[-97.162569,31.245439],[-97.161193,31.24583],[-97.147136,31.252502],[-97.140707,31.255884],[-97.13631,31.257585],[-97.133257,31.257497],[-97.125579,31.261044],[-97.117696,31.248629],[-97.116262,31.247165],[-97.112694,31.241445],[-97.110823,31.239306],[-97.109913,31.238751],[-97.109726,31.238185],[-97.109911,31.234475],[-97.105745,31.227845],[-97.099546,31.230784],[-97.095593,31.233513],[-97.091321,31.235767],[-97.089647,31.237532],[-97.062692,31.250179],[-97.060574,31.25226],[-97.042822,31.261028],[-97.04064,31.2617],[-97.0356,31.262338],[-97.034268,31.262957],[-97.033178,31.263978],[-97.031401,31.263656],[-97.030697,31.264041],[-97.030345,31.26365],[-97.02966,31.263964],[-97.028464,31.263677],[-97.027471,31.264469],[-97.026632,31.265777],[-97.026063,31.265233],[-97.025576,31.26537],[-97.024872,31.265183],[-97.024456,31.265573],[-97.024072,31.265149],[-97.023035,31.264759],[-97.022722,31.264005],[-97.022012,31.264253],[-97.021711,31.263521],[-97.019887,31.263048],[-97.019253,31.264131],[-97.01876,31.264164],[-97.017935,31.263691],[-97.017806,31.265912],[-97.017326,31.266225],[-97.016577,31.265488],[-97.016815,31.264157],[-97.016335,31.264042],[-97.015989,31.263277],[-97.015682,31.263173],[-97.014978,31.263503],[-97.014273,31.264442],[-97.013582,31.264558],[-97.013326,31.265454],[-97.012692,31.265508],[-97.011782,31.266976],[-97.010675,31.267619],[-97.01068,31.2689],[-97.010392,31.269296],[-97.009093,31.269339],[-97.007941,31.268387],[-97.007205,31.268926],[-97.006456,31.268903],[-97.002949,31.268099],[-97.001911,31.268857],[-97.000503,31.268917],[-96.998245,31.271824],[-96.996344,31.272331],[-96.995295,31.273194],[-96.993682,31.273069],[-96.989944,31.273587],[-96.98885,31.274753],[-96.987967,31.275276],[-96.98727,31.276271],[-96.984914,31.276541],[-96.984716,31.277322],[-96.985203,31.277476],[-96.98528,31.277712],[-96.983046,31.279082],[-96.981587,31.279209],[-96.979981,31.280287],[-96.979315,31.28026],[-96.978283,31.279596]]]}},{"type":"Feature","properties":{"PRECINCT":"402","VTD":"0402"},"geometry":{"type":"Polygon","coordinates":[[[-97.022636,31.327952],[-97.022188,31.327528],[-97.02215,31.326973],[-97.022938,31.325384],[-97.022368,31.325054],[-97.021235,31.325004],[-97.020614,31.324592],[-97.019865,31.322992],[-97.018937,31.32242],[-97.017829,31.322155],[-97.017029,31.321457],[-97.017093,31.320808],[-97.016286,31.320384],[-97.016351,31.319675],[-97.017209,31.319142],[-97.017594,31.318571],[-97.017267,31.318383],[-97.015551,31.318531],[-97.014616,31.318179],[-97.014277,31.317629],[-97.01502,31.31753],[-97.015097,31.316761],[-97.014143,31.316744],[-97.013138,31.315831],[-97.012504,31.315545],[-97.011717,31.315555],[-97.010872,31.315126],[-97.010366,31.314329],[-97.009668,31.314125],[-97.008836,31.313426],[-97.008561,31.312327],[-97.008216,31.31203],[-97.007313,31.311518],[-97.003954,31.310331],[-97.002723,31.310424],[-97.001202,31.309995],[-96.998953,31.310727],[-96.997699,31.310827],[-96.996843,31.310715],[-96.996046,31.310275],[-96.99558,31.309177],[-96.997521,31.30813],[-96.998478,31.306434],[-96.998465,31.305515],[-96.997444,31.304395],[-96.993629,31.302988],[-96.987245,31.301659],[-96.979235,31.301643],[-96.975392,31.299722],[-96.9726,31.296445],[-96.971872,31.294483],[-96.972018,31.291171],[-96.97025,31.289864],[-96.968571,31.288026],[-96.972053,31.286475],[-96.973751,31.285298],[-96.975241,31.283772],[-96.978283,31.279596],[-96.979315,31.28026],[-96.979981,31.280287],[-96.981587,31.279209],[-96.983174,31.279021],[-96.98528,31.277712],[-96.985203,31.277476],[-96.984716,31.277322],[-96.984914,31.276541],[-96.98727,31.276271],[-96.987967,31.275276],[-96.98885,31.274753],[-96.990053,31.273537],[-96.993682,31.273069],[-96.995295,31.273194],[-96.996344,31.272331],[-96.998245,31.271824],[-97.000503,31.268917],[-97.001911,31.268857],[-97.002949,31.268099],[-97.006456,31.268903],[-97.007205,31.268926],[-97.007941,31.268387],[-97.009093,31.269339],[-97.010392,31.269296],[-97.01068,31.2689],[-97.010675,31.267619],[-97.011782,31.266976],[-97.012692,31.265508],[-97.013326,31.265454],[-97.013582,31.264558],[-97.014273,31.264442],[-97.014978,31.263503],[-97.015682,31.263173],[-97.015989,31.263277],[-97.016335,31.264042],[-97.016815,31.264157],[-97.016577,31.265488],[-97.017326,31.266225],[-97.017806,31.265912],[-97.017935,31.263691],[-97.01876,31.264164],[-97.019253,31.264131],[-97.019887,31.263048],[-97.021711,31.263521],[-97.022012,31.264253],[-97.022722,31.264005],[-97.023035,31.264759],[-97.024072,31.265149],[-97.024456,31.265573],[-97.024872,31.265183],[-97.025576,31.26537],[-97.026063,31.265233],[-97.026632,31.265777],[-97.027471,31.264469],[-97.028464,31.263677],[-97.02966,31.263964],[-97.030345,31.26365],[-97.030697,31.264041],[-97.031401,31.263656],[-97.033178,31.263978],[-97.034268,31.262957],[-97.0356,31.262338],[-97.04064,31.2617],[-97.042822,31.261028],[-97.060574,31.25226],[-97.062692,31.250179],[-97.089647,31.237532],[-97.091321,31.235767],[-97.095593,31.233513],[-97.099546,31.230784],[-97.105745,31.227845],[-97.109911,31.234475],[-97.109726,31.238185],[-97.109913,31.238751],[-97.110823,31.239306],[-97.112694,31.241445],[-97.116262,31.247165],[-97.117696,31.248629],[-97.125579,31.261044],[-97.133257,31.257497],[-97.13631,31.257585],[-97.140707,31.255884],[-97.147136,31.252502],[-97.161193,31.24583],[-97.162569,31.245439],[-97.16453,31.245606],[-97.16563,31.245406],[-97.172581,31.242094],[-97.175358,31.239964],[-97.181931,31.237026],[-97.185091,31.235197],[-97.193406,31.231274],[-97.194887,31.230092],[-97.197933,31.226214],[-97.20096,31.224756],[-97.20259,31.224382],[-97.206881,31.223971],[-97.222881,31.216459],[-97.226234,31.221468],[-97.234259,31.217717],[-97.236587,31.220521],[-97.247551,31.2368],[-97.278113,31.279799],[-97.25822,31.289884],[-97.256836,31.290757],[-97.239857,31.299121],[-97.227526,31.304765],[-97.19767,31.320324],[-97.196876,31.320191],[-97.196627,31.320741],[-97.196249,31.3209],[-97.194878,31.319729],[-97.194628,31.31875],[-97.192886,31.31797],[-97.192566,31.317414],[-97.191362,31.316579],[-97.191042,31.314412],[-97.190581,31.31345],[-97.189959,31.313219],[-97.189018,31.313384],[-97.188467,31.313654],[-97.188205,31.314253],[-97.187839,31.314352],[-97.187545,31.314165],[-97.187308,31.313269],[-97.187045,31.313236],[-97.186392,31.313824],[-97.185329,31.314077],[-97.184317,31.313615],[-97.183145,31.313582],[-97.182492,31.313312],[-97.181615,31.312224],[-97.180334,31.312284],[-97.178618,31.313043],[-97.178201,31.312575],[-97.178931,31.31196],[-97.179117,31.311432],[-97.17849,31.310618],[-97.176761,31.310893],[-97.176441,31.310805],[-97.176101,31.31015],[-97.175339,31.310392],[-97.173456,31.310194],[-97.172413,31.309837],[-97.172214,31.309281],[-97.171222,31.308792],[-97.170863,31.309396],[-97.170299,31.309561],[-97.169217,31.308901],[-97.168859,31.308109],[-97.16841,31.308164],[-97.167911,31.308725],[-97.167495,31.308824],[-97.166688,31.308527],[-97.16597,31.308637],[-97.165369,31.308433],[-97.165157,31.307999],[-97.163672,31.307889],[-97.163166,31.307537],[-97.162487,31.307569],[-97.161981,31.307333],[-97.161027,31.308025],[-97.159932,31.308416],[-97.159349,31.307778],[-97.158606,31.307871],[-97.158331,31.30737],[-97.157927,31.308162],[-97.15721,31.307805],[-97.157428,31.308805],[-97.156672,31.308635],[-97.156173,31.308211],[-97.155763,31.308541],[-97.15477,31.308134],[-97.154258,31.308656],[-97.153586,31.308238],[-97.153169,31.308227],[-97.152529,31.30882],[-97.151536,31.308892],[-97.151005,31.309265],[-97.150377,31.309221],[-97.149147,31.309562],[-97.148468,31.310865],[-97.147898,31.310551],[-97.147706,31.31142],[-97.146367,31.311645],[-97.146098,31.312117],[-97.145368,31.31171],[-97.144093,31.31204],[-97.142864,31.311577],[-97.142121,31.31249],[-97.141045,31.31272],[-97.140315,31.31261],[-97.139853,31.313143],[-97.139078,31.313396],[-97.138073,31.312455],[-97.136946,31.312042],[-97.13696,31.311399],[-97.13646,31.311102],[-97.135602,31.31108],[-97.134597,31.310496],[-97.132529,31.310116],[-97.132119,31.309528],[-97.131274,31.309093],[-97.12927,31.308647],[-97.128509,31.307805],[-97.128292,31.306661],[-97.127364,31.306094],[-97.124729,31.305723],[-97.123032,31.304723],[-97.121764,31.304471],[-97.120931,31.303883],[-97.119541,31.30352],[-97.118267,31.303878],[-97.117518,31.304868],[-97.116353,31.305314],[-97.116206,31.30621],[-97.115573,31.306997],[-97.114824,31.306788],[-97.113293,31.306998],[-97.112634,31.307146],[-97.112058,31.30757],[-97.110149,31.307543],[-97.109586,31.30734],[-97.109656,31.307945],[-97.110527,31.308412],[-97.110522,31.309423],[-97.109952,31.309226],[-97.108927,31.309325],[-97.107697,31.309067],[-97.107486,31.308792],[-97.105981,31.308639],[-97.105027,31.307897],[-97.104386,31.308254],[-97.103099,31.308442],[-97.102427,31.308348],[-97.101959,31.308013],[-97.101108,31.308728],[-97.100224,31.308415],[-97.099577,31.308613],[-97.099756,31.308091],[-97.099551,31.30792],[-97.098072,31.308096],[-97.097887,31.308509],[-97.097176,31.308449],[-97.097048,31.30874],[-97.096478,31.308999],[-97.096453,31.309356],[-97.09603,31.309351],[-97.095608,31.310159],[-97.093642,31.310225],[-97.093584,31.309939],[-97.093155,31.30984],[-97.092675,31.310693],[-97.091164,31.311765],[-97.089992,31.314135],[-97.088564,31.31479],[-97.086727,31.316296],[-97.086426,31.316797],[-97.085331,31.317248],[-97.084703,31.317094],[-97.083967,31.317259],[-97.079286,31.319525],[-97.077697,31.319921],[-97.069852,31.321246],[-97.064985,31.321065],[-97.063467,31.321318],[-97.061353,31.322181],[-97.056992,31.324523],[-97.055256,31.325127],[-97.054475,31.325573],[-97.05418,31.326007],[-97.053354,31.326078],[-97.051375,31.32676],[-97.044342,31.327463],[-97.04219,31.327292],[-97.039776,31.326785],[-97.037501,31.328],[-97.035401,31.328049],[-97.034286,31.327603],[-97.033063,31.327856],[-97.030527,31.327916],[-97.029969,31.328185],[-97.029118,31.328102],[-97.027061,31.328497],[-97.025633,31.328502],[-97.022636,31.327952]]]}},{"type":"Feature","properties":{"PRECINCT":"403","VTD":"0403"},"geometry":{"type":"Polygon","coordinates":[[[-97.010051,31.406964],[-97.004747,31.406897],[-96.999786,31.407657],[-96.997554,31.408482],[-96.995294,31.40855],[-96.994227,31.40823],[-96.993715,31.407665],[-96.992545,31.40584],[-96.992466,31.404842],[-96.993345,31.401739],[-96.995042,31.397646],[-96.996708,31.395517],[-96.997818,31.394483],[-97.000245,31.393132],[-97.003933,31.391998],[-97.009189,31.391425],[-97.010356,31.391123],[-97.012109,31.390272],[-97.014636,31.38822],[-97.015067,31.387348],[-97.015249,31.38614],[-97.014533,31.3825],[-97.013741,31.380871],[-97.011692,31.378695],[-97.003865,31.37504],[-96.998699,31.37125],[-96.997174,31.37061],[-96.994399,31.370153],[-96.988861,31.37048],[-96.985992,31.371283],[-96.982464,31.37295],[-96.97863,31.376124],[-96.976897,31.376849],[-96.973832,31.377301],[-96.969869,31.376838],[-96.965704,31.375813],[-96.963192,31.374716],[-96.961314,31.373565],[-96.960973,31.373301],[-96.960637,31.372183],[-96.959443,31.371081],[-96.956552,31.367554],[-96.957609,31.36562],[-96.959866,31.364015],[-96.963147,31.36302],[-96.967916,31.362986],[-96.969575,31.362113],[-96.97138,31.359616],[-96.972654,31.355979],[-96.974021,31.353208],[-96.975125,31.351546],[-96.976281,31.35066],[-96.978476,31.349663],[-96.980626,31.349155],[-96.987351,31.348843],[-96.989257,31.348434],[-96.992316,31.347069],[-96.994619,31.345677],[-96.998005,31.343089],[-97.000023,31.340713],[-97.000541,31.338949],[-97.000166,31.337596],[-96.999211,31.336749],[-96.997757,31.336127],[-96.994017,31.336032],[-96.990119,31.336274],[-96.985648,31.335022],[-96.983431,31.334832],[-96.980666,31.335307],[-96.976253,31.337013],[-96.974486,31.337332],[-96.973196,31.337079],[-96.972012,31.335937],[-96.971779,31.335103],[-96.97197,31.332921],[-96.973227,31.329884],[-96.974442,31.328513],[-96.977385,31.326728],[-96.978997,31.326134],[-96.979583,31.326317],[-96.980799,31.326223],[-96.985674,31.325388],[-96.989184,31.326588],[-96.993819,31.32893],[-96.995781,31.329412],[-96.998124,31.328986],[-97.000921,31.327909],[-97.002189,31.326972],[-97.002853,31.32606],[-97.00326,31.3242],[-97.003146,31.323308],[-97.002572,31.322196],[-96.999502,31.320827],[-96.997483,31.320658],[-96.994054,31.317245],[-96.993373,31.316823],[-96.991256,31.316156],[-96.987841,31.3169],[-96.986238,31.316807],[-96.985033,31.316642],[-96.983408,31.31592],[-96.982496,31.314355],[-96.982508,31.313556],[-96.983518,31.311641],[-96.985595,31.311422],[-96.988765,31.311485],[-96.991295,31.310797],[-96.99558,31.309177],[-96.996018,31.310248],[-96.997124,31.310778],[-96.998547,31.310816],[-97.001368,31.309996],[-97.002723,31.310424],[-97.004074,31.310357],[-97.007313,31.311518],[-97.008561,31.312327],[-97.008836,31.313426],[-97.009668,31.314125],[-97.010366,31.314329],[-97.010872,31.315126],[-97.011717,31.315555],[-97.012504,31.315545],[-97.013138,31.315831],[-97.014143,31.316744],[-97.015097,31.316761],[-97.01502,31.31753],[-97.014277,31.317629],[-97.014616,31.318179],[-97.015551,31.318531],[-97.017472,31.318449],[-97.017581,31.318741],[-97.016223,31.319988],[-97.016357,31.320483],[-97.017093,31.320808],[-97.017118,31.321578],[-97.018047,31.322282],[-97.019603,31.32275],[-97.020473,31.324438],[-97.021235,31.325004],[-97.022368,31.325054],[-97.022938,31.325384],[-97.02215,31.326973],[-97.022105,31.327358],[-97.022482,31.32788],[-97.025633,31.328502],[-97.027061,31.328497],[-97.029118,31.328102],[-97.029969,31.328185],[-97.030527,31.327916],[-97.033063,31.327856],[-97.034286,31.327603],[-97.035401,31.328049],[-97.037501,31.328],[-97.039776,31.326785],[-97.04219,31.327292],[-97.044342,31.327463],[-97.050715,31.326903],[-97.053354,31.326078],[-97.05418,31.326007],[-97.054475,31.325573],[-97.055256,31.325127],[-97.056992,31.324523],[-97.061353,31.322181],[-97.063467,31.321318],[-97.064985,31.321065],[-97.069852,31.321246],[-97.07853,31.319756],[-97.083967,31.317259],[-97.084703,31.317094],[-97.085331,31.317248],[-97.086426,31.316797],[-97.086727,31.316296],[-97.08761,31.315747],[-97.088302,31.314971],[-97.089992,31.314135],[-97.091164,31.311765],[-97.092675,31.310693],[-97.093155,31.30984],[-97.093584,31.309939],[-97.093642,31.310225],[-97.095608,31.310159],[-97.09603,31.309351],[-97.096453,31.309356],[-97.096478,31.308999],[-97.097048,31.30874],[-97.097176,31.308449],[-97.097746,31.308553],[-97.098072,31.308096],[-97.099378,31.307898],[-97.09975,31.308052],[-97.099577,31.308613],[-97.100224,31.308415],[-97.101108,31.308728],[-97.101959,31.308013],[-97.102427,31.308348],[-97.103099,31.308442],[-97.104386,31.308254],[-97.105027,31.307897],[-97.105981,31.308639],[-97.107486,31.308792],[-97.107697,31.309067],[-97.108927,31.309325],[-97.109952,31.309226],[-97.110522,31.309423],[-97.110527,31.308412],[-97.109656,31.307945],[-97.109586,31.30734],[-97.110149,31.307543],[-97.112058,31.30757],[-97.112634,31.307146],[-97.113293,31.306998],[-97.114824,31.306788],[-97.115573,31.306997],[-97.116206,31.30621],[-97.116353,31.305314],[-97.117518,31.304868],[-97.118267,31.303878],[-97.119541,31.30352],[-97.120931,31.303883],[-97.121764,31.304471],[-97.123032,31.304723],[-97.124729,31.305723],[-97.127364,31.306094],[-97.128292,31.306661],[-97.128509,31.307805],[-97.12927,31.308647],[-97.131274,31.309093],[-97.132119,31.309528],[-97.132529,31.310116],[-97.134597,31.310496],[-97.135602,31.31108],[-97.13646,31.311102],[-97.13696,31.311399],[-97.136946,31.312042],[-97.138073,31.312455],[-97.139078,31.313396],[-97.139853,31.313143],[-97.140315,31.31261],[-97.141045,31.31272],[-97.142121,31.31249],[-97.142864,31.311577],[-97.144093,31.31204],[-97.145368,31.31171],[-97.146098,31.312117],[-97.146367,31.311645],[-97.147706,31.31142],[-97.147898,31.310551],[-97.148468,31.310865],[-97.149147,31.309562],[-97.150377,31.309221],[-97.151005,31.309265],[-97.151536,31.308892],[-97.152529,31.30882],[-97.153169,31.308227],[-97.153586,31.308238],[-97.154258,31.308656],[-97.15477,31.308134],[-97.155763,31.308541],[-97.156173,31.308211],[-97.156672,31.308635],[-97.157428,31.308805],[-97.15721,31.307805],[-97.157927,31.308162],[-97.158331,31.30737],[-97.158606,31.307871],[-97.159349,31.307778],[-97.159932,31.308416],[-97.161027,31.308025],[-97.161981,31.307333],[-97.162487,31.307569],[-97.163166,31.307537],[-97.163672,31.307889],[-97.165157,31.307999],[-97.165369,31.308433],[-97.16597,31.308637],[-97.166688,31.308527],[-97.167495,31.308824],[-97.167911,31.308725],[-97.16841,31.308164],[-97.168859,31.308109],[-97.169217,31.308901],[-97.170299,31.309561],[-97.170863,31.309396],[-97.171222,31.308792],[-97.172214,31.309281],[-97.172413,31.309837],[-97.173456,31.310194],[-97.175339,31.310392],[-97.176101,31.31015],[-97.176441,31.310805],[-97.176761,31.310893],[-97.17849,31.310618],[-97.179117,31.311432],[-97.178931,31.31196],[-97.178201,31.312575],[-97.178618,31.313043],[-97.180334,31.312284],[-97.181615,31.312224],[-97.182492,31.313312],[-97.183145,31.313582],[-97.184317,31.313615],[-97.185329,31.314077],[-97.186392,31.313824],[-97.187045,31.313236],[-97.187308,31.313269],[-97.187545,31.314165],[-97.187839,31.314352],[-97.188205,31.314253],[-97.188467,31.313654],[-97.189018,31.313384],[-97.189959,31.313219],[-97.190581,31.31345],[-97.191042,31.314412],[-97.191362,31.316579],[-97.192566,31.317414],[-97.192886,31.31797],[-97.194628,31.31875],[-97.194878,31.319729],[-97.195429,31.320032],[-97.196069,31.320895],[-97.196627,31.320741],[-97.196876,31.320191],[-97.197598,31.320354],[-97.131644,31.353492],[-97.073923,31.382938],[-97.057078,31.390967],[-97.043288,31.398287],[-97.018755,31.410408],[-97.017623,31.410927],[-97.016142,31.409497],[-97.014963,31.408744],[-97.012981,31.407825],[-97.010051,31.406964]]]}}]}