{"type":"FeatureCollection","features":[{"type":"Feature","properties":{"PRECINCT":"1","VTD":"0001"},"geometry":{"type":"Polygon","coordinates":[[[-103.025811,30.976668],[-102.988802,30.952421],[-102.988703,30.952535],[-102.988479,30.981572],[-102.987933,30.982857],[-102.986594,30.983649],[-102.964821,30.983643],[-102.964831,30.984538],[-102.962988,30.983634],[-102.944612,30.983404],[-102.933583,30.98354],[-102.883792,30.983299],[-102.884248,30.903451],[-102.884476,30.900874],[-102.888889,30.900872],[-102.888932,30.889989],[-102.885631,30.889983],[-102.885627,30.888157],[-102.887837,30.88815],[-102.887839,30.88633],[-102.897871,30.886302],[-102.897876,30.885759],[-102.903933,30.885823],[-102.903942,30.881727],[-102.896772,30.881562],[-102.896712,30.880241],[-102.908454,30.875041],[-102.958334,30.838802],[-103.0005,30.807593],[-103.013766,30.79822],[-103.030488,30.785725],[-103.06129,30.763304],[-103.063948,30.761816],[-103.064832,30.760835],[-103.073713,30.75443],[-103.090788,30.741547],[-103.153925,30.703509],[-103.17461,30.691467],[-103.183235,30.685776],[-103.204341,30.672945],[-103.274366,30.63071],[-103.275908,30.630025],[-103.362421,30.611914],[-103.409976,30.644917],[-103.492901,30.70292],[-103.500448,30.707948],[-103.560764,30.750135],[-103.585084,30.76647],[-103.500453,30.856213],[-103.492943,30.863621],[-103.481954,30.875148],[-103.375412,30.987246],[-103.360491,31.004015],[-103.253464,31.117154],[-103.147784,31.047832],[-103.123946,31.030601],[-103.109782,31.024141],[-103.081448,31.007112],[-103.025811,30.976668]]]}},{"type":"Feature","properties":{"PRECINCT":"2","VTD":"0002"},"geometry":{"type":"Polygon","coordinates":[[[-102.883953,30.889083],[-102.872633,30.889106],[-102.872091,30.88738],[-102.857641,30.85472],[-102.85595,30.852286],[-102.842247,30.837792],[-102.840587,30.835637],[-102.827437,30.806745],[-102.825566,30.803243],[-102.823413,30.800777],[-102.779995,30.759313],[-102.723523,30.759353],[-102.723523,30.765779],[-102.710451,30.766168],[-102.710423,30.770011],[-102.705455,30.765678],[-102.702428,30.762522],[-102.700833,30.761322],[-102.677936,30.761236],[-102.678006,30.744392],[-102.615732,30.743648],[-102.615827,30.735753],[-102.540779,30.735945],[-102.532282,30.728525],[-102.517583,30.72859],[-102.517419,30.728246],[-102.515121,30.727469],[-102.514038,30.727662],[-102.50884,30.730639],[-102.50391,30.736008],[-102.502339,30.737405],[-102.494774,30.741713],[-102.492856,30.742265],[-102.491485,30.742179],[-102.478367,30.739269],[-102.474453,30.7376],[-102.466798,30.732644],[-102.464299,30.73162],[-102.462186,30.731305],[-102.439732,30.729939],[-102.438213,30.729231],[-102.431806,30.724238],[-102.430158,30.723586],[-102.428207,30.723413],[-102.419424,30.72359],[-102.417875,30.728698],[-102.417999,30.735268],[-102.417442,30.737012],[-102.409739,30.739562],[-102.408078,30.73968],[-102.400877,30.738486],[-102.394877,30.73835],[-102.389347,30.736873],[-102.387599,30.736813],[-102.386515,30.737084],[-102.382868,30.737267],[-102.38118,30.73617],[-102.376995,30.737198],[-102.37098,30.737738],[-102.369612,30.738337],[-102.365608,30.73914],[-102.363566,30.739241],[-102.362424,30.739662],[-102.360253,30.739491],[-102.359244,30.739177],[-102.357862,30.73777],[-102.356464,30.736771],[-102.354923,30.735107],[-102.353499,30.733266],[-102.350986,30.728674],[-102.350097,30.727825],[-102.349579,30.726691],[-102.349522,30.72693],[-102.347936,30.727853],[-102.346521,30.728153],[-102.346327,30.727153],[-102.345244,30.725772],[-102.345516,30.724341],[-102.34482,30.723962],[-102.344346,30.722853],[-102.341416,30.719093],[-102.339658,30.716109],[-102.339508,30.715395],[-102.339996,30.714158],[-102.338589,30.712801],[-102.33783,30.711572],[-102.337244,30.711313],[-102.336324,30.710306],[-102.336023,30.709154],[-102.335352,30.708245],[-102.335116,30.706921],[-102.334426,30.705793],[-102.333272,30.704222],[-102.332409,30.703935],[-102.332183,30.703653],[-102.331796,30.701767],[-102.330704,30.70105],[-102.330205,30.701256],[-102.329884,30.701098],[-102.328894,30.699546],[-102.327903,30.698816],[-102.326563,30.696877],[-102.326157,30.69517],[-102.325443,30.694924],[-102.324562,30.694175],[-102.322304,30.691371],[-102.318698,30.687897],[-102.318507,30.686474],[-102.318712,30.685651],[-102.322729,30.680412],[-102.325817,30.677504],[-102.326987,30.677136],[-102.329915,30.677472],[-102.33138,30.676306],[-102.331575,30.674932],[-102.332044,30.67433],[-102.337711,30.672229],[-102.338262,30.671529],[-102.339118,30.671107],[-102.34307,30.671631],[-102.344429,30.671362],[-102.346704,30.671487],[-102.349285,30.670583],[-102.351293,30.669403],[-102.352385,30.667704],[-102.353397,30.667086],[-102.354495,30.665407],[-102.355834,30.66474],[-102.357529,30.662963],[-102.358279,30.660946],[-102.358985,30.660169],[-102.359173,30.657892],[-102.358842,30.655744],[-102.359014,30.65499],[-102.358193,30.652452],[-102.355502,30.651485],[-102.353868,30.649647],[-102.350661,30.648026],[-102.348615,30.646663],[-102.346802,30.64509],[-102.345521,30.645041],[-102.34341,30.646524],[-102.339811,30.647865],[-102.332461,30.649392],[-102.331326,30.648993],[-102.330208,30.649927],[-102.326025,30.651313],[-102.315875,30.656629],[-102.315161,30.657399],[-102.312978,30.65872],[-102.310814,30.659338],[-102.310304,30.65963],[-102.31032,30.659955],[-102.306016,30.661754],[-102.303447,30.663562],[-102.301934,30.665386],[-102.30112,30.665935],[-102.301536,30.61345],[-102.299503,30.613406],[-102.294141,30.610171],[-102.292782,30.610058],[-102.291789,30.609617],[-102.288536,30.606185],[-102.288155,30.604029],[-102.287842,30.603509],[-102.286689,30.602839],[-102.284806,30.602509],[-102.283799,30.602025],[-102.280943,30.60018],[-102.279093,30.598321],[-102.342986,30.598759],[-102.342843,30.459466],[-102.343085,30.284116],[-102.397953,30.284134],[-102.475397,30.283694],[-102.500424,30.283835],[-102.566937,30.283269],[-102.56685,30.062788],[-102.567049,30.052808],[-102.668853,30.125183],[-102.750429,30.182811],[-102.767,30.19423],[-102.88175,30.275519],[-103.195667,30.495574],[-103.201377,30.500161],[-103.32533,30.586039],[-103.333041,30.591627],[-103.338164,30.595002],[-103.339495,30.596337],[-103.362421,30.611914],[-103.288568,30.627272],[-103.275908,30.630025],[-103.274366,30.63071],[-103.18896,30.682282],[-103.183235,30.685776],[-103.17461,30.691467],[-103.153925,30.703509],[-103.090788,30.741547],[-103.073713,30.75443],[-103.064832,30.760835],[-103.063948,30.761816],[-103.06129,30.763304],[-103.030488,30.785725],[-103.013766,30.79822],[-103.0005,30.807593],[-102.958334,30.838802],[-102.908454,30.875041],[-102.896712,30.880241],[-102.896772,30.881562],[-102.903942,30.881727],[-102.903933,30.885823],[-102.897876,30.885759],[-102.897871,30.886302],[-102.886752,30.886348],[-102.886732,30.887256],[-102.885774,30.887254],[-102.883953,30.889083]]]}},{"type":"Feature","properties":{"PRECINCT":"3","VTD":"0003"},"geometry":{"type":"Polygon","coordinates":[[[-102.233591,30.802859],[-102.203099,30.801525],[-102.152742,30.801015],[-102.095009,30.800798],[-102.038038,30.801535],[-101.979291,30.801087],[-101.976671,30.801185],[-101.975822,30.801691],[-101.974438,30.800977],[-101.931088,30.801096],[-101.882128,30.800871],[-101.83159,30.801397],[-101.831703,30.80075],[-101.831334,30.798606],[-101.831761,30.795429],[-101.83235,30.795532],[-101.832459,30.796587],[-101.833265,30.797849],[-101.833608,30.798017],[-101.833977,30.796669],[-101.834573,30.795739],[-101.834309,30.794315],[-101.83348,30.793303],[-101.832625,30.793064],[-101.832613,30.79223],[-101.834436,30.789926],[-101.83471,30.789343],[-101.834674,30.788684],[-101.835007,30.78852],[-101.835873,30.789302],[-101.836454,30.789082],[-101.836814,30.788698],[-101.836645,30.787053],[-101.837983,30.785933],[-101.839894,30.785281],[-101.840106,30.782579],[-101.839364,30.78212],[-101.838494,30.78289],[-101.838199,30.782819],[-101.837565,30.782354],[-101.835925,30.781715],[-101.834952,30.780288],[-101.835171,30.779766],[-101.836375,30.77979],[-101.836976,30.779137],[-101.836659,30.777716],[-101.8349,30.774747],[-101.834861,30.771281],[-101.836012,30.770101],[-101.836351,30.767955],[-101.836654,30.767568],[-101.838631,30.766796],[-101.838985,30.763919],[-101.838761,30.763328],[-101.83648,30.761824],[-101.8362,30.761311],[-101.836218,30.760336],[-101.835017,30.75855],[-101.834528,30.757949],[-101.833365,30.757262],[-101.832766,30.757004],[-101.831825,30.757152],[-101.831775,30.757486],[-101.832941,30.758126],[-101.833376,30.758636],[-101.833401,30.75918],[-101.832944,30.759204],[-101.831262,30.757774],[-101.829596,30.75571],[-101.829067,30.755396],[-101.82843,30.755447],[-101.827792,30.756345],[-101.827351,30.75613],[-101.824949,30.75708],[-101.823245,30.757332],[-101.822297,30.756437],[-101.820761,30.755532],[-101.819595,30.754067],[-101.817416,30.753552],[-101.815828,30.752015],[-101.815686,30.751307],[-101.81622,30.749189],[-101.815368,30.747668],[-101.814138,30.747288],[-101.813859,30.746121],[-101.814229,30.744723],[-101.813844,30.742994],[-101.814665,30.741651],[-101.815638,30.740701],[-101.815007,30.739085],[-101.813595,30.737354],[-101.813572,30.736823],[-101.814046,30.73596],[-101.813601,30.734448],[-101.812673,30.733616],[-101.810919,30.730859],[-101.810158,30.730119],[-101.809678,30.729084],[-101.810021,30.728298],[-101.809956,30.727883],[-101.808605,30.726479],[-101.807952,30.725266],[-101.808052,30.724532],[-101.808545,30.723931],[-101.808778,30.722034],[-101.808652,30.721696],[-101.807682,30.721075],[-101.80755,30.719468],[-101.809168,30.718458],[-101.809579,30.717348],[-101.809544,30.716528],[-101.809008,30.715687],[-101.809452,30.71364],[-101.808617,30.712864],[-101.808433,30.712202],[-101.8084,30.711126],[-101.809424,30.709724],[-101.809556,30.709015],[-101.809392,30.708094],[-101.808871,30.707302],[-101.808484,30.704212],[-101.808855,30.70366],[-101.810047,30.702934],[-101.810051,30.702388],[-101.809501,30.702143],[-101.808072,30.702488],[-101.807245,30.700883],[-101.80748,30.699557],[-101.801567,30.696666],[-101.800218,30.696606],[-101.798957,30.697165],[-101.798445,30.696891],[-101.798128,30.696101],[-101.797609,30.695936],[-101.796208,30.696184],[-101.794858,30.697211],[-101.793897,30.697038],[-101.793201,30.696159],[-101.792986,30.693998],[-101.793446,30.69304],[-101.794555,30.691834],[-101.794533,30.691242],[-101.793685,30.690903],[-101.791725,30.690914],[-101.790472,30.690304],[-101.788813,30.690447],[-101.787719,30.689724],[-101.787137,30.688703],[-101.785562,30.687739],[-101.782975,30.687377],[-101.78139,30.687381],[-101.779818,30.685993],[-101.778863,30.684757],[-101.777753,30.68262],[-101.77687,30.681637],[-101.776131,30.68137],[-101.775118,30.679355],[-101.775264,30.678724],[-101.775928,30.678013],[-101.775958,30.677571],[-101.774345,30.67438],[-101.773144,30.673219],[-101.773519,30.671141],[-101.773865,30.670577],[-101.773397,30.67008],[-101.772886,30.668603],[-101.771003,30.666071],[-101.770385,30.664768],[-101.770624,30.66287],[-101.77008,30.659165],[-101.769844,30.658511],[-101.768942,30.657725],[-101.76965,30.655938],[-101.769475,30.654579],[-101.769129,30.653399],[-101.768377,30.652938],[-101.769353,30.653369],[-101.777985,30.653256],[-101.997614,30.654086],[-102.000408,30.654933],[-102.024372,30.655144],[-102.031813,30.655503],[-102.033675,30.65547],[-102.034385,30.655268],[-102.137778,30.655982],[-102.138406,30.597521],[-102.279093,30.598321],[-102.280943,30.60018],[-102.283799,30.602025],[-102.284806,30.602509],[-102.286689,30.602839],[-102.287842,30.603509],[-102.288155,30.604029],[-102.288536,30.606185],[-102.291789,30.609617],[-102.292782,30.610058],[-102.294141,30.610171],[-102.299503,30.613406],[-102.301536,30.61345],[-102.30112,30.665935],[-102.301934,30.665386],[-102.303447,30.663562],[-102.306016,30.661754],[-102.31032,30.659955],[-102.310304,30.65963],[-102.310814,30.659338],[-102.312978,30.65872],[-102.315161,30.657399],[-102.315875,30.656629],[-102.326025,30.651313],[-102.330208,30.649927],[-102.331326,30.648993],[-102.332461,30.649392],[-102.339811,30.647865],[-102.34341,30.646524],[-102.345521,30.645041],[-102.346802,30.64509],[-102.348615,30.646663],[-102.350661,30.648026],[-102.353868,30.649647],[-102.355502,30.651485],[-102.358193,30.652452],[-102.359014,30.65499],[-102.358842,30.655744],[-102.359173,30.657892],[-102.358985,30.660169],[-102.358279,30.660946],[-102.357529,30.662963],[-102.355834,30.66474],[-102.354495,30.665407],[-102.353397,30.667086],[-102.352385,30.667704],[-102.351293,30.669403],[-102.349285,30.670583],[-102.346704,30.671487],[-102.344429,30.671362],[-102.34307,30.671631],[-102.339118,30.671107],[-102.338262,30.671529],[-102.337711,30.672229],[-102.332044,30.67433],[-102.331575,30.674932],[-102.33138,30.676306],[-102.329915,30.677472],[-102.326987,30.677136],[-102.325817,30.677504],[-102.322729,30.680412],[-102.318712,30.685651],[-102.318507,30.686474],[-102.318698,30.687897],[-102.322304,30.691371],[-102.324562,30.694175],[-102.325443,30.694924],[-102.326157,30.69517],[-102.326563,30.696877],[-102.327903,30.698816],[-102.328894,30.699546],[-102.329884,30.701098],[-102.330205,30.701256],[-102.330704,30.70105],[-102.331796,30.701767],[-102.332183,30.703653],[-102.332409,30.703935],[-102.333272,30.704222],[-102.334426,30.705793],[-102.335116,30.706921],[-102.335352,30.708245],[-102.336023,30.709154],[-102.336324,30.710306],[-102.337244,30.711313],[-102.33783,30.711572],[-102.338589,30.712801],[-102.339996,30.714158],[-102.339508,30.715395],[-102.339658,30.716109],[-102.341416,30.719093],[-102.344346,30.722853],[-102.34482,30.723962],[-102.345516,30.724341],[-102.345244,30.725772],[-102.346327,30.727153],[-102.346521,30.728153],[-102.347936,30.727853],[-102.349522,30.72693],[-102.349579,30.726691],[-102.350097,30.727825],[-102.350986,30.728674],[-102.353884,30.733808],[-102.356464,30.736771],[-102.357862,30.73777],[-102.359244,30.739177],[-102.362147,30.7397],[-102.363566,30.739241],[-102.365608,30.73914],[-102.369612,30.738337],[-102.37098,30.737738],[-102.376995,30.737198],[-102.38118,30.73617],[-102.382868,30.737267],[-102.386515,30.737084],[-102.387599,30.736813],[-102.389347,30.736873],[-102.394877,30.73835],[-102.400877,30.738486],[-102.408078,30.73968],[-102.409739,30.739562],[-102.417442,30.737012],[-102.417999,30.735268],[-102.417875,30.728698],[-102.419424,30.72359],[-102.428207,30.723413],[-102.430158,30.723586],[-102.431806,30.724238],[-102.438213,30.729231],[-102.439535,30.729881],[-102.440537,30.730107],[-102.462654,30.731337],[-102.464299,30.73162],[-102.466798,30.732644],[-102.475179,30.737957],[-102.478881,30.73944],[-102.485548,30.740911],[-102.486859,30.796627],[-102.433566,30.797302],[-102.369207,30.798955],[-102.369213,30.799159],[-102.302519,30.801112],[-102.301374,30.800774],[-102.300226,30.800927],[-102.298071,30.801661],[-102.233591,30.802859]]]}},{"type":"Feature","properties":{"PRECINCT":"4","VTD":"0004"},"geometry":{"type":"Polygon","coordinates":[[[-102.047565,31.001872],[-102.049023,31.000947],[-102.048925,31.000457],[-102.047456,31.000101],[-102.046576,30.999609],[-102.046124,30.999626],[-102.045948,31.001562],[-102.044714,31.001759],[-102.043483,30.999352],[-102.042254,30.998952],[-102.041418,30.999],[-102.039862,30.999615],[-102.038829,30.998799],[-102.036639,30.998413],[-102.035998,30.998551],[-102.035586,30.999412],[-102.034987,30.999529],[-102.034021,30.998844],[-102.033779,30.997087],[-102.03307,30.996799],[-102.032393,30.996945],[-102.032183,30.997219],[-102.032198,30.997674],[-102.032887,30.99831],[-102.03285,30.998782],[-102.032531,30.999003],[-102.031761,30.999061],[-102.031213,30.998861],[-102.031399,30.997825],[-102.030978,30.997241],[-102.030331,30.99721],[-102.028385,30.998205],[-102.027877,30.99816],[-102.027536,30.99784],[-102.027603,30.997184],[-102.026459,30.99666],[-102.026079,30.995862],[-102.026183,30.994976],[-102.027189,30.994072],[-102.027385,30.993216],[-102.027215,30.99284],[-102.026476,30.992494],[-102.026319,30.991703],[-102.024952,30.991298],[-102.024507,30.990136],[-102.024091,30.989755],[-102.023546,30.989756],[-102.022955,30.9902],[-102.022358,30.990005],[-102.021954,30.989153],[-102.022235,30.988098],[-102.021622,30.986994],[-102.020987,30.986533],[-102.019159,30.98656],[-102.018529,30.986327],[-102.017554,30.985301],[-102.0174,30.983787],[-102.016183,30.983775],[-102.015067,30.982851],[-102.013725,30.982852],[-102.013285,30.982223],[-102.013381,30.981133],[-102.01226,30.980252],[-102.011667,30.979338],[-102.010273,30.979666],[-102.01079,30.981284],[-102.010082,30.981067],[-102.009748,30.980371],[-102.00941,30.980185],[-102.00767,30.981033],[-102.006336,30.981244],[-102.006083,30.981467],[-102.007348,30.983223],[-102.007316,30.983874],[-102.006032,30.984555],[-102.004975,30.985529],[-102.004284,30.985612],[-102.003745,30.985299],[-102.003129,30.985366],[-102.001527,30.986885],[-102.000819,30.986425],[-102.000009,30.985282],[-101.9985,30.984913],[-101.997831,30.985392],[-101.997533,30.986863],[-101.997042,30.987721],[-101.995984,30.988172],[-101.995078,30.988188],[-101.993147,30.989326],[-101.989398,30.988591],[-101.988135,30.987768],[-101.987713,30.987197],[-101.985437,30.987027],[-101.984527,30.987445],[-101.982549,30.986737],[-101.981522,30.986001],[-101.980023,30.983645],[-101.978933,30.98259],[-101.977613,30.98247],[-101.976319,30.981805],[-101.97577,30.981157],[-101.97614,30.980625],[-101.975999,30.980339],[-101.975419,30.980131],[-101.973479,30.980369],[-101.971728,30.979123],[-101.970275,30.977469],[-101.970196,30.976331],[-101.96996,30.976095],[-101.969059,30.975558],[-101.967171,30.975185],[-101.966443,30.974444],[-101.965977,30.972686],[-101.965582,30.972274],[-101.964529,30.971851],[-101.963891,30.971142],[-101.962016,30.971022],[-101.961123,30.970709],[-101.958316,30.965461],[-101.956466,30.963516],[-101.956249,30.962346],[-101.956804,30.961725],[-101.956759,30.960901],[-101.955305,30.960879],[-101.954909,30.960643],[-101.95431,30.959786],[-101.954067,30.958731],[-101.953378,30.957467],[-101.952281,30.955879],[-101.951739,30.955692],[-101.95098,30.956577],[-101.948475,30.957209],[-101.94491,30.956589],[-101.940179,30.95754],[-101.939427,30.957903],[-101.93618,30.957762],[-101.935065,30.956248],[-101.934699,30.954577],[-101.935154,30.953811],[-101.936652,30.952551],[-101.937131,30.952476],[-101.937926,30.951648],[-101.938142,30.951129],[-101.937428,30.950295],[-101.936812,30.950154],[-101.93476,30.950591],[-101.933239,30.949595],[-101.931425,30.949306],[-101.931012,30.949392],[-101.929744,30.950335],[-101.929192,30.950321],[-101.92837,30.949902],[-101.927503,30.948646],[-101.926408,30.948047],[-101.923835,30.947982],[-101.922584,30.947524],[-101.921472,30.946795],[-101.91949,30.944434],[-101.918846,30.942651],[-101.91784,30.941374],[-101.917756,30.940776],[-101.918774,30.939664],[-101.918617,30.937872],[-101.919505,30.935534],[-101.919419,30.935145],[-101.918628,30.93463],[-101.917418,30.933956],[-101.915951,30.933594],[-101.915394,30.933652],[-101.915118,30.934044],[-101.913877,30.934377],[-101.913153,30.933529],[-101.91311,30.932198],[-101.912609,30.93136],[-101.91054,30.930346],[-101.90931,30.93018],[-101.90871,30.929731],[-101.908196,30.928245],[-101.907888,30.928006],[-101.901968,30.927342],[-101.900709,30.927896],[-101.898501,30.929434],[-101.895991,30.92878],[-101.89459,30.929237],[-101.893863,30.929102],[-101.89263,30.928135],[-101.892045,30.927201],[-101.891255,30.926942],[-101.888445,30.927422],[-101.888287,30.926972],[-101.888515,30.926519],[-101.888047,30.925938],[-101.885431,30.925266],[-101.883719,30.925818],[-101.880158,30.922212],[-101.879481,30.922115],[-101.878976,30.921727],[-101.877641,30.920096],[-101.877396,30.919188],[-101.877772,30.917321],[-101.876947,30.916197],[-101.875703,30.915132],[-101.875704,30.913511],[-101.874276,30.912236],[-101.874264,30.91183],[-101.874861,30.910636],[-101.875793,30.90959],[-101.877214,30.910308],[-101.877665,30.910134],[-101.878727,30.909057],[-101.879547,30.908806],[-101.879647,30.908415],[-101.880588,30.908281],[-101.881199,30.90855],[-101.881458,30.907551],[-101.881174,30.907079],[-101.88061,30.907141],[-101.87953,30.906201],[-101.880615,30.905575],[-101.880897,30.905089],[-101.882805,30.904072],[-101.883173,30.903255],[-101.882797,30.90287],[-101.884101,30.900853],[-101.885617,30.899086],[-101.887974,30.897016],[-101.88885,30.894653],[-101.889684,30.893764],[-101.890134,30.892262],[-101.89118,30.890743],[-101.891095,30.890162],[-101.888488,30.886903],[-101.888794,30.886355],[-101.888716,30.885849],[-101.887854,30.885704],[-101.886701,30.885133],[-101.885467,30.885165],[-101.884494,30.885874],[-101.883354,30.885792],[-101.883214,30.885279],[-101.884027,30.884788],[-101.884,30.884348],[-101.88346,30.883998],[-101.880689,30.883155],[-101.87855,30.883444],[-101.877366,30.88155],[-101.876823,30.881153],[-101.876066,30.880785],[-101.874353,30.880748],[-101.873148,30.880325],[-101.873367,30.879491],[-101.872785,30.878777],[-101.870116,30.878239],[-101.868837,30.878398],[-101.868501,30.878103],[-101.868457,30.876628],[-101.868244,30.876315],[-101.865918,30.876156],[-101.864898,30.876552],[-101.86417,30.876464],[-101.861884,30.874289],[-101.860262,30.873872],[-101.860053,30.873615],[-101.860375,30.871839],[-101.857761,30.869989],[-101.857719,30.8696],[-101.858195,30.86907],[-101.857983,30.867691],[-101.856777,30.866618],[-101.85618,30.866725],[-101.855851,30.866572],[-101.855474,30.865893],[-101.855907,30.864577],[-101.855336,30.86374],[-101.854597,30.863281],[-101.854641,30.86309],[-101.855246,30.862905],[-101.855145,30.862211],[-101.851599,30.857787],[-101.850144,30.857193],[-101.8498,30.856591],[-101.849872,30.856332],[-101.851285,30.855815],[-101.851457,30.855571],[-101.851439,30.854573],[-101.852152,30.853599],[-101.852663,30.851289],[-101.852443,30.850588],[-101.851512,30.850365],[-101.851308,30.846879],[-101.850256,30.845488],[-101.848948,30.844821],[-101.848017,30.844618],[-101.847036,30.843797],[-101.846109,30.841996],[-101.845038,30.840853],[-101.845264,30.83991],[-101.846603,30.837677],[-101.846606,30.836012],[-101.847561,30.834448],[-101.846907,30.833242],[-101.846998,30.832437],[-101.847564,30.831294],[-101.847181,30.82972],[-101.847295,30.82867],[-101.845949,30.827245],[-101.845937,30.826793],[-101.846411,30.826049],[-101.845254,30.824806],[-101.842808,30.824987],[-101.842323,30.824729],[-101.841946,30.823989],[-101.84222,30.823006],[-101.841919,30.822761],[-101.840774,30.823002],[-101.839879,30.821628],[-101.839652,30.819222],[-101.838409,30.819317],[-101.837925,30.818594],[-101.837231,30.816445],[-101.837324,30.815953],[-101.837857,30.815473],[-101.837706,30.814593],[-101.837515,30.814383],[-101.835136,30.813795],[-101.834914,30.813245],[-101.835229,30.812822],[-101.835458,30.811505],[-101.835215,30.811217],[-101.834103,30.811165],[-101.833557,30.810423],[-101.83382,30.809371],[-101.835175,30.808685],[-101.834509,30.807676],[-101.833998,30.807987],[-101.833354,30.808908],[-101.833055,30.808779],[-101.832921,30.808235],[-101.83331,30.805936],[-101.832409,30.805421],[-101.83282,30.804089],[-101.832389,30.802685],[-101.83155,30.802097],[-101.83159,30.801397],[-101.882128,30.800871],[-101.931088,30.801096],[-101.974438,30.800977],[-101.975822,30.801691],[-101.976671,30.801185],[-101.979291,30.801087],[-102.038038,30.801535],[-102.095009,30.800798],[-102.144941,30.800986],[-102.144079,30.926676],[-102.143577,30.965422],[-102.145107,30.965553],[-102.143882,30.968385],[-102.141781,30.967673],[-102.140294,30.96747],[-102.136192,30.967186],[-102.135946,30.967621],[-102.13289,30.980324],[-102.132788,30.981269],[-102.133078,30.981438],[-102.130441,30.992368],[-102.128895,31.000389],[-102.127756,31.001183],[-102.127048,31.001337],[-102.123295,30.999865],[-102.122799,30.99948],[-102.12282,30.99856],[-102.121223,30.998412],[-102.120926,30.997303],[-102.119215,30.996271],[-102.118077,30.996313],[-102.117981,30.995933],[-102.1188,30.994598],[-102.118741,30.994143],[-102.117923,30.993868],[-102.116513,30.994903],[-102.115975,30.994891],[-102.115246,30.994136],[-102.114837,30.992204],[-102.1142,30.991766],[-102.113363,30.992056],[-102.112496,30.992054],[-102.111198,30.992764],[-102.110625,30.992673],[-102.110486,30.992369],[-102.11075,30.991262],[-102.109992,30.990341],[-102.108968,30.990384],[-102.108085,30.991488],[-102.106543,30.991752],[-102.106456,30.992735],[-102.105918,30.993952],[-102.105611,30.994146],[-102.10357,30.994798],[-102.102759,30.994799],[-102.101606,30.993907],[-102.101167,30.993153],[-102.100832,30.993046],[-102.099252,30.994545],[-102.09716,30.9956],[-102.095827,30.994872],[-102.093843,30.994959],[-102.093355,30.994339],[-102.092358,30.993906],[-102.091913,30.993167],[-102.090811,30.99265],[-102.090655,30.991457],[-102.089144,30.990273],[-102.089002,30.989099],[-102.088723,30.988785],[-102.088449,30.988696],[-102.087399,30.989082],[-102.086942,30.989804],[-102.086439,30.989989],[-102.085815,30.989585],[-102.085839,30.988887],[-102.085555,30.98859],[-102.085026,30.988687],[-102.08446,30.9893],[-102.083938,30.989315],[-102.083623,30.989079],[-102.08336,30.987795],[-102.082742,30.987082],[-102.081729,30.986691],[-102.080978,30.986674],[-102.079056,30.986963],[-102.075951,30.988219],[-102.074903,30.988934],[-102.073324,30.989049],[-102.072879,30.989709],[-102.071456,30.989969],[-102.067252,30.99243],[-102.067007,30.992913],[-102.06755,30.993414],[-102.068915,30.993554],[-102.069519,30.993849],[-102.069582,30.994431],[-102.069209,30.994825],[-102.066098,30.995553],[-102.065794,30.995372],[-102.065384,30.994059],[-102.065089,30.993821],[-102.064722,30.993861],[-102.063239,30.995401],[-102.05824,30.999048],[-102.057451,30.999025],[-102.057046,30.998754],[-102.057172,30.997306],[-102.056265,30.99746],[-102.055518,30.998389],[-102.054616,30.998516],[-102.053739,30.999413],[-102.053094,31.000893],[-102.052523,31.001168],[-102.050947,31.001366],[-102.050744,31.001879],[-102.051018,31.002802],[-102.050276,31.003381],[-102.048878,31.003604],[-102.047722,31.002968],[-102.047423,31.002436],[-102.047565,31.001872]]]}},{"type":"Feature","properties":{"PRECINCT":"5","VTD":"0005"},"geometry":{"type":"Polygon","coordinates":[[[-102.366069,31.081574],[-102.363148,31.082951],[-102.362241,31.081803],[-102.360319,31.081582],[-102.360243,31.081288],[-102.360952,31.080638],[-102.361791,31.080638],[-102.362603,31.08021],[-102.362678,31.079608],[-102.36178,31.079124],[-102.360398,31.079247],[-102.358666,31.07825],[-102.358301,31.077477],[-102.35728,31.076798],[-102.357137,31.075566],[-102.356405,31.074445],[-102.355873,31.074579],[-102.355046,31.075721],[-102.354771,31.075775],[-102.354424,31.075403],[-102.354721,31.074433],[-102.354555,31.074008],[-102.354038,31.073936],[-102.353339,31.074531],[-102.352072,31.074931],[-102.351562,31.074114],[-102.351642,31.073334],[-102.351438,31.073061],[-102.350222,31.07293],[-102.349104,31.072521],[-102.348436,31.073027],[-102.348274,31.074015],[-102.347698,31.073994],[-102.347457,31.073019],[-102.347987,31.072003],[-102.349652,31.070775],[-102.349718,31.070354],[-102.349381,31.070088],[-102.348137,31.070124],[-102.347368,31.069855],[-102.344946,31.070197],[-102.344095,31.06952],[-102.34208,31.069246],[-102.341685,31.068547],[-102.339612,31.067621],[-102.338519,31.067504],[-102.337701,31.067982],[-102.33644,31.067694],[-102.335915,31.067042],[-102.334099,31.06605],[-102.333706,31.066129],[-102.33318,31.066891],[-102.332667,31.06713],[-102.332329,31.067112],[-102.331565,31.066467],[-102.331009,31.066428],[-102.330522,31.068112],[-102.330143,31.06834],[-102.329717,31.068255],[-102.328889,31.067304],[-102.328895,31.066063],[-102.328449,31.066021],[-102.327661,31.066549],[-102.327365,31.066389],[-102.327578,31.064523],[-102.327248,31.06428],[-102.326093,31.064282],[-102.326272,31.063307],[-102.326061,31.062967],[-102.325809,31.062877],[-102.32492,31.063212],[-102.324171,31.062877],[-102.32315,31.062801],[-102.3229,31.061516],[-102.321748,31.060628],[-102.321004,31.059722],[-102.320627,31.060042],[-102.320457,31.060648],[-102.321089,31.061432],[-102.320966,31.061864],[-102.318569,31.060993],[-102.318515,31.06056],[-102.319491,31.060068],[-102.320009,31.059482],[-102.319808,31.059193],[-102.319079,31.058984],[-102.318585,31.058338],[-102.318815,31.057167],[-102.317946,31.056543],[-102.317869,31.056201],[-102.318866,31.055303],[-102.317515,31.055022],[-102.318122,31.053631],[-102.317162,31.052369],[-102.316426,31.05229],[-102.315546,31.053106],[-102.314999,31.05291],[-102.314244,31.052177],[-102.312983,31.052087],[-102.312661,31.052555],[-102.31271,31.053339],[-102.312339,31.053756],[-102.311812,31.053666],[-102.311465,31.05288],[-102.311061,31.05264],[-102.310447,31.053057],[-102.31019,31.053952],[-102.309865,31.054135],[-102.30963,31.054039],[-102.309217,31.053016],[-102.306927,31.052937],[-102.30638,31.052738],[-102.305607,31.051958],[-102.304345,31.052081],[-102.303801,31.051878],[-102.303819,31.051285],[-102.304567,31.050797],[-102.304685,31.050477],[-102.303939,31.049602],[-102.303081,31.049806],[-102.302491,31.049509],[-102.302841,31.048549],[-102.302551,31.047346],[-102.301389,31.046524],[-102.301754,31.045094],[-102.301062,31.04437],[-102.299634,31.044117],[-102.299117,31.043813],[-102.299537,31.042037],[-102.29939,31.041797],[-102.298381,31.041709],[-102.297618,31.042491],[-102.297212,31.042525],[-102.297288,31.042106],[-102.298023,31.041576],[-102.298166,31.040739],[-102.297651,31.040391],[-102.296468,31.040357],[-102.295939,31.041025],[-102.295535,31.041056],[-102.295383,31.039696],[-102.294922,31.039507],[-102.294002,31.039578],[-102.294013,31.038332],[-102.292807,31.037877],[-102.29277,31.036729],[-102.291169,31.036157],[-102.290254,31.036102],[-102.289267,31.03547],[-102.288937,31.035768],[-102.288942,31.036662],[-102.288363,31.036799],[-102.28758,31.036235],[-102.286571,31.036144],[-102.28553,31.035437],[-102.285148,31.034996],[-102.284785,31.033815],[-102.284319,31.033946],[-102.28395,31.034534],[-102.28291,31.034914],[-102.282229,31.034639],[-102.282097,31.034136],[-102.281664,31.03387],[-102.280797,31.03443],[-102.280332,31.034464],[-102.27888,31.032952],[-102.278089,31.0334],[-102.276255,31.033638],[-102.275982,31.034032],[-102.274491,31.034915],[-102.27315,31.03442],[-102.272058,31.035739],[-102.270812,31.035568],[-102.270357,31.036145],[-102.269908,31.036232],[-102.268668,31.035754],[-102.268075,31.034797],[-102.267067,31.034755],[-102.265961,31.034274],[-102.264946,31.035253],[-102.265975,31.036207],[-102.265994,31.036492],[-102.265337,31.036641],[-102.264312,31.036306],[-102.263964,31.037231],[-102.263012,31.037379],[-102.261752,31.038629],[-102.260992,31.038677],[-102.258947,31.03812],[-102.25848,31.038507],[-102.257862,31.040163],[-102.256765,31.040379],[-102.255876,31.040895],[-102.254949,31.040705],[-102.254063,31.041059],[-102.252935,31.04022],[-102.252162,31.040512],[-102.251637,31.040191],[-102.249932,31.04016],[-102.249076,31.040721],[-102.249254,31.041783],[-102.24909,31.042226],[-102.247797,31.04201],[-102.246831,31.04225],[-102.24657,31.042053],[-102.246841,31.041134],[-102.246655,31.040877],[-102.244644,31.041344],[-102.244135,31.041114],[-102.24344,31.040307],[-102.242318,31.040034],[-102.241567,31.039313],[-102.238852,31.039476],[-102.238785,31.03922],[-102.239568,31.038342],[-102.237956,31.036976],[-102.237407,31.036979],[-102.236473,31.037403],[-102.235572,31.03719],[-102.234429,31.037323],[-102.233341,31.036628],[-102.231937,31.036902],[-102.231684,31.036609],[-102.232264,31.035753],[-102.232035,31.035469],[-102.231283,31.035564],[-102.229241,31.035097],[-102.228609,31.03519],[-102.227647,31.034204],[-102.226538,31.034733],[-102.225858,31.032901],[-102.224724,31.033212],[-102.224373,31.034197],[-102.223902,31.034288],[-102.223511,31.033801],[-102.223781,31.032943],[-102.223134,31.032719],[-102.221882,31.034308],[-102.220849,31.034402],[-102.21866,31.033768],[-102.218465,31.032559],[-102.218121,31.032237],[-102.215503,31.033403],[-102.214952,31.032695],[-102.215104,31.03209],[-102.214327,31.031821],[-102.21264,31.032692],[-102.211316,31.032825],[-102.210134,31.033386],[-102.206888,31.032249],[-102.205426,31.031102],[-102.20308,31.031206],[-102.201692,31.030838],[-102.201434,31.030392],[-102.201607,31.02978],[-102.202699,31.028756],[-102.202413,31.028317],[-102.201308,31.028047],[-102.20121,31.026461],[-102.202605,31.026213],[-102.202805,31.0255],[-102.202432,31.02515],[-102.200361,31.024617],[-102.199385,31.023589],[-102.19921,31.022642],[-102.199612,31.022282],[-102.2017,31.022692],[-102.202011,31.022367],[-102.201884,31.021561],[-102.201133,31.020782],[-102.199829,31.020433],[-102.20011,31.019379],[-102.198075,31.017166],[-102.197474,31.016934],[-102.196317,31.017099],[-102.195985,31.016971],[-102.197067,31.015194],[-102.196332,31.014159],[-102.195014,31.014179],[-102.194512,31.013918],[-102.1944,31.01346],[-102.194821,31.012171],[-102.194354,31.011332],[-102.193384,31.010742],[-102.193182,31.010172],[-102.193323,31.008472],[-102.194416,31.007594],[-102.194598,31.007005],[-102.194084,31.006423],[-102.192625,31.005925],[-102.19307,31.004583],[-102.192868,31.004271],[-102.192032,31.00389],[-102.189631,31.003373],[-102.1882,31.004546],[-102.188428,31.005297],[-102.188189,31.005877],[-102.187142,31.006184],[-102.186416,31.005938],[-102.185949,31.006011],[-102.184993,31.00724],[-102.185296,31.009042],[-102.184552,31.009742],[-102.184509,31.010487],[-102.184735,31.011171],[-102.185556,31.011768],[-102.184792,31.01215],[-102.184762,31.012369],[-102.185233,31.013982],[-102.186067,31.015024],[-102.183604,31.016498],[-102.182102,31.016263],[-102.180886,31.016701],[-102.179823,31.015969],[-102.17673,31.014618],[-102.176628,31.014304],[-102.177038,31.013705],[-102.176931,31.013266],[-102.176341,31.012573],[-102.175313,31.011944],[-102.175406,31.011563],[-102.176086,31.011054],[-102.17608,31.010024],[-102.176418,31.009011],[-102.174079,31.006969],[-102.172502,31.006687],[-102.171758,31.006849],[-102.171644,31.007423],[-102.17315,31.007719],[-102.17289,31.008339],[-102.172379,31.008448],[-102.170951,31.008024],[-102.170616,31.006257],[-102.170389,31.006077],[-102.167718,31.005926],[-102.167275,31.006089],[-102.167123,31.006393],[-102.167363,31.007215],[-102.166859,31.007336],[-102.166247,31.006972],[-102.16579,31.005788],[-102.163503,31.005463],[-102.163169,31.005564],[-102.162142,31.006773],[-102.16135,31.007222],[-102.160646,31.007098],[-102.160519,31.006034],[-102.159966,31.00583],[-102.159263,31.006022],[-102.158409,31.006741],[-102.156649,31.00663],[-102.156478,31.006907],[-102.156783,31.007666],[-102.156506,31.007934],[-102.156135,31.007737],[-102.155782,31.007014],[-102.155283,31.006783],[-102.154683,31.006916],[-102.154439,31.007706],[-102.154175,31.007874],[-102.153715,31.00778],[-102.152958,31.006991],[-102.15193,31.007302],[-102.14922,31.004616],[-102.149549,31.003419],[-102.149372,31.003083],[-102.147521,31.003037],[-102.146917,31.002619],[-102.146514,31.001539],[-102.144751,31.001301],[-102.144546,31.000674],[-102.14528,30.999149],[-102.144802,30.998855],[-102.143655,30.99893],[-102.143195,30.998746],[-102.143352,30.997388],[-102.143154,30.996782],[-102.142024,30.996699],[-102.140435,30.995991],[-102.139902,30.995155],[-102.139397,30.994925],[-102.137546,30.995186],[-102.136949,30.995625],[-102.135119,30.995554],[-102.132584,30.996579],[-102.131991,30.997504],[-102.132185,30.998103],[-102.132035,30.998392],[-102.131635,30.998688],[-102.130484,30.998588],[-102.130077,30.998753],[-102.128895,31.000389],[-102.130441,30.992368],[-102.133078,30.981438],[-102.132788,30.981269],[-102.13289,30.980324],[-102.135946,30.967621],[-102.136192,30.967186],[-102.140294,30.96747],[-102.141781,30.967673],[-102.143882,30.968385],[-102.145107,30.965553],[-102.143577,30.965422],[-102.144079,30.926676],[-102.144941,30.800986],[-102.203099,30.801525],[-102.233591,30.802859],[-102.298071,30.801661],[-102.300226,30.800927],[-102.301374,30.800774],[-102.302519,30.801112],[-102.369213,30.799159],[-102.369207,30.798955],[-102.433566,30.797302],[-102.486859,30.796627],[-102.486862,30.796766],[-102.502667,30.796768],[-102.502873,30.817009],[-102.514248,30.816831],[-102.514271,30.822089],[-102.51389,30.822136],[-102.514449,30.823932],[-102.514262,30.824688],[-102.514912,30.890898],[-102.492004,30.890611],[-102.491946,30.90949],[-102.490783,30.963382],[-102.489843,30.963432],[-102.489593,30.963863],[-102.488561,31.00008],[-102.49073,31.004822],[-102.490803,31.007443],[-102.491258,31.00728],[-102.496344,31.019138],[-102.496739,31.021811],[-102.48761,31.063623],[-102.488069,31.064837],[-102.489369,31.065563],[-102.509069,31.068861],[-102.482115,31.078588],[-102.480704,31.078934],[-102.375603,31.078203],[-102.373342,31.078778],[-102.366669,31.083289],[-102.366414,31.082897],[-102.36645,31.082105],[-102.366069,31.081574]]]}},{"type":"Feature","properties":{"PRECINCT":"6","VTD":"0006"},"geometry":{"type":"Polygon","coordinates":[[[-102.99552,31.208169],[-102.994439,31.208175],[-102.993113,31.208521],[-102.992724,31.209058],[-102.976321,31.206069],[-102.975666,31.206258],[-102.975446,31.206073],[-102.977119,31.199188],[-102.944356,31.193422],[-102.947213,31.181438],[-102.913275,31.175368],[-102.918576,31.153893],[-102.892396,31.149223],[-102.891595,31.148855],[-102.891845,31.065854],[-102.891521,31.06372],[-102.889064,31.054239],[-102.883598,31.019371],[-102.883792,30.983299],[-102.933583,30.98354],[-102.944612,30.983404],[-102.962988,30.983634],[-102.964831,30.984538],[-102.964821,30.983643],[-102.986594,30.983649],[-102.987933,30.982857],[-102.988479,30.981572],[-102.988802,30.952421],[-103.025811,30.976668],[-103.081448,31.007112],[-103.109782,31.024141],[-103.123946,31.030601],[-103.147784,31.047832],[-103.253464,31.117154],[-103.247406,31.123785],[-103.045817,31.33505],[-103.052624,31.312549],[-103.05594,31.298157],[-103.057555,31.292227],[-103.058761,31.286222],[-103.059796,31.282789],[-103.061452,31.279975],[-103.061764,31.278899],[-103.061688,31.277509],[-103.065166,31.263253],[-103.051403,31.260907],[-103.048415,31.259396],[-103.032552,31.256625],[-103.038554,31.231263],[-103.042161,31.217225],[-103.025451,31.214157],[-103.024886,31.213482],[-103.02352,31.213117],[-102.99552,31.208169]]]}},{"type":"Feature","properties":{"PRECINCT":"7","VTD":"0007"},"geometry":{"type":"Polygon","coordinates":[[[-102.891757,31.09995],[-102.87905,31.100005],[-102.878788,31.099834],[-102.85766,31.099592],[-102.856779,31.099875],[-102.841302,31.099851],[-102.841265,31.088855],[-102.823629,31.088843],[-102.823518,31.077522],[-102.794064,31.077333],[-102.793967,31.063183],[-102.794365,31.060426],[-102.777165,31.06052],[-102.777192,31.047571],[-102.776688,31.045961],[-102.777124,31.045504],[-102.775246,31.038564],[-102.775593,31.008338],[-102.729456,31.008055],[-102.729428,31.008328],[-102.717431,31.00812],[-102.715852,31.008309],[-102.715789,31.008084],[-102.685255,31.007714],[-102.679026,31.006593],[-102.67731,31.007379],[-102.628904,31.025128],[-102.624531,31.027006],[-102.619136,31.028747],[-102.602681,31.034794],[-102.602603,31.034404],[-102.594739,31.037256],[-102.509069,31.068861],[-102.489369,31.065563],[-102.488353,31.065099],[-102.487696,31.064195],[-102.487682,31.063088],[-102.496739,31.021811],[-102.496344,31.019138],[-102.491213,31.007211],[-102.573828,30.96253],[-102.582536,30.958288],[-102.584325,30.957035],[-102.586403,30.954263],[-102.592248,30.944791],[-102.635928,30.886493],[-102.637264,30.885227],[-102.644429,30.880359],[-102.644708,30.880601],[-102.647464,30.879248],[-102.650277,30.878656],[-102.649764,30.878482],[-102.65007,30.878387],[-102.657552,30.878751],[-102.680141,30.881619],[-102.709223,30.888472],[-102.712724,30.888981],[-102.842955,30.891893],[-102.847728,30.892529],[-102.850995,30.89272],[-102.851178,30.894285],[-102.851588,30.894317],[-102.853604,30.895826],[-102.864993,30.901809],[-102.869093,30.903748],[-102.875057,30.897905],[-102.885579,30.897891],[-102.885628,30.892951],[-102.886735,30.89295],[-102.886751,30.88999],[-102.888932,30.889989],[-102.888889,30.900872],[-102.884476,30.900874],[-102.884227,30.903893],[-102.883598,31.019371],[-102.889064,31.054239],[-102.891521,31.06372],[-102.891845,31.065854],[-102.891757,31.09995]]]}},{"type":"Feature","properties":{"PRECINCT":"9","VTD":"0009"},"geometry":{"type":"Polygon","coordinates":[[[-103.010582,31.370687],[-103.010127,31.37072],[-103.009794,31.370478],[-103.009929,31.370198],[-103.009346,31.369246],[-103.008525,31.369933],[-103.007795,31.369696],[-103.007674,31.369344],[-103.004754,31.366391],[-103.004184,31.365467],[-103.003262,31.365224],[-103.001596,31.365306],[-102.99864,31.36377],[-102.997486,31.362055],[-102.996877,31.361599],[-102.996351,31.361528],[-102.996216,31.361104],[-102.996805,31.359873],[-102.997465,31.359619],[-102.997741,31.360103],[-102.998247,31.360191],[-102.99867,31.359916],[-102.998919,31.35919],[-102.997701,31.358734],[-102.99617,31.358916],[-102.995728,31.358708],[-102.995593,31.358268],[-102.996368,31.35736],[-102.995971,31.356904],[-102.994914,31.35691],[-102.993242,31.357873],[-102.992133,31.357104],[-102.990089,31.356208],[-102.988731,31.35622],[-102.987181,31.357974],[-102.986573,31.35815],[-102.985977,31.357842],[-102.985617,31.356435],[-102.985124,31.355929],[-102.983208,31.355699],[-102.982119,31.355853],[-102.981197,31.35631],[-102.980364,31.356129],[-102.979838,31.355101],[-102.979838,31.354287],[-102.980177,31.353858],[-102.98017,31.353424],[-102.979837,31.353094],[-102.978908,31.353003],[-102.978054,31.35351],[-102.97762,31.354927],[-102.976123,31.35582],[-102.976194,31.356476],[-102.977676,31.357406],[-102.97757,31.358074],[-102.977071,31.358276],[-102.976792,31.358098],[-102.97609,31.358147],[-102.975646,31.357529],[-102.975032,31.357416],[-102.974595,31.357043],[-102.9741,31.356203],[-102.973543,31.356047],[-102.97326,31.356617],[-102.973862,31.357272],[-102.974041,31.357978],[-102.973593,31.358825],[-102.972702,31.359044],[-102.972158,31.358827],[-102.97179,31.358361],[-102.971783,31.357878],[-102.972356,31.356874],[-102.9719,31.356195],[-102.970204,31.355005],[-102.968627,31.354437],[-102.968164,31.353603],[-102.968543,31.352842],[-102.968454,31.352463],[-102.967383,31.35171],[-102.966168,31.351288],[-102.964581,31.351605],[-102.962929,31.351638],[-102.962429,31.352092],[-102.963146,31.352667],[-102.963144,31.353206],[-102.962049,31.353591],[-102.961464,31.354206],[-102.959319,31.354843],[-102.958517,31.354373],[-102.957945,31.353127],[-102.957417,31.352625],[-102.957476,31.352142],[-102.958308,31.351334],[-102.958147,31.350938],[-102.957065,31.351174],[-102.956272,31.352216],[-102.955662,31.352458],[-102.955093,31.352423],[-102.95338,31.351371],[-102.953016,31.351743],[-102.953324,31.352699],[-102.953006,31.352982],[-102.951758,31.352682],[-102.950336,31.352819],[-102.949113,31.352214],[-102.947799,31.353297],[-102.945397,31.352555],[-102.945224,31.351456],[-102.944449,31.350438],[-102.944263,31.349388],[-102.943898,31.349119],[-102.941893,31.350384],[-102.941252,31.350279],[-102.941182,31.349482],[-102.940689,31.348927],[-102.940432,31.348932],[-102.939651,31.349669],[-102.939196,31.349647],[-102.938722,31.348987],[-102.938235,31.348844],[-102.936602,31.349223],[-102.935679,31.350097],[-102.934769,31.349916],[-102.933443,31.350026],[-102.933418,31.349751],[-102.934007,31.349328],[-102.93411,31.348739],[-102.933629,31.34759],[-102.933014,31.347277],[-102.93263,31.346617],[-102.931682,31.346133],[-102.931509,31.345759],[-102.931388,31.345028],[-102.932176,31.344572],[-102.932297,31.343989],[-102.93037,31.341356],[-102.930357,31.340064],[-102.929902,31.339679],[-102.928922,31.339393],[-102.928576,31.338695],[-102.927334,31.337771],[-102.926213,31.33826],[-102.92563,31.337386],[-102.924983,31.337314],[-102.924778,31.337842],[-102.925009,31.338414],[-102.924634,31.338947],[-102.924174,31.338811],[-102.92357,31.337704],[-102.923034,31.337802],[-102.921658,31.338873],[-102.919524,31.338812],[-102.919667,31.338316],[-102.919347,31.338031],[-102.918341,31.338762],[-102.917691,31.339619],[-102.917367,31.339698],[-102.917131,31.339196],[-102.917531,31.338232],[-102.917201,31.337994],[-102.915914,31.338904],[-102.914973,31.33837],[-102.91427,31.339089],[-102.913732,31.339005],[-102.912649,31.337781],[-102.912093,31.336518],[-102.910932,31.336475],[-102.909497,31.335993],[-102.905944,31.334257],[-102.905573,31.333999],[-102.90479,31.332561],[-102.902871,31.331726],[-102.90102,31.329997],[-102.900708,31.329301],[-102.900047,31.328647],[-102.899793,31.325882],[-102.899945,31.324709],[-102.899045,31.323891],[-102.896274,31.322792],[-102.895667,31.322069],[-102.894947,31.321782],[-102.893106,31.321277],[-102.892036,31.321233],[-102.891245,31.320756],[-102.889321,31.320253],[-102.887632,31.320234],[-102.885943,31.319649],[-102.884228,31.319573],[-102.88325,31.31917],[-102.882238,31.319329],[-102.880583,31.318498],[-102.878442,31.318035],[-102.876806,31.317014],[-102.875584,31.316579],[-102.875387,31.316292],[-102.875481,31.314722],[-102.875293,31.314293],[-102.874113,31.314102],[-102.873373,31.313173],[-102.872928,31.31207],[-102.873031,31.311665],[-102.873944,31.31098],[-102.875684,31.311195],[-102.876161,31.311859],[-102.876497,31.311767],[-102.877034,31.310789],[-102.876717,31.309086],[-102.877161,31.308718],[-102.87785,31.308963],[-102.877926,31.307024],[-102.877283,31.305214],[-102.876545,31.304629],[-102.875216,31.304312],[-102.874663,31.303706],[-102.874567,31.303206],[-102.873197,31.303031],[-102.872601,31.30252],[-102.87276,31.301332],[-102.871972,31.300293],[-102.871108,31.300244],[-102.87043,31.300937],[-102.869174,31.299992],[-102.867298,31.299234],[-102.865998,31.299284],[-102.865454,31.298911],[-102.865185,31.298312],[-102.86489,31.297201],[-102.865081,31.296437],[-102.864767,31.296256],[-102.863346,31.296669],[-102.862213,31.296196],[-102.860849,31.296213],[-102.858928,31.29562],[-102.857685,31.293004],[-102.857378,31.292751],[-102.85645,31.293158],[-102.855957,31.293065],[-102.855809,31.292696],[-102.856346,31.290915],[-102.856199,31.290651],[-102.855725,31.290585],[-102.855341,31.291273],[-102.853325,31.29179],[-102.852345,31.291367],[-102.852614,31.29057],[-102.85214,31.290059],[-102.851743,31.289987],[-102.851039,31.290323],[-102.848683,31.290686],[-102.847697,31.29028],[-102.84648,31.288642],[-102.844354,31.287032],[-102.842837,31.286757],[-102.841832,31.28596],[-102.840008,31.285708],[-102.838849,31.285834],[-102.837415,31.285032],[-102.836986,31.284488],[-102.837242,31.283031],[-102.83696,31.28247],[-102.835961,31.281673],[-102.835519,31.280206],[-102.832414,31.27798],[-102.831601,31.276649],[-102.830577,31.276259],[-102.829764,31.275627],[-102.829284,31.274247],[-102.829821,31.273846],[-102.830864,31.274192],[-102.831114,31.273593],[-102.830544,31.272911],[-102.828771,31.27185],[-102.827984,31.270471],[-102.827446,31.270333],[-102.826345,31.270878],[-102.826019,31.270669],[-102.827151,31.268948],[-102.826767,31.268679],[-102.825545,31.268789],[-102.825423,31.268514],[-102.826019,31.268134],[-102.827087,31.267909],[-102.827292,31.267244],[-102.82694,31.266914],[-102.825116,31.266914],[-102.824802,31.267183],[-102.824374,31.267178],[-102.823458,31.26808],[-102.82342,31.269131],[-102.82421,31.269672],[-102.82383,31.270463],[-102.823114,31.27043],[-102.822263,31.269564],[-102.821577,31.267856],[-102.821003,31.267742],[-102.820719,31.267889],[-102.820427,31.268986],[-102.81915,31.269365],[-102.818834,31.269745],[-102.81911,31.269929],[-102.820788,31.269847],[-102.821061,31.27017],[-102.817554,31.271205],[-102.816869,31.271916],[-102.816871,31.272122],[-102.817934,31.272874],[-102.817949,31.273445],[-102.817497,31.273953],[-102.81696,31.273768],[-102.816453,31.272759],[-102.816216,31.272689],[-102.814946,31.27286],[-102.814457,31.273746],[-102.81393,31.274111],[-102.813473,31.273895],[-102.813089,31.272885],[-102.812737,31.272615],[-102.812111,31.274893],[-102.811595,31.275115],[-102.810584,31.273716],[-102.810169,31.273557],[-102.809552,31.273986],[-102.809725,31.274735],[-102.80911,31.276686],[-102.80871,31.276867],[-102.807463,31.276687],[-102.806334,31.27724],[-102.806336,31.27829],[-102.8047,31.279082],[-102.803953,31.279888],[-102.802115,31.281113],[-102.802018,31.281272],[-102.802631,31.282213],[-102.802496,31.282856],[-102.802227,31.282983],[-102.800333,31.282636],[-102.8,31.281806],[-102.800179,31.280767],[-102.799495,31.280509],[-102.798573,31.281267],[-102.796684,31.281366],[-102.79557,31.282911],[-102.794802,31.282894],[-102.794226,31.282141],[-102.792805,31.281921],[-102.792184,31.282965],[-102.791461,31.283416],[-102.790014,31.283789],[-102.789291,31.28424],[-102.788273,31.284196],[-102.787108,31.284509],[-102.785834,31.285493],[-102.784335,31.286207],[-102.782741,31.287768],[-102.782357,31.288719],[-102.781844,31.289142],[-102.779597,31.290719],[-102.778585,31.291098],[-102.778553,31.292588],[-102.778271,31.292797],[-102.776594,31.291537],[-102.775666,31.291548],[-102.775288,31.292207],[-102.775621,31.29295],[-102.774794,31.294098],[-102.774724,31.295033],[-102.77441,31.295324],[-102.773418,31.295148],[-102.77343,31.29478],[-102.772797,31.29407],[-102.772713,31.293625],[-102.772368,31.293449],[-102.772087,31.293619],[-102.771651,31.293421],[-102.770409,31.294273],[-102.769302,31.294261],[-102.768962,31.295427],[-102.768661,31.295619],[-102.768047,31.295212],[-102.768021,31.293849],[-102.766107,31.293711],[-102.76436,31.294188],[-102.763656,31.293819],[-102.763297,31.293017],[-102.762913,31.292907],[-102.762548,31.293022],[-102.761748,31.294495],[-102.761274,31.294456],[-102.760045,31.293549],[-102.760148,31.293131],[-102.759898,31.292949],[-102.758702,31.292501],[-102.757343,31.291632],[-102.75595,31.291705],[-102.755578,31.291435],[-102.755994,31.291013],[-102.757224,31.290854],[-102.757911,31.290386],[-102.757636,31.28992],[-102.757349,31.289891],[-102.755773,31.290569],[-102.755132,31.290422],[-102.755228,31.290059],[-102.756106,31.28919],[-102.756525,31.288015],[-102.75599,31.286724],[-102.754787,31.28642],[-102.754401,31.285672],[-102.754789,31.28505],[-102.755479,31.28475],[-102.756347,31.285442],[-102.756935,31.285473],[-102.7571,31.283625],[-102.756894,31.283254],[-102.755929,31.283056],[-102.755945,31.282374],[-102.754796,31.280199],[-102.754163,31.279755],[-102.753719,31.279054],[-102.753248,31.279151],[-102.751839,31.280094],[-102.750532,31.280372],[-102.750398,31.280971],[-102.749299,31.281905],[-102.748204,31.281848],[-102.746454,31.282554],[-102.746013,31.282493],[-102.74559,31.281898],[-102.744864,31.281556],[-102.744007,31.281284],[-102.743366,31.281393],[-102.743258,31.282436],[-102.743656,31.282642],[-102.744369,31.282341],[-102.744492,31.282908],[-102.743719,31.28403],[-102.742479,31.284823],[-102.742207,31.284704],[-102.742186,31.283449],[-102.741844,31.28298],[-102.740354,31.282904],[-102.739244,31.282596],[-102.737602,31.283688],[-102.737576,31.284787],[-102.736891,31.285638],[-102.734984,31.285591],[-102.732897,31.286315],[-102.731491,31.286492],[-102.729976,31.287703],[-102.729956,31.288105],[-102.731403,31.289347],[-102.731407,31.289966],[-102.732087,31.2908],[-102.732595,31.292129],[-102.73216,31.292975],[-102.730543,31.293182],[-102.729826,31.29353],[-102.729181,31.294107],[-102.72894,31.295052],[-102.729185,31.295264],[-102.731464,31.295122],[-102.732054,31.295617],[-102.732204,31.29633],[-102.731837,31.29676],[-102.732329,31.297865],[-102.732277,31.29833],[-102.731266,31.298344],[-102.730546,31.297799],[-102.729972,31.29779],[-102.729609,31.298015],[-102.729354,31.298797],[-102.73059,31.299251],[-102.730795,31.299549],[-102.730676,31.300643],[-102.729784,31.30134],[-102.729348,31.301103],[-102.729548,31.300564],[-102.728935,31.299977],[-102.7276,31.299506],[-102.726858,31.299777],[-102.726756,31.300434],[-102.72698,31.300731],[-102.72878,31.301554],[-102.729324,31.302188],[-102.729465,31.302995],[-102.728277,31.303797],[-102.726912,31.304344],[-102.726299,31.304375],[-102.726076,31.304619],[-102.726078,31.305563],[-102.725186,31.306763],[-102.725229,31.307713],[-102.724875,31.308418],[-102.724214,31.308382],[-102.723995,31.30759],[-102.722826,31.307074],[-102.722521,31.307469],[-102.722583,31.309018],[-102.721905,31.309675],[-102.720133,31.309704],[-102.719344,31.30912],[-102.718694,31.309044],[-102.71806,31.309632],[-102.717745,31.310793],[-102.717297,31.310939],[-102.716698,31.310829],[-102.716279,31.310273],[-102.715308,31.310056],[-102.713431,31.310406],[-102.711787,31.310357],[-102.711484,31.310787],[-102.711607,31.312292],[-102.710914,31.312728],[-102.709994,31.312536],[-102.70958,31.311693],[-102.709149,31.311362],[-102.708332,31.31113],[-102.707559,31.311333],[-102.70647,31.312045],[-102.705638,31.313015],[-102.704494,31.313527],[-102.703848,31.314556],[-102.70275,31.314664],[-102.702041,31.31443],[-102.701357,31.314586],[-102.700502,31.31538],[-102.698964,31.31611],[-102.696971,31.318189],[-102.695853,31.318753],[-102.69233,31.31974],[-102.690602,31.319997],[-102.689165,31.32072],[-102.68857,31.322247],[-102.686834,31.322058],[-102.685715,31.322731],[-102.683287,31.323294],[-102.682081,31.324155],[-102.681537,31.325294],[-102.680126,31.325246],[-102.679236,31.326333],[-102.676497,31.326823],[-102.676333,31.327157],[-102.67726,31.328093],[-102.677293,31.329099],[-102.676627,31.329898],[-102.676104,31.330084],[-102.675339,31.329774],[-102.674524,31.328913],[-102.673244,31.328105],[-102.671522,31.328208],[-102.670288,31.326992],[-102.669688,31.326915],[-102.669012,31.327237],[-102.667909,31.326819],[-102.666224,31.325136],[-102.665913,31.323943],[-102.665261,31.323313],[-102.664361,31.321057],[-102.664622,31.320359],[-102.664364,31.319842],[-102.664522,31.318721],[-102.664158,31.317465],[-102.665114,31.316223],[-102.665095,31.31562],[-102.665559,31.314603],[-102.665224,31.313921],[-102.664554,31.313979],[-102.66385,31.315367],[-102.663297,31.31575],[-102.66198,31.315902],[-102.661483,31.315455],[-102.661091,31.3144],[-102.660772,31.314335],[-102.659733,31.31481],[-102.658478,31.314619],[-102.656979,31.313678],[-102.656331,31.313525],[-102.655904,31.314022],[-102.655637,31.315525],[-102.655154,31.315676],[-102.653882,31.314107],[-102.65284,31.314156],[-102.652533,31.313984],[-102.652728,31.312775],[-102.651049,31.312242],[-102.650467,31.312727],[-102.650343,31.313987],[-102.649024,31.314057],[-102.648815,31.314506],[-102.649063,31.315168],[-102.648537,31.315563],[-102.647842,31.315527],[-102.647369,31.315017],[-102.648229,31.313509],[-102.647962,31.312897],[-102.647457,31.312865],[-102.646733,31.313597],[-102.646287,31.313581],[-102.643128,31.311453],[-102.642522,31.310346],[-102.641122,31.310309],[-102.641008,31.309682],[-102.641405,31.308985],[-102.642135,31.308423],[-102.642308,31.30799],[-102.642139,31.307533],[-102.641497,31.307346],[-102.640453,31.308095],[-102.63985,31.307937],[-102.639588,31.307362],[-102.639894,31.306498],[-102.638015,31.304873],[-102.637532,31.30485],[-102.636224,31.305398],[-102.635165,31.305273],[-102.636536,31.302737],[-102.637039,31.300973],[-102.636729,31.298902],[-102.635669,31.298222],[-102.635556,31.297931],[-102.635728,31.297695],[-102.636509,31.297481],[-102.636954,31.296807],[-102.638016,31.296158],[-102.637233,31.29555],[-102.635953,31.295222],[-102.635712,31.293917],[-102.634651,31.293367],[-102.63412,31.293427],[-102.633307,31.294031],[-102.632037,31.2939],[-102.63171,31.293546],[-102.631489,31.292562],[-102.629853,31.292392],[-102.629977,31.291352],[-102.629665,31.291],[-102.628955,31.291026],[-102.627171,31.291638],[-102.625987,31.291613],[-102.625064,31.2921],[-102.623598,31.29232],[-102.622117,31.291111],[-102.621987,31.289809],[-102.621224,31.289168],[-102.62048,31.289112],[-102.619094,31.289677],[-102.617561,31.289213],[-102.616186,31.289323],[-102.616192,31.288766],[-102.617074,31.287714],[-102.616897,31.285979],[-102.616009,31.285303],[-102.61459,31.285097],[-102.613476,31.285377],[-102.612386,31.284554],[-102.611754,31.284983],[-102.610501,31.285218],[-102.608596,31.286082],[-102.60843,31.28554],[-102.608602,31.28464],[-102.608074,31.283608],[-102.60849,31.283457],[-102.609393,31.28379],[-102.61015,31.283586],[-102.610331,31.282993],[-102.609873,31.282008],[-102.609045,31.281517],[-102.607142,31.281685],[-102.606746,31.281531],[-102.606994,31.280969],[-102.608312,31.280642],[-102.608688,31.28042],[-102.608725,31.280049],[-102.607624,31.279755],[-102.606459,31.279038],[-102.604846,31.279171],[-102.604637,31.278498],[-102.605026,31.277303],[-102.604929,31.276855],[-102.604491,31.276434],[-102.603139,31.276228],[-102.602635,31.275897],[-102.602726,31.27523],[-102.603355,31.274071],[-102.604619,31.2731],[-102.604246,31.272405],[-102.604051,31.270919],[-102.603561,31.270607],[-102.602861,31.270646],[-102.601719,31.272124],[-102.601164,31.271801],[-102.601718,31.270327],[-102.601498,31.269916],[-102.600505,31.269764],[-102.599323,31.270427],[-102.598772,31.270183],[-102.598748,31.268601],[-102.599343,31.268292],[-102.600198,31.268226],[-102.600677,31.267097],[-102.599566,31.266176],[-102.598297,31.265684],[-102.597852,31.265854],[-102.597206,31.266758],[-102.59671,31.266754],[-102.596606,31.265756],[-102.5969,31.264847],[-102.596491,31.264012],[-102.595811,31.264155],[-102.595483,31.264605],[-102.595003,31.267085],[-102.59457,31.267402],[-102.593746,31.267132],[-102.59286,31.266141],[-102.591941,31.265604],[-102.591624,31.264138],[-102.590358,31.263617],[-102.589442,31.26378],[-102.588877,31.263527],[-102.588841,31.262895],[-102.589287,31.262059],[-102.588705,31.260289],[-102.587771,31.260238],[-102.587239,31.260839],[-102.586857,31.262722],[-102.586524,31.263122],[-102.585824,31.263307],[-102.584539,31.262717],[-102.583891,31.26288],[-102.583777,31.263579],[-102.584047,31.264683],[-102.583566,31.265194],[-102.582395,31.264956],[-102.581422,31.263034],[-102.580757,31.262898],[-102.580455,31.263054],[-102.580194,31.263857],[-102.58103,31.264913],[-102.582058,31.26558],[-102.58223,31.266237],[-102.581594,31.267298],[-102.5809,31.267102],[-102.579844,31.267736],[-102.579552,31.268438],[-102.579691,31.269624],[-102.578992,31.270543],[-102.578943,31.271745],[-102.578396,31.271789],[-102.577346,31.271024],[-102.577448,31.270551],[-102.57804,31.270186],[-102.578166,31.26982],[-102.57679,31.268274],[-102.575784,31.267735],[-102.574769,31.268109],[-102.574646,31.268435],[-102.57493,31.268983],[-102.575936,31.269283],[-102.576319,31.269654],[-102.576554,31.270807],[-102.576213,31.271313],[-102.575268,31.271598],[-102.574723,31.272774],[-102.5733,31.272071],[-102.572828,31.271222],[-102.571564,31.270844],[-102.57182,31.269938],[-102.571611,31.269752],[-102.570919,31.269983],[-102.56977,31.270809],[-102.569033,31.270704],[-102.567308,31.269769],[-102.566561,31.26982],[-102.566298,31.270689],[-102.567137,31.271128],[-102.567732,31.27183],[-102.567403,31.272587],[-102.566837,31.272641],[-102.566222,31.272074],[-102.565965,31.27116],[-102.565656,31.270928],[-102.564134,31.271066],[-102.564503,31.269622],[-102.564324,31.268985],[-102.563404,31.268789],[-102.562424,31.269008],[-102.561916,31.268703],[-102.561731,31.268074],[-102.560599,31.267573],[-102.559296,31.267886],[-102.557934,31.267783],[-102.55701,31.268711],[-102.555973,31.268133],[-102.554559,31.268796],[-102.553267,31.268446],[-102.552172,31.268753],[-102.551236,31.268468],[-102.550694,31.268877],[-102.549755,31.269088],[-102.549433,31.267924],[-102.551042,31.26778],[-102.551261,31.267159],[-102.551063,31.266512],[-102.549906,31.265613],[-102.548888,31.265982],[-102.54811,31.267406],[-102.547703,31.267344],[-102.547171,31.266433],[-102.546111,31.266256],[-102.545623,31.266344],[-102.544306,31.267311],[-102.543995,31.266996],[-102.543804,31.265378],[-102.543054,31.265037],[-102.54217,31.26594],[-102.541741,31.267269],[-102.540733,31.267327],[-102.540464,31.266759],[-102.541064,31.266091],[-102.541002,31.265713],[-102.538237,31.265474],[-102.537988,31.264858],[-102.538655,31.264266],[-102.538498,31.263926],[-102.538102,31.263889],[-102.536374,31.265325],[-102.53606,31.265222],[-102.536165,31.263427],[-102.535103,31.262916],[-102.534733,31.262017],[-102.533387,31.262089],[-102.533465,31.261002],[-102.533161,31.260727],[-102.531145,31.26102],[-102.530775,31.261309],[-102.53058,31.261927],[-102.530183,31.262118],[-102.529272,31.261723],[-102.528579,31.261774],[-102.527912,31.262435],[-102.526711,31.261863],[-102.525859,31.262026],[-102.525313,31.262449],[-102.524838,31.261974],[-102.524406,31.261874],[-102.5234,31.262875],[-102.523063,31.262698],[-102.523023,31.26238],[-102.523327,31.260879],[-102.523062,31.26062],[-102.52257,31.260599],[-102.522236,31.260843],[-102.522162,31.261445],[-102.521483,31.262588],[-102.520768,31.262807],[-102.5189,31.260895],[-102.517639,31.26071],[-102.516903,31.260829],[-102.515912,31.260451],[-102.514973,31.260405],[-102.514772,31.259995],[-102.515158,31.258877],[-102.514936,31.258596],[-102.511775,31.259665],[-102.511327,31.259651],[-102.511111,31.25831],[-102.510592,31.258204],[-102.509233,31.258488],[-102.50866,31.256885],[-102.506845,31.256526],[-102.506772,31.256222],[-102.507222,31.255272],[-102.506679,31.253978],[-102.504679,31.252856],[-102.504052,31.252946],[-102.503816,31.2534],[-102.503476,31.253533],[-102.502369,31.253177],[-102.503231,31.251284],[-102.502133,31.250879],[-102.501794,31.250443],[-102.502318,31.249585],[-102.50223,31.248915],[-102.501007,31.248671],[-102.500681,31.247803],[-102.500123,31.247483],[-102.499618,31.247697],[-102.498745,31.248845],[-102.498244,31.248709],[-102.498353,31.24817],[-102.499966,31.246813],[-102.500626,31.24639],[-102.501406,31.246372],[-102.501901,31.246061],[-102.501519,31.245221],[-102.500921,31.244922],[-102.500475,31.244984],[-102.500289,31.246307],[-102.498265,31.246236],[-102.497668,31.245634],[-102.498159,31.244575],[-102.497896,31.24429],[-102.497514,31.244523],[-102.4971,31.245471],[-102.496479,31.245543],[-102.496098,31.244887],[-102.496997,31.244445],[-102.497182,31.243973],[-102.495635,31.243414],[-102.495506,31.242206],[-102.495172,31.241952],[-102.494179,31.241818],[-102.494097,31.240784],[-102.49384,31.24038],[-102.49314,31.240209],[-102.492252,31.240407],[-102.49155,31.240839],[-102.491008,31.24071],[-102.489655,31.238006],[-102.490823,31.23646],[-102.491102,31.235638],[-102.490611,31.235101],[-102.490101,31.235134],[-102.489351,31.235814],[-102.488761,31.235912],[-102.488559,31.235617],[-102.48905,31.234749],[-102.488764,31.234341],[-102.487685,31.234827],[-102.487452,31.236004],[-102.487057,31.23608],[-102.485973,31.235581],[-102.485635,31.235646],[-102.486049,31.238006],[-102.485999,31.238247],[-102.485728,31.238263],[-102.483635,31.237167],[-102.484031,31.235981],[-102.483953,31.235508],[-102.483573,31.235431],[-102.48214,31.235903],[-102.481559,31.235759],[-102.481396,31.235341],[-102.481845,31.234551],[-102.4818,31.233968],[-102.480887,31.233842],[-102.480168,31.233429],[-102.479254,31.233351],[-102.478825,31.23217],[-102.477309,31.231686],[-102.476964,31.230601],[-102.477135,31.229691],[-102.476926,31.229333],[-102.475986,31.229295],[-102.47452,31.229762],[-102.474186,31.229646],[-102.473437,31.228357],[-102.473383,31.227182],[-102.473164,31.226886],[-102.472712,31.226719],[-102.47222,31.226955],[-102.472379,31.228422],[-102.471866,31.228626],[-102.46995,31.227842],[-102.468822,31.228322],[-102.468037,31.227135],[-102.465771,31.22667],[-102.465491,31.226215],[-102.465678,31.225685],[-102.46841,31.223731],[-102.468699,31.223257],[-102.467947,31.22309],[-102.466397,31.222194],[-102.46637,31.22189],[-102.466964,31.221113],[-102.466708,31.220818],[-102.465868,31.220958],[-102.46544,31.220769],[-102.465741,31.219888],[-102.465957,31.219504],[-102.466622,31.219546],[-102.46851,31.220581],[-102.469506,31.220229],[-102.469258,31.219703],[-102.467178,31.218548],[-102.466367,31.21856],[-102.46584,31.218894],[-102.465393,31.218891],[-102.464898,31.21791],[-102.464553,31.217814],[-102.463737,31.218851],[-102.462846,31.21873],[-102.462553,31.218903],[-102.46235,31.2205],[-102.46328,31.221686],[-102.463202,31.221947],[-102.461161,31.221611],[-102.46062,31.222744],[-102.459124,31.222042],[-102.45856,31.222375],[-102.458057,31.22357],[-102.457791,31.223477],[-102.457519,31.222786],[-102.456875,31.222583],[-102.456093,31.223697],[-102.455796,31.223536],[-102.455729,31.222107],[-102.454763,31.22176],[-102.453822,31.220755],[-102.452926,31.220226],[-102.453092,31.219855],[-102.453972,31.219483],[-102.454395,31.219032],[-102.453466,31.21876],[-102.452469,31.217668],[-102.45303,31.216247],[-102.451475,31.216443],[-102.451647,31.215299],[-102.450833,31.214281],[-102.450595,31.213329],[-102.45015,31.213326],[-102.449391,31.213739],[-102.448487,31.213387],[-102.447967,31.213782],[-102.448212,31.212616],[-102.44794,31.212389],[-102.446958,31.212842],[-102.446403,31.213532],[-102.446575,31.213873],[-102.447857,31.214313],[-102.447946,31.214661],[-102.446316,31.214636],[-102.445548,31.21428],[-102.443939,31.212641],[-102.443393,31.212485],[-102.44293,31.212749],[-102.44209,31.212704],[-102.442335,31.212003],[-102.442271,31.21084],[-102.441851,31.209692],[-102.441098,31.209728],[-102.439964,31.210138],[-102.439978,31.209686],[-102.44081,31.20899],[-102.440858,31.208655],[-102.439401,31.208935],[-102.438959,31.208422],[-102.439121,31.208031],[-102.440476,31.207229],[-102.440591,31.206489],[-102.439746,31.205579],[-102.438076,31.204941],[-102.438034,31.203875],[-102.437178,31.20258],[-102.43802,31.20079],[-102.437811,31.199539],[-102.438657,31.198397],[-102.438508,31.197747],[-102.437661,31.19721],[-102.436586,31.197462],[-102.436107,31.197356],[-102.435438,31.196768],[-102.434406,31.19643],[-102.433638,31.195517],[-102.43289,31.195848],[-102.432819,31.196888],[-102.432131,31.19672],[-102.43187,31.195682],[-102.433334,31.194254],[-102.433191,31.19384],[-102.432722,31.193765],[-102.431838,31.194046],[-102.430123,31.193918],[-102.429545,31.193557],[-102.430017,31.192713],[-102.430965,31.192683],[-102.431292,31.192403],[-102.4295,31.191185],[-102.42846,31.189048],[-102.428186,31.186071],[-102.429444,31.183249],[-102.428936,31.182902],[-102.428936,31.181919],[-102.427677,31.181585],[-102.42758,31.180483],[-102.427205,31.180021],[-102.426348,31.180175],[-102.42579,31.179957],[-102.425872,31.178884],[-102.425083,31.178263],[-102.4253,31.178027],[-102.426548,31.177712],[-102.428048,31.176136],[-102.428077,31.175412],[-102.427735,31.175013],[-102.428185,31.174613],[-102.428744,31.174641],[-102.429154,31.175274],[-102.429815,31.175461],[-102.430343,31.175282],[-102.430486,31.174703],[-102.430101,31.174249],[-102.428395,31.173612],[-102.427122,31.171447],[-102.426602,31.17161],[-102.426214,31.172706],[-102.425807,31.172588],[-102.425954,31.170808],[-102.427028,31.169701],[-102.427071,31.168897],[-102.42774,31.168096],[-102.428143,31.166831],[-102.427862,31.1665],[-102.426901,31.166899],[-102.425988,31.16677],[-102.425436,31.163821],[-102.424964,31.163429],[-102.423625,31.163504],[-102.423451,31.163316],[-102.424001,31.162704],[-102.425716,31.162003],[-102.426103,31.161387],[-102.425936,31.159766],[-102.425333,31.15925],[-102.424892,31.159223],[-102.423847,31.16027],[-102.423535,31.160168],[-102.423615,31.158943],[-102.423283,31.158109],[-102.42356,31.157367],[-102.423291,31.156111],[-102.424664,31.155016],[-102.424887,31.154374],[-102.424618,31.153362],[-102.425454,31.152705],[-102.425629,31.152198],[-102.424228,31.15158],[-102.424046,31.150113],[-102.422872,31.149248],[-102.422757,31.148947],[-102.424329,31.147529],[-102.425921,31.148039],[-102.426339,31.147434],[-102.426089,31.146552],[-102.426622,31.146122],[-102.428819,31.146912],[-102.429751,31.146618],[-102.430033,31.146187],[-102.43004,31.145558],[-102.42929,31.144487],[-102.42931,31.143603],[-102.428939,31.14332],[-102.427537,31.142968],[-102.427258,31.142496],[-102.428557,31.141582],[-102.427582,31.140244],[-102.427631,31.139059],[-102.428187,31.138896],[-102.429677,31.139341],[-102.430124,31.139105],[-102.430157,31.138656],[-102.429363,31.137985],[-102.428027,31.137583],[-102.427088,31.136821],[-102.426706,31.137007],[-102.426169,31.138278],[-102.425807,31.138549],[-102.425548,31.138297],[-102.425294,31.136973],[-102.425572,31.136423],[-102.426762,31.135282],[-102.426634,31.134916],[-102.425649,31.134471],[-102.425567,31.134007],[-102.427002,31.133235],[-102.427621,31.132607],[-102.427781,31.132169],[-102.427544,31.130965],[-102.428838,31.129816],[-102.429952,31.129648],[-102.430276,31.129268],[-102.429871,31.128939],[-102.427913,31.128435],[-102.427129,31.12761],[-102.427229,31.126771],[-102.426877,31.12605],[-102.428117,31.125921],[-102.428521,31.12531],[-102.428296,31.12422],[-102.427511,31.123232],[-102.427219,31.122373],[-102.425932,31.122093],[-102.425378,31.12163],[-102.42562,31.119858],[-102.42456,31.119281],[-102.423046,31.119647],[-102.421872,31.118872],[-102.421545,31.11836],[-102.422034,31.117397],[-102.42184,31.117108],[-102.421488,31.117186],[-102.420249,31.118315],[-102.419841,31.115986],[-102.418777,31.115215],[-102.417375,31.113286],[-102.417728,31.112134],[-102.417606,31.11159],[-102.416994,31.111275],[-102.416191,31.112],[-102.415887,31.111965],[-102.415883,31.110437],[-102.413601,31.108916],[-102.413566,31.108345],[-102.414014,31.108045],[-102.415404,31.108445],[-102.415827,31.108244],[-102.415736,31.107023],[-102.414621,31.105163],[-102.413626,31.104746],[-102.413154,31.104219],[-102.413331,31.10381],[-102.414118,31.10345],[-102.414119,31.103179],[-102.412685,31.102598],[-102.412134,31.101336],[-102.410913,31.100827],[-102.411314,31.099923],[-102.41058,31.099574],[-102.410495,31.099277],[-102.41166,31.098014],[-102.41134,31.097544],[-102.410354,31.097323],[-102.41006,31.097047],[-102.410894,31.095949],[-102.409467,31.095016],[-102.408277,31.095231],[-102.40655,31.094911],[-102.406351,31.094397],[-102.407129,31.093634],[-102.406741,31.09299],[-102.40674,31.092395],[-102.407502,31.091815],[-102.406257,31.092004],[-102.405832,31.091838],[-102.406464,31.090104],[-102.405951,31.089594],[-102.405531,31.089673],[-102.40463,31.090638],[-102.404212,31.090486],[-102.404837,31.088923],[-102.406331,31.088057],[-102.405518,31.087701],[-102.403802,31.087589],[-102.402352,31.087847],[-102.401923,31.087581],[-102.401558,31.086693],[-102.400182,31.086884],[-102.399427,31.086262],[-102.398939,31.086609],[-102.399219,31.087673],[-102.398827,31.088203],[-102.395512,31.086732],[-102.394031,31.08708],[-102.392878,31.088318],[-102.392564,31.088375],[-102.391983,31.087887],[-102.391016,31.087869],[-102.390404,31.08718],[-102.389367,31.087519],[-102.388872,31.087406],[-102.388894,31.086889],[-102.390652,31.085799],[-102.390534,31.085451],[-102.390028,31.085274],[-102.389641,31.085429],[-102.389126,31.086436],[-102.388336,31.086579],[-102.387423,31.086345],[-102.386769,31.085872],[-102.384415,31.08531],[-102.382353,31.086928],[-102.38175,31.086779],[-102.380461,31.085641],[-102.380777,31.084596],[-102.380604,31.084394],[-102.379884,31.084526],[-102.379684,31.085094],[-102.379826,31.086227],[-102.37963,31.086505],[-102.379045,31.086527],[-102.378123,31.086171],[-102.377495,31.084732],[-102.3765,31.085275],[-102.375005,31.085525],[-102.374835,31.085313],[-102.375227,31.083974],[-102.37422,31.083178],[-102.373846,31.083434],[-102.373769,31.08529],[-102.373458,31.085623],[-102.372436,31.085118],[-102.371097,31.085258],[-102.370655,31.084174],[-102.368784,31.082916],[-102.368396,31.083039],[-102.367704,31.083902],[-102.367207,31.083835],[-102.366669,31.083289],[-102.373342,31.078778],[-102.375603,31.078203],[-102.480704,31.078934],[-102.482115,31.078588],[-102.519684,31.06503],[-102.547802,31.054497],[-102.602603,31.034404],[-102.602681,31.034794],[-102.619136,31.028747],[-102.624531,31.027006],[-102.628904,31.025128],[-102.679064,31.006585],[-102.685255,31.007714],[-102.715789,31.008084],[-102.715852,31.008309],[-102.717431,31.00812],[-102.729428,31.008328],[-102.729456,31.008055],[-102.775593,31.008338],[-102.775246,31.038564],[-102.777124,31.045504],[-102.776688,31.045961],[-102.777192,31.047571],[-102.777165,31.06052],[-102.794365,31.060426],[-102.793967,31.063183],[-102.794064,31.077333],[-102.823518,31.077522],[-102.823629,31.088843],[-102.841265,31.088855],[-102.841302,31.099851],[-102.856779,31.099875],[-102.85766,31.099592],[-102.878788,31.099834],[-102.87905,31.100005],[-102.891757,31.09995],[-102.891595,31.148855],[-102.892396,31.149223],[-102.918576,31.153893],[-102.913275,31.175368],[-102.947171,31.181414],[-102.944356,31.193422],[-102.977119,31.199188],[-102.975446,31.206073],[-102.975666,31.206258],[-102.976321,31.206069],[-102.992724,31.209058],[-102.993113,31.208521],[-102.994439,31.208175],[-102.99552,31.208169],[-103.02352,31.213117],[-103.024886,31.213482],[-103.025451,31.214157],[-103.042161,31.217225],[-103.038554,31.231263],[-103.032552,31.256625],[-103.048415,31.259396],[-103.051403,31.260907],[-103.065166,31.263253],[-103.061688,31.277509],[-103.061764,31.278899],[-103.061452,31.279975],[-103.059796,31.282789],[-103.058761,31.286222],[-103.057555,31.292227],[-103.05594,31.298157],[-103.052624,31.312549],[-103.045817,31.33505],[-103.011302,31.371156],[-103.01104,31.371306],[-103.010582,31.370687]]]}},{"type":"Feature","properties":{"PRECINCT":"10","VTD":"0010"},"geometry":{"type":"Polygon","coordinates":[[[-102.489843,30.963432],[-102.490783,30.963382],[-102.491946,30.90949],[-102.492004,30.890611],[-102.514912,30.890898],[-102.514262,30.824688],[-102.514449,30.823932],[-102.51389,30.822136],[-102.514271,30.822089],[-102.514248,30.816831],[-102.502873,30.817009],[-102.502667,30.796768],[-102.486862,30.796766],[-102.485548,30.740911],[-102.492008,30.742267],[-102.493532,30.742168],[-102.494663,30.741768],[-102.502339,30.737405],[-102.50391,30.736008],[-102.50884,30.730639],[-102.510562,30.72953],[-102.514589,30.727499],[-102.515894,30.72762],[-102.517419,30.728246],[-102.517583,30.72859],[-102.532282,30.728525],[-102.540779,30.735945],[-102.615827,30.735753],[-102.615732,30.743648],[-102.678006,30.744392],[-102.677936,30.761236],[-102.700833,30.761322],[-102.702428,30.762522],[-102.705455,30.765678],[-102.710423,30.770011],[-102.710451,30.766168],[-102.723523,30.765779],[-102.723523,30.759353],[-102.779995,30.759313],[-102.823413,30.800777],[-102.825566,30.803243],[-102.827437,30.806745],[-102.840587,30.835637],[-102.842247,30.837792],[-102.85595,30.852286],[-102.857641,30.85472],[-102.872091,30.88738],[-102.872633,30.889106],[-102.883953,30.889083],[-102.885774,30.887254],[-102.886732,30.887256],[-102.886752,30.886348],[-102.887839,30.88633],[-102.887837,30.88815],[-102.885627,30.888157],[-102.885631,30.889983],[-102.886751,30.88999],[-102.886735,30.89295],[-102.885628,30.892951],[-102.885579,30.897891],[-102.875057,30.897905],[-102.869093,30.903748],[-102.864993,30.901809],[-102.853604,30.895826],[-102.851588,30.894317],[-102.851178,30.894285],[-102.850995,30.89272],[-102.847728,30.892529],[-102.842955,30.891893],[-102.712724,30.888981],[-102.709223,30.888472],[-102.680141,30.881619],[-102.657552,30.878751],[-102.65007,30.878387],[-102.649764,30.878482],[-102.650277,30.878656],[-102.647464,30.879248],[-102.644708,30.880601],[-102.644429,30.880359],[-102.637264,30.885227],[-102.635928,30.886493],[-102.592248,30.944791],[-102.586403,30.954263],[-102.584325,30.957035],[-102.582536,30.958288],[-102.573828,30.96253],[-102.490803,31.007443],[-102.49073,31.004822],[-102.488561,31.00008],[-102.489593,30.963863],[-102.489843,30.963432]]]}}]}