{"type":"FeatureCollection","features":[{"type":"Feature","properties":{"PRECINCT":"lubbock:1","COUNTY":"Lubbock"},"geometry":{"type":"Polygon","coordinates":[[[-101.88846,33.64337],[-101.87078,33.64342],[-101.8704,33.60321],[-101.8878,33.60312],[-101.88784,33.6068],[-101.9048,33.60681],[-101.90565,33.60902],[-101.9051,33.61102],[-101.90512,33.62134],[-101.90009,33.6214],[-101.8996,33.62115],[-101.89941,33.62134],[-101.89109,33.61682],[-101.88698,33.61935],[-101.88366,33.62018],[-101.88417,33.62089],[-101.88615,33.6217],[-101.88711,33.62184],[-101.88799,33.62155],[-101.88855,33.62293],[-101.88862,33.62563],[-101.88825,33.62946],[-101.88846,33.64337]]]}},{"type":"Feature","properties":{"PRECINCT":"lubbock:10","COUNTY":"Lubbock"},"geometry":{"type":"Polygon","coordinates":[[[-101.84441,33.58449],[-101.8444,33.57784],[-101.8706,33.57779],[-101.87063,33.58444],[-101.84441,33.58449]]]}},{"type":"Feature","properties":{"PRECINCT":"lubbock:102","COUNTY":"Lubbock"},"geometry":{"type":"Polygon","coordinates":[[[-102.08573,33.82467],[-101.97472,33.82594],[-101.97494,33.75179],[-101.95745,33.75176],[-101.95754,33.72278],[-102.01811,33.7228],[-102.01811,33.71535],[-102.02696,33.71543],[-102.02728,33.71408],[-102.03752,33.72274],[-102.0834,33.72281],[-102.08573,33.82467]]]}},{"type":"Feature","properties":{"PRECINCT":"lubbock:103","COUNTY":"Lubbock"},"geometry":{"type":"Polygon","coordinates":[[[-101.90543,33.82445],[-101.90537,33.8098],[-101.90615,33.8098],[-101.90614,33.79531],[-101.87154,33.79531],[-101.87096,33.78076],[-101.90615,33.78078],[-101.9061,33.7663],[-101.90654,33.76618],[-101.90655,33.75165],[-101.90628,33.72287],[-101.90603,33.72255],[-101.90517,33.72254],[-101.90517,33.65039],[-101.93987,33.65034],[-101.93997,33.66477],[-101.95732,33.66481],[-101.95745,33.75176],[-101.97494,33.75179],[-101.97472,33.82594],[-101.90615,33.82664],[-101.90614,33.82445],[-101.90543,33.82445]]]}},{"type":"Feature","properties":{"PRECINCT":"lubbock:104","COUNTY":"Lubbock"},"geometry":{"type":"Polygon","coordinates":[[[-101.95873,33.54158],[-101.95876,33.5197],[-101.97439,33.5197],[-101.9744,33.53216],[-101.96244,33.53896],[-101.95873,33.54158]]]}},{"type":"Feature","properties":{"PRECINCT":"lubbock:111","COUNTY":"Lubbock"},"geometry":{"type":"Polygon","coordinates":[[[-101.97443,33.55947],[-101.97437,33.49066],[-101.99179,33.49068],[-101.99178,33.56145],[-101.97568,33.56146],[-101.97564,33.55981],[-101.97443,33.55947]]]}},{"type":"Feature","properties":{"PRECINCT":"lubbock:112","COUNTY":"Lubbock"},"geometry":{"type":"Polygon","coordinates":[[[-101.96244,33.53896],[-101.9744,33.53216],[-101.97443,33.55947],[-101.97564,33.55981],[-101.97568,33.56146],[-101.99178,33.56145],[-101.99177,33.56323],[-101.9569,33.56323],[-101.95645,33.56057],[-101.95643,33.55465],[-101.94827,33.55246],[-101.94699,33.55141],[-101.94682,33.55011],[-101.94732,33.54916],[-101.96244,33.53896]]]}},{"type":"Feature","properties":{"PRECINCT":"lubbock:113","COUNTY":"Lubbock"},"geometry":{"type":"Polygon","coordinates":[[[-101.93987,33.6214],[-101.90512,33.62134],[-101.90508,33.61351],[-101.91379,33.61351],[-101.91387,33.60682],[-101.93985,33.60681],[-101.93987,33.6214]]]}},{"type":"Feature","properties":{"PRECINCT":"lubbock:114","COUNTY":"Lubbock"},"geometry":{"type":"Polygon","coordinates":[[[-101.90481,33.60685],[-101.91387,33.60682],[-101.91379,33.61351],[-101.90508,33.61351],[-101.9051,33.61089],[-101.90565,33.60902],[-101.90481,33.60685]]]}},{"type":"Feature","properties":{"PRECINCT":"lubbock:118","COUNTY":"Lubbock"},"geometry":{"type":"Polygon","coordinates":[[[-101.86174,33.52945],[-101.8704,33.52936],[-101.87043,33.54873],[-101.86177,33.54874],[-101.86174,33.52945]]]}},{"type":"Feature","properties":{"PRECINCT":"lubbock:119","COUNTY":"Lubbock"},"geometry":{"type":"Polygon","coordinates":[[[-101.84433,33.52914],[-101.84412,33.51937],[-101.85256,33.51937],[-101.85256,33.5188],[-101.85306,33.51879],[-101.85306,33.51982],[-101.87039,33.51974],[-101.8704,33.52936],[-101.85785,33.52941],[-101.84433,33.52914]]]}},{"type":"Feature","properties":{"PRECINCT":"lubbock:12","COUNTY":"Lubbock"},"geometry":{"type":"Polygon","coordinates":[[[-101.89642,33.54876],[-101.88777,33.54871],[-101.88774,33.53427],[-101.89003,33.53418],[-101.89356,33.53197],[-101.89416,33.53257],[-101.8964,33.53258],[-101.89642,33.54876]]]}},{"type":"Feature","properties":{"PRECINCT":"lubbock:126","COUNTY":"Lubbock"},"geometry":{"type":"Polygon","coordinates":[[[-101.90506,33.5406],[-101.90506,33.53704],[-101.90528,33.53646],[-101.90671,33.53525],[-101.90702,33.53468],[-101.90704,33.53105],[-101.92238,33.53521],[-101.9224,33.53964],[-101.90642,33.53969],[-101.90643,33.54059],[-101.90506,33.5406]]]}},{"type":"Feature","properties":{"PRECINCT":"lubbock:13","COUNTY":"Lubbock"},"geometry":{"type":"Polygon","coordinates":[[[-101.90511,33.57522],[-101.90514,33.56326],[-101.92246,33.56324],[-101.92243,33.56438],[-101.91721,33.56717],[-101.90511,33.57522]]]}},{"type":"Feature","properties":{"PRECINCT":"lubbock:135","COUNTY":"Lubbock"},"geometry":{"type":"Polygon","coordinates":[[[-101.93298,33.63332],[-101.9323,33.63332],[-101.9323,33.63585],[-101.92961,33.63584],[-101.9296,33.63567],[-101.92864,33.63553],[-101.92816,33.63622],[-101.92202,33.63326],[-101.92249,33.63257],[-101.9225,33.62859],[-101.91693,33.62859],[-101.91693,33.62767],[-101.9159,33.62767],[-101.91004,33.62448],[-101.90914,33.62573],[-101.9091,33.62734],[-101.9051,33.62733],[-101.90512,33.62134],[-101.93987,33.6214],[-101.93985,33.60681],[-101.96103,33.60682],[-101.96104,33.61511],[-101.94832,33.61512],[-101.94832,33.61406],[-101.94745,33.61407],[-101.94744,33.61309],[-101.9458,33.61309],[-101.94579,33.61512],[-101.94442,33.61512],[-101.94442,33.61408],[-101.94115,33.61408],[-101.94115,33.61509],[-101.94151,33.61509],[-101.94151,33.61626],[-101.94201,33.61626],[-101.942,33.62137],[-101.94661,33.62135],[-101.94662,33.62729],[-101.95719,33.62729],[-101.95721,33.63586],[-101.93301,33.63585],[-101.93298,33.63332]]]}},{"type":"Feature","properties":{"PRECINCT":"lubbock:138","COUNTY":"Lubbock"},"geometry":{"type":"Polygon","coordinates":[[[-101.93083,33.48333],[-101.93091,33.46258],[-101.92666,33.46262],[-101.92665,33.46162],[-101.93928,33.46128],[-101.93939,33.45964],[-101.95311,33.45962],[-101.95312,33.47598],[-101.95693,33.47598],[-101.95707,33.47416],[-101.97447,33.47414],[-101.97439,33.47605],[-101.99167,33.47612],[-101.99169,33.49069],[-101.97484,33.49068],[-101.97437,33.49066],[-101.97436,33.4904],[-101.93966,33.49051],[-101.93961,33.48326],[-101.93083,33.48333]]]}},{"type":"Feature","properties":{"PRECINCT":"lubbock:14","COUNTY":"Lubbock"},"geometry":{"type":"Polygon","coordinates":[[[-101.90078,33.57783],[-101.88789,33.57781],[-101.88783,33.56326],[-101.90514,33.56326],[-101.90511,33.57522],[-101.90132,33.5776],[-101.90078,33.57783]]]}},{"type":"Feature","properties":{"PRECINCT":"lubbock:15","COUNTY":"Lubbock"},"geometry":{"type":"Polygon","coordinates":[[[-101.88789,33.57781],[-101.8706,33.57779],[-101.87052,33.56328],[-101.88783,33.56326],[-101.88789,33.57781]]]}},{"type":"Feature","properties":{"PRECINCT":"lubbock:151","COUNTY":"Lubbock"},"geometry":{"type":"Polygon","coordinates":[[[-102.06386,33.6648],[-101.96828,33.66482],[-101.96784,33.6645],[-101.96729,33.66478],[-101.93997,33.66477],[-101.93987,33.65034],[-101.8598,33.65046],[-101.85673,33.65042],[-101.85441,33.65004],[-101.85558,33.64684],[-101.85592,33.64351],[-101.88846,33.64337],[-101.88831,33.62936],[-101.9014,33.62937],[-101.90141,33.62868],[-101.9051,33.62869],[-101.9051,33.62733],[-101.9091,33.62734],[-101.90914,33.62573],[-101.91004,33.62448],[-101.9159,33.62767],[-101.91693,33.62767],[-101.91693,33.62859],[-101.9225,33.62859],[-101.92249,33.63257],[-101.92202,33.63326],[-101.92816,33.63622],[-101.92864,33.63553],[-101.9296,33.63567],[-101.92961,33.63584],[-101.9323,33.63585],[-101.9323,33.63332],[-101.93301,33.63332],[-101.93301,33.63585],[-101.95721,33.63586],[-101.95719,33.62854],[-102.00939,33.62866],[-102.00935,33.62126],[-102.02675,33.62126],[-102.02687,33.63576],[-102.08136,33.63579],[-102.0821,33.66503],[-102.07906,33.66483],[-102.06386,33.6648]]]}},{"type":"Feature","properties":{"PRECINCT":"lubbock:152","COUNTY":"Lubbock"},"geometry":{"type":"Polygon","coordinates":[[[-101.92248,33.60681],[-101.88784,33.6068],[-101.88788,33.59228],[-101.92243,33.59228],[-101.92248,33.60681]]]}},{"type":"Feature","properties":{"PRECINCT":"lubbock:153","COUNTY":"Lubbock"},"geometry":{"type":"Polygon","coordinates":[[[-101.80986,33.60694],[-101.78294,33.60717],[-101.78283,33.59624],[-101.78315,33.59259],[-101.80663,33.59241],[-101.80827,33.59164],[-101.80996,33.59227],[-101.80976,33.59287],[-101.80976,33.59621],[-101.80947,33.59675],[-101.80998,33.59771],[-101.80978,33.59878],[-101.80986,33.60694]]]}},{"type":"Feature","properties":{"PRECINCT":"lubbock:154","COUNTY":"Lubbock"},"geometry":{"type":"Polygon","coordinates":[[[-101.95702,33.5197],[-101.95699,33.49045],[-101.97436,33.4904],[-101.97439,33.5197],[-101.95702,33.5197]]]}},{"type":"Feature","properties":{"PRECINCT":"lubbock:17","COUNTY":"Lubbock"},"geometry":{"type":"Polygon","coordinates":[[[-101.85653,33.55773],[-101.87043,33.55783],[-101.8706,33.57779],[-101.85527,33.57777],[-101.8554,33.55803],[-101.85653,33.55773]]]}},{"type":"Feature","properties":{"PRECINCT":"lubbock:19","COUNTY":"Lubbock"},"geometry":{"type":"Polygon","coordinates":[[[-101.85527,33.57777],[-101.84088,33.57782],[-101.84426,33.57125],[-101.84497,33.56919],[-101.84516,33.55604],[-101.84663,33.55606],[-101.84663,33.55788],[-101.84865,33.55788],[-101.8487,33.55606],[-101.84899,33.55602],[-101.84902,33.55783],[-101.8531,33.55785],[-101.8531,33.55694],[-101.8554,33.55694],[-101.85527,33.57777]]]}},{"type":"Feature","properties":{"PRECINCT":"lubbock:20","COUNTY":"Lubbock"},"geometry":{"type":"Polygon","coordinates":[[[-101.81839,33.57952],[-101.8184,33.57894],[-101.81558,33.57921],[-101.81504,33.57883],[-101.81118,33.57781],[-101.7833,33.57801],[-101.78321,33.54174],[-101.77504,33.54182],[-101.77495,33.5346],[-101.78311,33.53447],[-101.78306,33.5284],[-101.81842,33.5641],[-101.84012,33.57014],[-101.84149,33.57074],[-101.8435,33.57275],[-101.84088,33.57782],[-101.82337,33.57813],[-101.82134,33.57847],[-101.81839,33.57952]]]}},{"type":"Feature","properties":{"PRECINCT":"lubbock:21","COUNTY":"Lubbock"},"geometry":{"type":"Polygon","coordinates":[[[-101.90514,33.56326],[-101.90508,33.55239],[-101.92023,33.55238],[-101.92024,33.55152],[-101.9224,33.55151],[-101.92246,33.56324],[-101.90514,33.56326]]]}},{"type":"Feature","properties":{"PRECINCT":"lubbock:22","COUNTY":"Lubbock"},"geometry":{"type":"Polygon","coordinates":[[[-101.89209,33.56327],[-101.89208,33.54876],[-101.89642,33.54876],[-101.89641,33.5415],[-101.90506,33.54149],[-101.90514,33.56326],[-101.89209,33.56327]]]}},{"type":"Feature","properties":{"PRECINCT":"lubbock:25","COUNTY":"Lubbock"},"geometry":{"type":"Polygon","coordinates":[[[-101.85694,33.55777],[-101.85665,33.55762],[-101.85611,33.55796],[-101.8554,33.55803],[-101.85528,33.54873],[-101.87043,33.54873],[-101.87043,33.55783],[-101.85694,33.55777]]]}},{"type":"Feature","properties":{"PRECINCT":"lubbock:26","COUNTY":"Lubbock"},"geometry":{"type":"Polygon","coordinates":[[[-101.77605,33.52108],[-101.77209,33.5173],[-101.76803,33.51478],[-101.76886,33.51364],[-101.78009,33.51961],[-101.84164,33.5194],[-101.84166,33.51786],[-101.84347,33.51786],[-101.8435,33.5194],[-101.84412,33.51937],[-101.84455,33.53492],[-101.84516,33.54232],[-101.84518,33.54845],[-101.84512,33.56803],[-101.84463,33.57039],[-101.8435,33.57275],[-101.84149,33.57074],[-101.84012,33.57014],[-101.81842,33.5641],[-101.77605,33.52108]]]}},{"type":"Feature","properties":{"PRECINCT":"lubbock:27","COUNTY":"Lubbock"},"geometry":{"type":"Polygon","coordinates":[[[-101.92238,33.53532],[-101.92865,33.53705],[-101.93046,33.53809],[-101.93347,33.54063],[-101.93478,33.54261],[-101.93937,33.55309],[-101.92244,33.56386],[-101.92238,33.53532]]]}},{"type":"Feature","properties":{"PRECINCT":"lubbock:29","COUNTY":"Lubbock"},"geometry":{"type":"Polygon","coordinates":[[[-101.84902,33.55783],[-101.84899,33.55602],[-101.8487,33.55606],[-101.84865,33.55788],[-101.84663,33.55788],[-101.84663,33.55606],[-101.84516,33.55604],[-101.84516,33.54232],[-101.8447,33.53798],[-101.84433,33.52914],[-101.86174,33.5294],[-101.86177,33.54874],[-101.85528,33.54873],[-101.8554,33.55694],[-101.8531,33.55694],[-101.8531,33.55785],[-101.84902,33.55783]]]}},{"type":"Feature","properties":{"PRECINCT":"lubbock:3","COUNTY":"Lubbock"},"geometry":{"type":"Polygon","coordinates":[[[-101.8878,33.60312],[-101.8704,33.60321],[-101.87037,33.59514],[-101.8706,33.59231],[-101.87345,33.59226],[-101.87377,33.59248],[-101.88788,33.59228],[-101.8878,33.60312]]]}},{"type":"Feature","properties":{"PRECINCT":"lubbock:30","COUNTY":"Lubbock"},"geometry":{"type":"Polygon","coordinates":[[[-101.90508,33.55239],[-101.90506,33.5406],[-101.90643,33.54059],[-101.90642,33.53969],[-101.9224,33.53964],[-101.9224,33.55151],[-101.92024,33.55152],[-101.92023,33.55238],[-101.90508,33.55239]]]}},{"type":"Feature","properties":{"PRECINCT":"lubbock:31","COUNTY":"Lubbock"},"geometry":{"type":"Polygon","coordinates":[[[-102.02675,33.62126],[-102.00935,33.62126],[-102.00939,33.62866],[-101.95719,33.62854],[-101.95719,33.62729],[-101.94662,33.62729],[-101.94661,33.62135],[-101.942,33.62137],[-101.94201,33.61626],[-101.94151,33.61626],[-101.94151,33.61509],[-101.94115,33.61509],[-101.94115,33.61408],[-101.94442,33.61408],[-101.94442,33.61512],[-101.94579,33.61512],[-101.9458,33.61309],[-101.94744,33.61309],[-101.94745,33.61407],[-101.94832,33.61406],[-101.94832,33.61512],[-101.96104,33.61511],[-101.96103,33.60497],[-101.95768,33.60497],[-101.95767,33.59311],[-101.96578,33.59311],[-101.9658,33.59412],[-101.97466,33.5941],[-101.97465,33.59376],[-101.9787,33.59368],[-101.9788,33.5941],[-102.01787,33.59402],[-102.01786,33.59237],[-102.02665,33.59236],[-102.02663,33.58514],[-102.0293,33.58513],[-102.0301,33.5862],[-102.03044,33.58593],[-102.03151,33.587],[-102.0321,33.58642],[-102.03184,33.58552],[-102.03142,33.58555],[-102.03138,33.58515],[-102.03184,33.58512],[-102.03185,33.57772],[-102.04153,33.57788],[-102.04244,33.57768],[-102.07843,33.57764],[-102.07846,33.58236],[-102.08046,33.58237],[-102.08136,33.63579],[-102.02687,33.63576],[-102.02675,33.62126]]]}},{"type":"Feature","properties":{"PRECINCT":"lubbock:4","COUNTY":"Lubbock"},"geometry":{"type":"Polygon","coordinates":[[[-101.85592,33.64331],[-101.85539,33.64332],[-101.85525,33.59886],[-101.85516,33.59795],[-101.85471,33.59716],[-101.85526,33.5943],[-101.85524,33.59239],[-101.8706,33.59224],[-101.87037,33.59514],[-101.87045,33.62079],[-101.87078,33.64342],[-101.85592,33.64351],[-101.85592,33.64331]]]}},{"type":"Feature","properties":{"PRECINCT":"lubbock:40","COUNTY":"Lubbock"},"geometry":{"type":"Polygon","coordinates":[[[-101.81806,33.59238],[-101.81044,33.59237],[-101.80827,33.59164],[-101.80663,33.59241],[-101.76639,33.59272],[-101.76629,33.57816],[-101.81118,33.57781],[-101.81504,33.57883],[-101.81558,33.57921],[-101.8184,33.57894],[-101.81839,33.57952],[-101.82134,33.57847],[-101.82337,33.57813],[-101.84056,33.57782],[-101.83963,33.57976],[-101.83913,33.58177],[-101.83913,33.59136],[-101.83442,33.59073],[-101.83154,33.59071],[-101.82025,33.59236],[-101.8183,33.59288],[-101.81806,33.59238]]]}},{"type":"Feature","properties":{"PRECINCT":"lubbock:45","COUNTY":"Lubbock"},"geometry":{"type":"Polygon","coordinates":[[[-101.90615,33.82664],[-101.84064,33.82729],[-101.8404,33.81991],[-101.83986,33.81812],[-101.83804,33.81432],[-101.83726,33.81106],[-101.83714,33.78086],[-101.87096,33.78076],[-101.87154,33.79531],[-101.90614,33.79531],[-101.90615,33.8098],[-101.90537,33.8098],[-101.90543,33.82445],[-101.90614,33.82445],[-101.90615,33.82664]]]}},{"type":"Feature","properties":{"PRECINCT":"lubbock:46","COUNTY":"Lubbock"},"geometry":{"type":"Polygon","coordinates":[[[-102.03752,33.72274],[-102.02728,33.71408],[-102.02696,33.71543],[-102.01811,33.71535],[-102.01811,33.7228],[-101.95754,33.72278],[-101.95732,33.66481],[-101.96747,33.66477],[-101.96784,33.6645],[-101.96828,33.66482],[-102.06169,33.66479],[-102.07906,33.66483],[-102.0821,33.66503],[-102.08344,33.72286],[-102.03752,33.72274]]]}},{"type":"Feature","properties":{"PRECINCT":"lubbock:47","COUNTY":"Lubbock"},"geometry":{"type":"Polygon","coordinates":[[[-101.9181,33.59229],[-101.9181,33.57778],[-101.93111,33.57778],[-101.9311,33.58979],[-101.93136,33.59119],[-101.9224,33.59685],[-101.92243,33.59228],[-101.9181,33.59229]]]}},{"type":"Feature","properties":{"PRECINCT":"lubbock:49","COUNTY":"Lubbock"},"geometry":{"type":"Polygon","coordinates":[[[-101.88219,33.58555],[-101.88155,33.58257],[-101.87548,33.58239],[-101.87539,33.5788],[-101.87566,33.57801],[-101.87635,33.57781],[-101.88789,33.57781],[-101.88796,33.58319],[-101.88583,33.58346],[-101.88219,33.58555]]]}},{"type":"Feature","properties":{"PRECINCT":"lubbock:5","COUNTY":"Lubbock"},"geometry":{"type":"Polygon","coordinates":[[[-101.85527,33.6067],[-101.8449,33.60679],[-101.84349,33.60014],[-101.84249,33.598],[-101.83991,33.59416],[-101.83936,33.5928],[-101.83909,33.59059],[-101.83908,33.5824],[-101.83963,33.57976],[-101.84056,33.57782],[-101.8444,33.57784],[-101.84441,33.58449],[-101.85521,33.58447],[-101.85526,33.5943],[-101.85471,33.59716],[-101.85524,33.59843],[-101.85527,33.6067]]]}},{"type":"Feature","properties":{"PRECINCT":"lubbock:50","COUNTY":"Lubbock"},"geometry":{"type":"Polygon","coordinates":[[[-101.88788,33.59228],[-101.87377,33.59248],[-101.87345,33.59226],[-101.8706,33.59231],[-101.8706,33.57779],[-101.87603,33.57782],[-101.87566,33.57801],[-101.87539,33.5788],[-101.87548,33.58239],[-101.88155,33.58257],[-101.88219,33.58555],[-101.88583,33.58346],[-101.8881,33.5833],[-101.8887,33.58464],[-101.88851,33.58478],[-101.88854,33.58634],[-101.88784,33.58759],[-101.88806,33.5876],[-101.88799,33.58933],[-101.88777,33.58955],[-101.88788,33.59228]]]}},{"type":"Feature","properties":{"PRECINCT":"lubbock:51","COUNTY":"Lubbock"},"geometry":{"type":"Polygon","coordinates":[[[-101.76639,33.59272],[-101.73177,33.59294],[-101.73177,33.5674],[-101.73127,33.56552],[-101.72939,33.56276],[-101.72879,33.56108],[-101.72835,33.53829],[-101.7279,33.53725],[-101.72651,33.53612],[-101.72597,33.53481],[-101.7269,33.53308],[-101.72745,33.5311],[-101.72797,33.52624],[-101.72755,33.52375],[-101.72892,33.52144],[-101.72844,33.52024],[-101.77417,33.51998],[-101.77475,33.51977],[-101.78306,33.52816],[-101.78311,33.53447],[-101.77495,33.5346],[-101.77504,33.54182],[-101.78321,33.54174],[-101.7833,33.57801],[-101.76629,33.57816],[-101.76639,33.59272]]]}},{"type":"Feature","properties":{"PRECINCT":"lubbock:53","COUNTY":"Lubbock"},"geometry":{"type":"Polygon","coordinates":[[[-101.93111,33.57778],[-101.93109,33.57056],[-101.93977,33.57052],[-101.93987,33.56994],[-101.94053,33.56902],[-101.94063,33.56703],[-101.93977,33.56564],[-101.93976,33.55533],[-101.93919,33.55417],[-101.9397,33.55383],[-101.94304,33.55195],[-101.94526,33.55174],[-101.95643,33.55465],[-101.95645,33.56057],[-101.95709,33.5642],[-101.95714,33.57777],[-101.93111,33.57778]]]}},{"type":"Feature","properties":{"PRECINCT":"lubbock:57","COUNTY":"Lubbock"},"geometry":{"type":"Polygon","coordinates":[[[-101.95714,33.57777],[-101.9569,33.56323],[-101.99177,33.56323],[-101.99177,33.57774],[-101.95714,33.57777]]]}},{"type":"Feature","properties":{"PRECINCT":"lubbock:58","COUNTY":"Lubbock"},"geometry":{"type":"Polygon","coordinates":[[[-101.96103,33.60682],[-101.93985,33.60681],[-101.93977,33.59227],[-101.95763,33.59231],[-101.95768,33.60497],[-101.96103,33.60497],[-101.96103,33.60682]]]}},{"type":"Feature","properties":{"PRECINCT":"lubbock:59","COUNTY":"Lubbock"},"geometry":{"type":"Polygon","coordinates":[[[-101.93985,33.60681],[-101.92248,33.60681],[-101.9224,33.59685],[-101.93136,33.59119],[-101.9311,33.58979],[-101.93111,33.57778],[-101.93978,33.57777],[-101.93985,33.60681]]]}},{"type":"Feature","properties":{"PRECINCT":"lubbock:6","COUNTY":"Lubbock"},"geometry":{"type":"Polygon","coordinates":[[[-101.83697,33.60783],[-101.83602,33.60564],[-101.83617,33.60426],[-101.83311,33.60752],[-101.83181,33.60814],[-101.83129,33.60723],[-101.82921,33.60806],[-101.82872,33.60719],[-101.82501,33.60865],[-101.82232,33.60511],[-101.81994,33.60604],[-101.81845,33.60605],[-101.81846,33.6069],[-101.80986,33.60694],[-101.80978,33.59878],[-101.80998,33.59771],[-101.80947,33.59675],[-101.80976,33.59621],[-101.80976,33.59287],[-101.80996,33.59227],[-101.81803,33.59227],[-101.8183,33.59288],[-101.82025,33.59236],[-101.82947,33.59092],[-101.83259,33.59066],[-101.83913,33.59136],[-101.83936,33.5928],[-101.83991,33.59416],[-101.84249,33.598],[-101.84349,33.60014],[-101.8449,33.60679],[-101.84177,33.60691],[-101.83815,33.60901],[-101.83754,33.60917],[-101.83692,33.60909],[-101.83697,33.60783]]]}},{"type":"Feature","properties":{"PRECINCT":"lubbock:60","COUNTY":"Lubbock"},"geometry":{"type":"Polygon","coordinates":[[[-101.89641,33.5415],[-101.89639,33.52934],[-101.8979,33.52933],[-101.90126,33.52961],[-101.90704,33.53105],[-101.90702,33.53468],[-101.90671,33.53525],[-101.90528,33.53646],[-101.90506,33.53704],[-101.90506,33.54149],[-101.89641,33.5415]]]}},{"type":"Feature","properties":{"PRECINCT":"lubbock:62","COUNTY":"Lubbock"},"geometry":{"type":"Polygon","coordinates":[[[-101.92238,33.53521],[-101.92239,33.51969],[-101.93167,33.51969],[-101.93168,33.52781],[-101.93246,33.53002],[-101.93247,33.53425],[-101.93972,33.53424],[-101.93988,33.55371],[-101.9397,33.55383],[-101.93478,33.54261],[-101.93347,33.54063],[-101.9307,33.53827],[-101.92928,33.53735],[-101.92742,33.53661],[-101.92238,33.53521]]]}},{"type":"Feature","properties":{"PRECINCT":"lubbock:63","COUNTY":"Lubbock"},"geometry":{"type":"Polygon","coordinates":[[[-101.9014,33.62937],[-101.88831,33.62936],[-101.88831,33.6295],[-101.88825,33.62946],[-101.88832,33.62797],[-101.88862,33.62563],[-101.88857,33.62317],[-101.88799,33.62155],[-101.88711,33.62184],[-101.88615,33.6217],[-101.88417,33.62089],[-101.88366,33.62018],[-101.88698,33.61935],[-101.89109,33.61682],[-101.89941,33.62134],[-101.8996,33.62115],[-101.90009,33.6214],[-101.90512,33.62134],[-101.9051,33.62869],[-101.90141,33.62868],[-101.9014,33.62937]]]}},{"type":"Feature","properties":{"PRECINCT":"lubbock:7","COUNTY":"Lubbock"},"geometry":{"type":"Polygon","coordinates":[[[-101.93111,33.57778],[-101.90078,33.57783],[-101.90369,33.57618],[-101.91721,33.56717],[-101.92243,33.56438],[-101.92244,33.56386],[-101.93937,33.55309],[-101.9397,33.55383],[-101.93919,33.55417],[-101.93976,33.55533],[-101.93977,33.56564],[-101.94063,33.56703],[-101.94063,33.56879],[-101.93987,33.56994],[-101.93977,33.57052],[-101.93109,33.57056],[-101.93111,33.57778]]]}},{"type":"Feature","properties":{"PRECINCT":"lubbock:72","COUNTY":"Lubbock"},"geometry":{"type":"Polygon","coordinates":[[[-101.95715,33.59226],[-101.93977,33.59227],[-101.93978,33.57777],[-101.95714,33.57777],[-101.95715,33.59226]]]}},{"type":"Feature","properties":{"PRECINCT":"lubbock:76","COUNTY":"Lubbock"},"geometry":{"type":"Polygon","coordinates":[[[-101.9787,33.59368],[-101.97465,33.59376],[-101.97466,33.5941],[-101.9658,33.59412],[-101.96578,33.59311],[-101.95767,33.59311],[-101.95763,33.59231],[-101.95715,33.59231],[-101.95714,33.57777],[-102.03185,33.57772],[-102.03184,33.58512],[-102.03138,33.58515],[-102.03142,33.58555],[-102.03184,33.58552],[-102.03211,33.5864],[-102.03151,33.587],[-102.03044,33.58593],[-102.0301,33.5862],[-102.0293,33.58513],[-102.02663,33.58514],[-102.02665,33.59236],[-102.01786,33.59237],[-102.01787,33.59402],[-101.9788,33.5941],[-101.9787,33.59368]]]}},{"type":"Feature","properties":{"PRECINCT":"lubbock:8","COUNTY":"Lubbock"},"geometry":{"type":"Polygon","coordinates":[[[-101.85524,33.59239],[-101.85521,33.58447],[-101.87063,33.58444],[-101.8706,33.59224],[-101.85524,33.59239]]]}},{"type":"Feature","properties":{"PRECINCT":"lubbock:9","COUNTY":"Lubbock"},"geometry":{"type":"Polygon","coordinates":[[[-101.88796,33.58319],[-101.88789,33.57781],[-101.9181,33.57778],[-101.9181,33.59229],[-101.88788,33.59228],[-101.88777,33.58955],[-101.88799,33.58933],[-101.88806,33.5876],[-101.88784,33.58759],[-101.88854,33.58634],[-101.88851,33.58478],[-101.8887,33.58464],[-101.88796,33.58319]]]}},{"type":"Feature","properties":{"PRECINCT":"lubbock:92","COUNTY":"Lubbock"},"geometry":{"type":"Polygon","coordinates":[[[-101.99177,33.57774],[-101.99178,33.56145],[-102.02858,33.56141],[-102.02859,33.57767],[-101.99177,33.57774]]]}}]}