{"type":"FeatureCollection","features":[{"type":"Feature","properties":{"PRECINCT":"1","VTD":"0001"},"geometry":{"type":"Polygon","coordinates":[[[-102.313852,31.401993],[-102.313192,31.374609],[-102.310334,31.285102],[-102.307327,31.198084],[-102.301952,31.14164],[-102.300886,31.127273],[-102.301119,31.1225],[-102.301212,31.086212],[-102.388804,31.087156],[-102.388872,31.087406],[-102.38924,31.087519],[-102.390302,31.087177],[-102.391016,31.087869],[-102.391983,31.087887],[-102.392666,31.088385],[-102.393733,31.087248],[-102.395412,31.086748],[-102.398827,31.088203],[-102.399219,31.087673],[-102.39892,31.086715],[-102.399052,31.086459],[-102.399427,31.086262],[-102.399929,31.08677],[-102.400462,31.086915],[-102.401362,31.086638],[-102.401712,31.086808],[-102.401923,31.087581],[-102.402352,31.087847],[-102.403802,31.087589],[-102.405518,31.087701],[-102.406331,31.088057],[-102.404837,31.088923],[-102.404212,31.090486],[-102.40463,31.090638],[-102.405531,31.089673],[-102.405951,31.089594],[-102.406464,31.090104],[-102.405832,31.091838],[-102.406257,31.092004],[-102.407502,31.091815],[-102.40674,31.092395],[-102.406741,31.09299],[-102.407129,31.093634],[-102.406351,31.094397],[-102.40655,31.094911],[-102.408277,31.095231],[-102.409467,31.095016],[-102.410894,31.095949],[-102.41006,31.097047],[-102.410354,31.097323],[-102.41134,31.097544],[-102.41166,31.098014],[-102.410495,31.099277],[-102.41058,31.099574],[-102.411314,31.099923],[-102.410913,31.100827],[-102.412134,31.101336],[-102.412685,31.102598],[-102.414119,31.103179],[-102.414118,31.10345],[-102.413331,31.10381],[-102.413154,31.104219],[-102.413626,31.104746],[-102.414621,31.105163],[-102.415736,31.107023],[-102.415827,31.108244],[-102.415404,31.108445],[-102.414014,31.108045],[-102.413566,31.108345],[-102.413601,31.108916],[-102.415883,31.110437],[-102.415887,31.111965],[-102.416191,31.112],[-102.416994,31.111275],[-102.417606,31.11159],[-102.417728,31.112134],[-102.417375,31.113286],[-102.418777,31.115215],[-102.419841,31.115986],[-102.420249,31.118315],[-102.421488,31.117186],[-102.42184,31.117108],[-102.422034,31.117397],[-102.421545,31.11836],[-102.421872,31.118872],[-102.423046,31.119647],[-102.42456,31.119281],[-102.42562,31.119858],[-102.425378,31.12163],[-102.425932,31.122093],[-102.427219,31.122373],[-102.427511,31.123232],[-102.428296,31.12422],[-102.428521,31.12531],[-102.428117,31.125921],[-102.426877,31.12605],[-102.427229,31.126771],[-102.427129,31.12761],[-102.427913,31.128435],[-102.429871,31.128939],[-102.430276,31.129268],[-102.429952,31.129648],[-102.428838,31.129816],[-102.427544,31.130965],[-102.427781,31.132169],[-102.427621,31.132607],[-102.427002,31.133235],[-102.425567,31.134007],[-102.425649,31.134471],[-102.426634,31.134916],[-102.426762,31.135282],[-102.425572,31.136423],[-102.425294,31.136973],[-102.425548,31.138297],[-102.425807,31.138549],[-102.426169,31.138278],[-102.426706,31.137007],[-102.427088,31.136821],[-102.428027,31.137583],[-102.429363,31.137985],[-102.430157,31.138656],[-102.430124,31.139105],[-102.429677,31.139341],[-102.428187,31.138896],[-102.427631,31.139059],[-102.427582,31.140244],[-102.428557,31.141582],[-102.427258,31.142496],[-102.427537,31.142968],[-102.428939,31.14332],[-102.42931,31.143603],[-102.42929,31.144487],[-102.43004,31.145558],[-102.430033,31.146187],[-102.429751,31.146618],[-102.428819,31.146912],[-102.426622,31.146122],[-102.426089,31.146552],[-102.426339,31.147434],[-102.425921,31.148039],[-102.424329,31.147529],[-102.422757,31.148947],[-102.422872,31.149248],[-102.424046,31.150113],[-102.424228,31.15158],[-102.425629,31.152198],[-102.425454,31.152705],[-102.424618,31.153362],[-102.424887,31.154374],[-102.424664,31.155016],[-102.423291,31.156111],[-102.42356,31.157367],[-102.423283,31.158109],[-102.423615,31.158943],[-102.423535,31.160168],[-102.423847,31.16027],[-102.424892,31.159223],[-102.425333,31.15925],[-102.425936,31.159766],[-102.426103,31.161387],[-102.425716,31.162003],[-102.424001,31.162704],[-102.423451,31.163316],[-102.423625,31.163504],[-102.424964,31.163429],[-102.425436,31.163821],[-102.425988,31.16677],[-102.426901,31.166899],[-102.427862,31.1665],[-102.428143,31.166831],[-102.42774,31.168096],[-102.427071,31.168897],[-102.427028,31.169701],[-102.425954,31.170808],[-102.425807,31.172588],[-102.426214,31.172706],[-102.426602,31.17161],[-102.427122,31.171447],[-102.428395,31.173612],[-102.430101,31.174249],[-102.430486,31.174703],[-102.430343,31.175282],[-102.429815,31.175461],[-102.429154,31.175274],[-102.428744,31.174641],[-102.428185,31.174613],[-102.427735,31.175013],[-102.428077,31.175412],[-102.428048,31.176136],[-102.426548,31.177712],[-102.4253,31.178027],[-102.425083,31.178263],[-102.425872,31.178884],[-102.42579,31.179957],[-102.426348,31.180175],[-102.427205,31.180021],[-102.42758,31.180483],[-102.427677,31.181585],[-102.428936,31.181919],[-102.428936,31.182902],[-102.429444,31.183249],[-102.428186,31.186071],[-102.42846,31.189048],[-102.4295,31.191185],[-102.431292,31.192403],[-102.430965,31.192683],[-102.430017,31.192713],[-102.429545,31.193557],[-102.430123,31.193918],[-102.431838,31.194046],[-102.432722,31.193765],[-102.433191,31.19384],[-102.433334,31.194254],[-102.43187,31.195682],[-102.432131,31.19672],[-102.432819,31.196888],[-102.43289,31.195848],[-102.433638,31.195517],[-102.434406,31.19643],[-102.435438,31.196768],[-102.436107,31.197356],[-102.436586,31.197462],[-102.437661,31.19721],[-102.438047,31.197341],[-102.438653,31.198042],[-102.438657,31.198397],[-102.437811,31.199539],[-102.43802,31.20079],[-102.437178,31.20258],[-102.438034,31.203875],[-102.438076,31.204941],[-102.439746,31.205579],[-102.440591,31.206489],[-102.440476,31.207229],[-102.439121,31.208031],[-102.438959,31.208422],[-102.439401,31.208935],[-102.440858,31.208655],[-102.44081,31.20899],[-102.439978,31.209686],[-102.439964,31.210138],[-102.441098,31.209728],[-102.441851,31.209692],[-102.442271,31.21084],[-102.442335,31.212003],[-102.44209,31.212704],[-102.44293,31.212749],[-102.443393,31.212485],[-102.443939,31.212641],[-102.445848,31.214517],[-102.447946,31.214661],[-102.447857,31.214313],[-102.446575,31.213873],[-102.446403,31.213532],[-102.446958,31.212842],[-102.44794,31.212389],[-102.448212,31.212616],[-102.447967,31.213782],[-102.448487,31.213387],[-102.449391,31.213739],[-102.45015,31.213326],[-102.450595,31.213329],[-102.450833,31.214281],[-102.451647,31.215299],[-102.451475,31.216443],[-102.45303,31.216247],[-102.452469,31.217668],[-102.453466,31.21876],[-102.454395,31.219032],[-102.453972,31.219483],[-102.453092,31.219855],[-102.452926,31.220226],[-102.453822,31.220755],[-102.454763,31.22176],[-102.455729,31.222107],[-102.455899,31.223643],[-102.456335,31.223582],[-102.456731,31.222707],[-102.457034,31.222545],[-102.457519,31.222786],[-102.457791,31.223477],[-102.458057,31.22357],[-102.45856,31.222375],[-102.459124,31.222042],[-102.46062,31.222744],[-102.461161,31.221611],[-102.463202,31.221947],[-102.46328,31.221686],[-102.46235,31.2205],[-102.462553,31.218903],[-102.462846,31.21873],[-102.463737,31.218851],[-102.464553,31.217814],[-102.464898,31.21791],[-102.465393,31.218891],[-102.46584,31.218894],[-102.466367,31.21856],[-102.467178,31.218548],[-102.469258,31.219703],[-102.469506,31.220229],[-102.46851,31.220581],[-102.466622,31.219546],[-102.465957,31.219504],[-102.465741,31.219888],[-102.46544,31.220769],[-102.465868,31.220958],[-102.466708,31.220818],[-102.466964,31.221113],[-102.46637,31.22189],[-102.466397,31.222194],[-102.467947,31.22309],[-102.468699,31.223257],[-102.46841,31.223731],[-102.465678,31.225685],[-102.465491,31.226215],[-102.465771,31.22667],[-102.468037,31.227135],[-102.468822,31.228322],[-102.46995,31.227842],[-102.471866,31.228626],[-102.472379,31.228422],[-102.47222,31.226955],[-102.472712,31.226719],[-102.473164,31.226886],[-102.473383,31.227182],[-102.473437,31.228357],[-102.474186,31.229646],[-102.47452,31.229762],[-102.475986,31.229295],[-102.476926,31.229333],[-102.477135,31.229691],[-102.476964,31.230601],[-102.477309,31.231686],[-102.478825,31.23217],[-102.479254,31.233351],[-102.480168,31.233429],[-102.480887,31.233842],[-102.4818,31.233968],[-102.481845,31.234551],[-102.481396,31.235341],[-102.481559,31.235759],[-102.48214,31.235903],[-102.483573,31.235431],[-102.483953,31.235508],[-102.484031,31.235981],[-102.483635,31.237167],[-102.485728,31.238263],[-102.485999,31.238247],[-102.486049,31.238006],[-102.485635,31.235646],[-102.485973,31.235581],[-102.487057,31.23608],[-102.487452,31.236004],[-102.487685,31.234827],[-102.488764,31.234341],[-102.48905,31.234749],[-102.488559,31.235617],[-102.488761,31.235912],[-102.489351,31.235814],[-102.490101,31.235134],[-102.490611,31.235101],[-102.491102,31.235638],[-102.490823,31.23646],[-102.489655,31.238006],[-102.491008,31.24071],[-102.49155,31.240839],[-102.492252,31.240407],[-102.49314,31.240209],[-102.49384,31.24038],[-102.494097,31.240784],[-102.494179,31.241818],[-102.495172,31.241952],[-102.495506,31.242206],[-102.495635,31.243414],[-102.497182,31.243973],[-102.496997,31.244445],[-102.496098,31.244887],[-102.496479,31.245543],[-102.4971,31.245471],[-102.497514,31.244523],[-102.497896,31.24429],[-102.498159,31.244575],[-102.497668,31.245634],[-102.498265,31.246236],[-102.500289,31.246307],[-102.500359,31.245132],[-102.500588,31.244939],[-102.501239,31.245007],[-102.501902,31.245813],[-102.501771,31.246198],[-102.500626,31.24639],[-102.498978,31.24756],[-102.498353,31.24817],[-102.498244,31.248709],[-102.498745,31.248845],[-102.499618,31.247697],[-102.500123,31.247483],[-102.500681,31.247803],[-102.501007,31.248671],[-102.50223,31.248915],[-102.502318,31.249585],[-102.501794,31.250443],[-102.502133,31.250879],[-102.503231,31.251284],[-102.502489,31.252639],[-102.502226,31.252796],[-102.50117,31.251968],[-102.500267,31.252297],[-102.498083,31.254057],[-102.496942,31.255422],[-102.48712,31.263483],[-102.483818,31.263528],[-102.483218,31.26453],[-102.481971,31.268709],[-102.479166,31.27124],[-102.477884,31.272817],[-102.474055,31.276256],[-102.473743,31.276777],[-102.474139,31.2774],[-102.474261,31.279044],[-102.473922,31.280237],[-102.473421,31.280669],[-102.473717,31.284155],[-102.474414,31.28614],[-102.47449,31.287105],[-102.473694,31.288742],[-102.472538,31.290289],[-102.472505,31.290711],[-102.472686,31.290884],[-102.473137,31.290778],[-102.474919,31.289131],[-102.490048,31.273876],[-102.517128,31.286515],[-102.51829,31.290577],[-102.516375,31.292381],[-102.516549,31.294031],[-102.506717,31.296673],[-102.502785,31.297108],[-102.497251,31.298072],[-102.469974,31.304391],[-102.469802,31.304955],[-102.469053,31.305846],[-102.468599,31.307709],[-102.468689,31.308357],[-102.468331,31.309264],[-102.468331,31.310309],[-102.468658,31.311078],[-102.468569,31.312936],[-102.468031,31.314129],[-102.466617,31.316135],[-102.46663,31.31674],[-102.467296,31.318004],[-102.466432,31.320274],[-102.467111,31.321642],[-102.467042,31.322045],[-102.461874,31.318218],[-102.461304,31.318494],[-102.46067,31.319297],[-102.460376,31.320599],[-102.459243,31.321644],[-102.459121,31.323029],[-102.460044,31.325903],[-102.460134,31.326942],[-102.459826,31.327855],[-102.459993,31.329256],[-102.459648,31.330383],[-102.459501,31.332719],[-102.458848,31.332878],[-102.457567,31.332334],[-102.456658,31.332587],[-102.455966,31.333065],[-102.454788,31.334791],[-102.450895,31.336792],[-102.45078,31.337974],[-102.45012,31.338716],[-102.449064,31.339106],[-102.446016,31.339508],[-102.442641,31.341047],[-102.440419,31.341409],[-102.437191,31.340326],[-102.435706,31.340376],[-102.433823,31.339661],[-102.431723,31.339353],[-102.431402,31.339111],[-102.426613,31.338589],[-102.424749,31.339765],[-102.423673,31.34005],[-102.422354,31.340902],[-102.421854,31.34199],[-102.420215,31.342259],[-102.41951,31.34194],[-102.41611,31.341961],[-102.414515,31.342401],[-102.413132,31.343318],[-102.411307,31.34329],[-102.410487,31.343983],[-102.409827,31.343906],[-102.408501,31.344202],[-102.407214,31.345548],[-102.407008,31.346477],[-102.406355,31.346257],[-102.40526,31.346696],[-102.403345,31.347592],[-102.40191,31.348789],[-102.398183,31.348909],[-102.396915,31.34837],[-102.396313,31.347314],[-102.395084,31.346764],[-102.393541,31.346307],[-102.392606,31.346356],[-102.392164,31.346005],[-102.3908,31.345944],[-102.389705,31.346355],[-102.38419,31.347447],[-102.383678,31.347749],[-102.382929,31.347765],[-102.381846,31.348655],[-102.378708,31.348527],[-102.376408,31.349905],[-102.373106,31.350959],[-102.372828,31.35092],[-102.371797,31.347693],[-102.371401,31.347105],[-102.370535,31.343626],[-102.36728,31.341612],[-102.365055,31.339659],[-102.364592,31.33962],[-102.3621,31.340468],[-102.35913,31.34056],[-102.357624,31.341163],[-102.356123,31.340965],[-102.354533,31.341699],[-102.348935,31.342877],[-102.348905,31.345016],[-102.341356,31.345566],[-102.341525,31.346784],[-102.341138,31.347105],[-102.339865,31.34673],[-102.338923,31.346027],[-102.338002,31.346357],[-102.336149,31.346264],[-102.334494,31.345846],[-102.333247,31.346602],[-102.328448,31.347947],[-102.326759,31.348148],[-102.323244,31.349083],[-102.322858,31.34936],[-102.322264,31.352453],[-102.320985,31.353018],[-102.32074,31.352934],[-102.319848,31.354272],[-102.320851,31.355257],[-102.322157,31.358298],[-102.326306,31.35747],[-102.328961,31.357968],[-102.33555,31.377912],[-102.341467,31.376616],[-102.341959,31.375989],[-102.342788,31.375812],[-102.34421,31.376278],[-102.345016,31.378714],[-102.346751,31.37822],[-102.346988,31.378977],[-102.34528,31.379461],[-102.345548,31.380602],[-102.348396,31.38067],[-102.348221,31.389863],[-102.349052,31.389711],[-102.349364,31.390674],[-102.344894,31.391708],[-102.344638,31.390847],[-102.345331,31.390638],[-102.342949,31.383488],[-102.342177,31.383183],[-102.338314,31.384009],[-102.333312,31.392318],[-102.332498,31.393243],[-102.313852,31.401993]]]}},{"type":"Feature","properties":{"PRECINCT":"2","VTD":"0002"},"geometry":{"type":"Polygon","coordinates":[[[-102.359916,31.399308],[-102.358766,31.395342],[-102.351443,31.397081],[-102.350912,31.395445],[-102.352038,31.395174],[-102.351376,31.393245],[-102.350281,31.3935],[-102.349052,31.389711],[-102.348221,31.389863],[-102.348396,31.38067],[-102.345548,31.380602],[-102.34528,31.379461],[-102.346988,31.378977],[-102.346751,31.37822],[-102.345016,31.378714],[-102.34421,31.376278],[-102.342788,31.375812],[-102.341959,31.375989],[-102.341467,31.376616],[-102.33555,31.377912],[-102.328961,31.357968],[-102.326306,31.35747],[-102.322157,31.358298],[-102.320851,31.355257],[-102.319848,31.354272],[-102.32074,31.352934],[-102.320985,31.353018],[-102.322264,31.352453],[-102.322858,31.34936],[-102.323244,31.349083],[-102.326759,31.348148],[-102.328448,31.347947],[-102.333247,31.346602],[-102.334494,31.345846],[-102.336149,31.346264],[-102.338002,31.346357],[-102.338923,31.346027],[-102.339865,31.34673],[-102.341138,31.347105],[-102.341525,31.346784],[-102.341356,31.345566],[-102.348905,31.345016],[-102.348935,31.342877],[-102.354533,31.341699],[-102.356123,31.340965],[-102.357624,31.341163],[-102.35913,31.34056],[-102.3621,31.340468],[-102.364592,31.33962],[-102.365055,31.339659],[-102.36728,31.341612],[-102.370535,31.343626],[-102.371401,31.347105],[-102.371797,31.347693],[-102.372828,31.35092],[-102.373631,31.350904],[-102.374999,31.350212],[-102.376126,31.35002],[-102.378708,31.348527],[-102.381846,31.348655],[-102.382929,31.347765],[-102.383678,31.347749],[-102.38419,31.347447],[-102.389705,31.346355],[-102.3908,31.345944],[-102.392164,31.346005],[-102.392606,31.346356],[-102.393541,31.346307],[-102.395084,31.346764],[-102.396313,31.347314],[-102.396915,31.34837],[-102.398061,31.348876],[-102.399054,31.349014],[-102.402025,31.348762],[-102.403345,31.347592],[-102.406125,31.346317],[-102.406531,31.346367],[-102.407083,31.346947],[-102.405594,31.349583],[-102.404942,31.352016],[-102.401888,31.359022],[-102.401672,31.366846],[-102.398506,31.370376],[-102.397792,31.370321],[-102.396182,31.370783],[-102.396741,31.370889],[-102.394283,31.375409],[-102.392287,31.378484],[-102.391237,31.381227],[-102.389879,31.382462],[-102.389861,31.383614],[-102.368988,31.388594],[-102.367531,31.383966],[-102.364098,31.385219],[-102.361418,31.386928],[-102.357592,31.388597],[-102.358436,31.391564],[-102.362747,31.390531],[-102.363375,31.392356],[-102.362724,31.392643],[-102.362835,31.39322],[-102.363588,31.393211],[-102.364061,31.394747],[-102.359878,31.395163],[-102.360672,31.399129],[-102.359916,31.399308]]]}},{"type":"Feature","properties":{"PRECINCT":"3","VTD":"0003"},"geometry":{"type":"Polygon","coordinates":[[[-102.492865,31.547458],[-102.485928,31.525801],[-102.48116,31.526611],[-102.465715,31.526676],[-102.444867,31.530696],[-102.442738,31.5315],[-102.430593,31.538685],[-102.428362,31.539475],[-102.427082,31.535156],[-102.421272,31.536341],[-102.419694,31.537213],[-102.419488,31.537721],[-102.41803,31.536009],[-102.415665,31.536491],[-102.415024,31.534225],[-102.425189,31.531616],[-102.423794,31.527274],[-102.413606,31.529725],[-102.412103,31.527399],[-102.426187,31.523744],[-102.416315,31.493388],[-102.409299,31.492906],[-102.401751,31.491872],[-102.399919,31.491433],[-102.400714,31.489771],[-102.400926,31.488639],[-102.400747,31.487671],[-102.400048,31.486451],[-102.399939,31.48561],[-102.399363,31.484406],[-102.399584,31.484401],[-102.399718,31.483845],[-102.399235,31.483064],[-102.39862,31.480708],[-102.391874,31.482532],[-102.385494,31.475331],[-102.398152,31.472246],[-102.389185,31.444507],[-102.389371,31.444256],[-102.391712,31.443681],[-102.392356,31.443759],[-102.364388,31.433857],[-102.361785,31.434386],[-102.358118,31.421776],[-102.351178,31.400319],[-102.347833,31.401003],[-102.346898,31.39821],[-102.358766,31.395342],[-102.359916,31.399308],[-102.360672,31.399129],[-102.359878,31.395163],[-102.364061,31.394747],[-102.363588,31.393211],[-102.362835,31.39322],[-102.362724,31.392643],[-102.363375,31.392356],[-102.362747,31.390531],[-102.358436,31.391564],[-102.357592,31.388597],[-102.361418,31.386928],[-102.364098,31.385219],[-102.367531,31.383966],[-102.368988,31.388594],[-102.389861,31.383614],[-102.389879,31.382462],[-102.391237,31.381227],[-102.392287,31.378484],[-102.394283,31.375409],[-102.396741,31.370889],[-102.396182,31.370783],[-102.397792,31.370321],[-102.398506,31.370376],[-102.401672,31.366846],[-102.401888,31.359022],[-102.404942,31.352016],[-102.405594,31.349583],[-102.407083,31.346947],[-102.407054,31.346732],[-102.406254,31.346281],[-102.407008,31.346477],[-102.407214,31.345548],[-102.408405,31.344257],[-102.409699,31.343922],[-102.410487,31.343983],[-102.411307,31.34329],[-102.413132,31.343318],[-102.414515,31.342401],[-102.41611,31.341961],[-102.41951,31.34194],[-102.420215,31.342259],[-102.421854,31.34199],[-102.422354,31.340902],[-102.423673,31.34005],[-102.424749,31.339765],[-102.426613,31.338589],[-102.431402,31.339111],[-102.431723,31.339353],[-102.433823,31.339661],[-102.435706,31.340376],[-102.437191,31.340326],[-102.440419,31.341409],[-102.442257,31.341135],[-102.443633,31.3407],[-102.444946,31.33987],[-102.446016,31.339508],[-102.449064,31.339106],[-102.45012,31.338716],[-102.45078,31.337974],[-102.450895,31.336792],[-102.454788,31.334791],[-102.455966,31.333065],[-102.456658,31.332587],[-102.457567,31.332334],[-102.458848,31.332878],[-102.459417,31.332785],[-102.459661,31.332191],[-102.459648,31.330383],[-102.459993,31.329256],[-102.459826,31.327855],[-102.460134,31.326942],[-102.460044,31.325903],[-102.459121,31.323029],[-102.459243,31.321644],[-102.460376,31.320599],[-102.46067,31.319297],[-102.461304,31.318494],[-102.461874,31.318218],[-102.467042,31.322045],[-102.467111,31.321642],[-102.466432,31.320274],[-102.467296,31.318004],[-102.46663,31.31674],[-102.466617,31.316135],[-102.468031,31.314129],[-102.468569,31.312936],[-102.468658,31.311078],[-102.468331,31.310309],[-102.468331,31.309264],[-102.468689,31.308357],[-102.468599,31.307709],[-102.469053,31.305846],[-102.469802,31.304955],[-102.469974,31.304391],[-102.497251,31.298072],[-102.502785,31.297108],[-102.506717,31.296673],[-102.516549,31.294031],[-102.516375,31.292381],[-102.51829,31.290577],[-102.517128,31.286515],[-102.490048,31.273876],[-102.474919,31.289131],[-102.473137,31.290778],[-102.472606,31.290832],[-102.472538,31.290289],[-102.473694,31.288742],[-102.47449,31.287105],[-102.474414,31.28614],[-102.473717,31.284155],[-102.473421,31.280669],[-102.473922,31.280237],[-102.474274,31.278934],[-102.474139,31.2774],[-102.473743,31.276777],[-102.474217,31.276055],[-102.477884,31.272817],[-102.479166,31.27124],[-102.481971,31.268709],[-102.483218,31.26453],[-102.483818,31.263528],[-102.48712,31.263483],[-102.496942,31.255422],[-102.498362,31.253827],[-102.500267,31.252297],[-102.50117,31.251968],[-102.502226,31.252796],[-102.502489,31.252639],[-102.502369,31.253177],[-102.502818,31.253431],[-102.503476,31.253533],[-102.503816,31.2534],[-102.504052,31.252946],[-102.504515,31.25283],[-102.506679,31.253978],[-102.507222,31.255272],[-102.506772,31.256222],[-102.506845,31.256526],[-102.50866,31.256885],[-102.509233,31.258488],[-102.510592,31.258204],[-102.511111,31.25831],[-102.511327,31.259651],[-102.511775,31.259665],[-102.514936,31.258596],[-102.515158,31.258877],[-102.514772,31.259995],[-102.514973,31.260405],[-102.515912,31.260451],[-102.516903,31.260829],[-102.517639,31.26071],[-102.5189,31.260895],[-102.520768,31.262807],[-102.521483,31.262588],[-102.522162,31.261445],[-102.522236,31.260843],[-102.52257,31.260599],[-102.523062,31.26062],[-102.523327,31.260879],[-102.523023,31.26238],[-102.523063,31.262698],[-102.5234,31.262875],[-102.524406,31.261874],[-102.524838,31.261974],[-102.525313,31.262449],[-102.525859,31.262026],[-102.526711,31.261863],[-102.527912,31.262435],[-102.528579,31.261774],[-102.529272,31.261723],[-102.530183,31.262118],[-102.53058,31.261927],[-102.530775,31.261309],[-102.531145,31.26102],[-102.533161,31.260727],[-102.533465,31.261002],[-102.533387,31.262089],[-102.534733,31.262017],[-102.535103,31.262916],[-102.536165,31.263427],[-102.53606,31.265222],[-102.536374,31.265325],[-102.538102,31.263889],[-102.538498,31.263926],[-102.538655,31.264266],[-102.537988,31.264858],[-102.538237,31.265474],[-102.541002,31.265713],[-102.541064,31.266091],[-102.540464,31.266759],[-102.540733,31.267327],[-102.541741,31.267269],[-102.54217,31.26594],[-102.543054,31.265037],[-102.543804,31.265378],[-102.543995,31.266996],[-102.544306,31.267311],[-102.545623,31.266344],[-102.546111,31.266256],[-102.547171,31.266433],[-102.547703,31.267344],[-102.54811,31.267406],[-102.548888,31.265982],[-102.549906,31.265613],[-102.551063,31.266512],[-102.551261,31.267159],[-102.551042,31.26778],[-102.549433,31.267924],[-102.549755,31.269088],[-102.550694,31.268877],[-102.551236,31.268468],[-102.552172,31.268753],[-102.553267,31.268446],[-102.554559,31.268796],[-102.555973,31.268133],[-102.55701,31.268711],[-102.557934,31.267783],[-102.559296,31.267886],[-102.560599,31.267573],[-102.561731,31.268074],[-102.561916,31.268703],[-102.562424,31.269008],[-102.563404,31.268789],[-102.564324,31.268985],[-102.564503,31.269622],[-102.564134,31.271066],[-102.565656,31.270928],[-102.565965,31.27116],[-102.566222,31.272074],[-102.566837,31.272641],[-102.567403,31.272587],[-102.567732,31.27183],[-102.567137,31.271128],[-102.566298,31.270689],[-102.566561,31.26982],[-102.567308,31.269769],[-102.569033,31.270704],[-102.56977,31.270809],[-102.570919,31.269983],[-102.571611,31.269752],[-102.57182,31.269938],[-102.571564,31.270844],[-102.572828,31.271222],[-102.5733,31.272071],[-102.574723,31.272774],[-102.575268,31.271598],[-102.576213,31.271313],[-102.576554,31.270807],[-102.576319,31.269654],[-102.575936,31.269283],[-102.57493,31.268983],[-102.574646,31.268435],[-102.574769,31.268109],[-102.575784,31.267735],[-102.57679,31.268274],[-102.578166,31.26982],[-102.57804,31.270186],[-102.577448,31.270551],[-102.577346,31.271024],[-102.578396,31.271789],[-102.578943,31.271745],[-102.578992,31.270543],[-102.579691,31.269624],[-102.579552,31.268438],[-102.579844,31.267736],[-102.5809,31.267102],[-102.581594,31.267298],[-102.58223,31.266237],[-102.582058,31.26558],[-102.58103,31.264913],[-102.580194,31.263857],[-102.580455,31.263054],[-102.580757,31.262898],[-102.581422,31.263034],[-102.582395,31.264956],[-102.583566,31.265194],[-102.584047,31.264683],[-102.583777,31.263579],[-102.583891,31.26288],[-102.584539,31.262717],[-102.585824,31.263307],[-102.586524,31.263122],[-102.586857,31.262722],[-102.587239,31.260839],[-102.587771,31.260238],[-102.588474,31.260203],[-102.588851,31.260415],[-102.589287,31.262059],[-102.588841,31.262895],[-102.588877,31.263527],[-102.589442,31.26378],[-102.590358,31.263617],[-102.591624,31.264138],[-102.591941,31.265604],[-102.59286,31.266141],[-102.593746,31.267132],[-102.59457,31.267402],[-102.595003,31.267085],[-102.595483,31.264605],[-102.595811,31.264155],[-102.596491,31.264012],[-102.5969,31.264847],[-102.596606,31.265756],[-102.59671,31.266754],[-102.597206,31.266758],[-102.597852,31.265854],[-102.598297,31.265684],[-102.599566,31.266176],[-102.600677,31.267097],[-102.600198,31.268226],[-102.599343,31.268292],[-102.598748,31.268601],[-102.598772,31.270183],[-102.599323,31.270427],[-102.600505,31.269764],[-102.601498,31.269916],[-102.601718,31.270327],[-102.601164,31.271801],[-102.601719,31.272124],[-102.602861,31.270646],[-102.603561,31.270607],[-102.604051,31.270919],[-102.604246,31.272405],[-102.604619,31.2731],[-102.603355,31.274071],[-102.602726,31.27523],[-102.602635,31.275897],[-102.603139,31.276228],[-102.604491,31.276434],[-102.604929,31.276855],[-102.605026,31.277303],[-102.604637,31.278498],[-102.604846,31.279171],[-102.606459,31.279038],[-102.607624,31.279755],[-102.608725,31.280049],[-102.608688,31.28042],[-102.608312,31.280642],[-102.606994,31.280969],[-102.606746,31.281531],[-102.607142,31.281685],[-102.609045,31.281517],[-102.609873,31.282008],[-102.610331,31.282993],[-102.61015,31.283586],[-102.609393,31.28379],[-102.60849,31.283457],[-102.608074,31.283608],[-102.608602,31.28464],[-102.60843,31.28554],[-102.608596,31.286082],[-102.610501,31.285218],[-102.611754,31.284983],[-102.612386,31.284554],[-102.613476,31.285377],[-102.61459,31.285097],[-102.616009,31.285303],[-102.616897,31.285979],[-102.617074,31.287714],[-102.616192,31.288766],[-102.616186,31.289323],[-102.617561,31.289213],[-102.619094,31.289677],[-102.62048,31.289112],[-102.621224,31.289168],[-102.621987,31.289809],[-102.622117,31.291111],[-102.623598,31.29232],[-102.625064,31.2921],[-102.625987,31.291613],[-102.627171,31.291638],[-102.628955,31.291026],[-102.629665,31.291],[-102.629977,31.291352],[-102.629853,31.292392],[-102.631489,31.292562],[-102.63171,31.293546],[-102.632037,31.2939],[-102.633307,31.294031],[-102.63412,31.293427],[-102.634651,31.293367],[-102.635712,31.293917],[-102.635953,31.295222],[-102.637233,31.29555],[-102.638016,31.296158],[-102.636954,31.296807],[-102.636509,31.297481],[-102.635728,31.297695],[-102.635556,31.297931],[-102.635669,31.298222],[-102.636729,31.298902],[-102.637039,31.300973],[-102.636536,31.302737],[-102.635165,31.305273],[-102.636224,31.305398],[-102.637532,31.30485],[-102.638015,31.304873],[-102.639894,31.306498],[-102.639588,31.307362],[-102.63985,31.307937],[-102.640453,31.308095],[-102.641497,31.307346],[-102.642139,31.307533],[-102.642308,31.30799],[-102.642135,31.308423],[-102.641405,31.308985],[-102.641008,31.309682],[-102.641122,31.310309],[-102.642522,31.310346],[-102.643128,31.311453],[-102.646287,31.313581],[-102.646733,31.313597],[-102.647457,31.312865],[-102.647962,31.312897],[-102.648229,31.313509],[-102.647369,31.315017],[-102.647842,31.315527],[-102.648537,31.315563],[-102.649063,31.315168],[-102.648815,31.314506],[-102.649024,31.314057],[-102.650343,31.313987],[-102.650467,31.312727],[-102.651049,31.312242],[-102.652728,31.312775],[-102.652533,31.313984],[-102.65284,31.314156],[-102.653882,31.314107],[-102.655154,31.315676],[-102.655637,31.315525],[-102.655904,31.314022],[-102.656331,31.313525],[-102.656979,31.313678],[-102.658478,31.314619],[-102.659733,31.31481],[-102.660772,31.314335],[-102.661091,31.3144],[-102.661483,31.315455],[-102.66198,31.315902],[-102.663297,31.31575],[-102.66385,31.315367],[-102.664554,31.313979],[-102.665224,31.313921],[-102.665559,31.314603],[-102.665095,31.31562],[-102.665114,31.316223],[-102.664158,31.317465],[-102.664522,31.318721],[-102.664364,31.319842],[-102.664622,31.320359],[-102.664361,31.321057],[-102.665261,31.323313],[-102.665913,31.323943],[-102.666224,31.325136],[-102.667909,31.326819],[-102.669012,31.327237],[-102.669688,31.326915],[-102.670288,31.326992],[-102.671522,31.328208],[-102.673244,31.328105],[-102.674524,31.328913],[-102.675339,31.329774],[-102.676104,31.330084],[-102.676627,31.329898],[-102.677293,31.329099],[-102.67726,31.328093],[-102.676333,31.327157],[-102.676497,31.326823],[-102.679236,31.326333],[-102.680126,31.325246],[-102.681537,31.325294],[-102.682081,31.324155],[-102.683287,31.323294],[-102.685715,31.322731],[-102.686834,31.322058],[-102.68857,31.322247],[-102.689165,31.32072],[-102.690602,31.319997],[-102.69233,31.31974],[-102.695853,31.318753],[-102.696971,31.318189],[-102.698964,31.31611],[-102.700502,31.31538],[-102.701357,31.314586],[-102.702041,31.31443],[-102.70275,31.314664],[-102.703848,31.314556],[-102.704494,31.313527],[-102.705638,31.313015],[-102.70647,31.312045],[-102.707559,31.311333],[-102.708332,31.31113],[-102.709149,31.311362],[-102.70958,31.311693],[-102.709994,31.312536],[-102.710914,31.312728],[-102.711607,31.312292],[-102.711484,31.310787],[-102.711787,31.310357],[-102.713431,31.310406],[-102.715308,31.310056],[-102.716279,31.310273],[-102.716698,31.310829],[-102.717297,31.310939],[-102.717745,31.310793],[-102.71806,31.309632],[-102.718694,31.309044],[-102.719344,31.30912],[-102.720133,31.309704],[-102.721905,31.309675],[-102.722583,31.309018],[-102.722521,31.307469],[-102.722826,31.307074],[-102.723995,31.30759],[-102.724214,31.308382],[-102.724875,31.308418],[-102.725229,31.307713],[-102.725186,31.306763],[-102.726078,31.305563],[-102.726076,31.304619],[-102.726299,31.304375],[-102.726912,31.304344],[-102.728277,31.303797],[-102.729465,31.302995],[-102.729324,31.302188],[-102.72878,31.301554],[-102.72698,31.300731],[-102.726756,31.300434],[-102.726858,31.299777],[-102.7276,31.299506],[-102.728935,31.299977],[-102.729548,31.300564],[-102.729348,31.301103],[-102.729784,31.30134],[-102.730676,31.300643],[-102.730795,31.299549],[-102.73059,31.299251],[-102.729354,31.298797],[-102.729609,31.298015],[-102.729972,31.29779],[-102.730546,31.297799],[-102.731266,31.298344],[-102.732277,31.29833],[-102.732329,31.297865],[-102.731837,31.29676],[-102.732204,31.29633],[-102.732054,31.295617],[-102.731464,31.295122],[-102.729185,31.295264],[-102.72894,31.295052],[-102.729181,31.294107],[-102.729826,31.29353],[-102.730543,31.293182],[-102.73216,31.292975],[-102.732595,31.292129],[-102.732087,31.2908],[-102.731407,31.289966],[-102.731403,31.289347],[-102.729956,31.288105],[-102.729976,31.287703],[-102.731491,31.286492],[-102.732897,31.286315],[-102.734984,31.285591],[-102.736891,31.285638],[-102.737576,31.284787],[-102.737602,31.283688],[-102.739244,31.282596],[-102.740354,31.282904],[-102.741844,31.28298],[-102.742186,31.283449],[-102.742207,31.284704],[-102.742479,31.284823],[-102.743719,31.28403],[-102.744492,31.282908],[-102.744369,31.282341],[-102.743656,31.282642],[-102.743258,31.282436],[-102.743366,31.281393],[-102.744007,31.281284],[-102.744864,31.281556],[-102.74559,31.281898],[-102.746013,31.282493],[-102.746454,31.282554],[-102.748204,31.281848],[-102.749299,31.281905],[-102.750398,31.280971],[-102.750532,31.280372],[-102.751839,31.280094],[-102.753248,31.279151],[-102.753802,31.279111],[-102.754163,31.279755],[-102.754796,31.280199],[-102.755945,31.282374],[-102.755929,31.283056],[-102.756894,31.283254],[-102.7571,31.283625],[-102.756935,31.285473],[-102.756347,31.285442],[-102.755479,31.28475],[-102.754789,31.28505],[-102.754401,31.285672],[-102.754787,31.28642],[-102.75599,31.286724],[-102.756525,31.288015],[-102.756106,31.28919],[-102.755228,31.290059],[-102.755132,31.290422],[-102.755773,31.290569],[-102.757349,31.289891],[-102.757636,31.28992],[-102.757911,31.290386],[-102.757224,31.290854],[-102.755994,31.291013],[-102.755578,31.291435],[-102.75595,31.291705],[-102.757343,31.291632],[-102.758702,31.292501],[-102.759898,31.292949],[-102.760148,31.293131],[-102.760045,31.293549],[-102.761274,31.294456],[-102.761748,31.294495],[-102.762766,31.292901],[-102.763297,31.293017],[-102.763656,31.293819],[-102.76436,31.294188],[-102.766107,31.293711],[-102.767365,31.293803],[-102.767618,31.375139],[-102.767279,31.500187],[-102.767427,31.624486],[-102.767688,31.640496],[-102.767246,31.651714],[-102.597686,31.651085],[-102.533468,31.651307],[-102.524586,31.64262],[-102.523229,31.640729],[-102.522142,31.638514],[-102.500343,31.570779],[-102.498635,31.565882],[-102.494756,31.558159],[-102.492865,31.547458]]]}},{"type":"Feature","properties":{"PRECINCT":"4","VTD":"0004"},"geometry":{"type":"Polygon","coordinates":[[[-102.533468,31.651307],[-102.367168,31.651147],[-102.31805,31.651327],[-102.316764,31.535604],[-102.317033,31.533815],[-102.316648,31.526337],[-102.313762,31.401978],[-102.315161,31.401497],[-102.332498,31.393243],[-102.333312,31.392318],[-102.338314,31.384009],[-102.342043,31.383202],[-102.342739,31.38331],[-102.343076,31.383717],[-102.345331,31.390638],[-102.344638,31.390847],[-102.344894,31.391708],[-102.349364,31.390674],[-102.350281,31.3935],[-102.351376,31.393245],[-102.352038,31.395174],[-102.350912,31.395445],[-102.351443,31.397081],[-102.346898,31.39821],[-102.347833,31.401003],[-102.351178,31.400319],[-102.358118,31.421776],[-102.361785,31.434386],[-102.364388,31.433857],[-102.392356,31.443759],[-102.391712,31.443681],[-102.389371,31.444256],[-102.389185,31.444507],[-102.398152,31.472246],[-102.385494,31.475331],[-102.391874,31.482532],[-102.39862,31.480708],[-102.399235,31.483064],[-102.399718,31.483845],[-102.399584,31.484401],[-102.399363,31.484406],[-102.399939,31.48561],[-102.400048,31.486451],[-102.400747,31.487671],[-102.400926,31.488639],[-102.400714,31.489771],[-102.399919,31.491433],[-102.401751,31.491872],[-102.409299,31.492906],[-102.416315,31.493388],[-102.426187,31.523744],[-102.412103,31.527399],[-102.413606,31.529725],[-102.423794,31.527274],[-102.425189,31.531616],[-102.415024,31.534225],[-102.415665,31.536491],[-102.41803,31.536009],[-102.419488,31.537721],[-102.419694,31.537213],[-102.421272,31.536341],[-102.427082,31.535156],[-102.428362,31.539475],[-102.430593,31.538685],[-102.442738,31.5315],[-102.444867,31.530696],[-102.465715,31.526676],[-102.48116,31.526611],[-102.485928,31.525801],[-102.492865,31.547458],[-102.494756,31.558159],[-102.498635,31.565882],[-102.500343,31.570779],[-102.521958,31.638033],[-102.523229,31.640729],[-102.524586,31.64262],[-102.533468,31.651307]]]}}]}