{"type":"FeatureCollection","features":[{"type":"Feature","properties":{"PRECINCT":"3","VTD":"0003"},"geometry":{"type":"Polygon","coordinates":[[[-100.599339,31.974358],[-100.59901,31.974661],[-100.59881,31.974243],[-100.598107,31.974183],[-100.598184,31.97365],[-100.5979,31.973639],[-100.59788,31.973089],[-100.597603,31.973023],[-100.597435,31.97249],[-100.596319,31.971231],[-100.596177,31.971814],[-100.59521,31.972012],[-100.595403,31.971259],[-100.59599,31.970808],[-100.59406,31.969214],[-100.592834,31.967493],[-100.591937,31.966954],[-100.591867,31.967334],[-100.590577,31.966762],[-100.590744,31.96641],[-100.59057,31.965806],[-100.590138,31.965899],[-100.590047,31.966306],[-100.589667,31.966339],[-100.588164,31.965388],[-100.587906,31.964927],[-100.587925,31.963778],[-100.587228,31.96281],[-100.58715,31.962304],[-100.587421,31.96165],[-100.587911,31.961589],[-100.588698,31.96248],[-100.589511,31.962804],[-100.590297,31.961627],[-100.590368,31.960896],[-100.593089,31.95858],[-100.593385,31.957783],[-100.593888,31.957376],[-100.594449,31.956331],[-100.594835,31.953917],[-100.596092,31.952251],[-100.596079,31.951762],[-100.596556,31.951679],[-100.595988,31.951289],[-100.596059,31.951108],[-100.596401,31.95114],[-100.596194,31.950283],[-100.596974,31.949942],[-100.596639,31.949645],[-100.597174,31.949766],[-100.5974,31.950238],[-100.597806,31.950436],[-100.597987,31.950354],[-100.597451,31.950062],[-100.597619,31.94987],[-100.599193,31.950122],[-100.598541,31.949655],[-100.598361,31.949815],[-100.598231,31.949551],[-100.597967,31.949655],[-100.598122,31.949419],[-100.597496,31.94959],[-100.597013,31.949326],[-100.597116,31.94888],[-100.596509,31.948815],[-100.596238,31.947897],[-100.596773,31.947687],[-100.597418,31.947973],[-100.598559,31.947659],[-100.598927,31.947742],[-100.599346,31.947225],[-100.600475,31.947642],[-100.600687,31.947466],[-100.599572,31.947109],[-100.600442,31.946367],[-100.601132,31.946136],[-100.601383,31.946245],[-100.601667,31.945937],[-100.602544,31.945646],[-100.605845,31.945908],[-100.606793,31.945364],[-100.607231,31.944489],[-100.607888,31.94422],[-100.607128,31.944391],[-100.606786,31.945127],[-100.605897,31.945694],[-100.603614,31.945513],[-100.603349,31.945085],[-100.603272,31.945437],[-100.602421,31.94531],[-100.601499,31.945613],[-100.601538,31.945135],[-100.601131,31.944876],[-100.601267,31.945663],[-100.600487,31.945905],[-100.599758,31.94646],[-100.597947,31.947198],[-100.597721,31.947005],[-100.597489,31.947236],[-100.59638,31.947006],[-100.596534,31.9465],[-100.596031,31.946489],[-100.59607,31.945692],[-100.594283,31.944752],[-100.594283,31.944208],[-100.593812,31.943394],[-100.594379,31.941547],[-100.593997,31.938677],[-100.593049,31.937566],[-100.591585,31.936571],[-100.593287,31.936142],[-100.593403,31.935389],[-100.593674,31.935202],[-100.593293,31.935229],[-100.592836,31.935834],[-100.592545,31.935658],[-100.591733,31.936011],[-100.591179,31.935818],[-100.589063,31.933669],[-100.586845,31.932889],[-100.586187,31.932416],[-100.584594,31.929898],[-100.583723,31.927798],[-100.582498,31.92644],[-100.579887,31.925632],[-100.579203,31.925039],[-100.576805,31.925407],[-100.57569,31.924753],[-100.575477,31.924198],[-100.575734,31.923192],[-100.576121,31.923225],[-100.576566,31.923835],[-100.576437,31.923219],[-100.576663,31.923049],[-100.576089,31.922636],[-100.576779,31.922372],[-100.576263,31.922235],[-100.576205,31.921943],[-100.576643,31.920778],[-100.57712,31.920778],[-100.577423,31.920338],[-100.577894,31.920371],[-100.577868,31.920745],[-100.577578,31.920855],[-100.578177,31.921393],[-100.578003,31.921531],[-100.5781,31.92191],[-100.578306,31.92147],[-100.578577,31.921465],[-100.5781,31.920959],[-100.57839,31.920464],[-100.578712,31.920585],[-100.578944,31.920266],[-100.579073,31.920475],[-100.579918,31.920453],[-100.579931,31.920689],[-100.580034,31.920722],[-100.580008,31.920343],[-100.581213,31.920277],[-100.581091,31.920024],[-100.581581,31.919578],[-100.582496,31.919721],[-100.582754,31.919512],[-100.582341,31.919644],[-100.581194,31.919458],[-100.58073,31.920128],[-100.579718,31.920211],[-100.579131,31.919969],[-100.579647,31.919639],[-100.579176,31.919645],[-100.579202,31.919353],[-100.578848,31.919848],[-100.578499,31.919953],[-100.578261,31.919584],[-100.577964,31.919722],[-100.577882,31.919185],[-100.577603,31.919683],[-100.576817,31.919849],[-100.576739,31.919541],[-100.578344,31.918413],[-100.577764,31.918094],[-100.577468,31.917534],[-100.577171,31.917545],[-100.576939,31.916841],[-100.577364,31.915763],[-100.577873,31.915686],[-100.577693,31.914955],[-100.578047,31.91512],[-100.577989,31.91545],[-100.578376,31.915879],[-100.579008,31.915362],[-100.57846,31.915241],[-100.578369,31.914718],[-100.579194,31.913861],[-100.577918,31.913723],[-100.577879,31.91336],[-100.578382,31.913008],[-100.579736,31.91314],[-100.580213,31.91297],[-100.581392,31.913492],[-100.58283,31.913409],[-100.582965,31.913981],[-100.583139,31.913525],[-100.5835,31.913585],[-100.583442,31.913349],[-100.583997,31.913238],[-100.583558,31.912568],[-100.585098,31.911539],[-100.585659,31.911429],[-100.586123,31.911726],[-100.586008,31.912754],[-100.586826,31.913375],[-100.587806,31.913128],[-100.588367,31.913529],[-100.588057,31.912974],[-100.588973,31.912369],[-100.590036,31.912808],[-100.590945,31.912792],[-100.591023,31.913127],[-100.591151,31.912731],[-100.592151,31.912819],[-100.593911,31.913951],[-100.595155,31.914088],[-100.595593,31.913566],[-100.595973,31.913703],[-100.596225,31.914352],[-100.596373,31.91417],[-100.597953,31.914533],[-100.597708,31.914285],[-100.596289,31.91395],[-100.595948,31.913346],[-100.595561,31.913263],[-100.595799,31.911883],[-100.596636,31.911267],[-100.597662,31.911899],[-100.598068,31.91191],[-100.599247,31.911052],[-100.600504,31.911343],[-100.599324,31.910887],[-100.597732,31.911762],[-100.597158,31.911031],[-100.59654,31.911031],[-100.595509,31.911894],[-100.595322,31.913406],[-100.594768,31.913802],[-100.592505,31.912406],[-100.589978,31.912105],[-100.590236,31.911208],[-100.590519,31.91101],[-100.590107,31.911104],[-100.589759,31.911918],[-100.588334,31.911753],[-100.587503,31.912413],[-100.586923,31.912584],[-100.586787,31.912226],[-100.587122,31.911836],[-100.587277,31.910819],[-100.58863,31.910329],[-100.589526,31.90946],[-100.589204,31.90918],[-100.588939,31.908328],[-100.588998,31.909482],[-100.588179,31.910076],[-100.587225,31.909257],[-100.587825,31.910175],[-100.586723,31.910725],[-100.584718,31.910643],[-100.583545,31.911655],[-100.583371,31.911507],[-100.583513,31.910632],[-100.583236,31.91127],[-100.582617,31.91182],[-100.582527,31.912606],[-100.582153,31.912662],[-100.581979,31.912403],[-100.581167,31.912321],[-100.580922,31.91198],[-100.580193,31.911898],[-100.580438,31.91176],[-100.580406,31.911177],[-100.581418,31.910649],[-100.581637,31.909868],[-100.581321,31.910523],[-100.580863,31.91071],[-100.580283,31.910754],[-100.580032,31.910364],[-100.580038,31.911348],[-100.579265,31.911837],[-100.579052,31.911848],[-100.579155,31.911557],[-100.578885,31.911689],[-100.578343,31.911365],[-100.577434,31.911689],[-100.577163,31.911348],[-100.577479,31.911145],[-100.577228,31.910974],[-100.57677,31.910881],[-100.576674,31.911326],[-100.576113,31.911123],[-100.576364,31.911585],[-100.576074,31.911733],[-100.576029,31.912212],[-100.576635,31.912723],[-100.576403,31.912937],[-100.576609,31.913097],[-100.576158,31.913152],[-100.576229,31.913487],[-100.576603,31.913438],[-100.576352,31.913883],[-100.576552,31.914367],[-100.576075,31.914334],[-100.576216,31.913993],[-100.575913,31.913828],[-100.575701,31.913201],[-100.575211,31.913641],[-100.574366,31.913608],[-100.574566,31.91335],[-100.574463,31.912828],[-100.573625,31.912448],[-100.573354,31.911722],[-100.572432,31.911816],[-100.571916,31.910832],[-100.572484,31.91059],[-100.572761,31.910898],[-100.574508,31.911074],[-100.572858,31.910392],[-100.573521,31.909969],[-100.573618,31.909584],[-100.573907,31.909618],[-100.573837,31.909364],[-100.574733,31.908192],[-100.573708,31.909111],[-100.57345,31.9091],[-100.573457,31.909413],[-100.572671,31.910062],[-100.572129,31.910057],[-100.572426,31.909364],[-100.572322,31.909072],[-100.571588,31.909908],[-100.571027,31.908594],[-100.572406,31.908583],[-100.571897,31.908418],[-100.571607,31.907857],[-100.570079,31.907225],[-100.569596,31.906466],[-100.569737,31.905884],[-100.569183,31.905961],[-100.568513,31.905526],[-100.56848,31.904828],[-100.56819,31.904394],[-100.56877,31.904405],[-100.56966,31.903932],[-100.569556,31.9022],[-100.571819,31.900028],[-100.571541,31.899055],[-100.571818,31.898356],[-100.571432,31.898642],[-100.571238,31.900237],[-100.570349,31.901281],[-100.569247,31.901446],[-100.568609,31.902293],[-100.568757,31.902788],[-100.56857,31.903338],[-100.567971,31.90297],[-100.567475,31.903014],[-100.565174,31.903728],[-100.564716,31.904234],[-100.564703,31.904911],[-100.565051,31.905642],[-100.565638,31.905576],[-100.565722,31.90595],[-100.566096,31.905818],[-100.566515,31.90645],[-100.566218,31.906648],[-100.566237,31.907159],[-100.566901,31.907286],[-100.567295,31.907676],[-100.567108,31.909155],[-100.566541,31.909452],[-100.566083,31.910112],[-100.565741,31.910178],[-100.56353,31.910085],[-100.560636,31.909166],[-100.558986,31.907693],[-100.559431,31.905884],[-100.559076,31.904801],[-100.557613,31.90314],[-100.557252,31.902145],[-100.555519,31.90071],[-100.555403,31.900303],[-100.555557,31.899588],[-100.556614,31.89878],[-100.557491,31.898769],[-100.557858,31.898428],[-100.558078,31.897537],[-100.559805,31.896927],[-100.557987,31.897427],[-100.557646,31.898269],[-100.557085,31.898648],[-100.556827,31.898599],[-100.557046,31.898258],[-100.55675,31.897878],[-100.556221,31.897702],[-100.555532,31.897818],[-100.555532,31.897609],[-100.554913,31.897862],[-100.554301,31.898494],[-100.553398,31.898642],[-100.552896,31.89674],[-100.552155,31.89602],[-100.551188,31.895673],[-100.549693,31.896162],[-100.548907,31.895761],[-100.54814,31.894854],[-100.547076,31.894782],[-100.545845,31.895233],[-100.54484,31.894826],[-100.544595,31.894518],[-100.544885,31.893902],[-100.54562,31.893611],[-100.545594,31.893143],[-100.544518,31.893044],[-100.543887,31.892071],[-100.544099,31.891922],[-100.544068,31.890383],[-100.54379,31.890322],[-100.543236,31.890845],[-100.543172,31.890465],[-100.544609,31.889008],[-100.544886,31.889267],[-100.545292,31.889151],[-100.545389,31.889349],[-100.545718,31.88925],[-100.546375,31.889514],[-100.545569,31.888734],[-100.545163,31.888767],[-100.545047,31.888503],[-100.544867,31.888723],[-100.544603,31.888656],[-100.544358,31.887925],[-100.5439,31.887733],[-100.5445,31.887348],[-100.545112,31.886441],[-100.545389,31.887502],[-100.545834,31.887557],[-100.546201,31.887222],[-100.546633,31.887222],[-100.547104,31.886001],[-100.548277,31.885006],[-100.548831,31.88499],[-100.549095,31.883862],[-100.54865,31.884896],[-100.548032,31.884951],[-100.546627,31.885847],[-100.546034,31.886716],[-100.545641,31.885748],[-100.54528,31.885545],[-100.545132,31.884841],[-100.545699,31.883026],[-100.54568,31.882531],[-100.544842,31.88478],[-100.543914,31.884533],[-100.544101,31.884841],[-100.544694,31.884808],[-100.544848,31.885138],[-100.544835,31.885566],[-100.544217,31.885902],[-100.543733,31.885616],[-100.544165,31.886276],[-100.544178,31.886573],[-100.543856,31.886677],[-100.544088,31.886952],[-100.543623,31.887271],[-100.542934,31.887287],[-100.54265,31.887881],[-100.543378,31.888074],[-100.54363,31.8887],[-100.542985,31.88892],[-100.542953,31.888601],[-100.542508,31.888574],[-100.542225,31.889195],[-100.542476,31.889541],[-100.542398,31.889948],[-100.541999,31.890344],[-100.541509,31.890404],[-100.541896,31.890844],[-100.541155,31.890635],[-100.540871,31.890833],[-100.54118,31.890993],[-100.541038,31.891147],[-100.540516,31.89135],[-100.539956,31.891273],[-100.540104,31.891779],[-100.53991,31.892373],[-100.540529,31.89267],[-100.539446,31.892708],[-100.538647,31.89312],[-100.536959,31.891987],[-100.535838,31.890376],[-100.535941,31.889491],[-100.536322,31.889084],[-100.536438,31.888826],[-100.535593,31.889513],[-100.535104,31.88849],[-100.535348,31.889854],[-100.535039,31.890216],[-100.533969,31.890282],[-100.531688,31.889446],[-100.531579,31.889011],[-100.53107,31.88861],[-100.531102,31.888148],[-100.531547,31.887978],[-100.53145,31.88707],[-100.531966,31.886955],[-100.531708,31.886856],[-100.531973,31.886004],[-100.532482,31.88546],[-100.532733,31.884646],[-100.53254,31.884234],[-100.532966,31.883898],[-100.532456,31.88408],[-100.532547,31.884739],[-100.532301,31.885416],[-100.531605,31.886169],[-100.531489,31.885888],[-100.530336,31.885173],[-100.530645,31.885718],[-100.531206,31.885949],[-100.531644,31.886526],[-100.531109,31.88679],[-100.531102,31.887659],[-100.530515,31.888368],[-100.530438,31.889121],[-100.530663,31.889325],[-100.53018,31.889033],[-100.529723,31.888137],[-100.529954,31.889214],[-100.529761,31.889583],[-100.527692,31.88923],[-100.527306,31.889384],[-100.5271,31.889137],[-100.52563,31.888988],[-100.524148,31.888421],[-100.522473,31.888893],[-100.522551,31.887398],[-100.522145,31.887183],[-100.522506,31.886392],[-100.523486,31.885853],[-100.523647,31.885413],[-100.524008,31.885809],[-100.52433,31.885551],[-100.52482,31.885815],[-100.525812,31.885249],[-100.525065,31.885529],[-100.524549,31.885139],[-100.52442,31.88537],[-100.524047,31.885155],[-100.524189,31.884798],[-100.523654,31.883461],[-100.524788,31.883099],[-100.523532,31.883302],[-100.523319,31.883049],[-100.523667,31.882741],[-100.523216,31.882889],[-100.523075,31.88185],[-100.523507,31.881647],[-100.523752,31.881004],[-100.523462,31.881537],[-100.522766,31.881872],[-100.522752,31.882933],[-100.523171,31.883456],[-100.522938,31.885039],[-100.522552,31.884803],[-100.522713,31.88521],[-100.521102,31.885369],[-100.52098,31.884258],[-100.520709,31.884071],[-100.521051,31.882669],[-100.522005,31.8818],[-100.522199,31.881113],[-100.522553,31.880882],[-100.52218,31.880624],[-100.52238,31.880393],[-100.522077,31.880448],[-100.521484,31.879898],[-100.521735,31.879859],[-100.521742,31.879321],[-100.522013,31.879123],[-100.52171,31.87904],[-100.521465,31.87948],[-100.521265,31.879386],[-100.522239,31.878018],[-100.522065,31.877941],[-100.522265,31.877017],[-100.521499,31.876049],[-100.51994,31.875559],[-100.520004,31.87601],[-100.519196,31.874081],[-100.519351,31.873536],[-100.519686,31.873432],[-100.519558,31.873196],[-100.520002,31.873075],[-100.522194,31.871338],[-100.524024,31.870816],[-100.52258,31.870898],[-100.518978,31.873311],[-100.518372,31.873569],[-100.517979,31.873503],[-100.517833,31.87519],[-100.518006,31.875751],[-100.519868,31.876422],[-100.521008,31.877181],[-100.51932,31.877747],[-100.519068,31.878638],[-100.518636,31.879155],[-100.517219,31.879066],[-100.517657,31.879336],[-100.518475,31.879253],[-100.518198,31.879578],[-100.518352,31.88004],[-100.51937,31.880623],[-100.519273,31.880744],[-100.519628,31.880777],[-100.519802,31.881222],[-100.518544,31.88286],[-100.517082,31.882623],[-100.517275,31.882849],[-100.517649,31.882728],[-100.518158,31.88313],[-100.518022,31.884158],[-100.518608,31.884889],[-100.51804,31.886418],[-100.518169,31.88705],[-100.517885,31.88782],[-100.517182,31.888221],[-100.517588,31.888551],[-100.518174,31.888601],[-100.518181,31.888447],[-100.518484,31.888612],[-100.5182,31.88892],[-100.517182,31.888837],[-100.516505,31.889392],[-100.516824,31.896408],[-100.513948,31.895856],[-100.511613,31.894916],[-100.500165,31.895499],[-100.501046,31.896231],[-100.501851,31.897694],[-100.502599,31.897595],[-100.50403,31.896782],[-100.504694,31.896865],[-100.506079,31.897597],[-100.506795,31.897564],[-100.507568,31.897125],[-100.507469,31.896811],[-100.508049,31.896674],[-100.510436,31.897775],[-100.512039,31.900667],[-100.513385,31.902328],[-100.513126,31.903972],[-100.497434,31.900959],[-100.492028,31.900445],[-100.490711,31.899271],[-100.483248,31.895358],[-100.483123,31.89517],[-100.48566,31.891651],[-100.483532,31.890564],[-100.48417,31.889639],[-100.479911,31.887445],[-100.478633,31.889332],[-100.475974,31.88788],[-100.476698,31.88665],[-100.480575,31.885786],[-100.477939,31.87505],[-100.476571,31.868128],[-100.475908,31.861998],[-100.474809,31.857422],[-100.474095,31.856072],[-100.471111,31.852716],[-100.464213,31.840434],[-100.461566,31.83496],[-100.458746,31.827024],[-100.457458,31.821771],[-100.4574,31.815744],[-100.45665,31.808241],[-100.456787,31.803697],[-100.456609,31.802758],[-100.451301,31.791128],[-100.446108,31.773495],[-100.437912,31.754263],[-100.436879,31.752461],[-100.430874,31.744471],[-100.429704,31.742288],[-100.429773,31.738271],[-100.43046,31.735424],[-100.431053,31.733859],[-100.433379,31.730675],[-100.434039,31.724173],[-100.434707,31.720505],[-100.434517,31.717451],[-100.434714,31.716072],[-100.437197,31.711146],[-100.438434,31.706632],[-100.440159,31.702217],[-100.440281,31.697913],[-100.441553,31.695266],[-100.441745,31.694056],[-100.441592,31.693073],[-100.633862,31.693997],[-100.746345,31.694981],[-100.82537,31.696155],[-100.824969,31.749414],[-100.824658,31.756164],[-100.824151,31.812061],[-100.82391,31.814215],[-100.824312,31.816345],[-100.824281,31.819217],[-100.82348,31.864782],[-100.822747,31.937871],[-100.816726,31.937607],[-100.813476,31.938134],[-100.81267,31.938546],[-100.811891,31.939302],[-100.808936,31.940791],[-100.807673,31.941753],[-100.807574,31.942386],[-100.805925,31.943483],[-100.805576,31.944594],[-100.806008,31.945822],[-100.802739,31.945744],[-100.801012,31.94541],[-100.794452,31.944801],[-100.78747,31.94505],[-100.786583,31.945279],[-100.783869,31.946745],[-100.781074,31.951738],[-100.773238,31.951706],[-100.770675,31.951939],[-100.768261,31.952871],[-100.768072,31.952359],[-100.767363,31.951985],[-100.767189,31.951352],[-100.767628,31.949302],[-100.766577,31.949125],[-100.766042,31.948801],[-100.76583,31.946943],[-100.766088,31.946288],[-100.764812,31.945447],[-100.7642,31.944633],[-100.763833,31.943599],[-100.763008,31.943335],[-100.762737,31.943819],[-100.762369,31.943901],[-100.761441,31.942735],[-100.760365,31.942322],[-100.758264,31.939875],[-100.755807,31.940352],[-100.754486,31.939769],[-100.753919,31.938757],[-100.752746,31.938559],[-100.752211,31.938685],[-100.751599,31.938091],[-100.750586,31.938371],[-100.749112,31.939204],[-100.747977,31.939248],[-100.746191,31.938474],[-100.744573,31.938464],[-100.743922,31.938898],[-100.742626,31.938866],[-100.740974,31.937728],[-100.739691,31.937421],[-100.737782,31.936108],[-100.73058,31.935501],[-100.72862,31.934935],[-100.727968,31.934088],[-100.726789,31.934237],[-100.726164,31.934793],[-100.724339,31.935371],[-100.72392,31.933738],[-100.723139,31.933084],[-100.721656,31.933271],[-100.720695,31.932188],[-100.719567,31.932172],[-100.71829,31.931689],[-100.716769,31.930551],[-100.714654,31.930618],[-100.714145,31.930937],[-100.7137,31.930794],[-100.71299,31.929282],[-100.713306,31.928573],[-100.713145,31.928089],[-100.710579,31.929178],[-100.709187,31.928744],[-100.70693,31.92853],[-100.70606,31.928645],[-100.704545,31.929597],[-100.704023,31.930653],[-100.703411,31.930917],[-100.700232,31.929773],[-100.699504,31.930114],[-100.699072,31.930059],[-100.699039,31.929279],[-100.698756,31.928894],[-100.697518,31.928504],[-100.696589,31.928795],[-100.694804,31.929895],[-100.69374,31.929516],[-100.693076,31.929015],[-100.692579,31.927498],[-100.692115,31.927322],[-100.6906,31.927564],[-100.686378,31.926987],[-100.685191,31.928317],[-100.684792,31.928411],[-100.684147,31.928136],[-100.684031,31.927509],[-100.683631,31.927042],[-100.683186,31.927025],[-100.681729,31.927812],[-100.680749,31.928867],[-100.680189,31.929104],[-100.679538,31.928829],[-100.67899,31.92807],[-100.678203,31.927839],[-100.676991,31.927795],[-100.676495,31.928592],[-100.676121,31.928636],[-100.675831,31.928405],[-100.675902,31.92747],[-100.675031,31.927157],[-100.6742,31.927382],[-100.673819,31.928042],[-100.671666,31.928927],[-100.67097,31.928773],[-100.670428,31.928086],[-100.6701,31.926689],[-100.669139,31.925309],[-100.668243,31.924764],[-100.667205,31.924528],[-100.665555,31.925506],[-100.665464,31.926271],[-100.666251,31.928261],[-100.666038,31.928882],[-100.665593,31.92919],[-100.664974,31.929053],[-100.664145,31.927627],[-100.66355,31.927351],[-100.662644,31.928072],[-100.66184,31.929124],[-100.661155,31.92931],[-100.659519,31.928907],[-100.657294,31.929145],[-100.656347,31.928805],[-100.655169,31.927557],[-100.654233,31.928084],[-100.652978,31.930739],[-100.652772,31.933204],[-100.651988,31.933767],[-100.64862,31.934201],[-100.648109,31.934588],[-100.648931,31.93579],[-100.649759,31.936267],[-100.651145,31.936322],[-100.653014,31.937122],[-100.653485,31.937707],[-100.653101,31.938431],[-100.651305,31.938773],[-100.649902,31.938768],[-100.648763,31.938505],[-100.647325,31.937322],[-100.645762,31.935561],[-100.641809,31.935792],[-100.639305,31.937145],[-100.638109,31.938105],[-100.637666,31.938755],[-100.638011,31.941851],[-100.638848,31.943272],[-100.638592,31.944276],[-100.635443,31.944579],[-100.630343,31.945727],[-100.629672,31.946563],[-100.628466,31.949087],[-100.628485,31.949781],[-100.625055,31.952354],[-100.622887,31.953421],[-100.622609,31.954368],[-100.622126,31.954855],[-100.621182,31.955246],[-100.619722,31.955293],[-100.618348,31.955064],[-100.617845,31.955212],[-100.617537,31.956227],[-100.617897,31.958346],[-100.617614,31.959154],[-100.616108,31.95898],[-100.612829,31.957303],[-100.612203,31.957243],[-100.610572,31.957799],[-100.609489,31.959235],[-100.60917,31.964046],[-100.608822,31.965068],[-100.607455,31.966026],[-100.606817,31.966785],[-100.606488,31.966246],[-100.606514,31.967021],[-100.606089,31.96778],[-100.60616,31.968693],[-100.605065,31.970717],[-100.605446,31.971376],[-100.604581,31.971937],[-100.604182,31.972053],[-100.604052,31.971866],[-100.603685,31.972218],[-100.603369,31.971998],[-100.603279,31.972273],[-100.603653,31.972477],[-100.600978,31.975914],[-100.60052,31.97598],[-100.59941,31.975227],[-100.599339,31.974358]]]}},{"type":"Feature","properties":{"PRECINCT":"4","VTD":"0004"},"geometry":{"type":"Polygon","coordinates":[[[-100.424243,31.907635],[-100.406439,31.904911],[-100.401844,31.903556],[-100.397167,31.901527],[-100.3865,31.894143],[-100.383957,31.893074],[-100.381375,31.892552],[-100.370518,31.892652],[-100.351671,31.892112],[-100.309542,31.891643],[-100.306575,31.891059],[-100.300101,31.888586],[-100.300006,31.889924],[-100.295376,31.889644],[-100.294807,31.894926],[-100.289538,31.89486],[-100.289531,31.891661],[-100.290907,31.890367],[-100.291874,31.888952],[-100.292454,31.882435],[-100.291337,31.88102],[-100.289758,31.880229],[-100.290091,31.878316],[-100.292499,31.878242],[-100.292106,31.84779],[-100.289249,31.84696],[-100.28782,31.846933],[-100.286408,31.84645],[-100.283781,31.845038],[-100.282076,31.843675],[-100.281373,31.842564],[-100.281253,31.841067],[-100.280563,31.838439],[-100.280788,31.837834],[-100.280061,31.836894],[-100.27905,31.836706],[-100.278092,31.836872],[-100.276216,31.836433],[-100.275334,31.837674],[-100.272958,31.839702],[-100.270825,31.840917],[-100.269487,31.840903],[-100.268713,31.840001],[-100.26758,31.839507],[-100.266233,31.839267],[-100.265686,31.838588],[-100.265839,31.837613],[-100.272074,31.828621],[-100.266871,31.826309],[-100.266222,31.825592],[-100.265252,31.825472],[-100.262731,31.820397],[-100.262209,31.818406],[-100.261485,31.816824],[-100.261325,31.815747],[-100.260654,31.815495],[-100.259393,31.815953],[-100.258937,31.815563],[-100.259098,31.814349],[-100.259877,31.812951],[-100.263233,31.808898],[-100.263341,31.807753],[-100.263851,31.80647],[-100.263904,31.804307],[-100.258927,31.802532],[-100.2572,31.80147],[-100.256087,31.80041],[-100.253245,31.796294],[-100.252742,31.794259],[-100.252821,31.791903],[-100.252204,31.790952],[-100.24446,31.78642],[-100.24086,31.784721],[-100.23846,31.78421],[-100.236043,31.782974],[-100.236189,31.74833],[-100.235761,31.69297],[-100.386178,31.692514],[-100.441592,31.693073],[-100.441745,31.694056],[-100.441553,31.695266],[-100.440281,31.697913],[-100.440159,31.702217],[-100.438434,31.706632],[-100.437197,31.711146],[-100.434714,31.716072],[-100.434517,31.717451],[-100.434707,31.720505],[-100.434039,31.724173],[-100.433379,31.730675],[-100.431053,31.733859],[-100.43046,31.735424],[-100.429773,31.738271],[-100.429704,31.742288],[-100.430874,31.744471],[-100.437518,31.753416],[-100.446108,31.773495],[-100.451083,31.790559],[-100.456698,31.803078],[-100.456627,31.807851],[-100.4574,31.815744],[-100.457401,31.821378],[-100.458565,31.826416],[-100.46182,31.835561],[-100.46642,31.84439],[-100.460453,31.848387],[-100.459338,31.848921],[-100.457544,31.849306],[-100.456349,31.849223],[-100.454832,31.848644],[-100.453163,31.848559],[-100.449261,31.849923],[-100.444022,31.851056],[-100.440775,31.849258],[-100.439692,31.84814],[-100.437879,31.847488],[-100.438236,31.848619],[-100.437952,31.849564],[-100.43754,31.849565],[-100.436426,31.850142],[-100.435814,31.849483],[-100.434925,31.849471],[-100.434332,31.849856],[-100.433913,31.850593],[-100.43332,31.850846],[-100.432651,31.849994],[-100.432277,31.849999],[-100.43142,31.850983],[-100.431285,31.851506],[-100.431787,31.851825],[-100.43227,31.851561],[-100.432773,31.852006],[-100.432605,31.852512],[-100.431826,31.852814],[-100.431291,31.85271],[-100.430866,31.852028],[-100.428418,31.851775],[-100.427409,31.851082],[-100.426241,31.850626],[-100.423536,31.851015],[-100.423004,31.850893],[-100.422723,31.852061],[-100.42302,31.852886],[-100.424379,31.85431],[-100.424443,31.854805],[-100.423741,31.855586],[-100.42443,31.856679],[-100.423638,31.857845],[-100.422459,31.858092],[-100.421537,31.859126],[-100.421395,31.860022],[-100.422226,31.861172],[-100.42222,31.861711],[-100.421324,31.862425],[-100.419919,31.862788],[-100.418979,31.863283],[-100.419082,31.864674],[-100.419765,31.864718],[-100.420641,31.86584],[-100.42037,31.866126],[-100.421008,31.866335],[-100.420718,31.866615],[-100.419532,31.86694],[-100.419152,31.867374],[-100.419397,31.869271],[-100.419745,31.869398],[-100.420138,31.868996],[-100.420479,31.869155],[-100.420647,31.870343],[-100.42017,31.871075],[-100.418475,31.871839],[-100.418436,31.87218],[-100.418778,31.872625],[-100.418629,31.872779],[-100.417457,31.872922],[-100.417134,31.873576],[-100.418101,31.874],[-100.418172,31.874638],[-100.417514,31.874951],[-100.417079,31.875672],[-100.417156,31.876018],[-100.418161,31.876865],[-100.417871,31.877069],[-100.417877,31.877415],[-100.418651,31.87752],[-100.419224,31.876623],[-100.420429,31.877421],[-100.419952,31.878213],[-100.420274,31.878372],[-100.420236,31.878609],[-100.419752,31.878664],[-100.419862,31.878938],[-100.420397,31.87907],[-100.420422,31.880082],[-100.420989,31.880852],[-100.420686,31.881204],[-100.420441,31.881155],[-100.420441,31.881407],[-100.421008,31.881803],[-100.421782,31.881853],[-100.422072,31.882205],[-100.421717,31.882529],[-100.421762,31.882815],[-100.423831,31.884185],[-100.423805,31.884558],[-100.42327,31.885042],[-100.423611,31.885708],[-100.423295,31.885988],[-100.424159,31.886346],[-100.424391,31.887066],[-100.4251,31.887577],[-100.425003,31.888155],[-100.424262,31.888622],[-100.4241,31.889122],[-100.42517,31.890316],[-100.425215,31.891943],[-100.425589,31.892741],[-100.426414,31.8929],[-100.427458,31.89356],[-100.426877,31.89505],[-100.428192,31.895188],[-100.427992,31.895864],[-100.427206,31.895974],[-100.427303,31.896667],[-100.427857,31.897552],[-100.427676,31.89797],[-100.428521,31.898179],[-100.429011,31.898124],[-100.429127,31.897722],[-100.429926,31.897888],[-100.430493,31.89852],[-100.429874,31.90029],[-100.430776,31.90095],[-100.430667,31.901605],[-100.43175,31.901715],[-100.431002,31.902732],[-100.430286,31.90271],[-100.430441,31.903326],[-100.430157,31.90365],[-100.430357,31.903821],[-100.429867,31.904662],[-100.430054,31.90519],[-100.42959,31.90558],[-100.430312,31.906069],[-100.430144,31.906586],[-100.429751,31.906823],[-100.430259,31.90775],[-100.424243,31.907635]]]}},{"type":"Feature","properties":{"PRECINCT":"1","VTD":"0001"},"geometry":{"type":"Polygon","coordinates":[[[-100.806684,32.086697],[-100.768329,32.086235],[-100.756167,32.086368],[-100.750385,32.086255],[-100.73726,32.085521],[-100.723064,32.085391],[-100.625382,32.085388],[-100.618581,32.084788],[-100.530661,32.083526],[-100.484639,32.082932],[-100.377131,32.081968],[-100.377693,32.052163],[-100.377555,32.051581],[-100.376687,32.050587],[-100.376282,32.048955],[-100.377708,32.047539],[-100.37787,32.04086],[-100.376012,32.038634],[-100.370641,32.038553],[-100.370254,32.038397],[-100.369485,32.036123],[-100.369322,32.03318],[-100.368676,32.031198],[-100.374928,32.031216],[-100.375904,32.029479],[-100.378133,32.027436],[-100.378215,32.020288],[-100.379263,32.017338],[-100.380433,32.015999],[-100.383196,32.015686],[-100.385183,32.014401],[-100.3868,32.01444],[-100.38717,32.01412],[-100.387405,32.012971],[-100.388884,32.011941],[-100.388293,32.010613],[-100.389397,32.008117],[-100.389424,32.007269],[-100.389075,32.006901],[-100.387059,32.006214],[-100.386656,32.005802],[-100.387114,32.003028],[-100.388351,32.002159],[-100.389427,32.001908],[-100.389938,32.001221],[-100.390826,32.000694],[-100.391659,32.000528],[-100.392308,31.999698],[-100.392874,31.997743],[-100.394353,31.996873],[-100.394837,31.996094],[-100.395886,31.995201],[-100.396299,31.969312],[-100.396166,31.965762],[-100.398157,31.961089],[-100.398239,31.958293],[-100.397567,31.954902],[-100.397352,31.954788],[-100.396788,31.95504],[-100.396573,31.954902],[-100.396911,31.936691],[-100.414056,31.936749],[-100.414622,31.909937],[-100.410638,31.909837],[-100.410726,31.905638],[-100.423413,31.907587],[-100.430259,31.90775],[-100.429751,31.906823],[-100.430144,31.906586],[-100.430312,31.906069],[-100.42959,31.90558],[-100.430054,31.90519],[-100.429867,31.904662],[-100.430357,31.903821],[-100.430157,31.90365],[-100.430441,31.903326],[-100.430286,31.90271],[-100.430944,31.90277],[-100.431737,31.901874],[-100.431524,31.901588],[-100.431086,31.901764],[-100.43057,31.901528],[-100.430776,31.90095],[-100.429874,31.90029],[-100.430493,31.89852],[-100.429926,31.897888],[-100.429127,31.897722],[-100.429011,31.898124],[-100.428521,31.898179],[-100.427676,31.89797],[-100.427857,31.897552],[-100.427303,31.896667],[-100.427206,31.895974],[-100.427992,31.895864],[-100.428192,31.895188],[-100.426877,31.89505],[-100.427458,31.89356],[-100.426414,31.8929],[-100.425589,31.892741],[-100.425215,31.891943],[-100.42517,31.890316],[-100.4241,31.889122],[-100.424262,31.888622],[-100.425003,31.888155],[-100.4251,31.887577],[-100.424391,31.887066],[-100.424159,31.886346],[-100.423295,31.885988],[-100.423611,31.885708],[-100.42327,31.885042],[-100.423805,31.884558],[-100.423831,31.884185],[-100.421762,31.882815],[-100.421717,31.882529],[-100.422072,31.882205],[-100.421782,31.881853],[-100.421008,31.881803],[-100.420441,31.881407],[-100.420441,31.881155],[-100.420686,31.881204],[-100.420989,31.880852],[-100.420422,31.880082],[-100.420397,31.87907],[-100.419862,31.878938],[-100.419752,31.878664],[-100.420236,31.878609],[-100.420274,31.878372],[-100.419952,31.878213],[-100.420429,31.877421],[-100.419224,31.876623],[-100.418651,31.87752],[-100.417877,31.877415],[-100.417871,31.877069],[-100.418161,31.876865],[-100.417156,31.876018],[-100.417079,31.875672],[-100.417514,31.874951],[-100.418172,31.874638],[-100.418101,31.874],[-100.417134,31.873576],[-100.417457,31.872922],[-100.418629,31.872779],[-100.418778,31.872625],[-100.418436,31.87218],[-100.418475,31.871839],[-100.42017,31.871075],[-100.420647,31.870343],[-100.420479,31.869155],[-100.420138,31.868996],[-100.419745,31.869398],[-100.419397,31.869271],[-100.419152,31.867374],[-100.419532,31.86694],[-100.420718,31.866615],[-100.421008,31.866335],[-100.42037,31.866126],[-100.420641,31.86584],[-100.419765,31.864718],[-100.419082,31.864674],[-100.418979,31.863283],[-100.419919,31.862788],[-100.421324,31.862425],[-100.42222,31.861711],[-100.422226,31.861172],[-100.421395,31.860022],[-100.421537,31.859126],[-100.422459,31.858092],[-100.423638,31.857845],[-100.42443,31.856679],[-100.423741,31.855586],[-100.424443,31.854805],[-100.424379,31.85431],[-100.42302,31.852886],[-100.422723,31.852061],[-100.423004,31.850893],[-100.423536,31.851015],[-100.426241,31.850626],[-100.427409,31.851082],[-100.428418,31.851775],[-100.430866,31.852028],[-100.431291,31.85271],[-100.431826,31.852814],[-100.432605,31.852512],[-100.432773,31.852006],[-100.43227,31.851561],[-100.431787,31.851825],[-100.431285,31.851506],[-100.43142,31.850983],[-100.432277,31.849999],[-100.432651,31.849994],[-100.43332,31.850846],[-100.433913,31.850593],[-100.434332,31.849856],[-100.434925,31.849471],[-100.435814,31.849483],[-100.436426,31.850142],[-100.43754,31.849565],[-100.437952,31.849564],[-100.438236,31.848619],[-100.437879,31.847488],[-100.439692,31.84814],[-100.440775,31.849258],[-100.444022,31.851056],[-100.449261,31.849923],[-100.453163,31.848559],[-100.454832,31.848644],[-100.456349,31.849223],[-100.457544,31.849306],[-100.459338,31.848921],[-100.460453,31.848387],[-100.46642,31.84439],[-100.471502,31.853346],[-100.474515,31.856716],[-100.475908,31.861998],[-100.476798,31.869315],[-100.478708,31.878472],[-100.480575,31.885786],[-100.476698,31.88665],[-100.475974,31.88788],[-100.478633,31.889332],[-100.479911,31.887445],[-100.48417,31.889639],[-100.483532,31.890564],[-100.48566,31.891651],[-100.483123,31.89517],[-100.483248,31.895358],[-100.490711,31.899271],[-100.492028,31.900445],[-100.497434,31.900959],[-100.513126,31.903972],[-100.513385,31.902328],[-100.512039,31.900667],[-100.510436,31.897775],[-100.508049,31.896674],[-100.507469,31.896811],[-100.507568,31.897125],[-100.506795,31.897564],[-100.506079,31.897597],[-100.504694,31.896865],[-100.50403,31.896782],[-100.502599,31.897595],[-100.501851,31.897694],[-100.501046,31.896231],[-100.500165,31.895499],[-100.511613,31.894916],[-100.513948,31.895856],[-100.516824,31.896408],[-100.516505,31.889392],[-100.517182,31.888837],[-100.5182,31.88892],[-100.518484,31.888612],[-100.518181,31.888447],[-100.518174,31.888601],[-100.517588,31.888551],[-100.517182,31.888221],[-100.517885,31.88782],[-100.518169,31.88705],[-100.51804,31.886418],[-100.518608,31.884889],[-100.518022,31.884158],[-100.518158,31.88313],[-100.517649,31.882728],[-100.517275,31.882849],[-100.517082,31.882623],[-100.518544,31.88286],[-100.519802,31.881222],[-100.519628,31.880777],[-100.519273,31.880744],[-100.51937,31.880623],[-100.518352,31.88004],[-100.518198,31.879578],[-100.518475,31.879253],[-100.517657,31.879336],[-100.517219,31.879066],[-100.518636,31.879155],[-100.519068,31.878638],[-100.51932,31.877747],[-100.521008,31.877181],[-100.519868,31.876422],[-100.518006,31.875751],[-100.517833,31.87519],[-100.517979,31.873503],[-100.518372,31.873569],[-100.518978,31.873311],[-100.52258,31.870898],[-100.524024,31.870816],[-100.522194,31.871338],[-100.520002,31.873075],[-100.519558,31.873196],[-100.519686,31.873432],[-100.519351,31.873536],[-100.519196,31.874081],[-100.520004,31.87601],[-100.51994,31.875559],[-100.521499,31.876049],[-100.522265,31.877017],[-100.522065,31.877941],[-100.522239,31.878018],[-100.521265,31.879386],[-100.521465,31.87948],[-100.52171,31.87904],[-100.522013,31.879123],[-100.521742,31.879321],[-100.521735,31.879859],[-100.521484,31.879898],[-100.522077,31.880448],[-100.52238,31.880393],[-100.52218,31.880624],[-100.522553,31.880882],[-100.522199,31.881113],[-100.522005,31.8818],[-100.521051,31.882669],[-100.520709,31.884071],[-100.52098,31.884258],[-100.521102,31.885369],[-100.522713,31.88521],[-100.522552,31.884803],[-100.522938,31.885039],[-100.523171,31.883456],[-100.522752,31.882933],[-100.522766,31.881872],[-100.523462,31.881537],[-100.523752,31.881004],[-100.523507,31.881647],[-100.523075,31.88185],[-100.523216,31.882889],[-100.523667,31.882741],[-100.523319,31.883049],[-100.523532,31.883302],[-100.524788,31.883099],[-100.523654,31.883461],[-100.524189,31.884798],[-100.524047,31.885155],[-100.52442,31.88537],[-100.524549,31.885139],[-100.525065,31.885529],[-100.525812,31.885249],[-100.52482,31.885815],[-100.52433,31.885551],[-100.524008,31.885809],[-100.523647,31.885413],[-100.523486,31.885853],[-100.522506,31.886392],[-100.522145,31.887183],[-100.522551,31.887398],[-100.522473,31.888893],[-100.524148,31.888421],[-100.52563,31.888988],[-100.5271,31.889137],[-100.527306,31.889384],[-100.527692,31.88923],[-100.529761,31.889583],[-100.529954,31.889214],[-100.529723,31.888137],[-100.53018,31.889033],[-100.530528,31.889374],[-100.530663,31.889325],[-100.530438,31.889121],[-100.530515,31.888368],[-100.531102,31.887659],[-100.531109,31.88679],[-100.531644,31.886526],[-100.531206,31.885949],[-100.530645,31.885718],[-100.530336,31.885173],[-100.531489,31.885888],[-100.531605,31.886169],[-100.532301,31.885416],[-100.532547,31.884739],[-100.532456,31.88408],[-100.532966,31.883898],[-100.53254,31.884234],[-100.532733,31.884646],[-100.532482,31.88546],[-100.531973,31.886004],[-100.531708,31.886856],[-100.531966,31.886955],[-100.53145,31.88707],[-100.531547,31.887978],[-100.531102,31.888148],[-100.53107,31.88861],[-100.531579,31.889011],[-100.531688,31.889446],[-100.533969,31.890282],[-100.535039,31.890216],[-100.535348,31.889854],[-100.535104,31.88849],[-100.535593,31.889513],[-100.536438,31.888826],[-100.535941,31.889491],[-100.535838,31.890376],[-100.536959,31.891987],[-100.538647,31.89312],[-100.539446,31.892708],[-100.540529,31.89267],[-100.53991,31.892373],[-100.540104,31.891779],[-100.539956,31.891273],[-100.540516,31.89135],[-100.541038,31.891147],[-100.54118,31.890993],[-100.540871,31.890833],[-100.541155,31.890635],[-100.541896,31.890844],[-100.541509,31.890404],[-100.541999,31.890344],[-100.542398,31.889948],[-100.542476,31.889541],[-100.542225,31.889195],[-100.542508,31.888574],[-100.542953,31.888601],[-100.542985,31.88892],[-100.54363,31.8887],[-100.543378,31.888074],[-100.54265,31.887881],[-100.542934,31.887287],[-100.543623,31.887271],[-100.544088,31.886952],[-100.543856,31.886677],[-100.544178,31.886573],[-100.544165,31.886276],[-100.543733,31.885616],[-100.544217,31.885902],[-100.544835,31.885566],[-100.544848,31.885138],[-100.544694,31.884808],[-100.544101,31.884841],[-100.543914,31.884533],[-100.544842,31.88478],[-100.54568,31.882531],[-100.545132,31.884841],[-100.54528,31.885545],[-100.545641,31.885748],[-100.546034,31.886716],[-100.546627,31.885847],[-100.548032,31.884951],[-100.54865,31.884896],[-100.549095,31.883862],[-100.548831,31.88499],[-100.548277,31.885006],[-100.547104,31.886001],[-100.546633,31.887222],[-100.546201,31.887222],[-100.545834,31.887557],[-100.545389,31.887502],[-100.545112,31.886441],[-100.5445,31.887348],[-100.5439,31.887733],[-100.544358,31.887925],[-100.544603,31.888656],[-100.544867,31.888723],[-100.545047,31.888503],[-100.545163,31.888767],[-100.545569,31.888734],[-100.546375,31.889514],[-100.545718,31.88925],[-100.545389,31.889349],[-100.545292,31.889151],[-100.544886,31.889267],[-100.544609,31.889008],[-100.543172,31.890465],[-100.543236,31.890845],[-100.54379,31.890322],[-100.544068,31.890383],[-100.544099,31.891922],[-100.543887,31.892071],[-100.544518,31.893044],[-100.545594,31.893143],[-100.54562,31.893611],[-100.544885,31.893902],[-100.544595,31.894518],[-100.54484,31.894826],[-100.545845,31.895233],[-100.547076,31.894782],[-100.54814,31.894854],[-100.548907,31.895761],[-100.549693,31.896162],[-100.551188,31.895673],[-100.552155,31.89602],[-100.552896,31.89674],[-100.553398,31.898642],[-100.554301,31.898494],[-100.554913,31.897862],[-100.555532,31.897609],[-100.555532,31.897818],[-100.556221,31.897702],[-100.55675,31.897878],[-100.557046,31.898258],[-100.556827,31.898599],[-100.557085,31.898648],[-100.557646,31.898269],[-100.557987,31.897427],[-100.559805,31.896927],[-100.558078,31.897537],[-100.557858,31.898428],[-100.557491,31.898769],[-100.556614,31.89878],[-100.555557,31.899588],[-100.555403,31.900303],[-100.555519,31.90071],[-100.557252,31.902145],[-100.557613,31.90314],[-100.559076,31.904801],[-100.559431,31.905884],[-100.558986,31.907693],[-100.560636,31.909166],[-100.56353,31.910085],[-100.565741,31.910178],[-100.566083,31.910112],[-100.566541,31.909452],[-100.567108,31.909155],[-100.567295,31.907676],[-100.566901,31.907286],[-100.566237,31.907159],[-100.566218,31.906648],[-100.566515,31.90645],[-100.566096,31.905818],[-100.565722,31.90595],[-100.565638,31.905576],[-100.565051,31.905642],[-100.564703,31.904911],[-100.564716,31.904234],[-100.565174,31.903728],[-100.567475,31.903014],[-100.567971,31.90297],[-100.56857,31.903338],[-100.568757,31.902788],[-100.568609,31.902293],[-100.569247,31.901446],[-100.570349,31.901281],[-100.571238,31.900237],[-100.571432,31.898642],[-100.571818,31.898356],[-100.571541,31.899055],[-100.571819,31.900028],[-100.569556,31.9022],[-100.56966,31.903932],[-100.56877,31.904405],[-100.56819,31.904394],[-100.56848,31.904828],[-100.568513,31.905526],[-100.569183,31.905961],[-100.569737,31.905884],[-100.569596,31.906466],[-100.570079,31.907225],[-100.571607,31.907857],[-100.571897,31.908418],[-100.572406,31.908583],[-100.571027,31.908594],[-100.571588,31.909908],[-100.572322,31.909072],[-100.572426,31.909364],[-100.572129,31.910057],[-100.572671,31.910062],[-100.573457,31.909413],[-100.57345,31.9091],[-100.573708,31.909111],[-100.574733,31.908192],[-100.573837,31.909364],[-100.573907,31.909618],[-100.573618,31.909584],[-100.573521,31.909969],[-100.572858,31.910392],[-100.574347,31.910859],[-100.574508,31.911074],[-100.572761,31.910898],[-100.572484,31.91059],[-100.571916,31.910832],[-100.572432,31.911816],[-100.573354,31.911722],[-100.573625,31.912448],[-100.574463,31.912828],[-100.574566,31.91335],[-100.574366,31.913608],[-100.575211,31.913641],[-100.575701,31.913201],[-100.575913,31.913828],[-100.576216,31.913993],[-100.576075,31.914334],[-100.576552,31.914367],[-100.576352,31.913883],[-100.576603,31.913438],[-100.576229,31.913487],[-100.576158,31.913152],[-100.576609,31.913097],[-100.576403,31.912937],[-100.576635,31.912723],[-100.576029,31.912212],[-100.576074,31.911733],[-100.576364,31.911585],[-100.576113,31.911123],[-100.576674,31.911326],[-100.57677,31.910881],[-100.577228,31.910974],[-100.577479,31.911145],[-100.577163,31.911348],[-100.577434,31.911689],[-100.578343,31.911365],[-100.578885,31.911689],[-100.579155,31.911557],[-100.579052,31.911848],[-100.579265,31.911837],[-100.580038,31.911348],[-100.580032,31.910364],[-100.580283,31.910754],[-100.580863,31.91071],[-100.581321,31.910523],[-100.581637,31.909868],[-100.581418,31.910649],[-100.580406,31.911177],[-100.580438,31.91176],[-100.580193,31.911898],[-100.580922,31.91198],[-100.581167,31.912321],[-100.581979,31.912403],[-100.582153,31.912662],[-100.582527,31.912606],[-100.582617,31.91182],[-100.583236,31.91127],[-100.583513,31.910632],[-100.583371,31.911507],[-100.583545,31.911655],[-100.584718,31.910643],[-100.586723,31.910725],[-100.587825,31.910175],[-100.587225,31.909257],[-100.588179,31.910076],[-100.588998,31.909482],[-100.588939,31.908328],[-100.589204,31.90918],[-100.589526,31.90946],[-100.58863,31.910329],[-100.587277,31.910819],[-100.587122,31.911836],[-100.586787,31.912226],[-100.586923,31.912584],[-100.587503,31.912413],[-100.588334,31.911753],[-100.589759,31.911918],[-100.590107,31.911104],[-100.590519,31.91101],[-100.590236,31.911208],[-100.589978,31.912105],[-100.592505,31.912406],[-100.594768,31.913802],[-100.595322,31.913406],[-100.595509,31.911894],[-100.59654,31.911031],[-100.597158,31.911031],[-100.597732,31.911762],[-100.599324,31.910887],[-100.600504,31.911343],[-100.599247,31.911052],[-100.598068,31.91191],[-100.597662,31.911899],[-100.596636,31.911267],[-100.595799,31.911883],[-100.595561,31.913263],[-100.595948,31.913346],[-100.596289,31.91395],[-100.597708,31.914285],[-100.597953,31.914533],[-100.596373,31.91417],[-100.596225,31.914352],[-100.595973,31.913703],[-100.595593,31.913566],[-100.595155,31.914088],[-100.593911,31.913951],[-100.592151,31.912819],[-100.591151,31.912731],[-100.591023,31.913127],[-100.590945,31.912792],[-100.590036,31.912808],[-100.588973,31.912369],[-100.588057,31.912974],[-100.588367,31.913529],[-100.587806,31.913128],[-100.586826,31.913375],[-100.586008,31.912754],[-100.586123,31.911726],[-100.585659,31.911429],[-100.585098,31.911539],[-100.583558,31.912568],[-100.583997,31.913238],[-100.583442,31.913349],[-100.5835,31.913585],[-100.583139,31.913525],[-100.582965,31.913981],[-100.58283,31.913409],[-100.581392,31.913492],[-100.580213,31.91297],[-100.579736,31.91314],[-100.578382,31.913008],[-100.577879,31.91336],[-100.577918,31.913723],[-100.579194,31.913861],[-100.578369,31.914718],[-100.57846,31.915241],[-100.579008,31.915362],[-100.578376,31.915879],[-100.577989,31.91545],[-100.578047,31.91512],[-100.577693,31.914955],[-100.577873,31.915686],[-100.577364,31.915763],[-100.576939,31.916841],[-100.577171,31.917545],[-100.577468,31.917534],[-100.577764,31.918094],[-100.578344,31.918413],[-100.576739,31.919541],[-100.576817,31.919849],[-100.577603,31.919683],[-100.577882,31.919185],[-100.577964,31.919722],[-100.578261,31.919584],[-100.578499,31.919953],[-100.578848,31.919848],[-100.579202,31.919353],[-100.579176,31.919645],[-100.579647,31.919639],[-100.579131,31.919969],[-100.579718,31.920211],[-100.58073,31.920128],[-100.581194,31.919458],[-100.582341,31.919644],[-100.582754,31.919512],[-100.582496,31.919721],[-100.581581,31.919578],[-100.581091,31.920024],[-100.581213,31.920277],[-100.580008,31.920343],[-100.580034,31.920722],[-100.579918,31.920453],[-100.579073,31.920475],[-100.578944,31.920266],[-100.578712,31.920585],[-100.57839,31.920464],[-100.5781,31.920959],[-100.578351,31.921096],[-100.578577,31.921465],[-100.578306,31.92147],[-100.5781,31.92191],[-100.578177,31.921393],[-100.577578,31.920855],[-100.577868,31.920745],[-100.577894,31.920371],[-100.577423,31.920338],[-100.57712,31.920778],[-100.576643,31.920778],[-100.576205,31.921943],[-100.576263,31.922235],[-100.576779,31.922372],[-100.576089,31.922636],[-100.576663,31.923049],[-100.576437,31.923219],[-100.576566,31.923835],[-100.576121,31.923225],[-100.575734,31.923192],[-100.575477,31.924198],[-100.57569,31.924753],[-100.576805,31.925407],[-100.579203,31.925039],[-100.579887,31.925632],[-100.582498,31.92644],[-100.583723,31.927798],[-100.584594,31.929898],[-100.586187,31.932416],[-100.586845,31.932889],[-100.589063,31.933669],[-100.591179,31.935818],[-100.591733,31.936011],[-100.592545,31.935658],[-100.592836,31.935834],[-100.593293,31.935229],[-100.593674,31.935202],[-100.593403,31.935389],[-100.593287,31.936142],[-100.591585,31.936571],[-100.593049,31.937566],[-100.593997,31.938677],[-100.594379,31.941547],[-100.593812,31.943394],[-100.594283,31.944208],[-100.594283,31.944752],[-100.59607,31.945692],[-100.596031,31.946489],[-100.596534,31.9465],[-100.59638,31.947006],[-100.597489,31.947236],[-100.597721,31.947005],[-100.597947,31.947198],[-100.599758,31.94646],[-100.600487,31.945905],[-100.601267,31.945663],[-100.601131,31.944876],[-100.601538,31.945135],[-100.601499,31.945613],[-100.602421,31.94531],[-100.603272,31.945437],[-100.603349,31.945085],[-100.603614,31.945513],[-100.605897,31.945694],[-100.606786,31.945127],[-100.607128,31.944391],[-100.607888,31.94422],[-100.607231,31.944489],[-100.606793,31.945364],[-100.605845,31.945908],[-100.602544,31.945646],[-100.601667,31.945937],[-100.601383,31.946245],[-100.601132,31.946136],[-100.600442,31.946367],[-100.599572,31.947109],[-100.600687,31.947466],[-100.600475,31.947642],[-100.599346,31.947225],[-100.598927,31.947742],[-100.598559,31.947659],[-100.597418,31.947973],[-100.596773,31.947687],[-100.596238,31.947897],[-100.596509,31.948815],[-100.597116,31.94888],[-100.597013,31.949326],[-100.597496,31.94959],[-100.598122,31.949419],[-100.597967,31.949655],[-100.598231,31.949551],[-100.598361,31.949815],[-100.598541,31.949655],[-100.599193,31.950122],[-100.597619,31.94987],[-100.597451,31.950062],[-100.597987,31.950354],[-100.597806,31.950436],[-100.5974,31.950238],[-100.597174,31.949766],[-100.596639,31.949645],[-100.596974,31.949942],[-100.596194,31.950283],[-100.596401,31.95114],[-100.596059,31.951108],[-100.595988,31.951289],[-100.596556,31.951679],[-100.596079,31.951762],[-100.596092,31.952251],[-100.594835,31.953917],[-100.594449,31.956331],[-100.593888,31.957376],[-100.593385,31.957783],[-100.593089,31.95858],[-100.590368,31.960896],[-100.590297,31.961627],[-100.589511,31.962804],[-100.588698,31.96248],[-100.587911,31.961589],[-100.587421,31.96165],[-100.587131,31.962376],[-100.587925,31.963778],[-100.587906,31.964927],[-100.588164,31.965388],[-100.589667,31.966339],[-100.590047,31.966306],[-100.590138,31.965899],[-100.59057,31.965806],[-100.590744,31.96641],[-100.590577,31.966762],[-100.591867,31.967334],[-100.591937,31.966954],[-100.59297,31.967608],[-100.593234,31.96829],[-100.59406,31.969214],[-100.59599,31.970808],[-100.595403,31.971259],[-100.59521,31.972012],[-100.596177,31.971814],[-100.596344,31.971247],[-100.597435,31.97249],[-100.597603,31.973023],[-100.59788,31.973089],[-100.5979,31.973639],[-100.598184,31.97365],[-100.598107,31.974183],[-100.59881,31.974243],[-100.59901,31.974661],[-100.599416,31.974408],[-100.599378,31.975189],[-100.60052,31.97598],[-100.601062,31.975842],[-100.603421,31.972834],[-100.603653,31.972477],[-100.603279,31.972273],[-100.603369,31.971998],[-100.603685,31.972218],[-100.604052,31.971866],[-100.604182,31.972053],[-100.604581,31.971937],[-100.605446,31.971376],[-100.605065,31.970717],[-100.60616,31.968693],[-100.606089,31.96778],[-100.606514,31.967021],[-100.606488,31.966246],[-100.606817,31.966785],[-100.607455,31.966026],[-100.608822,31.965068],[-100.60917,31.964046],[-100.609489,31.959235],[-100.610572,31.957799],[-100.612203,31.957243],[-100.612829,31.957303],[-100.616108,31.95898],[-100.617614,31.959154],[-100.617897,31.958346],[-100.617537,31.956227],[-100.617845,31.955212],[-100.618348,31.955064],[-100.619722,31.955293],[-100.621182,31.955246],[-100.622126,31.954855],[-100.622609,31.954368],[-100.622887,31.953421],[-100.625055,31.952354],[-100.628485,31.949781],[-100.628466,31.949087],[-100.629672,31.946563],[-100.630343,31.945727],[-100.635443,31.944579],[-100.638592,31.944276],[-100.638848,31.943272],[-100.638011,31.941851],[-100.637666,31.938755],[-100.638109,31.938105],[-100.639305,31.937145],[-100.641809,31.935792],[-100.645762,31.935561],[-100.647325,31.937322],[-100.648763,31.938505],[-100.649902,31.938768],[-100.651305,31.938773],[-100.653101,31.938431],[-100.653485,31.937707],[-100.653014,31.937122],[-100.651145,31.936322],[-100.649759,31.936267],[-100.648931,31.93579],[-100.648109,31.934588],[-100.64862,31.934201],[-100.651988,31.933767],[-100.652772,31.933204],[-100.652978,31.930739],[-100.654233,31.928084],[-100.655169,31.927557],[-100.656347,31.928805],[-100.657294,31.929145],[-100.659519,31.928907],[-100.661155,31.92931],[-100.66184,31.929124],[-100.662644,31.928072],[-100.66355,31.927351],[-100.664145,31.927627],[-100.664974,31.929053],[-100.665593,31.92919],[-100.666038,31.928882],[-100.666251,31.928261],[-100.665464,31.926271],[-100.665555,31.925506],[-100.667205,31.924528],[-100.668243,31.924764],[-100.669139,31.925309],[-100.6701,31.926689],[-100.670428,31.928086],[-100.67097,31.928773],[-100.671666,31.928927],[-100.673819,31.928042],[-100.6742,31.927382],[-100.675031,31.927157],[-100.675902,31.92747],[-100.675831,31.928405],[-100.676121,31.928636],[-100.676495,31.928592],[-100.676991,31.927795],[-100.678203,31.927839],[-100.67899,31.92807],[-100.679538,31.928829],[-100.680189,31.929104],[-100.680749,31.928867],[-100.681729,31.927812],[-100.683186,31.927025],[-100.683631,31.927042],[-100.684031,31.927509],[-100.684147,31.928136],[-100.684792,31.928411],[-100.685191,31.928317],[-100.686378,31.926987],[-100.6906,31.927564],[-100.692115,31.927322],[-100.692579,31.927498],[-100.693076,31.929015],[-100.69374,31.929516],[-100.694804,31.929895],[-100.696589,31.928795],[-100.697518,31.928504],[-100.698756,31.928894],[-100.699039,31.929279],[-100.699072,31.930059],[-100.699504,31.930114],[-100.700232,31.929773],[-100.703411,31.930917],[-100.704023,31.930653],[-100.704545,31.929597],[-100.70606,31.928645],[-100.70693,31.92853],[-100.709187,31.928744],[-100.710579,31.929178],[-100.713145,31.928089],[-100.713306,31.928573],[-100.71299,31.929282],[-100.7137,31.930794],[-100.714145,31.930937],[-100.714654,31.930618],[-100.716769,31.930551],[-100.71829,31.931689],[-100.719567,31.932172],[-100.720695,31.932188],[-100.721656,31.933271],[-100.723139,31.933084],[-100.72392,31.933738],[-100.724339,31.935371],[-100.726164,31.934793],[-100.726789,31.934237],[-100.727968,31.934088],[-100.72862,31.934935],[-100.73058,31.935501],[-100.737782,31.936108],[-100.739691,31.937421],[-100.740974,31.937728],[-100.742626,31.938866],[-100.743922,31.938898],[-100.744573,31.938464],[-100.746191,31.938474],[-100.747977,31.939248],[-100.749112,31.939204],[-100.750586,31.938371],[-100.751599,31.938091],[-100.752211,31.938685],[-100.752746,31.938559],[-100.753919,31.938757],[-100.754486,31.939769],[-100.755807,31.940352],[-100.758264,31.939875],[-100.760365,31.942322],[-100.761441,31.942735],[-100.762369,31.943901],[-100.762737,31.943819],[-100.763008,31.943335],[-100.763833,31.943599],[-100.7642,31.944633],[-100.764812,31.945447],[-100.766088,31.946288],[-100.76583,31.946943],[-100.766042,31.948801],[-100.766577,31.949125],[-100.767628,31.949302],[-100.767189,31.951352],[-100.767363,31.951985],[-100.768072,31.952359],[-100.768261,31.952871],[-100.770675,31.951939],[-100.773238,31.951706],[-100.781074,31.951738],[-100.783869,31.946745],[-100.786583,31.945279],[-100.78747,31.94505],[-100.794452,31.944801],[-100.801012,31.94541],[-100.802739,31.945744],[-100.806008,31.945822],[-100.805576,31.944594],[-100.805925,31.943483],[-100.807574,31.942386],[-100.807673,31.941753],[-100.808936,31.940791],[-100.811891,31.939302],[-100.81267,31.938546],[-100.813476,31.938134],[-100.816726,31.937607],[-100.822747,31.937871],[-100.822138,31.998152],[-100.821673,32.006174],[-100.821594,32.08661],[-100.806684,32.086697]]]}},{"type":"Feature","properties":{"PRECINCT":"2","VTD":"0002"},"geometry":{"type":"Polygon","coordinates":[[[-100.235137,32.082372],[-100.235745,31.997076],[-100.236043,31.782974],[-100.23846,31.78421],[-100.24086,31.784721],[-100.24446,31.78642],[-100.252204,31.790952],[-100.252821,31.791903],[-100.252742,31.794259],[-100.253245,31.796294],[-100.256087,31.80041],[-100.2572,31.80147],[-100.258927,31.802532],[-100.263904,31.804307],[-100.263851,31.80647],[-100.263341,31.807753],[-100.263233,31.808898],[-100.259877,31.812951],[-100.259098,31.814349],[-100.258937,31.815563],[-100.259393,31.815953],[-100.260654,31.815495],[-100.261325,31.815747],[-100.261485,31.816824],[-100.262209,31.818406],[-100.262731,31.820397],[-100.265252,31.825472],[-100.266222,31.825592],[-100.266871,31.826309],[-100.272074,31.828621],[-100.265839,31.837613],[-100.265686,31.838588],[-100.266233,31.839267],[-100.26758,31.839507],[-100.268713,31.840001],[-100.269487,31.840903],[-100.270825,31.840917],[-100.272958,31.839702],[-100.275334,31.837674],[-100.276216,31.836433],[-100.278092,31.836872],[-100.27905,31.836706],[-100.280061,31.836894],[-100.280788,31.837834],[-100.280563,31.838439],[-100.281253,31.841067],[-100.281373,31.842564],[-100.282076,31.843675],[-100.283781,31.845038],[-100.286408,31.84645],[-100.28782,31.846933],[-100.289249,31.84696],[-100.292106,31.84779],[-100.292499,31.878242],[-100.290091,31.878316],[-100.289758,31.880229],[-100.291337,31.88102],[-100.292454,31.882435],[-100.291874,31.888952],[-100.290907,31.890367],[-100.289531,31.891661],[-100.289538,31.89486],[-100.294807,31.894926],[-100.295376,31.889644],[-100.300006,31.889924],[-100.300101,31.888586],[-100.306575,31.891059],[-100.309542,31.891643],[-100.351671,31.892112],[-100.370518,31.892652],[-100.381375,31.892552],[-100.384468,31.893237],[-100.386882,31.894353],[-100.395965,31.900786],[-100.398307,31.90215],[-100.404432,31.90446],[-100.410726,31.905638],[-100.410638,31.909837],[-100.414622,31.909937],[-100.414056,31.936749],[-100.396911,31.936691],[-100.396573,31.954902],[-100.396788,31.95504],[-100.397352,31.954788],[-100.397567,31.954902],[-100.398239,31.958293],[-100.398157,31.961089],[-100.396166,31.965762],[-100.396299,31.969312],[-100.395886,31.995201],[-100.394837,31.996094],[-100.394353,31.996873],[-100.392874,31.997743],[-100.392308,31.999698],[-100.391659,32.000528],[-100.390826,32.000694],[-100.389938,32.001221],[-100.389427,32.001908],[-100.388351,32.002159],[-100.387114,32.003028],[-100.386656,32.005802],[-100.387059,32.006214],[-100.389075,32.006901],[-100.389424,32.007269],[-100.389397,32.008117],[-100.388293,32.010613],[-100.388884,32.011941],[-100.387405,32.012971],[-100.38717,32.01412],[-100.3868,32.01444],[-100.385183,32.014401],[-100.383196,32.015686],[-100.380433,32.015999],[-100.379263,32.017338],[-100.378215,32.020288],[-100.378133,32.027436],[-100.375904,32.029479],[-100.374928,32.031216],[-100.368676,32.031198],[-100.369322,32.03318],[-100.369485,32.036123],[-100.370254,32.038397],[-100.370641,32.038553],[-100.376012,32.038634],[-100.37787,32.04086],[-100.377708,32.047539],[-100.376282,32.048955],[-100.376687,32.050587],[-100.377555,32.051581],[-100.377693,32.052163],[-100.377131,32.081968],[-100.339998,32.08152],[-100.290656,32.081345],[-100.250373,32.081592],[-100.235137,32.082372]]]}}]}