{"type":"FeatureCollection","features":[{"type":"Feature","properties":{"PRECINCT":"dallas:3001","COUNTY":"Dallas"},"geometry":{"type":"Polygon","coordinates":[[[-96.89432,32.69525],[-96.89633,32.69422],[-96.89867,32.69405],[-96.89866,32.69271],[-96.90023,32.69282],[-96.90123,32.69484],[-96.90233,32.6948],[-96.90201,32.69371],[-96.90233,32.69192],[-96.90299,32.69122],[-96.90396,32.69126],[-96.90364,32.69259],[-96.90391,32.69481],[-96.90304,32.70512],[-96.89432,32.69525]]]}},{"type":"Feature","properties":{"PRECINCT":"dallas:3002","COUNTY":"Dallas"},"geometry":{"type":"Polygon","coordinates":[[[-96.89132,32.71113],[-96.89132,32.70583],[-96.88285,32.70582],[-96.88281,32.70024],[-96.8913,32.70018],[-96.89108,32.6991],[-96.89147,32.69726],[-96.89147,32.69554],[-96.89357,32.69553],[-96.89432,32.69525],[-96.90304,32.70512],[-96.90249,32.7063],[-96.90102,32.70746],[-96.89514,32.70986],[-96.89132,32.71113]]]}},{"type":"Feature","properties":{"PRECINCT":"dallas:3003","COUNTY":"Dallas"},"geometry":{"type":"Polygon","coordinates":[[[-96.87401,32.69127],[-96.88738,32.69119],[-96.89044,32.69129],[-96.89154,32.69165],[-96.89147,32.69726],[-96.89108,32.6991],[-96.8913,32.70018],[-96.88281,32.70024],[-96.88285,32.70582],[-96.87608,32.70585],[-96.87436,32.70547],[-96.87419,32.70537],[-96.87437,32.69219],[-96.87401,32.69127]]]}},{"type":"Feature","properties":{"PRECINCT":"dallas:3004","COUNTY":"Dallas"},"geometry":{"type":"Polygon","coordinates":[[[-96.85718,32.70569],[-96.85714,32.69123],[-96.87401,32.69127],[-96.87437,32.69219],[-96.87424,32.70438],[-96.87341,32.70435],[-96.87301,32.70388],[-96.873,32.70263],[-96.87254,32.70282],[-96.87018,32.70283],[-96.8702,32.70494],[-96.86093,32.70481],[-96.85861,32.7058],[-96.85718,32.70569]]]}},{"type":"Feature","properties":{"PRECINCT":"dallas:3041","COUNTY":"Dallas"},"geometry":{"type":"Polygon","coordinates":[[[-96.83442,32.70506],[-96.83222,32.70503],[-96.83576,32.70133],[-96.84015,32.69839],[-96.84017,32.70589],[-96.83741,32.70584],[-96.83442,32.70506]]]}},{"type":"Feature","properties":{"PRECINCT":"dallas:3046","COUNTY":"Dallas"},"geometry":{"type":"Polygon","coordinates":[[[-96.84018,32.70578],[-96.84016,32.69322],[-96.83992,32.69321],[-96.83997,32.69121],[-96.84622,32.69136],[-96.85714,32.69123],[-96.85718,32.70581],[-96.84018,32.70578]]]}},{"type":"Feature","properties":{"PRECINCT":"dallas:3047","COUNTY":"Dallas"},"geometry":{"type":"Polygon","coordinates":[[[-96.8245,32.70128],[-96.82353,32.69895],[-96.8231,32.69646],[-96.82313,32.6871],[-96.82708,32.68817],[-96.83411,32.69111],[-96.83997,32.69121],[-96.84015,32.69839],[-96.83576,32.70133],[-96.83212,32.70513],[-96.82927,32.70522],[-96.82755,32.70566],[-96.82611,32.70392],[-96.8245,32.70128]]]}},{"type":"Feature","properties":{"PRECINCT":"dallas:3053","COUNTY":"Dallas"},"geometry":{"type":"Polygon","coordinates":[[[-96.87927,32.67645],[-96.87811,32.6759],[-96.8724,32.67206],[-96.87098,32.6714],[-96.86958,32.67117],[-96.86204,32.67118],[-96.87363,32.65822],[-96.87776,32.65427],[-96.89128,32.66013],[-96.89135,32.673],[-96.89281,32.67294],[-96.89285,32.6765],[-96.89254,32.67649],[-96.89252,32.67667],[-96.88093,32.67672],[-96.87927,32.67645]]]}},{"type":"Feature","properties":{"PRECINCT":"dallas:3054","COUNTY":"Dallas"},"geometry":{"type":"Polygon","coordinates":[[[-96.83996,32.69116],[-96.84009,32.67986],[-96.84427,32.67984],[-96.8443,32.6767],[-96.85012,32.67664],[-96.85219,32.67543],[-96.85585,32.67522],[-96.85718,32.67541],[-96.85716,32.67655],[-96.84874,32.68614],[-96.84622,32.69136],[-96.83996,32.69116]]]}},{"type":"Feature","properties":{"PRECINCT":"dallas:3055","COUNTY":"Dallas"},"geometry":{"type":"Polygon","coordinates":[[[-96.84009,32.67986],[-96.83999,32.6622],[-96.85719,32.66221],[-96.85718,32.67541],[-96.85585,32.67522],[-96.85219,32.67543],[-96.85012,32.67664],[-96.8443,32.6767],[-96.84427,32.67984],[-96.84009,32.67986]]]}},{"type":"Feature","properties":{"PRECINCT":"dallas:3056","COUNTY":"Dallas"},"geometry":{"type":"Polygon","coordinates":[[[-96.8247,32.68216],[-96.825,32.68176],[-96.82551,32.68201],[-96.82599,32.68183],[-96.82643,32.68215],[-96.82693,32.68178],[-96.82784,32.68185],[-96.82877,32.68145],[-96.82909,32.68107],[-96.83025,32.68088],[-96.82989,32.68029],[-96.831,32.67978],[-96.8308,32.67923],[-96.83181,32.67842],[-96.832,32.678],[-96.83313,32.6777],[-96.83343,32.67733],[-96.83441,32.677],[-96.83457,32.67657],[-96.83519,32.67606],[-96.83533,32.67484],[-96.8366,32.67435],[-96.83662,32.67355],[-96.83747,32.67324],[-96.83773,32.67267],[-96.8384,32.67224],[-96.83854,32.67168],[-96.84008,32.67018],[-96.83997,32.69121],[-96.83411,32.69111],[-96.82708,32.68817],[-96.82313,32.6871],[-96.82321,32.68292],[-96.8247,32.68216]]]}},{"type":"Feature","properties":{"PRECINCT":"dallas:3057","COUNTY":"Dallas"},"geometry":{"type":"Polygon","coordinates":[[[-96.82321,32.68292],[-96.82269,32.67837],[-96.82261,32.67484],[-96.82312,32.66233],[-96.83999,32.6622],[-96.84008,32.67018],[-96.83854,32.67168],[-96.8384,32.67224],[-96.83773,32.67267],[-96.83747,32.67324],[-96.83662,32.67355],[-96.8366,32.67435],[-96.83533,32.67484],[-96.83519,32.67606],[-96.83457,32.67657],[-96.83441,32.677],[-96.83343,32.67733],[-96.83313,32.6777],[-96.83194,32.67805],[-96.83181,32.67842],[-96.83076,32.67928],[-96.83094,32.67985],[-96.82989,32.68029],[-96.83028,32.68075],[-96.83003,32.68098],[-96.82923,32.68102],[-96.82784,32.68185],[-96.82693,32.68178],[-96.8265,32.68214],[-96.82599,32.68183],[-96.82551,32.68201],[-96.82489,32.68179],[-96.82463,32.68221],[-96.82321,32.68292]]]}},{"type":"Feature","properties":{"PRECINCT":"dallas:3063","COUNTY":"Dallas"},"geometry":{"type":"Polygon","coordinates":[[[-96.85716,32.67655],[-96.85713,32.64596],[-96.86034,32.64674],[-96.87776,32.65427],[-96.87363,32.65822],[-96.85716,32.67655]]]}},{"type":"Feature","properties":{"PRECINCT":"dallas:3064","COUNTY":"Dallas"},"geometry":{"type":"Polygon","coordinates":[[[-96.83999,32.6622],[-96.84012,32.64297],[-96.85713,32.64596],[-96.85719,32.66221],[-96.83999,32.6622]]]}},{"type":"Feature","properties":{"PRECINCT":"dallas:3065","COUNTY":"Dallas"},"geometry":{"type":"Polygon","coordinates":[[[-96.83086,32.66227],[-96.83084,32.65424],[-96.83157,32.65226],[-96.8311,32.64932],[-96.83173,32.64769],[-96.83363,32.64784],[-96.84009,32.64772],[-96.83999,32.6622],[-96.83086,32.66227]]]}},{"type":"Feature","properties":{"PRECINCT":"dallas:3066","COUNTY":"Dallas"},"geometry":{"type":"Polygon","coordinates":[[[-96.82312,32.66233],[-96.82332,32.64229],[-96.83503,32.64229],[-96.84012,32.64297],[-96.84009,32.64772],[-96.83363,32.64784],[-96.83173,32.64769],[-96.8311,32.64932],[-96.83157,32.65226],[-96.83084,32.65424],[-96.83086,32.66227],[-96.82312,32.66233]]]}},{"type":"Feature","properties":{"PRECINCT":"dallas:3067","COUNTY":"Dallas"},"geometry":{"type":"Polygon","coordinates":[[[-96.86119,32.64711],[-96.85806,32.64608],[-96.84012,32.64297],[-96.84006,32.63315],[-96.86568,32.63308],[-96.86557,32.63597],[-96.87441,32.63603],[-96.87424,32.64289],[-96.87846,32.6429],[-96.87844,32.6465],[-96.87991,32.64652],[-96.87991,32.64748],[-96.89127,32.64738],[-96.89128,32.66013],[-96.86119,32.64711]]]}},{"type":"Feature","properties":{"PRECINCT":"dallas:3074","COUNTY":"Dallas"},"geometry":{"type":"Polygon","coordinates":[[[-96.83565,32.64233],[-96.82332,32.64229],[-96.8233,32.63323],[-96.83159,32.6332],[-96.8315,32.63268],[-96.84008,32.63261],[-96.84012,32.64297],[-96.83565,32.64233]]]}},{"type":"Feature","properties":{"PRECINCT":"dallas:3077","COUNTY":"Dallas"},"geometry":{"type":"Polygon","coordinates":[[[-96.94324,32.65923],[-96.94294,32.64212],[-96.94373,32.64212],[-96.94372,32.64009],[-96.94558,32.63976],[-96.94809,32.63999],[-96.9536,32.6348],[-96.95382,32.63424],[-96.95374,32.63269],[-96.95763,32.63267],[-96.95684,32.6315],[-96.97172,32.62427],[-96.97584,32.62207],[-96.97564,32.62474],[-96.97441,32.63023],[-96.97237,32.63556],[-96.97202,32.63717],[-96.97255,32.63738],[-96.97262,32.64037],[-96.97303,32.64161],[-96.97749,32.65124],[-96.97724,32.65131],[-96.97593,32.64866],[-96.97515,32.64893],[-96.97413,32.64684],[-96.97311,32.64704],[-96.97198,32.64698],[-96.97066,32.64648],[-96.97182,32.64513],[-96.97183,32.64381],[-96.97019,32.64371],[-96.97025,32.64514],[-96.96926,32.64532],[-96.96866,32.64615],[-96.96721,32.64613],[-96.96663,32.64751],[-96.96715,32.64783],[-96.96861,32.64778],[-96.96974,32.64848],[-96.96971,32.64882],[-96.96912,32.64894],[-96.96763,32.65034],[-96.9646,32.64931],[-96.96128,32.64604],[-96.95934,32.64514],[-96.95938,32.64609],[-96.9591,32.64654],[-96.95981,32.64785],[-96.95991,32.64872],[-96.95758,32.64763],[-96.95547,32.64758],[-96.95529,32.64842],[-96.95398,32.64836],[-96.9529,32.64885],[-96.95201,32.64878],[-96.9517,32.64932],[-96.95074,32.649],[-96.94951,32.65024],[-96.94975,32.65068],[-96.94458,32.65228],[-96.9444,32.65303],[-96.94534,32.65385],[-96.94566,32.6547],[-96.94538,32.65602],[-96.94469,32.65617],[-96.94482,32.65691],[-96.94599,32.65793],[-96.94537,32.65949],[-96.94324,32.65923]]]}},{"type":"Feature","properties":{"PRECINCT":"dallas:3078","COUNTY":"Dallas"},"geometry":{"type":"Polygon","coordinates":[[[-96.94294,32.64212],[-96.94287,32.63427],[-96.94331,32.63189],[-96.94324,32.62611],[-96.94281,32.62463],[-96.94457,32.6222],[-96.94573,32.62115],[-96.94657,32.62081],[-96.9467,32.621],[-96.94787,32.62079],[-96.94873,32.62103],[-96.94924,32.62081],[-96.95326,32.62667],[-96.95325,32.63273],[-96.95374,32.63269],[-96.95379,32.63441],[-96.95349,32.63492],[-96.94809,32.63999],[-96.94558,32.63976],[-96.94372,32.64009],[-96.94373,32.64212],[-96.94294,32.64212]]]}},{"type":"Feature","properties":{"PRECINCT":"dallas:3088","COUNTY":"Dallas"},"geometry":{"type":"Polygon","coordinates":[[[-96.87322,32.70496],[-96.8702,32.70494],[-96.87018,32.70283],[-96.87254,32.70282],[-96.873,32.70263],[-96.87301,32.70388],[-96.87341,32.70435],[-96.87424,32.70438],[-96.87419,32.70537],[-96.87322,32.70496]]]}},{"type":"Feature","properties":{"PRECINCT":"dallas:3092","COUNTY":"Dallas"},"geometry":{"type":"Polygon","coordinates":[[[-96.84622,32.69136],[-96.84829,32.68685],[-96.84961,32.68502],[-96.86204,32.67118],[-96.86958,32.67117],[-96.87098,32.6714],[-96.8724,32.67206],[-96.87811,32.6759],[-96.87982,32.6766],[-96.89147,32.67663],[-96.89154,32.68955],[-96.89136,32.69156],[-96.89044,32.69129],[-96.88738,32.69119],[-96.85222,32.69119],[-96.84622,32.69136]]]}},{"type":"Feature","properties":{"PRECINCT":"dallas:3119","COUNTY":"Dallas"},"geometry":{"type":"Polygon","coordinates":[[[-96.91072,32.62301],[-96.91514,32.61887],[-96.91559,32.61889],[-96.91104,32.6233],[-96.91072,32.62301]]]}},{"type":"Feature","properties":{"PRECINCT":"dallas:31A4","COUNTY":"Dallas"},"geometry":{"type":"Polygon","coordinates":[[[-96.94277,32.62382],[-96.94546,32.62012],[-96.94904,32.62051],[-96.94924,32.62081],[-96.94873,32.62103],[-96.94787,32.62079],[-96.9467,32.621],[-96.94657,32.62081],[-96.94573,32.62115],[-96.94457,32.6222],[-96.94281,32.62463],[-96.94277,32.62382]]]}},{"type":"Feature","properties":{"PRECINCT":"dallas:31A5","COUNTY":"Dallas"},"geometry":{"type":"Polygon","coordinates":[[[-96.92873,32.62467],[-96.93002,32.62468],[-96.93066,32.62522],[-96.9303,32.62566],[-96.92873,32.62467]]]}},{"type":"Feature","properties":{"PRECINCT":"dallas:3200","COUNTY":"Dallas"},"geometry":{"type":"Polygon","coordinates":[[[-96.9254,32.63276],[-96.93334,32.62236],[-96.93614,32.62487],[-96.93659,32.62452],[-96.93856,32.62398],[-96.93945,32.62467],[-96.94039,32.62498],[-96.94065,32.62592],[-96.94114,32.6263],[-96.94204,32.62676],[-96.94324,32.62667],[-96.9433,32.63208],[-96.94287,32.63427],[-96.94294,32.64212],[-96.92545,32.6421],[-96.92538,32.64122],[-96.92447,32.6397],[-96.92427,32.6373],[-96.92339,32.63644],[-96.9254,32.63276]]]}},{"type":"Feature","properties":{"PRECINCT":"dallas:3201","COUNTY":"Dallas"},"geometry":{"type":"Polygon","coordinates":[[[-96.90625,32.63293],[-96.90026,32.63291],[-96.91072,32.62301],[-96.91104,32.6233],[-96.91662,32.62311],[-96.92545,32.62325],[-96.92548,32.62485],[-96.92636,32.62403],[-96.927,32.62465],[-96.92873,32.62467],[-96.9303,32.62566],[-96.93066,32.62522],[-96.93088,32.6254],[-96.93163,32.6247],[-96.9254,32.63276],[-96.91656,32.63271],[-96.9107,32.63389],[-96.90778,32.63383],[-96.90625,32.63293]]]}},{"type":"Feature","properties":{"PRECINCT":"dallas:3202","COUNTY":"Dallas"},"geometry":{"type":"Polygon","coordinates":[[[-96.8836,32.63304],[-96.88316,32.62515],[-96.88258,32.62514],[-96.88415,32.62405],[-96.88298,32.62248],[-96.88298,32.61898],[-96.8834,32.61941],[-96.88399,32.61956],[-96.8866,32.61924],[-96.88894,32.61928],[-96.89027,32.61883],[-96.89131,32.61876],[-96.89507,32.61892],[-96.9056,32.61872],[-96.91514,32.61887],[-96.90026,32.63291],[-96.89326,32.63297],[-96.89275,32.63283],[-96.89103,32.63141],[-96.89127,32.63218],[-96.89184,32.63271],[-96.89134,32.63306],[-96.8836,32.63304]]]}},{"type":"Feature","properties":{"PRECINCT":"dallas:3203","COUNTY":"Dallas"},"geometry":{"type":"Polygon","coordinates":[[[-96.90928,32.65174],[-96.90844,32.65172],[-96.90836,32.63388],[-96.91104,32.63386],[-96.91656,32.63271],[-96.9254,32.63276],[-96.92339,32.63644],[-96.92427,32.6373],[-96.92447,32.6397],[-96.92541,32.64133],[-96.92554,32.64747],[-96.92064,32.64747],[-96.91755,32.64609],[-96.91524,32.64601],[-96.90928,32.65174]]]}},{"type":"Feature","properties":{"PRECINCT":"dallas:3204","COUNTY":"Dallas"},"geometry":{"type":"Polygon","coordinates":[[[-96.89793,32.65333],[-96.89126,32.65321],[-96.8915,32.6412],[-96.90026,32.63291],[-96.90597,32.63289],[-96.90746,32.63372],[-96.90836,32.63388],[-96.90844,32.64981],[-96.90721,32.64981],[-96.90724,32.65096],[-96.90079,32.65092],[-96.90234,32.65172],[-96.90236,32.65258],[-96.89987,32.65256],[-96.89793,32.65333]]]}},{"type":"Feature","properties":{"PRECINCT":"dallas:3205","COUNTY":"Dallas"},"geometry":{"type":"Polygon","coordinates":[[[-96.88398,32.64751],[-96.8858,32.64581],[-96.88412,32.64408],[-96.88365,32.64388],[-96.8838,32.63669],[-96.8836,32.63304],[-96.89134,32.63306],[-96.89184,32.63271],[-96.89127,32.63218],[-96.89103,32.63141],[-96.89275,32.63283],[-96.89326,32.63297],[-96.90026,32.63291],[-96.8915,32.6412],[-96.89139,32.6475],[-96.88398,32.64751]]]}},{"type":"Feature","properties":{"PRECINCT":"dallas:3206","COUNTY":"Dallas"},"geometry":{"type":"Polygon","coordinates":[[[-96.93953,32.66235],[-96.93909,32.66081],[-96.93701,32.66076],[-96.93635,32.66031],[-96.93557,32.65784],[-96.93538,32.65606],[-96.92578,32.65491],[-96.92545,32.6421],[-96.94294,32.64212],[-96.94323,32.66223],[-96.93953,32.66235]]]}},{"type":"Feature","properties":{"PRECINCT":"dallas:3207","COUNTY":"Dallas"},"geometry":{"type":"Polygon","coordinates":[[[-96.90699,32.66184],[-96.90907,32.65214],[-96.91524,32.64601],[-96.91755,32.64609],[-96.92064,32.64747],[-96.92554,32.64747],[-96.92582,32.66178],[-96.92421,32.66177],[-96.92393,32.66194],[-96.92249,32.66166],[-96.90699,32.66184]]]}},{"type":"Feature","properties":{"PRECINCT":"dallas:3208","COUNTY":"Dallas"},"geometry":{"type":"Polygon","coordinates":[[[-96.89127,32.66191],[-96.89126,32.65321],[-96.89793,32.65333],[-96.89987,32.65256],[-96.90236,32.65258],[-96.90234,32.65172],[-96.90079,32.65092],[-96.90724,32.65096],[-96.90721,32.64981],[-96.90844,32.64981],[-96.90844,32.65172],[-96.90928,32.65174],[-96.90884,32.65289],[-96.90699,32.66184],[-96.89127,32.66191]]]}},{"type":"Feature","properties":{"PRECINCT":"dallas:3209","COUNTY":"Dallas"},"geometry":{"type":"Polygon","coordinates":[[[-96.92582,32.66234],[-96.92578,32.65491],[-96.93538,32.65606],[-96.93557,32.65784],[-96.93635,32.66031],[-96.93701,32.66076],[-96.93909,32.66081],[-96.93955,32.66167],[-96.93953,32.66235],[-96.92582,32.66234]]]}},{"type":"Feature","properties":{"PRECINCT":"dallas:3210","COUNTY":"Dallas"},"geometry":{"type":"Polygon","coordinates":[[[-96.90564,32.67638],[-96.90495,32.67081],[-96.90699,32.66184],[-96.92249,32.66166],[-96.92393,32.66194],[-96.92421,32.66177],[-96.92582,32.66178],[-96.92576,32.67648],[-96.90862,32.67645],[-96.90863,32.67561],[-96.90567,32.67558],[-96.90564,32.67638]]]}},{"type":"Feature","properties":{"PRECINCT":"dallas:3211","COUNTY":"Dallas"},"geometry":{"type":"Polygon","coordinates":[[[-96.89285,32.6765],[-96.89281,32.67294],[-96.89135,32.673],[-96.89127,32.66191],[-96.90699,32.66184],[-96.90495,32.67081],[-96.90564,32.67638],[-96.89285,32.6765]]]}},{"type":"Feature","properties":{"PRECINCT":"dallas:3600","COUNTY":"Dallas"},"geometry":{"type":"Polygon","coordinates":[[[-96.87991,32.64748],[-96.87991,32.64652],[-96.87844,32.6465],[-96.87846,32.6429],[-96.87424,32.64289],[-96.87441,32.63603],[-96.86557,32.63597],[-96.86568,32.63308],[-96.84006,32.63315],[-96.84008,32.63261],[-96.8315,32.63268],[-96.83159,32.6332],[-96.82362,32.63323],[-96.82349,32.62181],[-96.8312,32.6218],[-96.8314,32.62146],[-96.83138,32.61882],[-96.85963,32.61855],[-96.87816,32.61863],[-96.88307,32.61892],[-96.88424,32.61953],[-96.8834,32.61941],[-96.88298,32.61898],[-96.88298,32.62248],[-96.88415,32.62405],[-96.88258,32.62514],[-96.88316,32.62515],[-96.8832,32.62573],[-96.8838,32.63669],[-96.88365,32.64388],[-96.88412,32.64408],[-96.8858,32.64581],[-96.88398,32.64751],[-96.87991,32.64748]]]}},{"type":"Feature","properties":{"PRECINCT":"dallas:3601","COUNTY":"Dallas"},"geometry":{"type":"Polygon","coordinates":[[[-96.8913,32.61867],[-96.89127,32.6043],[-96.89467,32.60436],[-96.89488,32.60397],[-96.89479,32.6033],[-96.89565,32.60286],[-96.89767,32.60287],[-96.89884,32.60315],[-96.89913,32.60292],[-96.90078,32.60261],[-96.90135,32.60201],[-96.90272,32.60198],[-96.90365,32.60163],[-96.90502,32.60247],[-96.90559,32.60254],[-96.90647,32.60172],[-96.9069,32.60055],[-96.90773,32.60031],[-96.90833,32.60039],[-96.9084,32.61879],[-96.89507,32.61892],[-96.8913,32.61867]]]}},{"type":"Feature","properties":{"PRECINCT":"dallas:3602","COUNTY":"Dallas"},"geometry":{"type":"Polygon","coordinates":[[[-96.87666,32.61632],[-96.87553,32.6168],[-96.87415,32.61645],[-96.87482,32.61513],[-96.87484,32.60836],[-96.87419,32.60549],[-96.87415,32.60421],[-96.89127,32.6043],[-96.89129,32.61003],[-96.88881,32.61177],[-96.88876,32.61223],[-96.88814,32.61255],[-96.88725,32.61363],[-96.88577,32.61388],[-96.8846,32.61444],[-96.88285,32.61398],[-96.88271,32.61342],[-96.88195,32.61346],[-96.88135,32.61406],[-96.88035,32.61409],[-96.88013,32.61462],[-96.87966,32.61472],[-96.87911,32.61538],[-96.8786,32.61532],[-96.87819,32.61592],[-96.8786,32.61635],[-96.87834,32.61697],[-96.87742,32.61689],[-96.87666,32.61632]]]}},{"type":"Feature","properties":{"PRECINCT":"dallas:3603","COUNTY":"Dallas"},"geometry":{"type":"Polygon","coordinates":[[[-96.88452,32.61953],[-96.88296,32.61889],[-96.88144,32.61879],[-96.87419,32.61861],[-96.87404,32.61665],[-96.87415,32.61645],[-96.87502,32.61678],[-96.87568,32.61678],[-96.87661,32.61631],[-96.87742,32.61689],[-96.87834,32.61697],[-96.8786,32.61635],[-96.87819,32.61592],[-96.8786,32.61532],[-96.87911,32.61538],[-96.87966,32.61472],[-96.88013,32.61462],[-96.88035,32.61409],[-96.88135,32.61406],[-96.88195,32.61346],[-96.88271,32.61342],[-96.88285,32.61398],[-96.8846,32.61444],[-96.88577,32.61388],[-96.88711,32.61371],[-96.88814,32.61255],[-96.88876,32.61223],[-96.88888,32.61171],[-96.89129,32.61003],[-96.89131,32.61876],[-96.89027,32.61883],[-96.88894,32.61928],[-96.8866,32.61924],[-96.88452,32.61953]]]}},{"type":"Feature","properties":{"PRECINCT":"dallas:3606","COUNTY":"Dallas"},"geometry":{"type":"Polygon","coordinates":[[[-96.8231,32.63323],[-96.82265,32.6043],[-96.83458,32.60437],[-96.83463,32.60538],[-96.83528,32.60626],[-96.83372,32.6074],[-96.8312,32.60762],[-96.8312,32.61013],[-96.83517,32.61011],[-96.83513,32.61094],[-96.83995,32.6109],[-96.83978,32.61219],[-96.83987,32.61864],[-96.84005,32.6188],[-96.83138,32.61882],[-96.8314,32.62146],[-96.8312,32.6218],[-96.82349,32.62181],[-96.82362,32.63323],[-96.8231,32.63323]]]}},{"type":"Feature","properties":{"PRECINCT":"dallas:3607","COUNTY":"Dallas"},"geometry":{"type":"Polygon","coordinates":[[[-96.89127,32.6043],[-96.89145,32.59667],[-96.89141,32.59498],[-96.89118,32.59491],[-96.89114,32.57534],[-96.90825,32.57536],[-96.90833,32.60039],[-96.90773,32.60031],[-96.9069,32.60055],[-96.90647,32.60172],[-96.90559,32.60254],[-96.90502,32.60247],[-96.90365,32.60163],[-96.90272,32.60198],[-96.90135,32.60201],[-96.90078,32.60261],[-96.89913,32.60292],[-96.89884,32.60315],[-96.89767,32.60287],[-96.89565,32.60286],[-96.89479,32.6033],[-96.89488,32.60397],[-96.89467,32.60436],[-96.89127,32.6043]]]}},{"type":"Feature","properties":{"PRECINCT":"dallas:3608","COUNTY":"Dallas"},"geometry":{"type":"Polygon","coordinates":[[[-96.87406,32.57531],[-96.89114,32.57534],[-96.89119,32.58978],[-96.87412,32.58978],[-96.87406,32.57531]]]}},{"type":"Feature","properties":{"PRECINCT":"dallas:3616","COUNTY":"Dallas"},"geometry":{"type":"Polygon","coordinates":[[[-96.85693,32.57524],[-96.85688,32.56596],[-96.86075,32.56591],[-96.86137,32.56569],[-96.86261,32.56616],[-96.86353,32.56799],[-96.86826,32.56959],[-96.87017,32.56957],[-96.87067,32.56898],[-96.87101,32.5689],[-96.87103,32.56915],[-96.87159,32.56916],[-96.8719,32.56878],[-96.87405,32.56878],[-96.87406,32.57531],[-96.85693,32.57524]]]}},{"type":"Feature","properties":{"PRECINCT":"dallas:3618","COUNTY":"Dallas"},"geometry":{"type":"Polygon","coordinates":[[[-96.87703,32.56896],[-96.87999,32.56716],[-96.88285,32.56618],[-96.88294,32.56807],[-96.89969,32.56817],[-96.89969,32.57537],[-96.87406,32.57531],[-96.87404,32.56903],[-96.87703,32.56896]]]}},{"type":"Feature","properties":{"PRECINCT":"dallas:3620","COUNTY":"Dallas"},"geometry":{"type":"Polygon","coordinates":[[[-96.87412,32.58978],[-96.89119,32.58978],[-96.89118,32.59491],[-96.89141,32.59498],[-96.89145,32.59667],[-96.89127,32.6043],[-96.87415,32.60421],[-96.87412,32.58978]]]}},{"type":"Feature","properties":{"PRECINCT":"dallas:3621","COUNTY":"Dallas"},"geometry":{"type":"Polygon","coordinates":[[[-96.83513,32.61094],[-96.83517,32.61011],[-96.8312,32.61013],[-96.8312,32.60762],[-96.83372,32.6074],[-96.83528,32.60626],[-96.83463,32.60538],[-96.83458,32.60437],[-96.8406,32.60426],[-96.84058,32.60903],[-96.83995,32.6109],[-96.83513,32.61094]]]}},{"type":"Feature","properties":{"PRECINCT":"dallas:3952","COUNTY":"Dallas"},"geometry":{"type":"Polygon","coordinates":[[[-96.86808,32.56955],[-96.86353,32.56799],[-96.86261,32.56616],[-96.86137,32.56569],[-96.86114,32.56583],[-96.86121,32.56508],[-96.87403,32.56529],[-96.87403,32.56588],[-96.88284,32.5659],[-96.88285,32.56618],[-96.87999,32.56716],[-96.87703,32.56896],[-96.87404,32.56903],[-96.87405,32.56878],[-96.8719,32.56878],[-96.87159,32.56916],[-96.87103,32.56915],[-96.87101,32.5689],[-96.87067,32.56898],[-96.87017,32.56957],[-96.86808,32.56955]]]}},{"type":"Feature","properties":{"PRECINCT":"dallas:4049","COUNTY":"Dallas"},"geometry":{"type":"Polygon","coordinates":[[[-96.97379,32.64334],[-96.97262,32.64037],[-96.97378,32.64039],[-96.97496,32.64138],[-96.9755,32.64156],[-96.98488,32.64302],[-96.98483,32.64245],[-96.99001,32.6433],[-96.9896,32.64405],[-96.98952,32.64599],[-96.98812,32.64673],[-96.98811,32.64709],[-96.98868,32.64742],[-96.98903,32.65007],[-96.99025,32.65181],[-96.9901,32.65216],[-96.99319,32.65846],[-96.98735,32.66096],[-96.98738,32.6619],[-96.98782,32.66272],[-96.98656,32.66461],[-96.98641,32.66564],[-96.98663,32.66646],[-96.98608,32.66681],[-96.98695,32.66879],[-96.98629,32.66998],[-96.98524,32.67029],[-96.98511,32.66765],[-96.98452,32.66557],[-96.98144,32.65978],[-96.97379,32.64334]]]}},{"type":"Feature","properties":{"PRECINCT":"dallas:4050","COUNTY":"Dallas"},"geometry":{"type":"Polygon","coordinates":[[[-96.94682,32.66828],[-96.94618,32.66744],[-96.94389,32.66576],[-96.94323,32.66432],[-96.94324,32.65923],[-96.94537,32.65949],[-96.94599,32.65793],[-96.94544,32.65763],[-96.94472,32.65669],[-96.94469,32.65617],[-96.94538,32.65602],[-96.94568,32.65488],[-96.94534,32.65385],[-96.9444,32.65303],[-96.94458,32.65228],[-96.94975,32.65068],[-96.94951,32.65024],[-96.95074,32.649],[-96.9517,32.64932],[-96.95201,32.64878],[-96.9529,32.64885],[-96.95398,32.64836],[-96.95529,32.64842],[-96.95547,32.64758],[-96.95758,32.64763],[-96.95991,32.64872],[-96.95981,32.64785],[-96.9591,32.64654],[-96.95938,32.64609],[-96.95934,32.64514],[-96.96128,32.64604],[-96.9646,32.64931],[-96.96763,32.65034],[-96.96912,32.64894],[-96.96971,32.64882],[-96.96974,32.64848],[-96.96861,32.64778],[-96.96715,32.64783],[-96.96663,32.64751],[-96.96721,32.64613],[-96.96866,32.64615],[-96.96926,32.64532],[-96.97025,32.64514],[-96.97019,32.64371],[-96.97183,32.64381],[-96.97182,32.64513],[-96.97066,32.64648],[-96.97198,32.64698],[-96.97311,32.64704],[-96.97413,32.64684],[-96.97515,32.64893],[-96.97593,32.64866],[-96.97724,32.65131],[-96.97749,32.65124],[-96.98267,32.66212],[-96.98132,32.66359],[-96.98013,32.66663],[-96.97769,32.66863],[-96.97572,32.67093],[-96.96613,32.67021],[-96.96053,32.66869],[-96.9586,32.66852],[-96.95313,32.66936],[-96.95012,32.66957],[-96.94887,32.66988],[-96.9476,32.67054],[-96.94718,32.67051],[-96.94721,32.66939],[-96.94682,32.66828]]]}},{"type":"Feature","properties":{"PRECINCT":"dallas:4052","COUNTY":"Dallas"},"geometry":{"type":"Polygon","coordinates":[[[-96.95022,32.70586],[-96.93447,32.70554],[-96.92856,32.7062],[-96.92489,32.70613],[-96.92235,32.70578],[-96.90876,32.70574],[-96.90862,32.67645],[-96.92576,32.67648],[-96.92562,32.67093],[-96.92582,32.66234],[-96.93953,32.66235],[-96.94315,32.66217],[-96.94323,32.66432],[-96.94349,32.66515],[-96.94406,32.66593],[-96.946,32.66729],[-96.94669,32.66805],[-96.94717,32.66919],[-96.94718,32.67051],[-96.9476,32.67054],[-96.94887,32.66988],[-96.95012,32.66957],[-96.95313,32.66936],[-96.9586,32.66852],[-96.96053,32.66869],[-96.96613,32.67021],[-96.97572,32.67093],[-96.97439,32.67268],[-96.97454,32.67427],[-96.97436,32.67507],[-96.97341,32.67589],[-96.9728,32.67688],[-96.97225,32.67895],[-96.97224,32.68001],[-96.97146,32.68143],[-96.97197,32.68291],[-96.97122,32.68388],[-96.97091,32.68504],[-96.97078,32.6873],[-96.97159,32.68899],[-96.97152,32.6897],[-96.97313,32.69109],[-96.97357,32.69241],[-96.97359,32.6938],[-96.97308,32.69617],[-96.97318,32.69733],[-96.97145,32.69848],[-96.97165,32.69771],[-96.97082,32.69765],[-96.97058,32.69737],[-96.97106,32.69644],[-96.9708,32.6964],[-96.97094,32.69622],[-96.97054,32.69529],[-96.97012,32.6952],[-96.96987,32.69452],[-96.96903,32.6945],[-96.96754,32.69556],[-96.96691,32.69638],[-96.96596,32.69701],[-96.96516,32.69717],[-96.96387,32.69825],[-96.96343,32.69779],[-96.96314,32.69783],[-96.96307,32.69864],[-96.96176,32.69977],[-96.96131,32.6999],[-96.9609,32.7005],[-96.95983,32.70105],[-96.95957,32.702],[-96.95743,32.7043],[-96.95699,32.70597],[-96.95673,32.70584],[-96.95609,32.70601],[-96.95539,32.70668],[-96.95498,32.70802],[-96.95311,32.70755],[-96.95097,32.70611],[-96.95022,32.70586]]]}},{"type":"Feature","properties":{"PRECINCT":"dallas:4093","COUNTY":"Dallas"},"geometry":{"type":"Polygon","coordinates":[[[-96.89147,32.69554],[-96.89154,32.69146],[-96.8919,32.6917],[-96.89371,32.69382],[-96.89465,32.69506],[-96.89432,32.69525],[-96.89357,32.69553],[-96.89147,32.69554]]]}},{"type":"Feature","properties":{"PRECINCT":"dallas:4145","COUNTY":"Dallas"},"geometry":{"type":"Polygon","coordinates":[[[-96.98099,32.6642],[-96.98267,32.66212],[-96.98479,32.66628],[-96.98528,32.66929],[-96.98504,32.67046],[-96.98247,32.67124],[-96.9825,32.67185],[-96.97572,32.67093],[-96.97769,32.66863],[-96.98025,32.66649],[-96.98099,32.6642]]]}},{"type":"Feature","properties":{"PRECINCT":"dallas:4161","COUNTY":"Dallas"},"geometry":{"type":"Polygon","coordinates":[[[-96.90393,32.70585],[-96.90304,32.70512],[-96.90391,32.69481],[-96.90364,32.69259],[-96.90396,32.69126],[-96.90299,32.69122],[-96.90233,32.69192],[-96.90201,32.69371],[-96.90233,32.6948],[-96.90123,32.69484],[-96.90023,32.69282],[-96.89866,32.69271],[-96.89867,32.69405],[-96.89633,32.69422],[-96.89465,32.69506],[-96.8919,32.6917],[-96.89154,32.69146],[-96.89154,32.69165],[-96.89136,32.69156],[-96.89154,32.68955],[-96.89147,32.67663],[-96.90579,32.67638],[-96.90567,32.67558],[-96.90863,32.67561],[-96.90871,32.71115],[-96.90393,32.70585]]]}},{"type":"Feature","properties":{"PRECINCT":"dallas:4166","COUNTY":"Dallas"},"geometry":{"type":"Polygon","coordinates":[[[-96.90871,32.71115],[-96.90876,32.70574],[-96.92235,32.70578],[-96.92489,32.70613],[-96.92856,32.7062],[-96.92994,32.70617],[-96.93278,32.70564],[-96.93161,32.70704],[-96.9204,32.71663],[-96.91927,32.71804],[-96.91811,32.72052],[-96.91599,32.72052],[-96.91158,32.71445],[-96.90871,32.71115]]]}},{"type":"Feature","properties":{"PRECINCT":"dallas:4500","COUNTY":"Dallas"},"geometry":{"type":"Polygon","coordinates":[[[-97.0154,32.67368],[-97.01535,32.65897],[-97.01507,32.65576],[-97.02102,32.6559],[-97.02126,32.65669],[-97.02782,32.65536],[-97.02769,32.66418],[-97.02793,32.66443],[-97.03018,32.66417],[-97.03061,32.66462],[-97.03031,32.66608],[-97.03096,32.66834],[-97.03078,32.67591],[-97.01631,32.67586],[-97.0154,32.67368]]]}},{"type":"Feature","properties":{"PRECINCT":"dallas:4501","COUNTY":"Dallas"},"geometry":{"type":"Polygon","coordinates":[[[-97.03018,32.66417],[-97.02793,32.66443],[-97.02769,32.66418],[-97.02789,32.66172],[-97.02795,32.64574],[-97.03706,32.64587],[-97.03657,32.67621],[-97.03077,32.67619],[-97.03096,32.66834],[-97.03031,32.66608],[-97.03061,32.66462],[-97.03018,32.66417]]]}},{"type":"Feature","properties":{"PRECINCT":"dallas:4502","COUNTY":"Dallas"},"geometry":{"type":"Polygon","coordinates":[[[-97.00238,32.66695],[-97.0022,32.66488],[-97.00304,32.66001],[-97.0039,32.65865],[-97.00714,32.6553],[-97.0075,32.65436],[-97.00699,32.64728],[-97.00668,32.64644],[-97.0064,32.64615],[-97.00441,32.64704],[-97.00224,32.64749],[-96.9968,32.65009],[-96.99025,32.65201],[-96.99025,32.64988],[-96.99297,32.64836],[-96.99409,32.64818],[-96.99693,32.64678],[-96.99824,32.64586],[-96.99895,32.64392],[-97.00171,32.64353],[-97.00195,32.64183],[-97.0018,32.64128],[-97.00203,32.64095],[-97.00351,32.64171],[-97.00412,32.64118],[-97.00443,32.64164],[-97.00438,32.64209],[-97.00468,32.6422],[-97.00492,32.64194],[-97.00504,32.6408],[-97.00445,32.64001],[-97.00492,32.6397],[-97.00657,32.64042],[-97.00694,32.64097],[-97.00742,32.6408],[-97.00781,32.64022],[-97.00846,32.63981],[-97.00916,32.64023],[-97.01014,32.63954],[-97.01126,32.63972],[-97.01352,32.64166],[-97.01399,32.64236],[-97.01531,32.65835],[-97.00991,32.65839],[-97.0096,32.66074],[-97.01018,32.66188],[-97.01112,32.66134],[-97.01208,32.66121],[-97.01217,32.66544],[-97.01103,32.66544],[-97.011,32.66645],[-97.0119,32.66649],[-97.01187,32.66697],[-97.01538,32.66698],[-97.0154,32.67368],[-97.01645,32.67614],[-97.01137,32.67603],[-97.00699,32.67542],[-97.00696,32.6737],[-97.00649,32.67228],[-97.00301,32.66813],[-97.00238,32.66695]]]}},{"type":"Feature","properties":{"PRECINCT":"dallas:4519","COUNTY":"Dallas"},"geometry":{"type":"Polygon","coordinates":[[[-97.00441,32.64704],[-97.0064,32.64615],[-97.00699,32.64728],[-97.0075,32.65436],[-97.00714,32.6553],[-97.0039,32.65865],[-97.00318,32.65971],[-97.00216,32.66554],[-97.00276,32.66775],[-97.00649,32.67228],[-97.00696,32.6737],[-97.00699,32.67514],[-96.98514,32.6722],[-96.98524,32.67029],[-96.98629,32.66998],[-96.98695,32.66879],[-96.98608,32.66681],[-96.98663,32.66646],[-96.98641,32.66564],[-96.98656,32.66461],[-96.98782,32.66272],[-96.98738,32.6619],[-96.98735,32.66096],[-96.99319,32.65846],[-96.99008,32.65206],[-96.9968,32.65009],[-97.00224,32.64749],[-97.00441,32.64704]]]}},{"type":"Feature","properties":{"PRECINCT":"dallas:4528","COUNTY":"Dallas"},"geometry":{"type":"Polygon","coordinates":[[[-96.98504,32.67046],[-96.98525,32.67016],[-96.98514,32.6722],[-96.9825,32.67185],[-96.98247,32.67124],[-96.98504,32.67046]]]}},{"type":"Feature","properties":{"PRECINCT":"dallas:4529","COUNTY":"Dallas"},"geometry":{"type":"Polygon","coordinates":[[[-97.01187,32.66697],[-97.0119,32.66649],[-97.01099,32.66643],[-97.01098,32.66551],[-97.01217,32.66544],[-97.01208,32.66121],[-97.01112,32.66134],[-97.01018,32.66188],[-97.00993,32.66158],[-97.00957,32.66035],[-97.00991,32.65839],[-97.01531,32.65835],[-97.01538,32.66698],[-97.01187,32.66697]]]}},{"type":"Feature","properties":{"PRECINCT":"dallas:4542","COUNTY":"Dallas"},"geometry":{"type":"Polygon","coordinates":[[[-96.9896,32.64405],[-96.99001,32.6433],[-96.9951,32.64404],[-96.99895,32.64392],[-96.99824,32.64586],[-96.99693,32.64678],[-96.99409,32.64818],[-96.99297,32.64836],[-96.99025,32.64988],[-96.99025,32.65181],[-96.98903,32.65007],[-96.98868,32.64742],[-96.98811,32.64709],[-96.98812,32.64673],[-96.98952,32.64599],[-96.9896,32.64405]]]}}]}