{"type":"FeatureCollection","features":[{"type":"Feature","properties":{"PRECINCT":"1","VTD":"0001"},"geometry":{"type":"Polygon","coordinates":[[[-103.041713,36.500439],[-102.894092,36.500264],[-102.891641,36.498136],[-102.891069,36.497209],[-102.89088,36.496087],[-102.891226,36.389164],[-102.8927,36.385823],[-102.893727,36.384981],[-102.894861,36.384547],[-102.891217,36.384573],[-102.891157,36.333917],[-102.876605,36.333735],[-102.875916,36.333521],[-102.875522,36.332909],[-102.876355,36.283053],[-102.867191,36.277856],[-102.860523,36.273625],[-102.808065,36.24248],[-102.808602,36.242124],[-102.84101,36.242251],[-102.840971,36.220552],[-102.823287,36.22044],[-102.82371,36.198763],[-102.823763,36.166696],[-102.823565,36.165506],[-102.823734,36.161134],[-102.823508,36.159669],[-102.823875,36.15532],[-102.823423,36.153443],[-102.823705,36.151497],[-102.823564,36.148636],[-102.823874,36.147676],[-102.824344,36.097642],[-102.82457,36.096955],[-102.824344,36.087937],[-102.824992,36.084687],[-102.824964,36.08416],[-102.824371,36.083153],[-102.824411,36.082541],[-102.842371,36.082613],[-102.842602,36.055153],[-103.000487,36.055051],[-103.041062,36.055226],[-103.041037,36.213537],[-103.041278,36.220398],[-103.041222,36.311326],[-103.041452,36.318156],[-103.041713,36.500439]]]}},{"type":"Feature","properties":{"PRECINCT":"2","VTD":"0002"},"geometry":{"type":"Polygon","coordinates":[[[-102.162923,36.25003],[-102.163015,36.055249],[-102.202965,36.054975],[-102.211678,36.055204],[-102.250462,36.055158],[-102.370709,36.055558],[-102.370647,36.079047],[-102.370474,36.079552],[-102.37174,36.079859],[-102.378595,36.079719],[-102.406436,36.079855],[-102.406403,36.095293],[-102.406411,36.095478],[-102.406952,36.095552],[-102.406961,36.10989],[-102.429109,36.109957],[-102.429333,36.117656],[-102.431412,36.120053],[-102.386974,36.146533],[-102.384593,36.147764],[-102.384889,36.269399],[-102.245955,36.269691],[-102.243305,36.269323],[-102.241406,36.269307],[-102.241201,36.23825],[-102.240915,36.237293],[-102.24017,36.236461],[-102.237737,36.235175],[-102.232975,36.23763],[-102.163174,36.278944],[-102.162923,36.25003]]]}},{"type":"Feature","properties":{"PRECINCT":"3","VTD":"0003"},"geometry":{"type":"Polygon","coordinates":[[[-102.366476,36.500396],[-102.366586,36.488593],[-102.365932,36.487535],[-102.367074,36.486252],[-102.367396,36.450434],[-102.367183,36.450185],[-102.366984,36.439287],[-102.36745,36.428479],[-102.368521,36.269415],[-102.489988,36.269152],[-102.494709,36.269327],[-102.494766,36.265861],[-102.536943,36.266079],[-102.537428,36.269848],[-102.537017,36.337733],[-102.535983,36.389395],[-102.536316,36.391032],[-102.538647,36.396542],[-102.594566,36.397056],[-102.593848,36.455021],[-102.647664,36.455479],[-102.647256,36.484014],[-102.646549,36.484432],[-102.639991,36.484381],[-102.639507,36.484537],[-102.639311,36.484888],[-102.63915,36.498086],[-102.63966,36.498417],[-102.642819,36.498501],[-102.64308,36.498957],[-102.643089,36.500488],[-102.584248,36.500395],[-102.375457,36.500552],[-102.366476,36.500396]]]}},{"type":"Feature","properties":{"PRECINCT":"4","VTD":"0004"},"geometry":{"type":"Polygon","coordinates":[[[-102.894092,36.500264],[-102.821224,36.500632],[-102.781765,36.500417],[-102.750472,36.5004],[-102.729727,36.500672],[-102.696977,36.500454],[-102.643089,36.500488],[-102.64308,36.498957],[-102.642819,36.498501],[-102.63966,36.498417],[-102.63915,36.498086],[-102.639311,36.484888],[-102.639507,36.484537],[-102.639991,36.484381],[-102.646549,36.484432],[-102.647256,36.484014],[-102.647664,36.455479],[-102.593848,36.455021],[-102.594566,36.397056],[-102.538647,36.396542],[-102.536316,36.391032],[-102.535983,36.389395],[-102.537017,36.337733],[-102.537252,36.298684],[-102.572177,36.298923],[-102.577311,36.300321],[-102.580102,36.301307],[-102.592686,36.30373],[-102.599529,36.305628],[-102.600151,36.305033],[-102.601027,36.304987],[-102.60343,36.3035],[-102.607105,36.301645],[-102.623756,36.297678],[-102.62547,36.297664],[-102.63021,36.296784],[-102.65085,36.296701],[-102.669142,36.297003],[-102.67228,36.298674],[-102.687407,36.303963],[-102.692949,36.306961],[-102.695692,36.30751],[-102.70692,36.311193],[-102.710568,36.312886],[-102.714556,36.314305],[-102.716197,36.316639],[-102.716091,36.319603],[-102.730896,36.303038],[-102.732932,36.301642],[-102.737764,36.296651],[-102.742257,36.292782],[-102.742001,36.290356],[-102.742311,36.28896],[-102.742253,36.286053],[-102.742733,36.285183],[-102.742873,36.284244],[-102.743721,36.2831],[-102.744539,36.281337],[-102.743945,36.279758],[-102.743886,36.276302],[-102.742585,36.275135],[-102.738626,36.272756],[-102.738117,36.272047],[-102.737975,36.271246],[-102.748715,36.271424],[-102.749847,36.271904],[-102.750958,36.271785],[-102.751238,36.27118],[-102.771168,36.271345],[-102.770113,36.271018],[-102.769297,36.270254],[-102.769067,36.267927],[-102.769751,36.224721],[-102.770258,36.222912],[-102.771922,36.220979],[-102.860523,36.273625],[-102.867191,36.277856],[-102.876355,36.283053],[-102.875522,36.332909],[-102.875916,36.333521],[-102.876605,36.333735],[-102.891157,36.333917],[-102.891217,36.384573],[-102.894861,36.384547],[-102.893439,36.385153],[-102.892482,36.386173],[-102.891242,36.388957],[-102.891206,36.392064],[-102.890884,36.496288],[-102.891136,36.497382],[-102.891641,36.498136],[-102.894092,36.500264]]]}},{"type":"Feature","properties":{"PRECINCT":"5","VTD":"0005"},"geometry":{"type":"Polygon","coordinates":[[[-102.250473,36.500369],[-102.24499,36.500704],[-102.22058,36.500333],[-102.162463,36.500326],[-102.162424,36.500026],[-102.162771,36.497902],[-102.163068,36.313585],[-102.163303,36.303118],[-102.163174,36.278944],[-102.232975,36.23763],[-102.237737,36.235175],[-102.24017,36.236461],[-102.240915,36.237293],[-102.241201,36.23825],[-102.241406,36.269307],[-102.243305,36.269323],[-102.245955,36.269691],[-102.368521,36.269415],[-102.36745,36.428479],[-102.366984,36.439287],[-102.367183,36.450185],[-102.367396,36.450434],[-102.367074,36.486252],[-102.365932,36.487535],[-102.366586,36.488593],[-102.366772,36.489721],[-102.366476,36.500396],[-102.250473,36.500369]]]}},{"type":"Feature","properties":{"PRECINCT":"6","VTD":"0006"},"geometry":{"type":"Polygon","coordinates":[[[-102.84101,36.242251],[-102.808602,36.242124],[-102.808065,36.24248],[-102.72413,36.192455],[-102.717985,36.189026],[-102.71112,36.184739],[-102.711402,36.183545],[-102.716092,36.183559],[-102.716394,36.183252],[-102.716794,36.140161],[-102.716791,36.140001],[-102.710559,36.139975],[-102.71043,36.079643],[-102.707311,36.079829],[-102.695094,36.079798],[-102.689148,36.079387],[-102.6585,36.079461],[-102.654184,36.079862],[-102.632223,36.079807],[-102.623092,36.079558],[-102.544805,36.079721],[-102.543108,36.078483],[-102.541948,36.078146],[-102.535287,36.073689],[-102.533198,36.072273],[-102.532133,36.071187],[-102.526583,36.067408],[-102.527344,36.066661],[-102.525427,36.065292],[-102.526994,36.064112],[-102.526939,36.063281],[-102.52317,36.06328],[-102.523159,36.0618],[-102.522536,36.061824],[-102.522536,36.061336],[-102.523156,36.061335],[-102.523119,36.056417],[-102.52569,36.056411],[-102.525692,36.055117],[-102.726191,36.055166],[-102.727568,36.055434],[-102.750478,36.055146],[-102.842602,36.055153],[-102.842371,36.082613],[-102.824411,36.082541],[-102.824371,36.083153],[-102.824964,36.08416],[-102.824992,36.084687],[-102.824344,36.087937],[-102.82457,36.096955],[-102.824344,36.097642],[-102.823874,36.147676],[-102.823564,36.148636],[-102.823705,36.151497],[-102.823423,36.153443],[-102.823875,36.15532],[-102.823508,36.159669],[-102.823734,36.161134],[-102.823565,36.165506],[-102.823763,36.166696],[-102.82371,36.198763],[-102.823287,36.22044],[-102.840971,36.220552],[-102.84101,36.242251]]]}},{"type":"Feature","properties":{"PRECINCT":"7","VTD":"0007"},"geometry":{"type":"Polygon","coordinates":[[[-102.65085,36.296701],[-102.63021,36.296784],[-102.62547,36.297664],[-102.623756,36.297678],[-102.607105,36.301645],[-102.60343,36.3035],[-102.601027,36.304987],[-102.600151,36.305033],[-102.599529,36.305628],[-102.592686,36.30373],[-102.580102,36.301307],[-102.577311,36.300321],[-102.572177,36.298923],[-102.537252,36.298684],[-102.537423,36.269243],[-102.536727,36.26537],[-102.535308,36.262397],[-102.511458,36.221371],[-102.510636,36.219448],[-102.510059,36.217005],[-102.509749,36.176296],[-102.509081,36.167529],[-102.509095,36.082017],[-102.509275,36.080697],[-102.510091,36.078747],[-102.513454,36.074418],[-102.513538,36.071487],[-102.507927,36.073977],[-102.513453,36.069584],[-102.512674,36.068723],[-102.512651,36.066739],[-102.511441,36.066732],[-102.511374,36.064309],[-102.510202,36.064313],[-102.510178,36.061519],[-102.512445,36.061525],[-102.512444,36.062513],[-102.513608,36.062494],[-102.5136,36.062301],[-102.516992,36.062349],[-102.516994,36.063333],[-102.515752,36.063332],[-102.515752,36.064315],[-102.516996,36.064316],[-102.516998,36.065193],[-102.520781,36.065214],[-102.521342,36.064879],[-102.521926,36.064345],[-102.521909,36.062123],[-102.522537,36.062123],[-102.522536,36.061824],[-102.523159,36.0618],[-102.52317,36.06328],[-102.526939,36.063281],[-102.526994,36.064112],[-102.525427,36.065292],[-102.527344,36.066661],[-102.526583,36.067408],[-102.532133,36.071187],[-102.533198,36.072273],[-102.535287,36.073689],[-102.541948,36.078146],[-102.543108,36.078483],[-102.544805,36.079721],[-102.623092,36.079558],[-102.632223,36.079807],[-102.654184,36.079862],[-102.6585,36.079461],[-102.689148,36.079387],[-102.695094,36.079798],[-102.707311,36.079829],[-102.71043,36.079643],[-102.710559,36.139975],[-102.716791,36.140001],[-102.716794,36.140161],[-102.716394,36.183252],[-102.716092,36.183559],[-102.711402,36.183545],[-102.71112,36.184739],[-102.717985,36.189026],[-102.72413,36.192455],[-102.771922,36.220979],[-102.770258,36.222912],[-102.769751,36.224721],[-102.769067,36.267927],[-102.769297,36.270254],[-102.770113,36.271018],[-102.771168,36.271345],[-102.751238,36.27118],[-102.750958,36.271785],[-102.749847,36.271904],[-102.748715,36.271424],[-102.737975,36.271246],[-102.738117,36.272047],[-102.738626,36.272756],[-102.742585,36.275135],[-102.743886,36.276302],[-102.743945,36.279758],[-102.744539,36.281337],[-102.743721,36.2831],[-102.742873,36.284244],[-102.742733,36.285183],[-102.742253,36.286053],[-102.742311,36.28896],[-102.742001,36.290356],[-102.742257,36.292782],[-102.737764,36.296651],[-102.732932,36.301642],[-102.730896,36.303038],[-102.716091,36.319603],[-102.716197,36.316639],[-102.714556,36.314305],[-102.710568,36.312886],[-102.70692,36.311193],[-102.695692,36.30751],[-102.692949,36.306961],[-102.687407,36.303963],[-102.67228,36.298674],[-102.669142,36.297003],[-102.65085,36.296701]]]}},{"type":"Feature","properties":{"PRECINCT":"8","VTD":"0008"},"geometry":{"type":"Polygon","coordinates":[[[-102.456324,36.269246],[-102.384889,36.269399],[-102.384593,36.147764],[-102.386974,36.146533],[-102.431412,36.120053],[-102.429333,36.117656],[-102.429109,36.109957],[-102.406961,36.10989],[-102.406952,36.095552],[-102.406411,36.095478],[-102.406403,36.095293],[-102.406436,36.079855],[-102.378595,36.079719],[-102.37174,36.079859],[-102.370474,36.079552],[-102.370647,36.079047],[-102.370709,36.055558],[-102.397483,36.055353],[-102.470973,36.055496],[-102.477834,36.055291],[-102.525692,36.055117],[-102.52569,36.056411],[-102.523119,36.056417],[-102.523156,36.061335],[-102.522536,36.061336],[-102.522536,36.061824],[-102.521909,36.06185],[-102.521914,36.059339],[-102.520595,36.059342],[-102.520586,36.057405],[-102.518126,36.057417],[-102.518208,36.059354],[-102.514449,36.059367],[-102.514033,36.059557],[-102.513499,36.059198],[-102.513247,36.059419],[-102.512011,36.058576],[-102.507983,36.058573],[-102.507828,36.061513],[-102.50239,36.061499],[-102.502573,36.074393],[-102.504711,36.074404],[-102.504747,36.07629],[-102.455871,36.10546],[-102.456324,36.269246]]]}},{"type":"Feature","properties":{"PRECINCT":"9","VTD":"0009"},"geometry":{"type":"Polygon","coordinates":[[[-102.494709,36.269327],[-102.489988,36.269152],[-102.456324,36.269246],[-102.455871,36.10546],[-102.504747,36.07629],[-102.504711,36.074404],[-102.502573,36.074393],[-102.50239,36.061499],[-102.507828,36.061513],[-102.507983,36.058573],[-102.512011,36.058576],[-102.513247,36.059419],[-102.513499,36.059198],[-102.514033,36.059557],[-102.514449,36.059367],[-102.518208,36.059354],[-102.518126,36.057417],[-102.520586,36.057405],[-102.520595,36.059342],[-102.521914,36.059339],[-102.521909,36.06185],[-102.522536,36.061824],[-102.522537,36.062123],[-102.521909,36.062123],[-102.521865,36.064535],[-102.520781,36.065214],[-102.516998,36.065193],[-102.516996,36.064316],[-102.515752,36.064315],[-102.515752,36.063332],[-102.516994,36.063333],[-102.516992,36.062349],[-102.5136,36.062301],[-102.513608,36.062494],[-102.512444,36.062513],[-102.512445,36.061525],[-102.510178,36.061519],[-102.510202,36.064313],[-102.511374,36.064309],[-102.511441,36.066732],[-102.512651,36.066739],[-102.512674,36.068723],[-102.513453,36.069584],[-102.507927,36.073977],[-102.513538,36.071487],[-102.513454,36.074418],[-102.510091,36.078747],[-102.509275,36.080697],[-102.509095,36.082017],[-102.509081,36.167529],[-102.509749,36.176296],[-102.509966,36.215966],[-102.510377,36.218573],[-102.511458,36.221371],[-102.535308,36.262397],[-102.536943,36.266079],[-102.494766,36.265861],[-102.494709,36.269327]]]}}]}