{"type":"FeatureCollection","features":[{"type":"Feature","properties":{"PRECINCT":"brazoria:1","COUNTY":"Brazoria"},"geometry":{"type":"Polygon","coordinates":[[[-95.34144,29.19243],[-95.34047,29.19245],[-95.34026,29.19206],[-95.33961,29.19179],[-95.33945,29.19112],[-95.33856,29.1903],[-95.33838,29.1898],[-95.33794,29.18968],[-95.33726,29.18854],[-95.33629,29.18844],[-95.33551,29.18778],[-95.33486,29.18789],[-95.33473,29.18741],[-95.33353,29.18686],[-95.33235,29.18542],[-95.33157,29.18505],[-95.33165,29.18427],[-95.33071,29.18427],[-95.33039,29.18324],[-95.32985,29.18354],[-95.32922,29.18342],[-95.32932,29.1826],[-95.32872,29.18203],[-95.32841,29.1812],[-95.32765,29.18148],[-95.32744,29.18129],[-95.32742,29.18029],[-95.32721,29.18015],[-95.3264,29.18035],[-95.3259,29.17978],[-95.32491,29.17978],[-95.32446,29.17875],[-95.32466,29.1783],[-95.32641,29.1766],[-95.32673,29.17572],[-95.37713,29.15183],[-95.37764,29.15182],[-95.37815,29.15216],[-95.38271,29.1596],[-95.39321,29.15947],[-95.39306,29.15236],[-95.39077,29.15071],[-95.39496,29.14872],[-95.3949,29.14732],[-95.39199,29.13406],[-95.39099,29.13142],[-95.39553,29.12871],[-95.40619,29.12354],[-95.40727,29.12319],[-95.40926,29.12313],[-95.41489,29.12483],[-95.4304,29.12446],[-95.43234,29.155],[-95.43402,29.15504],[-95.43533,29.1547],[-95.43527,29.15624],[-95.44461,29.15014],[-95.44462,29.15051],[-95.4402,29.15344],[-95.4403,29.16388],[-95.4374,29.16392],[-95.43448,29.16433],[-95.4304,29.16455],[-95.42705,29.16451],[-95.42714,29.16771],[-95.42603,29.16774],[-95.42606,29.16988],[-95.42943,29.16966],[-95.4295,29.17071],[-95.43213,29.17056],[-95.43232,29.17339],[-95.42261,29.17357],[-95.42275,29.17748],[-95.42315,29.17844],[-95.42306,29.1791],[-95.41903,29.17909],[-95.419,29.17563],[-95.41427,29.17571],[-95.41062,29.18125],[-95.4104,29.17016],[-95.38925,29.17051],[-95.38872,29.17079],[-95.38159,29.17928],[-95.34519,29.19262],[-95.34401,29.1931],[-95.34322,29.19371],[-95.3418,29.19323],[-95.34144,29.19243]]]}},{"type":"Feature","properties":{"PRECINCT":"brazoria:10","COUNTY":"Brazoria"},"geometry":{"type":"Polygon","coordinates":[[[-95.60412,29.33056],[-95.60295,29.3281],[-95.60169,29.32784],[-95.6006,29.32808],[-95.5996,29.32759],[-95.59764,29.32787],[-95.59625,29.32763],[-95.59509,29.3283],[-95.59426,29.32768],[-95.59079,29.32748],[-95.59092,29.3264],[-95.58876,29.32557],[-95.58795,29.325],[-95.58731,29.32387],[-95.5865,29.31959],[-95.58597,29.31891],[-95.58462,29.31836],[-95.58055,29.31805],[-95.5795,29.31751],[-95.57979,29.31637],[-95.58057,29.31566],[-95.58334,29.31421],[-95.58416,29.31264],[-95.58398,29.30921],[-95.5831,29.30754],[-95.58257,29.307],[-95.57892,29.30531],[-95.57725,29.30402],[-95.57697,29.30272],[-95.57722,29.302],[-95.57798,29.30105],[-95.57859,29.30075],[-95.57962,29.30091],[-95.58338,29.30268],[-95.58497,29.30254],[-95.58569,29.30182],[-95.58671,29.29847],[-95.5887,29.29539],[-95.58959,29.29271],[-95.58981,29.29035],[-95.58932,29.28925],[-95.58861,29.28855],[-95.5861,29.2867],[-95.58577,29.28559],[-95.5859,29.28438],[-95.58717,29.28181],[-95.58739,29.28074],[-95.58714,29.27989],[-95.58639,29.27912],[-95.583,29.27726],[-95.58233,29.27667],[-95.58167,29.27575],[-95.58059,29.27265],[-95.57934,29.27129],[-95.57833,29.27114],[-95.57758,29.27194],[-95.57697,29.27628],[-95.57637,29.27761],[-95.57566,29.27786],[-95.57516,29.27767],[-95.57428,29.27668],[-95.57333,29.27399],[-95.573,29.27218],[-95.57327,29.27012],[-95.57518,29.26538],[-95.57552,29.26299],[-95.57495,29.2603],[-95.57416,29.25905],[-95.5737,29.25875],[-95.57236,29.25871],[-95.57139,29.25937],[-95.57097,29.26007],[-95.57072,29.26062],[-95.57067,29.26198],[-95.57103,29.26518],[-95.57014,29.26606],[-95.56901,29.26617],[-95.56637,29.26586],[-95.56449,29.26497],[-95.56324,29.26364],[-95.56341,29.2625],[-95.564,29.26125],[-95.5651,29.25986],[-95.5691,29.25704],[-95.5694,29.25612],[-95.5681,29.25516],[-95.56676,29.25486],[-95.56248,29.25454],[-95.56112,29.25407],[-95.56066,29.25348],[-95.56066,29.25289],[-95.56124,29.25181],[-95.5607,29.25182],[-95.5615,29.25058],[-95.5619,29.25058],[-95.56242,29.24862],[-95.56239,29.24269],[-95.56354,29.239],[-95.56335,29.2377],[-95.56275,29.237],[-95.56175,29.23682],[-95.56088,29.23711],[-95.55907,29.23851],[-95.55753,29.2385],[-95.55693,29.23809],[-95.556,29.23644],[-95.55474,29.23526],[-95.55267,29.23426],[-95.5506,29.23349],[-95.54539,29.23276],[-95.54386,29.23181],[-95.5426,29.23063],[-95.54134,29.22869],[-95.54015,29.22528],[-95.5403,29.22405],[-95.54305,29.22236],[-95.54526,29.22135],[-95.54667,29.22035],[-95.54784,29.21638],[-95.54867,29.21558],[-95.55164,29.21401],[-95.56036,29.20772],[-95.57079,29.20807],[-95.60208,29.20728],[-95.60781,29.19671],[-95.61071,29.19459],[-95.61774,29.19035],[-95.61837,29.18963],[-95.61886,29.18848],[-95.61894,29.18598],[-95.62498,29.1859],[-95.62556,29.18602],[-95.6259,29.18636],[-95.6255,29.2046],[-95.62597,29.20529],[-95.63496,29.21333],[-95.63601,29.21617],[-95.63743,29.2173],[-95.63874,29.21753],[-95.69704,29.21725],[-95.69729,29.21706],[-95.69734,29.21372],[-95.72877,29.18461],[-95.75703,29.15896],[-95.7624,29.16078],[-95.76448,29.16078],[-95.76587,29.16041],[-95.76584,29.16139],[-95.76522,29.16254],[-95.76519,29.16314],[-95.76621,29.16609],[-95.76725,29.16795],[-95.76764,29.16941],[-95.76865,29.17104],[-95.76873,29.17324],[-95.76951,29.17427],[-95.77129,29.17452],[-95.77267,29.17544],[-95.77286,29.17585],[-95.77306,29.17778],[-95.77275,29.17835],[-95.77061,29.17949],[-95.77032,29.18004],[-95.77042,29.18091],[-95.77157,29.18229],[-95.77788,29.18568],[-95.77856,29.18676],[-95.77837,29.1891],[-95.77704,29.19045],[-95.77409,29.19154],[-95.77231,29.19366],[-95.77178,29.19479],[-95.77208,29.19593],[-95.77302,29.19743],[-95.77338,29.19867],[-95.77315,29.19954],[-95.77163,29.20109],[-95.7716,29.20375],[-95.77189,29.2051],[-95.77168,29.20705],[-95.77181,29.20824],[-95.77395,29.21039],[-95.77556,29.21296],[-95.77554,29.21404],[-95.77384,29.2161],[-95.77376,29.21711],[-95.77399,29.2177],[-95.77626,29.21876],[-95.77819,29.21892],[-95.77947,29.21965],[-95.78075,29.22114],[-95.78167,29.22279],[-95.78287,29.22398],[-95.78307,29.22458],[-95.78305,29.22607],[-95.78346,29.22687],[-95.78482,29.22822],[-95.78584,29.22879],[-95.78693,29.22895],[-95.78978,29.22735],[-95.79203,29.22786],[-95.79315,29.22921],[-95.79412,29.23159],[-95.79713,29.23565],[-95.79739,29.23677],[-95.79824,29.23757],[-95.7997,29.23796],[-95.80119,29.23902],[-95.80309,29.24258],[-95.80343,29.24378],[-95.80675,29.24566],[-95.80831,29.24591],[-95.80991,29.24704],[-95.81199,29.24766],[-95.81973,29.24853],[-95.82262,29.24926],[-95.82406,29.24988],[-95.82505,29.24995],[-95.83244,29.2493],[-95.83406,29.24973],[-95.83567,29.25122],[-95.83716,29.25101],[-95.83786,29.25118],[-95.83993,29.25255],[-95.84193,29.25524],[-95.8424,29.25737],[-95.84196,29.25885],[-95.84238,29.25981],[-95.84334,29.26041],[-95.84456,29.2605],[-95.84552,29.26085],[-95.84766,29.26259],[-95.79782,29.30797],[-95.78401,29.29625],[-95.75287,29.3245],[-95.75024,29.32353],[-95.67279,29.29953],[-95.67173,29.2996],[-95.66947,29.29876],[-95.66849,29.29935],[-95.66764,29.29877],[-95.66509,29.29889],[-95.66484,29.2986],[-95.66478,29.29751],[-95.66442,29.29662],[-95.66278,29.29496],[-95.6614,29.29428],[-95.65977,29.29448],[-95.65918,29.29368],[-95.65817,29.29346],[-95.65612,29.29228],[-95.65569,29.29128],[-95.65444,29.29093],[-95.65377,29.29206],[-95.65349,29.29334],[-95.65273,29.2944],[-95.65223,29.29472],[-95.651,29.29473],[-95.65015,29.29406],[-95.64898,29.29401],[-95.64849,29.29366],[-95.64752,29.29381],[-95.64688,29.2943],[-95.64616,29.29381],[-95.64507,29.29427],[-95.64425,29.2937],[-95.64305,29.2945],[-95.64176,29.29433],[-95.64162,29.29556],[-95.64078,29.29654],[-95.64014,29.29665],[-95.63933,29.29635],[-95.63884,29.29719],[-95.6381,29.2968],[-95.63727,29.29684],[-95.63726,29.29631],[-95.63772,29.29589],[-95.63738,29.29556],[-95.63662,29.2954],[-95.63621,29.295],[-95.63556,29.29562],[-95.6353,29.29534],[-95.63535,29.29466],[-95.63502,29.29428],[-95.6341,29.29421],[-95.6337,29.29352],[-95.63283,29.29373],[-95.63235,29.29307],[-95.63133,29.29267],[-95.6304,29.29324],[-95.62911,29.29286],[-95.62717,29.29382],[-95.62643,29.29307],[-95.62606,29.29309],[-95.62508,29.29525],[-95.62402,29.29566],[-95.62388,29.29628],[-95.62336,29.29679],[-95.62339,29.2975],[-95.62261,29.29794],[-95.62268,29.29871],[-95.62114,29.29934],[-95.62082,29.29984],[-95.62167,29.30111],[-95.62174,29.30405],[-95.62202,29.30509],[-95.62331,29.30594],[-95.62362,29.30663],[-95.62435,29.30676],[-95.62508,29.30754],[-95.62676,29.30832],[-95.62819,29.30941],[-95.62714,29.31066],[-95.62684,29.31169],[-95.62515,29.31351],[-95.62304,29.31448],[-95.62227,29.31507],[-95.62108,29.31656],[-95.62014,29.31641],[-95.61612,29.31936],[-95.61577,29.32082],[-95.61475,29.32179],[-95.61464,29.32328],[-95.61332,29.32358],[-95.61174,29.32492],[-95.61044,29.3257],[-95.60992,29.32664],[-95.60796,29.32735],[-95.60693,29.32927],[-95.60629,29.32914],[-95.60541,29.32931],[-95.60497,29.33074],[-95.60412,29.33056]]]}},{"type":"Feature","properties":{"PRECINCT":"brazoria:14","COUNTY":"Brazoria"},"geometry":{"type":"Polygon","coordinates":[[[-95.70834,29.11721],[-95.70706,29.11651],[-95.70486,29.11667],[-95.7028,29.11596],[-95.70129,29.11568],[-95.69918,29.11573],[-95.69803,29.11613],[-95.69726,29.11687],[-95.69694,29.11754],[-95.69684,29.11985],[-95.69634,29.12036],[-95.69576,29.12054],[-95.69305,29.11901],[-95.68493,29.11661],[-95.68175,29.11349],[-95.68081,29.11297],[-95.67791,29.11198],[-95.67609,29.11169],[-95.67447,29.11194],[-95.6739,29.11219],[-95.67278,29.114],[-95.67181,29.11457],[-95.67038,29.11439],[-95.66975,29.11352],[-95.67006,29.11142],[-95.66985,29.11075],[-95.66996,29.10899],[-95.66964,29.108],[-95.66852,29.10619],[-95.66899,29.10319],[-95.66844,29.10262],[-95.66672,29.10184],[-95.66601,29.10099],[-95.66573,29.09944],[-95.66604,29.09843],[-95.66693,29.09728],[-95.66982,29.09572],[-95.67052,29.09485],[-95.67047,29.09423],[-95.66953,29.09238],[-95.66948,29.09133],[-95.67018,29.08956],[-95.67552,29.08498],[-95.68024,29.08351],[-95.68103,29.08273],[-95.6828,29.07913],[-95.68251,29.07806],[-95.68134,29.07751],[-95.68074,29.07753],[-95.67912,29.07826],[-95.67852,29.07831],[-95.6781,29.0779],[-95.67766,29.07611],[-95.67526,29.07407],[-95.67403,29.07217],[-95.67171,29.06303],[-95.67178,29.06178],[-95.67257,29.05962],[-95.67262,29.0587],[-95.67233,29.05754],[-95.66925,29.05277],[-95.66758,29.04872],[-95.66552,29.04606],[-95.66281,29.04389],[-95.65793,29.04284],[-95.65671,29.04293],[-95.65418,29.04407],[-95.65207,29.04453],[-95.64804,29.04313],[-95.64598,29.04263],[-95.64354,29.04262],[-95.64282,29.04287],[-95.64167,29.04413],[-95.64108,29.04604],[-95.64051,29.04691],[-95.63878,29.0483],[-95.63734,29.04905],[-95.6349,29.04904],[-95.63275,29.0484],[-95.63089,29.0484],[-95.62887,29.04902],[-95.62657,29.04901],[-95.6247,29.04875],[-95.6237,29.04837],[-95.62227,29.04736],[-95.62114,29.04356],[-95.62129,29.04103],[-95.62188,29.03926],[-95.62188,29.03762],[-95.6216,29.03686],[-95.61688,29.03317],[-95.61573,29.03254],[-95.61358,29.03253],[-95.61185,29.03328],[-95.60955,29.03391],[-95.60797,29.03466],[-95.60567,29.03516],[-95.6028,29.03515],[-95.60122,29.03489],[-95.60007,29.0345],[-95.59907,29.03374],[-95.59822,29.03248],[-95.59793,29.03134],[-95.59722,29.02994],[-95.59579,29.02829],[-95.59494,29.0269],[-95.59466,29.025],[-95.59409,29.02373],[-95.5921,29.02095],[-95.58867,29.01777],[-95.58796,29.0165],[-95.58782,29.01461],[-95.58826,29.01322],[-95.58812,29.01097],[-95.60545,29.00826],[-95.61774,29.00849],[-95.62385,29.00927],[-95.62539,29.00913],[-95.63826,29.00385],[-95.64456,29.00063],[-95.64581,28.99986],[-95.65129,28.99498],[-95.66119,28.98998],[-95.6656,28.98652],[-95.68444,29.00228],[-95.71169,28.97728],[-95.70219,28.96931],[-95.7048,28.9689],[-95.70546,28.96862],[-95.70718,28.96855],[-95.73699,28.96777],[-95.76494,28.96736],[-95.76514,28.96782],[-95.76798,28.96964],[-95.76939,28.97111],[-95.77032,28.97262],[-95.77072,28.97501],[-95.77032,28.97637],[-95.76915,28.97801],[-95.76782,28.97849],[-95.76679,28.97927],[-95.76595,28.97918],[-95.76561,28.97948],[-95.76573,28.98026],[-95.76636,28.98103],[-95.7672,28.98165],[-95.76845,28.98204],[-95.77005,28.98311],[-95.77028,28.98363],[-95.77021,28.98445],[-95.77052,28.98486],[-95.76954,28.98606],[-95.76999,28.98785],[-95.76989,28.98866],[-95.76926,28.9889],[-95.76894,28.98811],[-95.76842,28.98785],[-95.76717,28.98871],[-95.76705,28.98921],[-95.76749,28.99028],[-95.76723,28.99169],[-95.76784,28.99198],[-95.76884,28.99143],[-95.76928,28.99148],[-95.77024,28.99236],[-95.77028,28.99321],[-95.77221,28.99445],[-95.77336,28.99428],[-95.77521,28.9944],[-95.77692,28.99474],[-95.77729,28.99522],[-95.77729,28.99588],[-95.77834,28.99705],[-95.77689,28.9996],[-95.77528,29.00075],[-95.77492,29.00198],[-95.77316,29.00308],[-95.77256,29.00519],[-95.77174,29.0053],[-95.77051,29.0034],[-95.76978,29.00288],[-95.76908,29.0027],[-95.76786,29.00308],[-95.76777,29.00399],[-95.76895,29.00481],[-95.76951,29.00559],[-95.77004,29.0058],[-95.77138,29.00615],[-95.77311,29.0056],[-95.77485,29.00615],[-95.77737,29.00798],[-95.77788,29.00913],[-95.77926,29.00858],[-95.77952,29.00801],[-95.77927,29.00705],[-95.77943,29.00684],[-95.78166,29.00717],[-95.78317,29.00643],[-95.78411,29.00703],[-95.78506,29.00893],[-95.78499,29.01033],[-95.78527,29.01205],[-95.78454,29.01269],[-95.78394,29.01282],[-95.78337,29.01228],[-95.78337,29.01125],[-95.78404,29.0106],[-95.7838,29.0101],[-95.77925,29.01084],[-95.77912,29.01156],[-95.77995,29.01294],[-95.77935,29.01415],[-95.77992,29.01652],[-95.77959,29.01692],[-95.77873,29.01735],[-95.77678,29.01741],[-95.7761,29.01789],[-95.77669,29.01866],[-95.77789,29.01892],[-95.77938,29.01969],[-95.78143,29.02035],[-95.78203,29.02087],[-95.78211,29.02157],[-95.78108,29.02237],[-95.77969,29.02198],[-95.77886,29.02243],[-95.77834,29.02316],[-95.778,29.0248],[-95.77846,29.02545],[-95.77855,29.02651],[-95.7806,29.02804],[-95.78202,29.02808],[-95.78252,29.02769],[-95.78384,29.02786],[-95.78406,29.02819],[-95.78409,29.03036],[-95.78336,29.03043],[-95.78278,29.03104],[-95.78185,29.03145],[-95.7816,29.03208],[-95.7794,29.03414],[-95.77928,29.03449],[-95.77966,29.03474],[-95.78057,29.03475],[-95.78107,29.03516],[-95.78082,29.03594],[-95.7811,29.03658],[-95.78102,29.03732],[-95.78125,29.03761],[-95.78252,29.03831],[-95.78414,29.03808],[-95.78527,29.03874],[-95.7855,29.03915],[-95.78537,29.0395],[-95.78392,29.04073],[-95.78399,29.04265],[-95.78329,29.04345],[-95.7827,29.04366],[-95.78193,29.04339],[-95.77987,29.04351],[-95.77908,29.04384],[-95.7784,29.04477],[-95.77787,29.04438],[-95.77747,29.04436],[-95.77688,29.04602],[-95.77697,29.04679],[-95.77742,29.04736],[-95.7775,29.04789],[-95.77685,29.04789],[-95.77695,29.04882],[-95.77646,29.04994],[-95.77662,29.05088],[-95.77608,29.05139],[-95.77588,29.05218],[-95.77345,29.05286],[-95.77206,29.05224],[-95.77112,29.05221],[-95.77059,29.05188],[-95.77013,29.05188],[-95.76907,29.05217],[-95.76853,29.05274],[-95.76755,29.05325],[-95.76767,29.05429],[-95.76705,29.05505],[-95.76676,29.05606],[-95.76688,29.05726],[-95.76618,29.05794],[-95.76605,29.05859],[-95.76642,29.05874],[-95.76741,29.05852],[-95.76774,29.05903],[-95.7672,29.05964],[-95.76657,29.05993],[-95.76539,29.05986],[-95.76504,29.06072],[-95.76564,29.06127],[-95.76906,29.06264],[-95.76959,29.0636],[-95.77003,29.06555],[-95.77075,29.06636],[-95.77178,29.06635],[-95.77298,29.06488],[-95.77371,29.06445],[-95.78088,29.06559],[-95.78158,29.0659],[-95.78265,29.06687],[-95.78426,29.06728],[-95.78528,29.06811],[-95.78875,29.06952],[-95.78994,29.07065],[-95.76431,29.09428],[-95.75896,29.09963],[-95.75313,29.0948],[-95.75269,29.09423],[-95.75025,29.09315],[-95.70848,29.1305],[-95.70868,29.1294],[-95.71009,29.128],[-95.71022,29.12666],[-95.70924,29.12327],[-95.70911,29.11903],[-95.70834,29.11721]]]}},{"type":"Feature","properties":{"PRECINCT":"brazoria:15","COUNTY":"Brazoria"},"geometry":{"type":"Polygon","coordinates":[[[-95.41729,29.31096],[-95.41672,29.30986],[-95.41491,29.30938],[-95.41358,29.30945],[-95.4129,29.30913],[-95.41128,29.30906],[-95.40979,29.30835],[-95.40801,29.30622],[-95.40579,29.30482],[-95.40503,29.30471],[-95.40333,29.30521],[-95.40226,29.30634],[-95.40038,29.30677],[-95.39876,29.3062],[-95.39719,29.30601],[-95.39557,29.3065],[-95.39251,29.30579],[-95.3906,29.30645],[-95.38574,29.30448],[-95.38399,29.30524],[-95.38287,29.30522],[-95.38182,29.30574],[-95.37958,29.30632],[-95.37798,29.30531],[-95.37628,29.30519],[-95.37448,29.30428],[-95.37351,29.3035],[-95.37241,29.30331],[-95.37139,29.30228],[-95.37079,29.3013],[-95.37069,29.29979],[-95.37017,29.29928],[-95.36969,29.29786],[-95.36805,29.29662],[-95.36614,29.29658],[-95.36444,29.29619],[-95.36209,29.29601],[-95.36055,29.29546],[-95.3595,29.29605],[-95.35767,29.29649],[-95.35676,29.29697],[-95.35603,29.29701],[-95.35542,29.29649],[-95.35352,29.29571],[-95.35148,29.29447],[-95.35056,29.29332],[-95.34991,29.29275],[-95.34928,29.29254],[-95.34839,29.29144],[-95.34737,29.29103],[-95.34539,29.28853],[-95.34497,29.2873],[-95.34461,29.28714],[-95.34283,29.28727],[-95.34152,29.28643],[-95.34069,29.28627],[-95.3393,29.2856],[-95.3376,29.28571],[-95.337,29.28553],[-95.33577,29.28448],[-95.33575,29.28264],[-95.33522,29.28221],[-95.33167,29.28113],[-95.33091,29.28046],[-95.33086,29.27907],[-95.33133,29.27824],[-95.33112,29.27776],[-95.33047,29.27726],[-95.3305,29.27701],[-95.33183,29.27641],[-95.3323,29.27554],[-95.33243,29.27412],[-95.33497,29.27313],[-95.33572,29.27236],[-95.33661,29.27252],[-95.3369,29.27227],[-95.33729,29.27016],[-95.33821,29.26949],[-95.33688,29.26805],[-95.33688,29.26764],[-95.33711,29.26729],[-95.33818,29.267],[-95.33758,29.26592],[-95.33758,29.26544],[-95.33933,29.26429],[-95.33928,29.26361],[-95.33832,29.2623],[-95.33876,29.26063],[-95.33858,29.25978],[-95.33798,29.25916],[-95.33793,29.25753],[-95.33769,29.25719],[-95.3367,29.25673],[-95.33662,29.25625],[-95.33735,29.25536],[-95.3374,29.25483],[-95.33678,29.25396],[-95.33675,29.25242],[-95.3356,29.25185],[-95.33354,29.24982],[-95.3339,29.24845],[-95.33372,29.24792],[-95.33385,29.24719],[-95.33301,29.24668],[-95.33213,29.24677],[-95.33184,29.24565],[-95.33032,29.24544],[-95.32941,29.24457],[-95.32855,29.24517],[-95.32818,29.24519],[-95.3274,29.24407],[-95.32544,29.24333],[-95.32497,29.24299],[-95.32452,29.24212],[-95.32338,29.24143],[-95.32317,29.24038],[-95.32275,29.23981],[-95.32236,29.23965],[-95.32027,29.24077],[-95.31988,29.24081],[-95.31875,29.24031],[-95.31823,29.23983],[-95.31781,29.23877],[-95.31687,29.238],[-95.31646,29.23703],[-95.31562,29.2363],[-95.31609,29.23479],[-95.31541,29.23454],[-95.3151,29.23463],[-95.31478,29.23552],[-95.31423,29.23563],[-95.31353,29.23538],[-95.31272,29.23458],[-95.31162,29.23474],[-95.31105,29.23387],[-95.30998,29.23391],[-95.30878,29.2343],[-95.30771,29.23332],[-95.30697,29.23224],[-95.3057,29.23185],[-95.3057,29.23082],[-95.30395,29.23013],[-95.30332,29.22942],[-95.30251,29.22786],[-95.30196,29.22784],[-95.30144,29.22745],[-95.30134,29.22697],[-95.30076,29.22665],[-95.30013,29.2269],[-95.29969,29.22653],[-95.29914,29.22543],[-95.29959,29.22525],[-95.29969,29.22461],[-95.29935,29.22438],[-95.29867,29.22461],[-95.29797,29.22445],[-95.29812,29.22303],[-95.29596,29.22142],[-95.29559,29.22011],[-95.29497,29.21979],[-95.29484,29.21883],[-95.29465,29.21872],[-95.29361,29.21904],[-95.29306,29.21837],[-95.29348,29.2173],[-95.29432,29.21695],[-95.2938,29.21523],[-95.29413,29.21517],[-95.2952,29.21562],[-95.29541,29.21549],[-95.29528,29.21439],[-95.29547,29.2142],[-95.29651,29.21423],[-95.29664,29.21382],[-95.29583,29.21294],[-95.29575,29.21239],[-95.29508,29.21161],[-95.2951,29.21058],[-95.29346,29.2101],[-95.29315,29.20873],[-95.29385,29.20831],[-95.29388,29.20806],[-95.29281,29.20751],[-95.29294,29.20722],[-95.29336,29.20706],[-95.29406,29.20744],[-95.29516,29.20651],[-95.29644,29.20632],[-95.29678,29.20573],[-95.29633,29.20451],[-95.29667,29.20415],[-95.29754,29.20392],[-95.29741,29.20289],[-95.29777,29.20268],[-95.29835,29.20296],[-95.29887,29.20277],[-95.29884,29.20215],[-95.29827,29.20151],[-95.29832,29.20025],[-95.29861,29.20014],[-95.29952,29.20034],[-95.29965,29.2],[-95.29848,29.19879],[-95.29882,29.19759],[-95.29847,29.19689],[-95.29901,29.19663],[-95.29994,29.19659],[-95.30078,29.19595],[-95.3018,29.19581],[-95.30209,29.19558],[-95.30209,29.1951],[-95.30169,29.19459],[-95.30188,29.19416],[-95.30331,29.19418],[-95.30399,29.19389],[-95.3054,29.19377],[-95.306,29.19331],[-95.3071,29.19304],[-95.30825,29.19205],[-95.3107,29.19155],[-95.31177,29.19011],[-95.31303,29.18933],[-95.31308,29.18899],[-95.31222,29.1883],[-95.31233,29.18791],[-95.31452,29.18754],[-95.31896,29.18729],[-95.31935,29.18711],[-95.32055,29.18491],[-95.32039,29.18328],[-95.32068,29.1828],[-95.32186,29.18241],[-95.32233,29.18184],[-95.32348,29.18134],[-95.32457,29.17909],[-95.32504,29.17985],[-95.3259,29.17978],[-95.3264,29.18035],[-95.32721,29.18015],[-95.32742,29.18029],[-95.32744,29.18129],[-95.32765,29.18148],[-95.32841,29.1812],[-95.32872,29.18203],[-95.32932,29.1826],[-95.32922,29.18342],[-95.32985,29.18354],[-95.33039,29.18324],[-95.33071,29.18427],[-95.33165,29.18427],[-95.33157,29.18505],[-95.33235,29.18542],[-95.33353,29.18686],[-95.33473,29.18741],[-95.33486,29.18789],[-95.33551,29.18778],[-95.33629,29.18844],[-95.33726,29.18854],[-95.33794,29.18968],[-95.33838,29.1898],[-95.33856,29.1903],[-95.33945,29.19112],[-95.33961,29.19179],[-95.34026,29.19206],[-95.34047,29.19245],[-95.34144,29.19243],[-95.3418,29.19323],[-95.34322,29.19371],[-95.34401,29.1931],[-95.34519,29.19262],[-95.38159,29.17928],[-95.3891,29.17055],[-95.40196,29.17028],[-95.40219,29.17759],[-95.3876,29.18709],[-95.38781,29.19511],[-95.38831,29.19705],[-95.38959,29.19911],[-95.39182,29.20109],[-95.39484,29.20302],[-95.39171,29.20694],[-95.40904,29.20626],[-95.41173,29.2492],[-95.4468,29.24808],[-95.44964,29.26105],[-95.43458,29.28446],[-95.43477,29.28501],[-95.42945,29.29326],[-95.4274,29.29729],[-95.42624,29.30064],[-95.42538,29.30504],[-95.42523,29.30824],[-95.42546,29.31757],[-95.42063,29.31728],[-95.42043,29.31611],[-95.41847,29.31242],[-95.41729,29.31096]]]}},{"type":"Feature","properties":{"PRECINCT":"brazoria:17","COUNTY":"Brazoria"},"geometry":{"type":"Polygon","coordinates":[[[-95.386,28.97961],[-95.38613,28.97874],[-95.38584,28.97843],[-95.38589,28.97717],[-95.37835,28.9734],[-95.37577,28.97173],[-95.37485,28.96998],[-95.37487,28.96702],[-95.37729,28.95879],[-95.37583,28.95838],[-95.37474,28.9623],[-95.3739,28.96294],[-95.37354,28.96456],[-95.37282,28.96585],[-95.37174,28.96523],[-95.37236,28.96411],[-95.37152,28.96363],[-95.37298,28.96257],[-95.37097,28.96121],[-95.36724,28.9603],[-95.36467,28.95927],[-95.35882,28.95519],[-95.35581,28.95467],[-95.34864,28.95462],[-95.34678,28.95373],[-95.34379,28.95143],[-95.3415,28.95053],[-95.34021,28.95052],[-95.33978,28.95078],[-95.33526,28.9512],[-95.33128,28.95097],[-95.32888,28.95007],[-95.3276,28.94892],[-95.32704,28.94779],[-95.32676,28.94703],[-95.32677,28.94475],[-95.32793,28.94229],[-95.32995,28.9404],[-95.33083,28.93908],[-95.33113,28.93795],[-95.33114,28.9363],[-95.32929,28.93452],[-95.32801,28.93388],[-95.32571,28.93387],[-95.32413,28.93449],[-95.32167,28.93675],[-95.32138,28.93776],[-95.32008,28.93902],[-95.31863,28.94116],[-95.31733,28.94229],[-95.31188,28.94225],[-95.31073,28.94275],[-95.30915,28.94299],[-95.3082,28.94275],[-95.30585,28.94458],[-95.30576,28.9441],[-95.3038,28.94323],[-95.30367,28.94338],[-95.30235,28.94266],[-95.29705,28.93754],[-95.29657,28.93813],[-95.2944,28.93632],[-95.29466,28.93494],[-95.29528,28.93454],[-95.2959,28.93516],[-95.29709,28.93423],[-95.29743,28.93451],[-95.2907,28.92793],[-95.29042,28.92823],[-95.29002,28.9278],[-95.25707,28.89036],[-95.26736,28.88506],[-95.29081,28.87164],[-95.30812,28.85883],[-95.30974,28.85209],[-95.3102,28.85096],[-95.31542,28.84221],[-95.32211,28.83444],[-95.33052,28.82829],[-95.34072,28.82308],[-95.35347,28.81786],[-95.36544,28.81376],[-95.37799,28.81028],[-95.3839,28.80939],[-95.39417,28.807],[-95.40143,28.80594],[-95.40439,28.81263],[-95.42227,28.83724],[-95.43638,28.85855],[-95.44142,28.85714],[-95.43942,28.85921],[-95.43912,28.8611],[-95.43825,28.86192],[-95.43883,28.86292],[-95.43897,28.86482],[-95.43953,28.86596],[-95.43966,28.86824],[-95.43994,28.86875],[-95.44151,28.86989],[-95.44294,28.87002],[-95.44394,28.87104],[-95.44336,28.87167],[-95.43977,28.87368],[-95.42782,28.88133],[-95.42788,28.88174],[-95.42236,28.8851],[-95.42257,28.88522],[-95.4227,28.88671],[-95.42265,28.88955],[-95.4229,28.88956],[-95.42245,28.89071],[-95.42164,28.89171],[-95.42192,28.89227],[-95.42177,28.89278],[-95.42196,28.89387],[-95.42186,28.89443],[-95.42161,28.8945],[-95.42102,28.89842],[-95.42138,28.89958],[-95.42211,28.90016],[-95.42104,28.90055],[-95.42107,28.90091],[-95.42167,28.90169],[-95.42164,28.90204],[-95.42224,28.90215],[-95.423,28.90183],[-95.42302,28.90213],[-95.42334,28.90226],[-95.42328,28.90327],[-95.42388,28.90522],[-95.42474,28.90602],[-95.42592,28.90586],[-95.42633,28.90705],[-95.42623,28.90762],[-95.42519,28.90877],[-95.42438,28.90891],[-95.42425,28.90836],[-95.42404,28.90815],[-95.42373,28.90822],[-95.42335,28.91004],[-95.42329,28.91326],[-95.42287,28.91324],[-95.42217,28.91276],[-95.42131,28.91308],[-95.42097,28.91356],[-95.4211,28.91388],[-95.42178,28.9142],[-95.42112,28.91554],[-95.4212,28.9182],[-95.42064,28.91968],[-95.42027,28.91984],[-95.41905,28.91929],[-95.41829,28.91929],[-95.41759,28.92017],[-95.41885,28.92169],[-95.41955,28.92304],[-95.42052,28.92354],[-95.42108,28.9241],[-95.42268,28.92431],[-95.42301,28.92602],[-95.42401,28.92702],[-95.42404,28.92794],[-95.42298,28.92902],[-95.42331,28.92988],[-95.42338,28.931],[-95.4227,28.93199],[-95.4225,28.9337],[-95.42062,28.93553],[-95.42032,28.93655],[-95.42083,28.938],[-95.42154,28.93817],[-95.42119,28.93842],[-95.42083,28.9394],[-95.42014,28.93936],[-95.41963,28.94005],[-95.42023,28.9414],[-95.42036,28.94273],[-95.41802,28.94442],[-95.41771,28.9455],[-95.41802,28.94616],[-95.4188,28.94657],[-95.41867,28.94786],[-95.41912,28.94857],[-95.41987,28.94873],[-95.4203,28.94838],[-95.42132,28.94838],[-95.42195,28.9486],[-95.42296,28.95016],[-95.42426,28.95105],[-95.42593,28.9517],[-95.42611,28.95238],[-95.42598,28.95413],[-95.42547,28.95576],[-95.42555,28.95629],[-95.42596,28.95641],[-95.42572,28.95682],[-95.42653,28.95704],[-95.42707,28.95754],[-95.42782,28.95906],[-95.42812,28.95913],[-95.42819,28.95954],[-95.42905,28.96032],[-95.42795,28.96131],[-95.42871,28.96228],[-95.42907,28.96319],[-95.42852,28.96429],[-95.42897,28.96583],[-95.42883,28.96645],[-95.42843,28.96689],[-95.42852,28.96767],[-95.42998,28.96793],[-95.43089,28.96886],[-95.43098,28.96934],[-95.42409,28.96936],[-95.42046,28.96901],[-95.41744,28.96841],[-95.41778,28.97938],[-95.4175,28.98009],[-95.4153,28.97962],[-95.40797,28.98055],[-95.40654,28.98001],[-95.40594,28.97909],[-95.40568,28.97714],[-95.40514,28.97588],[-95.40338,28.9749],[-95.40135,28.97469],[-95.39837,28.97555],[-95.39654,28.97709],[-95.39576,28.97869],[-95.39547,28.98009],[-95.39414,28.98125],[-95.39338,28.98137],[-95.39432,28.98266],[-95.3941,28.9829],[-95.39342,28.98274],[-95.39316,28.98239],[-95.39162,28.98205],[-95.39013,28.98118],[-95.38667,28.9785],[-95.38633,28.97868],[-95.38587,28.98011],[-95.38539,28.98063],[-95.37763,28.98418],[-95.37754,28.98401],[-95.38434,28.98105],[-95.38539,28.98039],[-95.386,28.97961]]]}},{"type":"Feature","properties":{"PRECINCT":"brazoria:19","COUNTY":"Brazoria"},"geometry":{"type":"Polygon","coordinates":[[[-95.40483,29.03145],[-95.40458,29.03146],[-95.40399,29.03078],[-95.3797,29.00221],[-95.38523,29.00474],[-95.3887,29.00477],[-95.38715,29.00141],[-95.38593,28.99961],[-95.37763,28.98418],[-95.38539,28.98063],[-95.38587,28.98011],[-95.38633,28.97868],[-95.38667,28.9785],[-95.39013,28.98118],[-95.39162,28.98205],[-95.39316,28.98239],[-95.39342,28.98274],[-95.3941,28.9829],[-95.39432,28.98266],[-95.39338,28.98137],[-95.39414,28.98125],[-95.39547,28.98009],[-95.39576,28.97869],[-95.39654,28.97709],[-95.39837,28.97555],[-95.40135,28.97469],[-95.40338,28.9749],[-95.40514,28.97588],[-95.40568,28.97714],[-95.40594,28.97909],[-95.40654,28.98001],[-95.40797,28.98055],[-95.4153,28.97962],[-95.41854,28.98032],[-95.42084,28.98198],[-95.42565,28.98749],[-95.43151,28.99218],[-95.43309,28.99447],[-95.43384,28.99656],[-95.43387,29.00103],[-95.43483,29.00206],[-95.43615,29.00256],[-95.43611,29.00329],[-95.43724,29.00436],[-95.43744,29.00493],[-95.43736,29.00536],[-95.43585,29.00629],[-95.43571,29.00677],[-95.43542,29.00663],[-95.43198,29.01372],[-95.43148,29.01402],[-95.43123,29.01493],[-95.43014,29.01405],[-95.42856,29.01319],[-95.42132,29.01049],[-95.42156,29.01974],[-95.42024,29.01933],[-95.42141,29.02469],[-95.42162,29.02738],[-95.42105,29.02739],[-95.42107,29.02789],[-95.41634,29.02793],[-95.41264,29.02861],[-95.41314,29.02638],[-95.40982,29.02641],[-95.40775,29.03187],[-95.40614,29.03294],[-95.40483,29.03145]]]}},{"type":"Feature","properties":{"PRECINCT":"brazoria:2","COUNTY":"Brazoria"},"geometry":{"type":"Polygon","coordinates":[[[-95.83786,29.25118],[-95.83716,29.25101],[-95.83567,29.25122],[-95.83406,29.24973],[-95.83244,29.2493],[-95.82505,29.24995],[-95.82406,29.24988],[-95.82262,29.24926],[-95.81973,29.24853],[-95.81199,29.24766],[-95.80991,29.24704],[-95.80831,29.24591],[-95.80675,29.24566],[-95.80602,29.24532],[-95.80343,29.24378],[-95.80309,29.24258],[-95.80119,29.23902],[-95.7997,29.23796],[-95.79824,29.23757],[-95.79739,29.23677],[-95.79713,29.23565],[-95.79412,29.23159],[-95.79315,29.22921],[-95.79203,29.22786],[-95.78978,29.22735],[-95.78693,29.22895],[-95.78584,29.22879],[-95.78482,29.22822],[-95.78346,29.22687],[-95.78305,29.22607],[-95.78307,29.22458],[-95.78287,29.22398],[-95.78167,29.22279],[-95.78075,29.22114],[-95.77947,29.21965],[-95.77819,29.21892],[-95.77626,29.21876],[-95.77399,29.2177],[-95.77376,29.21711],[-95.77384,29.2161],[-95.77554,29.21404],[-95.77556,29.21296],[-95.77395,29.21039],[-95.77181,29.20824],[-95.77168,29.20705],[-95.77189,29.2051],[-95.7716,29.20375],[-95.77163,29.20109],[-95.77315,29.19954],[-95.77338,29.19867],[-95.77302,29.19743],[-95.77208,29.19593],[-95.77178,29.19479],[-95.77231,29.19366],[-95.77409,29.19154],[-95.77704,29.19045],[-95.77837,29.1891],[-95.77856,29.18676],[-95.77788,29.18568],[-95.77157,29.18229],[-95.77042,29.18091],[-95.77032,29.18004],[-95.77061,29.17949],[-95.77275,29.17835],[-95.77306,29.17778],[-95.77286,29.17585],[-95.77267,29.17544],[-95.77129,29.17452],[-95.76951,29.17427],[-95.76873,29.17324],[-95.76865,29.17104],[-95.76764,29.16941],[-95.76725,29.16795],[-95.76621,29.16609],[-95.76519,29.16314],[-95.76522,29.16254],[-95.76584,29.16139],[-95.76587,29.16041],[-95.76448,29.16078],[-95.7624,29.16078],[-95.75703,29.15896],[-95.72877,29.18461],[-95.69734,29.21372],[-95.69719,29.2172],[-95.63874,29.21753],[-95.63743,29.2173],[-95.63676,29.21695],[-95.6359,29.21598],[-95.63532,29.21385],[-95.63496,29.21333],[-95.62597,29.20529],[-95.6255,29.2046],[-95.62595,29.18646],[-95.62556,29.18602],[-95.62498,29.1859],[-95.61894,29.18598],[-95.61899,29.18052],[-95.61974,29.17367],[-95.61956,29.1728],[-95.61902,29.17199],[-95.63629,29.17181],[-95.63629,29.16855],[-95.64376,29.16832],[-95.64133,29.16619],[-95.63937,29.16706],[-95.63628,29.16239],[-95.63745,29.16181],[-95.63679,29.16127],[-95.63608,29.16097],[-95.63269,29.16077],[-95.63222,29.16047],[-95.63183,29.15969],[-95.63112,29.15939],[-95.63125,29.15857],[-95.63068,29.15825],[-95.6306,29.15772],[-95.6299,29.15689],[-95.62992,29.15566],[-95.62909,29.15444],[-95.62591,29.15401],[-95.62473,29.15344],[-95.62243,29.15374],[-95.62087,29.15268],[-95.62003,29.15238],[-95.61935,29.15156],[-95.61891,29.15151],[-95.61805,29.15188],[-95.61747,29.15096],[-95.61635,29.15053],[-95.61364,29.14865],[-95.61199,29.14817],[-95.6115,29.1475],[-95.61182,29.14586],[-95.60977,29.1459],[-95.60847,29.14564],[-95.60623,29.14458],[-95.60811,29.14237],[-95.60923,29.14159],[-95.61066,29.14116],[-95.61523,29.14049],[-95.61685,29.13926],[-95.61847,29.13665],[-95.62125,29.12831],[-95.62092,29.12777],[-95.62165,29.12244],[-95.62174,29.11869],[-95.62146,29.1165],[-95.62274,29.10953],[-95.62223,29.1083],[-95.6196,29.1059],[-95.61462,29.10375],[-95.61382,29.10285],[-95.61382,29.10214],[-95.61521,29.1],[-95.61601,29.10061],[-95.61667,29.1007],[-95.61667,29.10148],[-95.61844,29.10258],[-95.61909,29.10261],[-95.62021,29.10226],[-95.6217,29.10254],[-95.63237,29.10228],[-95.63399,29.10165],[-95.64546,29.12298],[-95.64705,29.12293],[-95.64714,29.12312],[-95.64742,29.12285],[-95.64753,29.12159],[-95.64841,29.11964],[-95.65118,29.11772],[-95.65162,29.11765],[-95.65227,29.11831],[-95.65376,29.11859],[-95.65454,29.11813],[-95.65663,29.11776],[-95.65697,29.11834],[-95.65804,29.11895],[-95.65848,29.11854],[-95.65971,29.11825],[-95.66078,29.11845],[-95.66122,29.1176],[-95.66242,29.11728],[-95.66333,29.11616],[-95.66422,29.11616],[-95.66459,29.11588],[-95.66495,29.11618],[-95.66534,29.11618],[-95.66709,29.11549],[-95.66952,29.11556],[-95.66991,29.11531],[-95.67038,29.11439],[-95.67103,29.1146],[-95.67241,29.11435],[-95.6739,29.11219],[-95.67609,29.11169],[-95.67791,29.11198],[-95.68081,29.11297],[-95.68287,29.11448],[-95.68493,29.11661],[-95.69305,29.11901],[-95.69576,29.12054],[-95.69634,29.12036],[-95.69684,29.11985],[-95.69694,29.11754],[-95.69763,29.11639],[-95.69803,29.11613],[-95.69918,29.11573],[-95.70129,29.11568],[-95.7028,29.11596],[-95.70486,29.11667],[-95.70706,29.11651],[-95.70834,29.11721],[-95.70911,29.11903],[-95.70924,29.12327],[-95.71022,29.12666],[-95.71009,29.128],[-95.70868,29.1294],[-95.70848,29.1305],[-95.75025,29.09315],[-95.75269,29.09423],[-95.75313,29.0948],[-95.75896,29.09963],[-95.76431,29.09428],[-95.78994,29.07065],[-95.79162,29.07112],[-95.79263,29.07201],[-95.79343,29.07222],[-95.79393,29.07322],[-95.79512,29.0743],[-95.7953,29.07672],[-95.79674,29.07812],[-95.79708,29.0801],[-95.79753,29.08031],[-95.79903,29.08021],[-95.80084,29.07971],[-95.80147,29.07999],[-95.80162,29.08047],[-95.80126,29.08219],[-95.80142,29.08245],[-95.80224,29.0827],[-95.80339,29.084],[-95.80355,29.08449],[-95.80368,29.088],[-95.80554,29.0897],[-95.8059,29.09054],[-95.80669,29.09047],[-95.80716,29.09074],[-95.80761,29.0907],[-95.80798,29.09118],[-95.80876,29.09128],[-95.81024,29.09031],[-95.81151,29.08983],[-95.81413,29.09003],[-95.81587,29.08969],[-95.81649,29.08984],[-95.81776,29.08948],[-95.8198,29.09049],[-95.82213,29.09068],[-95.82552,29.0903],[-95.82676,29.08968],[-95.82809,29.08976],[-95.82912,29.08892],[-95.83176,29.09133],[-95.83203,29.09188],[-95.832,29.09253],[-95.83285,29.09293],[-95.834,29.09407],[-95.83443,29.09399],[-95.83549,29.09283],[-95.83602,29.09269],[-95.83645,29.09285],[-95.83853,29.09509],[-95.83904,29.0976],[-95.83999,29.09819],[-95.8415,29.09862],[-95.84189,29.09909],[-95.84213,29.10015],[-95.84105,29.10045],[-95.84091,29.10085],[-95.84142,29.10153],[-95.84293,29.10262],[-95.8429,29.10387],[-95.84357,29.10545],[-95.8432,29.10657],[-95.84372,29.10702],[-95.84511,29.10676],[-95.84593,29.10693],[-95.84638,29.10743],[-95.84631,29.1078],[-95.8447,29.10923],[-95.8438,29.11044],[-95.84358,29.11098],[-95.84361,29.11278],[-95.84272,29.11336],[-95.84226,29.11409],[-95.84112,29.11426],[-95.8408,29.11469],[-95.84082,29.11519],[-95.84223,29.1162],[-95.84243,29.11667],[-95.84158,29.11735],[-95.8415,29.11914],[-95.84076,29.12008],[-95.84045,29.12146],[-95.84042,29.122],[-95.84095,29.12279],[-95.84083,29.12399],[-95.83896,29.12717],[-95.8385,29.12864],[-95.83754,29.12991],[-95.83795,29.13125],[-95.83776,29.13356],[-95.8384,29.13575],[-95.83832,29.13681],[-95.8393,29.13808],[-95.83934,29.13873],[-95.84002,29.14018],[-95.83988,29.14226],[-95.84061,29.14271],[-95.84272,29.1423],[-95.8433,29.14237],[-95.84361,29.14266],[-95.84374,29.14407],[-95.84475,29.14523],[-95.8472,29.14581],[-95.84806,29.14623],[-95.84813,29.14823],[-95.84882,29.14918],[-95.84922,29.14934],[-95.84976,29.15072],[-95.8507,29.15188],[-95.85062,29.15291],[-95.84901,29.15478],[-95.84954,29.15568],[-95.85049,29.15649],[-95.85049,29.15692],[-95.84989,29.15761],[-95.85019,29.15994],[-95.84936,29.16043],[-95.84867,29.15998],[-95.84813,29.15991],[-95.8477,29.16035],[-95.84811,29.16235],[-95.84808,29.16336],[-95.84895,29.16438],[-95.84891,29.165],[-95.84838,29.16542],[-95.84738,29.16536],[-95.84674,29.16555],[-95.84654,29.1662],[-95.847,29.16707],[-95.84688,29.16747],[-95.84661,29.16764],[-95.84519,29.16756],[-95.84321,29.16904],[-95.8418,29.16825],[-95.84027,29.16809],[-95.83983,29.16831],[-95.83954,29.169],[-95.84028,29.16997],[-95.84043,29.17104],[-95.84011,29.17167],[-95.83945,29.1721],[-95.83941,29.17267],[-95.83981,29.17294],[-95.84089,29.17303],[-95.84171,29.17352],[-95.83837,29.17656],[-95.8578,29.19331],[-95.84467,29.20468],[-95.87403,29.2297],[-95.84195,29.25871],[-95.8424,29.25737],[-95.84193,29.25524],[-95.83993,29.25255],[-95.83786,29.25118]]]}},{"type":"Feature","properties":{"PRECINCT":"brazoria:20","COUNTY":"Brazoria"},"geometry":{"type":"Polygon","coordinates":[[[-95.47663,29.02643],[-95.47559,29.02567],[-95.47361,29.0248],[-95.47184,29.02458],[-95.46344,29.02564],[-95.46161,29.02474],[-95.46075,29.02344],[-95.45873,29.01841],[-95.45489,29.01317],[-95.45306,29.00879],[-95.44834,29.00206],[-95.44861,29.00152],[-95.44737,29.00026],[-95.44581,28.99916],[-95.44335,28.99834],[-95.4419,28.99836],[-95.44015,28.99889],[-95.43916,28.99958],[-95.43802,29.00129],[-95.43692,29.00203],[-95.43627,29.00205],[-95.43499,29.00129],[-95.43448,29.00075],[-95.43467,28.99704],[-95.43439,28.99564],[-95.43259,28.99239],[-95.43089,28.99079],[-95.42896,28.98955],[-95.42542,28.98635],[-95.42221,28.98252],[-95.41887,28.97991],[-95.41778,28.97938],[-95.41744,28.96841],[-95.42046,28.96901],[-95.42546,28.96942],[-95.44079,28.96917],[-95.4446,28.96939],[-95.44393,28.96789],[-95.44554,28.96759],[-95.44465,28.9654],[-95.45238,28.96283],[-95.45368,28.96627],[-95.46398,28.96422],[-95.46648,28.96535],[-95.46587,28.96626],[-95.4692,28.9676],[-95.46677,28.97201],[-95.47419,28.97508],[-95.47283,28.97755],[-95.48155,28.98098],[-95.4814,28.9735],[-95.4888,28.97483],[-95.48923,28.97467],[-95.48907,28.96978],[-95.49033,28.96803],[-95.49385,28.96796],[-95.49383,28.96655],[-95.49532,28.96652],[-95.49537,28.96793],[-95.49501,28.96794],[-95.49573,28.98395],[-95.51127,28.98352],[-95.51122,28.98259],[-95.51302,28.9825],[-95.51313,28.98504],[-95.5158,28.98552],[-95.50741,28.99102],[-95.50521,28.99217],[-95.49676,28.99561],[-95.49549,28.99642],[-95.49387,28.99796],[-95.48668,29.00841],[-95.47711,29.02635],[-95.47686,29.02611],[-95.47663,29.02643]]]}},{"type":"Feature","properties":{"PRECINCT":"brazoria:21","COUNTY":"Brazoria"},"geometry":{"type":"Polygon","coordinates":[[[-95.44334,29.49806],[-95.43845,29.49773],[-95.42182,29.49808],[-95.41572,29.49793],[-95.41497,29.46834],[-95.41342,29.46838],[-95.41288,29.4688],[-95.41238,29.46854],[-95.41487,29.46539],[-95.41485,29.46475],[-95.42127,29.45667],[-95.42363,29.45303],[-95.42577,29.44814],[-95.42695,29.44294],[-95.42717,29.43983],[-95.42704,29.42638],[-95.42749,29.42638],[-95.4275,29.42457],[-95.42685,29.36733],[-95.42709,29.36074],[-95.46,29.36036],[-95.46001,29.37478],[-95.46147,29.37484],[-95.46182,29.39203],[-95.46144,29.39204],[-95.46158,29.40149],[-95.46198,29.40149],[-95.46226,29.41999],[-95.46187,29.42533],[-95.46208,29.43907],[-95.4626,29.43924],[-95.4463,29.49964],[-95.44334,29.49806]]]}},{"type":"Feature","properties":{"PRECINCT":"brazoria:22","COUNTY":"Brazoria"},"geometry":{"type":"Polygon","coordinates":[[[-95.42464,29.05461],[-95.4203,29.04956],[-95.41957,29.05005],[-95.42181,29.05292],[-95.42215,29.05493],[-95.4217,29.05613],[-95.42059,29.05684],[-95.41875,29.05721],[-95.41634,29.05718],[-95.41486,29.05658],[-95.41288,29.05507],[-95.41035,29.054],[-95.40902,29.05308],[-95.40803,29.05191],[-95.407,29.04941],[-95.40439,29.04563],[-95.41002,29.04433],[-95.4142,29.0404],[-95.41559,29.03965],[-95.41657,29.03965],[-95.42125,29.04048],[-95.43417,29.04026],[-95.4369,29.04046],[-95.43633,29.04286],[-95.43662,29.04951],[-95.43786,29.05206],[-95.43785,29.05595],[-95.43825,29.05694],[-95.43848,29.05893],[-95.43841,29.06113],[-95.43942,29.06359],[-95.42686,29.06453],[-95.42649,29.05867],[-95.42592,29.05656],[-95.42464,29.05461]]]}},{"type":"Feature","properties":{"PRECINCT":"brazoria:23","COUNTY":"Brazoria"},"geometry":{"type":"Polygon","coordinates":[[[-95.45483,29.04702],[-95.4369,29.04046],[-95.43584,29.04026],[-95.4227,29.04046],[-95.42269,29.03946],[-95.422,29.03757],[-95.42183,29.0293],[-95.42141,29.02469],[-95.42024,29.01933],[-95.42156,29.01974],[-95.42132,29.01049],[-95.42856,29.01319],[-95.43014,29.01405],[-95.43123,29.01493],[-95.42826,29.02097],[-95.434,29.0219],[-95.43516,29.0225],[-95.43613,29.0236],[-95.43651,29.02344],[-95.43905,29.02856],[-95.4407,29.03059],[-95.44701,29.03476],[-95.44683,29.03488],[-95.45029,29.03653],[-95.45225,29.03798],[-95.45378,29.04006],[-95.45362,29.04014],[-95.45409,29.04167],[-95.45483,29.04702]]]}},{"type":"Feature","properties":{"PRECINCT":"brazoria:30","COUNTY":"Brazoria"},"geometry":{"type":"Polygon","coordinates":[[[-95.44182,29.11225],[-95.4417,29.1041],[-95.4412,29.10404],[-95.44121,29.10165],[-95.43475,29.10171],[-95.43412,29.0685],[-95.43061,29.06843],[-95.42992,29.0686],[-95.42909,29.06786],[-95.42789,29.06796],[-95.4276,29.06778],[-95.42712,29.06826],[-95.42686,29.06453],[-95.44744,29.06318],[-95.44916,29.06277],[-95.44981,29.06253],[-95.44962,29.05951],[-95.44988,29.05974],[-95.45136,29.0596],[-95.45325,29.05868],[-95.45413,29.058],[-95.45651,29.05478],[-95.45717,29.05437],[-95.45866,29.05398],[-95.46162,29.05398],[-95.46914,29.05001],[-95.47086,29.04826],[-95.47185,29.04557],[-95.471,29.03919],[-95.47131,29.03699],[-95.47671,29.0271],[-95.47788,29.02928],[-95.47778,29.02971],[-95.47819,29.03137],[-95.47896,29.03206],[-95.47986,29.03203],[-95.48417,29.02895],[-95.48694,29.0282],[-95.48815,29.02828],[-95.48928,29.02887],[-95.49004,29.03011],[-95.49105,29.03308],[-95.49192,29.03432],[-95.49295,29.03492],[-95.49444,29.035],[-95.49581,29.0344],[-95.49656,29.03286],[-95.49705,29.02578],[-95.49794,29.02465],[-95.49907,29.02465],[-95.50058,29.02522],[-95.5022,29.02692],[-95.50333,29.03064],[-95.50334,29.03344],[-95.50406,29.03545],[-95.50622,29.0374],[-95.50909,29.03849],[-95.51201,29.03802],[-95.51347,29.03688],[-95.51439,29.03378],[-95.51449,29.03117],[-95.51485,29.03048],[-95.51729,29.02904],[-95.51973,29.02905],[-95.52156,29.0299],[-95.52329,29.03167],[-95.52466,29.03505],[-95.5257,29.0359],[-95.52735,29.03637],[-95.52936,29.0363],[-95.53075,29.03592],[-95.53467,29.03587],[-95.53736,29.03756],[-95.53753,29.03971],[-95.53498,29.04292],[-95.53376,29.04391],[-95.53332,29.04506],[-95.53314,29.04614],[-95.53339,29.04752],[-95.53486,29.04967],[-95.53616,29.05052],[-95.53764,29.05099],[-95.5386,29.05084],[-95.54157,29.04947],[-95.54384,29.04802],[-95.54506,29.04764],[-95.54628,29.04788],[-95.55027,29.05127],[-95.55748,29.05445],[-95.55921,29.05599],[-95.56069,29.05791],[-95.5617,29.06328],[-95.56239,29.06474],[-95.56378,29.06582],[-95.56813,29.0673],[-95.56917,29.06845],[-95.57271,29.07445],[-95.57401,29.07622],[-95.57782,29.07999],[-95.58085,29.0836],[-95.58542,29.08782],[-95.58456,29.08883],[-95.58375,29.09142],[-95.58242,29.09195],[-95.58101,29.09204],[-95.57981,29.09277],[-95.58057,29.09378],[-95.58167,29.09449],[-95.58284,29.09573],[-95.54635,29.09628],[-95.54625,29.09614],[-95.54566,29.0972],[-95.52317,29.09709],[-95.52329,29.11062],[-95.45286,29.11141],[-95.45224,29.11152],[-95.45215,29.1121],[-95.44182,29.11225]]]}},{"type":"Feature","properties":{"PRECINCT":"brazoria:31","COUNTY":"Brazoria"},"geometry":{"type":"Polygon","coordinates":[[[-95.44461,29.15018],[-95.43527,29.15624],[-95.43533,29.1547],[-95.43402,29.15504],[-95.43234,29.155],[-95.42963,29.11267],[-95.42963,29.1121],[-95.42999,29.11151],[-95.42995,29.11068],[-95.42712,29.06826],[-95.4276,29.06778],[-95.42789,29.06796],[-95.42909,29.06786],[-95.42992,29.0686],[-95.43061,29.06843],[-95.43412,29.0685],[-95.43475,29.10171],[-95.44121,29.10165],[-95.4412,29.10404],[-95.4417,29.1041],[-95.44182,29.11225],[-95.45215,29.1121],[-95.45224,29.11152],[-95.45286,29.11141],[-95.52329,29.11062],[-95.52317,29.09709],[-95.54566,29.0972],[-95.54625,29.09614],[-95.54635,29.09628],[-95.58284,29.09573],[-95.58167,29.09449],[-95.58057,29.09378],[-95.57981,29.09277],[-95.58101,29.09204],[-95.58242,29.09195],[-95.58375,29.09142],[-95.58456,29.08883],[-95.58542,29.08782],[-95.58085,29.0836],[-95.57782,29.07999],[-95.57401,29.07622],[-95.57271,29.07445],[-95.56917,29.06845],[-95.56813,29.0673],[-95.56378,29.06582],[-95.56239,29.06474],[-95.5617,29.06328],[-95.56153,29.06228],[-95.56114,29.05977],[-95.56153,29.05938],[-95.56204,29.06282],[-95.56272,29.06441],[-95.56332,29.06505],[-95.56408,29.06544],[-95.56731,29.0664],[-95.56903,29.06768],[-95.57002,29.06892],[-95.57424,29.07598],[-95.57786,29.07944],[-95.5813,29.08352],[-95.5884,29.08957],[-95.58941,29.08991],[-95.59019,29.08982],[-95.59111,29.08955],[-95.5928,29.08849],[-95.59421,29.0881],[-95.59742,29.08929],[-95.60488,29.09342],[-95.60845,29.09397],[-95.61463,29.09397],[-95.6157,29.0942],[-95.61628,29.09463],[-95.61727,29.09647],[-95.61703,29.0983],[-95.6158,29.10036],[-95.61521,29.1],[-95.61382,29.10214],[-95.61382,29.10285],[-95.61462,29.10375],[-95.6196,29.1059],[-95.62223,29.1083],[-95.62274,29.10953],[-95.62146,29.1165],[-95.62174,29.11869],[-95.62165,29.12244],[-95.62092,29.12777],[-95.62125,29.12831],[-95.6204,29.13129],[-95.61813,29.13738],[-95.61614,29.13997],[-95.61523,29.14049],[-95.61066,29.14116],[-95.60923,29.14159],[-95.60811,29.14237],[-95.60623,29.14458],[-95.60569,29.14427],[-95.60791,29.14169],[-95.61039,29.14081],[-95.61408,29.14036],[-95.61476,29.14009],[-95.61414,29.13909],[-95.61327,29.13855],[-95.6121,29.13829],[-95.60761,29.1393],[-95.60265,29.13985],[-95.58036,29.14093],[-95.57575,29.14162],[-95.56999,29.14283],[-95.55998,29.1424],[-95.55994,29.14172],[-95.56114,29.14067],[-95.56119,29.1387],[-95.56208,29.13661],[-95.56433,29.13267],[-95.56474,29.13128],[-95.57453,29.13112],[-95.57456,29.12981],[-95.575,29.12853],[-95.57484,29.125],[-95.57355,29.12515],[-95.5729,29.12552],[-95.57068,29.12851],[-95.56843,29.12868],[-95.5675,29.1282],[-95.56896,29.12672],[-95.56946,29.12589],[-95.56955,29.125],[-95.56898,29.12388],[-95.56938,29.12313],[-95.56933,29.12114],[-95.57007,29.11927],[-95.56991,29.11884],[-95.56879,29.11823],[-95.56612,29.11844],[-95.56569,29.11721],[-95.56833,29.11685],[-95.56864,29.11662],[-95.56869,29.11613],[-95.56817,29.11558],[-95.56293,29.11533],[-95.56008,29.11482],[-95.55774,29.11382],[-95.55703,29.11327],[-95.55701,29.11228],[-95.55599,29.11139],[-95.55513,29.11178],[-95.55221,29.11122],[-95.54034,29.11136],[-95.53736,29.11603],[-95.53456,29.11465],[-95.51266,29.14853],[-95.50455,29.15083],[-95.49443,29.15631],[-95.49157,29.15701],[-95.47088,29.159],[-95.45209,29.16369],[-95.4403,29.16388],[-95.4402,29.15344],[-95.44462,29.15051],[-95.44461,29.15018]]]}},{"type":"Feature","properties":{"PRECINCT":"brazoria:32","COUNTY":"Brazoria"},"geometry":{"type":"Polygon","coordinates":[[[-95.64679,29.12291],[-95.64546,29.12298],[-95.63399,29.10165],[-95.63237,29.10228],[-95.6217,29.10254],[-95.62021,29.10226],[-95.61909,29.10261],[-95.61844,29.10258],[-95.61667,29.10148],[-95.6168,29.10084],[-95.6158,29.10036],[-95.61703,29.0983],[-95.61727,29.09647],[-95.61628,29.09463],[-95.6157,29.0942],[-95.61463,29.09397],[-95.60845,29.09397],[-95.60488,29.09342],[-95.59742,29.08929],[-95.59421,29.0881],[-95.5928,29.08849],[-95.59111,29.08955],[-95.59019,29.08982],[-95.58941,29.08991],[-95.5884,29.08957],[-95.5813,29.08352],[-95.57786,29.07944],[-95.57424,29.07598],[-95.57002,29.06892],[-95.56903,29.06768],[-95.56731,29.0664],[-95.56408,29.06544],[-95.56332,29.06505],[-95.56272,29.06441],[-95.56204,29.06282],[-95.56153,29.05938],[-95.56404,29.05701],[-95.56594,29.05855],[-95.56551,29.05874],[-95.56709,29.06003],[-95.56945,29.05995],[-95.56944,29.0592],[-95.57124,29.05914],[-95.57124,29.05988],[-95.57142,29.05996],[-95.5746,29.05985],[-95.57459,29.0584],[-95.58008,29.05835],[-95.58007,29.05807],[-95.58094,29.05799],[-95.58092,29.05737],[-95.58213,29.05734],[-95.58203,29.0565],[-95.58302,29.05643],[-95.58287,29.05079],[-95.57578,29.05092],[-95.57528,29.04628],[-95.57548,29.04626],[-95.57512,29.04501],[-95.61857,29.04158],[-95.62125,29.04178],[-95.62114,29.04356],[-95.62227,29.04736],[-95.6237,29.04837],[-95.6247,29.04875],[-95.62657,29.04901],[-95.62887,29.04902],[-95.63089,29.0484],[-95.63275,29.0484],[-95.6349,29.04904],[-95.63734,29.04905],[-95.63878,29.0483],[-95.64051,29.04691],[-95.64108,29.04604],[-95.64167,29.04413],[-95.64282,29.04287],[-95.64354,29.04262],[-95.64598,29.04263],[-95.64804,29.04313],[-95.65207,29.04453],[-95.65418,29.04407],[-95.65671,29.04293],[-95.65793,29.04284],[-95.66281,29.04389],[-95.66638,29.04693],[-95.66758,29.04872],[-95.66925,29.05277],[-95.67233,29.05754],[-95.67262,29.0587],[-95.67257,29.05962],[-95.67178,29.06178],[-95.67171,29.06303],[-95.67403,29.07217],[-95.67526,29.07407],[-95.67766,29.07611],[-95.6781,29.0779],[-95.67852,29.07831],[-95.67912,29.07826],[-95.68074,29.07753],[-95.68134,29.07751],[-95.68251,29.07806],[-95.6828,29.07913],[-95.68103,29.08273],[-95.68024,29.08351],[-95.67552,29.08498],[-95.67018,29.08956],[-95.66948,29.09133],[-95.66953,29.09238],[-95.67047,29.09423],[-95.67052,29.09485],[-95.66982,29.09572],[-95.66693,29.09728],[-95.66604,29.09843],[-95.66573,29.09944],[-95.66601,29.10099],[-95.66672,29.10184],[-95.66844,29.10262],[-95.66899,29.10319],[-95.66852,29.10619],[-95.66964,29.108],[-95.66996,29.10899],[-95.66985,29.11075],[-95.67006,29.11142],[-95.66975,29.11352],[-95.67038,29.11439],[-95.66991,29.11531],[-95.66952,29.11556],[-95.66709,29.11549],[-95.66534,29.11618],[-95.66495,29.11618],[-95.66459,29.11588],[-95.66422,29.11616],[-95.66333,29.11616],[-95.66242,29.11728],[-95.66122,29.1176],[-95.66078,29.11845],[-95.65971,29.11825],[-95.65848,29.11854],[-95.65804,29.11895],[-95.65697,29.11834],[-95.65663,29.11776],[-95.65454,29.11813],[-95.65376,29.11859],[-95.65227,29.11831],[-95.65162,29.11765],[-95.65118,29.11772],[-95.64841,29.11964],[-95.64753,29.12159],[-95.64742,29.12285],[-95.64714,29.12312],[-95.64679,29.12291]]]}},{"type":"Feature","properties":{"PRECINCT":"brazoria:33","COUNTY":"Brazoria"},"geometry":{"type":"Polygon","coordinates":[[[-95.58824,29.00914],[-95.58993,29.00524],[-95.58999,29.00412],[-95.58894,29.00215],[-95.58751,29.00048],[-95.58634,28.99769],[-95.58663,28.99519],[-95.58772,28.99182],[-95.58772,28.9904],[-95.58707,28.98926],[-95.58499,28.9871],[-95.58407,28.98685],[-95.58165,28.98692],[-95.57881,28.98667],[-95.57399,28.98499],[-95.56998,28.9841],[-95.56831,28.98311],[-95.56748,28.98187],[-95.5668,28.97915],[-95.56568,28.97809],[-95.56269,28.97608],[-95.56245,28.97537],[-95.56243,28.97408],[-95.56279,28.97237],[-95.56569,28.96953],[-95.56634,28.96834],[-95.56621,28.96756],[-95.56571,28.96685],[-95.56186,28.9643],[-95.56069,28.96398],[-95.55764,28.96407],[-95.55532,28.96343],[-95.55311,28.96196],[-95.55173,28.96148],[-95.5504,28.9607],[-95.54985,28.95983],[-95.5498,28.95914],[-95.55006,28.95855],[-95.55071,28.95795],[-95.55561,28.95736],[-95.55754,28.95656],[-95.55845,28.95555],[-95.55874,28.95431],[-95.55853,28.95333],[-95.55549,28.94976],[-95.51886,28.98333],[-95.5158,28.98552],[-95.51313,28.98504],[-95.51302,28.9825],[-95.51122,28.98259],[-95.51127,28.98352],[-95.49573,28.98395],[-95.49501,28.96794],[-95.49537,28.96793],[-95.49532,28.96652],[-95.49383,28.96655],[-95.49385,28.96796],[-95.49033,28.96803],[-95.48907,28.96978],[-95.48923,28.97467],[-95.4888,28.97483],[-95.4814,28.9735],[-95.48155,28.98098],[-95.47283,28.97755],[-95.47419,28.97508],[-95.46677,28.97201],[-95.4692,28.9676],[-95.46587,28.96626],[-95.46648,28.96535],[-95.46398,28.96422],[-95.45368,28.96627],[-95.45238,28.96283],[-95.44465,28.9654],[-95.44554,28.96759],[-95.44393,28.96789],[-95.4446,28.96939],[-95.44079,28.96917],[-95.43098,28.96934],[-95.43089,28.96886],[-95.42998,28.96793],[-95.42853,28.96769],[-95.42843,28.96689],[-95.42883,28.96645],[-95.42897,28.96583],[-95.42852,28.96429],[-95.42907,28.96319],[-95.42871,28.96228],[-95.42795,28.96131],[-95.42905,28.96032],[-95.42819,28.95954],[-95.42812,28.95913],[-95.42782,28.95906],[-95.42707,28.95754],[-95.42653,28.95704],[-95.42572,28.95682],[-95.42596,28.95641],[-95.42555,28.95629],[-95.42547,28.95576],[-95.42598,28.95413],[-95.42611,28.95238],[-95.42593,28.9517],[-95.42426,28.95105],[-95.42296,28.95016],[-95.42195,28.9486],[-95.42132,28.94838],[-95.4203,28.94838],[-95.41987,28.94873],[-95.41912,28.94857],[-95.41867,28.94786],[-95.4188,28.94657],[-95.41802,28.94616],[-95.41771,28.9455],[-95.41802,28.94442],[-95.42036,28.94273],[-95.42023,28.9414],[-95.41963,28.94005],[-95.42014,28.93936],[-95.42083,28.9394],[-95.42119,28.93842],[-95.42154,28.93817],[-95.42083,28.938],[-95.42032,28.93655],[-95.42062,28.93553],[-95.4225,28.9337],[-95.4227,28.93199],[-95.42338,28.931],[-95.42331,28.92988],[-95.42298,28.92902],[-95.42404,28.92794],[-95.42401,28.92702],[-95.42301,28.92602],[-95.42268,28.92431],[-95.42108,28.9241],[-95.42052,28.92354],[-95.41955,28.92304],[-95.41885,28.92169],[-95.41759,28.92017],[-95.41829,28.91929],[-95.41905,28.91929],[-95.42027,28.91984],[-95.42064,28.91968],[-95.4212,28.9182],[-95.42112,28.91554],[-95.42178,28.9142],[-95.4211,28.91388],[-95.42097,28.91356],[-95.42131,28.91308],[-95.42217,28.91276],[-95.42287,28.91324],[-95.42329,28.91326],[-95.42335,28.91004],[-95.42373,28.90822],[-95.42404,28.90815],[-95.42425,28.90836],[-95.42438,28.90891],[-95.42519,28.90877],[-95.42623,28.90762],[-95.42633,28.90705],[-95.42592,28.90586],[-95.42474,28.90602],[-95.42388,28.90522],[-95.42328,28.90327],[-95.42334,28.90226],[-95.42302,28.90213],[-95.423,28.90183],[-95.42224,28.90215],[-95.42164,28.90204],[-95.42167,28.90169],[-95.42107,28.90091],[-95.42104,28.90055],[-95.42211,28.90016],[-95.42138,28.89958],[-95.42102,28.89842],[-95.42161,28.8945],[-95.42186,28.89443],[-95.42196,28.89387],[-95.42177,28.89278],[-95.42192,28.89227],[-95.42164,28.89171],[-95.42245,28.89071],[-95.4229,28.88956],[-95.42265,28.88955],[-95.4227,28.88671],[-95.42257,28.88522],[-95.42236,28.8851],[-95.42788,28.88174],[-95.42782,28.88133],[-95.43977,28.87368],[-95.44336,28.87167],[-95.44394,28.87104],[-95.44294,28.87002],[-95.44151,28.86989],[-95.43994,28.86875],[-95.43966,28.86824],[-95.43953,28.86596],[-95.43897,28.86482],[-95.43883,28.86292],[-95.43825,28.86192],[-95.43912,28.8611],[-95.43942,28.85921],[-95.44142,28.85714],[-95.43638,28.85855],[-95.42227,28.83724],[-95.40439,28.81263],[-95.40143,28.80594],[-95.41307,28.80532],[-95.42007,28.80562],[-95.49389,28.76534],[-95.49565,28.76484],[-95.50023,28.78557],[-95.50023,28.78682],[-95.50731,28.82576],[-95.50676,28.8272],[-95.50625,28.82777],[-95.50462,28.8282],[-95.50408,28.82865],[-95.50452,28.82983],[-95.50459,28.8316],[-95.50388,28.83366],[-95.5041,28.83773],[-95.50498,28.8379],[-95.50867,28.83713],[-95.51598,28.83511],[-95.52188,28.83385],[-95.53047,28.8291],[-95.53101,28.82906],[-95.53189,28.82959],[-95.53355,28.82993],[-95.53475,28.83048],[-95.53513,28.83097],[-95.53584,28.83096],[-95.53599,28.83156],[-95.53562,28.83227],[-95.53596,28.83261],[-95.53756,28.83294],[-95.53825,28.83291],[-95.53874,28.83144],[-95.53986,28.83163],[-95.54036,28.83145],[-95.54109,28.83045],[-95.5414,28.83038],[-95.54172,28.83047],[-95.54185,28.83082],[-95.54169,28.83158],[-95.54188,28.83226],[-95.54362,28.83263],[-95.54802,28.83037],[-95.55022,28.8288],[-95.55081,28.82874],[-95.55491,28.83042],[-95.55586,28.83011],[-95.55819,28.83053],[-95.55968,28.82989],[-95.56285,28.82991],[-95.5639,28.82951],[-95.56435,28.82965],[-95.5653,28.83053],[-95.56589,28.83057],[-95.56641,28.83011],[-95.56752,28.82972],[-95.57128,28.83137],[-95.57188,28.83224],[-95.57296,28.83236],[-95.57367,28.83277],[-95.57546,28.83526],[-95.57697,28.83654],[-95.57714,28.83748],[-95.57783,28.83803],[-95.57902,28.83963],[-95.57927,28.84058],[-95.57928,28.84279],[-95.578,28.84515],[-95.5773,28.84812],[-95.57669,28.84877],[-95.57662,28.84931],[-95.57689,28.84995],[-95.57616,28.85242],[-95.57672,28.85496],[-95.57795,28.8556],[-95.57929,28.8573],[-95.57945,28.85853],[-95.57912,28.85914],[-95.57924,28.85961],[-95.57993,28.86016],[-95.58116,28.86056],[-95.58312,28.8606],[-95.58496,28.86188],[-95.58589,28.86307],[-95.58634,28.86434],[-95.58707,28.86535],[-95.58703,28.86619],[-95.59013,28.86851],[-95.59029,28.86916],[-95.59082,28.86981],[-95.59217,28.86978],[-95.59388,28.8716],[-95.59617,28.87247],[-95.59679,28.87325],[-95.60207,28.87615],[-95.60256,28.87655],[-95.60317,28.87828],[-95.60394,28.87875],[-95.60505,28.87887],[-95.60693,28.87967],[-95.60786,28.88119],[-95.60917,28.88138],[-95.61121,28.88286],[-95.61285,28.88287],[-95.61346,28.88309],[-95.61489,28.88443],[-95.61648,28.88505],[-95.61921,28.889],[-95.62035,28.88987],[-95.62173,28.89215],[-95.62324,28.89371],[-95.62512,28.89404],[-95.62701,28.8947],[-95.62921,28.89666],[-95.63019,28.89724],[-95.63072,28.89739],[-95.63297,28.89729],[-95.63351,28.89747],[-95.6351,28.89932],[-95.63566,28.90076],[-95.63594,28.90239],[-95.63651,28.90323],[-95.63753,28.90374],[-95.6386,28.90374],[-95.63975,28.90327],[-95.64052,28.90328],[-95.64167,28.90375],[-95.64212,28.90426],[-95.64545,28.90972],[-95.64549,28.91034],[-95.64504,28.91131],[-95.64503,28.91229],[-95.64678,28.9158],[-95.64812,28.91743],[-95.65107,28.91925],[-95.65156,28.92001],[-95.65122,28.92243],[-95.65179,28.92333],[-95.6519,28.92568],[-95.65132,28.92687],[-95.65123,28.92825],[-95.65028,28.92976],[-95.65032,28.93103],[-95.6495,28.93247],[-95.64875,28.93471],[-95.64755,28.93662],[-95.64611,28.93795],[-95.64582,28.93889],[-95.64937,28.94251],[-95.64961,28.94324],[-95.65051,28.94425],[-95.65075,28.94534],[-95.65279,28.94784],[-95.65324,28.94921],[-95.6543,28.94972],[-95.65471,28.95019],[-95.65507,28.95153],[-95.65642,28.95179],[-95.65736,28.95269],[-95.65986,28.95303],[-95.66063,28.9539],[-95.66195,28.95383],[-95.6626,28.95441],[-95.66408,28.95423],[-95.66502,28.95499],[-95.66886,28.95623],[-95.66939,28.95671],[-95.67033,28.95855],[-95.67199,28.96076],[-95.67424,28.96257],[-95.67513,28.96424],[-95.67634,28.96481],[-95.67785,28.96471],[-95.67864,28.9656],[-95.67966,28.96571],[-95.68154,28.96431],[-95.68236,28.96328],[-95.68342,28.96075],[-95.68396,28.96046],[-95.68445,28.96055],[-95.68682,28.96274],[-95.69001,28.96412],[-95.69087,28.96502],[-95.69194,28.96463],[-95.69418,28.96529],[-95.69643,28.96552],[-95.6969,28.96588],[-95.69741,28.96594],[-95.69771,28.9663],[-95.69773,28.96797],[-95.69913,28.96954],[-95.69991,28.96958],[-95.70065,28.96917],[-95.70105,28.96936],[-95.70167,28.96916],[-95.70219,28.96931],[-95.71169,28.97728],[-95.68444,29.00228],[-95.6656,28.98652],[-95.66119,28.98998],[-95.65129,28.99498],[-95.64581,28.99986],[-95.64456,29.00063],[-95.63826,29.00385],[-95.62539,29.00913],[-95.62385,29.00927],[-95.61774,29.00849],[-95.60545,29.00826],[-95.58841,29.01092],[-95.58824,29.00914]]]}},{"type":"Feature","properties":{"PRECINCT":"brazoria:38","COUNTY":"Brazoria"},"geometry":{"type":"Polygon","coordinates":[[[-95.12523,29.08106],[-95.09162,29.06274],[-95.08726,29.058],[-95.08904,29.04805],[-95.0938,29.03333],[-95.09434,29.03224],[-95.10545,29.01605],[-95.10653,29.01494],[-95.11446,29.00905],[-95.12577,29.00299],[-95.13947,28.9917],[-95.15669,28.97427],[-95.18051,28.94924],[-95.20643,28.92669],[-95.22723,28.91038],[-95.24168,28.89996],[-95.25279,28.8926],[-95.25707,28.89036],[-95.29002,28.9278],[-95.29042,28.92823],[-95.2907,28.92793],[-95.29743,28.93451],[-95.29709,28.93423],[-95.2959,28.93516],[-95.29528,28.93454],[-95.29466,28.93494],[-95.2944,28.93632],[-95.29657,28.93813],[-95.29705,28.93754],[-95.30235,28.94266],[-95.30367,28.94338],[-95.3038,28.94323],[-95.30576,28.9441],[-95.30585,28.94458],[-95.3082,28.94275],[-95.30878,28.94296],[-95.30791,28.9434],[-95.30048,28.9504],[-95.29571,28.95454],[-95.29369,28.95592],[-95.2908,28.95856],[-95.29051,28.95894],[-95.29035,28.96071],[-95.29006,28.96096],[-95.28932,28.96361],[-95.28874,28.96461],[-95.28715,28.966],[-95.28369,28.96787],[-95.28225,28.96912],[-95.28108,28.97076],[-95.28093,28.97215],[-95.27976,28.9748],[-95.27392,28.97959],[-95.27103,28.98133],[-95.26232,28.98571],[-95.25997,28.98809],[-95.25021,29.00024],[-95.23798,29.01647],[-95.23475,29.02046],[-95.23195,29.02599],[-95.22831,29.03583],[-95.22421,29.04589],[-95.20529,29.0846],[-95.20091,29.10436],[-95.19958,29.10713],[-95.19845,29.10886],[-95.1963,29.11108],[-95.16877,29.1369],[-95.15896,29.14563],[-95.15838,29.14576],[-95.15743,29.14665],[-95.11381,29.17279],[-95.10954,29.17377],[-95.09835,29.17573],[-95.09472,29.17735],[-95.09246,29.17861],[-95.08792,29.18166],[-95.07159,29.19342],[-95.06522,29.19644],[-95.05714,29.20088],[-95.0565,29.19998],[-95.06619,29.18365],[-95.12994,29.08562],[-95.12523,29.08106]]]}},{"type":"Feature","properties":{"PRECINCT":"brazoria:4","COUNTY":"Brazoria"},"geometry":{"type":"Polygon","coordinates":[[[-95.56709,29.06003],[-95.56551,29.05874],[-95.56594,29.05855],[-95.56404,29.05701],[-95.56114,29.05977],[-95.56069,29.05791],[-95.55921,29.05599],[-95.55748,29.05445],[-95.55027,29.05127],[-95.54628,29.04788],[-95.54506,29.04764],[-95.54384,29.04802],[-95.54157,29.04947],[-95.5386,29.05084],[-95.53764,29.05099],[-95.53616,29.05052],[-95.53486,29.04967],[-95.53339,29.04752],[-95.53314,29.04614],[-95.53332,29.04506],[-95.53376,29.04391],[-95.53498,29.04292],[-95.53753,29.03971],[-95.53736,29.03756],[-95.53467,29.03587],[-95.53075,29.03592],[-95.52936,29.0363],[-95.52735,29.03637],[-95.5257,29.0359],[-95.52466,29.03505],[-95.52329,29.03167],[-95.52156,29.0299],[-95.51973,29.02905],[-95.51729,29.02904],[-95.51485,29.03048],[-95.51449,29.03117],[-95.51439,29.03378],[-95.51347,29.03688],[-95.51201,29.03802],[-95.50909,29.03849],[-95.50622,29.0374],[-95.50406,29.03545],[-95.50334,29.03344],[-95.50333,29.03064],[-95.5022,29.02692],[-95.50058,29.02522],[-95.49907,29.02465],[-95.49794,29.02465],[-95.49705,29.02578],[-95.49656,29.03286],[-95.49581,29.0344],[-95.49444,29.035],[-95.49295,29.03492],[-95.49192,29.03432],[-95.49105,29.03308],[-95.49004,29.03011],[-95.48928,29.02887],[-95.48815,29.02828],[-95.48694,29.0282],[-95.48417,29.02895],[-95.47986,29.03203],[-95.47896,29.03206],[-95.47819,29.03137],[-95.47778,29.02971],[-95.47788,29.02928],[-95.47671,29.0271],[-95.48668,29.00841],[-95.49446,28.9973],[-95.49676,28.99561],[-95.50632,28.99163],[-95.51752,28.98444],[-95.55549,28.94976],[-95.55853,28.95333],[-95.55874,28.95431],[-95.55845,28.95555],[-95.55754,28.95656],[-95.55561,28.95736],[-95.55071,28.95795],[-95.55006,28.95855],[-95.5498,28.95914],[-95.54985,28.95983],[-95.5504,28.9607],[-95.55173,28.96148],[-95.55311,28.96196],[-95.55532,28.96343],[-95.55764,28.96407],[-95.56069,28.96398],[-95.56186,28.9643],[-95.56571,28.96685],[-95.56621,28.96756],[-95.56634,28.96834],[-95.56569,28.96953],[-95.56279,28.97237],[-95.56243,28.97408],[-95.56245,28.97537],[-95.56269,28.97608],[-95.56568,28.97809],[-95.5668,28.97915],[-95.56784,28.98261],[-95.56894,28.98359],[-95.56998,28.9841],[-95.57399,28.98499],[-95.5774,28.9863],[-95.58019,28.98685],[-95.58407,28.98685],[-95.58499,28.9871],[-95.58762,28.99008],[-95.58772,28.99182],[-95.58663,28.99519],[-95.58634,28.99769],[-95.58751,29.00048],[-95.58894,29.00215],[-95.58999,29.00412],[-95.58993,29.00524],[-95.58824,29.00914],[-95.58841,29.01092],[-95.58812,29.01097],[-95.58826,29.01322],[-95.58782,29.01461],[-95.58796,29.0165],[-95.58867,29.01777],[-95.5921,29.02095],[-95.59409,29.02373],[-95.59466,29.025],[-95.59494,29.0269],[-95.59579,29.02829],[-95.59722,29.02994],[-95.59793,29.03134],[-95.59822,29.03248],[-95.59907,29.03374],[-95.60007,29.0345],[-95.60122,29.03489],[-95.6028,29.03515],[-95.60567,29.03516],[-95.60797,29.03466],[-95.60955,29.03391],[-95.61185,29.03328],[-95.61358,29.03253],[-95.61573,29.03254],[-95.62002,29.03546],[-95.6216,29.03686],[-95.62188,29.03762],[-95.62188,29.03926],[-95.62125,29.04178],[-95.61668,29.04162],[-95.57512,29.04501],[-95.57548,29.04626],[-95.57528,29.04628],[-95.57578,29.05092],[-95.58287,29.05079],[-95.58302,29.05643],[-95.58203,29.0565],[-95.58213,29.05734],[-95.58092,29.05737],[-95.58094,29.05799],[-95.58007,29.05807],[-95.58008,29.05835],[-95.57459,29.0584],[-95.5746,29.05985],[-95.57142,29.05996],[-95.57124,29.05988],[-95.57124,29.05914],[-95.56944,29.0592],[-95.56945,29.05995],[-95.56709,29.06003]]]}},{"type":"Feature","properties":{"PRECINCT":"brazoria:42","COUNTY":"Brazoria"},"geometry":{"type":"Polygon","coordinates":[[[-95.40196,29.17028],[-95.4104,29.17016],[-95.41071,29.18509],[-95.4081,29.18513],[-95.4037,29.19178],[-95.39484,29.20302],[-95.39087,29.20035],[-95.38959,29.19911],[-95.38831,29.19705],[-95.38781,29.19511],[-95.3876,29.18709],[-95.40219,29.17759],[-95.40196,29.17028]]]}},{"type":"Feature","properties":{"PRECINCT":"brazoria:43","COUNTY":"Brazoria"},"geometry":{"type":"Polygon","coordinates":[[[-95.46362,29.04869],[-95.45483,29.04702],[-95.45409,29.04167],[-95.45362,29.04014],[-95.45378,29.04006],[-95.45225,29.03798],[-95.45029,29.03653],[-95.44683,29.03488],[-95.44701,29.03476],[-95.4407,29.03059],[-95.43905,29.02856],[-95.43651,29.02344],[-95.43613,29.0236],[-95.43516,29.0225],[-95.434,29.0219],[-95.42826,29.02097],[-95.43033,29.01693],[-95.43148,29.01402],[-95.43198,29.01372],[-95.43542,29.00663],[-95.43571,29.00677],[-95.43585,29.00629],[-95.43736,29.00536],[-95.43744,29.00493],[-95.43724,29.00436],[-95.43611,29.00329],[-95.43615,29.00256],[-95.43483,29.00206],[-95.43387,29.00103],[-95.43384,28.99656],[-95.43309,28.99447],[-95.43151,28.99218],[-95.42565,28.98749],[-95.42084,28.98198],[-95.41854,28.98032],[-95.4175,28.98009],[-95.41764,28.97942],[-95.41887,28.97991],[-95.42093,28.9814],[-95.42221,28.98252],[-95.42542,28.98635],[-95.42896,28.98955],[-95.43089,28.99079],[-95.43259,28.99239],[-95.43439,28.99564],[-95.43467,28.99704],[-95.43448,29.00075],[-95.43499,29.00129],[-95.43627,29.00205],[-95.43692,29.00203],[-95.43768,29.00164],[-95.43854,29.00026],[-95.44015,28.99889],[-95.4419,28.99836],[-95.44335,28.99834],[-95.44581,28.99916],[-95.44737,29.00026],[-95.44861,29.00152],[-95.44834,29.00206],[-95.45306,29.00879],[-95.45489,29.01317],[-95.45873,29.01841],[-95.46075,29.02344],[-95.46161,29.02474],[-95.46344,29.02564],[-95.47184,29.02458],[-95.47361,29.0248],[-95.47559,29.02567],[-95.47663,29.02643],[-95.47686,29.02611],[-95.47711,29.02635],[-95.47131,29.03699],[-95.471,29.03919],[-95.47188,29.04505],[-95.47121,29.04765],[-95.46943,29.04762],[-95.46598,29.04859],[-95.46362,29.04869]]]}},{"type":"Feature","properties":{"PRECINCT":"brazoria:45","COUNTY":"Brazoria"},"geometry":{"type":"Polygon","coordinates":[[[-95.43841,29.06113],[-95.43825,29.05694],[-95.43785,29.05595],[-95.43786,29.05206],[-95.43662,29.04951],[-95.43633,29.04286],[-95.43693,29.04056],[-95.45483,29.04702],[-95.46375,29.04869],[-95.46598,29.04859],[-95.46943,29.04762],[-95.47121,29.04765],[-95.47047,29.04879],[-95.46914,29.05001],[-95.46206,29.05377],[-95.46162,29.05398],[-95.45866,29.05398],[-95.45717,29.05437],[-95.45651,29.05478],[-95.45413,29.058],[-95.45325,29.05868],[-95.45136,29.0596],[-95.44988,29.05974],[-95.44962,29.05951],[-95.44981,29.06253],[-95.44916,29.06277],[-95.44744,29.06318],[-95.43942,29.06359],[-95.43841,29.06113]]]}},{"type":"Feature","properties":{"PRECINCT":"brazoria:48","COUNTY":"Brazoria"},"geometry":{"type":"Polygon","coordinates":[[[-95.38767,29.0349],[-95.38455,29.03421],[-95.38316,29.03313],[-95.38144,29.03047],[-95.38092,29.03004],[-95.37899,29.02963],[-95.37737,29.02995],[-95.37646,29.03073],[-95.37584,29.03189],[-95.3758,29.0328],[-95.37634,29.03536],[-95.3769,29.03718],[-95.37727,29.03728],[-95.37715,29.03882],[-95.37639,29.04015],[-95.3744,29.04175],[-95.37295,29.04196],[-95.37138,29.04138],[-95.37011,29.04052],[-95.37038,29.04035],[-95.36934,29.03503],[-95.36992,29.03336],[-95.37122,29.031],[-95.37753,29.0225],[-95.37789,29.02128],[-95.37782,29.02029],[-95.37811,29.02029],[-95.3781,29.01987],[-95.37769,29.01872],[-95.37692,29.01782],[-95.38174,29.01403],[-95.38355,29.01214],[-95.38421,29.0102],[-95.38427,29.0093],[-95.38363,29.007],[-95.40399,29.03078],[-95.40458,29.03146],[-95.40475,29.03133],[-95.40614,29.03294],[-95.40781,29.03178],[-95.40982,29.02641],[-95.41314,29.02638],[-95.41264,29.02861],[-95.41634,29.02793],[-95.42107,29.02789],[-95.42105,29.02739],[-95.42162,29.02738],[-95.422,29.03757],[-95.42269,29.03946],[-95.4227,29.04046],[-95.42049,29.04044],[-95.41657,29.03965],[-95.41534,29.03969],[-95.4142,29.0404],[-95.41002,29.04433],[-95.40431,29.04565],[-95.40287,29.04222],[-95.40266,29.03991],[-95.40284,29.03817],[-95.40394,29.03526],[-95.40391,29.03432],[-95.40365,29.03356],[-95.40303,29.03306],[-95.40196,29.03308],[-95.40102,29.03343],[-95.39811,29.03515],[-95.39813,29.03539],[-95.39677,29.0367],[-95.39145,29.0411],[-95.38979,29.04294],[-95.38911,29.04454],[-95.3888,29.04587],[-95.38887,29.04676],[-95.38971,29.04878],[-95.39242,29.05302],[-95.392,29.05403],[-95.39148,29.05426],[-95.39049,29.05446],[-95.38872,29.05442],[-95.38783,29.0541],[-95.38603,29.05268],[-95.38322,29.05135],[-95.3822,29.05052],[-95.38168,29.04952],[-95.38166,29.0483],[-95.3819,29.04795],[-95.38564,29.04601],[-95.38626,29.0453],[-95.38705,29.0439],[-95.38715,29.04232],[-95.38746,29.04138],[-95.38991,29.03742],[-95.38971,29.03622],[-95.38877,29.03538],[-95.38767,29.0349]]]}},{"type":"Feature","properties":{"PRECINCT":"brazoria:49","COUNTY":"Brazoria"},"geometry":{"type":"Polygon","coordinates":[[[-95.57095,29.18979],[-95.57186,29.18906],[-95.57359,29.18864],[-95.57556,29.18879],[-95.57721,29.18923],[-95.58008,29.1896],[-95.58263,29.18976],[-95.58964,29.18885],[-95.59071,29.18755],[-95.59064,29.18487],[-95.59131,29.18299],[-95.59263,29.18235],[-95.59469,29.18243],[-95.59756,29.18323],[-95.59937,29.18302],[-95.59987,29.18266],[-95.60031,29.18162],[-95.60016,29.18026],[-95.59966,29.17903],[-95.59623,29.17463],[-95.59579,29.17088],[-95.59536,29.17086],[-95.59503,29.16975],[-95.58968,29.16455],[-95.58877,29.16406],[-95.58287,29.16237],[-95.58201,29.16129],[-95.5819,29.1606],[-95.58237,29.15973],[-95.58514,29.15714],[-95.58598,29.15435],[-95.58668,29.15304],[-95.5872,29.15259],[-95.59282,29.15037],[-95.59373,29.14982],[-95.5949,29.14867],[-95.59569,29.1467],[-95.5972,29.14494],[-95.59864,29.14492],[-95.60012,29.14549],[-95.60299,29.14569],[-95.60419,29.14521],[-95.60519,29.14398],[-95.60847,29.14564],[-95.60977,29.1459],[-95.61182,29.14586],[-95.6115,29.1475],[-95.61199,29.14817],[-95.61364,29.14865],[-95.61635,29.15053],[-95.61747,29.15096],[-95.61805,29.15188],[-95.61891,29.15151],[-95.61935,29.15156],[-95.62003,29.15238],[-95.62087,29.15268],[-95.62243,29.15374],[-95.62473,29.15344],[-95.62591,29.15401],[-95.62909,29.15444],[-95.62992,29.15566],[-95.6299,29.15689],[-95.6306,29.15772],[-95.63068,29.15825],[-95.63125,29.15857],[-95.63112,29.15939],[-95.63183,29.15969],[-95.63222,29.16047],[-95.63269,29.16077],[-95.63608,29.16097],[-95.63679,29.16127],[-95.63745,29.16181],[-95.63628,29.16239],[-95.63937,29.16706],[-95.64133,29.16619],[-95.64376,29.16832],[-95.63629,29.16855],[-95.63629,29.17181],[-95.61902,29.17199],[-95.61956,29.1728],[-95.61974,29.17367],[-95.61899,29.18052],[-95.61894,29.18767],[-95.61859,29.18925],[-95.61808,29.19],[-95.61711,29.19083],[-95.61071,29.19459],[-95.60781,29.19671],[-95.60208,29.20728],[-95.57079,29.20807],[-95.56036,29.20772],[-95.56263,29.20581],[-95.56388,29.20408],[-95.56413,29.20234],[-95.56522,29.19887],[-95.56671,29.19787],[-95.57074,29.19774],[-95.57173,29.19745],[-95.57248,29.19659],[-95.5724,29.19579],[-95.57076,29.19355],[-95.57028,29.19166],[-95.57037,29.19072],[-95.57095,29.18979]]]}},{"type":"Feature","properties":{"PRECINCT":"brazoria:5","COUNTY":"Brazoria"},"geometry":{"type":"Polygon","coordinates":[[[-95.45932,29.25408],[-95.47658,29.19973],[-95.47764,29.19727],[-95.47959,29.19446],[-95.48224,29.19204],[-95.5022,29.18031],[-95.50378,29.17913],[-95.50476,29.17807],[-95.50586,29.176],[-95.50821,29.16755],[-95.50856,29.16555],[-95.5086,29.14968],[-95.51266,29.14853],[-95.53456,29.11465],[-95.53736,29.11603],[-95.54034,29.11136],[-95.55221,29.11122],[-95.55489,29.11177],[-95.55553,29.1117],[-95.55599,29.11139],[-95.55701,29.11228],[-95.55703,29.11327],[-95.55774,29.11382],[-95.56008,29.11482],[-95.56293,29.11533],[-95.56817,29.11558],[-95.56856,29.11593],[-95.56864,29.11662],[-95.56833,29.11685],[-95.56569,29.11721],[-95.56612,29.11844],[-95.56879,29.11823],[-95.56991,29.11884],[-95.57007,29.11927],[-95.56933,29.12114],[-95.56938,29.12313],[-95.56898,29.12388],[-95.56955,29.125],[-95.56946,29.12589],[-95.56896,29.12672],[-95.5675,29.1282],[-95.56843,29.12868],[-95.57068,29.12851],[-95.5729,29.12552],[-95.57355,29.12515],[-95.57484,29.125],[-95.575,29.12853],[-95.57456,29.12981],[-95.57453,29.13112],[-95.56474,29.13128],[-95.56433,29.13267],[-95.56208,29.13661],[-95.56119,29.1387],[-95.56114,29.14067],[-95.55994,29.14172],[-95.55998,29.1424],[-95.56999,29.14283],[-95.57575,29.14162],[-95.58036,29.14093],[-95.60265,29.13985],[-95.60761,29.1393],[-95.6121,29.13829],[-95.61327,29.13855],[-95.61414,29.13909],[-95.61476,29.14009],[-95.61408,29.14036],[-95.61039,29.14081],[-95.60791,29.14169],[-95.60569,29.14427],[-95.60519,29.14398],[-95.60464,29.1448],[-95.60349,29.14558],[-95.60232,29.14569],[-95.60012,29.14549],[-95.59864,29.14492],[-95.5972,29.14494],[-95.59569,29.1467],[-95.5949,29.14867],[-95.59373,29.14982],[-95.59282,29.15037],[-95.5872,29.15259],[-95.58668,29.15304],[-95.58598,29.15435],[-95.58514,29.15714],[-95.58237,29.15973],[-95.5819,29.1606],[-95.58201,29.16129],[-95.58287,29.16237],[-95.58877,29.16406],[-95.58968,29.16455],[-95.59503,29.16975],[-95.59536,29.17086],[-95.59579,29.17088],[-95.59623,29.17463],[-95.59966,29.17903],[-95.60016,29.18026],[-95.60031,29.18162],[-95.59987,29.18266],[-95.59937,29.18302],[-95.59756,29.18323],[-95.59469,29.18243],[-95.59263,29.18235],[-95.59131,29.18299],[-95.59064,29.18487],[-95.59071,29.18755],[-95.58964,29.18885],[-95.58263,29.18976],[-95.58008,29.1896],[-95.57721,29.18923],[-95.57556,29.18879],[-95.57359,29.18864],[-95.57186,29.18906],[-95.57095,29.18979],[-95.57037,29.19072],[-95.57028,29.19166],[-95.57076,29.19355],[-95.5724,29.19579],[-95.57248,29.19659],[-95.57173,29.19745],[-95.57074,29.19774],[-95.56671,29.19787],[-95.56522,29.19887],[-95.56413,29.20234],[-95.56388,29.20408],[-95.56263,29.20581],[-95.55991,29.20811],[-95.5547,29.21192],[-95.55164,29.21401],[-95.54867,29.21558],[-95.54784,29.21638],[-95.54667,29.22035],[-95.54526,29.22135],[-95.54305,29.22236],[-95.5403,29.22405],[-95.54015,29.22528],[-95.54134,29.22869],[-95.5426,29.23063],[-95.54386,29.23181],[-95.54539,29.23276],[-95.5506,29.23349],[-95.55267,29.23426],[-95.55474,29.23526],[-95.556,29.23644],[-95.55693,29.23809],[-95.55753,29.2385],[-95.55907,29.23851],[-95.56088,29.23711],[-95.56175,29.23682],[-95.56275,29.237],[-95.56335,29.2377],[-95.56354,29.239],[-95.56239,29.24269],[-95.56242,29.24862],[-95.5619,29.25058],[-95.5615,29.25058],[-95.5607,29.25182],[-95.53523,29.25246],[-95.52969,29.2524],[-95.52944,29.25274],[-95.51275,29.25322],[-95.50997,29.25386],[-95.50538,29.25333],[-95.46021,29.25414],[-95.45932,29.25408]]]}},{"type":"Feature","properties":{"PRECINCT":"brazoria:50","COUNTY":"Brazoria"},"geometry":{"type":"Polygon","coordinates":[[[-95.41379,29.58331],[-95.40985,29.5827],[-95.40835,29.58287],[-95.40733,29.58241],[-95.40536,29.58234],[-95.4041,29.58183],[-95.4006,29.58196],[-95.39916,29.5776],[-95.399,29.57521],[-95.40953,29.574],[-95.4104,29.57419],[-95.41768,29.57334],[-95.41776,29.57179],[-95.41663,29.56752],[-95.41676,29.56628],[-95.42677,29.57121],[-95.42429,29.58031],[-95.41711,29.58328],[-95.41531,29.58275],[-95.4146,29.58283],[-95.41379,29.58331]]]}},{"type":"Feature","properties":{"PRECINCT":"brazoria:53","COUNTY":"Brazoria"},"geometry":{"type":"Polygon","coordinates":[[[-95.38763,29.51231],[-95.38858,29.50412],[-95.38944,29.5006],[-95.39047,29.49768],[-95.39341,29.49237],[-95.40118,29.48261],[-95.41342,29.48675],[-95.41336,29.49126],[-95.41552,29.49113],[-95.41616,29.51169],[-95.38763,29.51231]]]}},{"type":"Feature","properties":{"PRECINCT":"brazoria:55","COUNTY":"Brazoria"},"geometry":{"type":"Polygon","coordinates":[[[-95.41173,29.2492],[-95.40904,29.20626],[-95.42432,29.20568],[-95.4243,29.2043],[-95.42943,29.20422],[-95.42914,29.19191],[-95.42961,29.19189],[-95.43057,29.19233],[-95.43084,29.19315],[-95.43213,29.19314],[-95.43268,29.1928],[-95.43366,29.19304],[-95.43274,29.17985],[-95.43134,29.17984],[-95.43126,29.1775],[-95.42883,29.17754],[-95.42885,29.1783],[-95.42703,29.17809],[-95.42641,29.17743],[-95.42274,29.17738],[-95.42261,29.17357],[-95.43232,29.17339],[-95.43213,29.17056],[-95.4295,29.17071],[-95.42943,29.16966],[-95.42606,29.16988],[-95.42603,29.16774],[-95.42714,29.16771],[-95.42705,29.16451],[-95.43448,29.16433],[-95.43805,29.1639],[-95.45209,29.16369],[-95.47088,29.159],[-95.49257,29.15686],[-95.49443,29.15631],[-95.50455,29.15083],[-95.5086,29.14968],[-95.50856,29.16555],[-95.50821,29.16755],[-95.50564,29.17656],[-95.50476,29.17807],[-95.50277,29.17992],[-95.48296,29.19154],[-95.48079,29.19323],[-95.47845,29.19592],[-95.47728,29.19796],[-95.47658,29.19973],[-95.46121,29.2476],[-95.41173,29.2492]]]}},{"type":"Feature","properties":{"PRECINCT":"brazoria:56","COUNTY":"Brazoria"},"geometry":{"type":"Polygon","coordinates":[[[-95.4037,29.19178],[-95.4081,29.18513],[-95.41071,29.18509],[-95.41062,29.18125],[-95.41427,29.17571],[-95.419,29.17563],[-95.41903,29.17909],[-95.42306,29.1791],[-95.42315,29.17844],[-95.42274,29.17738],[-95.42641,29.17743],[-95.42703,29.17809],[-95.42885,29.1783],[-95.42883,29.17754],[-95.43126,29.1775],[-95.43134,29.17984],[-95.43274,29.17985],[-95.43366,29.19304],[-95.43268,29.1928],[-95.43213,29.19314],[-95.43084,29.19315],[-95.43057,29.19233],[-95.42961,29.19189],[-95.42914,29.19191],[-95.42943,29.20422],[-95.4243,29.2043],[-95.42432,29.20568],[-95.39171,29.20694],[-95.4037,29.19178]]]}},{"type":"Feature","properties":{"PRECINCT":"brazoria:59","COUNTY":"Brazoria"},"geometry":{"type":"Polygon","coordinates":[[[-95.39807,29.55862],[-95.39798,29.55575],[-95.4071,29.55556],[-95.40719,29.55873],[-95.40897,29.55869],[-95.40917,29.56637],[-95.40884,29.57078],[-95.40953,29.574],[-95.399,29.57521],[-95.39849,29.57361],[-95.39698,29.57118],[-95.39652,29.56956],[-95.39683,29.56747],[-95.39839,29.56466],[-95.39895,29.56286],[-95.39882,29.56136],[-95.39807,29.55862]]]}},{"type":"Feature","properties":{"PRECINCT":"brazoria:63","COUNTY":"Brazoria"},"geometry":{"type":"Polygon","coordinates":[[[-95.42182,29.49808],[-95.44083,29.49774],[-95.44334,29.49806],[-95.4463,29.49964],[-95.44339,29.51021],[-95.44211,29.51048],[-95.43323,29.51066],[-95.4308,29.51134],[-95.41616,29.51169],[-95.41586,29.49794],[-95.42182,29.49808]]]}},{"type":"Feature","properties":{"PRECINCT":"brazoria:64","COUNTY":"Brazoria"},"geometry":{"type":"Polygon","coordinates":[[[-95.41342,29.48675],[-95.40118,29.48261],[-95.41238,29.46854],[-95.41288,29.4688],[-95.41342,29.46838],[-95.41497,29.46834],[-95.41552,29.49113],[-95.41336,29.49126],[-95.41342,29.48675]]]}},{"type":"Feature","properties":{"PRECINCT":"brazoria:66","COUNTY":"Brazoria"},"geometry":{"type":"Polygon","coordinates":[[[-95.39798,29.55575],[-95.39799,29.55271],[-95.40013,29.54903],[-95.40046,29.54792],[-95.40036,29.54109],[-95.43058,29.5404],[-95.43312,29.53997],[-95.4353,29.53993],[-95.43117,29.55498],[-95.40918,29.55532],[-95.4071,29.55538],[-95.4071,29.55556],[-95.39798,29.55575]]]}},{"type":"Feature","properties":{"PRECINCT":"brazoria:68","COUNTY":"Brazoria"},"geometry":{"type":"Polygon","coordinates":[[[-95.44333,29.51021],[-95.4353,29.53993],[-95.43312,29.53997],[-95.43127,29.54038],[-95.41704,29.54072],[-95.41616,29.51169],[-95.4308,29.51134],[-95.43323,29.51066],[-95.44211,29.51048],[-95.44333,29.51021]]]}},{"type":"Feature","properties":{"PRECINCT":"brazoria:69","COUNTY":"Brazoria"},"geometry":{"type":"Polygon","coordinates":[[[-95.41747,29.55515],[-95.43117,29.55498],[-95.42677,29.57121],[-95.41676,29.56628],[-95.41774,29.56351],[-95.41738,29.5587],[-95.41747,29.55515]]]}},{"type":"Feature","properties":{"PRECINCT":"brazoria:70","COUNTY":"Brazoria"},"geometry":{"type":"Polygon","coordinates":[[[-95.38713,29.51232],[-95.41616,29.51169],[-95.41704,29.54072],[-95.387,29.54143],[-95.38647,29.51857],[-95.38713,29.51232]]]}},{"type":"Feature","properties":{"PRECINCT":"brazoria:72","COUNTY":"Brazoria"},"geometry":{"type":"Polygon","coordinates":[[[-95.40915,29.56348],[-95.40897,29.55869],[-95.40719,29.55873],[-95.4071,29.55538],[-95.41747,29.55521],[-95.41738,29.5587],[-95.41774,29.56351],[-95.41683,29.56602],[-95.41663,29.56752],[-95.41776,29.57179],[-95.41768,29.57334],[-95.4104,29.57419],[-95.40953,29.574],[-95.40884,29.57078],[-95.40915,29.56348]]]}},{"type":"Feature","properties":{"PRECINCT":"brazoria:73","COUNTY":"Brazoria"},"geometry":{"type":"Polygon","coordinates":[[[-95.41084,29.42484],[-95.42412,29.42463],[-95.42462,29.42521],[-95.42749,29.4252],[-95.42749,29.42638],[-95.42704,29.42638],[-95.42712,29.44129],[-95.42666,29.4447],[-95.42593,29.44765],[-95.42441,29.45151],[-95.42232,29.45515],[-95.41485,29.46475],[-95.41443,29.44284],[-95.41481,29.4385],[-95.41348,29.43468],[-95.41157,29.43206],[-95.41099,29.43049],[-95.41084,29.42484]]]}},{"type":"Feature","properties":{"PRECINCT":"brazoria:75","COUNTY":"Brazoria"},"geometry":{"type":"Polygon","coordinates":[[[-95.42412,29.12458],[-95.399,29.03609],[-95.3982,29.03626],[-95.39811,29.03515],[-95.40102,29.03343],[-95.40264,29.03299],[-95.40365,29.03356],[-95.40394,29.03526],[-95.40284,29.03817],[-95.40266,29.03991],[-95.40287,29.04222],[-95.40431,29.04565],[-95.407,29.04941],[-95.40777,29.05147],[-95.40902,29.05308],[-95.41035,29.054],[-95.41288,29.05507],[-95.41486,29.05658],[-95.41634,29.05718],[-95.41875,29.05721],[-95.42059,29.05684],[-95.4217,29.05613],[-95.42215,29.05493],[-95.42212,29.05418],[-95.42181,29.05292],[-95.41957,29.05005],[-95.4203,29.04956],[-95.42481,29.05484],[-95.42615,29.05718],[-95.42649,29.05867],[-95.42979,29.10805],[-95.42999,29.11151],[-95.42963,29.1121],[-95.42963,29.11267],[-95.4304,29.12446],[-95.42412,29.12458]]]}},{"type":"Feature","properties":{"PRECINCT":"brazoria:78","COUNTY":"Brazoria"},"geometry":{"type":"Polygon","coordinates":[[[-95.46208,29.43894],[-95.46187,29.42533],[-95.46226,29.41999],[-95.46198,29.40149],[-95.46158,29.40149],[-95.46144,29.39204],[-95.46182,29.39203],[-95.46147,29.37484],[-95.46001,29.37478],[-95.46,29.36036],[-95.42709,29.36074],[-95.42717,29.35784],[-95.42607,29.34204],[-95.42589,29.3342],[-95.4401,29.33373],[-95.43976,29.32064],[-95.44763,29.32048],[-95.44779,29.32605],[-95.45224,29.32596],[-95.45753,29.34081],[-95.46311,29.34058],[-95.46875,29.33122],[-95.49339,29.3288],[-95.49354,29.33489],[-95.49984,29.33485],[-95.49988,29.33877],[-95.51348,29.33852],[-95.51467,29.33944],[-95.51406,29.33851],[-95.51754,29.33845],[-95.51891,29.33798],[-95.51906,29.3382],[-95.5187,29.33845],[-95.5195,29.33842],[-95.51956,29.33803],[-95.51986,29.33841],[-95.53285,29.33828],[-95.53388,29.33627],[-95.54156,29.33608],[-95.54152,29.33447],[-95.54818,29.33437],[-95.54815,29.33293],[-95.54392,29.33296],[-95.54387,29.3315],[-95.54811,29.3314],[-95.54798,29.32728],[-95.56262,29.32705],[-95.56361,29.32492],[-95.56355,29.32361],[-95.56513,29.32019],[-95.5865,29.31959],[-95.58731,29.32387],[-95.58795,29.325],[-95.58876,29.32557],[-95.59092,29.3264],[-95.59079,29.32748],[-95.5895,29.32983],[-95.58911,29.33462],[-95.5883,29.33591],[-95.58719,29.3369],[-95.58118,29.33912],[-95.5796,29.34013],[-95.57895,29.34111],[-95.57876,29.34212],[-95.57921,29.34373],[-95.58134,29.34618],[-95.58261,29.34857],[-95.58265,29.35037],[-95.5821,29.35155],[-95.58106,29.35233],[-95.58027,29.35254],[-95.57711,29.35271],[-95.57559,29.35305],[-95.57484,29.35346],[-95.57406,29.35466],[-95.57386,29.35554],[-95.57397,29.35639],[-95.57548,29.35789],[-95.57712,29.35865],[-95.57834,29.35973],[-95.58048,29.36086],[-95.58048,29.36152],[-95.58084,29.36208],[-95.5803,29.3632],[-95.57876,29.3641],[-95.57794,29.3651],[-95.57586,29.37176],[-95.57574,29.37593],[-95.57409,29.3787],[-95.57234,29.38383],[-95.56729,29.38969],[-95.56557,29.39079],[-95.56288,29.3911],[-95.55989,29.39046],[-95.55886,29.39049],[-95.5562,29.39149],[-95.55303,29.39354],[-95.54973,29.39439],[-95.54758,29.3952],[-95.54725,29.39713],[-95.54936,29.4003],[-95.54986,29.40262],[-95.54912,29.40381],[-95.54692,29.40514],[-95.54607,29.40623],[-95.54582,29.40773],[-95.54603,29.40858],[-95.54699,29.41064],[-95.54895,29.41348],[-95.5496,29.41541],[-95.55192,29.41964],[-95.55359,29.42114],[-95.55484,29.42178],[-95.55596,29.42278],[-95.55632,29.42359],[-95.5564,29.42461],[-95.55568,29.42555],[-95.55278,29.42728],[-95.55186,29.42855],[-95.5513,29.43193],[-95.55009,29.43521],[-95.54987,29.43651],[-95.54991,29.43719],[-95.55062,29.43831],[-95.54099,29.43849],[-95.53895,29.43776],[-95.53797,29.4378],[-95.5357,29.43853],[-95.4625,29.43924],[-95.46208,29.43894]]]}},{"type":"Feature","properties":{"PRECINCT":"brazoria:8","COUNTY":"Brazoria"},"geometry":{"type":"Polygon","coordinates":[[[-95.32842,29.01488],[-95.32832,29.01226],[-95.32699,29.01101],[-95.32613,29.00949],[-95.32458,29.01028],[-95.32456,29.014],[-95.32304,29.01402],[-95.32213,29.01458],[-95.3196,29.0124],[-95.31939,29.00957],[-95.31966,29.00795],[-95.31825,29.00832],[-95.3167,29.00818],[-95.31408,29.00648],[-95.31259,29.00499],[-95.31189,29.00469],[-95.30736,29.00356],[-95.30635,29.00406],[-95.30476,29.0043],[-95.30219,29.00302],[-95.30134,29.00226],[-95.29967,28.99618],[-95.29839,28.99452],[-95.2974,28.99275],[-95.29526,28.99096],[-95.29296,28.98981],[-95.29154,28.98942],[-95.28997,28.98865],[-95.28726,28.98674],[-95.28612,28.98547],[-95.28557,28.98255],[-95.28345,28.97938],[-95.28117,28.97759],[-95.28075,28.97632],[-95.27954,28.97499],[-95.28093,28.97215],[-95.28108,28.97076],[-95.28225,28.96912],[-95.28369,28.96787],[-95.28715,28.966],[-95.28874,28.96461],[-95.28932,28.96361],[-95.29006,28.96096],[-95.29035,28.96071],[-95.29051,28.95894],[-95.29369,28.95592],[-95.29571,28.95454],[-95.30048,28.9504],[-95.30791,28.9434],[-95.30878,28.94296],[-95.31073,28.94275],[-95.31188,28.94225],[-95.31733,28.94229],[-95.31863,28.94116],[-95.32008,28.93902],[-95.32138,28.93776],[-95.32167,28.93675],[-95.32413,28.93449],[-95.32571,28.93387],[-95.32801,28.93388],[-95.32929,28.93452],[-95.33114,28.9363],[-95.33113,28.93795],[-95.33083,28.93908],[-95.32995,28.9404],[-95.32793,28.94229],[-95.32677,28.94475],[-95.32676,28.94703],[-95.32704,28.94779],[-95.3276,28.94892],[-95.32888,28.95007],[-95.33128,28.95097],[-95.33526,28.9512],[-95.33978,28.95078],[-95.34021,28.95052],[-95.3415,28.95053],[-95.34379,28.95143],[-95.34678,28.95373],[-95.34864,28.95462],[-95.35581,28.95467],[-95.35882,28.95519],[-95.36467,28.95927],[-95.36724,28.9603],[-95.37097,28.96121],[-95.37298,28.96257],[-95.37152,28.96363],[-95.3705,28.96308],[-95.37012,28.96263],[-95.36954,28.96253],[-95.36909,28.96314],[-95.36319,28.95977],[-95.36224,28.95875],[-95.35844,28.95652],[-95.35789,28.95727],[-95.35573,28.95615],[-95.35468,28.95673],[-95.35475,28.95772],[-95.35377,28.95718],[-95.35319,28.95794],[-95.35296,28.95778],[-95.35141,28.95976],[-95.3512,28.95975],[-95.35099,28.9603],[-95.34882,28.96294],[-95.34831,28.96457],[-95.34857,28.96563],[-95.35017,28.96767],[-95.34477,28.97417],[-95.33903,28.97907],[-95.33806,28.98052],[-95.33737,28.98212],[-95.33921,28.98306],[-95.33938,28.99907],[-95.33935,28.99921],[-95.33826,28.99923],[-95.3383,29.001],[-95.33704,29.00104],[-95.33702,29.00316],[-95.33656,29.00552],[-95.33437,29.00783],[-95.33356,29.00955],[-95.333,29.01014],[-95.33331,29.01415],[-95.33089,29.01364],[-95.33048,29.01492],[-95.32842,29.01488]]]}},{"type":"Feature","properties":{"PRECINCT":"brazoria:9","COUNTY":"Brazoria"},"geometry":{"type":"Polygon","coordinates":[[[-95.45753,29.34081],[-95.45224,29.32596],[-95.44779,29.32605],[-95.44763,29.32048],[-95.43976,29.32064],[-95.4401,29.33373],[-95.42589,29.3342],[-95.42524,29.30708],[-95.42552,29.30395],[-95.42624,29.30064],[-95.42692,29.29847],[-95.42875,29.29445],[-95.43477,29.28501],[-95.43458,29.28446],[-95.44964,29.26105],[-95.4468,29.24808],[-95.46121,29.2476],[-95.45932,29.25408],[-95.46021,29.25414],[-95.50538,29.25333],[-95.50997,29.25386],[-95.51275,29.25322],[-95.52944,29.25274],[-95.52969,29.2524],[-95.53523,29.25246],[-95.56124,29.25181],[-95.56066,29.25289],[-95.56066,29.25348],[-95.56112,29.25407],[-95.56248,29.25454],[-95.56676,29.25486],[-95.5681,29.25516],[-95.5694,29.25612],[-95.5691,29.25704],[-95.5651,29.25986],[-95.564,29.26125],[-95.56324,29.2632],[-95.56324,29.26364],[-95.56365,29.2642],[-95.56524,29.26545],[-95.56637,29.26586],[-95.56792,29.26609],[-95.56972,29.26617],[-95.57086,29.26555],[-95.57107,29.26437],[-95.57067,29.26198],[-95.57072,29.26062],[-95.57139,29.25937],[-95.57236,29.25871],[-95.57299,29.25868],[-95.5737,29.25875],[-95.57454,29.25945],[-95.57532,29.26152],[-95.57552,29.2641],[-95.57327,29.27012],[-95.573,29.27218],[-95.57333,29.27399],[-95.57428,29.27668],[-95.57516,29.27767],[-95.57566,29.27786],[-95.57637,29.27761],[-95.57697,29.27628],[-95.57736,29.27253],[-95.57783,29.27146],[-95.57833,29.27114],[-95.57884,29.27117],[-95.57993,29.27173],[-95.58059,29.27265],[-95.58167,29.27575],[-95.58233,29.27667],[-95.583,29.27726],[-95.58639,29.27912],[-95.58714,29.27989],[-95.58739,29.28074],[-95.58717,29.28181],[-95.5859,29.28438],[-95.58585,29.28618],[-95.58673,29.28732],[-95.58773,29.28788],[-95.58932,29.28925],[-95.58981,29.29035],[-95.58959,29.29271],[-95.5887,29.29539],[-95.58671,29.29847],[-95.58542,29.30226],[-95.58458,29.30267],[-95.58338,29.30268],[-95.57962,29.30091],[-95.57859,29.30075],[-95.57798,29.30105],[-95.57722,29.302],[-95.57697,29.30272],[-95.57725,29.30402],[-95.57892,29.30531],[-95.58257,29.307],[-95.5831,29.30754],[-95.58398,29.30921],[-95.58416,29.31264],[-95.58334,29.31421],[-95.58057,29.31566],[-95.57979,29.31637],[-95.5795,29.31751],[-95.58055,29.31805],[-95.58462,29.31836],[-95.58597,29.31891],[-95.5865,29.31959],[-95.56513,29.32019],[-95.56355,29.32361],[-95.56361,29.32492],[-95.56262,29.32705],[-95.54798,29.32728],[-95.54811,29.3314],[-95.54387,29.3315],[-95.54392,29.33296],[-95.54815,29.33293],[-95.54818,29.33437],[-95.54152,29.33447],[-95.54156,29.33608],[-95.53388,29.33627],[-95.53285,29.33828],[-95.51986,29.33841],[-95.51956,29.33803],[-95.5195,29.33842],[-95.5187,29.33845],[-95.51906,29.3382],[-95.51891,29.33798],[-95.51754,29.33845],[-95.51406,29.33851],[-95.51467,29.33944],[-95.51348,29.33852],[-95.49988,29.33877],[-95.49984,29.33485],[-95.49354,29.33489],[-95.49339,29.3288],[-95.46875,29.33122],[-95.46311,29.34058],[-95.45753,29.34081]]]}}]}