{"type":"FeatureCollection","features":[{"type":"Feature","properties":{"PRECINCT":"fort-bend:1001","COUNTY":"Fort Bend"},"geometry":{"type":"Polygon","coordinates":[[[-95.7409,29.58354],[-95.74372,29.58197],[-95.74798,29.58163],[-95.74712,29.57981],[-95.74656,29.58008],[-95.74638,29.57973],[-95.74728,29.57924],[-95.74725,29.57883],[-95.74673,29.57873],[-95.74547,29.57938],[-95.745,29.57907],[-95.74471,29.57849],[-95.74651,29.57828],[-95.74662,29.5761],[-95.74871,29.57662],[-95.75084,29.5758],[-95.75159,29.57419],[-95.74935,29.57361],[-95.75186,29.56527],[-95.75061,29.56417],[-95.75202,29.55977],[-95.74917,29.55541],[-95.74635,29.55244],[-95.74257,29.55032],[-95.74115,29.54923],[-95.74721,29.54665],[-95.74882,29.54881],[-95.75595,29.5571],[-95.7558,29.55745],[-95.75928,29.56205],[-95.7633,29.57176],[-95.76706,29.57994],[-95.75832,29.58346],[-95.75771,29.58279],[-95.75424,29.58461],[-95.75123,29.58652],[-95.74496,29.59179],[-95.7409,29.58354]]]}},{"type":"Feature","properties":{"PRECINCT":"fort-bend:1040","COUNTY":"Fort Bend"},"geometry":{"type":"Polygon","coordinates":[[[-95.75672,29.60973],[-95.75443,29.6093],[-95.75337,29.60882],[-95.75273,29.60804],[-95.75238,29.60649],[-95.7532,29.60482],[-95.75605,29.60312],[-95.75702,29.60199],[-95.75697,29.59842],[-95.75569,29.59276],[-95.75561,29.59154],[-95.75632,29.5887],[-95.75685,29.58791],[-95.75863,29.58639],[-95.75891,29.58579],[-95.75892,29.58433],[-95.75832,29.58346],[-95.77049,29.5784],[-95.77137,29.57767],[-95.7729,29.5753],[-95.77498,29.57496],[-95.77611,29.5743],[-95.77633,29.57451],[-95.78472,29.56679],[-95.7888,29.56424],[-95.79196,29.56314],[-95.79341,29.56286],[-95.80133,29.5619],[-95.80158,29.56495],[-95.79856,29.56632],[-95.7969,29.56639],[-95.79711,29.57049],[-95.79738,29.57083],[-95.79565,29.57176],[-95.78868,29.57453],[-95.78592,29.57605],[-95.78117,29.57975],[-95.78013,29.5812],[-95.78007,29.58215],[-95.78072,29.58301],[-95.78224,29.58369],[-95.78347,29.58397],[-95.78511,29.5848],[-95.78666,29.58599],[-95.7885,29.58788],[-95.78952,29.59001],[-95.78998,29.59336],[-95.79071,29.59588],[-95.79086,29.59793],[-95.79029,29.59997],[-95.78939,29.60099],[-95.78725,29.60207],[-95.78658,29.60358],[-95.78495,29.60608],[-95.78219,29.6086],[-95.77993,29.60992],[-95.77845,29.61026],[-95.77615,29.61007],[-95.7713,29.60887],[-95.7599,29.60981],[-95.75672,29.60973]]]}},{"type":"Feature","properties":{"PRECINCT":"fort-bend:1048","COUNTY":"Fort Bend"},"geometry":{"type":"Polygon","coordinates":[[[-95.77274,29.57508],[-95.77317,29.5742],[-95.77266,29.57414],[-95.77245,29.57472],[-95.7716,29.57461],[-95.77131,29.57499],[-95.77021,29.57441],[-95.76656,29.57015],[-95.76666,29.56974],[-95.77044,29.56967],[-95.76912,29.5583],[-95.79186,29.55774],[-95.79298,29.55741],[-95.80987,29.55718],[-95.81021,29.56674],[-95.80709,29.56753],[-95.80128,29.56801],[-95.79909,29.56914],[-95.79711,29.57049],[-95.7969,29.56639],[-95.79856,29.56632],[-95.80158,29.56495],[-95.80133,29.5619],[-95.79196,29.56314],[-95.7888,29.56424],[-95.78548,29.5662],[-95.77633,29.57451],[-95.77611,29.5743],[-95.77418,29.5752],[-95.7729,29.5753],[-95.77274,29.57508]]]}},{"type":"Feature","properties":{"PRECINCT":"fort-bend:1072","COUNTY":"Fort Bend"},"geometry":{"type":"Polygon","coordinates":[[[-95.7155,29.59838],[-95.71532,29.5892],[-95.71473,29.58911],[-95.71402,29.58862],[-95.71361,29.58802],[-95.71356,29.58736],[-95.71417,29.58585],[-95.71567,29.58388],[-95.71543,29.58284],[-95.71574,29.58112],[-95.71462,29.58049],[-95.71357,29.58061],[-95.71283,29.5799],[-95.71285,29.57934],[-95.71255,29.57906],[-95.71039,29.57863],[-95.71001,29.57697],[-95.70928,29.57581],[-95.70868,29.57548],[-95.70845,29.57483],[-95.70836,29.57391],[-95.71105,29.57219],[-95.71366,29.57131],[-95.71642,29.57128],[-95.71788,29.57167],[-95.71883,29.57232],[-95.71969,29.57331],[-95.72048,29.57669],[-95.72051,29.58161],[-95.72092,29.58473],[-95.72151,29.58693],[-95.7222,29.58834],[-95.72375,29.59025],[-95.72537,29.59096],[-95.72622,29.5911],[-95.72865,29.5907],[-95.73124,29.58947],[-95.73207,29.58874],[-95.73345,29.58674],[-95.73386,29.58421],[-95.73479,29.58126],[-95.73592,29.57967],[-95.73785,29.57795],[-95.73947,29.57719],[-95.74196,29.57658],[-95.74393,29.57639],[-95.7466,29.57662],[-95.74651,29.57828],[-95.74471,29.57849],[-95.745,29.57907],[-95.74547,29.57938],[-95.74673,29.57873],[-95.74725,29.57883],[-95.74728,29.57924],[-95.74638,29.57973],[-95.74656,29.58008],[-95.74712,29.57981],[-95.74798,29.58163],[-95.74359,29.582],[-95.74089,29.58347],[-95.74496,29.59179],[-95.74202,29.59427],[-95.74125,29.59469],[-95.73961,29.59537],[-95.73658,29.59608],[-95.7155,29.59838]]]}},{"type":"Feature","properties":{"PRECINCT":"fort-bend:1073","COUNTY":"Fort Bend"},"geometry":{"type":"Polygon","coordinates":[[[-95.76471,29.57496],[-95.75982,29.56301],[-95.75856,29.56099],[-95.7558,29.55745],[-95.75809,29.55221],[-95.7588,29.55215],[-95.76173,29.55322],[-95.76219,29.55372],[-95.76578,29.55512],[-95.7656,29.55772],[-95.76618,29.55837],[-95.76912,29.5583],[-95.77044,29.56967],[-95.76666,29.56974],[-95.76656,29.57015],[-95.77021,29.57441],[-95.77131,29.57499],[-95.7716,29.57461],[-95.77245,29.57472],[-95.77266,29.57414],[-95.77317,29.5742],[-95.77272,29.57516],[-95.7729,29.5753],[-95.77137,29.57767],[-95.77084,29.57813],[-95.76706,29.57994],[-95.76471,29.57496]]]}},{"type":"Feature","properties":{"PRECINCT":"fort-bend:1076","COUNTY":"Fort Bend"},"geometry":{"type":"Polygon","coordinates":[[[-95.72062,29.57854],[-95.71969,29.57331],[-95.71883,29.57232],[-95.71788,29.57167],[-95.71687,29.57135],[-95.71432,29.57124],[-95.71213,29.57173],[-95.7101,29.5727],[-95.70579,29.57567],[-95.70369,29.57613],[-95.70239,29.57596],[-95.70033,29.57484],[-95.69789,29.57241],[-95.69651,29.57151],[-95.69577,29.57133],[-95.69429,29.57184],[-95.69303,29.57282],[-95.69123,29.57502],[-95.69059,29.5754],[-95.69025,29.57597],[-95.68762,29.57832],[-95.68549,29.5812],[-95.68374,29.58287],[-95.68279,29.58331],[-95.68111,29.58345],[-95.6788,29.58272],[-95.67536,29.58048],[-95.67162,29.57948],[-95.66912,29.57813],[-95.66779,29.57642],[-95.6673,29.57366],[-95.66781,29.57233],[-95.66766,29.57155],[-95.66836,29.56899],[-95.66833,29.56826],[-95.67386,29.56513],[-95.68101,29.56346],[-95.71742,29.55605],[-95.72389,29.55866],[-95.7204,29.56572],[-95.7354,29.57249],[-95.736,29.57262],[-95.73621,29.57225],[-95.7445,29.57228],[-95.75159,29.57419],[-95.75084,29.5758],[-95.74871,29.57662],[-95.74662,29.5761],[-95.7466,29.57662],[-95.74393,29.57639],[-95.74196,29.57658],[-95.73947,29.57719],[-95.73785,29.57795],[-95.73592,29.57967],[-95.73479,29.58126],[-95.73386,29.58421],[-95.73345,29.58674],[-95.73207,29.58874],[-95.73124,29.58947],[-95.72865,29.5907],[-95.72622,29.5911],[-95.72537,29.59096],[-95.72375,29.59025],[-95.7222,29.58834],[-95.72151,29.58693],[-95.72092,29.58473],[-95.72051,29.58161],[-95.72062,29.57854]]]}},{"type":"Feature","properties":{"PRECINCT":"fort-bend:1103","COUNTY":"Fort Bend"},"geometry":{"type":"Polygon","coordinates":[[[-95.80567,29.62971],[-95.78873,29.62983],[-95.78557,29.62965],[-95.78439,29.62922],[-95.78212,29.62737],[-95.781,29.62708],[-95.74649,29.62664],[-95.74484,29.62616],[-95.74356,29.62473],[-95.74343,29.6176],[-95.74275,29.60895],[-95.74237,29.59549],[-95.74202,29.59427],[-95.75208,29.58589],[-95.75771,29.58279],[-95.75884,29.58412],[-95.75898,29.58551],[-95.75863,29.58639],[-95.75685,29.58791],[-95.75632,29.5887],[-95.75561,29.59154],[-95.75575,29.59305],[-95.75689,29.59777],[-95.75706,29.60181],[-95.75686,29.60236],[-95.75605,29.60312],[-95.75323,29.6048],[-95.75279,29.6054],[-95.75237,29.60667],[-95.75294,29.60843],[-95.75443,29.6093],[-95.75763,29.6098],[-95.76298,29.60962],[-95.76699,29.60911],[-95.7713,29.60887],[-95.77721,29.61022],[-95.77845,29.61026],[-95.77993,29.60992],[-95.78255,29.60836],[-95.78495,29.60608],[-95.78658,29.60358],[-95.78725,29.60207],[-95.78929,29.60106],[-95.79005,29.60035],[-95.79072,29.59897],[-95.79086,29.59793],[-95.79071,29.59588],[-95.78998,29.59336],[-95.78969,29.59064],[-95.7885,29.58788],[-95.78666,29.58599],[-95.78511,29.5848],[-95.78063,29.58293],[-95.77998,29.58176],[-95.78056,29.58038],[-95.78592,29.57605],[-95.78915,29.57431],[-95.79594,29.57162],[-95.79738,29.57083],[-95.79711,29.57049],[-95.798,29.56983],[-95.80084,29.56816],[-95.80347,29.56771],[-95.80709,29.56753],[-95.81034,29.56667],[-95.81092,29.57211],[-95.81176,29.63168],[-95.8092,29.63063],[-95.80567,29.62971]]]}},{"type":"Feature","properties":{"PRECINCT":"fort-bend:1141","COUNTY":"Fort Bend"},"geometry":{"type":"Polygon","coordinates":[[[-95.74446,29.57236],[-95.73621,29.57225],[-95.736,29.57262],[-95.7354,29.57249],[-95.7204,29.56572],[-95.72389,29.55866],[-95.71742,29.55605],[-95.73138,29.55308],[-95.73522,29.55174],[-95.74115,29.54923],[-95.74257,29.55032],[-95.74635,29.55244],[-95.74917,29.55541],[-95.75139,29.55856],[-95.75206,29.55986],[-95.75061,29.56417],[-95.75186,29.56527],[-95.74935,29.57361],[-95.74446,29.57236]]]}},{"type":"Feature","properties":{"PRECINCT":"fort-bend:3004","COUNTY":"Fort Bend"},"geometry":{"type":"Polygon","coordinates":[[[-95.71135,29.72364],[-95.71138,29.72293],[-95.7123,29.72318],[-95.71277,29.72294],[-95.71345,29.72086],[-95.71582,29.72025],[-95.71635,29.72056],[-95.71678,29.72122],[-95.71753,29.72144],[-95.72134,29.71965],[-95.72201,29.7179],[-95.7248,29.71693],[-95.7258,29.71742],[-95.72595,29.71834],[-95.72668,29.71894],[-95.72792,29.71922],[-95.72981,29.71872],[-95.73092,29.71872],[-95.73557,29.72207],[-95.73766,29.72305],[-95.74105,29.72404],[-95.74584,29.72327],[-95.74714,29.7226],[-95.74803,29.72326],[-95.75143,29.72044],[-95.75431,29.72255],[-95.75556,29.72472],[-95.75583,29.73293],[-95.75568,29.73411],[-95.75514,29.73544],[-95.75427,29.73657],[-95.75251,29.73819],[-95.7516,29.73987],[-95.75138,29.74108],[-95.75145,29.74647],[-95.74254,29.74118],[-95.73867,29.73931],[-95.7304,29.7343],[-95.71135,29.72364]]]}},{"type":"Feature","properties":{"PRECINCT":"fort-bend:3014","COUNTY":"Fort Bend"},"geometry":{"type":"Polygon","coordinates":[[[-95.82047,29.78017],[-95.81598,29.76588],[-95.81633,29.7656],[-95.79892,29.75061],[-95.81401,29.73695],[-95.82791,29.74868],[-95.82905,29.74788],[-95.83746,29.74783],[-95.83794,29.74663],[-95.8516,29.74652],[-95.85173,29.76285],[-95.85116,29.76399],[-95.85142,29.7643],[-95.85145,29.7667],[-95.85412,29.7667],[-95.85482,29.76557],[-95.85518,29.76439],[-95.85674,29.76402],[-95.85663,29.76338],[-95.85709,29.7628],[-95.85756,29.76268],[-95.85813,29.76307],[-95.85865,29.76309],[-95.85896,29.7645],[-95.86059,29.7659],[-95.8619,29.76789],[-95.86321,29.76918],[-95.86549,29.77042],[-95.86849,29.77073],[-95.87066,29.77126],[-95.82622,29.78828],[-95.82072,29.7852],[-95.82047,29.78017]]]}},{"type":"Feature","properties":{"PRECINCT":"fort-bend:3038","COUNTY":"Fort Bend"},"geometry":{"type":"Polygon","coordinates":[[[-95.77325,29.71406],[-95.77511,29.70955],[-95.77599,29.70566],[-95.77555,29.7007],[-95.78109,29.70002],[-95.81302,29.69736],[-95.81344,29.69936],[-95.8153,29.70369],[-95.81538,29.70567],[-95.81382,29.71145],[-95.81377,29.71251],[-95.81427,29.71459],[-95.81244,29.71565],[-95.81154,29.71643],[-95.81156,29.71664],[-95.80602,29.71179],[-95.80251,29.71486],[-95.80142,29.71553],[-95.79285,29.71661],[-95.79098,29.71734],[-95.78809,29.71941],[-95.78575,29.71995],[-95.78415,29.71988],[-95.78164,29.71893],[-95.77683,29.71508],[-95.77325,29.71406]]]}},{"type":"Feature","properties":{"PRECINCT":"fort-bend:3041","COUNTY":"Fort Bend"},"geometry":{"type":"Polygon","coordinates":[[[-95.73348,29.62462],[-95.73319,29.62144],[-95.73414,29.61908],[-95.73379,29.59634],[-95.73658,29.59608],[-95.73867,29.59563],[-95.74049,29.59506],[-95.74202,29.59427],[-95.74237,29.59549],[-95.74275,29.60895],[-95.74343,29.6176],[-95.7435,29.6236],[-95.74027,29.62334],[-95.73553,29.62571],[-95.73391,29.62603],[-95.73331,29.62597],[-95.73348,29.62462]]]}},{"type":"Feature","properties":{"PRECINCT":"fort-bend:3063","COUNTY":"Fort Bend"},"geometry":{"type":"Polygon","coordinates":[[[-95.72834,29.62422],[-95.72752,29.62424],[-95.72613,29.62471],[-95.72614,29.62512],[-95.72527,29.62514],[-95.72529,29.62554],[-95.72002,29.62536],[-95.72007,29.62346],[-95.7178,29.62351],[-95.71396,29.62096],[-95.71356,29.59858],[-95.73379,29.59634],[-95.73414,29.61908],[-95.73313,29.62179],[-95.73347,29.62443],[-95.73331,29.62597],[-95.73105,29.62556],[-95.72834,29.62422]]]}},{"type":"Feature","properties":{"PRECINCT":"fort-bend:3095","COUNTY":"Fort Bend"},"geometry":{"type":"Polygon","coordinates":[[[-95.76249,29.67501],[-95.75862,29.66992],[-95.75834,29.66293],[-95.75965,29.66394],[-95.76214,29.66486],[-95.76274,29.66481],[-95.76348,29.66436],[-95.76395,29.66309],[-95.76364,29.66235],[-95.76262,29.66178],[-95.76026,29.66179],[-95.75826,29.66118],[-95.75725,29.66034],[-95.75672,29.65883],[-95.75671,29.65794],[-95.75701,29.65702],[-95.75815,29.65577],[-95.7613,29.6538],[-95.76283,29.65314],[-95.76361,29.65337],[-95.76677,29.65711],[-95.76725,29.6573],[-95.76864,29.65876],[-95.7691,29.6597],[-95.76922,29.66087],[-95.76902,29.66356],[-95.76982,29.6659],[-95.77397,29.67007],[-95.77502,29.67079],[-95.77615,29.67042],[-95.77633,29.67007],[-95.77581,29.66707],[-95.77603,29.66511],[-95.7771,29.66359],[-95.7779,29.66315],[-95.77881,29.66314],[-95.77937,29.66342],[-95.7833,29.66772],[-95.78365,29.66878],[-95.78375,29.67122],[-95.78462,29.67224],[-95.78574,29.67259],[-95.78733,29.67235],[-95.78797,29.67161],[-95.78853,29.66937],[-95.78987,29.6662],[-95.79036,29.66354],[-95.79116,29.66266],[-95.79171,29.66253],[-95.79208,29.66268],[-95.79442,29.6655],[-95.79622,29.66634],[-95.79811,29.6664],[-95.80133,29.66537],[-95.80809,29.67083],[-95.80881,29.67083],[-95.80897,29.67272],[-95.81007,29.67273],[-95.81056,29.67295],[-95.81246,29.6729],[-95.81302,29.69736],[-95.78109,29.70002],[-95.77548,29.70074],[-95.77529,29.69883],[-95.77464,29.69724],[-95.77215,29.69387],[-95.76936,29.69112],[-95.76816,29.68917],[-95.76762,29.68746],[-95.76721,29.68407],[-95.76677,29.68269],[-95.76536,29.68093],[-95.76263,29.67915],[-95.76249,29.67501]]]}},{"type":"Feature","properties":{"PRECINCT":"fort-bend:3104","COUNTY":"Fort Bend"},"geometry":{"type":"Polygon","coordinates":[[[-95.72338,29.64772],[-95.72199,29.64748],[-95.72141,29.64709],[-95.71806,29.64422],[-95.71801,29.64382],[-95.71728,29.64297],[-95.71515,29.64139],[-95.71473,29.63948],[-95.71499,29.63789],[-95.71838,29.6321],[-95.71803,29.63112],[-95.71713,29.6304],[-95.71621,29.63039],[-95.71425,29.63083],[-95.71396,29.62096],[-95.7178,29.62351],[-95.72007,29.62346],[-95.72002,29.62536],[-95.72529,29.62554],[-95.72527,29.62514],[-95.72614,29.62512],[-95.72613,29.62471],[-95.72815,29.6242],[-95.729,29.62442],[-95.73133,29.62565],[-95.73431,29.62602],[-95.7353,29.62581],[-95.73804,29.62459],[-95.73999,29.62341],[-95.7409,29.62329],[-95.7435,29.6236],[-95.74356,29.62473],[-95.74381,29.62511],[-95.7436,29.62558],[-95.74375,29.63862],[-95.74356,29.64081],[-95.74377,29.64352],[-95.7377,29.64446],[-95.73324,29.64539],[-95.73148,29.6464],[-95.73031,29.64668],[-95.72892,29.64677],[-95.72731,29.64621],[-95.72661,29.64625],[-95.72338,29.64772]]]}},{"type":"Feature","properties":{"PRECINCT":"fort-bend:3122","COUNTY":"Fort Bend"},"geometry":{"type":"Polygon","coordinates":[[[-95.75145,29.74647],[-95.7514,29.74081],[-95.75183,29.73928],[-95.7527,29.73796],[-95.75471,29.73607],[-95.7556,29.73439],[-95.75732,29.73463],[-95.76393,29.73457],[-95.76408,29.73595],[-95.76463,29.73725],[-95.76815,29.74171],[-95.76855,29.74282],[-95.76867,29.74416],[-95.77283,29.74415],[-95.77352,29.74738],[-95.77541,29.7506],[-95.77597,29.75237],[-95.77568,29.75552],[-95.77584,29.76006],[-95.75227,29.74702],[-95.75145,29.74647]]]}},{"type":"Feature","properties":{"PRECINCT":"fort-bend:3130","COUNTY":"Fort Bend"},"geometry":{"type":"Polygon","coordinates":[[[-95.77272,29.73332],[-95.77498,29.73346],[-95.77707,29.73416],[-95.7785,29.73519],[-95.77993,29.73701],[-95.78118,29.73803],[-95.78296,29.73894],[-95.78537,29.73951],[-95.78531,29.73964],[-95.78735,29.74083],[-95.79792,29.74977],[-95.7911,29.75588],[-95.7935,29.75645],[-95.79585,29.75844],[-95.78698,29.76634],[-95.77584,29.76006],[-95.77568,29.75552],[-95.77597,29.75237],[-95.77541,29.7506],[-95.77352,29.74738],[-95.77282,29.74452],[-95.77272,29.73332]]]}},{"type":"Feature","properties":{"PRECINCT":"fort-bend:3132","COUNTY":"Fort Bend"},"geometry":{"type":"Polygon","coordinates":[[[-95.74402,29.71245],[-95.74302,29.70314],[-95.77124,29.70083],[-95.77548,29.70074],[-95.77599,29.70566],[-95.77576,29.70727],[-95.77511,29.70955],[-95.77325,29.71406],[-95.76838,29.71298],[-95.7665,29.71295],[-95.76538,29.71319],[-95.75707,29.71601],[-95.75232,29.71953],[-95.75143,29.72044],[-95.74549,29.71612],[-95.74446,29.71455],[-95.74402,29.71245]]]}},{"type":"Feature","properties":{"PRECINCT":"fort-bend:3133","COUNTY":"Fort Bend"},"geometry":{"type":"Polygon","coordinates":[[[-95.76415,29.73618],[-95.76393,29.73457],[-95.75732,29.73463],[-95.7556,29.73439],[-95.75583,29.73293],[-95.75559,29.72485],[-95.75431,29.72255],[-95.75143,29.72044],[-95.75232,29.71953],[-95.75707,29.71601],[-95.76538,29.71319],[-95.7665,29.71295],[-95.76838,29.71298],[-95.77325,29.71406],[-95.77266,29.7165],[-95.7725,29.71869],[-95.77283,29.74415],[-95.76867,29.74416],[-95.76855,29.74282],[-95.76815,29.74171],[-95.76463,29.73725],[-95.76415,29.73618]]]}},{"type":"Feature","properties":{"PRECINCT":"fort-bend:3142","COUNTY":"Fort Bend"},"geometry":{"type":"Polygon","coordinates":[[[-95.81069,29.73392],[-95.80123,29.72574],[-95.79998,29.72687],[-95.78981,29.71826],[-95.79133,29.71714],[-95.79285,29.71661],[-95.80142,29.71553],[-95.80251,29.71486],[-95.80602,29.71179],[-95.81156,29.71664],[-95.80941,29.71846],[-95.81858,29.72632],[-95.81871,29.72663],[-95.81069,29.73392]]]}},{"type":"Feature","properties":{"PRECINCT":"fort-bend:3143","COUNTY":"Fort Bend"},"geometry":{"type":"Polygon","coordinates":[[[-95.82857,29.73462],[-95.82136,29.72869],[-95.82131,29.72838],[-95.81858,29.72632],[-95.80941,29.71846],[-95.81244,29.71565],[-95.81331,29.71511],[-95.81427,29.71459],[-95.81662,29.71426],[-95.82001,29.71447],[-95.82109,29.71482],[-95.82337,29.71613],[-95.82618,29.71667],[-95.82806,29.71677],[-95.82962,29.71636],[-95.83387,29.71464],[-95.83797,29.71497],[-95.84039,29.71589],[-95.84203,29.71625],[-95.84616,29.71616],[-95.8463,29.73288],[-95.84669,29.7337],[-95.84764,29.7342],[-95.83036,29.73429],[-95.82939,29.73473],[-95.82857,29.73462]]]}},{"type":"Feature","properties":{"PRECINCT":"fort-bend:3144","COUNTY":"Fort Bend"},"geometry":{"type":"Polygon","coordinates":[[[-95.7947,29.7357],[-95.79369,29.73605],[-95.79328,29.73599],[-95.78832,29.73461],[-95.78702,29.73384],[-95.7841,29.73153],[-95.78101,29.73028],[-95.7787,29.72897],[-95.77496,29.7258],[-95.77259,29.72424],[-95.77254,29.71734],[-95.77325,29.71406],[-95.77683,29.71508],[-95.78164,29.71893],[-95.7835,29.71973],[-95.78491,29.71996],[-95.78656,29.71984],[-95.78809,29.71941],[-95.78981,29.71826],[-95.79998,29.72687],[-95.80123,29.72574],[-95.81401,29.73695],[-95.80696,29.74323],[-95.80264,29.74015],[-95.80184,29.73912],[-95.8001,29.7386],[-95.79671,29.73693],[-95.79596,29.73683],[-95.7947,29.7357]]]}},{"type":"Feature","properties":{"PRECINCT":"fort-bend:3145","COUNTY":"Fort Bend"},"geometry":{"type":"Polygon","coordinates":[[[-95.78029,29.73738],[-95.77785,29.73465],[-95.77624,29.73379],[-95.77457,29.73339],[-95.77272,29.73332],[-95.77259,29.72424],[-95.77496,29.7258],[-95.7787,29.72897],[-95.78101,29.73028],[-95.7841,29.73153],[-95.78702,29.73384],[-95.78832,29.73461],[-95.79328,29.73599],[-95.79369,29.73605],[-95.7947,29.7357],[-95.79596,29.73683],[-95.79671,29.73693],[-95.8001,29.7386],[-95.80184,29.73912],[-95.80264,29.74015],[-95.80696,29.74323],[-95.79888,29.75057],[-95.78735,29.74083],[-95.78531,29.73964],[-95.78537,29.73951],[-95.78296,29.73894],[-95.78118,29.73803],[-95.78029,29.73738]]]}},{"type":"Feature","properties":{"PRECINCT":"fort-bend:3146","COUNTY":"Fort Bend"},"geometry":{"type":"Polygon","coordinates":[[[-95.81956,29.71438],[-95.81662,29.71426],[-95.81427,29.71459],[-95.81377,29.71251],[-95.81382,29.71145],[-95.81527,29.70618],[-95.81544,29.70459],[-95.81511,29.70311],[-95.81344,29.69936],[-95.81302,29.69736],[-95.84592,29.6947],[-95.84616,29.71616],[-95.84203,29.71625],[-95.84039,29.71589],[-95.83797,29.71497],[-95.83387,29.71464],[-95.82962,29.71636],[-95.82806,29.71677],[-95.82618,29.71667],[-95.82337,29.71613],[-95.82109,29.71482],[-95.81956,29.71438]]]}},{"type":"Feature","properties":{"PRECINCT":"fort-bend:3156","COUNTY":"Fort Bend"},"geometry":{"type":"Polygon","coordinates":[[[-95.82072,29.7852],[-95.78698,29.76634],[-95.79585,29.75844],[-95.7935,29.75645],[-95.7911,29.75588],[-95.79792,29.74977],[-95.81633,29.7656],[-95.81598,29.76588],[-95.82047,29.78017],[-95.82072,29.7852]]]}},{"type":"Feature","properties":{"PRECINCT":"fort-bend:3159","COUNTY":"Fort Bend"},"geometry":{"type":"Polygon","coordinates":[[[-95.82791,29.74868],[-95.8107,29.73402],[-95.81079,29.73374],[-95.81859,29.72683],[-95.81858,29.72632],[-95.82131,29.72838],[-95.82136,29.72869],[-95.82857,29.73462],[-95.82939,29.73473],[-95.83036,29.73429],[-95.8379,29.73431],[-95.83795,29.7466],[-95.83746,29.74783],[-95.82905,29.74788],[-95.82791,29.74868]]]}},{"type":"Feature","properties":{"PRECINCT":"fort-bend:3160","COUNTY":"Fort Bend"},"geometry":{"type":"Polygon","coordinates":[[[-95.71135,29.72364],[-95.68708,29.71008],[-95.6902,29.70805],[-95.69217,29.7073],[-95.74302,29.70314],[-95.74411,29.71322],[-95.74458,29.71481],[-95.74603,29.71662],[-95.75143,29.72044],[-95.74803,29.72326],[-95.74714,29.7226],[-95.74584,29.72327],[-95.74105,29.72404],[-95.73766,29.72305],[-95.73557,29.72207],[-95.73092,29.71872],[-95.72981,29.71872],[-95.72792,29.71922],[-95.72668,29.71894],[-95.72595,29.71834],[-95.7258,29.71742],[-95.7248,29.71693],[-95.72201,29.7179],[-95.72134,29.71965],[-95.71753,29.72144],[-95.71678,29.72122],[-95.71635,29.72056],[-95.71582,29.72025],[-95.71345,29.72086],[-95.71277,29.72294],[-95.7123,29.72318],[-95.71131,29.72294],[-95.71135,29.72364]]]}},{"type":"Feature","properties":{"PRECINCT":"fort-bend:4082","COUNTY":"Fort Bend"},"geometry":{"type":"Polygon","coordinates":[[[-95.75351,29.67309],[-95.74386,29.66456],[-95.71499,29.66505],[-95.71425,29.63083],[-95.71621,29.63039],[-95.71713,29.6304],[-95.71803,29.63112],[-95.71838,29.6321],[-95.71499,29.63789],[-95.71473,29.63948],[-95.71515,29.64139],[-95.71728,29.64297],[-95.71801,29.64382],[-95.71806,29.64422],[-95.72199,29.64748],[-95.72338,29.64772],[-95.72661,29.64625],[-95.72731,29.64621],[-95.72892,29.64677],[-95.73099,29.64657],[-95.73324,29.64539],[-95.74342,29.64346],[-95.74511,29.64405],[-95.74575,29.64502],[-95.74576,29.64691],[-95.74438,29.64947],[-95.74272,29.6514],[-95.74256,29.65327],[-95.74284,29.65386],[-95.74409,29.65525],[-95.74505,29.65554],[-95.74593,29.65522],[-95.74752,29.65406],[-95.74893,29.65358],[-95.75159,29.65419],[-95.75262,29.65495],[-95.75583,29.66082],[-95.75692,29.66197],[-95.75834,29.66293],[-95.75865,29.67002],[-95.76246,29.6749],[-95.76263,29.67915],[-95.75351,29.67309]]]}}]}