{"type":"FeatureCollection","features":[{"type":"Feature","properties":{"PRECINCT":"11","VTD":"0011"},"geometry":{"type":"Polygon","coordinates":[[[-101.085921,35.915805],[-101.086068,35.625267],[-101.250438,35.625128],[-101.281531,35.624845],[-101.334209,35.62486],[-101.379988,35.624505],[-101.434572,35.624418],[-101.434563,35.631308],[-101.434226,35.631263],[-101.434068,35.635474],[-101.43438,35.635463],[-101.43429,35.654387],[-101.433496,35.653961],[-101.433621,35.654846],[-101.419549,35.655019],[-101.419401,35.654545],[-101.416329,35.653489],[-101.407836,35.651452],[-101.407749,35.647865],[-101.406594,35.64796],[-101.40654,35.647669],[-101.403174,35.647668],[-101.403113,35.642615],[-101.40135,35.64187],[-101.400744,35.641193],[-101.397655,35.641319],[-101.397109,35.641698],[-101.396804,35.642375],[-101.394534,35.649413],[-101.393985,35.650217],[-101.39157,35.652227],[-101.390864,35.653106],[-101.384357,35.662091],[-101.381127,35.66498],[-101.380676,35.666022],[-101.380616,35.667715],[-101.376564,35.668286],[-101.370445,35.667908],[-101.367343,35.667985],[-101.360071,35.666514],[-101.354133,35.665871],[-101.351306,35.664687],[-101.34478,35.668331],[-101.342797,35.669057],[-101.342267,35.669535],[-101.341182,35.671267],[-101.341187,35.672316],[-101.341585,35.673162],[-101.341161,35.675271],[-101.341273,35.677437],[-101.341554,35.678192],[-101.338777,35.678536],[-101.338413,35.679887],[-101.33743,35.680505],[-101.33715,35.681261],[-101.337039,35.685175],[-101.336282,35.687395],[-101.335863,35.692019],[-101.334769,35.693393],[-101.335134,35.695636],[-101.334966,35.696094],[-101.333844,35.697193],[-101.332414,35.700146],[-101.332751,35.701747],[-101.332022,35.702685],[-101.331882,35.703258],[-101.333033,35.704974],[-101.332809,35.705432],[-101.332135,35.705776],[-101.332107,35.70605],[-101.333146,35.706622],[-101.335476,35.708842],[-101.335841,35.709483],[-101.335785,35.711612],[-101.336319,35.712252],[-101.336544,35.713626],[-101.335702,35.714496],[-101.335786,35.714885],[-101.336404,35.715388],[-101.338369,35.715662],[-101.33879,35.715983],[-101.340643,35.718203],[-101.340784,35.718935],[-101.342636,35.718431],[-101.343029,35.7185],[-101.343142,35.72001],[-101.343732,35.721017],[-101.34376,35.722368],[-101.344941,35.723924],[-101.344828,35.725435],[-101.343904,35.729395],[-101.342979,35.732325],[-101.342165,35.733424],[-101.342671,35.734637],[-101.3427,35.737155],[-101.340792,35.738941],[-101.339894,35.740268],[-101.339277,35.741344],[-101.338699,35.743985],[-101.341729,35.743402],[-101.342681,35.746667],[-101.341077,35.747616],[-101.340404,35.749241],[-101.339702,35.7497],[-101.3397,35.750041],[-101.339051,35.750913],[-101.336861,35.751692],[-101.335486,35.75279],[-101.333071,35.753294],[-101.332734,35.753661],[-101.332734,35.754439],[-101.332397,35.754874],[-101.326361,35.75627],[-101.325546,35.757872],[-101.324592,35.758651],[-101.317908,35.760917],[-101.316111,35.76197],[-101.312516,35.765656],[-101.309342,35.768173],[-101.308612,35.769844],[-101.309623,35.771447],[-101.309595,35.772111],[-101.308696,35.773553],[-101.307713,35.774285],[-101.307151,35.778611],[-101.304764,35.78161],[-101.304286,35.783052],[-101.304454,35.785455],[-101.302769,35.787584],[-101.299454,35.789231],[-101.298386,35.790101],[-101.296616,35.790994],[-101.295902,35.792451],[-101.295471,35.794426],[-101.294314,35.795968],[-101.294093,35.798393],[-101.292237,35.80001],[-101.287819,35.801567],[-101.285796,35.801636],[-101.284335,35.800903],[-101.283633,35.800903],[-101.279868,35.801589],[-101.278519,35.801405],[-101.277311,35.80081],[-101.275963,35.800626],[-101.274333,35.800694],[-101.273405,35.801335],[-101.272872,35.801381],[-101.272001,35.800968],[-101.270399,35.800624],[-101.265791,35.801172],[-101.263684,35.800782],[-101.262278,35.801102],[-101.26152,35.800598],[-101.260003,35.800163],[-101.257109,35.79991],[-101.254451,35.799096],[-101.253635,35.799144],[-101.250932,35.800822],[-101.250749,35.801875],[-101.250437,35.801874],[-101.249808,35.802971],[-101.248713,35.803566],[-101.247505,35.804872],[-101.246747,35.805444],[-101.245146,35.805789],[-101.244753,35.806132],[-101.244528,35.806727],[-101.244698,35.808238],[-101.24394,35.808925],[-101.240343,35.80927],[-101.239585,35.809934],[-101.236101,35.810806],[-101.235202,35.811195],[-101.233657,35.812569],[-101.232336,35.813074],[-101.231324,35.813028],[-101.230566,35.81415],[-101.229611,35.814791],[-101.228178,35.814906],[-101.226604,35.814724],[-101.224833,35.813763],[-101.220927,35.813879],[-101.219607,35.814314],[-101.219045,35.814726],[-101.218146,35.814658],[-101.216066,35.815803],[-101.215223,35.816009],[-101.214577,35.816421],[-101.213847,35.817337],[-101.213342,35.819214],[-101.214017,35.821136],[-101.213933,35.822212],[-101.213371,35.823196],[-101.213541,35.825233],[-101.21326,35.8256],[-101.213963,35.827042],[-101.213935,35.827454],[-101.21357,35.827706],[-101.213205,35.830315],[-101.210621,35.83391],[-101.210312,35.83581],[-101.209582,35.836977],[-101.208289,35.838259],[-101.206939,35.839038],[-101.205112,35.839198],[-101.203987,35.839611],[-101.202217,35.840824],[-101.196426,35.843846],[-101.19249,35.843778],[-101.187936,35.846686],[-101.185209,35.847098],[-101.185013,35.847304],[-101.180655,35.848402],[-101.179165,35.849227],[-101.176127,35.85044],[-101.174496,35.852225],[-101.169042,35.853781],[-101.167748,35.855109],[-101.166286,35.85536],[-101.164739,35.856253],[-101.163615,35.856344],[-101.161168,35.857328],[-101.158609,35.857671],[-101.156247,35.858449],[-101.15515,35.858448],[-101.153941,35.85886],[-101.153097,35.859638],[-101.15186,35.860119],[-101.150229,35.860347],[-101.14795,35.861079],[-101.14674,35.862361],[-101.145896,35.862864],[-101.145502,35.863551],[-101.142549,35.8649],[-101.140243,35.865655],[-101.138582,35.868745],[-101.137935,35.869271],[-101.136444,35.869774],[-101.135319,35.870483],[-101.131944,35.870482],[-101.131269,35.870939],[-101.130987,35.871489],[-101.131295,35.873709],[-101.131042,35.874213],[-101.130113,35.874707],[-101.129601,35.87608],[-101.12735,35.877613],[-101.125433,35.878355],[-101.123712,35.878891],[-101.121912,35.87903],[-101.120621,35.882281],[-101.119918,35.883082],[-101.119329,35.884342],[-101.118879,35.88464],[-101.117219,35.884984],[-101.116684,35.885533],[-101.116574,35.887914],[-101.115871,35.888418],[-101.115057,35.891188],[-101.113454,35.893089],[-101.113202,35.893707],[-101.112782,35.897025],[-101.110674,35.89975],[-101.104459,35.904537],[-101.101731,35.907125],[-101.10038,35.907583],[-101.097596,35.909209],[-101.094473,35.910606],[-101.091323,35.912828],[-101.090338,35.913881],[-101.088003,35.914271],[-101.085921,35.915805]]]}},{"type":"Feature","properties":{"PRECINCT":"14","VTD":"0014"},"geometry":{"type":"Polygon","coordinates":[[[-101.433621,35.654846],[-101.433496,35.653961],[-101.43429,35.654387],[-101.43438,35.635463],[-101.434068,35.635474],[-101.434226,35.631263],[-101.434563,35.631308],[-101.434572,35.624418],[-101.490402,35.624221],[-101.48722,35.640059],[-101.464845,35.647851],[-101.463767,35.64755],[-101.46161,35.64754],[-101.461814,35.64709],[-101.459448,35.647205],[-101.457508,35.647563],[-101.455134,35.647544],[-101.454762,35.648241],[-101.453839,35.648466],[-101.451544,35.649878],[-101.4513,35.649337],[-101.450798,35.649153],[-101.450309,35.648153],[-101.44789,35.64816],[-101.447904,35.648791],[-101.444522,35.64879],[-101.445409,35.650263],[-101.439095,35.652326],[-101.439955,35.654685],[-101.433621,35.654846]]]}},{"type":"Feature","properties":{"PRECINCT":"21","VTD":"0021"},"geometry":{"type":"Polygon","coordinates":[[[-101.555117,35.717536],[-101.553682,35.715898],[-101.552636,35.716935],[-101.551449,35.717042],[-101.550374,35.716884],[-101.549329,35.716272],[-101.548013,35.716745],[-101.542799,35.716715],[-101.541227,35.716898],[-101.540105,35.716188],[-101.538702,35.71573],[-101.537496,35.714471],[-101.536373,35.713922],[-101.535812,35.713922],[-101.53323,35.715592],[-101.532304,35.715821],[-101.528796,35.71582],[-101.525652,35.716368],[-101.523913,35.715887],[-101.521162,35.71655],[-101.520517,35.715795],[-101.516811,35.716961],[-101.513723,35.719042],[-101.512431,35.720896],[-101.509997,35.721759],[-101.509854,35.717669],[-101.512152,35.717966],[-101.512629,35.717417],[-101.512462,35.716273],[-101.511761,35.714922],[-101.506235,35.710365],[-101.505647,35.709312],[-101.505619,35.708694],[-101.506378,35.707092],[-101.509678,35.704037],[-101.514293,35.702586],[-101.514798,35.702129],[-101.51435,35.700504],[-101.513201,35.699177],[-101.512752,35.698238],[-101.512837,35.697346],[-101.514634,35.696362],[-101.517075,35.696592],[-101.51772,35.696294],[-101.520274,35.694556],[-101.521397,35.693595],[-101.522239,35.692428],[-101.5221,35.691398],[-101.520809,35.690436],[-101.519969,35.688834],[-101.520193,35.688239],[-101.5214,35.687186],[-101.521513,35.686179],[-101.521233,35.685493],[-101.519719,35.684004],[-101.519494,35.683547],[-101.519607,35.682311],[-101.517476,35.681692],[-101.517111,35.681394],[-101.517083,35.680731],[-101.518514,35.679633],[-101.521432,35.67929],[-101.522302,35.678833],[-101.522023,35.675308],[-101.522276,35.673912],[-101.523034,35.672836],[-101.524324,35.672471],[-101.526876,35.673387],[-101.528952,35.672724],[-101.528868,35.672014],[-101.528055,35.670824],[-101.527383,35.668741],[-101.527468,35.66604],[-101.527973,35.665697],[-101.528534,35.665651],[-101.530272,35.66659],[-101.531198,35.66675],[-101.53347,35.666705],[-101.53375,35.666545],[-101.53375,35.665904],[-101.531255,35.664919],[-101.53019,35.663454],[-101.531171,35.662562],[-101.534201,35.660892],[-101.536586,35.660412],[-101.537708,35.65968],[-101.538381,35.657483],[-101.538129,35.656979],[-101.537316,35.65675],[-101.536811,35.656269],[-101.536195,35.655216],[-101.535859,35.653867],[-101.53642,35.653318],[-101.537607,35.653413],[-101.537878,35.652769],[-101.539799,35.650864],[-101.539813,35.649954],[-101.540431,35.648878],[-101.541328,35.64826],[-101.542226,35.64707],[-101.542955,35.646704],[-101.542787,35.645262],[-101.539787,35.643797],[-101.540208,35.642126],[-101.538806,35.641279],[-101.53847,35.640638],[-101.539985,35.637251],[-101.540602,35.636702],[-101.541611,35.636382],[-101.542929,35.634597],[-101.545705,35.633796],[-101.546154,35.633155],[-101.54607,35.632469],[-101.545173,35.631919],[-101.542818,35.631736],[-101.540239,35.630316],[-101.538026,35.629834],[-101.537577,35.629536],[-101.537579,35.628941],[-101.539094,35.627337],[-101.539179,35.626855],[-101.538871,35.626649],[-101.536994,35.626486],[-101.53649,35.626051],[-101.536406,35.625593],[-101.536933,35.624498],[-101.535491,35.624495],[-101.535485,35.624172],[-101.622831,35.624057],[-101.6226,35.639126],[-101.622841,35.651176],[-101.623026,35.811127],[-101.579791,35.758815],[-101.578738,35.756593],[-101.577195,35.746099],[-101.576335,35.743848],[-101.565542,35.728221],[-101.561684,35.724216],[-101.556017,35.720298],[-101.555562,35.719541],[-101.555117,35.717536]]]}},{"type":"Feature","properties":{"PRECINCT":"23","VTD":"0023"},"geometry":{"type":"Polygon","coordinates":[[[-101.510441,35.703712],[-101.496438,35.692047],[-101.495747,35.690829],[-101.495034,35.687071],[-101.494641,35.686146],[-101.49011,35.681818],[-101.489203,35.6813],[-101.481293,35.678358],[-101.480091,35.67766],[-101.479138,35.676509],[-101.4776,35.672455],[-101.476669,35.671665],[-101.472515,35.669454],[-101.471602,35.668393],[-101.471278,35.667076],[-101.470647,35.667388],[-101.470647,35.66716],[-101.469469,35.667824],[-101.465374,35.667893],[-101.465093,35.66723],[-101.465514,35.666703],[-101.465345,35.665559],[-101.466046,35.664506],[-101.465709,35.66414],[-101.465821,35.66359],[-101.465288,35.662057],[-101.465063,35.661942],[-101.464755,35.662309],[-101.46439,35.662332],[-101.463409,35.661943],[-101.462203,35.662035],[-101.461754,35.662813],[-101.460464,35.6635],[-101.459287,35.664713],[-101.455613,35.665881],[-101.453566,35.666774],[-101.45264,35.6665],[-101.451602,35.665424],[-101.449499,35.664623],[-101.448854,35.664669],[-101.444029,35.668263],[-101.4433,35.667737],[-101.440607,35.66689],[-101.439822,35.666341],[-101.438195,35.664716],[-101.437718,35.663525],[-101.434168,35.662789],[-101.434139,35.657359],[-101.433681,35.655445],[-101.433157,35.654864],[-101.439955,35.654685],[-101.439095,35.652326],[-101.445409,35.650263],[-101.444522,35.64879],[-101.447904,35.648791],[-101.44789,35.64816],[-101.450309,35.648153],[-101.450798,35.649153],[-101.4513,35.649337],[-101.451544,35.649878],[-101.453839,35.648466],[-101.454762,35.648241],[-101.455134,35.647544],[-101.457508,35.647563],[-101.459448,35.647205],[-101.461814,35.64709],[-101.46161,35.64754],[-101.463767,35.64755],[-101.464845,35.647851],[-101.48722,35.640059],[-101.490402,35.624221],[-101.535485,35.624172],[-101.535491,35.624495],[-101.536933,35.624498],[-101.536406,35.625593],[-101.53649,35.626051],[-101.537274,35.626578],[-101.538871,35.626649],[-101.539179,35.626855],[-101.539094,35.627337],[-101.537579,35.628941],[-101.537577,35.629536],[-101.538026,35.629834],[-101.540239,35.630316],[-101.542818,35.631736],[-101.545705,35.632125],[-101.54607,35.632469],[-101.546154,35.633155],[-101.545313,35.633979],[-101.542929,35.634597],[-101.541611,35.636382],[-101.540602,35.636702],[-101.539985,35.637251],[-101.538582,35.640249],[-101.538498,35.641005],[-101.540208,35.642126],[-101.539787,35.643797],[-101.542787,35.645262],[-101.542955,35.646704],[-101.542226,35.64707],[-101.541328,35.64826],[-101.540431,35.648878],[-101.539813,35.649954],[-101.539799,35.650864],[-101.537878,35.652769],[-101.537607,35.653413],[-101.53642,35.653318],[-101.535859,35.653867],[-101.536195,35.655216],[-101.536811,35.656269],[-101.537316,35.65675],[-101.538129,35.656979],[-101.538381,35.657483],[-101.537708,35.65968],[-101.536586,35.660412],[-101.534201,35.660892],[-101.531171,35.662562],[-101.53019,35.663454],[-101.531255,35.664919],[-101.53375,35.665904],[-101.53375,35.666545],[-101.53347,35.666705],[-101.531198,35.66675],[-101.530272,35.66659],[-101.528534,35.665651],[-101.527973,35.665697],[-101.527468,35.66604],[-101.527383,35.668741],[-101.528055,35.670824],[-101.528868,35.672014],[-101.528952,35.672724],[-101.526876,35.673387],[-101.524324,35.672471],[-101.523034,35.672836],[-101.522276,35.673912],[-101.522023,35.675308],[-101.522302,35.678833],[-101.521432,35.67929],[-101.518514,35.679633],[-101.517083,35.680731],[-101.517111,35.681394],[-101.517476,35.681692],[-101.519607,35.682311],[-101.519494,35.683547],[-101.519719,35.684004],[-101.521233,35.685493],[-101.521513,35.686179],[-101.5214,35.687186],[-101.520193,35.688239],[-101.519969,35.688834],[-101.520809,35.690436],[-101.5221,35.691398],[-101.522239,35.692428],[-101.521397,35.693595],[-101.520274,35.694556],[-101.51772,35.696294],[-101.517075,35.696592],[-101.514634,35.696362],[-101.512837,35.697346],[-101.512752,35.698238],[-101.513201,35.699177],[-101.51435,35.700504],[-101.514798,35.702129],[-101.514293,35.702586],[-101.510441,35.703712]]]}},{"type":"Feature","properties":{"PRECINCT":"31","VTD":"0031"},"geometry":{"type":"Polygon","coordinates":[[[-101.623466,36.055405],[-101.30616,36.05525],[-101.399,35.95077],[-101.412221,35.929417],[-101.414594,35.927699],[-101.438286,35.917132],[-101.441498,35.915289],[-101.44253,35.913634],[-101.446728,35.902244],[-101.447274,35.899582],[-101.447885,35.882168],[-101.425634,35.882129],[-101.424357,35.880975],[-101.423007,35.878045],[-101.417306,35.872612],[-101.414775,35.871857],[-101.412666,35.87149],[-101.411289,35.870208],[-101.404055,35.871086],[-101.391525,35.803997],[-101.391139,35.801611],[-101.392717,35.802864],[-101.393845,35.803213],[-101.394954,35.803281],[-101.409414,35.800767],[-101.411529,35.800089],[-101.423772,35.79485],[-101.431454,35.793309],[-101.425454,35.778072],[-101.417912,35.750177],[-101.417713,35.748244],[-101.418151,35.734548],[-101.421327,35.735898],[-101.422899,35.736173],[-101.426521,35.733472],[-101.429159,35.732144],[-101.430787,35.731687],[-101.434353,35.731664],[-101.435785,35.731183],[-101.436683,35.731137],[-101.438283,35.730611],[-101.438564,35.73013],[-101.439434,35.729604],[-101.439434,35.72926],[-101.440472,35.728734],[-101.442465,35.728642],[-101.443672,35.728184],[-101.444963,35.728253],[-101.448695,35.724178],[-101.449341,35.723926],[-101.451306,35.72404],[-101.452288,35.723788],[-101.454701,35.722506],[-101.455992,35.722506],[-101.458266,35.722895],[-101.462477,35.724038],[-101.465425,35.724312],[-101.468091,35.724265],[-101.47087,35.726141],[-101.472667,35.726805],[-101.476485,35.727604],[-101.479207,35.72726],[-101.483165,35.727167],[-101.485466,35.726571],[-101.487767,35.725631],[-101.491108,35.726133],[-101.49282,35.726064],[-101.494476,35.725422],[-101.497393,35.723498],[-101.501316,35.722013],[-101.503057,35.721579],[-101.509876,35.72181],[-101.512431,35.720896],[-101.513723,35.719042],[-101.516811,35.716961],[-101.520517,35.715795],[-101.521162,35.71655],[-101.523913,35.715887],[-101.525652,35.716368],[-101.528796,35.71582],[-101.532304,35.715821],[-101.53323,35.715592],[-101.535812,35.713922],[-101.536373,35.713922],[-101.537496,35.714471],[-101.538702,35.71573],[-101.540105,35.716188],[-101.541227,35.716898],[-101.542799,35.716715],[-101.548013,35.716745],[-101.549329,35.716272],[-101.550374,35.716884],[-101.551449,35.717042],[-101.552636,35.716935],[-101.553806,35.715862],[-101.555117,35.717536],[-101.555562,35.719541],[-101.556017,35.720298],[-101.561684,35.724216],[-101.565542,35.728221],[-101.576335,35.743848],[-101.577195,35.746099],[-101.578738,35.756593],[-101.579791,35.758815],[-101.623026,35.811127],[-101.623145,35.990352],[-101.623466,36.055405]]]}},{"type":"Feature","properties":{"PRECINCT":"33","VTD":"0033"},"geometry":{"type":"Polygon","coordinates":[[[-101.418151,35.734548],[-101.418458,35.720219],[-101.413379,35.703115],[-101.412374,35.701563],[-101.410712,35.699995],[-101.402925,35.696102],[-101.400367,35.69434],[-101.394977,35.688707],[-101.395103,35.68776],[-101.394418,35.686924],[-101.39606,35.676772],[-101.40378,35.676671],[-101.405399,35.675709],[-101.407601,35.674885],[-101.407838,35.672691],[-101.407825,35.663632],[-101.407282,35.663661],[-101.40727,35.662122],[-101.406586,35.662109],[-101.406638,35.658506],[-101.40575,35.658482],[-101.405796,35.656973],[-101.392363,35.656971],[-101.394428,35.654183],[-101.397605,35.651845],[-101.399096,35.649996],[-101.399249,35.648052],[-101.397626,35.642062],[-101.397482,35.641369],[-101.397655,35.641319],[-101.400744,35.641193],[-101.40135,35.64187],[-101.403113,35.642615],[-101.403174,35.647668],[-101.40654,35.647669],[-101.406594,35.64796],[-101.407749,35.647865],[-101.407836,35.651452],[-101.416329,35.653489],[-101.419401,35.654545],[-101.419549,35.655019],[-101.433157,35.654864],[-101.433681,35.655445],[-101.434139,35.657359],[-101.434168,35.662789],[-101.437718,35.663525],[-101.438195,35.664716],[-101.439822,35.666341],[-101.440607,35.66689],[-101.4433,35.667737],[-101.444029,35.668263],[-101.448854,35.664669],[-101.449499,35.664623],[-101.451602,35.665424],[-101.45264,35.6665],[-101.453566,35.666774],[-101.455613,35.665881],[-101.459287,35.664713],[-101.460464,35.6635],[-101.461754,35.662813],[-101.462203,35.662035],[-101.463409,35.661943],[-101.46439,35.662332],[-101.464755,35.662309],[-101.465063,35.661942],[-101.465288,35.662057],[-101.465821,35.66359],[-101.465709,35.66414],[-101.466046,35.664506],[-101.465345,35.665559],[-101.465514,35.666703],[-101.465093,35.66723],[-101.465374,35.667893],[-101.469469,35.667824],[-101.470647,35.66716],[-101.470647,35.667388],[-101.471278,35.667076],[-101.471602,35.668393],[-101.472515,35.669454],[-101.476669,35.671665],[-101.4776,35.672455],[-101.479138,35.676509],[-101.480091,35.67766],[-101.481293,35.678358],[-101.489203,35.6813],[-101.49011,35.681818],[-101.494641,35.686146],[-101.495034,35.687071],[-101.495747,35.690829],[-101.496438,35.692047],[-101.510441,35.703712],[-101.509045,35.704553],[-101.506378,35.707092],[-101.505619,35.708694],[-101.505647,35.709312],[-101.506235,35.710365],[-101.511761,35.714922],[-101.512462,35.716273],[-101.512629,35.717417],[-101.512152,35.717966],[-101.509854,35.717669],[-101.509876,35.72181],[-101.503057,35.721579],[-101.501316,35.722013],[-101.497393,35.723498],[-101.494476,35.725422],[-101.49282,35.726064],[-101.491108,35.726133],[-101.487767,35.725631],[-101.484007,35.727029],[-101.479207,35.72726],[-101.476485,35.727604],[-101.472667,35.726805],[-101.47087,35.726141],[-101.468091,35.724265],[-101.465425,35.724312],[-101.462477,35.724038],[-101.458266,35.722895],[-101.455992,35.722506],[-101.454701,35.722506],[-101.452288,35.723788],[-101.451306,35.72404],[-101.449341,35.723926],[-101.448695,35.724178],[-101.444963,35.728253],[-101.443672,35.728184],[-101.442465,35.728642],[-101.440472,35.728734],[-101.439434,35.72926],[-101.439434,35.729604],[-101.438564,35.73013],[-101.438283,35.730611],[-101.436683,35.731137],[-101.435785,35.731183],[-101.434353,35.731664],[-101.430787,35.731687],[-101.429159,35.732144],[-101.426521,35.733472],[-101.422899,35.736173],[-101.421327,35.735898],[-101.418151,35.734548]]]}},{"type":"Feature","properties":{"PRECINCT":"41","VTD":"0041"},"geometry":{"type":"Polygon","coordinates":[[[-101.228013,36.05506],[-101.085735,36.055276],[-101.085921,35.915805],[-101.088003,35.914271],[-101.090338,35.913881],[-101.091323,35.912828],[-101.094473,35.910606],[-101.097596,35.909209],[-101.10038,35.907583],[-101.101731,35.907125],[-101.104459,35.904537],[-101.110674,35.89975],[-101.112782,35.897025],[-101.113202,35.893707],[-101.113454,35.893089],[-101.115057,35.891188],[-101.115871,35.888418],[-101.116574,35.887914],[-101.116684,35.885533],[-101.117219,35.884984],[-101.118879,35.88464],[-101.119329,35.884342],[-101.119918,35.883082],[-101.120621,35.882281],[-101.121912,35.87903],[-101.123712,35.878891],[-101.125433,35.878355],[-101.12735,35.877613],[-101.129601,35.87608],[-101.130113,35.874707],[-101.131042,35.874213],[-101.131295,35.873709],[-101.130987,35.871489],[-101.131269,35.870939],[-101.131944,35.870482],[-101.135319,35.870483],[-101.136444,35.869774],[-101.137935,35.869271],[-101.138582,35.868745],[-101.140243,35.865655],[-101.142549,35.8649],[-101.145502,35.863551],[-101.145896,35.862864],[-101.14674,35.862361],[-101.14795,35.861079],[-101.150229,35.860347],[-101.15186,35.860119],[-101.153097,35.859638],[-101.153941,35.85886],[-101.15515,35.858448],[-101.156247,35.858449],[-101.158609,35.857671],[-101.161168,35.857328],[-101.163615,35.856344],[-101.164739,35.856253],[-101.166286,35.85536],[-101.167748,35.855109],[-101.169042,35.853781],[-101.174496,35.852225],[-101.176127,35.85044],[-101.179165,35.849227],[-101.180655,35.848402],[-101.185013,35.847304],[-101.185209,35.847098],[-101.187936,35.846686],[-101.19249,35.843778],[-101.196426,35.843846],[-101.202217,35.840824],[-101.203987,35.839611],[-101.205112,35.839198],[-101.206939,35.839038],[-101.208289,35.838259],[-101.209582,35.836977],[-101.210312,35.83581],[-101.210621,35.83391],[-101.213205,35.830315],[-101.21357,35.827706],[-101.213935,35.827454],[-101.213963,35.827042],[-101.21326,35.8256],[-101.213541,35.825233],[-101.213371,35.823196],[-101.213933,35.822212],[-101.214017,35.821136],[-101.213342,35.819214],[-101.213847,35.817337],[-101.214577,35.816421],[-101.215223,35.816009],[-101.216066,35.815803],[-101.218146,35.814658],[-101.219045,35.814726],[-101.219607,35.814314],[-101.220927,35.813879],[-101.224833,35.813763],[-101.226604,35.814724],[-101.228178,35.814906],[-101.229611,35.814791],[-101.230566,35.81415],[-101.231324,35.813028],[-101.232336,35.813074],[-101.233657,35.812569],[-101.235202,35.811195],[-101.236101,35.810806],[-101.239585,35.809934],[-101.240343,35.80927],[-101.24394,35.808925],[-101.244698,35.808238],[-101.244528,35.806727],[-101.244753,35.806132],[-101.245146,35.805789],[-101.246747,35.805444],[-101.247505,35.804872],[-101.248713,35.803566],[-101.249808,35.802971],[-101.250437,35.801874],[-101.250749,35.801875],[-101.250932,35.800822],[-101.253635,35.799144],[-101.254451,35.799096],[-101.257109,35.79991],[-101.260003,35.800163],[-101.26152,35.800598],[-101.262278,35.801102],[-101.263684,35.800782],[-101.265791,35.801172],[-101.270399,35.800624],[-101.272001,35.800968],[-101.272872,35.801381],[-101.273405,35.801335],[-101.274333,35.800694],[-101.275963,35.800626],[-101.277311,35.80081],[-101.278519,35.801405],[-101.279868,35.801589],[-101.283633,35.800903],[-101.284335,35.800903],[-101.285796,35.801636],[-101.287819,35.801567],[-101.292237,35.80001],[-101.294093,35.798393],[-101.294314,35.795968],[-101.295471,35.794426],[-101.295902,35.792451],[-101.296616,35.790994],[-101.298386,35.790101],[-101.299454,35.789231],[-101.302769,35.787584],[-101.304454,35.785455],[-101.304286,35.783052],[-101.304764,35.78161],[-101.307151,35.778611],[-101.307713,35.774285],[-101.308696,35.773553],[-101.309595,35.772111],[-101.309623,35.771447],[-101.308612,35.769844],[-101.309342,35.768173],[-101.312516,35.765656],[-101.316111,35.76197],[-101.317908,35.760917],[-101.324592,35.758651],[-101.325546,35.757872],[-101.326361,35.75627],[-101.332397,35.754874],[-101.332734,35.754439],[-101.332734,35.753661],[-101.333071,35.753294],[-101.335486,35.75279],[-101.336861,35.751692],[-101.339051,35.750913],[-101.3397,35.750041],[-101.339702,35.7497],[-101.340404,35.749241],[-101.341077,35.747616],[-101.342681,35.746667],[-101.341729,35.743402],[-101.344628,35.742703],[-101.344611,35.743837],[-101.347004,35.747247],[-101.347201,35.747205],[-101.351648,35.744501],[-101.352492,35.743767],[-101.353563,35.741638],[-101.354859,35.73976],[-101.357412,35.737561],[-101.358057,35.737309],[-101.362689,35.736987],[-101.363671,35.736185],[-101.364092,35.73543],[-101.365467,35.734948],[-101.366758,35.734078],[-101.367909,35.734009],[-101.368947,35.733413],[-101.370687,35.733114],[-101.371416,35.732633],[-101.373128,35.732289],[-101.374475,35.731441],[-101.375059,35.73064],[-101.375442,35.730493],[-101.376051,35.729385],[-101.377904,35.727692],[-101.378354,35.726868],[-101.380207,35.726617],[-101.381554,35.726114],[-101.384277,35.726001],[-101.386439,35.725223],[-101.387505,35.726117],[-101.388684,35.726415],[-101.389469,35.727056],[-101.390199,35.727308],[-101.391658,35.728498],[-101.391994,35.729139],[-101.39264,35.729483],[-101.394128,35.729346],[-101.395251,35.728934],[-101.395335,35.728683],[-101.397693,35.727585],[-101.401146,35.728158],[-101.404065,35.729349],[-101.408444,35.729922],[-101.409342,35.729922],[-101.411167,35.729419],[-101.411869,35.729808],[-101.415573,35.732876],[-101.415994,35.732967],[-101.416191,35.733311],[-101.418151,35.734548],[-101.417713,35.748244],[-101.417912,35.750177],[-101.425454,35.778072],[-101.431454,35.793309],[-101.423772,35.79485],[-101.409899,35.800659],[-101.395371,35.803259],[-101.393845,35.803213],[-101.392918,35.802949],[-101.391803,35.802299],[-101.391139,35.801611],[-101.39124,35.802285],[-101.404055,35.871086],[-101.411289,35.870208],[-101.412666,35.87149],[-101.414775,35.871857],[-101.417306,35.872612],[-101.423007,35.878045],[-101.424357,35.880975],[-101.425634,35.882129],[-101.447885,35.882168],[-101.447123,35.90085],[-101.44253,35.913634],[-101.441686,35.915099],[-101.438286,35.917132],[-101.414594,35.927699],[-101.412503,35.929124],[-101.411507,35.930367],[-101.399,35.95077],[-101.30616,36.05525],[-101.228013,36.05506]]]}},{"type":"Feature","properties":{"PRECINCT":"42","VTD":"0042"},"geometry":{"type":"Polygon","coordinates":[[[-101.344599,35.742781],[-101.338699,35.743985],[-101.339277,35.741344],[-101.339894,35.740268],[-101.340792,35.738941],[-101.3427,35.737155],[-101.342671,35.734637],[-101.342165,35.733424],[-101.342979,35.732325],[-101.343904,35.729395],[-101.344828,35.725435],[-101.344941,35.723924],[-101.34376,35.722368],[-101.343732,35.721017],[-101.343142,35.72001],[-101.343029,35.7185],[-101.342636,35.718431],[-101.340784,35.718935],[-101.340643,35.718203],[-101.33879,35.715983],[-101.338369,35.715662],[-101.336404,35.715388],[-101.335786,35.714885],[-101.335702,35.714496],[-101.336544,35.713626],[-101.336319,35.712252],[-101.335785,35.711612],[-101.335841,35.709483],[-101.335476,35.708842],[-101.333146,35.706622],[-101.332107,35.70605],[-101.332135,35.705776],[-101.332809,35.705432],[-101.333033,35.704974],[-101.331882,35.703258],[-101.332022,35.702685],[-101.332751,35.701747],[-101.332414,35.700146],[-101.333844,35.697193],[-101.334966,35.696094],[-101.335134,35.695636],[-101.334769,35.693393],[-101.335863,35.692019],[-101.336282,35.687395],[-101.337039,35.685175],[-101.33715,35.681261],[-101.33743,35.680505],[-101.338413,35.679887],[-101.338777,35.678536],[-101.341554,35.678192],[-101.341273,35.677437],[-101.341161,35.675271],[-101.341585,35.673162],[-101.341187,35.672316],[-101.341348,35.670788],[-101.342797,35.669057],[-101.34478,35.668331],[-101.351306,35.664687],[-101.354133,35.665871],[-101.360071,35.666514],[-101.367343,35.667985],[-101.370445,35.667908],[-101.376564,35.668286],[-101.380616,35.667715],[-101.380676,35.666022],[-101.381127,35.66498],[-101.384357,35.662091],[-101.390864,35.653106],[-101.39157,35.652227],[-101.393985,35.650217],[-101.394534,35.649413],[-101.396804,35.642375],[-101.397482,35.641369],[-101.399249,35.648052],[-101.399096,35.649996],[-101.397605,35.651845],[-101.394428,35.654183],[-101.392363,35.656971],[-101.405796,35.656973],[-101.40575,35.658482],[-101.406638,35.658506],[-101.406586,35.662109],[-101.40727,35.662122],[-101.407282,35.663661],[-101.407825,35.663632],[-101.407838,35.672691],[-101.407601,35.674885],[-101.405399,35.675709],[-101.40378,35.676671],[-101.39606,35.676772],[-101.394418,35.686924],[-101.395103,35.68776],[-101.394977,35.688707],[-101.400367,35.69434],[-101.402925,35.696102],[-101.410712,35.699995],[-101.412374,35.701563],[-101.413379,35.703115],[-101.418458,35.720219],[-101.418151,35.734548],[-101.416191,35.733311],[-101.415994,35.732967],[-101.415573,35.732876],[-101.411167,35.729419],[-101.409342,35.729922],[-101.407742,35.729899],[-101.404065,35.729349],[-101.401146,35.728158],[-101.397693,35.727585],[-101.395335,35.728683],[-101.395251,35.728934],[-101.394128,35.729346],[-101.39264,35.729483],[-101.391994,35.729139],[-101.391658,35.728498],[-101.390199,35.727308],[-101.389469,35.727056],[-101.388684,35.726415],[-101.387505,35.726117],[-101.386439,35.725223],[-101.384277,35.726001],[-101.381554,35.726114],[-101.380207,35.726617],[-101.378354,35.726868],[-101.377904,35.727692],[-101.376051,35.729385],[-101.375442,35.730493],[-101.375059,35.73064],[-101.374475,35.731441],[-101.373128,35.732289],[-101.371416,35.732633],[-101.370687,35.733114],[-101.368947,35.733413],[-101.367909,35.734009],[-101.366758,35.734078],[-101.365467,35.734948],[-101.364092,35.73543],[-101.363671,35.736185],[-101.362689,35.736987],[-101.358057,35.737309],[-101.357412,35.737561],[-101.354859,35.73976],[-101.353563,35.741638],[-101.352492,35.743767],[-101.351648,35.744501],[-101.347201,35.747205],[-101.347004,35.747247],[-101.344611,35.743837],[-101.344599,35.742781]]]}}]}