{"type":"FeatureCollection","features":[{"type":"Feature","properties":{"PRECINCT":"1","VTD":"0001"},"geometry":{"type":"Polygon","coordinates":[[[-100.899952,30.895053],[-100.886505,30.888261],[-100.878539,30.884439],[-100.875719,30.883217],[-100.872149,30.882042],[-100.855896,30.877859],[-100.817457,30.867268],[-100.814792,30.867047],[-100.79295,30.867049],[-100.790238,30.866683],[-100.767805,30.856513],[-100.765455,30.855657],[-100.76408,30.855454],[-100.623528,30.85493],[-100.624059,30.859384],[-100.623754,30.863226],[-100.623706,30.869428],[-100.604209,30.869489],[-100.604019,30.866646],[-100.597138,30.866696],[-100.59627,30.865965],[-100.598888,30.863681],[-100.597976,30.862876],[-100.597076,30.863683],[-100.595613,30.862432],[-100.599749,30.858848],[-100.596413,30.856017],[-100.595327,30.855364],[-100.595647,30.854988],[-100.601097,30.854988],[-100.601136,30.853894],[-100.605333,30.854044],[-100.605308,30.827527],[-100.582734,30.822847],[-100.574108,30.775548],[-100.573286,30.773771],[-100.572844,30.771728],[-100.572839,30.77028],[-100.571692,30.767768],[-100.572805,30.76701],[-100.57237,30.766484],[-100.571605,30.764402],[-100.571445,30.746103],[-100.576064,30.744937],[-100.576434,30.744639],[-100.574342,30.744237],[-100.571791,30.743368],[-100.569575,30.742197],[-100.567925,30.742557],[-100.565647,30.742467],[-100.56342,30.742696],[-100.561949,30.741734],[-100.561396,30.74045],[-100.560469,30.739932],[-100.559898,30.740041],[-100.558048,30.73946],[-100.555129,30.739542],[-100.555311,30.734055],[-100.555155,30.722039],[-100.556914,30.721745],[-100.557348,30.721272],[-100.563989,30.7117],[-100.565582,30.70764],[-100.626405,30.707064],[-100.75025,30.706412],[-100.960587,30.706071],[-100.960501,30.859764],[-100.961935,30.885072],[-100.961911,30.910537],[-100.955663,30.91039],[-100.952446,30.90995],[-100.948459,30.909058],[-100.904277,30.896631],[-100.899952,30.895053]]]}},{"type":"Feature","properties":{"PRECINCT":"2","VTD":"0002"},"geometry":{"type":"Polygon","coordinates":[[[-100.248406,31.088733],[-100.115216,31.087994],[-100.116135,30.892529],[-100.116417,30.876339],[-100.116177,30.861915],[-100.116672,30.809931],[-100.116234,30.710366],[-100.250364,30.709465],[-100.444175,30.708503],[-100.444932,30.708653],[-100.565582,30.70764],[-100.563989,30.7117],[-100.557348,30.721272],[-100.556914,30.721745],[-100.555104,30.722154],[-100.555312,30.733338],[-100.555129,30.739542],[-100.558048,30.73946],[-100.559898,30.740041],[-100.560469,30.739932],[-100.561396,30.74045],[-100.561949,30.741734],[-100.56342,30.742696],[-100.565647,30.742467],[-100.567925,30.742557],[-100.569575,30.742197],[-100.571791,30.743368],[-100.574342,30.744237],[-100.576434,30.744639],[-100.576064,30.744937],[-100.571445,30.746103],[-100.571605,30.764402],[-100.57237,30.766484],[-100.572805,30.76701],[-100.571692,30.767768],[-100.572839,30.77028],[-100.572844,30.771728],[-100.573286,30.773771],[-100.574108,30.775548],[-100.582734,30.822847],[-100.605308,30.827527],[-100.605333,30.854044],[-100.601136,30.853894],[-100.601097,30.854988],[-100.595647,30.854988],[-100.595327,30.855364],[-100.596413,30.856017],[-100.599749,30.858848],[-100.596534,30.86166],[-100.592989,30.858696],[-100.592955,30.854998],[-100.552135,30.855284],[-100.5234,30.855715],[-100.520938,30.856152],[-100.518594,30.856888],[-100.488936,30.870052],[-100.486935,30.870588],[-100.428768,30.8711],[-100.426726,30.871589],[-100.425444,30.872132],[-100.402031,30.88308],[-100.399563,30.883639],[-100.37631,30.883737],[-100.369163,30.883352],[-100.352572,30.883473],[-100.332221,30.879964],[-100.326452,30.879779],[-100.323549,30.885366],[-100.322961,30.887267],[-100.322614,30.889741],[-100.322575,30.911367],[-100.322784,30.912615],[-100.322572,30.912625],[-100.322276,31.061022],[-100.323174,31.063343],[-100.324428,31.064729],[-100.333612,31.071475],[-100.334916,31.072653],[-100.336333,31.074895],[-100.342325,31.086171],[-100.343894,31.088185],[-100.250362,31.088484],[-100.248406,31.088733]]]}},{"type":"Feature","properties":{"PRECINCT":"3","VTD":"0003"},"geometry":{"type":"Polygon","coordinates":[[[-100.491263,31.087766],[-100.343894,31.088185],[-100.342325,31.086171],[-100.336333,31.074895],[-100.334916,31.072653],[-100.333612,31.071475],[-100.324428,31.064729],[-100.323174,31.063343],[-100.322412,31.061573],[-100.322238,31.059825],[-100.322572,30.912625],[-100.322784,30.912615],[-100.322575,30.911367],[-100.322614,30.889741],[-100.322961,30.887267],[-100.323549,30.885366],[-100.326452,30.879779],[-100.332221,30.879964],[-100.352572,30.883473],[-100.369163,30.883352],[-100.37631,30.883737],[-100.399563,30.883639],[-100.402031,30.88308],[-100.425444,30.872132],[-100.426726,30.871589],[-100.428768,30.8711],[-100.486935,30.870588],[-100.488936,30.870052],[-100.518594,30.856888],[-100.520938,30.856152],[-100.5234,30.855715],[-100.552135,30.855284],[-100.592955,30.854998],[-100.59322,30.867042],[-100.590534,30.869532],[-100.587514,30.875168],[-100.5853,30.879999],[-100.584869,30.880106],[-100.581955,30.883567],[-100.580877,30.890384],[-100.579061,30.898421],[-100.578429,30.899771],[-100.576523,30.902015],[-100.575923,30.903538],[-100.576081,30.916755],[-100.577211,30.922117],[-100.577404,30.924327],[-100.576155,30.928472],[-100.574326,30.930914],[-100.5721,30.934662],[-100.570719,30.940777],[-100.566915,30.950708],[-100.564843,30.966223],[-100.566665,30.982705],[-100.56742,30.986369],[-100.563928,30.99579],[-100.560132,31.002249],[-100.557731,31.004584],[-100.55492,31.008709],[-100.547712,31.01651],[-100.541217,31.02245],[-100.532357,31.034622],[-100.527389,31.04165],[-100.527246,31.042143],[-100.516221,31.052771],[-100.513855,31.056052],[-100.512536,31.058759],[-100.5116,31.063215],[-100.511995,31.074792],[-100.511931,31.087523],[-100.491263,31.087766]]]}},{"type":"Feature","properties":{"PRECINCT":"4","VTD":"0004"},"geometry":{"type":"Polygon","coordinates":[[[-100.511931,31.087523],[-100.511995,31.074792],[-100.5116,31.063215],[-100.512536,31.058759],[-100.513855,31.056052],[-100.516221,31.052771],[-100.527246,31.042143],[-100.527389,31.04165],[-100.532357,31.034622],[-100.541217,31.02245],[-100.547712,31.01651],[-100.55492,31.008709],[-100.557731,31.004584],[-100.559986,31.002443],[-100.563928,30.99579],[-100.567232,30.987218],[-100.567394,30.985879],[-100.566665,30.982705],[-100.564889,30.965658],[-100.567008,30.950355],[-100.570719,30.940777],[-100.572183,30.934454],[-100.574326,30.930914],[-100.576155,30.928472],[-100.577352,30.924631],[-100.577306,30.922714],[-100.57618,30.917586],[-100.575994,30.915472],[-100.575923,30.903538],[-100.576523,30.902015],[-100.578429,30.899771],[-100.579061,30.898421],[-100.580877,30.890384],[-100.581955,30.883567],[-100.584869,30.880106],[-100.5853,30.879999],[-100.587514,30.875168],[-100.590534,30.869532],[-100.59322,30.867042],[-100.592989,30.858696],[-100.596534,30.86166],[-100.595613,30.862432],[-100.597076,30.863683],[-100.597976,30.862876],[-100.598888,30.863681],[-100.59627,30.865965],[-100.597138,30.866696],[-100.604019,30.866646],[-100.604209,30.869489],[-100.623706,30.869428],[-100.623754,30.863226],[-100.624059,30.859384],[-100.623528,30.85493],[-100.76408,30.855454],[-100.765455,30.855657],[-100.767805,30.856513],[-100.790238,30.866683],[-100.79295,30.867049],[-100.814792,30.867047],[-100.817457,30.867268],[-100.853833,30.877301],[-100.873796,30.882531],[-100.877408,30.883925],[-100.886505,30.888261],[-100.898049,30.894173],[-100.904277,30.896631],[-100.949964,30.909449],[-100.955663,30.91039],[-100.961911,30.910537],[-100.962038,30.967693],[-100.962364,30.991472],[-100.962166,31.00017],[-100.962176,31.08249],[-100.875383,31.083906],[-100.729591,31.085738],[-100.688028,31.086602],[-100.677109,31.086122],[-100.625376,31.086824],[-100.511931,31.087523]]]}}]}