{"type":"FeatureCollection","features":[{"type":"Feature","properties":{"PRECINCT":"4-2","VTD":"04-2"},"geometry":{"type":"Polygon","coordinates":[[[-101.086046,35.806768],[-100.83092,35.808455],[-100.830986,35.783891],[-100.831317,35.757496],[-100.831547,35.757107],[-100.831374,35.756954],[-100.831573,35.72533],[-100.831116,35.725149],[-100.8307,35.63655],[-100.831002,35.636304],[-100.717216,35.63731],[-100.670911,35.637454],[-100.671023,35.619942],[-100.682563,35.620144],[-100.741672,35.619786],[-100.750419,35.620166],[-100.786565,35.620485],[-100.800008,35.620125],[-100.840542,35.620137],[-100.866022,35.619737],[-100.875423,35.619152],[-100.99004,35.619382],[-101.035289,35.61908],[-101.085935,35.619102],[-101.086046,35.806768]]]}},{"type":"Feature","properties":{"PRECINCT":"1","VTD":"0001"},"geometry":{"type":"Polygon","coordinates":[[[-100.581581,35.818663],[-100.579058,35.723294],[-100.635072,35.722207],[-100.634747,35.711103],[-100.65237,35.710356],[-100.65218,35.694571],[-100.644014,35.694772],[-100.642725,35.694546],[-100.641014,35.693902],[-100.63897,35.692286],[-100.639868,35.691644],[-100.636752,35.688543],[-100.641277,35.685346],[-100.641499,35.684712],[-100.642145,35.684071],[-100.642005,35.683522],[-100.642511,35.682171],[-100.641557,35.681049],[-100.641558,35.680614],[-100.643129,35.680042],[-100.643635,35.67947],[-100.642457,35.67876],[-100.642541,35.678462],[-100.643186,35.678165],[-100.643131,35.677546],[-100.642457,35.677065],[-100.641616,35.676951],[-100.64142,35.676447],[-100.641785,35.676058],[-100.643861,35.676013],[-100.643861,35.675715],[-100.643076,35.674822],[-100.643048,35.674136],[-100.644256,35.672602],[-100.644354,35.67163],[-100.64275,35.670596],[-100.640178,35.670214],[-100.639439,35.669802],[-100.638662,35.668938],[-100.636928,35.668484],[-100.635541,35.667103],[-100.634774,35.666804],[-100.633957,35.650531],[-100.634005,35.637569],[-100.717216,35.63731],[-100.831002,35.636304],[-100.8307,35.63655],[-100.831116,35.725149],[-100.831573,35.72533],[-100.831374,35.756954],[-100.831547,35.757107],[-100.831317,35.757496],[-100.830986,35.783891],[-100.83092,35.808455],[-100.792682,35.808776],[-100.794073,35.834189],[-100.581783,35.837167],[-100.581581,35.818663]]]}},{"type":"Feature","properties":{"PRECINCT":"2","VTD":"0002"},"geometry":{"type":"Polygon","coordinates":[[[-100.722216,36.056851],[-100.679756,36.057052],[-100.625419,36.056552],[-100.618582,36.056858],[-100.540221,36.056491],[-100.540087,36.009551],[-100.539512,35.947094],[-100.539541,35.932114],[-100.541008,35.84129],[-100.54128,35.750043],[-100.541018,35.748728],[-100.541019,35.698374],[-100.540736,35.697529],[-100.540686,35.695097],[-100.629848,35.69491],[-100.629468,35.693719],[-100.630871,35.68928],[-100.635111,35.686376],[-100.635732,35.687431],[-100.6375,35.689287],[-100.635549,35.690647],[-100.636322,35.691386],[-100.63541,35.692022],[-100.636249,35.692827],[-100.628326,35.698244],[-100.617336,35.704054],[-100.608292,35.711813],[-100.575013,35.712035],[-100.559644,35.712339],[-100.560507,35.838379],[-100.560685,35.902176],[-100.561006,35.924783],[-100.548644,35.924783],[-100.54894,35.935873],[-100.54481,35.935957],[-100.545039,35.951731],[-100.555827,35.95182],[-100.55596,35.967597],[-100.557031,35.968535],[-100.559847,35.969885],[-100.561987,35.970458],[-100.563846,35.970687],[-100.566382,35.970389],[-100.568973,35.970801],[-100.572297,35.970503],[-100.575395,35.971029],[-100.576887,35.970937],[-100.578014,35.970433],[-100.578859,35.969517],[-100.582407,35.967891],[-100.586349,35.967043],[-100.587898,35.966173],[-100.588968,35.965944],[-100.591953,35.966057],[-100.594573,35.967499],[-100.598685,35.96878],[-100.599277,35.969306],[-100.599898,35.970771],[-100.601589,35.972144],[-100.605561,35.972876],[-100.610461,35.972645],[-100.613588,35.972895],[-100.615447,35.973696],[-100.616293,35.974359],[-100.619025,35.975434],[-100.624659,35.976622],[-100.626349,35.977219],[-100.629502,35.979144],[-100.635051,35.981642],[-100.636796,35.982971],[-100.638204,35.983383],[-100.6395,35.983475],[-100.640712,35.982766],[-100.642262,35.980477],[-100.642939,35.979012],[-100.643699,35.978944],[-100.646657,35.977433],[-100.651728,35.976977],[-100.655446,35.975101],[-100.657305,35.974643],[-100.658967,35.974689],[-100.66029,35.975445],[-100.661192,35.975674],[-100.664346,35.975125],[-100.669219,35.973684],[-100.672627,35.971738],[-100.675501,35.970845],[-100.678853,35.96906],[-100.680655,35.968625],[-100.68426,35.968739],[-100.686062,35.968487],[-100.690963,35.969449],[-100.694483,35.970479],[-100.698201,35.972676],[-100.699779,35.976224],[-100.703075,35.978421],[-100.704032,35.978421],[-100.708595,35.975856],[-100.710088,35.975421],[-100.711214,35.97542],[-100.71282,35.975878],[-100.71437,35.977663],[-100.715807,35.97867],[-100.721159,35.981027],[-100.723046,35.981003],[-100.727609,35.980521],[-100.730313,35.979856],[-100.73158,35.97942],[-100.735944,35.977106],[-100.740112,35.976166],[-100.742646,35.975249],[-100.746222,35.973187],[-100.747854,35.971629],[-100.749797,35.970689],[-100.751361,35.969273],[-100.752883,35.968357],[-100.75415,35.967992],[-100.75584,35.967832],[-100.756459,35.96813],[-100.757585,35.969344],[-100.759951,35.969482],[-100.761725,35.969918],[-100.763415,35.969621],[-100.764513,35.968889],[-100.765189,35.968866],[-100.76671,35.969462],[-100.76823,35.969646],[-100.769357,35.969028],[-100.773723,35.968114],[-100.775525,35.968778],[-100.775919,35.968664],[-100.77668,35.967679],[-100.779441,35.96681],[-100.780624,35.966719],[-100.783158,35.96704],[-100.786002,35.965965],[-100.786791,35.965919],[-100.78834,35.966423],[-100.791663,35.966492],[-100.792254,35.966332],[-100.796535,35.963814],[-100.797971,35.963265],[-100.799266,35.963265],[-100.802477,35.963975],[-100.80442,35.964158],[-100.809742,35.963998],[-100.812925,35.964387],[-100.813995,35.965005],[-100.814896,35.966424],[-100.815516,35.96663],[-100.817262,35.966401],[-100.818219,35.966905],[-100.81898,35.967912],[-100.819487,35.969881],[-100.82005,35.970682],[-100.822078,35.971048],[-100.82312,35.971483],[-100.825148,35.972857],[-100.828809,35.974779],[-100.832696,35.97503],[-100.837202,35.974983],[-100.839934,35.974868],[-100.842892,35.974455],[-100.844187,35.974638],[-100.845511,35.975255],[-100.846244,35.975232],[-100.848609,35.97475],[-100.852101,35.973353],[-100.853396,35.972528],[-100.854014,35.971452],[-100.854887,35.970604],[-100.857815,35.969184],[-100.860602,35.968656],[-100.863108,35.967899],[-100.863924,35.967144],[-100.865726,35.966593],[-100.869415,35.966157],[-100.871076,35.966224],[-100.872259,35.965766],[-100.873075,35.965102],[-100.873383,35.963316],[-100.874537,35.962079],[-100.875082,35.960637],[-100.876656,35.959496],[-100.878909,35.958856],[-100.880571,35.95888],[-100.883977,35.960139],[-100.887047,35.959316],[-100.888962,35.959798],[-100.889891,35.959684],[-100.89113,35.959158],[-100.892792,35.958014],[-100.8942,35.957442],[-100.895523,35.957213],[-100.896593,35.957946],[-100.897607,35.958244],[-100.899859,35.958176],[-100.901576,35.958863],[-100.903941,35.95891],[-100.904983,35.958338],[-100.905575,35.957285],[-100.906336,35.956713],[-100.909489,35.95582],[-100.911883,35.953463],[-100.91346,35.951357],[-100.914052,35.950945],[-100.915376,35.950602],[-100.92005,35.949847],[-100.92233,35.950351],[-100.92385,35.950946],[-100.925117,35.952022],[-100.925624,35.952183],[-100.927679,35.952091],[-100.929031,35.952366],[-100.929875,35.952183],[-100.931424,35.950718],[-100.932156,35.950329],[-100.934014,35.949917],[-100.935534,35.949894],[-100.93804,35.950603],[-100.940602,35.951977],[-100.941672,35.953717],[-100.942911,35.953968],[-100.945191,35.953968],[-100.94598,35.954517],[-100.947022,35.954746],[-100.951189,35.954608],[-100.953582,35.952708],[-100.954539,35.952319],[-100.956791,35.951815],[-100.958283,35.950944],[-100.960873,35.950646],[-100.963125,35.949524],[-100.966081,35.948699],[-100.966277,35.946387],[-100.966727,35.945792],[-100.967797,35.945425],[-100.970021,35.945287],[-100.971259,35.944852],[-100.972103,35.944325],[-100.97351,35.942699],[-100.973791,35.941806],[-100.973453,35.940982],[-100.973818,35.939769],[-100.973058,35.938602],[-100.973311,35.938075],[-100.973986,35.937754],[-100.974718,35.937754],[-100.975168,35.937342],[-100.978405,35.937501],[-100.980769,35.936561],[-100.985105,35.935964],[-100.987018,35.93427],[-100.991829,35.931841],[-100.992588,35.930925],[-100.993516,35.928933],[-100.994697,35.927421],[-100.997819,35.925062],[-100.999198,35.925221],[-101.000429,35.924674],[-101.001154,35.924766],[-101.001463,35.925156],[-101.003348,35.92534],[-101.003376,35.926049],[-101.004558,35.926462],[-101.00543,35.926394],[-101.006331,35.925753],[-101.008302,35.925571],[-101.013423,35.926855],[-101.015168,35.926924],[-101.016518,35.927589],[-101.019812,35.928002],[-101.024287,35.929262],[-101.028255,35.929859],[-101.031379,35.929676],[-101.033602,35.930135],[-101.035488,35.930044],[-101.036726,35.930181],[-101.037936,35.930639],[-101.039231,35.930319],[-101.041174,35.928396],[-101.042947,35.927847],[-101.046746,35.927687],[-101.048041,35.927207],[-101.050069,35.925559],[-101.053446,35.924895],[-101.054966,35.924918],[-101.060257,35.92398],[-101.061579,35.92343],[-101.062339,35.922606],[-101.06324,35.922103],[-101.064056,35.921897],[-101.067179,35.921805],[-101.070866,35.919584],[-101.071457,35.919493],[-101.07247,35.919904],[-101.077197,35.919126],[-101.080349,35.917134],[-101.085921,35.915805],[-101.085716,36.057572],[-101.058637,36.05799],[-100.722216,36.056851]]]}},{"type":"Feature","properties":{"PRECINCT":"4-1","VTD":"04-1"},"geometry":{"type":"Polygon","coordinates":[[[-100.641277,35.685346],[-100.636752,35.688543],[-100.635111,35.686376],[-100.630871,35.68928],[-100.629468,35.693719],[-100.629848,35.69491],[-100.540686,35.695097],[-100.540871,35.693744],[-100.540132,35.649],[-100.539975,35.62129],[-100.540158,35.619296],[-100.598023,35.619745],[-100.625414,35.61953],[-100.671023,35.619942],[-100.670911,35.637454],[-100.634005,35.637569],[-100.633957,35.650531],[-100.634774,35.666804],[-100.635541,35.667103],[-100.636928,35.668484],[-100.638662,35.668938],[-100.639439,35.669802],[-100.640178,35.670214],[-100.64275,35.670596],[-100.644354,35.67163],[-100.644256,35.672602],[-100.643048,35.674136],[-100.643076,35.674822],[-100.643861,35.675715],[-100.643861,35.676013],[-100.641785,35.676058],[-100.64142,35.676447],[-100.641616,35.676951],[-100.642457,35.677065],[-100.643131,35.677546],[-100.643186,35.678165],[-100.642541,35.678462],[-100.642457,35.67876],[-100.643635,35.67947],[-100.643129,35.680042],[-100.641558,35.680614],[-100.641557,35.681049],[-100.642511,35.682171],[-100.642005,35.683522],[-100.642145,35.684071],[-100.641499,35.684712],[-100.641277,35.685346]]]}},{"type":"Feature","properties":{"PRECINCT":"3","VTD":"0003"},"geometry":{"type":"Polygon","coordinates":[[[-100.616862,35.704388],[-100.628326,35.698244],[-100.636249,35.692827],[-100.63541,35.692022],[-100.636322,35.691386],[-100.635549,35.690647],[-100.6375,35.689287],[-100.639868,35.691644],[-100.63897,35.692286],[-100.640546,35.693676],[-100.642528,35.694477],[-100.644014,35.694772],[-100.65218,35.694571],[-100.65237,35.710356],[-100.634747,35.711103],[-100.635072,35.722207],[-100.579058,35.723294],[-100.581238,35.803673],[-100.581783,35.837167],[-100.794073,35.834189],[-100.792682,35.808776],[-100.872757,35.808146],[-101.086046,35.806768],[-101.085921,35.915805],[-101.080349,35.917134],[-101.077197,35.919126],[-101.07247,35.919904],[-101.071457,35.919493],[-101.070866,35.919584],[-101.067179,35.921805],[-101.064056,35.921897],[-101.06324,35.922103],[-101.062339,35.922606],[-101.061579,35.92343],[-101.060257,35.92398],[-101.054966,35.924918],[-101.053446,35.924895],[-101.050069,35.925559],[-101.048041,35.927207],[-101.046746,35.927687],[-101.042947,35.927847],[-101.041174,35.928396],[-101.039231,35.930319],[-101.037936,35.930639],[-101.036726,35.930181],[-101.035488,35.930044],[-101.033602,35.930135],[-101.031379,35.929676],[-101.028255,35.929859],[-101.024287,35.929262],[-101.019812,35.928002],[-101.016518,35.927589],[-101.015168,35.926924],[-101.013423,35.926855],[-101.008302,35.925571],[-101.006331,35.925753],[-101.00543,35.926394],[-101.004558,35.926462],[-101.003376,35.926049],[-101.003348,35.92534],[-101.001463,35.925156],[-101.001154,35.924766],[-101.000429,35.924674],[-100.999198,35.925221],[-100.997819,35.925062],[-100.994697,35.927421],[-100.993516,35.928933],[-100.992588,35.930925],[-100.991829,35.931841],[-100.987018,35.93427],[-100.985105,35.935964],[-100.980769,35.936561],[-100.978405,35.937501],[-100.975168,35.937342],[-100.974718,35.937754],[-100.973986,35.937754],[-100.973311,35.938075],[-100.973058,35.938602],[-100.973818,35.939769],[-100.973453,35.940982],[-100.973791,35.941806],[-100.97351,35.942699],[-100.972103,35.944325],[-100.971259,35.944852],[-100.970021,35.945287],[-100.967797,35.945425],[-100.966727,35.945792],[-100.966277,35.946387],[-100.966081,35.948699],[-100.963125,35.949524],[-100.960873,35.950646],[-100.958283,35.950944],[-100.956791,35.951815],[-100.954539,35.952319],[-100.953582,35.952708],[-100.951189,35.954608],[-100.947022,35.954746],[-100.94598,35.954517],[-100.945191,35.953968],[-100.942911,35.953968],[-100.941672,35.953717],[-100.940602,35.951977],[-100.93804,35.950603],[-100.935534,35.949894],[-100.934014,35.949917],[-100.932156,35.950329],[-100.931424,35.950718],[-100.929875,35.952183],[-100.929031,35.952366],[-100.927679,35.952091],[-100.925624,35.952183],[-100.925117,35.952022],[-100.92385,35.950946],[-100.92233,35.950351],[-100.92005,35.949847],[-100.915376,35.950602],[-100.914052,35.950945],[-100.91346,35.951357],[-100.911883,35.953463],[-100.909489,35.95582],[-100.906336,35.956713],[-100.905575,35.957285],[-100.904983,35.958338],[-100.903941,35.95891],[-100.901576,35.958863],[-100.899859,35.958176],[-100.897607,35.958244],[-100.896593,35.957946],[-100.895523,35.957213],[-100.8942,35.957442],[-100.892792,35.958014],[-100.89113,35.959158],[-100.889891,35.959684],[-100.888962,35.959798],[-100.887047,35.959316],[-100.883977,35.960139],[-100.880571,35.95888],[-100.878909,35.958856],[-100.876656,35.959496],[-100.875082,35.960637],[-100.874537,35.962079],[-100.873383,35.963316],[-100.873075,35.965102],[-100.872259,35.965766],[-100.871076,35.966224],[-100.869415,35.966157],[-100.865726,35.966593],[-100.863924,35.967144],[-100.863108,35.967899],[-100.860602,35.968656],[-100.857815,35.969184],[-100.854887,35.970604],[-100.854014,35.971452],[-100.853396,35.972528],[-100.852101,35.973353],[-100.848609,35.97475],[-100.846244,35.975232],[-100.845511,35.975255],[-100.844187,35.974638],[-100.842892,35.974455],[-100.839934,35.974868],[-100.837202,35.974983],[-100.832696,35.97503],[-100.828809,35.974779],[-100.825148,35.972857],[-100.82312,35.971483],[-100.822078,35.971048],[-100.82005,35.970682],[-100.819487,35.969881],[-100.81898,35.967912],[-100.818219,35.966905],[-100.817262,35.966401],[-100.815516,35.96663],[-100.814896,35.966424],[-100.813995,35.965005],[-100.812925,35.964387],[-100.809742,35.963998],[-100.80442,35.964158],[-100.802477,35.963975],[-100.799266,35.963265],[-100.797971,35.963265],[-100.796535,35.963814],[-100.792254,35.966332],[-100.791663,35.966492],[-100.78834,35.966423],[-100.786791,35.965919],[-100.786002,35.965965],[-100.783158,35.96704],[-100.780624,35.966719],[-100.779441,35.96681],[-100.77668,35.967679],[-100.775919,35.968664],[-100.775525,35.968778],[-100.773723,35.968114],[-100.769357,35.969028],[-100.76823,35.969646],[-100.76671,35.969462],[-100.765189,35.968866],[-100.764513,35.968889],[-100.763415,35.969621],[-100.761725,35.969918],[-100.759951,35.969482],[-100.757585,35.969344],[-100.756459,35.96813],[-100.75584,35.967832],[-100.75415,35.967992],[-100.752883,35.968357],[-100.751361,35.969273],[-100.749797,35.970689],[-100.747854,35.971629],[-100.746222,35.973187],[-100.742646,35.975249],[-100.740112,35.976166],[-100.735944,35.977106],[-100.73158,35.97942],[-100.730313,35.979856],[-100.727609,35.980521],[-100.723046,35.981003],[-100.721159,35.981027],[-100.715807,35.97867],[-100.71437,35.977663],[-100.71282,35.975878],[-100.711214,35.97542],[-100.710088,35.975421],[-100.708595,35.975856],[-100.704032,35.978421],[-100.703075,35.978421],[-100.699779,35.976224],[-100.698201,35.972676],[-100.694483,35.970479],[-100.690963,35.969449],[-100.686062,35.968487],[-100.68426,35.968739],[-100.680655,35.968625],[-100.678853,35.96906],[-100.675501,35.970845],[-100.672627,35.971738],[-100.669219,35.973684],[-100.664346,35.975125],[-100.661192,35.975674],[-100.66029,35.975445],[-100.658967,35.974689],[-100.657305,35.974643],[-100.655446,35.975101],[-100.651728,35.976977],[-100.646657,35.977433],[-100.643699,35.978944],[-100.642939,35.979012],[-100.642262,35.980477],[-100.640712,35.982766],[-100.6395,35.983475],[-100.638204,35.983383],[-100.636796,35.982971],[-100.635051,35.981642],[-100.629502,35.979144],[-100.626349,35.977219],[-100.624659,35.976622],[-100.619025,35.975434],[-100.616293,35.974359],[-100.615447,35.973696],[-100.613588,35.972895],[-100.610461,35.972645],[-100.605561,35.972876],[-100.601589,35.972144],[-100.599898,35.970771],[-100.599277,35.969306],[-100.598685,35.96878],[-100.594573,35.967499],[-100.591953,35.966057],[-100.588968,35.965944],[-100.587898,35.966173],[-100.586349,35.967043],[-100.582407,35.967891],[-100.578859,35.969517],[-100.578014,35.970433],[-100.576887,35.970937],[-100.575395,35.971029],[-100.572297,35.970503],[-100.568973,35.970801],[-100.566382,35.970389],[-100.56317,35.970641],[-100.559847,35.969885],[-100.558326,35.969222],[-100.557031,35.968535],[-100.55596,35.967597],[-100.555827,35.95182],[-100.545039,35.951731],[-100.54481,35.935957],[-100.54894,35.935873],[-100.548644,35.924783],[-100.561006,35.924783],[-100.560685,35.902176],[-100.560507,35.838379],[-100.559644,35.712339],[-100.575013,35.712035],[-100.608292,35.711813],[-100.616862,35.704388]]]}}]}