{"type":"FeatureCollection","features":[{"type":"Feature","properties":{"PRECINCT":"101","VTD":"0101"},"geometry":{"type":"Polygon","coordinates":[[[-102.525184,34.746931],[-102.525266,34.53103],[-102.544587,34.53114],[-102.577349,34.526454],[-102.618007,34.526685],[-102.692967,34.525951],[-102.692275,34.622961],[-102.692297,34.624648],[-102.692716,34.625734],[-102.693791,34.626831],[-102.69561,34.627477],[-102.71835,34.62731],[-102.718412,34.633003],[-102.715885,34.633734],[-102.715858,34.63433],[-102.714697,34.634812],[-102.714715,34.635372],[-102.711237,34.637127],[-102.711115,34.637363],[-102.708625,34.638413],[-102.70858,34.639621],[-102.709744,34.639641],[-102.709756,34.641718],[-102.706863,34.641752],[-102.706913,34.644867],[-102.711004,34.644846],[-102.71096,34.641708],[-102.711839,34.6417],[-102.713455,34.6417],[-102.713527,34.644826],[-102.71479,34.644813],[-102.714769,34.643766],[-102.716031,34.643745],[-102.716049,34.644799],[-102.719846,34.64476],[-102.719788,34.63851],[-102.721019,34.638488],[-102.720961,34.635344],[-102.728538,34.635294],[-102.728549,34.633421],[-102.732126,34.633458],[-102.732126,34.634254],[-102.73326,34.634243],[-102.733304,34.635272],[-102.734598,34.635255],[-102.734638,34.636292],[-102.736062,34.636335],[-102.736477,34.637475],[-102.736348,34.637814],[-102.737098,34.636644],[-102.737521,34.636868],[-102.737119,34.637408],[-102.737241,34.638986],[-102.740315,34.639021],[-102.740264,34.641418],[-102.731643,34.641496],[-102.731054,34.64119],[-102.728872,34.641527],[-102.724434,34.641577],[-102.724456,34.645756],[-102.72565,34.645668],[-102.725793,34.648589],[-102.734634,34.648391],[-102.741674,34.645505],[-102.741997,34.645239],[-102.741961,34.64139],[-102.829556,34.640311],[-102.830401,34.698401],[-102.81283,34.698599],[-102.813217,34.727541],[-102.848225,34.727303],[-102.848567,34.7475],[-102.525184,34.746931]]]}},{"type":"Feature","properties":{"PRECINCT":"201","VTD":"0201"},"geometry":{"type":"Polygon","coordinates":[[[-103.032622,34.643632],[-103.029342,34.644212],[-103.027095,34.643043],[-103.025166,34.642922],[-103.020168,34.641717],[-103.018793,34.641991],[-103.017565,34.642702],[-103.01581,34.643074],[-103.01134,34.641874],[-103.007998,34.641668],[-103.007467,34.641992],[-103.006326,34.643895],[-103.005833,34.643991],[-103.002178,34.643321],[-102.998532,34.643127],[-102.996746,34.642395],[-102.995938,34.642276],[-102.990923,34.642801],[-102.988383,34.642679],[-102.985926,34.642181],[-102.984345,34.642204],[-102.983911,34.642049],[-102.98233,34.640029],[-102.979956,34.638734],[-102.978538,34.638361],[-102.975769,34.638446],[-102.972851,34.636058],[-102.971063,34.635918],[-102.970514,34.634041],[-102.969906,34.633166],[-102.968603,34.633141],[-102.96448,34.634054],[-102.961163,34.634486],[-102.959933,34.633767],[-102.959741,34.632378],[-102.959467,34.632027],[-102.958285,34.631952],[-102.956915,34.632324],[-102.955609,34.63225],[-102.954264,34.631612],[-102.951866,34.631025],[-102.948955,34.629515],[-102.945705,34.629074],[-102.94537,34.62869],[-102.945348,34.628142],[-102.944561,34.627706],[-102.941834,34.627853],[-102.941691,34.627437],[-102.941168,34.627219],[-102.941132,34.62816],[-102.939477,34.628622],[-102.93625,34.62803],[-102.93301,34.62864],[-102.929942,34.628293],[-102.92834,34.628613],[-102.927628,34.628278],[-102.927227,34.627173],[-102.925406,34.626815],[-102.924442,34.626844],[-102.923593,34.627307],[-102.921005,34.630086],[-102.921187,34.630356],[-102.922128,34.630582],[-102.922797,34.631288],[-102.922876,34.631753],[-102.922601,34.632069],[-102.91906,34.633344],[-102.918225,34.633203],[-102.916482,34.632268],[-102.915673,34.632147],[-102.912794,34.632605],[-102.910932,34.633639],[-102.90902,34.633679],[-102.906173,34.63335],[-102.903966,34.633588],[-102.90324,34.633832],[-102.902639,34.634384],[-102.899667,34.638174],[-102.898324,34.638999],[-102.897194,34.63896],[-102.89734,34.600991],[-102.896877,34.599809],[-102.896216,34.598993],[-102.895185,34.598301],[-102.893887,34.597857],[-102.862815,34.598535],[-102.86221,34.599259],[-102.862236,34.608471],[-102.798715,34.60892],[-102.79849,34.584617],[-102.79754,34.585214],[-102.797884,34.583854],[-102.797994,34.553759],[-102.762913,34.554154],[-102.763075,34.525162],[-102.857683,34.523934],[-102.868851,34.516844],[-102.868676,34.509769],[-102.879857,34.509558],[-102.885802,34.505835],[-102.885802,34.503653],[-102.886963,34.503526],[-102.88905,34.502397],[-102.891256,34.502401],[-102.903293,34.494695],[-102.904882,34.495145],[-102.922175,34.484409],[-102.903449,34.507605],[-102.903569,34.511174],[-102.956199,34.51093],[-102.956102,34.496445],[-102.993966,34.496178],[-103.008662,34.496114],[-103.00881,34.510633],[-103.043406,34.510408],[-103.043274,34.609924],[-103.043072,34.619782],[-103.043301,34.625069],[-103.043286,34.651771],[-103.041992,34.651207],[-103.040187,34.648663],[-103.039245,34.647841],[-103.038137,34.646326],[-103.034883,34.644419],[-103.032622,34.643632]]]}},{"type":"Feature","properties":{"PRECINCT":"301","VTD":"0301"},"geometry":{"type":"Polygon","coordinates":[[[-102.955448,34.450263],[-102.728403,34.453017],[-102.728407,34.435572],[-102.728041,34.434166],[-102.727331,34.432786],[-102.724267,34.429482],[-102.744171,34.429722],[-102.74476,34.415215],[-102.71543,34.414866],[-102.718556,34.336025],[-102.718999,34.333703],[-102.721548,34.326849],[-102.721949,34.3252],[-102.722317,34.312927],[-102.875497,34.312878],[-102.993085,34.312277],[-103.043762,34.31275],[-103.043406,34.510408],[-103.00881,34.510633],[-103.008662,34.496114],[-102.956102,34.496445],[-102.955772,34.452207],[-102.956064,34.450568],[-102.955448,34.450263]]]}},{"type":"Feature","properties":{"PRECINCT":"303","VTD":"0303"},"geometry":{"type":"Polygon","coordinates":[[[-102.857683,34.523934],[-102.728005,34.525574],[-102.728174,34.496473],[-102.763187,34.496098],[-102.763256,34.491321],[-102.763282,34.483823],[-102.761519,34.483066],[-102.759642,34.482916],[-102.757699,34.482225],[-102.75697,34.48165],[-102.755752,34.480032],[-102.754431,34.480809],[-102.753993,34.480703],[-102.753715,34.480085],[-102.753018,34.479722],[-102.752393,34.479845],[-102.751362,34.479639],[-102.749782,34.480089],[-102.748749,34.479349],[-102.747447,34.478948],[-102.74598,34.478128],[-102.74552,34.478116],[-102.745099,34.478587],[-102.742754,34.478418],[-102.740719,34.477377],[-102.739615,34.47654],[-102.739147,34.476607],[-102.738605,34.477192],[-102.737673,34.477527],[-102.736373,34.476627],[-102.736851,34.475582],[-102.736638,34.475231],[-102.735165,34.475049],[-102.734822,34.475232],[-102.734957,34.475787],[-102.733671,34.474623],[-102.731762,34.473855],[-102.729779,34.47379],[-102.729048,34.473482],[-102.728296,34.472742],[-102.728403,34.453017],[-102.945333,34.450363],[-102.955448,34.450263],[-102.956064,34.450568],[-102.955772,34.452207],[-102.956199,34.51093],[-102.903569,34.511174],[-102.903449,34.507605],[-102.922175,34.484409],[-102.904882,34.495145],[-102.903293,34.494695],[-102.891256,34.502401],[-102.88905,34.502397],[-102.886963,34.503526],[-102.885802,34.503653],[-102.885802,34.505835],[-102.879857,34.509558],[-102.868676,34.509769],[-102.868851,34.516844],[-102.857683,34.523934]]]}},{"type":"Feature","properties":{"PRECINCT":"401","VTD":"0401"},"geometry":{"type":"Polygon","coordinates":[[[-102.525266,34.53103],[-102.525305,34.500094],[-102.525833,34.499729],[-102.525631,34.313034],[-102.722317,34.312927],[-102.721949,34.3252],[-102.721548,34.326849],[-102.718999,34.333703],[-102.718556,34.336025],[-102.71543,34.414866],[-102.74476,34.415215],[-102.744171,34.429722],[-102.724267,34.429482],[-102.727331,34.432786],[-102.728143,34.434441],[-102.728464,34.436036],[-102.728296,34.472742],[-102.729048,34.473482],[-102.729779,34.47379],[-102.731762,34.473855],[-102.733671,34.474623],[-102.734957,34.475787],[-102.734822,34.475232],[-102.735165,34.475049],[-102.736638,34.475231],[-102.736851,34.475582],[-102.736373,34.476627],[-102.737673,34.477527],[-102.738605,34.477192],[-102.739147,34.476607],[-102.739615,34.47654],[-102.740719,34.477377],[-102.742754,34.478418],[-102.745099,34.478587],[-102.74552,34.478116],[-102.74598,34.478128],[-102.747447,34.478948],[-102.748749,34.479349],[-102.749782,34.480089],[-102.751362,34.479639],[-102.752393,34.479845],[-102.753018,34.479722],[-102.753715,34.480085],[-102.753993,34.480703],[-102.754431,34.480809],[-102.755752,34.480032],[-102.75697,34.48165],[-102.757699,34.482225],[-102.759642,34.482916],[-102.761519,34.483066],[-102.763282,34.483823],[-102.763187,34.496098],[-102.728174,34.496473],[-102.728005,34.525574],[-102.618007,34.526685],[-102.577349,34.526454],[-102.544587,34.53114],[-102.525266,34.53103]]]}},{"type":"Feature","properties":{"PRECINCT":"402","VTD":"0402"},"geometry":{"type":"Polygon","coordinates":[[[-102.716031,34.643745],[-102.714769,34.643766],[-102.71479,34.644813],[-102.713527,34.644826],[-102.713455,34.6417],[-102.71096,34.641708],[-102.711004,34.644846],[-102.706913,34.644867],[-102.706863,34.641752],[-102.709756,34.641718],[-102.709744,34.639641],[-102.70858,34.639621],[-102.708625,34.638413],[-102.711115,34.637363],[-102.711237,34.637127],[-102.714715,34.635372],[-102.714697,34.634812],[-102.715858,34.63433],[-102.715885,34.633734],[-102.718412,34.633003],[-102.71835,34.62731],[-102.69561,34.627477],[-102.694405,34.627142],[-102.693341,34.626495],[-102.692716,34.625734],[-102.692297,34.624648],[-102.692967,34.525951],[-102.728005,34.525574],[-102.727316,34.633197],[-102.72854,34.633088],[-102.728538,34.635294],[-102.720961,34.635344],[-102.721019,34.638488],[-102.719788,34.63851],[-102.719846,34.64476],[-102.716049,34.644799],[-102.716031,34.643745]]]}},{"type":"Feature","properties":{"PRECINCT":"202","VTD":"0202"},"geometry":{"type":"Polygon","coordinates":[[[-102.813217,34.727541],[-102.81283,34.698599],[-102.830401,34.698401],[-102.829556,34.640311],[-102.741961,34.64139],[-102.741997,34.645239],[-102.741674,34.645505],[-102.734634,34.648391],[-102.725793,34.648589],[-102.72565,34.645668],[-102.724456,34.645756],[-102.724434,34.641577],[-102.728872,34.641527],[-102.731054,34.64119],[-102.731643,34.641496],[-102.740264,34.641418],[-102.740315,34.639021],[-102.737241,34.638986],[-102.737119,34.637408],[-102.737521,34.636868],[-102.737098,34.636644],[-102.736348,34.637814],[-102.736477,34.637475],[-102.736062,34.636335],[-102.734638,34.636292],[-102.734598,34.635255],[-102.733304,34.635272],[-102.73326,34.634243],[-102.732126,34.634254],[-102.732126,34.633458],[-102.728549,34.633421],[-102.72854,34.633088],[-102.727316,34.633197],[-102.728005,34.525574],[-102.763075,34.525162],[-102.762913,34.554154],[-102.797994,34.553759],[-102.797884,34.583854],[-102.79754,34.585214],[-102.79849,34.584617],[-102.798715,34.60892],[-102.862236,34.608471],[-102.86221,34.599259],[-102.862815,34.598535],[-102.893887,34.597857],[-102.895185,34.598301],[-102.896216,34.598993],[-102.896877,34.599809],[-102.89734,34.600991],[-102.897194,34.63896],[-102.898324,34.638999],[-102.899667,34.638174],[-102.902639,34.634384],[-102.90324,34.633832],[-102.903966,34.633588],[-102.906173,34.63335],[-102.90902,34.633679],[-102.910932,34.633639],[-102.912794,34.632605],[-102.915673,34.632147],[-102.916482,34.632268],[-102.918225,34.633203],[-102.91906,34.633344],[-102.922601,34.632069],[-102.922876,34.631753],[-102.922797,34.631288],[-102.922128,34.630582],[-102.921187,34.630356],[-102.921005,34.630086],[-102.923593,34.627307],[-102.924442,34.626844],[-102.925406,34.626815],[-102.927227,34.627173],[-102.927628,34.628278],[-102.92834,34.628613],[-102.929942,34.628293],[-102.93301,34.62864],[-102.93625,34.62803],[-102.939477,34.628622],[-102.941132,34.62816],[-102.941168,34.627219],[-102.941691,34.627437],[-102.941834,34.627853],[-102.944561,34.627706],[-102.945348,34.628142],[-102.94537,34.62869],[-102.945705,34.629074],[-102.948955,34.629515],[-102.951866,34.631025],[-102.954264,34.631612],[-102.955609,34.63225],[-102.956915,34.632324],[-102.958285,34.631952],[-102.959467,34.632027],[-102.959741,34.632378],[-102.959933,34.633767],[-102.961163,34.634486],[-102.96448,34.634054],[-102.968603,34.633141],[-102.969906,34.633166],[-102.970514,34.634041],[-102.971063,34.635918],[-102.972851,34.636058],[-102.975769,34.638446],[-102.978538,34.638361],[-102.979956,34.638734],[-102.98233,34.640029],[-102.983911,34.642049],[-102.984345,34.642204],[-102.985926,34.642181],[-102.988383,34.642679],[-102.990923,34.642801],[-102.995938,34.642276],[-102.996746,34.642395],[-102.998532,34.643127],[-103.002178,34.643321],[-103.005833,34.643991],[-103.006326,34.643895],[-103.007467,34.641992],[-103.007998,34.641668],[-103.01134,34.641874],[-103.01581,34.643074],[-103.017565,34.642702],[-103.018793,34.641991],[-103.020168,34.641717],[-103.025166,34.642922],[-103.027095,34.643043],[-103.029342,34.644212],[-103.031598,34.643707],[-103.032847,34.643672],[-103.034883,34.644419],[-103.038137,34.646326],[-103.039245,34.647841],[-103.040187,34.648663],[-103.041992,34.651207],[-103.043286,34.651771],[-103.042982,34.747361],[-102.997999,34.747692],[-102.848567,34.7475],[-102.848225,34.727303],[-102.813217,34.727541]]]}}]}