{"type":"FeatureCollection","features":[{"type":"Feature","properties":{"PRECINCT":"1","VTD":"0001A+0001B"},"geometry":{"type":"MultiPolygon","coordinates":[[[[-101.093053,31.84833],[-101.092838,31.845825],[-101.091898,31.843096],[-101.091037,31.841952],[-101.089529,31.842444],[-101.087932,31.842423],[-101.085826,31.843281],[-101.084448,31.843352],[-101.084088,31.844655],[-101.083084,31.845469],[-101.080971,31.846052],[-101.080327,31.846822],[-101.078022,31.846696],[-101.07667,31.847086],[-101.073617,31.84712],[-101.067286,31.846406],[-101.064684,31.846747],[-101.063236,31.847572],[-101.062385,31.846994],[-101.062257,31.845983],[-101.061786,31.845505],[-101.061902,31.845098],[-101.061574,31.844955],[-101.061033,31.843806],[-101.060112,31.843987],[-101.05961,31.843372],[-101.057819,31.842553],[-101.057343,31.840915],[-101.056931,31.840937],[-101.05657,31.841629],[-101.056023,31.842107],[-101.055565,31.842173],[-101.056467,31.84302],[-101.056299,31.843614],[-101.055443,31.843894],[-101.055237,31.844592],[-101.054722,31.845071],[-101.05402,31.844873],[-101.053839,31.844576],[-101.054168,31.844499],[-101.054161,31.843784],[-101.053788,31.843075],[-101.052989,31.842338],[-101.052674,31.841514],[-101.052017,31.841343],[-101.050594,31.841893],[-101.049557,31.841266],[-101.049628,31.840628],[-101.05098,31.839645],[-101.050156,31.838644],[-101.048939,31.83849],[-101.048025,31.839001],[-101.047939,31.839436],[-101.046436,31.840236],[-101.045312,31.840179],[-101.044239,31.840822],[-101.042802,31.840857],[-101.040649,31.840313],[-101.039074,31.839003],[-101.037966,31.839],[-101.035918,31.838499],[-101.034695,31.83901],[-101.034006,31.838285],[-101.033342,31.838202],[-101.033098,31.837735],[-101.032621,31.837504],[-101.032254,31.837801],[-101.031584,31.837405],[-101.030297,31.837476],[-101.029672,31.837096],[-101.029537,31.8373],[-101.029138,31.836887],[-101.027637,31.836915],[-101.027219,31.836513],[-101.026465,31.83681],[-101.026916,31.837305],[-101.026748,31.838008],[-101.025634,31.838019],[-101.024327,31.837172],[-101.023787,31.836424],[-101.023523,31.835044],[-101.024508,31.834698],[-101.024225,31.834193],[-101.023446,31.833928],[-101.022731,31.834676],[-101.021727,31.834637],[-101.019782,31.833856],[-101.019312,31.834301],[-101.017605,31.834482],[-101.016093,31.833668],[-101.016067,31.832959],[-101.014799,31.832447],[-101.013633,31.832337],[-101.013369,31.832095],[-101.011579,31.832451],[-101.010877,31.832913],[-101.010316,31.833996],[-101.00897,31.83405],[-101.008552,31.834292],[-101.008075,31.833791],[-101.006858,31.834242],[-101.006414,31.834857],[-101.00499,31.835011],[-101.00421,31.836099],[-101.003264,31.836054],[-101.002691,31.835713],[-101.000643,31.835976],[-101.000347,31.835817],[-101.0,31.834943],[-100.998458,31.835231],[-100.996589,31.833489],[-100.995031,31.833199],[-100.994445,31.832869],[-100.99389,31.831842],[-100.99452,31.83045],[-100.994372,31.829906],[-100.993335,31.830037],[-100.992125,31.833282],[-100.988726,31.833206],[-100.988681,31.834266],[-100.985084,31.834085],[-100.985033,31.836371],[-100.983163,31.836327],[-100.983119,31.837414],[-100.981208,31.837344],[-100.981109,31.83952],[-100.97923,31.839476],[-100.979341,31.836212],[-100.977563,31.836178],[-100.977491,31.838329],[-100.975949,31.838288],[-100.976026,31.836085],[-100.970829,31.835816],[-100.970427,31.831282],[-100.969976,31.829738],[-100.970798,31.829871],[-100.969461,31.829447],[-100.968733,31.828682],[-100.968765,31.827389],[-100.96828,31.82637],[-100.967744,31.825931],[-100.967486,31.824958],[-100.968207,31.824325],[-100.968174,31.82272],[-100.967549,31.821774],[-100.967144,31.821703],[-100.966938,31.821973],[-100.966384,31.82205],[-100.964703,31.820126],[-100.964761,31.819224],[-100.965082,31.818708],[-100.964496,31.818119],[-100.964824,31.817757],[-100.964786,31.817152],[-100.965835,31.816255],[-100.964933,31.815255],[-100.965564,31.815266],[-100.965731,31.814232],[-100.964276,31.813447],[-100.963896,31.813452],[-100.963787,31.813881],[-100.962261,31.81425],[-100.961797,31.813837],[-100.962241,31.813414],[-100.961469,31.812375],[-100.960445,31.812134],[-100.957921,31.812002],[-100.956627,31.812536],[-100.955829,31.812376],[-100.955462,31.812052],[-100.954953,31.809985],[-100.954772,31.809842],[-100.954096,31.810189],[-100.953768,31.810101],[-100.953098,31.808468],[-100.952132,31.807841],[-100.951926,31.807209],[-100.950626,31.805687],[-100.949396,31.805544],[-100.948913,31.805797],[-100.948134,31.805439],[-100.947491,31.805412],[-100.947201,31.805071],[-100.946403,31.805176],[-100.94601,31.804829],[-100.946119,31.804104],[-100.94545,31.804241],[-100.944677,31.803708],[-100.944613,31.802762],[-100.943911,31.802719],[-100.943673,31.803076],[-100.943357,31.803103],[-100.941915,31.801757],[-100.941452,31.80168],[-100.941169,31.801889],[-100.940757,31.801647],[-100.940383,31.801003],[-100.939836,31.800844],[-100.939527,31.80008],[-100.938304,31.798848],[-100.938239,31.798178],[-100.937332,31.797639],[-100.936225,31.794824],[-100.935253,31.794225],[-100.934879,31.792625],[-100.93421,31.792301],[-100.934654,31.791575],[-100.934506,31.791102],[-100.934705,31.790569],[-100.933766,31.788925],[-100.93235,31.788304],[-100.931906,31.787771],[-100.930696,31.787265],[-100.93002,31.786561],[-100.929589,31.786429],[-100.929563,31.785621],[-100.929273,31.785352],[-100.928347,31.785264],[-100.927761,31.78577],[-100.927091,31.785819],[-100.927124,31.784104],[-100.926654,31.783763],[-100.92657,31.783153],[-100.926178,31.782823],[-100.925,31.782784],[-100.925071,31.783625],[-100.924742,31.783812],[-100.923513,31.784037],[-100.922837,31.783559],[-100.922335,31.78412],[-100.922374,31.784582],[-100.921511,31.784669],[-100.92108,31.784373],[-100.920855,31.783586],[-100.921254,31.782657],[-100.920134,31.781953],[-100.919768,31.780771],[-100.919324,31.780485],[-100.918242,31.780716],[-100.917657,31.779853],[-100.916305,31.77933],[-100.915771,31.77922],[-100.915321,31.7796],[-100.914529,31.779699],[-100.914008,31.779616],[-100.913474,31.779011],[-100.912618,31.779852],[-100.911903,31.781243],[-100.910892,31.781534],[-100.910094,31.781072],[-100.909618,31.780456],[-100.910327,31.779318],[-100.910153,31.778967],[-100.908692,31.779071],[-100.907089,31.779565],[-100.906716,31.779197],[-100.906611,31.778107],[-100.903377,31.776051],[-100.902373,31.776177],[-100.901658,31.776727],[-100.900288,31.776545],[-100.899805,31.776017],[-100.899992,31.775138],[-100.898988,31.774395],[-100.898712,31.773845],[-100.898835,31.772966],[-100.899613,31.772702],[-100.899054,31.772097],[-100.897593,31.772218],[-100.896814,31.772531],[-100.894877,31.772195],[-100.894542,31.772365],[-100.89424,31.772975],[-100.89377,31.773168],[-100.892747,31.772436],[-100.891228,31.772381],[-100.890675,31.771748],[-100.889259,31.771308],[-100.88908,31.770664],[-100.888308,31.769955],[-100.887285,31.769927],[-100.88637,31.770751],[-100.886113,31.770691],[-100.885502,31.768854],[-100.884254,31.768145],[-100.883463,31.768716],[-100.882992,31.769541],[-100.88204,31.769304],[-100.879144,31.769588],[-100.877934,31.76928],[-100.877227,31.768147],[-100.87494,31.76844],[-100.873498,31.767588],[-100.872333,31.76749],[-100.869605,31.766765],[-100.867416,31.765667],[-100.867319,31.764892],[-100.8682,31.764682],[-100.868239,31.764325],[-100.866945,31.762951],[-100.866301,31.762495],[-100.864994,31.762292],[-100.8641,31.761693],[-100.86296,31.761475],[-100.863205,31.754874],[-100.861112,31.752492],[-100.859637,31.751554],[-100.857692,31.752809],[-100.857267,31.753879],[-100.857503,31.754434],[-100.85658,31.753961],[-100.855698,31.752532],[-100.85499,31.751883],[-100.854739,31.751333],[-100.854816,31.750784],[-100.853664,31.750976],[-100.852943,31.750152],[-100.85175,31.749667],[-100.850662,31.748775],[-100.849725,31.748841],[-100.848286,31.749678],[-100.84746,31.749738],[-100.844044,31.748703],[-100.843566,31.749148],[-100.843422,31.7501],[-100.84231,31.75031],[-100.841621,31.749942],[-100.842309,31.749426],[-100.842272,31.749142],[-100.841483,31.749252],[-100.840738,31.748684],[-100.841001,31.747202],[-100.842206,31.74618],[-100.84224,31.745813],[-100.841042,31.745566],[-100.840696,31.744292],[-100.839786,31.743182],[-100.839923,31.742766],[-100.839712,31.742513],[-100.838976,31.742242],[-100.8382,31.742477],[-100.837857,31.742184],[-100.837808,31.741563],[-100.83829,31.740807],[-100.83814,31.740577],[-100.837683,31.740597],[-100.837313,31.739958],[-100.837525,31.738677],[-100.835773,31.738171],[-100.835055,31.73823],[-100.834737,31.737877],[-100.834862,31.737393],[-100.835383,31.737581],[-100.83608,31.737206],[-100.835932,31.736555],[-100.836377,31.735825],[-100.835937,31.734742],[-100.836217,31.733525],[-100.83546,31.732192],[-100.835563,31.731521],[-100.836082,31.731303],[-100.836033,31.73081],[-100.835497,31.730484],[-100.834238,31.730875],[-100.83362,31.730826],[-100.8325,31.728605],[-100.831709,31.728325],[-100.8305,31.728259],[-100.830223,31.728039],[-100.830988,31.724971],[-100.830756,31.724526],[-100.829116,31.724603],[-100.828614,31.7244],[-100.828511,31.723806],[-100.82918,31.723267],[-100.829089,31.720535],[-100.827603,31.71943],[-100.8266,31.719062],[-100.826574,31.718655],[-100.825201,31.71867],[-100.82537,31.696155],[-100.861099,31.705418],[-100.865256,31.562294],[-100.943936,31.561183],[-100.965148,31.560651],[-101.011724,31.56031],[-101.030727,31.560011],[-101.031578,31.559762],[-101.049732,31.559807],[-101.26763,31.556462],[-101.26625,31.789656],[-101.263628,31.789064],[-101.263287,31.789256],[-101.263325,31.790097],[-101.262887,31.790449],[-101.26261,31.790438],[-101.26207,31.789641],[-101.261343,31.790459],[-101.260796,31.790443],[-101.259894,31.790959],[-101.260551,31.7913],[-101.25972,31.792399],[-101.259334,31.792366],[-101.259108,31.792608],[-101.259346,31.793048],[-101.258412,31.795191],[-101.256803,31.794828],[-101.25598,31.79348],[-101.255285,31.793117],[-101.253922,31.791578],[-101.252667,31.79095],[-101.250003,31.791198],[-101.249341,31.79166],[-101.24891,31.792155],[-101.249007,31.792479],[-101.248634,31.79265],[-101.247861,31.792502],[-101.247597,31.792029],[-101.247468,31.792117],[-101.247462,31.793035],[-101.248454,31.793865],[-101.2483,31.794299],[-101.24736,31.794349],[-101.244632,31.795747],[-101.241769,31.796144],[-101.240945,31.79649],[-101.240153,31.79621],[-101.240025,31.7967],[-101.239491,31.796618],[-101.239175,31.796909],[-101.23857,31.796706],[-101.238692,31.795942],[-101.237905,31.795112],[-101.237366,31.795063],[-101.237495,31.795552],[-101.237179,31.795629],[-101.235537,31.793629],[-101.234211,31.79325],[-101.233664,31.793547],[-101.232486,31.793284],[-101.227526,31.796545],[-101.226284,31.796661],[-101.224083,31.797684],[-101.222564,31.798844],[-101.22205,31.798773],[-101.220292,31.797834],[-101.219925,31.797872],[-101.218509,31.79646],[-101.218071,31.796367],[-101.216083,31.797983],[-101.21587,31.798362],[-101.215974,31.799704],[-101.214751,31.79949],[-101.213934,31.800155],[-101.213586,31.800908],[-101.212769,31.801348],[-101.210896,31.801843],[-101.208997,31.80131],[-101.208716,31.801671],[-101.206971,31.80144],[-101.205477,31.802399],[-101.203572,31.802861],[-101.202954,31.803736],[-101.202491,31.807265],[-101.20177,31.807567],[-101.200238,31.80749],[-101.1998,31.807809],[-101.198829,31.808018],[-101.198288,31.809838],[-101.196537,31.809305],[-101.1959,31.809437],[-101.195823,31.810019],[-101.196248,31.810586],[-101.196377,31.811289],[-101.195842,31.81157],[-101.194484,31.811575],[-101.194265,31.812625],[-101.194774,31.812889],[-101.194883,31.813356],[-101.195321,31.813702],[-101.19518,31.814637],[-101.194008,31.816116],[-101.193107,31.816275],[-101.19247,31.816099],[-101.191478,31.815352],[-101.1916,31.815038],[-101.191105,31.81478],[-101.190886,31.815275],[-101.190532,31.815313],[-101.189791,31.814296],[-101.189199,31.814467],[-101.18844,31.815154],[-101.187313,31.814769],[-101.186695,31.815632],[-101.18533,31.816627],[-101.18421,31.816985],[-101.181371,31.817386],[-101.181545,31.818183],[-101.182008,31.818084],[-101.182465,31.818441],[-101.182053,31.819019],[-101.180753,31.81926],[-101.179485,31.819194],[-101.17904,31.818936],[-101.178461,31.819167],[-101.178178,31.82009],[-101.178287,31.820722],[-101.177843,31.821162],[-101.177193,31.820975],[-101.176015,31.821223],[-101.175783,31.819689],[-101.174637,31.818837],[-101.173317,31.818683],[-101.172377,31.819144],[-101.172075,31.819616],[-101.173617,31.820597],[-101.173538,31.820756],[-101.17111,31.822137],[-101.169192,31.824045],[-101.165241,31.825418],[-101.163346,31.825226],[-101.163028,31.824838],[-101.161882,31.825872],[-101.161631,31.826531],[-101.16183,31.827229],[-101.161405,31.827944],[-101.160884,31.828015],[-101.159441,31.827465],[-101.15863,31.827416],[-101.156814,31.82824],[-101.155964,31.828097],[-101.154902,31.828388],[-101.154296,31.829251],[-101.153897,31.830427],[-101.152809,31.830998],[-101.152602,31.831554],[-101.151997,31.831361],[-101.151385,31.831845],[-101.14819,31.832589],[-101.148126,31.833621],[-101.148367,31.833999],[-101.157309,31.834447],[-101.158246,31.835119],[-101.158627,31.836348],[-101.162363,31.841345],[-101.163094,31.84165],[-101.164969,31.840754],[-101.16494,31.841143],[-101.154942,31.847006],[-101.151992,31.848415],[-101.150095,31.848912],[-101.147623,31.849156],[-101.133708,31.848761],[-101.13116,31.849021],[-101.128563,31.849812],[-101.111433,31.856666],[-101.107634,31.857371],[-101.095609,31.857112],[-101.093053,31.84833]]],[[[-100.981109,31.83952],[-100.983031,31.839579],[-100.98287,31.844298],[-100.98095,31.844256],[-100.981109,31.83952]]]]}},{"type":"Feature","properties":{"PRECINCT":"2","VTD":"0002A+0002B+0002C+0002D+0002E"},"geometry":{"type":"MultiPolygon","coordinates":[[[[-100.985003,31.837465],[-100.983119,31.837414],[-100.98316,31.8364],[-100.985033,31.836371],[-100.985003,31.837465]]],[[[-100.983119,31.837414],[-100.983031,31.839579],[-100.981109,31.83952],[-100.981208,31.837344],[-100.983119,31.837414]]],[[[-100.979196,31.840535],[-100.97923,31.839476],[-100.981109,31.83952],[-100.98101,31.841928],[-100.979198,31.841852],[-100.977353,31.842094],[-100.977414,31.840483],[-100.979196,31.840535]]],[[[-100.984059,31.842091],[-100.98295,31.842076],[-100.983031,31.839579],[-100.984159,31.839626],[-100.984059,31.842091]]],[[[-101.0223,31.842748],[-101.020473,31.841791],[-101.0171,31.840665],[-100.998834,31.837059],[-100.998773,31.837843],[-100.995081,31.837736],[-100.995125,31.836667],[-100.991818,31.836543],[-100.991652,31.840889],[-100.992844,31.840927],[-100.992792,31.842948],[-100.990239,31.842815],[-100.988362,31.842089],[-100.987156,31.841888],[-100.987122,31.841655],[-100.987278,31.839705],[-100.988454,31.839746],[-100.988509,31.838656],[-100.990146,31.83871],[-100.990177,31.837605],[-100.988545,31.83756],[-100.988635,31.835364],[-100.987031,31.835315],[-100.986984,31.836423],[-100.985033,31.836371],[-100.985084,31.834085],[-100.988681,31.834266],[-100.988726,31.833206],[-100.992125,31.833282],[-100.993335,31.830037],[-100.994372,31.829906],[-100.99452,31.83045],[-100.99389,31.831842],[-100.994445,31.832869],[-100.995031,31.833199],[-100.996589,31.833489],[-100.998458,31.835231],[-101.0,31.834943],[-101.000347,31.835817],[-101.000752,31.835993],[-101.002691,31.835713],[-101.003264,31.836054],[-101.00421,31.836099],[-101.00499,31.835011],[-101.006414,31.834857],[-101.006858,31.834242],[-101.008075,31.833791],[-101.008552,31.834292],[-101.00897,31.83405],[-101.010316,31.833996],[-101.010877,31.832913],[-101.011579,31.832451],[-101.013369,31.832095],[-101.013633,31.832337],[-101.014799,31.832447],[-101.016067,31.832959],[-101.016093,31.833668],[-101.017605,31.834482],[-101.019312,31.834301],[-101.019782,31.833856],[-101.021727,31.834637],[-101.022731,31.834676],[-101.023446,31.833928],[-101.024225,31.834193],[-101.024508,31.834698],[-101.023523,31.835044],[-101.023787,31.836424],[-101.024327,31.837172],[-101.025634,31.838019],[-101.026748,31.838008],[-101.026916,31.837305],[-101.026465,31.83681],[-101.027219,31.836513],[-101.027637,31.836915],[-101.029138,31.836887],[-101.029537,31.8373],[-101.029672,31.837096],[-101.030297,31.837476],[-101.031584,31.837405],[-101.032254,31.837801],[-101.032621,31.837504],[-101.033098,31.837735],[-101.033342,31.838202],[-101.034006,31.838285],[-101.034695,31.83901],[-101.035918,31.838499],[-101.037966,31.839],[-101.039074,31.839003],[-101.040649,31.840313],[-101.042802,31.840857],[-101.044239,31.840822],[-101.045312,31.840179],[-101.046436,31.840236],[-101.047939,31.839436],[-101.048025,31.839001],[-101.048939,31.83849],[-101.050272,31.838677],[-101.05098,31.839645],[-101.049628,31.840628],[-101.049557,31.841266],[-101.050594,31.841893],[-101.052017,31.841343],[-101.052674,31.841514],[-101.052989,31.842338],[-101.053788,31.843075],[-101.054161,31.843784],[-101.054168,31.844499],[-101.053839,31.844576],[-101.05402,31.844873],[-101.054722,31.845071],[-101.055237,31.844592],[-101.055443,31.843894],[-101.056299,31.843614],[-101.056467,31.84302],[-101.055565,31.842173],[-101.056023,31.842107],[-101.05657,31.841629],[-101.056931,31.840937],[-101.057343,31.840915],[-101.057819,31.842553],[-101.05961,31.843372],[-101.060112,31.843987],[-101.061033,31.843806],[-101.061574,31.844955],[-101.061902,31.845098],[-101.061786,31.845505],[-101.062257,31.845983],[-101.062385,31.846994],[-101.063236,31.847572],[-101.064684,31.846747],[-101.067286,31.846406],[-101.073617,31.84712],[-101.07667,31.847086],[-101.078022,31.846696],[-101.080327,31.846822],[-101.080971,31.846052],[-101.083084,31.845469],[-101.084088,31.844655],[-101.084448,31.843352],[-101.085826,31.843281],[-101.087932,31.842423],[-101.089529,31.842444],[-101.091037,31.841952],[-101.091898,31.843096],[-101.092838,31.845825],[-101.093053,31.84833],[-101.094641,31.853204],[-101.095609,31.857112],[-101.106746,31.857378],[-101.109537,31.857153],[-101.111433,31.856666],[-101.128563,31.849812],[-101.13116,31.849021],[-101.133708,31.848761],[-101.148466,31.849128],[-101.151992,31.848415],[-101.154942,31.847006],[-101.16494,31.841143],[-101.164969,31.840754],[-101.163094,31.84165],[-101.162363,31.841345],[-101.158627,31.836348],[-101.158246,31.835119],[-101.157309,31.834447],[-101.148367,31.833999],[-101.148126,31.833621],[-101.14819,31.832589],[-101.151385,31.831845],[-101.151997,31.831361],[-101.152602,31.831554],[-101.152809,31.830998],[-101.153897,31.830427],[-101.154296,31.829251],[-101.154902,31.828388],[-101.155964,31.828097],[-101.156814,31.82824],[-101.15863,31.827416],[-101.159441,31.827465],[-101.160884,31.828015],[-101.161405,31.827944],[-101.16183,31.827229],[-101.161631,31.826531],[-101.161882,31.825872],[-101.163028,31.824838],[-101.163346,31.825226],[-101.165241,31.825418],[-101.169192,31.824045],[-101.17111,31.822137],[-101.173538,31.820756],[-101.173617,31.820597],[-101.172075,31.819616],[-101.172377,31.819144],[-101.173317,31.818683],[-101.174637,31.818837],[-101.175783,31.819689],[-101.176015,31.821223],[-101.177193,31.820975],[-101.177843,31.821162],[-101.178287,31.820722],[-101.178178,31.82009],[-101.178461,31.819167],[-101.17904,31.818936],[-101.179485,31.819194],[-101.180753,31.81926],[-101.182053,31.819019],[-101.182465,31.818441],[-101.182008,31.818084],[-101.181545,31.818183],[-101.181371,31.817386],[-101.18421,31.816985],[-101.18533,31.816627],[-101.186695,31.815632],[-101.187313,31.814769],[-101.18844,31.815154],[-101.189199,31.814467],[-101.189791,31.814296],[-101.190532,31.815313],[-101.190886,31.815275],[-101.191105,31.81478],[-101.1916,31.815038],[-101.191478,31.815352],[-101.19247,31.816099],[-101.193107,31.816275],[-101.194008,31.816116],[-101.19518,31.814637],[-101.195321,31.813702],[-101.194883,31.813356],[-101.194774,31.812889],[-101.194265,31.812625],[-101.194484,31.811575],[-101.195842,31.81157],[-101.196377,31.811289],[-101.196248,31.810586],[-101.195823,31.810019],[-101.1959,31.809437],[-101.196537,31.809305],[-101.198288,31.809838],[-101.198829,31.808018],[-101.1998,31.807809],[-101.200238,31.80749],[-101.20177,31.807567],[-101.202491,31.807265],[-101.202954,31.803736],[-101.203404,31.802999],[-101.205477,31.802399],[-101.206971,31.80144],[-101.208716,31.801671],[-101.208997,31.80131],[-101.210896,31.801843],[-101.212769,31.801348],[-101.213586,31.800908],[-101.213934,31.800155],[-101.214751,31.79949],[-101.215974,31.799704],[-101.21587,31.798362],[-101.216083,31.797983],[-101.218007,31.796389],[-101.218509,31.79646],[-101.219925,31.797872],[-101.220292,31.797834],[-101.222507,31.798861],[-101.224083,31.797684],[-101.226284,31.796661],[-101.227526,31.796545],[-101.232486,31.793284],[-101.233664,31.793547],[-101.234211,31.79325],[-101.235891,31.793838],[-101.236284,31.794722],[-101.237179,31.795629],[-101.237495,31.795552],[-101.237314,31.795101],[-101.237842,31.795063],[-101.238692,31.795942],[-101.23857,31.796706],[-101.239175,31.796909],[-101.239491,31.796618],[-101.240025,31.7967],[-101.240153,31.79621],[-101.240945,31.79649],[-101.241769,31.796144],[-101.244632,31.795747],[-101.24736,31.794349],[-101.2483,31.794299],[-101.248454,31.793865],[-101.247462,31.793035],[-101.247468,31.792117],[-101.247597,31.792029],[-101.247861,31.792502],[-101.248634,31.79265],[-101.249007,31.792479],[-101.24891,31.792155],[-101.249341,31.79166],[-101.250003,31.791198],[-101.252545,31.790945],[-101.253922,31.791578],[-101.255285,31.793117],[-101.25598,31.79348],[-101.256803,31.794828],[-101.258412,31.795191],[-101.259346,31.793048],[-101.259108,31.792608],[-101.259334,31.792366],[-101.25972,31.792399],[-101.260551,31.7913],[-101.259894,31.790959],[-101.260796,31.790443],[-101.261343,31.790459],[-101.26207,31.789641],[-101.26261,31.790438],[-101.262887,31.790449],[-101.263325,31.790097],[-101.263287,31.789256],[-101.263628,31.789064],[-101.26625,31.789656],[-101.264975,31.98839],[-101.241848,31.970772],[-101.238806,31.968794],[-101.221846,31.963332],[-101.216622,31.962009],[-101.192563,31.954508],[-101.188319,31.95272],[-101.185946,31.951142],[-101.172118,31.93913],[-101.140771,31.91407],[-101.139231,31.913031],[-101.127653,31.907175],[-101.12443,31.905734],[-101.121214,31.904734],[-101.096267,31.900914],[-101.093463,31.900283],[-101.083044,31.89675],[-101.074249,31.893418],[-101.070615,31.890863],[-101.068984,31.889199],[-101.061077,31.878618],[-101.057919,31.875274],[-101.044027,31.862459],[-101.034469,31.85477],[-101.024444,31.8443],[-101.0223,31.842748]]]]}},{"type":"Feature","properties":{"PRECINCT":"3","VTD":"0003"},"geometry":{"type":"Polygon","coordinates":[[[-101.01892,32.08673],[-100.99439,32.086865],[-100.93227,32.086661],[-100.908697,32.086946],[-100.875387,32.086937],[-100.862291,32.086509],[-100.858628,32.086689],[-100.821594,32.08661],[-100.821673,32.006174],[-100.822138,31.998152],[-100.82348,31.864782],[-100.824312,31.816345],[-100.82391,31.814215],[-100.824151,31.812061],[-100.825201,31.71867],[-100.826574,31.718655],[-100.8266,31.719062],[-100.827603,31.71943],[-100.829089,31.720535],[-100.82918,31.723267],[-100.828511,31.723806],[-100.828614,31.7244],[-100.829116,31.724603],[-100.830756,31.724526],[-100.830988,31.724971],[-100.830223,31.728039],[-100.8305,31.728259],[-100.831709,31.728325],[-100.8325,31.728605],[-100.83362,31.730826],[-100.834238,31.730875],[-100.835497,31.730484],[-100.836033,31.73081],[-100.836082,31.731303],[-100.835563,31.731521],[-100.83546,31.732192],[-100.836217,31.733525],[-100.835937,31.734742],[-100.836377,31.735825],[-100.835932,31.736555],[-100.83608,31.737206],[-100.835383,31.737581],[-100.834862,31.737393],[-100.834737,31.737877],[-100.835055,31.73823],[-100.835773,31.738171],[-100.837525,31.738677],[-100.837313,31.739958],[-100.837683,31.740597],[-100.83814,31.740577],[-100.83829,31.740807],[-100.837808,31.741563],[-100.837857,31.742184],[-100.8382,31.742477],[-100.838976,31.742242],[-100.839712,31.742513],[-100.839923,31.742766],[-100.839786,31.743182],[-100.840696,31.744292],[-100.841042,31.745566],[-100.84224,31.745813],[-100.842206,31.74618],[-100.841001,31.747202],[-100.840738,31.748684],[-100.841483,31.749252],[-100.842272,31.749142],[-100.842309,31.749426],[-100.841591,31.749827],[-100.841697,31.750013],[-100.84231,31.75031],[-100.843422,31.7501],[-100.843566,31.749148],[-100.844044,31.748703],[-100.84746,31.749738],[-100.848286,31.749678],[-100.849725,31.748841],[-100.850662,31.748775],[-100.85175,31.749667],[-100.852943,31.750152],[-100.853664,31.750976],[-100.854816,31.750784],[-100.854739,31.751333],[-100.85499,31.751883],[-100.855698,31.752532],[-100.85658,31.753961],[-100.857503,31.754434],[-100.857267,31.753879],[-100.857692,31.752809],[-100.859637,31.751554],[-100.861112,31.752492],[-100.863205,31.754874],[-100.86296,31.761475],[-100.8641,31.761693],[-100.864994,31.762292],[-100.866301,31.762495],[-100.866945,31.762951],[-100.868239,31.764325],[-100.8682,31.764682],[-100.867319,31.764892],[-100.867416,31.765667],[-100.869605,31.766765],[-100.872333,31.76749],[-100.873498,31.767588],[-100.87494,31.76844],[-100.877227,31.768147],[-100.877934,31.76928],[-100.879144,31.769588],[-100.88204,31.769304],[-100.882992,31.769541],[-100.883463,31.768716],[-100.884254,31.768145],[-100.885502,31.768854],[-100.886113,31.770691],[-100.88637,31.770751],[-100.887285,31.769927],[-100.888308,31.769955],[-100.88908,31.770664],[-100.889259,31.771308],[-100.890675,31.771748],[-100.891228,31.772381],[-100.892747,31.772436],[-100.89377,31.773168],[-100.89424,31.772975],[-100.894542,31.772365],[-100.894877,31.772195],[-100.896814,31.772531],[-100.897593,31.772218],[-100.899054,31.772097],[-100.899613,31.772702],[-100.898835,31.772966],[-100.898712,31.773845],[-100.898988,31.774395],[-100.899992,31.775138],[-100.899805,31.776017],[-100.900288,31.776545],[-100.901658,31.776727],[-100.902373,31.776177],[-100.903377,31.776051],[-100.906611,31.778107],[-100.906716,31.779197],[-100.907089,31.779565],[-100.908692,31.779071],[-100.910153,31.778967],[-100.910327,31.779318],[-100.909618,31.780456],[-100.910094,31.781072],[-100.910892,31.781534],[-100.911903,31.781243],[-100.912618,31.779852],[-100.913474,31.779011],[-100.914008,31.779616],[-100.914529,31.779699],[-100.915321,31.7796],[-100.915771,31.77922],[-100.916305,31.77933],[-100.917657,31.779853],[-100.918242,31.780716],[-100.919324,31.780485],[-100.919768,31.780771],[-100.920134,31.781953],[-100.921254,31.782657],[-100.920855,31.783586],[-100.92108,31.784373],[-100.921511,31.784669],[-100.922374,31.784582],[-100.922335,31.78412],[-100.922837,31.783559],[-100.923513,31.784037],[-100.924742,31.783812],[-100.925071,31.783625],[-100.925,31.782784],[-100.926178,31.782823],[-100.92657,31.783153],[-100.926654,31.783763],[-100.927124,31.784104],[-100.927091,31.785819],[-100.927761,31.78577],[-100.928347,31.785264],[-100.929273,31.785352],[-100.929563,31.785621],[-100.929589,31.786429],[-100.93002,31.786561],[-100.930696,31.787265],[-100.931906,31.787771],[-100.93235,31.788304],[-100.933766,31.788925],[-100.934705,31.790569],[-100.934506,31.791102],[-100.934654,31.791575],[-100.93421,31.792301],[-100.934879,31.792625],[-100.935253,31.794225],[-100.936225,31.794824],[-100.937332,31.797639],[-100.938239,31.798178],[-100.938304,31.798848],[-100.939527,31.80008],[-100.939836,31.800844],[-100.940383,31.801003],[-100.940757,31.801647],[-100.941169,31.801889],[-100.941452,31.80168],[-100.941915,31.801757],[-100.943357,31.803103],[-100.943673,31.803076],[-100.943911,31.802719],[-100.944613,31.802762],[-100.944677,31.803708],[-100.94545,31.804241],[-100.946119,31.804104],[-100.94601,31.804829],[-100.946403,31.805176],[-100.947201,31.805071],[-100.947491,31.805412],[-100.948134,31.805439],[-100.948913,31.805797],[-100.949396,31.805544],[-100.950626,31.805687],[-100.951926,31.807209],[-100.952132,31.807841],[-100.953098,31.808468],[-100.953768,31.810101],[-100.954096,31.810189],[-100.954772,31.809842],[-100.954953,31.809985],[-100.955462,31.812052],[-100.955829,31.812376],[-100.956627,31.812536],[-100.957921,31.812002],[-100.960445,31.812134],[-100.961469,31.812375],[-100.962241,31.813414],[-100.961797,31.813837],[-100.962261,31.81425],[-100.963787,31.813881],[-100.963896,31.813452],[-100.964276,31.813447],[-100.965731,31.814232],[-100.965564,31.815266],[-100.964933,31.815255],[-100.965835,31.816255],[-100.964786,31.817152],[-100.964824,31.817757],[-100.964496,31.818119],[-100.965082,31.818708],[-100.964761,31.819224],[-100.964703,31.820126],[-100.966384,31.82205],[-100.966938,31.821973],[-100.967144,31.821703],[-100.967549,31.821774],[-100.968174,31.82272],[-100.968207,31.824325],[-100.967486,31.824958],[-100.967744,31.825931],[-100.96828,31.82637],[-100.968765,31.827389],[-100.968733,31.828682],[-100.969461,31.829447],[-100.970798,31.829871],[-100.969976,31.829738],[-100.970427,31.831282],[-100.970829,31.835816],[-100.976026,31.836085],[-100.975949,31.838288],[-100.977491,31.838329],[-100.977563,31.836178],[-100.979341,31.836212],[-100.979196,31.840535],[-100.977414,31.840483],[-100.977353,31.842094],[-100.979198,31.841852],[-100.98101,31.841928],[-100.98095,31.844256],[-100.98287,31.844298],[-100.982908,31.84333],[-100.984493,31.843378],[-100.984292,31.846768],[-100.978952,31.846812],[-100.978997,31.846182],[-100.975322,31.846137],[-100.975061,31.847174],[-100.974087,31.848979],[-100.966623,31.859267],[-100.965481,31.861935],[-100.962486,31.871828],[-100.957427,31.881152],[-100.956651,31.884597],[-100.956112,31.893084],[-100.955659,31.89462],[-100.95107,31.905278],[-100.948912,31.907819],[-100.944446,31.91069],[-100.941888,31.911633],[-100.937779,31.912044],[-100.937265,31.92632],[-100.947375,31.931879],[-100.95057,31.931838],[-100.952658,31.933218],[-100.955043,31.933406],[-100.954391,31.945533],[-100.953697,31.969906],[-100.953933,31.970435],[-100.977016,31.971186],[-100.977456,31.971764],[-100.980495,31.971691],[-100.998896,31.97224],[-101.023118,31.973148],[-101.01892,32.08673]]]}},{"type":"Feature","properties":{"PRECINCT":"4","VTD":"0004"},"geometry":{"type":"Polygon","coordinates":[[[-101.264216,32.087136],[-101.23898,32.087323],[-101.101193,32.086748],[-101.01892,32.08673],[-101.023118,31.973148],[-100.998896,31.97224],[-100.980495,31.971691],[-100.977456,31.971764],[-100.977016,31.971186],[-100.953933,31.970435],[-100.953697,31.969906],[-100.954391,31.945533],[-100.955043,31.933406],[-100.952658,31.933218],[-100.95057,31.931838],[-100.947375,31.931879],[-100.937265,31.92632],[-100.937779,31.912044],[-100.941888,31.911633],[-100.944446,31.91069],[-100.948912,31.907819],[-100.95107,31.905278],[-100.955659,31.89462],[-100.956112,31.893084],[-100.956651,31.884597],[-100.957427,31.881152],[-100.962486,31.871828],[-100.965481,31.861935],[-100.966286,31.859933],[-100.967286,31.858197],[-100.974087,31.848979],[-100.975061,31.847174],[-100.975322,31.846137],[-100.978997,31.846182],[-100.978952,31.846812],[-100.984292,31.846768],[-100.984493,31.843378],[-100.982908,31.84333],[-100.98295,31.842076],[-100.984059,31.842091],[-100.984159,31.839626],[-100.983031,31.839579],[-100.983119,31.837414],[-100.985003,31.837465],[-100.985033,31.836371],[-100.986984,31.836423],[-100.987031,31.835315],[-100.988635,31.835364],[-100.988545,31.83756],[-100.990177,31.837605],[-100.990146,31.83871],[-100.988509,31.838656],[-100.988454,31.839746],[-100.987278,31.839705],[-100.987156,31.841888],[-100.988362,31.842089],[-100.990239,31.842815],[-100.992792,31.842948],[-100.992844,31.840927],[-100.991652,31.840889],[-100.991818,31.836543],[-100.995125,31.836667],[-100.995081,31.837736],[-100.998773,31.837843],[-100.998834,31.837059],[-101.00039,31.837353],[-101.0171,31.840665],[-101.019197,31.841277],[-101.021699,31.842399],[-101.024918,31.844733],[-101.035109,31.855393],[-101.044027,31.862459],[-101.057919,31.875274],[-101.061077,31.878618],[-101.068984,31.889199],[-101.070615,31.890863],[-101.073344,31.892876],[-101.075945,31.894197],[-101.093463,31.900283],[-101.096267,31.900914],[-101.121214,31.904734],[-101.12443,31.905734],[-101.127653,31.907175],[-101.139231,31.913031],[-101.140771,31.91407],[-101.172118,31.93913],[-101.185946,31.951142],[-101.188319,31.95272],[-101.192563,31.954508],[-101.216622,31.962009],[-101.221846,31.963332],[-101.238806,31.968794],[-101.241848,31.970772],[-101.264975,31.98839],[-101.264216,32.087136]]]}}]}