{"type":"FeatureCollection","features":[{"type":"Feature","properties":{"PRECINCT":"bexar:2063","COUNTY":"Bexar"},"geometry":{"type":"Polygon","coordinates":[[[-98.78658,29.61829],[-98.78284,29.6187],[-98.77943,29.61869],[-98.77191,29.62104],[-98.76628,29.62104],[-98.76498,29.62074],[-98.7639,29.62019],[-98.7616,29.61775],[-98.76003,29.61674],[-98.75598,29.61558],[-98.7536,29.61465],[-98.75243,29.6145],[-98.75116,29.61471],[-98.75017,29.61521],[-98.74586,29.61927],[-98.74447,29.6199],[-98.74312,29.61993],[-98.73983,29.61868],[-98.7378,29.61832],[-98.73276,29.61846],[-98.72797,29.61955],[-98.72696,29.61951],[-98.72608,29.61919],[-98.72535,29.61859],[-98.72318,29.61512],[-98.72155,29.61307],[-98.71681,29.61021],[-98.7146,29.60853],[-98.7118,29.60707],[-98.71056,29.60604],[-98.70805,29.60255],[-98.70636,29.59785],[-98.70323,29.59481],[-98.70403,29.59435],[-98.706,29.59392],[-98.70788,29.59458],[-98.71047,29.59473],[-98.71195,29.59543],[-98.7133,29.59545],[-98.71276,29.59278],[-98.71475,29.59239],[-98.71555,29.59323],[-98.71619,29.59233],[-98.71623,29.59295],[-98.71798,29.59337],[-98.71844,29.59287],[-98.71917,29.59054],[-98.72017,29.59082],[-98.71908,29.59218],[-98.71939,29.59283],[-98.71866,29.59439],[-98.71916,29.59572],[-98.71995,29.59666],[-98.72028,29.59817],[-98.7229,29.60098],[-98.72085,29.60379],[-98.72234,29.60447],[-98.72387,29.60415],[-98.72414,29.6045],[-98.72605,29.60353],[-98.73052,29.60292],[-98.73055,29.6026],[-98.73275,29.60284],[-98.73432,29.60373],[-98.73715,29.60149],[-98.73962,29.60535],[-98.73739,29.60644],[-98.73925,29.60835],[-98.74068,29.61116],[-98.74417,29.61566],[-98.75327,29.60632],[-98.75212,29.60543],[-98.75626,29.60163],[-98.76118,29.60532],[-98.77472,29.59778],[-98.77392,29.59673],[-98.77397,29.5757],[-98.77571,29.5757],[-98.77667,29.57765],[-98.78013,29.57864],[-98.78099,29.57637],[-98.78648,29.57807],[-98.78396,29.58594],[-98.78308,29.5878],[-98.78908,29.59564],[-98.78947,29.59545],[-98.79556,29.59496],[-98.79953,29.59529],[-98.79939,29.57869],[-98.79201,29.57556],[-98.79126,29.57747],[-98.78696,29.57622],[-98.78939,29.56986],[-98.78994,29.56971],[-98.79007,29.5694],[-98.78976,29.56897],[-98.79078,29.56647],[-98.79276,29.56754],[-98.79468,29.5692],[-98.79618,29.56973],[-98.79841,29.57141],[-98.79976,29.57173],[-98.8058,29.57199],[-98.80594,29.63327],[-98.80438,29.632],[-98.80231,29.6297],[-98.79971,29.62737],[-98.79818,29.62525],[-98.79701,29.62286],[-98.79424,29.61989],[-98.7929,29.61925],[-98.78658,29.61829]]]}},{"type":"Feature","properties":{"PRECINCT":"bexar:2095","COUNTY":"Bexar"},"geometry":{"type":"Polygon","coordinates":[[[-98.71411,29.57898],[-98.71051,29.57801],[-98.70831,29.57869],[-98.70529,29.57781],[-98.70211,29.57451],[-98.70175,29.57261],[-98.70019,29.57548],[-98.69316,29.57255],[-98.69608,29.56479],[-98.69718,29.56247],[-98.70519,29.56548],[-98.70672,29.56172],[-98.71332,29.56437],[-98.71813,29.55511],[-98.70459,29.54971],[-98.70654,29.54595],[-98.71058,29.54188],[-98.71232,29.53891],[-98.71755,29.54094],[-98.71889,29.53836],[-98.72114,29.53923],[-98.72145,29.53862],[-98.72367,29.53948],[-98.72336,29.54009],[-98.72557,29.54097],[-98.72341,29.54518],[-98.72805,29.54703],[-98.71699,29.56863],[-98.71711,29.57256],[-98.7168,29.57686],[-98.71607,29.57809],[-98.71411,29.57898]]]}},{"type":"Feature","properties":{"PRECINCT":"bexar:2101","COUNTY":"Bexar"},"geometry":{"type":"Polygon","coordinates":[[[-98.6709,29.55469],[-98.67265,29.55093],[-98.67708,29.55092],[-98.6791,29.55174],[-98.68122,29.5506],[-98.68085,29.54992],[-98.68082,29.5491],[-98.68397,29.54303],[-98.68599,29.54392],[-98.68671,29.54299],[-98.68649,29.54288],[-98.68804,29.54089],[-98.69148,29.54225],[-98.69171,29.54325],[-98.69035,29.54373],[-98.68932,29.54482],[-98.69353,29.54904],[-98.69506,29.54995],[-98.69516,29.54978],[-98.69831,29.54995],[-98.70157,29.54398],[-98.70069,29.54364],[-98.70159,29.54208],[-98.70304,29.54162],[-98.70463,29.54163],[-98.70915,29.54331],[-98.70654,29.54595],[-98.70345,29.55167],[-98.69988,29.55542],[-98.69568,29.56327],[-98.6946,29.56431],[-98.69299,29.565],[-98.69124,29.56508],[-98.68998,29.56474],[-98.67402,29.5585],[-98.67205,29.55751],[-98.6702,29.55608],[-98.67139,29.55539],[-98.6709,29.55469]]]}},{"type":"Feature","properties":{"PRECINCT":"bexar:2107","COUNTY":"Bexar"},"geometry":{"type":"Polygon","coordinates":[[[-98.71276,29.53254],[-98.69362,29.52518],[-98.69793,29.5164],[-98.70944,29.5209],[-98.71008,29.5214],[-98.71045,29.52245],[-98.71081,29.5228],[-98.71819,29.52571],[-98.71819,29.52861],[-98.71775,29.53004],[-98.71659,29.53236],[-98.71339,29.53119],[-98.71276,29.53254]]]}},{"type":"Feature","properties":{"PRECINCT":"bexar:2115","COUNTY":"Bexar"},"geometry":{"type":"Polygon","coordinates":[[[-98.79188,29.56513],[-98.79351,29.56046],[-98.79483,29.55759],[-98.7958,29.55568],[-98.79781,29.55344],[-98.79776,29.54469],[-98.80244,29.54463],[-98.80247,29.54075],[-98.80316,29.53947],[-98.80318,29.53828],[-98.80403,29.53734],[-98.7979,29.53241],[-98.79899,29.53031],[-98.79264,29.52518],[-98.79513,29.52029],[-98.79489,29.52012],[-98.7925,29.52507],[-98.79253,29.52539],[-98.79858,29.53033],[-98.79759,29.53233],[-98.79507,29.53169],[-98.79352,29.53796],[-98.79351,29.54207],[-98.79252,29.54206],[-98.79252,29.54171],[-98.78918,29.54254],[-98.78397,29.54189],[-98.7832,29.54312],[-98.77264,29.5388],[-98.77581,29.53263],[-98.7751,29.53233],[-98.77192,29.53848],[-98.76536,29.53578],[-98.76528,29.53956],[-98.76264,29.54472],[-98.75978,29.54361],[-98.75725,29.54151],[-98.75732,29.54124],[-98.75686,29.5411],[-98.7564,29.54053],[-98.75511,29.53974],[-98.75118,29.53652],[-98.74834,29.5354],[-98.75847,29.51639],[-98.76284,29.51812],[-98.7635,29.51679],[-98.76241,29.51641],[-98.76253,29.51613],[-98.76385,29.51566],[-98.76487,29.51488],[-98.76705,29.51099],[-98.76793,29.51017],[-98.76887,29.50974],[-98.77013,29.50957],[-98.77134,29.50977],[-98.78525,29.51545],[-98.78659,29.51602],[-98.78664,29.51626],[-98.79214,29.51833],[-98.79889,29.52234],[-98.80035,29.52265],[-98.80558,29.52271],[-98.80574,29.56121],[-98.80363,29.56136],[-98.8026,29.56165],[-98.80099,29.56161],[-98.80057,29.56188],[-98.79924,29.56135],[-98.79926,29.56644],[-98.79188,29.56513]]]}},{"type":"Feature","properties":{"PRECINCT":"bexar:2123","COUNTY":"Bexar"},"geometry":{"type":"Polygon","coordinates":[[[-98.66739,29.55362],[-98.67782,29.5426],[-98.68128,29.53936],[-98.68276,29.53647],[-98.6849,29.52989],[-98.68583,29.52859],[-98.68896,29.52553],[-98.69031,29.52388],[-98.69069,29.52421],[-98.69499,29.51527],[-98.69793,29.5164],[-98.69362,29.52518],[-98.69235,29.52676],[-98.68937,29.52966],[-98.68718,29.53309],[-98.68564,29.53761],[-98.69791,29.5424],[-98.69972,29.54259],[-98.70159,29.54208],[-98.70069,29.54364],[-98.70157,29.54398],[-98.69831,29.54995],[-98.69516,29.54978],[-98.69506,29.54995],[-98.69353,29.54904],[-98.68932,29.54482],[-98.69035,29.54373],[-98.69171,29.54325],[-98.69148,29.54225],[-98.68804,29.54089],[-98.68649,29.54288],[-98.68671,29.54299],[-98.68599,29.54392],[-98.68397,29.54303],[-98.68082,29.5491],[-98.68115,29.55064],[-98.6791,29.55174],[-98.67708,29.55092],[-98.67265,29.55093],[-98.6709,29.55469],[-98.67139,29.55539],[-98.6702,29.55608],[-98.66739,29.55362]]]}},{"type":"Feature","properties":{"PRECINCT":"bexar:2136","COUNTY":"Bexar"},"geometry":{"type":"Polygon","coordinates":[[[-98.70407,29.54157],[-98.70259,29.54171],[-98.70019,29.54253],[-98.69832,29.54251],[-98.68564,29.53761],[-98.68718,29.53309],[-98.68937,29.52966],[-98.69235,29.52676],[-98.69362,29.52518],[-98.71276,29.53254],[-98.71339,29.53119],[-98.71659,29.53236],[-98.71552,29.5344],[-98.71256,29.53852],[-98.71091,29.54145],[-98.70915,29.54331],[-98.70539,29.54181],[-98.70407,29.54157]]]}},{"type":"Feature","properties":{"PRECINCT":"bexar:2160","COUNTY":"Bexar"},"geometry":{"type":"Polygon","coordinates":[[[-98.73962,29.60535],[-98.73715,29.60149],[-98.73432,29.60373],[-98.73275,29.60284],[-98.73055,29.6026],[-98.73052,29.60292],[-98.72605,29.60353],[-98.72414,29.6045],[-98.72387,29.60415],[-98.72234,29.60447],[-98.72085,29.60379],[-98.7229,29.60098],[-98.72028,29.59817],[-98.71995,29.59666],[-98.71916,29.59572],[-98.71866,29.59439],[-98.71939,29.59283],[-98.71908,29.59218],[-98.72017,29.59082],[-98.71917,29.59054],[-98.71884,29.59165],[-98.7165,29.58788],[-98.71091,29.5874],[-98.70954,29.58589],[-98.70991,29.58563],[-98.71037,29.58434],[-98.71001,29.58385],[-98.71071,29.58218],[-98.70958,29.57959],[-98.70316,29.57938],[-98.70211,29.57451],[-98.70529,29.57781],[-98.70831,29.57869],[-98.71051,29.57801],[-98.71411,29.57898],[-98.71607,29.57809],[-98.7168,29.57686],[-98.71711,29.57256],[-98.71699,29.56863],[-98.72386,29.55519],[-98.72927,29.55709],[-98.73776,29.55635],[-98.74754,29.53662],[-98.75877,29.51508],[-98.7635,29.51679],[-98.76284,29.51812],[-98.75847,29.51639],[-98.74834,29.5354],[-98.75118,29.53652],[-98.75511,29.53974],[-98.7564,29.54053],[-98.75686,29.5411],[-98.75732,29.54124],[-98.75725,29.54151],[-98.75978,29.54361],[-98.76264,29.54472],[-98.76528,29.53956],[-98.76536,29.53578],[-98.77192,29.53848],[-98.7751,29.53233],[-98.77581,29.53263],[-98.77264,29.5388],[-98.7832,29.54312],[-98.78397,29.54189],[-98.78918,29.54254],[-98.79252,29.54171],[-98.79252,29.54206],[-98.79351,29.54207],[-98.79352,29.53796],[-98.79507,29.53169],[-98.79759,29.53233],[-98.79858,29.53033],[-98.79253,29.52539],[-98.7925,29.52507],[-98.79489,29.52012],[-98.79513,29.52029],[-98.79264,29.52518],[-98.79899,29.53031],[-98.7979,29.53241],[-98.80403,29.53734],[-98.80318,29.53828],[-98.80316,29.53947],[-98.80247,29.54075],[-98.80244,29.54463],[-98.79776,29.54469],[-98.79781,29.55344],[-98.7958,29.55568],[-98.79483,29.55759],[-98.79351,29.56046],[-98.79188,29.56513],[-98.79926,29.56644],[-98.79924,29.56135],[-98.80057,29.56188],[-98.80099,29.56161],[-98.8026,29.56165],[-98.80363,29.56136],[-98.80574,29.56121],[-98.8058,29.57199],[-98.79976,29.57173],[-98.79841,29.57141],[-98.79618,29.56973],[-98.79468,29.5692],[-98.79276,29.56754],[-98.79078,29.56647],[-98.78976,29.56897],[-98.79007,29.5694],[-98.78994,29.56971],[-98.78939,29.56986],[-98.78696,29.57622],[-98.79126,29.57747],[-98.79201,29.57556],[-98.79939,29.57869],[-98.79953,29.59529],[-98.79556,29.59496],[-98.78947,29.59545],[-98.78908,29.59564],[-98.78308,29.5878],[-98.78396,29.58594],[-98.78648,29.57807],[-98.78099,29.57637],[-98.78013,29.57864],[-98.77667,29.57765],[-98.77571,29.5757],[-98.77397,29.5757],[-98.77392,29.59673],[-98.77472,29.59778],[-98.76118,29.60532],[-98.75626,29.60163],[-98.75212,29.60543],[-98.75327,29.60632],[-98.74417,29.61566],[-98.74068,29.61116],[-98.73925,29.60835],[-98.73739,29.60644],[-98.73962,29.60535]]]}},{"type":"Feature","properties":{"PRECINCT":"bexar:3005","COUNTY":"Bexar"},"geometry":{"type":"Polygon","coordinates":[[[-98.50745,29.73989],[-98.50643,29.73973],[-98.50443,29.7388],[-98.50253,29.73832],[-98.50081,29.73827],[-98.49898,29.73861],[-98.49696,29.73849],[-98.49302,29.73703],[-98.49244,29.73599],[-98.49068,29.73542],[-98.48975,29.73534],[-98.48716,29.736],[-98.48252,29.73527],[-98.47978,29.73508],[-98.47699,29.73344],[-98.47517,29.73382],[-98.47397,29.73437],[-98.47165,29.7363],[-98.46902,29.73766],[-98.46597,29.73854],[-98.46511,29.73824],[-98.4645,29.7376],[-98.46338,29.73587],[-98.46261,29.73399],[-98.46213,29.73351],[-98.46006,29.73262],[-98.45955,29.73184],[-98.45749,29.73156],[-98.4526,29.7328],[-98.45219,29.73357],[-98.4512,29.7344],[-98.44805,29.73582],[-98.44598,29.73588],[-98.44486,29.73541],[-98.44347,29.73445],[-98.44269,29.73256],[-98.44292,29.73047],[-98.44461,29.72615],[-98.4447,29.72247],[-98.44385,29.71965],[-98.44878,29.7101],[-98.45192,29.71352],[-98.45302,29.71403],[-98.46028,29.71402],[-98.4637,29.71331],[-98.46486,29.71264],[-98.46583,29.71249],[-98.47161,29.71517],[-98.47254,29.71532],[-98.48711,29.70825],[-98.51289,29.70819],[-98.5129,29.71286],[-98.51331,29.71318],[-98.51297,29.7147],[-98.51281,29.7399],[-98.51305,29.74056],[-98.51438,29.74199],[-98.51449,29.74286],[-98.51357,29.74275],[-98.51184,29.74189],[-98.50973,29.74126],[-98.5095,29.74094],[-98.50818,29.74049],[-98.50745,29.73989]]]}},{"type":"Feature","properties":{"PRECINCT":"bexar:3008","COUNTY":"Bexar"},"geometry":{"type":"Polygon","coordinates":[[[-98.67125,29.57636],[-98.6742,29.57632],[-98.67455,29.57564],[-98.67552,29.57614],[-98.67628,29.57464],[-98.67799,29.57494],[-98.67774,29.57755],[-98.67643,29.58059],[-98.66989,29.58064],[-98.66989,29.57961],[-98.67129,29.5796],[-98.67125,29.57636]]]}},{"type":"Feature","properties":{"PRECINCT":"bexar:3009","COUNTY":"Bexar"},"geometry":{"type":"Polygon","coordinates":[[[-98.67747,29.62636],[-98.66907,29.62616],[-98.66905,29.61879],[-98.67108,29.61878],[-98.67104,29.61214],[-98.67214,29.61215],[-98.67242,29.60897],[-98.67333,29.60896],[-98.67417,29.60817],[-98.67567,29.60819],[-98.67568,29.60892],[-98.68093,29.60909],[-98.6805,29.61196],[-98.67996,29.61191],[-98.68019,29.61213],[-98.67936,29.6173],[-98.67959,29.61768],[-98.67916,29.61965],[-98.67968,29.62051],[-98.67905,29.62052],[-98.67843,29.6224],[-98.67755,29.62238],[-98.67747,29.62636]]]}},{"type":"Feature","properties":{"PRECINCT":"bexar:3012","COUNTY":"Bexar"},"geometry":{"type":"Polygon","coordinates":[[[-98.75951,29.72221],[-98.7587,29.72141],[-98.75826,29.72179],[-98.75715,29.72203],[-98.75618,29.72171],[-98.75535,29.72172],[-98.75436,29.72133],[-98.75313,29.72123],[-98.75177,29.72024],[-98.75036,29.72102],[-98.74805,29.72056],[-98.74466,29.71843],[-98.74443,29.71811],[-98.74431,29.7168],[-98.74377,29.71636],[-98.74259,29.71685],[-98.74071,29.71708],[-98.73816,29.71658],[-98.73584,29.71842],[-98.73537,29.71961],[-98.73426,29.71853],[-98.73405,29.71634],[-98.7336,29.71551],[-98.73157,29.71339],[-98.72785,29.71059],[-98.72404,29.70697],[-98.72194,29.70619],[-98.71751,29.70667],[-98.71487,29.70605],[-98.71411,29.70549],[-98.71213,29.70204],[-98.70954,29.7018],[-98.70828,29.70122],[-98.70782,29.70014],[-98.70898,29.69667],[-98.70879,29.69462],[-98.7084,29.6939],[-98.70648,29.69171],[-98.70401,29.68998],[-98.7036,29.68898],[-98.70347,29.68744],[-98.70292,29.68647],[-98.70224,29.68578],[-98.70046,29.68489],[-98.68999,29.67763],[-98.68636,29.67631],[-98.68336,29.67626],[-98.68253,29.67664],[-98.68197,29.67723],[-98.68094,29.67993],[-98.68014,29.68076],[-98.67934,29.68098],[-98.67441,29.68096],[-98.67452,29.67616],[-98.67816,29.66696],[-98.67835,29.66372],[-98.67645,29.65911],[-98.67663,29.65847],[-98.67784,29.65701],[-98.67843,29.65559],[-98.6791,29.65361],[-98.67895,29.65231],[-98.68438,29.65186],[-98.68435,29.64836],[-98.69309,29.64838],[-98.69226,29.65557],[-98.71626,29.65728],[-98.71616,29.67096],[-98.74473,29.67103],[-98.74461,29.68366],[-98.74854,29.68355],[-98.75804,29.67503],[-98.77983,29.69299],[-98.78404,29.69628],[-98.78703,29.69793],[-98.79988,29.69797],[-98.77878,29.72017],[-98.77825,29.72],[-98.77692,29.72026],[-98.77491,29.71971],[-98.77383,29.72024],[-98.77152,29.72046],[-98.77084,29.72136],[-98.77021,29.72144],[-98.76786,29.72088],[-98.76736,29.71983],[-98.76667,29.71955],[-98.76493,29.72088],[-98.76363,29.72126],[-98.76225,29.72201],[-98.76087,29.72185],[-98.75987,29.72234],[-98.75951,29.72221]]]}},{"type":"Feature","properties":{"PRECINCT":"bexar:3017","COUNTY":"Bexar"},"geometry":{"type":"Polygon","coordinates":[[[-98.66111,29.7493],[-98.65901,29.74924],[-98.6572,29.74525],[-98.6573,29.74403],[-98.65856,29.74018],[-98.65826,29.74009],[-98.65879,29.73848],[-98.65887,29.73724],[-98.65857,29.73597],[-98.65609,29.7311],[-98.62345,29.73108],[-98.62368,29.71825],[-98.62416,29.71719],[-98.6269,29.71396],[-98.64922,29.71397],[-98.65137,29.71416],[-98.65137,29.71384],[-98.65351,29.71371],[-98.65332,29.71423],[-98.65367,29.71644],[-98.65333,29.71791],[-98.65377,29.71891],[-98.65816,29.71744],[-98.66042,29.71569],[-98.66139,29.71614],[-98.66227,29.71597],[-98.66236,29.71609],[-98.66189,29.71633],[-98.66202,29.71665],[-98.66262,29.71646],[-98.66276,29.7167],[-98.66222,29.71691],[-98.66215,29.71755],[-98.66277,29.71674],[-98.6637,29.71805],[-98.66548,29.71975],[-98.67269,29.73076],[-98.67264,29.73109],[-98.66355,29.73102],[-98.66356,29.73218],[-98.66499,29.73218],[-98.66504,29.73153],[-98.6656,29.73175],[-98.66523,29.74199],[-98.66361,29.7411],[-98.66277,29.74102],[-98.66153,29.74143],[-98.66122,29.74133],[-98.66025,29.74157],[-98.65974,29.74203],[-98.65977,29.74279],[-98.66014,29.74332],[-98.66057,29.74372],[-98.66355,29.74518],[-98.66374,29.74607],[-98.66309,29.74754],[-98.66193,29.74875],[-98.66111,29.7493]]]}},{"type":"Feature","properties":{"PRECINCT":"bexar:3030","COUNTY":"Bexar"},"geometry":{"type":"Polygon","coordinates":[[[-98.51624,29.59908],[-98.51751,29.59685],[-98.51745,29.59554],[-98.51717,29.59484],[-98.5139,29.59316],[-98.5116,29.59286],[-98.51232,29.59078],[-98.51489,29.58779],[-98.51554,29.58636],[-98.51591,29.58398],[-98.51582,29.58259],[-98.51433,29.57916],[-98.51585,29.5792],[-98.51689,29.57954],[-98.51922,29.58133],[-98.51986,29.58264],[-98.52058,29.5865],[-98.52214,29.58925],[-98.52498,29.59181],[-98.52796,29.59339],[-98.52651,29.59621],[-98.52316,29.60007],[-98.52204,29.59906],[-98.52008,29.59925],[-98.52014,29.59987],[-98.51739,29.60017],[-98.51601,29.60003],[-98.51624,29.59908]]]}},{"type":"Feature","properties":{"PRECINCT":"bexar:3033","COUNTY":"Bexar"},"geometry":{"type":"Polygon","coordinates":[[[-98.49511,29.6267],[-98.49431,29.61823],[-98.49307,29.61014],[-98.4927,29.60892],[-98.49737,29.60857],[-98.50826,29.60874],[-98.50836,29.61038],[-98.51011,29.61692],[-98.51175,29.61976],[-98.51316,29.62125],[-98.51232,29.62218],[-98.51056,29.62332],[-98.50142,29.62615],[-98.49511,29.6267]]]}},{"type":"Feature","properties":{"PRECINCT":"bexar:3034","COUNTY":"Bexar"},"geometry":{"type":"Polygon","coordinates":[[[-98.64547,29.74786],[-98.64565,29.74699],[-98.64624,29.74614],[-98.64623,29.7436],[-98.64521,29.74162],[-98.64355,29.74036],[-98.64261,29.74021],[-98.64016,29.74033],[-98.63402,29.74156],[-98.63274,29.742],[-98.62833,29.74426],[-98.62484,29.7443],[-98.62334,29.74393],[-98.62345,29.73108],[-98.65609,29.7311],[-98.65878,29.7366],[-98.65885,29.73805],[-98.65826,29.74009],[-98.65856,29.74018],[-98.6573,29.74403],[-98.6572,29.74525],[-98.65901,29.74924],[-98.65815,29.74904],[-98.65805,29.74836],[-98.65758,29.74796],[-98.65655,29.74772],[-98.65305,29.74883],[-98.65255,29.74986],[-98.65332,29.75117],[-98.65302,29.75295],[-98.6525,29.75354],[-98.65113,29.75402],[-98.64946,29.75322],[-98.64857,29.75178],[-98.64804,29.75015],[-98.64547,29.74786]]]}},{"type":"Feature","properties":{"PRECINCT":"bexar:3042","COUNTY":"Bexar"},"geometry":{"type":"Polygon","coordinates":[[[-98.49104,29.67755],[-98.49132,29.66205],[-98.48541,29.66206],[-98.4827,29.66096],[-98.48317,29.66036],[-98.48479,29.66009],[-98.48664,29.66039],[-98.48811,29.66102],[-98.4913,29.6613],[-98.49209,29.66111],[-98.49463,29.65772],[-98.49264,29.65691],[-98.49304,29.65596],[-98.49412,29.65574],[-98.49646,29.65596],[-98.49809,29.65367],[-98.50023,29.6585],[-98.4977,29.65952],[-98.49855,29.6603],[-98.50142,29.66083],[-98.50365,29.66222],[-98.5047,29.66247],[-98.50366,29.66294],[-98.50791,29.66978],[-98.49104,29.67755]]]}},{"type":"Feature","properties":{"PRECINCT":"bexar:3043","COUNTY":"Bexar"},"geometry":{"type":"Polygon","coordinates":[[[-98.4837,29.70734],[-98.48164,29.70173],[-98.48179,29.69957],[-98.48078,29.69613],[-98.47934,29.69367],[-98.47851,29.6913],[-98.47718,29.68939],[-98.47682,29.68811],[-98.47466,29.68499],[-98.47434,29.68322],[-98.47459,29.68177],[-98.4765,29.67953],[-98.49673,29.67939],[-98.49618,29.67997],[-98.49601,29.68223],[-98.49494,29.68383],[-98.49271,29.68458],[-98.49152,29.68465],[-98.49187,29.68572],[-98.49289,29.68602],[-98.49351,29.6872],[-98.4945,29.68783],[-98.49564,29.68894],[-98.49526,29.69038],[-98.49643,29.6917],[-98.49572,29.6924],[-98.49445,29.69514],[-98.49404,29.69542],[-98.49301,29.69556],[-98.49135,29.69747],[-98.49204,29.69877],[-98.49141,29.70079],[-98.49356,29.70411],[-98.49403,29.70534],[-98.49391,29.70636],[-98.49422,29.70675],[-98.49363,29.70734],[-98.49334,29.70735],[-98.49031,29.70584],[-98.49015,29.70533],[-98.48871,29.70749],[-98.48864,29.70822],[-98.48694,29.70829],[-98.48407,29.70964],[-98.4838,29.70902],[-98.4837,29.70734]]]}},{"type":"Feature","properties":{"PRECINCT":"bexar:3045","COUNTY":"Bexar"},"geometry":{"type":"Polygon","coordinates":[[[-98.50826,29.60874],[-98.50845,29.60528],[-98.50799,29.6022],[-98.5083,29.60055],[-98.51061,29.59677],[-98.5116,29.59286],[-98.5139,29.59316],[-98.51689,29.59461],[-98.51745,29.59554],[-98.51741,29.59717],[-98.51627,29.59896],[-98.51601,29.60003],[-98.51739,29.60017],[-98.52014,29.59987],[-98.52008,29.59925],[-98.52204,29.59906],[-98.52316,29.60007],[-98.5221,29.60235],[-98.52188,29.60408],[-98.52206,29.60568],[-98.52306,29.60849],[-98.52081,29.60868],[-98.50826,29.60874]]]}},{"type":"Feature","properties":{"PRECINCT":"bexar:3051","COUNTY":"Bexar"},"geometry":{"type":"Polygon","coordinates":[[[-98.67747,29.62636],[-98.67755,29.62238],[-98.67843,29.6224],[-98.67905,29.62052],[-98.67968,29.62051],[-98.67916,29.61965],[-98.67959,29.61768],[-98.67936,29.6173],[-98.68019,29.61213],[-98.67996,29.61191],[-98.6805,29.61196],[-98.68093,29.60909],[-98.6816,29.60914],[-98.68176,29.60891],[-98.6812,29.60835],[-98.68299,29.60794],[-98.68276,29.60716],[-98.68362,29.60698],[-98.68283,29.60866],[-98.68379,29.60889],[-98.68367,29.6092],[-98.6846,29.6093],[-98.68522,29.61949],[-98.68506,29.62143],[-98.68409,29.62528],[-98.68296,29.62702],[-98.68145,29.62693],[-98.68148,29.62641],[-98.67747,29.62636]]]}},{"type":"Feature","properties":{"PRECINCT":"bexar:3055","COUNTY":"Bexar"},"geometry":{"type":"Polygon","coordinates":[[[-98.68731,29.73881],[-98.66578,29.71951],[-98.66401,29.71756],[-98.65688,29.70703],[-98.65716,29.70703],[-98.65708,29.7],[-98.68209,29.7006],[-98.68185,29.69023],[-98.68824,29.6903],[-98.68819,29.69199],[-98.69468,29.69228],[-98.69481,29.69555],[-98.709,29.69538],[-98.70898,29.69667],[-98.70782,29.70014],[-98.70798,29.70079],[-98.70842,29.70134],[-98.70954,29.7018],[-98.71213,29.70204],[-98.71411,29.70549],[-98.71487,29.70605],[-98.71707,29.70665],[-98.72149,29.70616],[-98.72368,29.70675],[-98.72785,29.71059],[-98.73157,29.71339],[-98.7339,29.71591],[-98.73426,29.71853],[-98.7354,29.71963],[-98.73517,29.72045],[-98.73425,29.72136],[-98.73043,29.72187],[-98.72895,29.72231],[-98.7288,29.72259],[-98.72896,29.72328],[-98.73068,29.72584],[-98.73201,29.72701],[-98.73371,29.7279],[-98.73433,29.7289],[-98.73413,29.72945],[-98.7332,29.72959],[-98.73149,29.72935],[-98.72582,29.72773],[-98.7251,29.72792],[-98.72432,29.72923],[-98.72364,29.72957],[-98.72302,29.72957],[-98.72181,29.7289],[-98.71902,29.72622],[-98.71767,29.72531],[-98.71723,29.72527],[-98.71559,29.72582],[-98.71443,29.72661],[-98.71304,29.72786],[-98.71041,29.73111],[-98.70779,29.73237],[-98.70527,29.73314],[-98.70401,29.73312],[-98.70141,29.73231],[-98.7,29.7326],[-98.69985,29.73295],[-98.70003,29.73349],[-98.70113,29.73572],[-98.70098,29.73687],[-98.70042,29.7374],[-98.69999,29.73744],[-98.69647,29.73648],[-98.69322,29.73531],[-98.69211,29.73526],[-98.69151,29.7355],[-98.68944,29.73773],[-98.68843,29.73844],[-98.68731,29.73881]]]}},{"type":"Feature","properties":{"PRECINCT":"bexar:3057","COUNTY":"Bexar"},"geometry":{"type":"Polygon","coordinates":[[[-98.53513,29.55766],[-98.54135,29.55129],[-98.54816,29.55656],[-98.54371,29.5609],[-98.54006,29.5622],[-98.53772,29.56341],[-98.53513,29.55766]]]}},{"type":"Feature","properties":{"PRECINCT":"bexar:3070","COUNTY":"Bexar"},"geometry":{"type":"Polygon","coordinates":[[[-98.54371,29.5609],[-98.54816,29.55656],[-98.55822,29.56448],[-98.5459,29.57639],[-98.54403,29.57401],[-98.53772,29.56341],[-98.54006,29.5622],[-98.54371,29.5609]]]}},{"type":"Feature","properties":{"PRECINCT":"bexar:3073","COUNTY":"Bexar"},"geometry":{"type":"Polygon","coordinates":[[[-98.5581,29.56439],[-98.56706,29.55566],[-98.56826,29.55625],[-98.57194,29.55906],[-98.57615,29.56436],[-98.5783,29.56831],[-98.57519,29.56993],[-98.56467,29.577],[-98.56369,29.57508],[-98.56366,29.57394],[-98.5641,29.57165],[-98.56371,29.56996],[-98.5629,29.56886],[-98.5581,29.56439]]]}},{"type":"Feature","properties":{"PRECINCT":"bexar:3074","COUNTY":"Bexar"},"geometry":{"type":"Polygon","coordinates":[[[-98.57008,29.59172],[-98.57688,29.59173],[-98.56562,29.57637],[-98.57519,29.56993],[-98.57832,29.5683],[-98.57987,29.57132],[-98.58132,29.57524],[-98.58313,29.57822],[-98.58369,29.58343],[-98.58758,29.59093],[-98.58786,29.59216],[-98.58042,29.59305],[-98.57739,29.59371],[-98.57508,29.59454],[-98.56893,29.59735],[-98.56875,29.59681],[-98.57007,29.59623],[-98.57008,29.59172]]]}},{"type":"Feature","properties":{"PRECINCT":"bexar:3075","COUNTY":"Bexar"},"geometry":{"type":"Polygon","coordinates":[[[-98.54424,29.59858],[-98.54279,29.59775],[-98.5406,29.59799],[-98.5409,29.59635],[-98.54096,29.59322],[-98.54138,29.59222],[-98.54201,29.59176],[-98.5449,29.59134],[-98.54763,29.58958],[-98.54728,29.58806],[-98.54639,29.58618],[-98.54475,29.58473],[-98.54335,29.58419],[-98.54198,29.58475],[-98.54164,29.58555],[-98.54027,29.58525],[-98.54036,29.58501],[-98.53967,29.5845],[-98.53885,29.58308],[-98.55822,29.56448],[-98.5629,29.56886],[-98.56371,29.56996],[-98.5641,29.57165],[-98.56364,29.57468],[-98.5644,29.57668],[-98.56467,29.577],[-98.56562,29.57637],[-98.57688,29.59173],[-98.56703,29.5919],[-98.56878,29.59689],[-98.56152,29.60005],[-98.5596,29.6006],[-98.54568,29.60142],[-98.54538,29.59999],[-98.54432,29.59962],[-98.54424,29.59858]]]}},{"type":"Feature","properties":{"PRECINCT":"bexar:3076","COUNTY":"Bexar"},"geometry":{"type":"Polygon","coordinates":[[[-98.52316,29.60007],[-98.52651,29.59621],[-98.52796,29.59339],[-98.53145,29.5901],[-98.53126,29.59954],[-98.53222,29.5991],[-98.53338,29.59919],[-98.53285,29.60113],[-98.53303,29.60213],[-98.5337,29.60335],[-98.52675,29.60727],[-98.52306,29.60849],[-98.52206,29.60568],[-98.52188,29.60408],[-98.5221,29.60235],[-98.52316,29.60007]]]}},{"type":"Feature","properties":{"PRECINCT":"bexar:3079","COUNTY":"Bexar"},"geometry":{"type":"Polygon","coordinates":[[[-98.50314,29.58096],[-98.48676,29.56821],[-98.4981,29.55699],[-98.50171,29.55731],[-98.50336,29.55861],[-98.5039,29.55934],[-98.50405,29.56298],[-98.50614,29.56472],[-98.50661,29.56564],[-98.50785,29.56614],[-98.50857,29.56821],[-98.50833,29.56936],[-98.50633,29.56973],[-98.50495,29.57231],[-98.50484,29.57307],[-98.50549,29.57369],[-98.50579,29.57438],[-98.50642,29.57478],[-98.50733,29.57485],[-98.50808,29.57577],[-98.50841,29.57586],[-98.50815,29.57675],[-98.50886,29.57779],[-98.51064,29.57856],[-98.50947,29.57896],[-98.50727,29.58088],[-98.50484,29.5815],[-98.50314,29.58096]]]}},{"type":"Feature","properties":{"PRECINCT":"bexar:3086","COUNTY":"Bexar"},"geometry":{"type":"Polygon","coordinates":[[[-98.53184,29.57372],[-98.53933,29.56617],[-98.54403,29.57401],[-98.5459,29.57639],[-98.53856,29.58341],[-98.53766,29.58155],[-98.53775,29.58017],[-98.53389,29.57626],[-98.53441,29.57569],[-98.53184,29.57372]]]}},{"type":"Feature","properties":{"PRECINCT":"bexar:3089","COUNTY":"Bexar"},"geometry":{"type":"Polygon","coordinates":[[[-98.48871,29.70749],[-98.49015,29.70533],[-98.49031,29.70584],[-98.49334,29.70735],[-98.49363,29.70734],[-98.49422,29.70675],[-98.49391,29.70636],[-98.49403,29.70534],[-98.49356,29.70411],[-98.49141,29.70079],[-98.49204,29.69877],[-98.49135,29.69747],[-98.49301,29.69556],[-98.49404,29.69542],[-98.49445,29.69514],[-98.49572,29.6924],[-98.49643,29.6917],[-98.49526,29.69038],[-98.49564,29.68894],[-98.4945,29.68783],[-98.49351,29.6872],[-98.49289,29.68602],[-98.49187,29.68572],[-98.49152,29.68465],[-98.49285,29.68455],[-98.49508,29.68369],[-98.49604,29.68215],[-98.49618,29.67997],[-98.49698,29.67912],[-98.49706,29.67847],[-98.5139,29.67842],[-98.51412,29.67899],[-98.5149,29.67841],[-98.51563,29.67917],[-98.51759,29.67774],[-98.51839,29.67768],[-98.51809,29.67698],[-98.5188,29.67681],[-98.51803,29.67508],[-98.51855,29.67485],[-98.51819,29.67428],[-98.51819,29.67163],[-98.52232,29.67166],[-98.52236,29.67143],[-98.52298,29.67763],[-98.5221,29.68232],[-98.52255,29.68891],[-98.52082,29.70018],[-98.5217,29.7048],[-98.52137,29.70601],[-98.52077,29.70689],[-98.52018,29.70743],[-98.51984,29.70716],[-98.51782,29.70733],[-98.51458,29.707],[-98.51328,29.70743],[-98.51289,29.70819],[-98.48864,29.70822],[-98.48871,29.70749]]]}},{"type":"Feature","properties":{"PRECINCT":"bexar:3091","COUNTY":"Bexar"},"geometry":{"type":"Polygon","coordinates":[[[-98.49548,29.59718],[-98.48821,29.59661],[-98.48762,29.59682],[-98.48828,29.59114],[-98.48678,29.59033],[-98.48615,29.59075],[-98.4841,29.5933],[-98.4819,29.59186],[-98.47529,29.58668],[-98.47716,29.5805],[-98.48181,29.56722],[-98.48191,29.56696],[-98.48285,29.56702],[-98.48338,29.56565],[-98.50033,29.57883],[-98.50314,29.58096],[-98.50396,29.58135],[-98.50386,29.5823],[-98.5015,29.5847],[-98.50133,29.58656],[-98.49943,29.58647],[-98.49926,29.58826],[-98.5006,29.58834],[-98.50056,29.58872],[-98.50232,29.58882],[-98.50153,29.59636],[-98.49558,29.59594],[-98.49548,29.59718]]]}},{"type":"Feature","properties":{"PRECINCT":"bexar:3092","COUNTY":"Bexar"},"geometry":{"type":"Polygon","coordinates":[[[-98.48939,29.60874],[-98.48912,29.6077],[-98.4869,29.60786],[-98.48671,29.60739],[-98.48707,29.60662],[-98.48657,29.60588],[-98.48422,29.60622],[-98.48292,29.60567],[-98.48256,29.60487],[-98.48212,29.6049],[-98.48151,29.60755],[-98.47651,29.60788],[-98.47512,29.60757],[-98.47598,29.6049],[-98.47399,29.60505],[-98.47332,29.60485],[-98.47437,29.60153],[-98.47098,29.60065],[-98.47487,29.58726],[-98.47508,29.58739],[-98.47529,29.58668],[-98.4819,29.59186],[-98.4841,29.5933],[-98.48615,29.59075],[-98.48678,29.59033],[-98.48828,29.59114],[-98.48762,29.59682],[-98.48821,29.59661],[-98.49548,29.59718],[-98.49558,29.59594],[-98.50402,29.59655],[-98.50397,29.59762],[-98.50252,29.59806],[-98.50023,29.60038],[-98.49741,29.60057],[-98.49594,29.60195],[-98.49531,29.60358],[-98.49572,29.60702],[-98.4924,29.60727],[-98.49259,29.60822],[-98.48939,29.60874]]]}},{"type":"Feature","properties":{"PRECINCT":"bexar:3093","COUNTY":"Bexar"},"geometry":{"type":"Polygon","coordinates":[[[-98.51775,29.62415],[-98.51695,29.62346],[-98.51291,29.62107],[-98.51158,29.61951],[-98.50995,29.61648],[-98.50836,29.61038],[-98.50826,29.60874],[-98.52081,29.60868],[-98.52306,29.60849],[-98.52675,29.60727],[-98.53219,29.60411],[-98.53442,29.60308],[-98.53695,29.60243],[-98.54153,29.60211],[-98.54143,29.60768],[-98.54171,29.60874],[-98.54106,29.61006],[-98.5417,29.61085],[-98.54193,29.61204],[-98.5433,29.61504],[-98.54344,29.61823],[-98.53484,29.61813],[-98.53459,29.62694],[-98.51882,29.62692],[-98.5185,29.62528],[-98.51775,29.62415]]]}},{"type":"Feature","properties":{"PRECINCT":"bexar:3094","COUNTY":"Bexar"},"geometry":{"type":"Polygon","coordinates":[[[-98.62817,29.6995],[-98.6283,29.67955],[-98.61276,29.67936],[-98.6129,29.67126],[-98.60544,29.67115],[-98.60549,29.65178],[-98.5958,29.65168],[-98.59571,29.64594],[-98.5889,29.64599],[-98.58899,29.63378],[-98.58861,29.63023],[-98.58728,29.6302],[-98.58381,29.62898],[-98.58499,29.62643],[-98.58337,29.62587],[-98.56939,29.62592],[-98.57379,29.61992],[-98.57428,29.61849],[-98.57419,29.61725],[-98.57328,29.61539],[-98.56353,29.59916],[-98.56878,29.59689],[-98.56893,29.59735],[-98.57508,29.59454],[-98.57739,29.59371],[-98.58042,29.59305],[-98.58786,29.59216],[-98.58814,29.59404],[-98.58903,29.59549],[-98.59577,29.59968],[-98.59892,29.6023],[-98.60011,29.60416],[-98.60144,29.60384],[-98.60372,29.61082],[-98.60679,29.61625],[-98.61372,29.63492],[-98.62335,29.6494],[-98.62696,29.65882],[-98.6295,29.66203],[-98.63096,29.66455],[-98.63331,29.67022],[-98.63106,29.66998],[-98.62917,29.67198],[-98.62884,29.67342],[-98.62659,29.67533],[-98.6253,29.67686],[-98.63145,29.67684],[-98.6315,29.69963],[-98.63002,29.70619],[-98.62824,29.70924],[-98.62773,29.71244],[-98.62663,29.71444],[-98.62416,29.71719],[-98.62368,29.71825],[-98.62346,29.73079],[-98.62023,29.73089],[-98.62038,29.71809],[-98.62089,29.71636],[-98.6218,29.71505],[-98.62381,29.71293],[-98.62464,29.71148],[-98.62508,29.70824],[-98.6269,29.70556],[-98.62817,29.6995]]]}},{"type":"Feature","properties":{"PRECINCT":"bexar:3096","COUNTY":"Bexar"},"geometry":{"type":"Polygon","coordinates":[[[-98.66476,29.67748],[-98.66042,29.67758],[-98.65909,29.6772],[-98.65666,29.67489],[-98.64927,29.66869],[-98.6475,29.66762],[-98.64493,29.66703],[-98.64087,29.66557],[-98.63658,29.66618],[-98.63665,29.66483],[-98.63525,29.66455],[-98.63501,29.66314],[-98.63465,29.66299],[-98.63448,29.66184],[-98.63422,29.66191],[-98.63363,29.66031],[-98.63304,29.6584],[-98.63464,29.65817],[-98.63506,29.65736],[-98.63471,29.6565],[-98.6335,29.65652],[-98.63339,29.64637],[-98.63548,29.64647],[-98.63659,29.64622],[-98.63765,29.64636],[-98.64211,29.64277],[-98.64341,29.64143],[-98.64403,29.64162],[-98.64651,29.64026],[-98.64663,29.6398],[-98.64606,29.63868],[-98.64537,29.63818],[-98.64616,29.63713],[-98.64891,29.63604],[-98.65051,29.63433],[-98.6515,29.63437],[-98.65128,29.6334],[-98.65149,29.63153],[-98.65078,29.63042],[-98.65225,29.62913],[-98.65085,29.62756],[-98.64921,29.62688],[-98.64668,29.6247],[-98.64419,29.62324],[-98.64716,29.62058],[-98.66905,29.62089],[-98.66907,29.62616],[-98.68148,29.62641],[-98.68145,29.62693],[-98.68296,29.62702],[-98.68254,29.62825],[-98.68249,29.63004],[-98.68071,29.63266],[-98.67878,29.63481],[-98.67817,29.63744],[-98.6787,29.64128],[-98.67873,29.64788],[-98.67916,29.65027],[-98.67895,29.65226],[-98.67912,29.65341],[-98.67802,29.65662],[-98.67663,29.65847],[-98.67645,29.65931],[-98.67835,29.66372],[-98.67816,29.66696],[-98.67452,29.67616],[-98.67441,29.68096],[-98.67271,29.6811],[-98.67095,29.68066],[-98.66656,29.678],[-98.66476,29.67748]]]}},{"type":"Feature","properties":{"PRECINCT":"bexar:3097","COUNTY":"Bexar"},"geometry":{"type":"Polygon","coordinates":[[[-98.54287,29.75185],[-98.5406,29.75173],[-98.539,29.7519],[-98.53657,29.75284],[-98.53533,29.75306],[-98.53401,29.75235],[-98.53374,29.75184],[-98.53363,29.75051],[-98.5341,29.74723],[-98.53396,29.74679],[-98.52858,29.74424],[-98.52796,29.74159],[-98.52678,29.74045],[-98.52586,29.74037],[-98.52538,29.74079],[-98.52608,29.74315],[-98.5259,29.74372],[-98.52446,29.74471],[-98.52314,29.74526],[-98.52024,29.7449],[-98.51794,29.74414],[-98.51623,29.74308],[-98.51449,29.74286],[-98.51438,29.74199],[-98.51284,29.74009],[-98.51297,29.7147],[-98.51331,29.71318],[-98.5129,29.71286],[-98.51292,29.70788],[-98.51344,29.70732],[-98.51504,29.70695],[-98.51782,29.70733],[-98.51992,29.70716],[-98.52018,29.70743],[-98.52128,29.7062],[-98.52173,29.70438],[-98.52082,29.70018],[-98.52255,29.68891],[-98.5221,29.68232],[-98.52298,29.67763],[-98.52242,29.67172],[-98.52197,29.67011],[-98.52044,29.66708],[-98.52001,29.66466],[-98.52124,29.65805],[-98.52128,29.65602],[-98.52064,29.65336],[-98.51872,29.64957],[-98.51821,29.64583],[-98.51834,29.6444],[-98.51966,29.64067],[-98.51987,29.63931],[-98.51932,29.63487],[-98.51882,29.62692],[-98.55084,29.62696],[-98.55084,29.62931],[-98.56122,29.62937],[-98.56166,29.62875],[-98.56571,29.62531],[-98.56645,29.62531],[-98.5701,29.62336],[-98.57016,29.62486],[-98.56939,29.62592],[-98.58337,29.62587],[-98.58499,29.62643],[-98.58381,29.62898],[-98.58728,29.6302],[-98.58861,29.63023],[-98.58899,29.63378],[-98.5889,29.64599],[-98.59571,29.64594],[-98.5958,29.65168],[-98.60549,29.65178],[-98.60544,29.67115],[-98.6129,29.67126],[-98.61276,29.67936],[-98.6283,29.67955],[-98.62817,29.6995],[-98.6269,29.70556],[-98.62508,29.70824],[-98.62464,29.71148],[-98.62381,29.71293],[-98.6218,29.71505],[-98.62089,29.71636],[-98.62038,29.71809],[-98.62023,29.73089],[-98.62346,29.73079],[-98.62334,29.74393],[-98.62149,29.74368],[-98.61923,29.74414],[-98.61783,29.74385],[-98.61686,29.74259],[-98.61695,29.74058],[-98.61739,29.73994],[-98.61733,29.73945],[-98.617,29.73902],[-98.61624,29.73871],[-98.61514,29.73784],[-98.61434,29.7376],[-98.61272,29.73824],[-98.61233,29.73984],[-98.61192,29.74008],[-98.61085,29.73999],[-98.60747,29.74046],[-98.60646,29.74004],[-98.60372,29.73992],[-98.60157,29.7404],[-98.60026,29.74157],[-98.6,29.74303],[-98.60169,29.74529],[-98.60449,29.74683],[-98.60474,29.74725],[-98.60405,29.74891],[-98.6034,29.74952],[-98.60113,29.75004],[-98.60041,29.74998],[-98.59962,29.74952],[-98.59934,29.74902],[-98.59697,29.74736],[-98.59338,29.74572],[-98.59311,29.74568],[-98.59243,29.74658],[-98.59141,29.74722],[-98.58953,29.74773],[-98.58849,29.7476],[-98.5875,29.74642],[-98.58678,29.74377],[-98.58689,29.74278],[-98.58668,29.74245],[-98.58411,29.74124],[-98.58252,29.74119],[-98.58224,29.74137],[-98.58226,29.74219],[-98.58173,29.74262],[-98.58093,29.74304],[-98.57938,29.74329],[-98.57881,29.74372],[-98.57869,29.74447],[-98.57929,29.74548],[-98.57921,29.74574],[-98.57836,29.74595],[-98.57633,29.74718],[-98.57522,29.75],[-98.57492,29.75021],[-98.57457,29.75042],[-98.57322,29.74984],[-98.57211,29.74971],[-98.56977,29.74839],[-98.569,29.74824],[-98.56831,29.74854],[-98.56833,29.74945],[-98.5668,29.75199],[-98.56616,29.75253],[-98.56555,29.75266],[-98.5631,29.75226],[-98.56267,29.75153],[-98.5623,29.75138],[-98.56038,29.75161],[-98.5593,29.75148],[-98.55755,29.75258],[-98.55512,29.75525],[-98.55507,29.75605],[-98.55545,29.75711],[-98.55474,29.75906],[-98.55302,29.76019],[-98.55105,29.76069],[-98.55049,29.76071],[-98.54835,29.76012],[-98.54778,29.75982],[-98.54738,29.75922],[-98.54689,29.75717],[-98.54765,29.75567],[-98.54788,29.75451],[-98.54731,29.75361],[-98.54407,29.75217],[-98.54287,29.75185]]]}},{"type":"Feature","properties":{"PRECINCT":"bexar:3098","COUNTY":"Bexar"},"geometry":{"type":"Polygon","coordinates":[[[-98.63444,29.60377],[-98.63447,29.60139],[-98.62916,29.60153],[-98.62927,29.59902],[-98.63072,29.59624],[-98.62927,29.59443],[-98.6289,29.59271],[-98.62926,29.59057],[-98.63071,29.58834],[-98.63114,29.58724],[-98.63458,29.58671],[-98.63746,29.58534],[-98.63851,29.58448],[-98.64505,29.57756],[-98.64647,29.57876],[-98.64693,29.58046],[-98.64521,29.58225],[-98.64502,29.59659],[-98.64599,29.59659],[-98.64545,29.59705],[-98.64573,29.59786],[-98.64561,29.59848],[-98.64595,29.59971],[-98.64703,29.60186],[-98.64589,29.60307],[-98.64161,29.60261],[-98.64055,29.60294],[-98.63963,29.60379],[-98.63444,29.60377]]]}},{"type":"Feature","properties":{"PRECINCT":"bexar:3099","COUNTY":"Bexar"},"geometry":{"type":"Polygon","coordinates":[[[-98.64523,29.62122],[-98.64786,29.61983],[-98.6499,29.6181],[-98.65042,29.61793],[-98.65102,29.61841],[-98.65449,29.61864],[-98.65484,29.61731],[-98.65581,29.6172],[-98.65829,29.61484],[-98.65606,29.61559],[-98.65851,29.61452],[-98.65927,29.61379],[-98.65852,29.61325],[-98.65847,29.6125],[-98.65982,29.61154],[-98.66045,29.60738],[-98.65996,29.60666],[-98.65775,29.60609],[-98.65657,29.60741],[-98.6553,29.60692],[-98.65434,29.60784],[-98.65457,29.60969],[-98.65478,29.61031],[-98.65527,29.61063],[-98.65498,29.6112],[-98.65343,29.61111],[-98.6533,29.6117],[-98.65288,29.61194],[-98.65262,29.61309],[-98.65293,29.61438],[-98.65362,29.61562],[-98.65415,29.6155],[-98.65442,29.61566],[-98.65432,29.61593],[-98.65276,29.61658],[-98.65182,29.61749],[-98.65076,29.61745],[-98.651,29.61673],[-98.65078,29.61578],[-98.65236,29.61585],[-98.65228,29.61522],[-98.65162,29.61423],[-98.652,29.61196],[-98.65239,29.61125],[-98.65229,29.60882],[-98.64892,29.60993],[-98.64823,29.61003],[-98.64821,29.60985],[-98.65089,29.609],[-98.65054,29.60847],[-98.65144,29.60783],[-98.65236,29.60755],[-98.65245,29.60717],[-98.64809,29.60797],[-98.64796,29.60743],[-98.65317,29.60596],[-98.65395,29.60625],[-98.65498,29.60485],[-98.65565,29.60431],[-98.65654,29.604],[-98.65794,29.60244],[-98.65508,29.60137],[-98.65437,29.60054],[-98.66061,29.59498],[-98.66061,29.59433],[-98.66335,29.59327],[-98.66376,29.59344],[-98.66459,29.59266],[-98.66077,29.59211],[-98.65954,29.59142],[-98.6582,29.59002],[-98.65255,29.59237],[-98.65196,29.59038],[-98.64814,29.5844],[-98.64714,29.58138],[-98.64669,29.57917],[-98.64629,29.57857],[-98.64505,29.57756],[-98.64969,29.57259],[-98.65162,29.56997],[-98.66255,29.56981],[-98.66274,29.58422],[-98.66987,29.58414],[-98.6698,29.58905],[-98.67901,29.59556],[-98.6806,29.59689],[-98.68052,29.60149],[-98.67789,29.60126],[-98.67405,29.60474],[-98.67251,29.60811],[-98.67214,29.61215],[-98.67104,29.61214],[-98.67108,29.61878],[-98.66905,29.61879],[-98.66905,29.62089],[-98.64716,29.62058],[-98.64419,29.62324],[-98.64379,29.62303],[-98.64523,29.62122]]]}},{"type":"Feature","properties":{"PRECINCT":"bexar:3101","COUNTY":"Bexar"},"geometry":{"type":"Polygon","coordinates":[[[-98.66274,29.58422],[-98.66255,29.56981],[-98.65162,29.56997],[-98.65464,29.56577],[-98.65906,29.56106],[-98.66739,29.55362],[-98.67117,29.5569],[-98.6724,29.55771],[-98.67042,29.56007],[-98.67006,29.55984],[-98.67041,29.55943],[-98.66974,29.55899],[-98.66706,29.56265],[-98.66311,29.56255],[-98.66301,29.5698],[-98.67339,29.5697],[-98.67475,29.56934],[-98.6761,29.56851],[-98.67654,29.57081],[-98.6785,29.56916],[-98.68062,29.56538],[-98.68166,29.56585],[-98.67845,29.57501],[-98.67628,29.57464],[-98.67552,29.57614],[-98.67455,29.57564],[-98.6742,29.57632],[-98.67125,29.57636],[-98.67129,29.5796],[-98.66989,29.57961],[-98.66987,29.58414],[-98.66274,29.58422]]]}},{"type":"Feature","properties":{"PRECINCT":"bexar:3102","COUNTY":"Bexar"},"geometry":{"type":"Polygon","coordinates":[[[-98.4927,29.60892],[-98.4924,29.60727],[-98.49572,29.60702],[-98.49531,29.60358],[-98.49594,29.60195],[-98.49646,29.60133],[-98.49761,29.60051],[-98.50023,29.60038],[-98.50252,29.59806],[-98.50397,29.59762],[-98.50402,29.59655],[-98.50153,29.59636],[-98.50232,29.58882],[-98.50056,29.58872],[-98.5006,29.58834],[-98.49926,29.58826],[-98.49943,29.58647],[-98.50133,29.58656],[-98.5015,29.5847],[-98.50386,29.5823],[-98.50396,29.58135],[-98.50514,29.58149],[-98.50689,29.58105],[-98.50779,29.58054],[-98.50947,29.57896],[-98.51042,29.57859],[-98.5113,29.57855],[-98.51301,29.57911],[-98.51433,29.57916],[-98.51582,29.58259],[-98.51591,29.58398],[-98.51554,29.58636],[-98.51489,29.58779],[-98.5122,29.59098],[-98.51061,29.59677],[-98.50816,29.60095],[-98.508,29.60242],[-98.50846,29.60559],[-98.50826,29.60874],[-98.49737,29.60857],[-98.4927,29.60892]]]}},{"type":"Feature","properties":{"PRECINCT":"bexar:3106","COUNTY":"Bexar"},"geometry":{"type":"Polygon","coordinates":[[[-98.67388,29.58641],[-98.67213,29.58461],[-98.66989,29.5861],[-98.66989,29.58064],[-98.67643,29.58059],[-98.67774,29.57755],[-98.67799,29.57494],[-98.67845,29.57501],[-98.68276,29.56284],[-98.67986,29.5619],[-98.68032,29.56103],[-98.69073,29.56497],[-98.69244,29.56508],[-98.69419,29.56456],[-98.69568,29.56327],[-98.69988,29.55542],[-98.70345,29.55167],[-98.70459,29.54971],[-98.71813,29.55511],[-98.71332,29.56437],[-98.70672,29.56172],[-98.70519,29.56548],[-98.69718,29.56247],[-98.69608,29.56479],[-98.69316,29.57255],[-98.70019,29.57548],[-98.70175,29.57261],[-98.70297,29.57921],[-98.7035,29.57968],[-98.70304,29.5856],[-98.70155,29.58454],[-98.69722,29.58225],[-98.69443,29.58327],[-98.69452,29.5836],[-98.69419,29.58377],[-98.69266,29.58178],[-98.6878,29.58478],[-98.68805,29.586],[-98.68668,29.58609],[-98.68652,29.58501],[-98.68569,29.58439],[-98.68412,29.58224],[-98.68272,29.58237],[-98.68116,29.58324],[-98.68083,29.58394],[-98.67916,29.58504],[-98.67666,29.5872],[-98.67647,29.58672],[-98.67546,29.58645],[-98.67388,29.58641]]]}},{"type":"Feature","properties":{"PRECINCT":"bexar:3115","COUNTY":"Bexar"},"geometry":{"type":"Polygon","coordinates":[[[-98.54129,29.55125],[-98.54885,29.54414],[-98.55133,29.54674],[-98.55561,29.54866],[-98.55998,29.55244],[-98.56706,29.55566],[-98.5581,29.56439],[-98.54129,29.55125]]]}},{"type":"Feature","properties":{"PRECINCT":"bexar:3126","COUNTY":"Bexar"},"geometry":{"type":"Polygon","coordinates":[[[-98.78404,29.69628],[-98.75804,29.67503],[-98.74854,29.68355],[-98.74461,29.68366],[-98.74473,29.67103],[-98.71616,29.67096],[-98.71626,29.65728],[-98.69226,29.65557],[-98.69309,29.64838],[-98.68435,29.64836],[-98.68438,29.65186],[-98.67895,29.65231],[-98.67916,29.65027],[-98.67877,29.64879],[-98.6787,29.64128],[-98.67816,29.63777],[-98.67863,29.63515],[-98.68071,29.63266],[-98.68249,29.63004],[-98.68254,29.62825],[-98.68292,29.62708],[-98.68295,29.62724],[-98.68355,29.6273],[-98.6833,29.62828],[-98.68394,29.62833],[-98.68375,29.62934],[-98.68413,29.62938],[-98.68432,29.62905],[-98.6846,29.62802],[-98.68435,29.62695],[-98.68341,29.62651],[-98.68432,29.62686],[-98.68447,29.62553],[-98.68514,29.62404],[-98.68494,29.62313],[-98.68462,29.62307],[-98.68518,29.62147],[-98.6874,29.62169],[-98.68851,29.61219],[-98.69157,29.61244],[-98.69177,29.60991],[-98.6846,29.6093],[-98.68459,29.60822],[-98.68665,29.60542],[-98.68663,29.60456],[-98.68583,29.60239],[-98.68592,29.60156],[-98.68917,29.59565],[-98.68893,29.59416],[-98.68909,29.59112],[-98.69094,29.59132],[-98.69236,29.5918],[-98.69391,29.59266],[-98.69507,29.59269],[-98.69597,29.59207],[-98.69644,29.59095],[-98.69819,29.58956],[-98.7021,29.59341],[-98.70388,29.5956],[-98.70617,29.59757],[-98.70668,29.59842],[-98.70805,29.60255],[-98.71056,29.60604],[-98.7118,29.60707],[-98.7146,29.60853],[-98.71681,29.61021],[-98.72155,29.61307],[-98.72318,29.61512],[-98.7252,29.6184],[-98.72653,29.61939],[-98.72797,29.61955],[-98.73276,29.61846],[-98.7378,29.61832],[-98.73983,29.61868],[-98.74312,29.61993],[-98.74447,29.6199],[-98.74586,29.61927],[-98.75017,29.61521],[-98.75157,29.61459],[-98.75259,29.6145],[-98.7536,29.61465],[-98.75598,29.61558],[-98.76003,29.61674],[-98.7616,29.61775],[-98.7639,29.62019],[-98.76598,29.621],[-98.77191,29.62104],[-98.77943,29.61869],[-98.78284,29.6187],[-98.78658,29.61829],[-98.79333,29.6194],[-98.79446,29.62007],[-98.79661,29.62239],[-98.79818,29.62525],[-98.79971,29.62737],[-98.80231,29.6297],[-98.80438,29.632],[-98.80594,29.63327],[-98.80655,29.69071],[-98.79988,29.69797],[-98.78703,29.69793],[-98.78404,29.69628]]]}},{"type":"Feature","properties":{"PRECINCT":"bexar:3128","COUNTY":"Bexar"},"geometry":{"type":"Polygon","coordinates":[[[-98.6833,29.62828],[-98.68355,29.6273],[-98.68295,29.62724],[-98.68292,29.62708],[-98.68409,29.62528],[-98.68521,29.62001],[-98.6846,29.6093],[-98.69177,29.60991],[-98.69157,29.61244],[-98.68851,29.61219],[-98.6874,29.62169],[-98.68518,29.62147],[-98.68494,29.62184],[-98.68462,29.62307],[-98.68494,29.62313],[-98.68514,29.62404],[-98.68447,29.62553],[-98.68432,29.62686],[-98.68346,29.6264],[-98.68341,29.62651],[-98.68435,29.62695],[-98.68456,29.62778],[-98.68413,29.62938],[-98.68375,29.62934],[-98.68394,29.62833],[-98.6833,29.62828]]]}},{"type":"Feature","properties":{"PRECINCT":"bexar:3130","COUNTY":"Bexar"},"geometry":{"type":"Polygon","coordinates":[[[-98.53288,29.60153],[-98.53292,29.60033],[-98.53338,29.59919],[-98.53222,29.5991],[-98.53126,29.59954],[-98.53145,29.5901],[-98.53839,29.58326],[-98.53856,29.58341],[-98.53886,29.58312],[-98.53967,29.5845],[-98.54036,29.58501],[-98.54027,29.58525],[-98.54164,29.58555],[-98.54198,29.58475],[-98.54335,29.58419],[-98.54506,29.58491],[-98.5465,29.58634],[-98.54763,29.58938],[-98.54763,29.58958],[-98.5449,29.59134],[-98.54201,29.59176],[-98.54138,29.59222],[-98.54096,29.59322],[-98.5409,29.59635],[-98.54028,29.60087],[-98.54097,29.60086],[-98.54129,29.60148],[-98.54841,29.60132],[-98.55904,29.60069],[-98.56103,29.60024],[-98.56353,29.59916],[-98.56384,29.59969],[-98.56155,29.60059],[-98.55919,29.60107],[-98.53787,29.60232],[-98.53583,29.60266],[-98.5337,29.60335],[-98.53288,29.60153]]]}},{"type":"Feature","properties":{"PRECINCT":"bexar:3145","COUNTY":"Bexar"},"geometry":{"type":"Polygon","coordinates":[[[-98.55084,29.6293],[-98.55084,29.62696],[-98.53459,29.62694],[-98.53484,29.61813],[-98.54344,29.61823],[-98.5433,29.61504],[-98.54193,29.61204],[-98.5417,29.61085],[-98.54106,29.61006],[-98.54171,29.60874],[-98.54143,29.60768],[-98.54153,29.60211],[-98.55919,29.60107],[-98.56155,29.60059],[-98.56384,29.59969],[-98.57397,29.6166],[-98.57431,29.61788],[-98.57406,29.61935],[-98.57016,29.62486],[-98.5701,29.62336],[-98.56645,29.62531],[-98.56571,29.62531],[-98.56166,29.62875],[-98.56122,29.62937],[-98.55084,29.6293]]]}},{"type":"Feature","properties":{"PRECINCT":"bexar:3148","COUNTY":"Bexar"},"geometry":{"type":"Polygon","coordinates":[[[-98.49101,29.6794],[-98.49104,29.67755],[-98.50791,29.66978],[-98.50366,29.66294],[-98.50469,29.66256],[-98.50471,29.66233],[-98.50643,29.66217],[-98.5093,29.65941],[-98.51669,29.65646],[-98.52131,29.65652],[-98.52004,29.66506],[-98.52044,29.66708],[-98.52177,29.66965],[-98.52236,29.67143],[-98.52232,29.67166],[-98.51819,29.67163],[-98.51819,29.67428],[-98.51855,29.67485],[-98.51803,29.67508],[-98.5188,29.67681],[-98.51809,29.67698],[-98.51839,29.67768],[-98.51759,29.67774],[-98.51563,29.67917],[-98.5149,29.67841],[-98.51412,29.67899],[-98.5139,29.67842],[-98.49706,29.67847],[-98.49705,29.67896],[-98.49673,29.67939],[-98.49101,29.6794]]]}},{"type":"Feature","properties":{"PRECINCT":"bexar:3151","COUNTY":"Bexar"},"geometry":{"type":"Polygon","coordinates":[[[-98.63326,29.67009],[-98.63025,29.66312],[-98.62696,29.65882],[-98.62374,29.65021],[-98.6228,29.64855],[-98.62426,29.64774],[-98.62468,29.64709],[-98.62481,29.63428],[-98.62594,29.6327],[-98.6269,29.63195],[-98.6351,29.62884],[-98.64002,29.62531],[-98.64219,29.62251],[-98.64352,29.6229],[-98.6462,29.62437],[-98.64921,29.62688],[-98.65085,29.62756],[-98.65225,29.62913],[-98.65078,29.63042],[-98.65149,29.63153],[-98.65128,29.6334],[-98.6515,29.63437],[-98.65051,29.63433],[-98.64891,29.63604],[-98.64616,29.63713],[-98.64537,29.63818],[-98.64606,29.63868],[-98.64663,29.6398],[-98.64651,29.64026],[-98.64403,29.64162],[-98.64341,29.64143],[-98.64211,29.64277],[-98.63765,29.64636],[-98.63659,29.64622],[-98.63548,29.64647],[-98.63339,29.64637],[-98.6335,29.65652],[-98.63471,29.6565],[-98.63506,29.65736],[-98.63464,29.65817],[-98.63304,29.6584],[-98.63422,29.66191],[-98.63448,29.66184],[-98.63465,29.66299],[-98.63501,29.66314],[-98.63525,29.66455],[-98.63665,29.66483],[-98.63658,29.66618],[-98.64026,29.66555],[-98.6411,29.66561],[-98.64267,29.66619],[-98.64227,29.66717],[-98.64438,29.66821],[-98.64435,29.67687],[-98.63727,29.67685],[-98.63562,29.67436],[-98.63381,29.67015],[-98.63326,29.67009]]]}},{"type":"Feature","properties":{"PRECINCT":"bexar:3155","COUNTY":"Bexar"},"geometry":{"type":"Polygon","coordinates":[[[-98.50395,29.66233],[-98.50183,29.66098],[-98.49889,29.66043],[-98.4982,29.66009],[-98.4977,29.65952],[-98.50023,29.6585],[-98.49809,29.65367],[-98.50158,29.64876],[-98.50356,29.64844],[-98.50502,29.64637],[-98.50682,29.64168],[-98.50653,29.63961],[-98.50662,29.63847],[-98.50763,29.63689],[-98.50865,29.63618],[-98.51089,29.6354],[-98.51258,29.63445],[-98.51398,29.63426],[-98.51471,29.63547],[-98.51409,29.63697],[-98.51603,29.63753],[-98.5156,29.63435],[-98.51734,29.63484],[-98.51743,29.63805],[-98.51973,29.63795],[-98.51978,29.64021],[-98.5184,29.64416],[-98.51821,29.64583],[-98.51872,29.64957],[-98.52076,29.65368],[-98.52131,29.65652],[-98.51669,29.65646],[-98.5093,29.65941],[-98.50643,29.66217],[-98.5047,29.66247],[-98.50395,29.66233]]]}},{"type":"Feature","properties":{"PRECINCT":"bexar:3158","COUNTY":"Bexar"},"geometry":{"type":"Polygon","coordinates":[[[-98.68089,29.59202],[-98.68042,29.59146],[-98.67937,29.59198],[-98.67694,29.58925],[-98.67584,29.58899],[-98.67382,29.58787],[-98.67392,29.58642],[-98.67546,29.58645],[-98.67647,29.58672],[-98.67666,29.5872],[-98.67916,29.58504],[-98.68083,29.58394],[-98.68116,29.58324],[-98.68272,29.58237],[-98.68412,29.58224],[-98.68569,29.58439],[-98.68652,29.58501],[-98.68668,29.58609],[-98.68805,29.586],[-98.68837,29.58815],[-98.68911,29.58977],[-98.68909,29.59105],[-98.68568,29.59103],[-98.68453,29.5903],[-98.68505,29.58881],[-98.68689,29.58754],[-98.68644,29.58597],[-98.68645,29.58503],[-98.68591,29.58597],[-98.6859,29.58647],[-98.68247,29.58852],[-98.68118,29.5908],[-98.68163,29.59164],[-98.68089,29.59202]]]}},{"type":"Feature","properties":{"PRECINCT":"bexar:3160","COUNTY":"Bexar"},"geometry":{"type":"Polygon","coordinates":[[[-98.67654,29.57081],[-98.6761,29.56851],[-98.67475,29.56934],[-98.67339,29.5697],[-98.66301,29.5698],[-98.66311,29.56255],[-98.66706,29.56265],[-98.66974,29.55899],[-98.67041,29.55943],[-98.67006,29.55984],[-98.67042,29.56007],[-98.6724,29.55771],[-98.68032,29.56103],[-98.67986,29.5619],[-98.68276,29.56284],[-98.68166,29.56585],[-98.68062,29.56538],[-98.6782,29.56951],[-98.67654,29.57081]]]}},{"type":"Feature","properties":{"PRECINCT":"bexar:3163","COUNTY":"Bexar"},"geometry":{"type":"Polygon","coordinates":[[[-98.49294,29.64556],[-98.49406,29.64504],[-98.49541,29.64518],[-98.49676,29.64455],[-98.49794,29.64273],[-98.49986,29.64171],[-98.5008,29.6406],[-98.50095,29.63904],[-98.49942,29.63483],[-98.49921,29.63275],[-98.50264,29.63349],[-98.50356,29.63463],[-98.50484,29.63552],[-98.50538,29.63751],[-98.50682,29.63794],[-98.50652,29.63916],[-98.50685,29.64093],[-98.50675,29.64199],[-98.50513,29.64615],[-98.50356,29.64844],[-98.50158,29.64876],[-98.49646,29.65596],[-98.49596,29.65591],[-98.49501,29.653],[-98.49482,29.64749],[-98.49448,29.64687],[-98.49294,29.64556]]]}},{"type":"Feature","properties":{"PRECINCT":"bexar:3168","COUNTY":"Bexar"},"geometry":{"type":"Polygon","coordinates":[[[-98.64545,29.62103],[-98.6412,29.61746],[-98.64159,29.61749],[-98.64162,29.60891],[-98.64281,29.60891],[-98.64345,29.61008],[-98.64308,29.61038],[-98.64372,29.61181],[-98.64474,29.61248],[-98.64461,29.6129],[-98.64558,29.61306],[-98.6456,29.61414],[-98.64858,29.61642],[-98.65056,29.61727],[-98.64932,29.61863],[-98.64737,29.6201],[-98.6453,29.62113],[-98.64545,29.62103]]]}},{"type":"Feature","properties":{"PRECINCT":"bexar:3169","COUNTY":"Bexar"},"geometry":{"type":"Polygon","coordinates":[[[-98.68283,29.60866],[-98.68362,29.60698],[-98.68276,29.60716],[-98.68299,29.60794],[-98.6812,29.60835],[-98.68176,29.60891],[-98.6816,29.60914],[-98.67568,29.60892],[-98.67567,29.60819],[-98.67417,29.60817],[-98.67333,29.60896],[-98.67242,29.60897],[-98.67251,29.60811],[-98.67405,29.60474],[-98.67568,29.60346],[-98.67567,29.6031],[-98.67789,29.60126],[-98.68052,29.60149],[-98.6806,29.59689],[-98.67901,29.59556],[-98.6698,29.58905],[-98.66989,29.5861],[-98.67213,29.58461],[-98.67392,29.58642],[-98.67382,29.58787],[-98.67584,29.58899],[-98.67694,29.58925],[-98.67937,29.59198],[-98.68042,29.59146],[-98.68089,29.59202],[-98.68163,29.59164],[-98.68118,29.5908],[-98.68247,29.58852],[-98.6859,29.58647],[-98.68591,29.58597],[-98.68645,29.58503],[-98.68644,29.58597],[-98.68689,29.58754],[-98.68505,29.58881],[-98.68453,29.5903],[-98.68568,29.59103],[-98.68909,29.59105],[-98.68893,29.59416],[-98.68917,29.59565],[-98.68592,29.60156],[-98.68583,29.60239],[-98.68663,29.60456],[-98.68665,29.60542],[-98.68459,29.60822],[-98.6846,29.6093],[-98.68367,29.6092],[-98.68379,29.60889],[-98.68283,29.60866]]]}},{"type":"Feature","properties":{"PRECINCT":"bexar:3173","COUNTY":"Bexar"},"geometry":{"type":"Polygon","coordinates":[[[-98.50682,29.63794],[-98.50538,29.63751],[-98.50484,29.63552],[-98.50356,29.63463],[-98.50254,29.63343],[-98.49921,29.63275],[-98.49566,29.63263],[-98.49511,29.6267],[-98.50142,29.62615],[-98.51056,29.62332],[-98.51232,29.62218],[-98.51316,29.62125],[-98.51695,29.62346],[-98.51775,29.62415],[-98.5185,29.62528],[-98.51882,29.62689],[-98.51923,29.63378],[-98.51973,29.63795],[-98.51743,29.63805],[-98.51734,29.63484],[-98.51498,29.63425],[-98.51258,29.63445],[-98.51089,29.6354],[-98.50886,29.63608],[-98.50763,29.63689],[-98.50682,29.63794]]]}},{"type":"Feature","properties":{"PRECINCT":"bexar:3174","COUNTY":"Bexar"},"geometry":{"type":"Polygon","coordinates":[[[-98.65688,29.70703],[-98.63599,29.67627],[-98.6362,29.67616],[-98.63451,29.6733],[-98.63326,29.67009],[-98.63381,29.67015],[-98.63562,29.67436],[-98.63727,29.67685],[-98.64435,29.67687],[-98.64438,29.66821],[-98.64227,29.66717],[-98.64267,29.66619],[-98.64493,29.66703],[-98.647,29.66745],[-98.64864,29.66823],[-98.65929,29.67731],[-98.66042,29.67758],[-98.66444,29.67745],[-98.66571,29.67766],[-98.67095,29.68066],[-98.67271,29.6811],[-98.67441,29.68096],[-98.67539,29.68352],[-98.67648,29.6892],[-98.67937,29.69235],[-98.68018,29.69368],[-98.68092,29.69564],[-98.68199,29.69671],[-98.68209,29.7006],[-98.65708,29.7],[-98.65716,29.70703],[-98.65688,29.70703]]]}},{"type":"Feature","properties":{"PRECINCT":"bexar:3176","COUNTY":"Bexar"},"geometry":{"type":"Polygon","coordinates":[[[-98.56875,29.59681],[-98.56703,29.5919],[-98.57007,29.59195],[-98.57007,29.59623],[-98.56875,29.59681]]]}},{"type":"Feature","properties":{"PRECINCT":"bexar:3184","COUNTY":"Bexar"},"geometry":{"type":"Polygon","coordinates":[[[-98.6315,29.67979],[-98.63145,29.67684],[-98.6253,29.67686],[-98.62659,29.67533],[-98.62884,29.67342],[-98.62917,29.67198],[-98.63106,29.66998],[-98.63331,29.67022],[-98.6349,29.67408],[-98.6362,29.67616],[-98.63223,29.67867],[-98.63169,29.67918],[-98.6315,29.67979]]]}},{"type":"Feature","properties":{"PRECINCT":"bexar:3185","COUNTY":"Bexar"},"geometry":{"type":"Polygon","coordinates":[[[-98.64769,29.60808],[-98.64795,29.61043],[-98.64919,29.61228],[-98.64917,29.6142],[-98.65044,29.61584],[-98.65067,29.61674],[-98.6487,29.61542],[-98.64778,29.61453],[-98.64626,29.61382],[-98.64629,29.61292],[-98.6466,29.61264],[-98.64644,29.61228],[-98.64474,29.61125],[-98.64406,29.60913],[-98.64651,29.60873],[-98.64769,29.60808]]]}},{"type":"Feature","properties":{"PRECINCT":"bexar:3186","COUNTY":"Bexar"},"geometry":{"type":"Polygon","coordinates":[[[-98.64949,29.61213],[-98.64823,29.61003],[-98.65229,29.60882],[-98.65239,29.61125],[-98.652,29.61196],[-98.65162,29.61423],[-98.65228,29.61522],[-98.65236,29.61585],[-98.65078,29.61578],[-98.6498,29.61471],[-98.64942,29.61383],[-98.64949,29.61213]]]}},{"type":"Feature","properties":{"PRECINCT":"bexar:3187","COUNTY":"Bexar"},"geometry":{"type":"Polygon","coordinates":[[[-98.64809,29.60797],[-98.65245,29.60717],[-98.65236,29.60755],[-98.65144,29.60783],[-98.65054,29.60847],[-98.65089,29.609],[-98.64902,29.60972],[-98.64819,29.6098],[-98.64809,29.60797]]]}},{"type":"Feature","properties":{"PRECINCT":"bexar:3188","COUNTY":"Bexar"},"geometry":{"type":"Polygon","coordinates":[[[-98.64995,29.61806],[-98.65058,29.61723],[-98.65064,29.61634],[-98.64926,29.61444],[-98.64913,29.61208],[-98.64791,29.61032],[-98.6477,29.6072],[-98.64821,29.60583],[-98.64849,29.60583],[-98.65044,29.60313],[-98.65035,29.6003],[-98.65122,29.59726],[-98.65221,29.59514],[-98.65244,29.59242],[-98.65269,29.59231],[-98.65253,29.59502],[-98.65136,29.59783],[-98.6517,29.59787],[-98.65207,29.59742],[-98.65307,29.59557],[-98.65487,29.5962],[-98.65429,29.5971],[-98.65583,29.59878],[-98.65219,29.60189],[-98.65079,29.6028],[-98.65032,29.60396],[-98.64802,29.60703],[-98.64828,29.61042],[-98.64949,29.61213],[-98.64956,29.6143],[-98.65073,29.61569],[-98.65099,29.61639],[-98.65066,29.61764],[-98.65019,29.61815],[-98.64995,29.61806]]]}},{"type":"Feature","properties":{"PRECINCT":"bexar:3189","COUNTY":"Bexar"},"geometry":{"type":"Polygon","coordinates":[[[-98.64796,29.60743],[-98.64865,29.60605],[-98.64888,29.60607],[-98.64888,29.60576],[-98.65032,29.60396],[-98.65079,29.6028],[-98.65219,29.60189],[-98.65583,29.59878],[-98.65429,29.5971],[-98.65487,29.5962],[-98.65307,29.59557],[-98.65207,29.59742],[-98.6517,29.59787],[-98.65136,29.59783],[-98.65253,29.59502],[-98.65269,29.59231],[-98.6582,29.59002],[-98.65954,29.59142],[-98.66077,29.59211],[-98.66459,29.59266],[-98.66376,29.59344],[-98.66335,29.59327],[-98.66061,29.59433],[-98.66061,29.59498],[-98.65437,29.60054],[-98.65508,29.60137],[-98.65794,29.60244],[-98.65654,29.604],[-98.65565,29.60431],[-98.65498,29.60485],[-98.65395,29.60625],[-98.65317,29.60596],[-98.64796,29.60743]]]}},{"type":"Feature","properties":{"PRECINCT":"bexar:3190","COUNTY":"Bexar"},"geometry":{"type":"Polygon","coordinates":[[[-98.64112,29.62211],[-98.6389,29.61989],[-98.63746,29.61889],[-98.63693,29.61732],[-98.63546,29.6158],[-98.63492,29.61434],[-98.63431,29.61346],[-98.63341,29.613],[-98.63074,29.61246],[-98.62974,29.61189],[-98.62896,29.61097],[-98.62771,29.6076],[-98.62766,29.60589],[-98.62832,29.60295],[-98.62916,29.60153],[-98.63447,29.60139],[-98.63444,29.60377],[-98.63963,29.60379],[-98.64055,29.60294],[-98.64161,29.60261],[-98.64589,29.60307],[-98.6467,29.60231],[-98.64704,29.60158],[-98.64595,29.59971],[-98.64545,29.59705],[-98.64931,29.59374],[-98.65244,29.59242],[-98.65226,29.59495],[-98.65122,29.59726],[-98.65035,29.6003],[-98.65055,29.60242],[-98.65027,29.60352],[-98.64849,29.60583],[-98.64821,29.60583],[-98.64827,29.6061],[-98.64772,29.60709],[-98.64779,29.60803],[-98.64651,29.60873],[-98.64406,29.60913],[-98.64474,29.61125],[-98.64644,29.61228],[-98.6466,29.61264],[-98.64629,29.61292],[-98.64626,29.61382],[-98.64778,29.61453],[-98.6487,29.61542],[-98.65067,29.61674],[-98.65058,29.61723],[-98.64858,29.61642],[-98.6456,29.61414],[-98.64558,29.61306],[-98.64461,29.6129],[-98.64474,29.61248],[-98.64372,29.61181],[-98.64308,29.61038],[-98.64345,29.61008],[-98.64281,29.60891],[-98.64162,29.60891],[-98.64159,29.61749],[-98.6412,29.61746],[-98.64545,29.62103],[-98.64379,29.62303],[-98.64112,29.62211]]]}},{"type":"Feature","properties":{"PRECINCT":"bexar:3191","COUNTY":"Bexar"},"geometry":{"type":"Polygon","coordinates":[[[-98.65449,29.61864],[-98.65102,29.61841],[-98.65042,29.61793],[-98.65076,29.61745],[-98.65182,29.61749],[-98.65276,29.61658],[-98.65439,29.61576],[-98.65415,29.6155],[-98.65362,29.61562],[-98.65293,29.61438],[-98.65262,29.61309],[-98.65288,29.61194],[-98.6533,29.6117],[-98.65343,29.61111],[-98.65498,29.6112],[-98.65527,29.61063],[-98.65478,29.61031],[-98.65457,29.60969],[-98.65434,29.60784],[-98.6553,29.60692],[-98.65657,29.60741],[-98.65775,29.60609],[-98.65996,29.60666],[-98.66045,29.60738],[-98.65982,29.61154],[-98.65847,29.6125],[-98.65852,29.61325],[-98.65927,29.61379],[-98.65851,29.61452],[-98.65606,29.61559],[-98.65829,29.61484],[-98.65581,29.6172],[-98.65484,29.61731],[-98.65449,29.61864]]]}},{"type":"Feature","properties":{"PRECINCT":"bexar:3192","COUNTY":"Bexar"},"geometry":{"type":"Polygon","coordinates":[[[-98.51398,29.63426],[-98.5156,29.63435],[-98.51603,29.63753],[-98.51409,29.63697],[-98.51471,29.63547],[-98.51398,29.63426]]]}},{"type":"Feature","properties":{"PRECINCT":"bexar:3193","COUNTY":"Bexar"},"geometry":{"type":"Polygon","coordinates":[[[-98.53391,29.5852],[-98.53799,29.58238],[-98.53855,29.58311],[-98.52796,29.59339],[-98.52951,29.58828],[-98.53004,29.58738],[-98.53096,29.58661],[-98.53391,29.5852]]]}},{"type":"Feature","properties":{"PRECINCT":"bexar:3194","COUNTY":"Bexar"},"geometry":{"type":"Polygon","coordinates":[[[-98.66523,29.74199],[-98.6656,29.73175],[-98.66504,29.73153],[-98.66499,29.73218],[-98.66356,29.73218],[-98.66355,29.73102],[-98.67264,29.73109],[-98.67269,29.73076],[-98.66548,29.71975],[-98.6637,29.71805],[-98.66277,29.71674],[-98.66215,29.71755],[-98.66222,29.71691],[-98.66276,29.7167],[-98.66262,29.71646],[-98.66202,29.71665],[-98.66189,29.71633],[-98.66236,29.71609],[-98.66227,29.71597],[-98.66139,29.71614],[-98.66042,29.71569],[-98.65816,29.71744],[-98.65377,29.71891],[-98.65333,29.71791],[-98.65367,29.71644],[-98.65332,29.71423],[-98.65351,29.71371],[-98.65137,29.71384],[-98.65137,29.71416],[-98.64922,29.71397],[-98.6269,29.71396],[-98.62784,29.7121],[-98.62837,29.7089],[-98.63002,29.70619],[-98.6315,29.69963],[-98.63151,29.69228],[-98.6436,29.69215],[-98.64623,29.69565],[-98.64682,29.69601],[-98.64819,29.69836],[-98.64974,29.70266],[-98.64975,29.70358],[-98.64915,29.7061],[-98.64953,29.70707],[-98.65688,29.70703],[-98.66502,29.71878],[-98.68731,29.73881],[-98.68577,29.73929],[-98.68352,29.73944],[-98.68264,29.73922],[-98.68141,29.73831],[-98.68046,29.73799],[-98.67657,29.73727],[-98.67591,29.73735],[-98.6745,29.7388],[-98.67423,29.7398],[-98.67447,29.74054],[-98.67433,29.74125],[-98.67393,29.74201],[-98.67334,29.74242],[-98.67087,29.74327],[-98.66922,29.74355],[-98.66748,29.74324],[-98.66523,29.74199]]]}},{"type":"Feature","properties":{"PRECINCT":"bexar:3196","COUNTY":"Bexar"},"geometry":{"type":"Polygon","coordinates":[[[-98.54129,29.60148],[-98.54097,29.60086],[-98.54028,29.60087],[-98.5406,29.59799],[-98.54279,29.59775],[-98.54424,29.59858],[-98.54432,29.59962],[-98.54538,29.59999],[-98.54567,29.60134],[-98.54129,29.60148]]]}},{"type":"Feature","properties":{"PRECINCT":"bexar:3198","COUNTY":"Bexar"},"geometry":{"type":"Polygon","coordinates":[[[-98.64521,29.58225],[-98.64693,29.58046],[-98.64853,29.58523],[-98.65196,29.59038],[-98.65255,29.59237],[-98.64931,29.59374],[-98.64599,29.59659],[-98.64502,29.59659],[-98.64521,29.58225]]]}},{"type":"Feature","properties":{"PRECINCT":"bexar:3199","COUNTY":"Bexar"},"geometry":{"type":"Polygon","coordinates":[[[-98.4692,29.6795],[-98.47106,29.67612],[-98.46968,29.67419],[-98.46859,29.67063],[-98.46918,29.668],[-98.47009,29.66765],[-98.47137,29.66641],[-98.47393,29.66541],[-98.475,29.66542],[-98.4766,29.66611],[-98.47809,29.66633],[-98.4783,29.66355],[-98.47946,29.65997],[-98.48241,29.66133],[-98.4827,29.66096],[-98.48541,29.66206],[-98.49132,29.66205],[-98.49101,29.6794],[-98.4692,29.6795]]]}},{"type":"Feature","properties":{"PRECINCT":"bexar:3202","COUNTY":"Bexar"},"geometry":{"type":"Polygon","coordinates":[[[-98.64623,29.69565],[-98.6436,29.69215],[-98.63151,29.69228],[-98.63155,29.67955],[-98.63223,29.67867],[-98.63599,29.67627],[-98.65688,29.70703],[-98.64953,29.70707],[-98.64915,29.7061],[-98.64975,29.70358],[-98.64944,29.70159],[-98.64769,29.69732],[-98.64682,29.69601],[-98.64623,29.69565]]]}},{"type":"Feature","properties":{"PRECINCT":"bexar:3203","COUNTY":"Bexar"},"geometry":{"type":"Polygon","coordinates":[[[-98.68004,29.69341],[-98.6764,29.68903],[-98.67539,29.68352],[-98.67441,29.68096],[-98.67985,29.68088],[-98.68085,29.6801],[-98.68187,29.67742],[-98.68253,29.67664],[-98.68367,29.67623],[-98.68636,29.67631],[-98.6905,29.67792],[-98.70046,29.68489],[-98.70224,29.68578],[-98.70342,29.68731],[-98.70366,29.68926],[-98.70401,29.68998],[-98.70648,29.69171],[-98.7084,29.6939],[-98.709,29.69538],[-98.69481,29.69555],[-98.69468,29.69228],[-98.68819,29.69199],[-98.68824,29.6903],[-98.68185,29.69023],[-98.68199,29.69671],[-98.68109,29.69592],[-98.68004,29.69341]]]}},{"type":"Feature","properties":{"PRECINCT":"bexar:3209","COUNTY":"Bexar"},"geometry":{"type":"Polygon","coordinates":[[[-98.70788,29.59458],[-98.706,29.59392],[-98.70403,29.59435],[-98.70323,29.59481],[-98.7021,29.59341],[-98.69819,29.58956],[-98.69644,29.59095],[-98.69597,29.59207],[-98.69507,29.59269],[-98.69391,29.59266],[-98.69236,29.5918],[-98.69094,29.59132],[-98.68909,29.59112],[-98.68911,29.58977],[-98.68837,29.58815],[-98.6878,29.58478],[-98.69266,29.58178],[-98.69419,29.58377],[-98.69452,29.5836],[-98.69443,29.58327],[-98.69722,29.58225],[-98.70155,29.58454],[-98.70304,29.5856],[-98.7035,29.57968],[-98.70334,29.57938],[-98.70958,29.57959],[-98.71071,29.58218],[-98.71001,29.58385],[-98.71037,29.58434],[-98.70991,29.58563],[-98.70954,29.58589],[-98.71091,29.5874],[-98.7165,29.58788],[-98.71884,29.59165],[-98.71844,29.59287],[-98.71798,29.59337],[-98.71623,29.59295],[-98.71619,29.59233],[-98.71555,29.59323],[-98.71475,29.59239],[-98.71276,29.59278],[-98.7133,29.59545],[-98.71195,29.59543],[-98.71047,29.59473],[-98.70788,29.59458]]]}},{"type":"Feature","properties":{"PRECINCT":"bexar:3210","COUNTY":"Bexar"},"geometry":{"type":"Polygon","coordinates":[[[-98.6255,29.61172],[-98.6287,29.61053],[-98.62954,29.61172],[-98.63048,29.61234],[-98.63412,29.61331],[-98.6348,29.6141],[-98.63546,29.6158],[-98.63693,29.61732],[-98.63746,29.61889],[-98.63922,29.62018],[-98.64052,29.62176],[-98.64219,29.62251],[-98.64002,29.62531],[-98.6351,29.62884],[-98.6269,29.63195],[-98.62608,29.63256],[-98.625,29.63392],[-98.62481,29.63437],[-98.62468,29.64709],[-98.62426,29.64774],[-98.6228,29.64855],[-98.61372,29.63492],[-98.60836,29.6205],[-98.61135,29.61982],[-98.61137,29.61881],[-98.61192,29.61797],[-98.61455,29.61692],[-98.61636,29.61496],[-98.62283,29.614],[-98.6255,29.61172]]]}}]}