{"type":"FeatureCollection","features":[{"type":"Feature","properties":{"PRECINCT":"101","VTD":"0101"},"geometry":{"type":"Polygon","coordinates":[[[-98.134566,29.710473],[-98.134154,29.711038],[-98.134339,29.711319],[-98.132816,29.711838],[-98.132087,29.71162],[-98.132491,29.710855],[-98.132132,29.710239],[-98.131029,29.709947],[-98.129863,29.710238],[-98.129034,29.710025],[-98.12882,29.704865],[-98.131477,29.705313],[-98.134371,29.705322],[-98.135125,29.70514],[-98.135148,29.704146],[-98.134386,29.703644],[-98.152418,29.696755],[-98.156014,29.694586],[-98.16188,29.703689],[-98.162511,29.705077],[-98.162629,29.706799],[-98.161996,29.708597],[-98.160988,29.709805],[-98.159056,29.711119],[-98.158036,29.71212],[-98.155144,29.716726],[-98.154278,29.717497],[-98.144091,29.724002],[-98.13664,29.715912],[-98.137443,29.713251],[-98.137316,29.712184],[-98.136073,29.710975],[-98.134566,29.710473]]]}},{"type":"Feature","properties":{"PRECINCT":"203","VTD":"0203"},"geometry":{"type":"Polygon","coordinates":[[[-98.178044,29.721299],[-98.174429,29.721334],[-98.172298,29.721133],[-98.164098,29.719334],[-98.161805,29.718152],[-98.158459,29.715071],[-98.156868,29.714085],[-98.158538,29.711576],[-98.160712,29.710029],[-98.161732,29.708994],[-98.162516,29.707357],[-98.162649,29.705824],[-98.162025,29.703925],[-98.156077,29.694703],[-98.158771,29.692979],[-98.159174,29.692329],[-98.161554,29.690848],[-98.182372,29.679412],[-98.193175,29.672115],[-98.203322,29.667293],[-98.223902,29.655721],[-98.22768,29.661805],[-98.229629,29.660751],[-98.236317,29.671241],[-98.235216,29.671734],[-98.245554,29.687019],[-98.252866,29.683291],[-98.253462,29.684402],[-98.260667,29.683375],[-98.264314,29.681053],[-98.269621,29.678709],[-98.273108,29.682654],[-98.274564,29.68396],[-98.275779,29.68547],[-98.277033,29.687725],[-98.277555,29.686918],[-98.279254,29.689276],[-98.280048,29.688932],[-98.283931,29.689972],[-98.289717,29.696896],[-98.28943,29.698013],[-98.289686,29.69866],[-98.290624,29.699493],[-98.288824,29.700689],[-98.291862,29.704248],[-98.291513,29.705297],[-98.293608,29.711872],[-98.293613,29.713273],[-98.288118,29.713304],[-98.278972,29.711905],[-98.269312,29.709576],[-98.258075,29.710256],[-98.252203,29.709753],[-98.245599,29.709698],[-98.244582,29.709931],[-98.240913,29.711516],[-98.239707,29.7117],[-98.232345,29.711365],[-98.226641,29.709697],[-98.22502,29.709722],[-98.220888,29.711449],[-98.217889,29.713099],[-98.211842,29.71482],[-98.211659,29.715208],[-98.203462,29.72094],[-98.204658,29.722468],[-98.197873,29.728001],[-98.19862,29.728895],[-98.194269,29.731958],[-98.182006,29.722547],[-98.180233,29.721702],[-98.178044,29.721299]]]}},{"type":"Feature","properties":{"PRECINCT":"401","VTD":"0401"},"geometry":{"type":"Polygon","coordinates":[[[-98.106402,29.729438],[-98.108021,29.728592],[-98.109507,29.728933],[-98.110639,29.728223],[-98.111472,29.728043],[-98.111875,29.727642],[-98.112494,29.725756],[-98.11316,29.722327],[-98.113493,29.721556],[-98.114827,29.720414],[-98.115204,29.719823],[-98.114788,29.718612],[-98.116806,29.718811],[-98.117367,29.717786],[-98.119843,29.715573],[-98.123955,29.719102],[-98.126864,29.716475],[-98.127902,29.715256],[-98.129028,29.712183],[-98.129034,29.710025],[-98.129863,29.710238],[-98.131029,29.709947],[-98.132132,29.710239],[-98.132491,29.710855],[-98.132062,29.711554],[-98.132572,29.711818],[-98.134339,29.711319],[-98.134154,29.711038],[-98.134505,29.710471],[-98.1358,29.710836],[-98.136841,29.711575],[-98.137346,29.712263],[-98.137443,29.713251],[-98.13664,29.715912],[-98.144091,29.724002],[-98.140464,29.72589],[-98.135142,29.727584],[-98.121082,29.729769],[-98.119214,29.729707],[-98.117415,29.729088],[-98.115945,29.73175],[-98.11399,29.738654],[-98.113324,29.740056],[-98.112247,29.741237],[-98.111125,29.741945],[-98.107432,29.74304],[-98.107546,29.742622],[-98.107878,29.742421],[-98.107963,29.741856],[-98.107579,29.738853],[-98.106713,29.738539],[-98.105719,29.737759],[-98.104442,29.734076],[-98.104256,29.732904],[-98.104443,29.732287],[-98.106402,29.729438]]]}},{"type":"Feature","properties":{"PRECINCT":"303","VTD":"0303"},"geometry":{"type":"Polygon","coordinates":[[[-98.123955,29.719102],[-98.119843,29.715573],[-98.117367,29.717786],[-98.116806,29.718811],[-98.114788,29.718612],[-98.114361,29.717648],[-98.113072,29.717221],[-98.10643,29.713657],[-98.105325,29.712628],[-98.105359,29.711057],[-98.105756,29.709935],[-98.106491,29.709035],[-98.108449,29.707791],[-98.110161,29.70738],[-98.110645,29.707492],[-98.111503,29.707155],[-98.113324,29.704591],[-98.113779,29.704297],[-98.114273,29.704524],[-98.115097,29.704197],[-98.117108,29.702689],[-98.117209,29.702168],[-98.116038,29.701342],[-98.1162,29.700836],[-98.116849,29.700501],[-98.118101,29.701007],[-98.119685,29.70291],[-98.119452,29.703469],[-98.118305,29.704612],[-98.118282,29.705142],[-98.118692,29.705842],[-98.121575,29.706091],[-98.122918,29.707574],[-98.12365,29.707953],[-98.126296,29.707759],[-98.12897,29.70817],[-98.129028,29.712183],[-98.128594,29.713812],[-98.127442,29.71588],[-98.123955,29.719102]]]}},{"type":"Feature","properties":{"PRECINCT":"302","VTD":"0302"},"geometry":{"type":"Polygon","coordinates":[[[-98.126667,29.707787],[-98.12365,29.707953],[-98.122918,29.707574],[-98.121575,29.706091],[-98.118692,29.705842],[-98.118282,29.705142],[-98.118305,29.704612],[-98.119452,29.703469],[-98.119685,29.70291],[-98.118623,29.70146],[-98.117159,29.700498],[-98.116429,29.700633],[-98.11603,29.701236],[-98.117209,29.702168],[-98.117108,29.702689],[-98.115097,29.704197],[-98.114273,29.704524],[-98.113779,29.704297],[-98.11412,29.703359],[-98.113948,29.702017],[-98.112815,29.700285],[-98.11093,29.699359],[-98.108087,29.699113],[-98.10704,29.697944],[-98.106669,29.696163],[-98.107005,29.695242],[-98.107966,29.693966],[-98.107909,29.692037],[-98.107499,29.691218],[-98.105449,29.690174],[-98.103981,29.689921],[-98.102134,29.69053],[-98.099802,29.691998],[-98.098313,29.693673],[-98.097672,29.694047],[-98.096258,29.694586],[-98.095391,29.694337],[-98.094708,29.693377],[-98.092975,29.689351],[-98.090869,29.686967],[-98.090431,29.685111],[-98.090685,29.683325],[-98.119391,29.670699],[-98.121637,29.674717],[-98.121735,29.677283],[-98.123995,29.681648],[-98.122448,29.682169],[-98.122825,29.682826],[-98.124359,29.682343],[-98.125843,29.685176],[-98.126294,29.687105],[-98.12753,29.689322],[-98.135679,29.695623],[-98.136221,29.697388],[-98.13682,29.698456],[-98.13863,29.700175],[-98.139547,29.701666],[-98.134386,29.703644],[-98.135148,29.704146],[-98.135125,29.70514],[-98.134726,29.705283],[-98.131477,29.705313],[-98.12882,29.704865],[-98.12897,29.70817],[-98.126667,29.707787]]]}},{"type":"Feature","properties":{"PRECINCT":"103","VTD":"0103"},"geometry":{"type":"Polygon","coordinates":[[[-98.170793,29.800312],[-98.169834,29.800278],[-98.167285,29.801043],[-98.164164,29.803192],[-98.160839,29.805997],[-98.158042,29.807244],[-98.156607,29.807314],[-98.153437,29.806853],[-98.149021,29.804989],[-98.14821,29.80446],[-98.147595,29.803705],[-98.14693,29.803382],[-98.146423,29.802773],[-98.145924,29.801481],[-98.14625,29.800275],[-98.148782,29.795964],[-98.150265,29.794682],[-98.151398,29.79313],[-98.151516,29.791632],[-98.151158,29.786594],[-98.151635,29.785686],[-98.15337,29.783778],[-98.156372,29.782541],[-98.158447,29.781336],[-98.159741,29.780352],[-98.160389,29.779466],[-98.160194,29.779341],[-98.160519,29.778061],[-98.160556,29.776465],[-98.158748,29.772225],[-98.158728,29.770358],[-98.158937,29.768679],[-98.15911,29.768678],[-98.159126,29.767325],[-98.158566,29.765031],[-98.157683,29.764217],[-98.15653,29.763793],[-98.1553,29.763633],[-98.15339,29.76404],[-98.150463,29.765365],[-98.147928,29.766107],[-98.145217,29.76621],[-98.143074,29.765687],[-98.141935,29.76504],[-98.141924,29.76542],[-98.140688,29.764453],[-98.139643,29.763119],[-98.139351,29.761234],[-98.138398,29.759076],[-98.138382,29.758465],[-98.138807,29.757473],[-98.138794,29.756114],[-98.139038,29.755765],[-98.138684,29.754986],[-98.137616,29.75443],[-98.132838,29.753086],[-98.131283,29.752934],[-98.12656,29.753169],[-98.125422,29.753003],[-98.124463,29.752512],[-98.123687,29.751723],[-98.123438,29.751043],[-98.12393,29.7484],[-98.123614,29.745856],[-98.123387,29.745196],[-98.122378,29.744116],[-98.120817,29.743692],[-98.118385,29.743754],[-98.115907,29.744377],[-98.113136,29.745699],[-98.110544,29.746029],[-98.109525,29.74575],[-98.1082,29.745023],[-98.107553,29.743923],[-98.107426,29.743143],[-98.111125,29.741945],[-98.112247,29.741237],[-98.113324,29.740056],[-98.11399,29.738654],[-98.115945,29.73175],[-98.117415,29.729088],[-98.119214,29.729707],[-98.121082,29.729769],[-98.135142,29.727584],[-98.140464,29.72589],[-98.143505,29.724393],[-98.154278,29.717497],[-98.155539,29.716278],[-98.156868,29.714085],[-98.158459,29.715071],[-98.161805,29.718152],[-98.164098,29.719334],[-98.172298,29.721133],[-98.178412,29.721328],[-98.17991,29.721605],[-98.181442,29.722213],[-98.199745,29.736142],[-98.205862,29.739504],[-98.220785,29.74482],[-98.224251,29.741987],[-98.22679,29.740234],[-98.228447,29.742294],[-98.226019,29.743893],[-98.226181,29.744101],[-98.223625,29.745842],[-98.231379,29.748537],[-98.233061,29.749365],[-98.246778,29.761435],[-98.243459,29.766033],[-98.243565,29.767751],[-98.245116,29.769446],[-98.245274,29.770134],[-98.243252,29.7719],[-98.241887,29.774262],[-98.239366,29.7755],[-98.235111,29.778138],[-98.232326,29.778918],[-98.232195,29.77956],[-98.231669,29.780294],[-98.22836,29.783185],[-98.226101,29.783737],[-98.223604,29.784037],[-98.222974,29.784564],[-98.221529,29.786858],[-98.220552,29.781965],[-98.220112,29.780927],[-98.218961,29.779538],[-98.214403,29.775877],[-98.212378,29.777034],[-98.206173,29.782619],[-98.205322,29.782957],[-98.204578,29.785893],[-98.204908,29.787086],[-98.197833,29.791727],[-98.197012,29.792518],[-98.191075,29.7967],[-98.173383,29.808666],[-98.173117,29.807897],[-98.17368,29.806023],[-98.17373,29.804704],[-98.173084,29.802279],[-98.172108,29.800971],[-98.170793,29.800312]]]}},{"type":"Feature","properties":{"PRECINCT":"404","VTD":"0404"},"geometry":{"type":"Polygon","coordinates":[[[-98.044743,29.858705],[-98.030523,29.848539],[-98.018682,29.812253],[-98.022027,29.809549],[-98.02355,29.807522],[-98.025286,29.806211],[-98.032914,29.802998],[-98.04341,29.793805],[-98.045091,29.791978],[-98.052127,29.787232],[-98.054603,29.784804],[-98.057248,29.78146],[-98.061544,29.779029],[-98.067407,29.77346],[-98.071787,29.771229],[-98.074918,29.768555],[-98.075753,29.767349],[-98.064617,29.757269],[-98.087733,29.737064],[-98.093048,29.740912],[-98.09678,29.738033],[-98.098114,29.736198],[-98.098374,29.734363],[-98.097889,29.732769],[-98.095703,29.729571],[-98.097542,29.728477],[-98.098401,29.729979],[-98.09717,29.73062],[-98.098685,29.73319],[-98.09898,29.734468],[-98.098841,29.735762],[-98.097612,29.737927],[-98.093362,29.741125],[-98.0989,29.74492],[-98.100199,29.746141],[-98.104064,29.75461],[-98.105088,29.764618],[-98.104724,29.77385],[-98.105623,29.789974],[-98.11669,29.789851],[-98.129425,29.800355],[-98.120437,29.808246],[-98.118234,29.806434],[-98.107269,29.808703],[-98.106919,29.805855],[-98.100394,29.807591],[-98.100714,29.808827],[-98.099808,29.809384],[-98.0992,29.809675],[-98.094653,29.810613],[-98.087882,29.815225],[-98.08545,29.811946],[-98.088126,29.809839],[-98.080168,29.804869],[-98.077629,29.804441],[-98.070618,29.810655],[-98.085296,29.823219],[-98.081738,29.826348],[-98.083218,29.827771],[-98.076141,29.834524],[-98.056218,29.852368],[-98.054934,29.851069],[-98.05028,29.854252],[-98.044743,29.858705]]]}},{"type":"Feature","properties":{"PRECINCT":"405","VTD":"0405"},"geometry":{"type":"Polygon","coordinates":[[[-98.340226,29.954247],[-98.339127,29.95455],[-98.338773,29.954434],[-98.336644,29.95213],[-98.336694,29.950314],[-98.336094,29.949132],[-98.336352,29.946986],[-98.335866,29.945693],[-98.334848,29.944489],[-98.334273,29.943262],[-98.334305,29.941969],[-98.334879,29.941689],[-98.334784,29.941117],[-98.332258,29.939478],[-98.329939,29.937586],[-98.328499,29.935506],[-98.326509,29.933939],[-98.325991,29.933081],[-98.326206,29.932426],[-98.327968,29.930599],[-98.326881,29.929334],[-98.326445,29.928201],[-98.326836,29.927255],[-98.328371,29.926413],[-98.330297,29.926446],[-98.33252,29.925802],[-98.333947,29.924157],[-98.336328,29.923078],[-98.336738,29.922495],[-98.33641,29.921818],[-98.334952,29.921144],[-98.335253,29.919116],[-98.335161,29.916992],[-98.334799,29.916182],[-98.33556,29.914742],[-98.33535,29.913815],[-98.334712,29.912884],[-98.332143,29.910757],[-98.331112,29.908658],[-98.330833,29.906881],[-98.331156,29.904904],[-98.332082,29.904008],[-98.334047,29.90366],[-98.339674,29.904451],[-98.341534,29.904251],[-98.344572,29.903494],[-98.346198,29.902581],[-98.347612,29.901207],[-98.348271,29.900142],[-98.348339,29.899069],[-98.347496,29.896867],[-98.346667,29.896219],[-98.34323,29.895827],[-98.34258,29.895535],[-98.340895,29.895451],[-98.339706,29.894506],[-98.338219,29.891405],[-98.337939,29.889641],[-98.337919,29.888923],[-98.338399,29.888062],[-98.338807,29.88788],[-98.342941,29.886967],[-98.346086,29.887611],[-98.347063,29.888069],[-98.347653,29.888921],[-98.347934,29.89127],[-98.348396,29.891938],[-98.352502,29.893819],[-98.353665,29.89382],[-98.355025,29.893272],[-98.35547,29.891447],[-98.354194,29.889066],[-98.354087,29.887432],[-98.353507,29.886407],[-98.353505,29.885808],[-98.354128,29.88513],[-98.355705,29.884111],[-98.358569,29.884262],[-98.359455,29.884762],[-98.361985,29.887363],[-98.363395,29.888375],[-98.364834,29.888507],[-98.367332,29.8882],[-98.371827,29.886997],[-98.372672,29.886278],[-98.373346,29.886137],[-98.373549,29.885616],[-98.373432,29.884891],[-98.372502,29.884564],[-98.370397,29.884662],[-98.369991,29.883997],[-98.370355,29.882335],[-98.372594,29.880806],[-98.373661,29.879603],[-98.374556,29.878092],[-98.374683,29.877447],[-98.374209,29.876541],[-98.373459,29.875303],[-98.370632,29.872799],[-98.364281,29.869834],[-98.363651,29.869394],[-98.363042,29.868396],[-98.362735,29.866559],[-98.362746,29.865663],[-98.363037,29.865062],[-98.363749,29.864119],[-98.366228,29.862327],[-98.367653,29.861769],[-98.368418,29.861858],[-98.372775,29.865382],[-98.373537,29.867052],[-98.376051,29.86902],[-98.378411,29.869822],[-98.380014,29.869956],[-98.380883,29.869452],[-98.381593,29.868046],[-98.381702,29.86477],[-98.381214,29.86308],[-98.381434,29.862359],[-98.383214,29.860868],[-98.384191,29.860483],[-98.388919,29.85995],[-98.393302,29.85887],[-98.394755,29.858255],[-98.398349,29.856102],[-98.400613,29.854285],[-98.403787,29.853193],[-98.406495,29.853085],[-98.40784,29.85362],[-98.414388,29.861673],[-98.414765,29.862582],[-98.414865,29.864491],[-98.415459,29.865644],[-98.415713,29.867205],[-98.418053,29.870622],[-98.420063,29.871371],[-98.425594,29.870522],[-98.426792,29.869788],[-98.42973,29.868882],[-98.43433,29.868493],[-98.436508,29.870088],[-98.437874,29.873975],[-98.438203,29.87434],[-98.440874,29.874787],[-98.442494,29.874617],[-98.443085,29.874237],[-98.44461,29.874441],[-98.446431,29.873996],[-98.447099,29.874386],[-98.447655,29.875576],[-98.448498,29.87932],[-98.448074,29.881877],[-98.448173,29.882911],[-98.448896,29.883752],[-98.449184,29.884698],[-98.450347,29.886065],[-98.452787,29.887118],[-98.455601,29.886471],[-98.458857,29.887577],[-98.460089,29.88849],[-98.461664,29.88899],[-98.465198,29.888851],[-98.466686,29.888258],[-98.470412,29.885602],[-98.47116,29.88543],[-98.473818,29.885465],[-98.474397,29.885071],[-98.476687,29.881391],[-98.476673,29.880927],[-98.476066,29.879731],[-98.472562,29.876862],[-98.471816,29.875487],[-98.471847,29.874608],[-98.473854,29.873585],[-98.476072,29.87327],[-98.477944,29.872126],[-98.477961,29.871413],[-98.476873,29.8699],[-98.475959,29.868989],[-98.475077,29.868607],[-98.475569,29.866959],[-98.476051,29.866258],[-98.477244,29.865904],[-98.4791,29.866198],[-98.481335,29.867457],[-98.482374,29.870556],[-98.482329,29.871735],[-98.483001,29.872664],[-98.483367,29.874114],[-98.484632,29.875441],[-98.485901,29.876046],[-98.431654,29.922361],[-98.369023,29.976171],[-98.358201,29.972468],[-98.350802,29.970242],[-98.349801,29.969604],[-98.347499,29.965002],[-98.345304,29.961764],[-98.345124,29.960429],[-98.344745,29.959857],[-98.345174,29.957948],[-98.344302,29.957492],[-98.342874,29.955638],[-98.341768,29.955253],[-98.340226,29.954247]]]}},{"type":"Feature","properties":{"PRECINCT":"406","VTD":"0406"},"geometry":{"type":"Polygon","coordinates":[[[-98.129425,29.800355],[-98.11669,29.789851],[-98.105623,29.789974],[-98.104724,29.77385],[-98.105088,29.764618],[-98.104064,29.75461],[-98.100199,29.746141],[-98.0989,29.74492],[-98.093362,29.741125],[-98.097612,29.737927],[-98.098841,29.735762],[-98.09898,29.734468],[-98.098685,29.73319],[-98.09717,29.73062],[-98.098401,29.729979],[-98.097542,29.728477],[-98.095703,29.729571],[-98.097889,29.732769],[-98.098287,29.733792],[-98.098304,29.735732],[-98.097057,29.737762],[-98.093048,29.740912],[-98.088406,29.737623],[-98.09481,29.720025],[-98.097742,29.7185],[-98.097484,29.718176],[-98.100492,29.716366],[-98.099977,29.715724],[-98.101877,29.714624],[-98.103068,29.714384],[-98.102622,29.712588],[-98.101449,29.70983],[-98.104865,29.706902],[-98.106804,29.707272],[-98.107001,29.706348],[-98.110353,29.706966],[-98.110161,29.70738],[-98.108035,29.708016],[-98.106023,29.709532],[-98.105279,29.711519],[-98.105454,29.712891],[-98.108587,29.714849],[-98.112005,29.716491],[-98.113072,29.717221],[-98.114361,29.717648],[-98.115229,29.719647],[-98.114827,29.720414],[-98.113493,29.721556],[-98.11316,29.722327],[-98.112494,29.725756],[-98.111875,29.727642],[-98.111472,29.728043],[-98.110639,29.728223],[-98.109507,29.728933],[-98.108021,29.728592],[-98.106959,29.72907],[-98.106402,29.729438],[-98.1043,29.732547],[-98.104442,29.734076],[-98.105719,29.737759],[-98.106713,29.738539],[-98.107579,29.738853],[-98.107963,29.741856],[-98.107426,29.743143],[-98.10791,29.744723],[-98.109525,29.74575],[-98.111078,29.746059],[-98.113944,29.745436],[-98.115907,29.744377],[-98.117618,29.743897],[-98.119993,29.743668],[-98.121863,29.743888],[-98.122768,29.744438],[-98.123614,29.745856],[-98.12393,29.7484],[-98.123438,29.751043],[-98.123687,29.751723],[-98.124463,29.752512],[-98.125422,29.753003],[-98.12656,29.753169],[-98.131283,29.752934],[-98.132838,29.753086],[-98.137616,29.75443],[-98.138684,29.754986],[-98.139038,29.755765],[-98.138794,29.756114],[-98.138807,29.757473],[-98.138382,29.758465],[-98.138398,29.759076],[-98.139351,29.761234],[-98.139643,29.763119],[-98.141681,29.765308],[-98.141924,29.76542],[-98.141935,29.76504],[-98.143074,29.765687],[-98.144524,29.766127],[-98.146529,29.766255],[-98.147928,29.766107],[-98.150463,29.765365],[-98.15339,29.76404],[-98.15571,29.763628],[-98.157954,29.76436],[-98.158566,29.765031],[-98.158931,29.765961],[-98.15912,29.768541],[-98.158728,29.770358],[-98.158748,29.772225],[-98.160556,29.776465],[-98.160519,29.778061],[-98.160194,29.779341],[-98.160389,29.779466],[-98.159741,29.780352],[-98.158447,29.781336],[-98.156372,29.782541],[-98.15337,29.783778],[-98.152089,29.784999],[-98.151158,29.786594],[-98.151516,29.791632],[-98.151398,29.79313],[-98.150265,29.794682],[-98.148782,29.795964],[-98.14647,29.799848],[-98.138046,29.792617],[-98.129425,29.800355]]]}},{"type":"Feature","properties":{"PRECINCT":"201","VTD":"0201"},"geometry":{"type":"Polygon","coordinates":[[[-98.125877,29.685347],[-98.124359,29.682343],[-98.122825,29.682826],[-98.122448,29.682169],[-98.123995,29.681648],[-98.121735,29.677283],[-98.121637,29.674717],[-98.119391,29.670699],[-98.184425,29.64361],[-98.188329,29.651004],[-98.188362,29.652452],[-98.188728,29.653196],[-98.18376,29.656754],[-98.182189,29.657627],[-98.16958,29.662821],[-98.169258,29.662015],[-98.169211,29.660524],[-98.168465,29.658056],[-98.168211,29.657949],[-98.150114,29.665436],[-98.146703,29.66993],[-98.138417,29.683224],[-98.129391,29.684912],[-98.125877,29.685347]]]}},{"type":"Feature","properties":{"PRECINCT":"301","VTD":"0301"},"geometry":{"type":"Polygon","coordinates":[[[-98.135767,29.695725],[-98.12753,29.689322],[-98.126294,29.687105],[-98.125877,29.685347],[-98.129391,29.684912],[-98.138417,29.683224],[-98.146703,29.66993],[-98.150114,29.665436],[-98.168211,29.657949],[-98.168465,29.658056],[-98.169211,29.660524],[-98.169258,29.662015],[-98.16958,29.662821],[-98.182189,29.657627],[-98.18376,29.656754],[-98.188222,29.653496],[-98.209887,29.640236],[-98.221563,29.6345],[-98.224736,29.63241],[-98.227635,29.631394],[-98.234532,29.627879],[-98.239457,29.625057],[-98.240129,29.626072],[-98.235542,29.628097],[-98.227071,29.632424],[-98.224749,29.634046],[-98.221633,29.63519],[-98.212073,29.640252],[-98.213144,29.644331],[-98.213703,29.644943],[-98.214813,29.644717],[-98.216524,29.64726],[-98.203209,29.657073],[-98.207715,29.656015],[-98.207637,29.657518],[-98.208237,29.657718],[-98.209134,29.658753],[-98.209494,29.660755],[-98.210023,29.661722],[-98.209855,29.662012],[-98.205488,29.663125],[-98.206528,29.664693],[-98.20638,29.665577],[-98.201714,29.668094],[-98.193175,29.672115],[-98.182372,29.679412],[-98.161554,29.690848],[-98.159174,29.692329],[-98.158771,29.692979],[-98.152418,29.696755],[-98.139547,29.701666],[-98.13863,29.700175],[-98.13682,29.698456],[-98.136221,29.697388],[-98.135767,29.695725]]]}},{"type":"Feature","properties":{"PRECINCT":"102","VTD":"0102"},"geometry":{"type":"Polygon","coordinates":[[[-98.452787,29.887118],[-98.450347,29.886065],[-98.449555,29.885226],[-98.448923,29.884216],[-98.448896,29.883752],[-98.448173,29.882911],[-98.448074,29.881877],[-98.448498,29.87932],[-98.447655,29.875576],[-98.447099,29.874386],[-98.446692,29.874037],[-98.44461,29.874441],[-98.443085,29.874237],[-98.442494,29.874617],[-98.440874,29.874787],[-98.438203,29.87434],[-98.437874,29.873975],[-98.436508,29.870088],[-98.43433,29.868493],[-98.42973,29.868882],[-98.426792,29.869788],[-98.425594,29.870522],[-98.420063,29.871371],[-98.418053,29.870622],[-98.415713,29.867205],[-98.415459,29.865644],[-98.414865,29.864491],[-98.414765,29.862582],[-98.414388,29.861673],[-98.407846,29.853628],[-98.411169,29.837387],[-98.416068,29.826899],[-98.41864,29.818222],[-98.418783,29.81646],[-98.417623,29.805924],[-98.417655,29.804084],[-98.421562,29.790486],[-98.422312,29.790847],[-98.422742,29.791459],[-98.42291,29.794614],[-98.425219,29.796532],[-98.425522,29.797193],[-98.425446,29.798198],[-98.438535,29.799876],[-98.439987,29.79979],[-98.441309,29.799347],[-98.443396,29.797692],[-98.444895,29.797145],[-98.453746,29.797018],[-98.459887,29.796609],[-98.461499,29.795825],[-98.464216,29.793008],[-98.464264,29.793157],[-98.463694,29.797682],[-98.464332,29.799672],[-98.464382,29.801541],[-98.465646,29.804176],[-98.464564,29.810183],[-98.46455,29.811668],[-98.465424,29.816038],[-98.466637,29.826943],[-98.467162,29.828653],[-98.466919,29.832316],[-98.466561,29.834037],[-98.465619,29.835009],[-98.464308,29.837696],[-98.463277,29.841021],[-98.45987,29.844421],[-98.45924,29.845902],[-98.458816,29.848428],[-98.457766,29.849924],[-98.457599,29.87888],[-98.457232,29.880196],[-98.457597,29.880558],[-98.457605,29.882854],[-98.457191,29.883874],[-98.457246,29.887121],[-98.455601,29.886471],[-98.452787,29.887118]]]}},{"type":"Feature","properties":{"PRECINCT":"305","VTD":"0305"},"geometry":{"type":"Polygon","coordinates":[[[-98.037022,29.776751],[-98.05557,29.750742],[-98.05579,29.750867],[-98.055649,29.750636],[-98.058399,29.746741],[-98.060286,29.744628],[-98.078547,29.729296],[-98.084072,29.724327],[-98.086675,29.721016],[-98.088221,29.717957],[-98.090101,29.719617],[-98.094085,29.716146],[-98.093644,29.715766],[-98.094495,29.71501],[-98.094928,29.715402],[-98.09508,29.715275],[-98.09609,29.716487],[-98.096925,29.714414],[-98.100481,29.707675],[-98.102622,29.712588],[-98.103068,29.714384],[-98.101877,29.714624],[-98.099977,29.715724],[-98.100492,29.716366],[-98.097484,29.718176],[-98.097742,29.7185],[-98.09481,29.720025],[-98.088406,29.737623],[-98.087733,29.737064],[-98.064598,29.75731],[-98.074675,29.76623],[-98.075753,29.767349],[-98.075314,29.768093],[-98.071787,29.771229],[-98.067407,29.77346],[-98.061544,29.779029],[-98.057248,29.78146],[-98.054603,29.784804],[-98.052127,29.787232],[-98.045091,29.791978],[-98.04341,29.793805],[-98.032914,29.802998],[-98.025286,29.806211],[-98.02355,29.807522],[-98.022027,29.809549],[-98.018682,29.812253],[-98.01518,29.801485],[-98.019604,29.797696],[-98.029574,29.786877],[-98.036156,29.778252],[-98.037022,29.776751]]]}},{"type":"Feature","properties":{"PRECINCT":"304","VTD":"0304"},"geometry":{"type":"Polygon","coordinates":[[[-98.090101,29.719617],[-98.078612,29.709277],[-98.06914,29.717313],[-98.058526,29.707738],[-98.089277,29.683931],[-98.089941,29.683479],[-98.090685,29.683325],[-98.090431,29.685111],[-98.090869,29.686967],[-98.092975,29.689351],[-98.094708,29.693377],[-98.095391,29.694337],[-98.096258,29.694586],[-98.097672,29.694047],[-98.098313,29.693673],[-98.099802,29.691998],[-98.100927,29.691153],[-98.10292,29.690214],[-98.104554,29.689904],[-98.106914,29.690819],[-98.107762,29.691537],[-98.108009,29.693624],[-98.107752,29.694455],[-98.107005,29.695242],[-98.106669,29.696163],[-98.10704,29.697944],[-98.108087,29.699113],[-98.110917,29.699356],[-98.112647,29.700127],[-98.113665,29.701344],[-98.11412,29.703359],[-98.113779,29.704297],[-98.11303,29.704936],[-98.111811,29.706824],[-98.111113,29.707354],[-98.110161,29.70738],[-98.110353,29.706966],[-98.107001,29.706348],[-98.106804,29.707272],[-98.104865,29.706902],[-98.101449,29.70983],[-98.100481,29.707675],[-98.096925,29.714414],[-98.09609,29.716487],[-98.09508,29.715275],[-98.094928,29.715402],[-98.094495,29.71501],[-98.093644,29.715766],[-98.094085,29.716146],[-98.090101,29.719617]]]}},{"type":"Feature","properties":{"PRECINCT":"207","VTD":"0207"},"geometry":{"type":"Polygon","coordinates":[[[-98.228447,29.742294],[-98.22679,29.740234],[-98.224251,29.741987],[-98.220785,29.74482],[-98.205054,29.739173],[-98.199745,29.736142],[-98.194269,29.731958],[-98.19862,29.728895],[-98.197873,29.728001],[-98.204658,29.722468],[-98.203462,29.72094],[-98.211659,29.715208],[-98.211842,29.71482],[-98.217889,29.713099],[-98.220302,29.711729],[-98.224744,29.709797],[-98.226641,29.709697],[-98.232617,29.711401],[-98.239707,29.7117],[-98.240913,29.711516],[-98.244582,29.709931],[-98.245599,29.709698],[-98.252203,29.709753],[-98.258075,29.710256],[-98.269513,29.709589],[-98.278199,29.711744],[-98.286076,29.713112],[-98.28859,29.713317],[-98.295977,29.713246],[-98.297374,29.713395],[-98.2997,29.71439],[-98.302475,29.717287],[-98.303417,29.717893],[-98.30443,29.718184],[-98.305929,29.718142],[-98.309995,29.716969],[-98.310044,29.719992],[-98.309748,29.722433],[-98.306588,29.733854],[-98.304366,29.739549],[-98.303702,29.742642],[-98.30365,29.749469],[-98.305562,29.758504],[-98.305498,29.760531],[-98.304921,29.762539],[-98.304305,29.763509],[-98.303399,29.764206],[-98.30115,29.765124],[-98.300171,29.76614],[-98.298165,29.770064],[-98.297621,29.773516],[-98.293631,29.773629],[-98.267842,29.772427],[-98.264917,29.77194],[-98.263457,29.771481],[-98.255298,29.767831],[-98.253243,29.766819],[-98.251068,29.765264],[-98.233556,29.749699],[-98.231379,29.748537],[-98.223625,29.745842],[-98.226181,29.744101],[-98.226019,29.743893],[-98.228447,29.742294]]]}},{"type":"Feature","properties":{"PRECINCT":"306","VTD":"0306"},"geometry":{"type":"Polygon","coordinates":[[[-97.999271,29.752444],[-98.009171,29.745073],[-98.011955,29.743289],[-98.021197,29.736536],[-98.058526,29.707738],[-98.06914,29.717313],[-98.078612,29.709277],[-98.088221,29.717957],[-98.086243,29.721668],[-98.083581,29.72481],[-98.059586,29.745333],[-98.055649,29.750636],[-98.05579,29.750867],[-98.05557,29.750742],[-98.04948,29.759153],[-98.036156,29.778252],[-98.029574,29.786877],[-98.019604,29.797696],[-98.01518,29.801485],[-97.999271,29.752444]]]}},{"type":"Feature","properties":{"PRECINCT":"108","VTD":"0108"},"geometry":{"type":"Polygon","coordinates":[[[-98.229156,29.872472],[-98.233222,29.865297],[-98.233624,29.865214],[-98.232392,29.863729],[-98.233219,29.863993],[-98.23356,29.862992],[-98.233813,29.86396],[-98.235151,29.864036],[-98.235561,29.863717],[-98.235491,29.862848],[-98.236002,29.863019],[-98.236456,29.862314],[-98.237409,29.861874],[-98.237744,29.861296],[-98.238129,29.861692],[-98.239416,29.861416],[-98.239447,29.861086],[-98.240167,29.86036],[-98.240135,29.859612],[-98.23956,29.858908],[-98.239219,29.857841],[-98.237609,29.856582],[-98.23735,29.856626],[-98.237249,29.856571],[-98.237754,29.856449],[-98.238436,29.857049],[-98.23995,29.857301],[-98.240929,29.857972],[-98.241567,29.858891],[-98.242432,29.85927],[-98.243896,29.85878],[-98.244571,29.858295],[-98.244949,29.857662],[-98.244791,29.856458],[-98.243312,29.853845],[-98.243128,29.853767],[-98.241038,29.854873],[-98.24067,29.854039],[-98.23864,29.852044],[-98.236866,29.849748],[-98.23409,29.847916],[-98.233993,29.847074],[-98.23465,29.845912],[-98.234421,29.844936],[-98.232567,29.841473],[-98.230361,29.83879],[-98.229946,29.837886],[-98.235856,29.835597],[-98.240097,29.834457],[-98.243655,29.832971],[-98.245583,29.832719],[-98.247639,29.833282],[-98.24901,29.834422],[-98.251351,29.837555],[-98.253507,29.838952],[-98.257487,29.840046],[-98.268554,29.843911],[-98.27028,29.844184],[-98.273872,29.844293],[-98.275162,29.844698],[-98.27639,29.845767],[-98.281903,29.854139],[-98.283878,29.855836],[-98.283595,29.855861],[-98.281858,29.857616],[-98.280394,29.858732],[-98.278424,29.859518],[-98.276326,29.86185],[-98.274566,29.862779],[-98.272716,29.865202],[-98.271459,29.867823],[-98.270893,29.868313],[-98.261952,29.872186],[-98.255718,29.8758],[-98.254417,29.876722],[-98.253285,29.877924],[-98.251776,29.878907],[-98.250203,29.879288],[-98.246116,29.881363],[-98.24316,29.883274],[-98.242617,29.884742],[-98.241079,29.882788],[-98.236278,29.87816],[-98.229156,29.872472]]]}},{"type":"Feature","properties":{"PRECINCT":"206","VTD":"0206"},"geometry":{"type":"Polygon","coordinates":[[[-98.34474,29.802867],[-98.332879,29.795643],[-98.331794,29.794163],[-98.331371,29.792882],[-98.330653,29.788014],[-98.330032,29.786984],[-98.329236,29.786335],[-98.320112,29.782416],[-98.319091,29.781755],[-98.317023,29.779767],[-98.315502,29.778909],[-98.309734,29.777125],[-98.301452,29.773719],[-98.299707,29.773432],[-98.297621,29.773516],[-98.298165,29.770064],[-98.300171,29.76614],[-98.30115,29.765124],[-98.303399,29.764206],[-98.304305,29.763509],[-98.304921,29.762539],[-98.305498,29.760531],[-98.305562,29.758504],[-98.30365,29.749469],[-98.303702,29.742642],[-98.304366,29.739549],[-98.306588,29.733854],[-98.309748,29.722433],[-98.310044,29.719992],[-98.309995,29.716969],[-98.318324,29.716142],[-98.319872,29.716427],[-98.32103,29.717148],[-98.321714,29.718081],[-98.322329,29.721345],[-98.322993,29.722565],[-98.326084,29.724876],[-98.332673,29.728037],[-98.333923,29.728451],[-98.335332,29.728479],[-98.339999,29.727537],[-98.342767,29.727424],[-98.345224,29.727648],[-98.349982,29.72866],[-98.352406,29.731884],[-98.352148,29.734051],[-98.35315,29.73448],[-98.354833,29.734309],[-98.35617,29.733808],[-98.356932,29.732432],[-98.358324,29.731007],[-98.358387,29.730264],[-98.359382,29.729037],[-98.365462,29.723435],[-98.369828,29.720693],[-98.375141,29.719931],[-98.375506,29.720805],[-98.375644,29.722654],[-98.375479,29.723545],[-98.374999,29.724619],[-98.3735,29.726022],[-98.373204,29.727359],[-98.373434,29.730029],[-98.374083,29.73097],[-98.374997,29.731683],[-98.376967,29.732618],[-98.381429,29.734155],[-98.383168,29.735102],[-98.384946,29.735036],[-98.386951,29.733942],[-98.388262,29.733943],[-98.390644,29.736375],[-98.393632,29.736481],[-98.395031,29.737103],[-98.397121,29.737343],[-98.398794,29.737869],[-98.399487,29.738458],[-98.399752,29.739278],[-98.399247,29.740515],[-98.39832,29.741362],[-98.398262,29.742842],[-98.398659,29.743497],[-98.402087,29.746859],[-98.402503,29.748169],[-98.403014,29.748675],[-98.403871,29.749],[-98.407471,29.748687],[-98.412086,29.746922],[-98.413303,29.747214],[-98.415213,29.74684],[-98.416064,29.746549],[-98.416524,29.74602],[-98.418984,29.744937],[-98.420673,29.743529],[-98.421765,29.740377],[-98.421796,29.739458],[-98.420984,29.736014],[-98.420965,29.734694],[-98.42048,29.733814],[-98.419225,29.73328],[-98.417851,29.733318],[-98.417259,29.73284],[-98.4169,29.732058],[-98.416957,29.73136],[-98.417253,29.730513],[-98.417795,29.729902],[-98.425908,29.727015],[-98.429722,29.723978],[-98.430005,29.723285],[-98.429867,29.722895],[-98.428966,29.721437],[-98.427856,29.72032],[-98.426899,29.718653],[-98.426842,29.71769],[-98.427416,29.717057],[-98.42797,29.716683],[-98.430926,29.715754],[-98.434563,29.716073],[-98.438344,29.715627],[-98.441217,29.716627],[-98.442573,29.718241],[-98.443367,29.718807],[-98.443852,29.71965],[-98.44214,29.723352],[-98.438762,29.738055],[-98.438054,29.739391],[-98.433823,29.744815],[-98.43272,29.747062],[-98.430428,29.75808],[-98.429918,29.76273],[-98.428243,29.76724],[-98.42712,29.775037],[-98.426558,29.776688],[-98.424393,29.78096],[-98.419438,29.79764],[-98.402324,29.79781],[-98.399971,29.798038],[-98.398242,29.798448],[-98.385292,29.803262],[-98.383471,29.803614],[-98.37199,29.804742],[-98.363732,29.807378],[-98.361661,29.80769],[-98.359209,29.807366],[-98.352758,29.804799],[-98.348117,29.80399],[-98.34474,29.802867]]]}},{"type":"Feature","properties":{"PRECINCT":"104","VTD":"0104"},"geometry":{"type":"Polygon","coordinates":[[[-98.218011,29.866067],[-98.211715,29.865882],[-98.204066,29.866449],[-98.200345,29.868969],[-98.198147,29.869099],[-98.196087,29.869682],[-98.195847,29.868998],[-98.195133,29.868389],[-98.191715,29.868158],[-98.1897,29.867285],[-98.188458,29.865746],[-98.184806,29.85806],[-98.183728,29.856525],[-98.183179,29.855011],[-98.182342,29.854265],[-98.180261,29.853299],[-98.177621,29.849215],[-98.176125,29.848251],[-98.177453,29.847708],[-98.176731,29.846867],[-98.176089,29.84714],[-98.172803,29.840925],[-98.169187,29.843275],[-98.16851,29.843117],[-98.168196,29.842805],[-98.172199,29.840244],[-98.17375,29.838342],[-98.174526,29.836872],[-98.174677,29.835775],[-98.173713,29.834585],[-98.171341,29.83271],[-98.166855,29.830153],[-98.166239,29.829396],[-98.165692,29.826834],[-98.166724,29.822799],[-98.168209,29.819976],[-98.171469,29.818771],[-98.175246,29.819045],[-98.177687,29.818668],[-98.179726,29.817647],[-98.181039,29.816377],[-98.181061,29.816183],[-98.180086,29.815395],[-98.180221,29.812307],[-98.179515,29.810641],[-98.179028,29.810062],[-98.178145,29.809541],[-98.176782,29.809263],[-98.174244,29.809199],[-98.173383,29.808666],[-98.191075,29.7967],[-98.197012,29.792518],[-98.197833,29.791727],[-98.204908,29.787086],[-98.204578,29.785893],[-98.205322,29.782957],[-98.206173,29.782619],[-98.212378,29.777034],[-98.214403,29.775877],[-98.218961,29.779538],[-98.220112,29.780927],[-98.220552,29.781965],[-98.222134,29.78909],[-98.227778,29.799139],[-98.229558,29.810765],[-98.229294,29.81256],[-98.227989,29.814849],[-98.227551,29.816261],[-98.227582,29.817761],[-98.228173,29.819317],[-98.231078,29.822717],[-98.232638,29.823703],[-98.234638,29.824033],[-98.238006,29.823481],[-98.239399,29.82346],[-98.240936,29.82377],[-98.242434,29.824491],[-98.243726,29.825574],[-98.24433,29.826467],[-98.245288,29.829976],[-98.244941,29.8316],[-98.243655,29.832971],[-98.240097,29.834457],[-98.235856,29.835597],[-98.229946,29.837886],[-98.230361,29.83879],[-98.232567,29.841473],[-98.234421,29.844936],[-98.23465,29.845912],[-98.233993,29.847074],[-98.23409,29.847916],[-98.236866,29.849748],[-98.23864,29.852044],[-98.24067,29.854039],[-98.241038,29.854873],[-98.243128,29.853767],[-98.243312,29.853845],[-98.244791,29.856458],[-98.244949,29.857662],[-98.244691,29.858152],[-98.243523,29.859011],[-98.242728,29.85927],[-98.242028,29.859187],[-98.241276,29.858588],[-98.240929,29.857972],[-98.23995,29.857301],[-98.238436,29.857049],[-98.237754,29.856449],[-98.237249,29.856571],[-98.237609,29.856582],[-98.239219,29.857841],[-98.23956,29.858908],[-98.240135,29.859612],[-98.240167,29.86036],[-98.239447,29.861086],[-98.239416,29.861416],[-98.238129,29.861692],[-98.237744,29.861296],[-98.237409,29.861874],[-98.236456,29.862314],[-98.236002,29.863019],[-98.235491,29.862848],[-98.235561,29.863717],[-98.235151,29.864036],[-98.233813,29.86396],[-98.23356,29.862992],[-98.233219,29.863993],[-98.232392,29.863729],[-98.233624,29.865214],[-98.233222,29.865297],[-98.229156,29.872472],[-98.22452,29.868745],[-98.218011,29.866067]]]}},{"type":"Feature","properties":{"PRECINCT":"402","VTD":"0402"},"geometry":{"type":"Polygon","coordinates":[[[-98.198702,29.967771],[-98.125279,29.915555],[-98.044743,29.858705],[-98.05028,29.854252],[-98.054934,29.851069],[-98.056218,29.852368],[-98.077176,29.833483],[-98.078609,29.834677],[-98.079683,29.834998],[-98.082845,29.832415],[-98.088517,29.837301],[-98.090023,29.83613],[-98.092904,29.838627],[-98.093685,29.838251],[-98.098119,29.847086],[-98.112741,29.834217],[-98.112272,29.833808],[-98.116379,29.830169],[-98.123414,29.824213],[-98.124504,29.823959],[-98.125382,29.823485],[-98.128883,29.820454],[-98.133228,29.824277],[-98.133567,29.823839],[-98.133208,29.823461],[-98.133882,29.822164],[-98.133304,29.819619],[-98.140633,29.814073],[-98.143148,29.81191],[-98.144634,29.809971],[-98.146069,29.809339],[-98.150408,29.805557],[-98.153437,29.806853],[-98.156607,29.807314],[-98.158042,29.807244],[-98.160839,29.805997],[-98.164164,29.803192],[-98.167285,29.801043],[-98.169834,29.800278],[-98.170793,29.800312],[-98.172108,29.800971],[-98.172928,29.801869],[-98.17373,29.804704],[-98.17368,29.806023],[-98.173117,29.807897],[-98.173332,29.808611],[-98.174244,29.809199],[-98.176782,29.809263],[-98.178145,29.809541],[-98.179028,29.810062],[-98.179515,29.810641],[-98.180221,29.812307],[-98.180086,29.815395],[-98.181061,29.816183],[-98.18095,29.816579],[-98.179726,29.817647],[-98.177687,29.818668],[-98.175246,29.819045],[-98.171469,29.818771],[-98.168537,29.819826],[-98.167956,29.820304],[-98.167103,29.821977],[-98.165692,29.826834],[-98.166239,29.829396],[-98.167274,29.830445],[-98.171341,29.83271],[-98.173713,29.834585],[-98.174677,29.835775],[-98.174526,29.836872],[-98.172988,29.839369],[-98.171677,29.840687],[-98.168196,29.842805],[-98.168329,29.842964],[-98.169187,29.843275],[-98.172803,29.840925],[-98.176089,29.84714],[-98.176731,29.846867],[-98.177453,29.847708],[-98.176125,29.848251],[-98.177621,29.849215],[-98.180261,29.853299],[-98.182342,29.854265],[-98.183179,29.855011],[-98.183728,29.856525],[-98.184806,29.85806],[-98.188458,29.865746],[-98.189199,29.866827],[-98.190192,29.867606],[-98.191715,29.868158],[-98.195133,29.868389],[-98.195847,29.868998],[-98.196087,29.869682],[-98.198147,29.869099],[-98.200345,29.868969],[-98.204066,29.866449],[-98.211715,29.865882],[-98.218011,29.866067],[-98.22452,29.868745],[-98.236278,29.87816],[-98.241079,29.882788],[-98.242617,29.884742],[-98.236479,29.890433],[-98.235689,29.890684],[-98.235804,29.89214],[-98.236849,29.893255],[-98.23742,29.893467],[-98.23759,29.894687],[-98.237437,29.895281],[-98.236787,29.896174],[-98.234364,29.896861],[-98.233845,29.897252],[-98.229811,29.904185],[-98.229073,29.904664],[-98.227684,29.904766],[-98.226954,29.905088],[-98.225777,29.905984],[-98.224085,29.90805],[-98.215332,29.914119],[-98.216255,29.915867],[-98.216444,29.916976],[-98.215632,29.919566],[-98.215684,29.921309],[-98.21704,29.923799],[-98.218129,29.924831],[-98.217233,29.925788],[-98.216775,29.926824],[-98.216742,29.92785],[-98.217156,29.929707],[-98.217031,29.930513],[-98.211743,29.939294],[-98.210496,29.940288],[-98.207135,29.941519],[-98.207893,29.942834],[-98.208827,29.943264],[-98.209274,29.944103],[-98.211087,29.946006],[-98.209599,29.95031],[-98.209521,29.951326],[-98.208261,29.953125],[-98.208028,29.954289],[-98.208843,29.955906],[-98.212214,29.958797],[-98.212733,29.960667],[-98.211786,29.962169],[-98.210826,29.963128],[-98.208837,29.963536],[-98.207234,29.963572],[-98.205645,29.963067],[-98.201918,29.96338],[-98.200155,29.965011],[-98.201142,29.965977],[-98.201061,29.966672],[-98.199198,29.967889],[-98.198702,29.967771]]]}},{"type":"Feature","properties":{"PRECINCT":"105","VTD":"0105"},"geometry":{"type":"Polygon","coordinates":[[[-98.29194,29.90568],[-98.278846,29.895846],[-98.269009,29.898045],[-98.259602,29.894782],[-98.253,29.891967],[-98.245392,29.887633],[-98.242617,29.884742],[-98.24316,29.883274],[-98.246116,29.881363],[-98.250203,29.879288],[-98.251776,29.878907],[-98.253285,29.877924],[-98.254417,29.876722],[-98.255718,29.8758],[-98.261952,29.872186],[-98.270893,29.868313],[-98.271459,29.867823],[-98.272716,29.865202],[-98.274566,29.862779],[-98.276326,29.86185],[-98.278424,29.859518],[-98.280394,29.858732],[-98.281858,29.857616],[-98.283595,29.855861],[-98.284687,29.8553],[-98.285513,29.854525],[-98.28605,29.853447],[-98.286044,29.852787],[-98.287086,29.85129],[-98.287023,29.850339],[-98.287331,29.849234],[-98.288248,29.847946],[-98.290177,29.846515],[-98.288798,29.84521],[-98.290946,29.845736],[-98.29163,29.845392],[-98.292891,29.844223],[-98.294468,29.84152],[-98.295702,29.840735],[-98.296541,29.839228],[-98.297633,29.838243],[-98.299476,29.839261],[-98.303884,29.84312],[-98.298508,29.856007],[-98.308684,29.865533],[-98.313368,29.871827],[-98.301143,29.880648],[-98.297375,29.877567],[-98.297675,29.880015],[-98.298195,29.881178],[-98.297593,29.8823],[-98.296117,29.88366],[-98.294796,29.886716],[-98.295999,29.887026],[-98.295635,29.888148],[-98.296595,29.890682],[-98.292215,29.898277],[-98.291955,29.899491],[-98.292507,29.90175],[-98.29194,29.90568]]]}},{"type":"Feature","properties":{"PRECINCT":"403","VTD":"0403"},"geometry":{"type":"Polygon","coordinates":[[[-98.255017,30.007989],[-98.198702,29.967771],[-98.199374,29.967865],[-98.201061,29.966672],[-98.201142,29.965977],[-98.200155,29.965011],[-98.201918,29.96338],[-98.205645,29.963067],[-98.207587,29.963586],[-98.210694,29.963178],[-98.21173,29.962242],[-98.212733,29.960667],[-98.212138,29.958674],[-98.208843,29.955906],[-98.208052,29.954401],[-98.208261,29.953125],[-98.209521,29.951326],[-98.209599,29.95031],[-98.211097,29.946082],[-98.209274,29.944103],[-98.208827,29.943264],[-98.207893,29.942834],[-98.207135,29.941519],[-98.210496,29.940288],[-98.211743,29.939294],[-98.217031,29.930513],[-98.217156,29.929707],[-98.216742,29.92785],[-98.216775,29.926824],[-98.217233,29.925788],[-98.218129,29.924831],[-98.21704,29.923799],[-98.215684,29.921309],[-98.215632,29.919566],[-98.216444,29.916976],[-98.216255,29.915867],[-98.215332,29.914119],[-98.224085,29.90805],[-98.225777,29.905984],[-98.226954,29.905088],[-98.227684,29.904766],[-98.229073,29.904664],[-98.229811,29.904185],[-98.233845,29.897252],[-98.234364,29.896861],[-98.236787,29.896174],[-98.237437,29.895281],[-98.23759,29.894687],[-98.23742,29.893467],[-98.236849,29.893255],[-98.235804,29.89214],[-98.235689,29.890684],[-98.236479,29.890433],[-98.242617,29.884742],[-98.245392,29.887633],[-98.253,29.891967],[-98.259602,29.894782],[-98.269009,29.898045],[-98.278846,29.895846],[-98.29194,29.90568],[-98.292507,29.90175],[-98.291955,29.899491],[-98.292215,29.898277],[-98.296595,29.890682],[-98.295635,29.888148],[-98.295999,29.887026],[-98.297754,29.886277],[-98.300002,29.888137],[-98.300476,29.887947],[-98.30122,29.888813],[-98.302054,29.889114],[-98.303482,29.890117],[-98.306459,29.89106],[-98.30801,29.891418],[-98.310055,29.891444],[-98.317723,29.890875],[-98.318361,29.891306],[-98.318452,29.892789],[-98.316782,29.894721],[-98.31335,29.896038],[-98.312223,29.897024],[-98.311558,29.898492],[-98.311002,29.902184],[-98.311772,29.903658],[-98.313131,29.905182],[-98.31385,29.905632],[-98.315878,29.906273],[-98.316601,29.906208],[-98.317925,29.905398],[-98.318845,29.904191],[-98.321274,29.902013],[-98.322645,29.901299],[-98.323483,29.901309],[-98.324594,29.902043],[-98.325577,29.903919],[-98.326283,29.904674],[-98.327318,29.904935],[-98.328502,29.906181],[-98.328934,29.90725],[-98.328694,29.90825],[-98.327312,29.908597],[-98.324467,29.908129],[-98.322847,29.90835],[-98.320337,29.909809],[-98.318926,29.911071],[-98.3184,29.912077],[-98.318226,29.913118],[-98.318817,29.915019],[-98.320135,29.917318],[-98.321177,29.917895],[-98.32337,29.91862],[-98.325043,29.918824],[-98.327959,29.917787],[-98.333679,29.917249],[-98.334799,29.916182],[-98.334968,29.916334],[-98.335253,29.919116],[-98.334952,29.921144],[-98.33641,29.921818],[-98.336694,29.922599],[-98.336328,29.923078],[-98.333947,29.924157],[-98.33252,29.925802],[-98.330297,29.926446],[-98.328371,29.926413],[-98.326836,29.927255],[-98.326445,29.928201],[-98.326881,29.929334],[-98.327968,29.930599],[-98.326206,29.932426],[-98.325991,29.933081],[-98.326509,29.933939],[-98.328499,29.935506],[-98.329939,29.937586],[-98.332258,29.939478],[-98.334784,29.941117],[-98.334879,29.941689],[-98.334305,29.941969],[-98.334273,29.943262],[-98.334848,29.944489],[-98.336175,29.946326],[-98.336365,29.947327],[-98.336094,29.949132],[-98.336694,29.950314],[-98.336524,29.951618],[-98.336745,29.952306],[-98.338773,29.954434],[-98.339127,29.95455],[-98.339885,29.954209],[-98.340378,29.954291],[-98.341395,29.955055],[-98.342874,29.955638],[-98.344302,29.957492],[-98.345174,29.957948],[-98.344745,29.959857],[-98.345124,29.960429],[-98.345304,29.961764],[-98.347499,29.965002],[-98.349801,29.969604],[-98.350802,29.970242],[-98.358201,29.972468],[-98.369023,29.976171],[-98.2976,30.037994],[-98.255017,30.007989]]]}},{"type":"Feature","properties":{"PRECINCT":"106","VTD":"0106"},"geometry":{"type":"Polygon","coordinates":[[[-98.319475,29.910417],[-98.323269,29.90826],[-98.325109,29.908179],[-98.327312,29.908597],[-98.328694,29.90825],[-98.328934,29.90725],[-98.328502,29.906181],[-98.327318,29.904935],[-98.326283,29.904674],[-98.325577,29.903919],[-98.324594,29.902043],[-98.324143,29.901681],[-98.323142,29.901233],[-98.321274,29.902013],[-98.318845,29.904191],[-98.317925,29.905398],[-98.316601,29.906208],[-98.315878,29.906273],[-98.31385,29.905632],[-98.313131,29.905182],[-98.311772,29.903658],[-98.311002,29.902184],[-98.311558,29.898492],[-98.312223,29.897024],[-98.31335,29.896038],[-98.316782,29.894721],[-98.318452,29.892789],[-98.318361,29.891306],[-98.317723,29.890875],[-98.310055,29.891444],[-98.30801,29.891418],[-98.303482,29.890117],[-98.302054,29.889114],[-98.30122,29.888813],[-98.300476,29.887947],[-98.300002,29.888137],[-98.297754,29.886277],[-98.295999,29.887026],[-98.294796,29.886716],[-98.296117,29.88366],[-98.297593,29.8823],[-98.298195,29.881178],[-98.297675,29.880015],[-98.297375,29.877567],[-98.301143,29.880648],[-98.313368,29.871827],[-98.308684,29.865533],[-98.298508,29.856007],[-98.303884,29.84312],[-98.299476,29.839261],[-98.297633,29.838243],[-98.296541,29.839228],[-98.295702,29.840735],[-98.294468,29.84152],[-98.292891,29.844223],[-98.29163,29.845392],[-98.290946,29.845736],[-98.288798,29.84521],[-98.290177,29.846515],[-98.287863,29.848414],[-98.287061,29.85008],[-98.287086,29.85129],[-98.286044,29.852787],[-98.28605,29.853447],[-98.285665,29.854283],[-98.283878,29.855836],[-98.281903,29.854139],[-98.27639,29.845767],[-98.275558,29.844939],[-98.274065,29.844321],[-98.27028,29.844184],[-98.268554,29.843911],[-98.266435,29.843203],[-98.266651,29.842759],[-98.26777,29.841528],[-98.269083,29.840573],[-98.270579,29.839994],[-98.27338,29.83961],[-98.274855,29.839148],[-98.278724,29.836489],[-98.28531,29.832919],[-98.2916,29.830184],[-98.292411,29.829342],[-98.292839,29.828312],[-98.292566,29.825312],[-98.292794,29.823707],[-98.295249,29.818366],[-98.295835,29.817534],[-98.310121,29.808074],[-98.312149,29.80722],[-98.314555,29.806811],[-98.316547,29.806912],[-98.331907,29.810468],[-98.333541,29.81053],[-98.338185,29.810134],[-98.341732,29.809736],[-98.343564,29.809009],[-98.349253,29.804233],[-98.352758,29.804799],[-98.35956,29.807459],[-98.362173,29.807655],[-98.363732,29.807378],[-98.37199,29.804742],[-98.383471,29.803614],[-98.385568,29.803192],[-98.398242,29.798448],[-98.399971,29.798038],[-98.402324,29.79781],[-98.419438,29.79764],[-98.417995,29.802469],[-98.417613,29.804515],[-98.418783,29.81646],[-98.41864,29.818222],[-98.416068,29.826899],[-98.411169,29.837387],[-98.407846,29.853628],[-98.406495,29.853085],[-98.40532,29.853073],[-98.403787,29.853193],[-98.402196,29.85361],[-98.400613,29.854285],[-98.398349,29.856102],[-98.394755,29.858255],[-98.393302,29.85887],[-98.388919,29.85995],[-98.384191,29.860483],[-98.383214,29.860868],[-98.381434,29.862359],[-98.381214,29.86308],[-98.381702,29.86477],[-98.381593,29.868046],[-98.380883,29.869452],[-98.380014,29.869956],[-98.378411,29.869822],[-98.376051,29.86902],[-98.373537,29.867052],[-98.372775,29.865382],[-98.368418,29.861858],[-98.367653,29.861769],[-98.366228,29.862327],[-98.363749,29.864119],[-98.363037,29.865062],[-98.362746,29.865663],[-98.362735,29.866559],[-98.363042,29.868396],[-98.363651,29.869394],[-98.364281,29.869834],[-98.370632,29.872799],[-98.373459,29.875303],[-98.374209,29.876541],[-98.374683,29.877447],[-98.374556,29.878092],[-98.373661,29.879603],[-98.372594,29.880806],[-98.370355,29.882335],[-98.369991,29.883997],[-98.370397,29.884662],[-98.372502,29.884564],[-98.373432,29.884891],[-98.373549,29.885616],[-98.373346,29.886137],[-98.372672,29.886278],[-98.371827,29.886997],[-98.367332,29.8882],[-98.364834,29.888507],[-98.363395,29.888375],[-98.361985,29.887363],[-98.359455,29.884762],[-98.358569,29.884262],[-98.355705,29.884111],[-98.354128,29.88513],[-98.353505,29.885808],[-98.353507,29.886407],[-98.354087,29.887432],[-98.354194,29.889066],[-98.35547,29.891447],[-98.355025,29.893272],[-98.353665,29.89382],[-98.352502,29.893819],[-98.348396,29.891938],[-98.347934,29.89127],[-98.347653,29.888921],[-98.347063,29.888069],[-98.346086,29.887611],[-98.342941,29.886967],[-98.338807,29.88788],[-98.338399,29.888062],[-98.337919,29.888923],[-98.337939,29.889641],[-98.338219,29.891405],[-98.339451,29.894163],[-98.340895,29.895451],[-98.34258,29.895535],[-98.34323,29.895827],[-98.346667,29.896219],[-98.347496,29.896867],[-98.348339,29.899069],[-98.348271,29.900142],[-98.347612,29.901207],[-98.346198,29.902581],[-98.344572,29.903494],[-98.341534,29.904251],[-98.339674,29.904451],[-98.334047,29.90366],[-98.332082,29.904008],[-98.331156,29.904904],[-98.330833,29.906881],[-98.331112,29.908658],[-98.332143,29.910757],[-98.334712,29.912884],[-98.33535,29.913815],[-98.33556,29.914742],[-98.33471,29.91635],[-98.333679,29.917249],[-98.327959,29.917787],[-98.325043,29.918824],[-98.32337,29.91862],[-98.321177,29.917895],[-98.320135,29.917318],[-98.318817,29.915019],[-98.318284,29.913395],[-98.318261,29.912605],[-98.318926,29.911071],[-98.319475,29.910417]]]}},{"type":"Feature","properties":{"PRECINCT":"107","VTD":"0107"},"geometry":{"type":"Polygon","coordinates":[[[-98.245583,29.832719],[-98.243655,29.832971],[-98.244941,29.8316],[-98.245288,29.829976],[-98.24433,29.826467],[-98.243726,29.825574],[-98.242688,29.824664],[-98.241193,29.823863],[-98.239399,29.82346],[-98.238006,29.823481],[-98.234638,29.824033],[-98.232638,29.823703],[-98.231078,29.822717],[-98.228043,29.81907],[-98.227582,29.817761],[-98.227551,29.816261],[-98.227989,29.814849],[-98.229211,29.812787],[-98.229564,29.811101],[-98.227934,29.799763],[-98.227333,29.798166],[-98.222309,29.789453],[-98.221529,29.786858],[-98.222974,29.784564],[-98.223604,29.784037],[-98.226101,29.783737],[-98.22836,29.783185],[-98.231669,29.780294],[-98.232195,29.77956],[-98.232326,29.778918],[-98.235111,29.778138],[-98.239366,29.7755],[-98.241887,29.774262],[-98.243252,29.7719],[-98.245274,29.770134],[-98.245116,29.769446],[-98.243565,29.767751],[-98.243459,29.766033],[-98.246778,29.761435],[-98.251068,29.765264],[-98.253243,29.766819],[-98.262819,29.771213],[-98.264917,29.77194],[-98.267842,29.772427],[-98.271655,29.772733],[-98.293631,29.773629],[-98.300371,29.773486],[-98.301809,29.773835],[-98.310657,29.777463],[-98.315824,29.779041],[-98.317023,29.779767],[-98.319091,29.781755],[-98.320112,29.782416],[-98.328487,29.785976],[-98.329751,29.786699],[-98.330708,29.788194],[-98.331557,29.793598],[-98.332391,29.795108],[-98.333481,29.796145],[-98.344092,29.802561],[-98.346472,29.803518],[-98.349253,29.804233],[-98.343632,29.808964],[-98.342214,29.809608],[-98.340721,29.809906],[-98.333541,29.81053],[-98.331907,29.810468],[-98.316005,29.806846],[-98.313157,29.806974],[-98.310649,29.807795],[-98.296654,29.816843],[-98.295643,29.817753],[-98.292751,29.823841],[-98.292566,29.825312],[-98.292869,29.82811],[-98.292569,29.829077],[-98.291864,29.829973],[-98.29087,29.830598],[-98.28531,29.832919],[-98.278724,29.836489],[-98.274855,29.839148],[-98.27338,29.83961],[-98.270579,29.839994],[-98.269083,29.840573],[-98.26777,29.841528],[-98.266435,29.843203],[-98.257487,29.840046],[-98.252749,29.838606],[-98.251212,29.837409],[-98.248305,29.833736],[-98.246914,29.832964],[-98.245583,29.832719]]]}},{"type":"Feature","properties":{"PRECINCT":"407","VTD":"0407"},"geometry":{"type":"Polygon","coordinates":[[[-98.098119,29.847086],[-98.093685,29.838251],[-98.092904,29.838627],[-98.090023,29.83613],[-98.088517,29.837301],[-98.082845,29.832415],[-98.079683,29.834998],[-98.078609,29.834677],[-98.077176,29.833483],[-98.083218,29.827771],[-98.081738,29.826348],[-98.085296,29.823219],[-98.070618,29.810655],[-98.077629,29.804441],[-98.080168,29.804869],[-98.088126,29.809839],[-98.08545,29.811946],[-98.087882,29.815225],[-98.094653,29.810613],[-98.0992,29.809675],[-98.099808,29.809384],[-98.100714,29.808827],[-98.100394,29.807591],[-98.106919,29.805855],[-98.107269,29.808703],[-98.118234,29.806434],[-98.120437,29.808246],[-98.138046,29.792617],[-98.14647,29.799848],[-98.145924,29.801481],[-98.146423,29.802773],[-98.14821,29.80446],[-98.150408,29.805557],[-98.146069,29.809339],[-98.144634,29.809971],[-98.143148,29.81191],[-98.140633,29.814073],[-98.133304,29.819619],[-98.133882,29.822164],[-98.133208,29.823461],[-98.133567,29.823839],[-98.133228,29.824277],[-98.128883,29.820454],[-98.125382,29.823485],[-98.124504,29.823959],[-98.123414,29.824213],[-98.116379,29.830169],[-98.112272,29.833808],[-98.112741,29.834217],[-98.098119,29.847086]]]}},{"type":"Feature","properties":{"PRECINCT":"204","VTD":"0204"},"geometry":{"type":"Polygon","coordinates":[[[-98.457246,29.887121],[-98.457191,29.883874],[-98.457605,29.882854],[-98.457597,29.880558],[-98.457232,29.880196],[-98.457599,29.87888],[-98.457766,29.849924],[-98.458816,29.848428],[-98.45924,29.845902],[-98.45987,29.844421],[-98.463221,29.84112],[-98.464308,29.837696],[-98.465619,29.835009],[-98.466561,29.834037],[-98.467184,29.829393],[-98.466163,29.823494],[-98.465424,29.816038],[-98.46455,29.811668],[-98.464564,29.810183],[-98.465646,29.804176],[-98.464382,29.801541],[-98.464332,29.799672],[-98.463694,29.797682],[-98.464216,29.793008],[-98.461499,29.795825],[-98.459887,29.796609],[-98.453746,29.797018],[-98.444895,29.797145],[-98.443396,29.797692],[-98.441309,29.799347],[-98.439987,29.79979],[-98.438535,29.799876],[-98.425446,29.798198],[-98.425522,29.797193],[-98.425219,29.796532],[-98.42291,29.794614],[-98.422742,29.791459],[-98.422312,29.790847],[-98.421562,29.790486],[-98.424476,29.780722],[-98.426366,29.777105],[-98.42712,29.775037],[-98.428243,29.76724],[-98.429918,29.76273],[-98.430428,29.75808],[-98.43272,29.747062],[-98.433823,29.744815],[-98.438054,29.739391],[-98.438682,29.738255],[-98.44214,29.723352],[-98.443852,29.71965],[-98.444704,29.722466],[-98.444606,29.726149],[-98.442918,29.730471],[-98.442693,29.732561],[-98.443469,29.734453],[-98.444862,29.735411],[-98.445978,29.735884],[-98.447781,29.735883],[-98.449476,29.735256],[-98.451714,29.73404],[-98.452595,29.732802],[-98.453978,29.73235],[-98.457494,29.731564],[-98.459366,29.731773],[-98.460059,29.732625],[-98.462001,29.733434],[-98.462518,29.733868],[-98.463384,29.735873],[-98.464498,29.737598],[-98.46511,29.738236],[-98.466283,29.738522],[-98.469018,29.737662],[-98.471647,29.736298],[-98.473972,29.734366],[-98.475169,29.733821],[-98.476991,29.733436],[-98.479778,29.73508],[-98.48252,29.735266],[-98.48716,29.735996],[-98.48975,29.73534],[-98.491137,29.735527],[-98.492625,29.736132],[-98.493023,29.737034],[-98.496957,29.73849],[-98.49898,29.738608],[-98.50115,29.738241],[-98.503974,29.738644],[-98.506432,29.739734],[-98.507447,29.739894],[-98.508177,29.740488],[-98.509495,29.740935],[-98.509728,29.741259],[-98.511839,29.741887],[-98.513566,29.742752],[-98.516226,29.743083],[-98.517941,29.74414],[-98.521054,29.74505],[-98.521112,29.745399],[-98.523224,29.745627],[-98.524837,29.744716],[-98.525259,29.778343],[-98.52484,29.803667],[-98.525176,29.80912],[-98.525044,29.811881],[-98.525936,29.812992],[-98.527497,29.816142],[-98.528313,29.817024],[-98.529918,29.818179],[-98.531615,29.818775],[-98.539077,29.818952],[-98.540726,29.819245],[-98.542416,29.820045],[-98.548449,29.824643],[-98.500297,29.864295],[-98.500297,29.863972],[-98.485901,29.876046],[-98.484632,29.875441],[-98.483367,29.874114],[-98.483001,29.872664],[-98.482329,29.871735],[-98.482374,29.870556],[-98.481335,29.867457],[-98.4791,29.866198],[-98.477244,29.865904],[-98.476051,29.866258],[-98.475569,29.866959],[-98.475077,29.868607],[-98.475959,29.868989],[-98.476873,29.8699],[-98.477961,29.871413],[-98.477944,29.872126],[-98.476072,29.87327],[-98.473854,29.873585],[-98.471847,29.874608],[-98.471723,29.874926],[-98.472145,29.876291],[-98.472562,29.876862],[-98.476066,29.879731],[-98.476673,29.880927],[-98.476687,29.881391],[-98.475407,29.883176],[-98.475239,29.883925],[-98.474221,29.885224],[-98.473818,29.885465],[-98.47116,29.88543],[-98.470412,29.885602],[-98.466686,29.888258],[-98.465198,29.888851],[-98.461664,29.88899],[-98.460089,29.88849],[-98.458857,29.887577],[-98.457246,29.887121]]]}},{"type":"Feature","properties":{"PRECINCT":"208","VTD":"0208"},"geometry":{"type":"Polygon","coordinates":[[[-98.539807,29.819032],[-98.531835,29.818793],[-98.530341,29.818399],[-98.528855,29.81746],[-98.527497,29.816142],[-98.525936,29.812992],[-98.525044,29.811881],[-98.525176,29.80912],[-98.52484,29.803667],[-98.525259,29.778343],[-98.524837,29.744716],[-98.523224,29.745627],[-98.521112,29.745399],[-98.521054,29.74505],[-98.523374,29.745242],[-98.525903,29.743724],[-98.52608,29.743146],[-98.52545,29.740621],[-98.52586,29.740368],[-98.526478,29.740357],[-98.527631,29.7411],[-98.528091,29.741871],[-98.528286,29.743659],[-98.528576,29.744236],[-98.533959,29.74679],[-98.534104,29.747225],[-98.533625,29.750505],[-98.533744,29.751836],[-98.534015,29.752353],[-98.535326,29.753058],[-98.536575,29.752843],[-98.538996,29.751903],[-98.542495,29.751799],[-98.543718,29.752052],[-98.54677,29.753263],[-98.547306,29.753615],[-98.547879,29.754507],[-98.547646,29.755673],[-98.546889,29.757169],[-98.54738,29.759216],[-98.548067,29.759997],[-98.550489,29.760713],[-98.553017,29.76019],[-98.554739,29.759057],[-98.555451,29.757115],[-98.555073,29.756053],[-98.555117,29.755255],[-98.557551,29.752576],[-98.559304,29.751482],[-98.560382,29.751614],[-98.562298,29.751377],[-98.56267,29.751531],[-98.563099,29.752263],[-98.565545,29.752659],[-98.566157,29.752532],[-98.5668,29.751988],[-98.568325,29.749446],[-98.568306,29.748543],[-98.568999,29.748235],[-98.569768,29.748395],[-98.572107,29.749715],[-98.573216,29.749838],[-98.574567,29.750419],[-98.574919,29.750211],[-98.575216,29.750001],[-98.576331,29.747178],[-98.578361,29.745946],[-98.579206,29.745737],[-98.579294,29.745478],[-98.578689,29.744466],[-98.578808,29.743723],[-98.579376,29.743294],[-98.580927,29.743041],[-98.581727,29.742623],[-98.582257,29.742188],[-98.582244,29.741368],[-98.582515,29.741187],[-98.58411,29.741241],[-98.586682,29.742451],[-98.58689,29.742781],[-98.586783,29.743766],[-98.587496,29.746418],[-98.588493,29.747595],[-98.589527,29.747732],[-98.591412,29.747215],[-98.592433,29.746576],[-98.593113,29.745679],[-98.593378,29.745723],[-98.596972,29.747362],[-98.599343,29.749017],[-98.59962,29.749519],[-98.600406,29.74998],[-98.601133,29.750039],[-98.603404,29.749522],[-98.604047,29.748911],[-98.604739,29.747255],[-98.604487,29.746832],[-98.601694,29.745287],[-98.600268,29.743521],[-98.599978,29.742635],[-98.600261,29.741574],[-98.600652,29.741078],[-98.601566,29.740401],[-98.603381,29.739933],[-98.606457,29.740042],[-98.607473,29.740455],[-98.610851,29.739991],[-98.612226,29.740002],[-98.612723,29.738236],[-98.614084,29.737602],[-98.615143,29.737839],[-98.617092,29.739098],[-98.617389,29.739939],[-98.616954,29.740578],[-98.616924,29.742916],[-98.617826,29.743851],[-98.619232,29.744142],[-98.621488,29.743679],[-98.624836,29.744304],[-98.628327,29.744261],[-98.632741,29.741996],[-98.634021,29.741562],[-98.640969,29.740228],[-98.643545,29.740357],[-98.645209,29.741623],[-98.646231,29.743602],[-98.646124,29.745181],[-98.64569,29.745677],[-98.566147,29.810022],[-98.548449,29.824643],[-98.542416,29.820045],[-98.541223,29.819423],[-98.539807,29.819032]]]}},{"type":"Feature","properties":{"PRECINCT":"205","VTD":"0205"},"geometry":{"type":"Polygon","coordinates":[[[-98.34402,29.727504],[-98.339999,29.727537],[-98.334993,29.728512],[-98.333923,29.728451],[-98.332673,29.728037],[-98.326084,29.724876],[-98.323587,29.723116],[-98.322385,29.721537],[-98.321945,29.718798],[-98.321567,29.717806],[-98.320815,29.716966],[-98.319596,29.716324],[-98.317958,29.716163],[-98.309995,29.716969],[-98.305929,29.718142],[-98.30443,29.718184],[-98.303417,29.717893],[-98.302475,29.717287],[-98.300324,29.714894],[-98.299044,29.71399],[-98.296685,29.713283],[-98.293613,29.713273],[-98.293608,29.711872],[-98.291513,29.705297],[-98.291862,29.704248],[-98.288824,29.700689],[-98.290624,29.699493],[-98.289686,29.69866],[-98.28943,29.698013],[-98.289717,29.696896],[-98.283931,29.689972],[-98.280048,29.688932],[-98.279254,29.689276],[-98.277555,29.686918],[-98.277033,29.687725],[-98.275779,29.68547],[-98.274564,29.68396],[-98.273108,29.682654],[-98.269621,29.678709],[-98.264314,29.681053],[-98.260667,29.683375],[-98.256311,29.684002],[-98.255873,29.683151],[-98.254614,29.681786],[-98.250395,29.678175],[-98.250396,29.677328],[-98.250907,29.676492],[-98.250939,29.675936],[-98.252508,29.674353],[-98.252445,29.674011],[-98.255118,29.671818],[-98.254885,29.671625],[-98.255042,29.67129],[-98.255697,29.671526],[-98.258049,29.668727],[-98.259479,29.667528],[-98.261117,29.666764],[-98.261363,29.667568],[-98.262659,29.669741],[-98.2647,29.67016],[-98.266943,29.669523],[-98.270875,29.667654],[-98.271776,29.667005],[-98.272576,29.665503],[-98.272665,29.66497],[-98.272218,29.662994],[-98.271677,29.662208],[-98.270279,29.661085],[-98.268755,29.660672],[-98.26388,29.66067],[-98.263181,29.660296],[-98.263156,29.659498],[-98.264025,29.658381],[-98.265033,29.657826],[-98.268498,29.656716],[-98.271232,29.656359],[-98.273418,29.655568],[-98.273563,29.653813],[-98.273148,29.652713],[-98.271889,29.651948],[-98.270176,29.65143],[-98.266019,29.650873],[-98.263273,29.651229],[-98.261673,29.651917],[-98.2604,29.652075],[-98.259469,29.652053],[-98.256018,29.651315],[-98.25396,29.645217],[-98.256177,29.643904],[-98.254819,29.642392],[-98.25738,29.640692],[-98.260973,29.637678],[-98.264353,29.635615],[-98.264195,29.63482],[-98.262562,29.632237],[-98.269778,29.628095],[-98.301091,29.616977],[-98.311859,29.611779],[-98.328651,29.608233],[-98.328345,29.610053],[-98.328736,29.610537],[-98.332191,29.610956],[-98.333584,29.61134],[-98.335328,29.611301],[-98.338224,29.612362],[-98.339319,29.613215],[-98.340653,29.614745],[-98.341321,29.616075],[-98.34234,29.617193],[-98.345107,29.618077],[-98.345617,29.619133],[-98.345623,29.620005],[-98.344894,29.620955],[-98.342715,29.62195],[-98.342074,29.623854],[-98.342326,29.624376],[-98.342271,29.62556],[-98.340861,29.627541],[-98.340578,29.628471],[-98.340604,29.630237],[-98.341253,29.632003],[-98.345676,29.638526],[-98.347295,29.642394],[-98.347718,29.644413],[-98.347618,29.645018],[-98.346944,29.646063],[-98.3434,29.650993],[-98.342707,29.652523],[-98.342613,29.653183],[-98.34289,29.653656],[-98.343703,29.654344],[-98.345108,29.655058],[-98.356629,29.658648],[-98.357524,29.659522],[-98.359781,29.662987],[-98.360802,29.665226],[-98.363764,29.666732],[-98.367933,29.665493],[-98.370994,29.664303],[-98.377117,29.662728],[-98.378547,29.662717],[-98.379145,29.66329],[-98.379962,29.666987],[-98.380541,29.668434],[-98.380854,29.671906],[-98.381451,29.673799],[-98.381646,29.674085],[-98.383076,29.674635],[-98.384341,29.676413],[-98.384379,29.67804],[-98.384164,29.678547],[-98.382886,29.679287],[-98.381781,29.680455],[-98.380288,29.680933],[-98.379771,29.681478],[-98.378466,29.681989],[-98.377464,29.682709],[-98.376865,29.683996],[-98.376315,29.687055],[-98.376711,29.689041],[-98.378252,29.692078],[-98.379776,29.693961],[-98.380701,29.695743],[-98.380871,29.696827],[-98.380523,29.699539],[-98.380965,29.701485],[-98.380375,29.70372],[-98.37711,29.705666],[-98.375068,29.706369],[-98.374005,29.706168],[-98.373064,29.705559],[-98.371274,29.705],[-98.370002,29.704904],[-98.367929,29.705675],[-98.362327,29.70597],[-98.35835,29.70416],[-98.35722,29.703912],[-98.354557,29.703864],[-98.350064,29.705335],[-98.346844,29.706969],[-98.345817,29.707294],[-98.344689,29.707239],[-98.343152,29.708125],[-98.34135,29.70965],[-98.340367,29.711795],[-98.340164,29.712846],[-98.340577,29.714446],[-98.340361,29.715819],[-98.338957,29.716802],[-98.338415,29.717583],[-98.338012,29.718948],[-98.338075,29.720433],[-98.338794,29.722006],[-98.341505,29.723337],[-98.343711,29.724827],[-98.345584,29.726455],[-98.348408,29.727104],[-98.349208,29.727511],[-98.350208,29.728748],[-98.34402,29.727504]]]}},{"type":"Feature","properties":{"PRECINCT":"202","VTD":"0202"},"geometry":{"type":"Polygon","coordinates":[[[-98.245554,29.687019],[-98.235216,29.671734],[-98.236317,29.671241],[-98.229629,29.660751],[-98.22768,29.661805],[-98.223902,29.655721],[-98.20638,29.665577],[-98.206528,29.664693],[-98.205488,29.663125],[-98.209855,29.662012],[-98.210023,29.661722],[-98.209494,29.660755],[-98.209134,29.658753],[-98.208237,29.657718],[-98.207637,29.657518],[-98.207715,29.656015],[-98.203209,29.657073],[-98.216524,29.64726],[-98.214813,29.644717],[-98.213703,29.644943],[-98.213144,29.644331],[-98.212073,29.640252],[-98.221633,29.63519],[-98.224749,29.634046],[-98.227071,29.632424],[-98.235542,29.628097],[-98.240129,29.626072],[-98.239457,29.625057],[-98.234532,29.627879],[-98.227635,29.631394],[-98.224736,29.63241],[-98.221563,29.6345],[-98.209887,29.640236],[-98.188728,29.653196],[-98.188362,29.652452],[-98.188329,29.651004],[-98.184425,29.64361],[-98.201988,29.636326],[-98.242529,29.621445],[-98.268089,29.611527],[-98.278726,29.606925],[-98.28989,29.602427],[-98.310928,29.594473],[-98.310837,29.598332],[-98.311372,29.599178],[-98.311875,29.601241],[-98.312462,29.601983],[-98.314806,29.602844],[-98.318058,29.602023],[-98.320456,29.601939],[-98.322867,29.602473],[-98.326234,29.604079],[-98.326506,29.604689],[-98.327848,29.605905],[-98.327967,29.606901],[-98.328651,29.608233],[-98.311859,29.611779],[-98.301091,29.616977],[-98.269778,29.628095],[-98.262562,29.632237],[-98.264195,29.63482],[-98.264353,29.635615],[-98.260973,29.637678],[-98.25738,29.640692],[-98.254819,29.642392],[-98.256177,29.643904],[-98.25396,29.645217],[-98.256018,29.651315],[-98.259469,29.652053],[-98.2604,29.652075],[-98.261673,29.651917],[-98.263273,29.651229],[-98.266019,29.650873],[-98.270176,29.65143],[-98.271889,29.651948],[-98.273148,29.652713],[-98.273563,29.653813],[-98.273418,29.655568],[-98.271232,29.656359],[-98.268498,29.656716],[-98.265033,29.657826],[-98.264025,29.658381],[-98.263156,29.659498],[-98.263181,29.660296],[-98.26388,29.66067],[-98.268755,29.660672],[-98.270279,29.661085],[-98.271677,29.662208],[-98.272218,29.662994],[-98.272665,29.66497],[-98.272576,29.665503],[-98.271776,29.667005],[-98.270875,29.667654],[-98.266943,29.669523],[-98.2647,29.67016],[-98.262659,29.669741],[-98.261363,29.667568],[-98.261117,29.666764],[-98.259013,29.667803],[-98.255697,29.671526],[-98.255042,29.67129],[-98.254885,29.671625],[-98.255118,29.671818],[-98.252445,29.674011],[-98.252508,29.674353],[-98.250939,29.675936],[-98.250907,29.676492],[-98.250396,29.677328],[-98.250452,29.678285],[-98.254614,29.681786],[-98.255873,29.683151],[-98.256311,29.684002],[-98.253462,29.684402],[-98.252866,29.683291],[-98.245554,29.687019]]]}}]}