{"type":"FeatureCollection","features":[{"type":"Feature","properties":{"PRECINCT":"101","VTD":"0101"},"geometry":{"type":"Polygon","coordinates":[[[-100.255774,34.443545],[-100.236233,34.437892],[-100.23602,34.43807],[-100.236096,34.437854],[-100.234205,34.437308],[-100.234114,34.437516],[-100.233479,34.437333],[-100.220235,34.432316],[-100.21921,34.434216],[-100.212306,34.431644],[-100.213334,34.429749],[-100.212191,34.429318],[-100.214841,34.424457],[-100.211309,34.423307],[-100.211634,34.422819],[-100.208066,34.421493],[-100.211671,34.422761],[-100.211887,34.422412],[-100.21133,34.422203],[-100.215417,34.414671],[-100.215042,34.413953],[-100.215423,34.413834],[-100.215154,34.41362],[-100.215302,34.412785],[-100.21644,34.412808],[-100.216769,34.412523],[-100.217181,34.412509],[-100.217054,34.412274],[-100.216474,34.412247],[-100.216093,34.411477],[-100.209486,34.409109],[-100.211911,34.349549],[-100.211165,34.347907],[-100.212026,34.344148],[-100.212988,34.320212],[-100.211124,34.317287],[-100.210656,34.314961],[-100.210536,34.31218],[-100.250654,34.312191],[-100.347947,34.312737],[-100.362518,34.312543],[-100.380835,34.312822],[-100.399581,34.31354],[-100.417783,34.313524],[-100.417731,34.362254],[-100.415952,34.500059],[-100.415879,34.528998],[-100.410197,34.526274],[-100.403294,34.521119],[-100.40152,34.519602],[-100.396003,34.513738],[-100.376262,34.502814],[-100.373949,34.502157],[-100.363306,34.500881],[-100.361626,34.500457],[-100.359688,34.499604],[-100.341451,34.484495],[-100.340065,34.483514],[-100.338385,34.482728],[-100.338507,34.482512],[-100.33183,34.480874],[-100.329471,34.479986],[-100.284606,34.456232],[-100.273049,34.451091],[-100.255774,34.443545]]]}},{"type":"Feature","properties":{"PRECINCT":"201","VTD":"0201"},"geometry":{"type":"Polygon","coordinates":[[[-99.997857,34.434436],[-99.997786,34.402131],[-99.998006,34.396821],[-99.997782,34.383149],[-99.997753,34.33261],[-99.997526,34.322976],[-99.99772,34.311829],[-100.12318,34.31229],[-100.134601,34.311976],[-100.210536,34.31218],[-100.210656,34.314961],[-100.211124,34.317287],[-100.212988,34.320212],[-100.212026,34.344148],[-100.211165,34.347907],[-100.211911,34.349549],[-100.209486,34.409109],[-100.216093,34.411477],[-100.216474,34.412247],[-100.217054,34.412274],[-100.217181,34.412509],[-100.216769,34.412523],[-100.21644,34.412808],[-100.215302,34.412785],[-100.215154,34.41362],[-100.215423,34.413834],[-100.215042,34.413953],[-100.215417,34.414671],[-100.21133,34.422203],[-100.211887,34.422412],[-100.211671,34.422761],[-100.201017,34.418818],[-100.200757,34.41935],[-100.199592,34.418905],[-100.199073,34.419856],[-100.191721,34.417146],[-100.190856,34.438296],[-100.186879,34.439067],[-100.054586,34.435639],[-99.997857,34.434436]]]}},{"type":"Feature","properties":{"PRECINCT":"301","VTD":"0301"},"geometry":{"type":"Polygon","coordinates":[[[-100.123561,34.561142],[-100.120275,34.555871],[-100.117434,34.555041],[-100.117178,34.551209],[-100.117944,34.549725],[-100.117694,34.54844],[-100.116026,34.546297],[-100.113882,34.544378],[-100.112586,34.544083],[-100.109348,34.544175],[-100.106713,34.545632],[-100.100225,34.552206],[-100.098642,34.554576],[-100.095707,34.558105],[-100.093133,34.558208],[-100.089747,34.557121],[-100.085695,34.554789],[-100.083595,34.554989],[-100.081214,34.55579],[-100.079525,34.555902],[-100.074999,34.555457],[-100.074325,34.555141],[-100.074054,34.55302],[-100.072724,34.553199],[-100.070485,34.554077],[-100.069034,34.555009],[-100.065938,34.555542],[-100.065279,34.555421],[-100.064774,34.555876],[-100.062611,34.556152],[-100.060825,34.556044],[-100.059451,34.556441],[-100.054404,34.556961],[-100.053086,34.557929],[-100.051354,34.558701],[-100.051702,34.560958],[-100.050879,34.561417],[-100.05021,34.562521],[-100.048982,34.563311],[-100.044606,34.564057],[-100.043355,34.564792],[-100.038003,34.564721],[-100.034169,34.566032],[-100.026306,34.570564],[-100.013437,34.571137],[-100.001483,34.57023],[-100.000208,34.570457],[-100.000417,34.569443],[-100.000277,34.56045],[-99.99962,34.56017],[-99.998833,34.560542],[-99.997501,34.560574],[-99.997857,34.434436],[-100.054586,34.435639],[-100.187269,34.439056],[-100.190856,34.438296],[-100.191721,34.417146],[-100.199073,34.419856],[-100.199592,34.418905],[-100.200757,34.41935],[-100.201017,34.418818],[-100.211634,34.422819],[-100.211309,34.423307],[-100.214841,34.424457],[-100.212191,34.429318],[-100.213334,34.429749],[-100.212814,34.430712],[-100.210516,34.42985],[-100.208589,34.433492],[-100.208079,34.445268],[-100.225446,34.445739],[-100.225227,34.450219],[-100.241643,34.439693],[-100.255654,34.443755],[-100.283123,34.455788],[-100.322859,34.476778],[-100.341494,34.505872],[-100.351044,34.51729],[-100.351185,34.519761],[-100.350326,34.519757],[-100.348425,34.518662],[-100.347721,34.518761],[-100.341619,34.518196],[-100.337346,34.520207],[-100.334072,34.522788],[-100.327975,34.525545],[-100.326206,34.527509],[-100.325626,34.528722],[-100.32282,34.530966],[-100.31981,34.533898],[-100.318395,34.535668],[-100.31637,34.538881],[-100.313199,34.541163],[-100.312346,34.542615],[-100.309405,34.546322],[-100.309867,34.547023],[-100.310496,34.54741],[-100.310538,34.54816],[-100.309993,34.549433],[-100.310286,34.551929],[-100.309483,34.554089],[-100.309944,34.556829],[-100.309392,34.557977],[-100.309434,34.558728],[-100.308582,34.560012],[-100.308211,34.561655],[-100.306598,34.563093],[-100.30569,34.563377],[-100.303273,34.564963],[-100.302749,34.563954],[-100.302543,34.560204],[-100.298729,34.563937],[-100.297753,34.564327],[-100.295309,34.564785],[-100.292338,34.567053],[-100.290548,34.567581],[-100.290456,34.567929],[-100.289454,34.568585],[-100.286674,34.569216],[-100.283944,34.569331],[-100.281694,34.56839],[-100.275755,34.567056],[-100.274707,34.5671],[-100.273951,34.566872],[-100.272956,34.567108],[-100.271601,34.565876],[-100.270819,34.563784],[-100.26933,34.562531],[-100.268041,34.562092],[-100.26365,34.562587],[-100.26172,34.56369],[-100.260574,34.563576],[-100.259603,34.563163],[-100.258211,34.563069],[-100.257565,34.563316],[-100.256854,34.563097],[-100.25568,34.563099],[-100.254929,34.563427],[-100.252537,34.563039],[-100.252222,34.562805],[-100.251102,34.56302],[-100.24973,34.561839],[-100.248397,34.562632],[-100.247301,34.562063],[-100.244294,34.562417],[-100.241375,34.56191],[-100.238415,34.561876],[-100.234303,34.563361],[-100.23153,34.563674],[-100.230412,34.563995],[-100.228179,34.565143],[-100.226853,34.56498],[-100.226224,34.56536],[-100.224621,34.564987],[-100.222402,34.565981],[-100.220983,34.565884],[-100.218737,34.566576],[-100.2179,34.56648],[-100.217295,34.566793],[-100.211577,34.565705],[-100.208734,34.566587],[-100.207195,34.566791],[-100.203172,34.566189],[-100.20119,34.566226],[-100.19904,34.565365],[-100.197675,34.565117],[-100.195141,34.567732],[-100.193229,34.567523],[-100.173226,34.561677],[-100.166611,34.561761],[-100.16259,34.559771],[-100.159182,34.561371],[-100.152113,34.565977],[-100.148577,34.570055],[-100.146583,34.571321],[-100.145168,34.571617],[-100.143307,34.571674],[-100.133152,34.566207],[-100.125755,34.563072],[-100.123561,34.561142]]]}},{"type":"Feature","properties":{"PRECINCT":"401","VTD":"0401"},"geometry":{"type":"Polygon","coordinates":[[[-100.415895,34.747525],[-100.382256,34.747524],[-100.375398,34.747128],[-100.371099,34.747124],[-100.214289,34.747027],[-100.046981,34.747061],[-100.02924,34.746563],[-100.000403,34.746405],[-100.000372,34.659853],[-100.000095,34.652869],[-100.00042,34.652598],[-100.000402,34.601438],[-100.000184,34.597379],[-100.000437,34.57433],[-100.000116,34.573133],[-100.000208,34.570457],[-100.001483,34.57023],[-100.013437,34.571137],[-100.026306,34.570564],[-100.034169,34.566032],[-100.038003,34.564721],[-100.043355,34.564792],[-100.044606,34.564057],[-100.048982,34.563311],[-100.05021,34.562521],[-100.050879,34.561417],[-100.051702,34.560958],[-100.051354,34.558701],[-100.053086,34.557929],[-100.054404,34.556961],[-100.059451,34.556441],[-100.060825,34.556044],[-100.062611,34.556152],[-100.064774,34.555876],[-100.065279,34.555421],[-100.065938,34.555542],[-100.069034,34.555009],[-100.070485,34.554077],[-100.072724,34.553199],[-100.074054,34.55302],[-100.074325,34.555141],[-100.074999,34.555457],[-100.079525,34.555902],[-100.081214,34.55579],[-100.083595,34.554989],[-100.085695,34.554789],[-100.089747,34.557121],[-100.093133,34.558208],[-100.095707,34.558105],[-100.098642,34.554576],[-100.100225,34.552206],[-100.106713,34.545632],[-100.109348,34.544175],[-100.112586,34.544083],[-100.113882,34.544378],[-100.116026,34.546297],[-100.117694,34.54844],[-100.117944,34.549725],[-100.117178,34.551209],[-100.117434,34.555041],[-100.120275,34.555871],[-100.123561,34.561142],[-100.125755,34.563072],[-100.133152,34.566207],[-100.143307,34.571674],[-100.145168,34.571617],[-100.146583,34.571321],[-100.148577,34.570055],[-100.152113,34.565977],[-100.159182,34.561371],[-100.16259,34.559771],[-100.166611,34.561761],[-100.173226,34.561677],[-100.193229,34.567523],[-100.195141,34.567732],[-100.197675,34.565117],[-100.19904,34.565365],[-100.20119,34.566226],[-100.203172,34.566189],[-100.207195,34.566791],[-100.208734,34.566587],[-100.211577,34.565705],[-100.217295,34.566793],[-100.2179,34.56648],[-100.218737,34.566576],[-100.220983,34.565884],[-100.222402,34.565981],[-100.224621,34.564987],[-100.226224,34.56536],[-100.226853,34.56498],[-100.228179,34.565143],[-100.230002,34.564166],[-100.231394,34.563706],[-100.234212,34.563384],[-100.238263,34.561902],[-100.239612,34.561803],[-100.244294,34.562417],[-100.247401,34.562072],[-100.248397,34.562632],[-100.24973,34.561839],[-100.251102,34.56302],[-100.252222,34.562805],[-100.252537,34.563039],[-100.254929,34.563427],[-100.25568,34.563099],[-100.256854,34.563097],[-100.257565,34.563316],[-100.258211,34.563069],[-100.259603,34.563163],[-100.260574,34.563576],[-100.26172,34.56369],[-100.26365,34.562587],[-100.268041,34.562092],[-100.26933,34.562531],[-100.270819,34.563784],[-100.271601,34.565876],[-100.272956,34.567108],[-100.273951,34.566872],[-100.274707,34.5671],[-100.275755,34.567056],[-100.281694,34.56839],[-100.283944,34.569331],[-100.286674,34.569216],[-100.289355,34.568634],[-100.290317,34.568055],[-100.290548,34.567581],[-100.292338,34.567053],[-100.295309,34.564785],[-100.297753,34.564327],[-100.298729,34.563937],[-100.302543,34.560204],[-100.302749,34.563954],[-100.303273,34.564963],[-100.30569,34.563377],[-100.306598,34.563093],[-100.308211,34.561655],[-100.308582,34.560012],[-100.309434,34.558728],[-100.309392,34.557977],[-100.309944,34.556829],[-100.309483,34.554089],[-100.310286,34.551929],[-100.309993,34.549433],[-100.310538,34.54816],[-100.310496,34.54741],[-100.309867,34.547023],[-100.309405,34.546322],[-100.312346,34.542615],[-100.313199,34.541163],[-100.31637,34.538881],[-100.318395,34.535668],[-100.31981,34.533898],[-100.32282,34.530966],[-100.325626,34.528722],[-100.326206,34.527509],[-100.327342,34.526134],[-100.328907,34.524971],[-100.334072,34.522788],[-100.337346,34.520207],[-100.341433,34.518255],[-100.342267,34.518169],[-100.347721,34.518761],[-100.348425,34.518662],[-100.350326,34.519757],[-100.351185,34.519761],[-100.351044,34.51729],[-100.341494,34.505872],[-100.322859,34.476778],[-100.283123,34.455788],[-100.255654,34.443755],[-100.241643,34.439693],[-100.225227,34.450219],[-100.225446,34.445739],[-100.208079,34.445268],[-100.208589,34.433492],[-100.210516,34.42985],[-100.212814,34.430712],[-100.212306,34.431644],[-100.21921,34.434216],[-100.220235,34.432316],[-100.233479,34.437333],[-100.234114,34.437516],[-100.234205,34.437308],[-100.236096,34.437854],[-100.23602,34.43807],[-100.236233,34.437892],[-100.239197,34.438736],[-100.254852,34.443239],[-100.257167,34.444102],[-100.284159,34.45601],[-100.329923,34.480202],[-100.33183,34.480874],[-100.338507,34.482512],[-100.338385,34.482728],[-100.340065,34.483514],[-100.341451,34.484495],[-100.359688,34.499604],[-100.361626,34.500457],[-100.363306,34.500881],[-100.373949,34.502157],[-100.376262,34.502814],[-100.396003,34.513738],[-100.40152,34.519602],[-100.403294,34.521119],[-100.410197,34.526274],[-100.415879,34.528998],[-100.415895,34.747525]]]}}]}