{"type":"FeatureCollection","features":[{"type":"Feature","properties":{"PRECINCT":"1","VTD":"0001"},"geometry":{"type":"Polygon","coordinates":[[[-96.625251,29.234372],[-96.61337,29.225583],[-96.62158,29.224553],[-96.63425,29.226365],[-96.633715,29.185204],[-96.633372,29.17637],[-96.633529,29.176118],[-96.635046,29.176111],[-96.635162,29.174417],[-96.63497,29.173482],[-96.634585,29.149945],[-96.618205,29.150101],[-96.617929,29.140664],[-96.601529,29.140858],[-96.600809,29.115991],[-96.611011,29.115876],[-96.613052,29.115328],[-96.628256,29.115199],[-96.626292,29.099167],[-96.662136,29.099083],[-96.662059,29.097733],[-96.662291,29.096645],[-96.66749,29.087085],[-96.67282,29.079764],[-96.67304,29.078581],[-96.672826,29.0712],[-96.674203,29.066534],[-96.675165,29.065723],[-96.681104,29.063566],[-96.682901,29.061152],[-96.684426,29.059745],[-96.682122,29.057783],[-96.679948,29.054973],[-96.654842,29.00786],[-96.653583,29.004353],[-96.652673,28.996785],[-96.651115,28.997946],[-96.651051,28.997313],[-96.648287,28.994734],[-96.651729,28.991678],[-96.651416,28.990138],[-96.649627,28.988446],[-96.644054,28.991823],[-96.640036,28.988276],[-96.638692,28.989456],[-96.637181,28.987467],[-96.639358,28.985606],[-96.63849,28.98482],[-96.637807,28.984707],[-96.637524,28.982338],[-96.642112,28.980642],[-96.644895,28.979353],[-96.646583,28.98085],[-96.657418,28.97518],[-96.657923,28.975907],[-96.658806,28.975456],[-96.657979,28.974172],[-96.669241,28.968624],[-96.667548,28.968196],[-96.666169,28.968384],[-96.671708,28.965529],[-96.675085,28.964107],[-96.680797,28.961011],[-96.680914,28.961212],[-96.683586,28.960431],[-96.691532,28.9597],[-96.692882,28.959287],[-96.695168,28.958178],[-96.701031,28.954868],[-96.711285,28.946265],[-96.722334,28.940424],[-96.727391,28.938188],[-96.748309,28.927316],[-96.754091,28.923579],[-96.773682,28.913371],[-96.774218,28.914515],[-96.77604,28.915959],[-96.780025,28.915685],[-96.78216,28.914975],[-96.783827,28.915067],[-96.784868,28.915732],[-96.785441,28.917037],[-96.78716,28.917862],[-96.790154,28.917703],[-96.790858,28.917909],[-96.791665,28.918299],[-96.792133,28.918803],[-96.792133,28.920109],[-96.791377,28.922034],[-96.791403,28.923088],[-96.794163,28.926113],[-96.794163,28.926823],[-96.793173,28.928908],[-96.793303,28.92971],[-96.795386,28.931612],[-96.79971,28.933034],[-96.801742,28.935394],[-96.800595,28.938648],[-96.800595,28.939517],[-96.802861,28.943046],[-96.803277,28.944192],[-96.80471,28.944742],[-96.804736,28.945269],[-96.803772,28.94834],[-96.803798,28.949083],[-96.804449,28.950906],[-96.804422,28.952762],[-96.805647,28.95416],[-96.807418,28.955283],[-96.807783,28.95597],[-96.807444,28.957781],[-96.808564,28.960485],[-96.809136,28.964654],[-96.808485,28.965593],[-96.808224,28.967037],[-96.808407,28.968366],[-96.805592,28.972238],[-96.805592,28.972651],[-96.806139,28.972971],[-96.808224,28.972857],[-96.809396,28.97327],[-96.810386,28.974049],[-96.810699,28.974805],[-96.810803,28.976088],[-96.81208,28.97728],[-96.811845,28.979067],[-96.811324,28.979823],[-96.811167,28.980717],[-96.812001,28.981954],[-96.812157,28.982802],[-96.813669,28.984108],[-96.815884,28.98459],[-96.816587,28.985117],[-96.816639,28.985392],[-96.815388,28.986469],[-96.815076,28.987179],[-96.815258,28.988003],[-96.816587,28.988942],[-96.817551,28.990455],[-96.817603,28.990959],[-96.816144,28.992494],[-96.816248,28.993479],[-96.816874,28.994121],[-96.818906,28.994831],[-96.81974,28.995771],[-96.821096,28.996275],[-96.821591,28.996756],[-96.821799,28.999391],[-96.825115,29.004229],[-96.824959,29.006039],[-96.825218,29.006382],[-96.826236,29.006704],[-96.826862,29.007414],[-96.826784,29.008422],[-96.825611,29.009842],[-96.825611,29.010346],[-96.825872,29.01069],[-96.826862,29.011057],[-96.82754,29.011836],[-96.828557,29.014127],[-96.829105,29.016052],[-96.831138,29.018205],[-96.832103,29.021299],[-96.832755,29.021619],[-96.834319,29.021069],[-96.83531,29.021138],[-96.836274,29.021894],[-96.83617,29.023498],[-96.836979,29.024048],[-96.838282,29.024506],[-96.838795,29.025327],[-96.918354,29.055548],[-96.922427,29.057317],[-96.923454,29.05751],[-96.938587,29.063244],[-96.875259,29.110061],[-96.741549,29.204546],[-96.67717,29.25025],[-96.658466,29.263876],[-96.625251,29.234372]]]}},{"type":"Feature","properties":{"PRECINCT":"2","VTD":"0002"},"geometry":{"type":"Polygon","coordinates":[[[-96.63425,29.226365],[-96.620794,29.224557],[-96.61337,29.225583],[-96.500248,29.127818],[-96.497059,29.125255],[-96.489132,29.118166],[-96.338732,28.988812],[-96.331515,28.982818],[-96.309178,28.963291],[-96.31006,28.941035],[-96.321339,28.940913],[-96.323487,28.941079],[-96.3261,28.941623],[-96.329341,28.942834],[-96.349693,28.952595],[-96.353319,28.953347],[-96.460505,28.951196],[-96.493791,28.950763],[-96.531576,28.95358],[-96.531291,28.956131],[-96.53146,28.957043],[-96.533572,28.962163],[-96.533226,28.964782],[-96.532562,28.965617],[-96.531545,28.965927],[-96.531807,28.966436],[-96.533375,28.967515],[-96.5328,28.96869],[-96.532742,28.96935],[-96.532939,28.970028],[-96.534229,28.971606],[-96.53427,28.972533],[-96.533397,28.976173],[-96.532802,28.976267],[-96.530805,28.974872],[-96.530321,28.974774],[-96.529538,28.975649],[-96.529938,28.977544],[-96.529782,28.97926],[-96.530589,28.980489],[-96.530829,28.981675],[-96.531612,28.98242],[-96.532781,28.982877],[-96.533961,28.983019],[-96.534722,28.982861],[-96.536349,28.981659],[-96.538218,28.981546],[-96.539154,28.98105],[-96.54048,28.979782],[-96.541166,28.979889],[-96.541852,28.981513],[-96.545966,28.987165],[-96.546043,28.987955],[-96.545602,28.989896],[-96.545727,28.990445],[-96.547433,28.993128],[-96.547192,28.993635],[-96.547509,28.995781],[-96.547413,28.996538],[-96.546123,28.997928],[-96.546165,28.998669],[-96.546675,28.999075],[-96.549712,28.999507],[-96.550625,28.999978],[-96.550876,29.000666],[-96.551501,29.001116],[-96.553039,29.000627],[-96.553855,29.000771],[-96.554545,29.001343],[-96.555694,29.004248],[-96.555974,29.005354],[-96.555373,29.008297],[-96.55461,29.009834],[-96.554414,29.01124],[-96.553578,29.012932],[-96.554131,29.015621],[-96.553891,29.017375],[-96.554081,29.018837],[-96.553699,29.02169],[-96.553609,29.022151],[-96.552274,29.022939],[-96.552038,29.023464],[-96.551904,29.024265],[-96.552321,29.02512],[-96.559237,29.022079],[-96.601139,29.000231],[-96.60196,28.999551],[-96.607889,28.996668],[-96.630273,28.984988],[-96.625329,28.978144],[-96.62595,28.977379],[-96.637532,28.982006],[-96.637807,28.984707],[-96.63849,28.98482],[-96.639358,28.985606],[-96.637181,28.987467],[-96.638692,28.989456],[-96.640036,28.988276],[-96.644054,28.991823],[-96.649627,28.988446],[-96.651416,28.990138],[-96.651729,28.991678],[-96.648287,28.994734],[-96.651051,28.997313],[-96.651115,28.997946],[-96.652673,28.996785],[-96.653583,29.004353],[-96.654842,29.00786],[-96.679948,29.054973],[-96.682122,29.057783],[-96.684426,29.059745],[-96.682901,29.061152],[-96.681104,29.063566],[-96.675165,29.065723],[-96.674203,29.066534],[-96.672826,29.0712],[-96.67304,29.078581],[-96.67282,29.079764],[-96.66749,29.087085],[-96.662291,29.096645],[-96.662059,29.097733],[-96.662136,29.099083],[-96.626292,29.099167],[-96.628256,29.115199],[-96.613052,29.115328],[-96.611011,29.115876],[-96.600809,29.115991],[-96.601529,29.140858],[-96.617929,29.140664],[-96.618205,29.150101],[-96.634585,29.149945],[-96.63497,29.173482],[-96.635162,29.174417],[-96.635046,29.176111],[-96.633529,29.176118],[-96.633372,29.17637],[-96.633715,29.185204],[-96.63425,29.226365]]]}},{"type":"Feature","properties":{"PRECINCT":"3","VTD":"0003"},"geometry":{"type":"Polygon","coordinates":[[[-96.647719,28.975034],[-96.646916,28.974351],[-96.646119,28.975109],[-96.63963,28.969562],[-96.637886,28.971188],[-96.613112,28.956542],[-96.610531,28.955298],[-96.607956,28.954509],[-96.602086,28.953501],[-96.597833,28.953264],[-96.544965,28.953835],[-96.531576,28.95358],[-96.532008,28.951033],[-96.531843,28.949557],[-96.530313,28.949687],[-96.529964,28.950016],[-96.530273,28.95038],[-96.53036,28.951009],[-96.529855,28.951418],[-96.528958,28.951439],[-96.527524,28.950876],[-96.526185,28.949903],[-96.526007,28.949008],[-96.526524,28.948389],[-96.527203,28.94807],[-96.528417,28.948502],[-96.528731,28.948084],[-96.528596,28.947656],[-96.527202,28.946562],[-96.526734,28.945327],[-96.527101,28.945046],[-96.527944,28.944961],[-96.529378,28.94533],[-96.530304,28.945269],[-96.531175,28.944926],[-96.532481,28.943755],[-96.534189,28.941158],[-96.533849,28.938223],[-96.533974,28.937191],[-96.53439,28.9365],[-96.536152,28.935628],[-96.538019,28.933919],[-96.538786,28.931004],[-96.540326,28.930406],[-96.540412,28.929907],[-96.539885,28.929171],[-96.539757,28.927615],[-96.540352,28.925917],[-96.540483,28.923813],[-96.541988,28.921498],[-96.542056,28.920797],[-96.539758,28.917893],[-96.539698,28.917159],[-96.540821,28.916068],[-96.541863,28.914605],[-96.54269,28.913931],[-96.543396,28.913708],[-96.544209,28.913768],[-96.545727,28.915524],[-96.54646,28.915374],[-96.547524,28.914709],[-96.548649,28.914722],[-96.549242,28.915143],[-96.549669,28.917217],[-96.550141,28.917823],[-96.551273,28.918312],[-96.552087,28.918251],[-96.552475,28.917615],[-96.55192,28.917057],[-96.55165,28.916266],[-96.553008,28.913869],[-96.552968,28.912933],[-96.552459,28.912415],[-96.551864,28.91234],[-96.551557,28.911799],[-96.552072,28.911293],[-96.55308,28.91091],[-96.553764,28.911252],[-96.554579,28.912698],[-96.555944,28.912478],[-96.556551,28.911973],[-96.556399,28.911295],[-96.555631,28.911308],[-96.554757,28.910595],[-96.554498,28.909417],[-96.55491,28.907758],[-96.555835,28.90752],[-96.556566,28.907708],[-96.557694,28.908704],[-96.558274,28.908166],[-96.557605,28.906624],[-96.559242,28.905002],[-96.559477,28.903908],[-96.559128,28.899303],[-96.559559,28.898982],[-96.560519,28.899139],[-96.561283,28.899836],[-96.561895,28.899999],[-96.562392,28.899526],[-96.562637,28.898197],[-96.563044,28.897392],[-96.56398,28.896823],[-96.565583,28.896378],[-96.567675,28.896693],[-96.568459,28.89726],[-96.56939,28.897562],[-96.570087,28.897275],[-96.570851,28.896311],[-96.571906,28.895678],[-96.574074,28.895751],[-96.574656,28.896261],[-96.575241,28.896255],[-96.576139,28.894405],[-96.576681,28.892198],[-96.578321,28.8916],[-96.578386,28.890648],[-96.577782,28.889414],[-96.575587,28.886068],[-96.575691,28.885197],[-96.576602,28.884418],[-96.578424,28.88396],[-96.580194,28.883982],[-96.580533,28.883822],[-96.580819,28.883134],[-96.57996,28.882424],[-96.579959,28.881096],[-96.579204,28.879882],[-96.579412,28.878714],[-96.579699,28.878347],[-96.58074,28.878324],[-96.581886,28.879378],[-96.582797,28.879469],[-96.58402,28.877774],[-96.584281,28.877224],[-96.58428,28.876353],[-96.583363,28.874091],[-96.582817,28.873449],[-96.581515,28.872716],[-96.581073,28.87267],[-96.579927,28.873518],[-96.578755,28.87377],[-96.577844,28.873404],[-96.577089,28.87267],[-96.576283,28.872464],[-96.575554,28.872831],[-96.574799,28.873976],[-96.573107,28.874794],[-96.572274,28.874783],[-96.572014,28.874572],[-96.571832,28.873427],[-96.572509,28.872464],[-96.575189,28.870554],[-96.578247,28.866964],[-96.580482,28.862608],[-96.581266,28.860394],[-96.58282,28.854086],[-96.582834,28.851162],[-96.581861,28.841335],[-96.581318,28.838969],[-96.58052,28.83683],[-96.57964,28.835087],[-96.577828,28.83293],[-96.578851,28.832525],[-96.579508,28.833172],[-96.57943,28.833767],[-96.580028,28.833836],[-96.582916,28.835096],[-96.584269,28.835967],[-96.586637,28.836722],[-96.58786,28.836516],[-96.588302,28.836172],[-96.589057,28.834866],[-96.589629,28.834385],[-96.590409,28.834247],[-96.591554,28.834614],[-96.592856,28.836149],[-96.593689,28.839035],[-96.592571,28.842908],[-96.592884,28.846046],[-96.59278,28.849208],[-96.593145,28.849873],[-96.594134,28.850262],[-96.594654,28.850056],[-96.595279,28.849185],[-96.596085,28.848658],[-96.599103,28.848176],[-96.600119,28.848772],[-96.60116,28.850398],[-96.601213,28.852437],[-96.600771,28.854018],[-96.59999,28.855737],[-96.598638,28.857295],[-96.59653,28.858853],[-96.595463,28.859288],[-96.593589,28.859563],[-96.590466,28.859014],[-96.589009,28.85961],[-96.588358,28.860183],[-96.588229,28.861099],[-96.588515,28.861718],[-96.590415,28.862313],[-96.59156,28.863138],[-96.591846,28.86355],[-96.591847,28.86536],[-96.592315,28.865818],[-96.592914,28.865658],[-96.593278,28.865245],[-96.593512,28.863985],[-96.594189,28.863092],[-96.59562,28.86245],[-96.597208,28.86261],[-96.600618,28.864992],[-96.602413,28.865496],[-96.605042,28.864762],[-96.612016,28.860246],[-96.614879,28.860314],[-96.61566,28.86052],[-96.616128,28.86091],[-96.616259,28.861551],[-96.615922,28.862399],[-96.614416,28.864643],[-96.612599,28.868032],[-96.612081,28.869522],[-96.612083,28.871056],[-96.611539,28.872682],[-96.611542,28.87483],[-96.611733,28.876178],[-96.612884,28.87936],[-96.613774,28.882795],[-96.615158,28.885221],[-96.615447,28.886755],[-96.616177,28.88735],[-96.616908,28.887739],[-96.623632,28.888879],[-96.625295,28.888726],[-96.626908,28.8883],[-96.628993,28.887521],[-96.630609,28.887223],[-96.635334,28.885742],[-96.637695,28.88577],[-96.640367,28.885202],[-96.643531,28.885208],[-96.647562,28.885991],[-96.64829,28.886518],[-96.648576,28.887228],[-96.648185,28.889747],[-96.647898,28.89032],[-96.646232,28.891465],[-96.645997,28.89245],[-96.646048,28.894444],[-96.64701,28.897835],[-96.647217,28.902349],[-96.644897,28.90803],[-96.644923,28.908832],[-96.645651,28.910207],[-96.647499,28.911308],[-96.650129,28.912202],[-96.652628,28.912707],[-96.653276,28.911341],[-96.655439,28.911439],[-96.660461,28.908758],[-96.690516,28.890038],[-96.703767,28.877976],[-96.706832,28.874831],[-96.718857,28.864081],[-96.719403,28.862317],[-96.719012,28.860759],[-96.720522,28.861057],[-96.722084,28.861835],[-96.722474,28.862935],[-96.723802,28.864424],[-96.723803,28.86573],[-96.724375,28.866555],[-96.724402,28.867219],[-96.725391,28.868182],[-96.725417,28.86896],[-96.725938,28.86967],[-96.726979,28.870426],[-96.728593,28.870265],[-96.729791,28.870906],[-96.729973,28.871273],[-96.729635,28.873771],[-96.730052,28.874275],[-96.73193,28.875265],[-96.732505,28.87616],[-96.732506,28.877076],[-96.731466,28.880812],[-96.731701,28.882553],[-96.732404,28.884317],[-96.732119,28.886219],[-96.733031,28.888235],[-96.733682,28.889014],[-96.734698,28.889838],[-96.737927,28.891579],[-96.738292,28.891922],[-96.738917,28.893595],[-96.739516,28.893915],[-96.740219,28.893869],[-96.741416,28.893181],[-96.741884,28.892196],[-96.743706,28.891072],[-96.745008,28.890843],[-96.745763,28.891026],[-96.746727,28.892102],[-96.746727,28.892767],[-96.746155,28.894279],[-96.746182,28.895333],[-96.746964,28.896569],[-96.748109,28.896729],[-96.748708,28.896431],[-96.749124,28.896065],[-96.749488,28.895149],[-96.750257,28.89478],[-96.75389,28.895467],[-96.755557,28.896268],[-96.758447,28.896476],[-96.761597,28.898333],[-96.762585,28.899204],[-96.762793,28.900167],[-96.76123,28.901976],[-96.76188,28.903832],[-96.762791,28.905001],[-96.763936,28.905483],[-96.766801,28.905163],[-96.770576,28.905256],[-96.772216,28.905898],[-96.772555,28.906311],[-96.772398,28.907938],[-96.773647,28.909748],[-96.773855,28.91055],[-96.77362,28.911788],[-96.773682,28.913371],[-96.754091,28.923579],[-96.748309,28.927316],[-96.727391,28.938188],[-96.722334,28.940424],[-96.711285,28.946265],[-96.701031,28.954868],[-96.698375,28.95651],[-96.693352,28.959088],[-96.691532,28.9597],[-96.683586,28.960431],[-96.680914,28.961212],[-96.680797,28.961011],[-96.675085,28.964107],[-96.671708,28.965529],[-96.666169,28.968384],[-96.667548,28.968196],[-96.669241,28.968624],[-96.657979,28.974172],[-96.658806,28.975456],[-96.657923,28.975907],[-96.654781,28.971285],[-96.64866,28.974421],[-96.650118,28.976642],[-96.649118,28.977176],[-96.647719,28.975034]]]}},{"type":"Feature","properties":{"PRECINCT":"4","VTD":"0004"},"geometry":{"type":"Polygon","coordinates":[[[-96.349693,28.952595],[-96.328169,28.942313],[-96.324527,28.941277],[-96.321339,28.940913],[-96.31006,28.941035],[-96.311184,28.911478],[-96.312148,28.911638],[-96.312564,28.91228],[-96.313736,28.91315],[-96.315272,28.913425],[-96.315714,28.913814],[-96.315714,28.91457],[-96.314985,28.915212],[-96.314699,28.91622],[-96.31371,28.916517],[-96.31384,28.918488],[-96.313371,28.919152],[-96.313527,28.92016],[-96.312825,28.921511],[-96.343631,28.921045],[-96.354717,28.920689],[-96.354717,28.920429],[-96.360876,28.920197],[-96.380215,28.919701],[-96.380365,28.919537],[-96.379554,28.897181],[-96.380168,28.896412],[-96.380533,28.895152],[-96.380691,28.892198],[-96.381811,28.890755],[-96.38241,28.889496],[-96.382619,28.888167],[-96.38597,28.886514],[-96.387259,28.883145],[-96.388972,28.880545],[-96.393881,28.874346],[-96.394909,28.872546],[-96.395879,28.871446],[-96.396963,28.86844],[-96.397927,28.867845],[-96.401883,28.867824],[-96.405319,28.866519],[-96.406308,28.867069],[-96.407661,28.867001],[-96.408832,28.865718],[-96.409145,28.864916],[-96.409692,28.864619],[-96.409692,28.864138],[-96.411904,28.862695],[-96.412009,28.862076],[-96.41292,28.861091],[-96.413024,28.859969],[-96.413701,28.859694],[-96.414299,28.859878],[-96.415236,28.859695],[-96.416407,28.858366],[-96.416303,28.857793],[-96.413546,28.855868],[-96.413286,28.855456],[-96.413234,28.854952],[-96.414562,28.85257],[-96.414562,28.851745],[-96.413808,28.850188],[-96.413105,28.8495],[-96.412481,28.848355],[-96.411337,28.847324],[-96.411366,28.846354],[-96.412151,28.844929],[-96.412386,28.843874],[-96.410067,28.843598],[-96.407437,28.841327],[-96.406578,28.840272],[-96.406186,28.839103],[-96.406601,28.836628],[-96.406522,28.835321],[-96.405871,28.834472],[-96.404334,28.833829],[-96.403684,28.833348],[-96.403502,28.832935],[-96.403736,28.83048],[-96.404621,28.829195],[-96.404596,28.828299],[-96.402283,28.826117],[-96.39984,28.824209],[-96.399607,28.823727],[-96.399581,28.822923],[-96.399894,28.822005],[-96.400987,28.820835],[-96.402029,28.820214],[-96.402316,28.819572],[-96.402005,28.818975],[-96.401354,28.818698],[-96.399717,28.818603],[-96.398859,28.81789],[-96.399042,28.816858],[-96.400787,28.814103],[-96.400814,28.812683],[-96.400008,28.811835],[-96.399175,28.811605],[-96.396496,28.812292],[-96.395404,28.812246],[-96.394962,28.811902],[-96.39413,28.809886],[-96.393428,28.809404],[-96.391036,28.808716],[-96.390438,28.808258],[-96.39023,28.807204],[-96.390595,28.806448],[-96.392858,28.804433],[-96.393457,28.803219],[-96.393432,28.802577],[-96.393068,28.802165],[-96.392418,28.801912],[-96.390025,28.801339],[-96.389479,28.800766],[-96.389428,28.80017],[-96.389792,28.799529],[-96.392238,28.79717],[-96.394397,28.795659],[-96.39601,28.794033],[-96.399053,28.793852],[-96.402537,28.794196],[-96.404332,28.793716],[-96.404982,28.792662],[-96.404957,28.790692],[-96.405946,28.788997],[-96.406285,28.786454],[-96.407247,28.785332],[-96.409224,28.784897],[-96.412735,28.785447],[-96.414399,28.784898],[-96.415127,28.784188],[-96.416168,28.782378],[-96.416455,28.778392],[-96.418041,28.776422],[-96.41877,28.774567],[-96.419758,28.773399],[-96.41981,28.772689],[-96.41955,28.772254],[-96.42171,28.77246],[-96.4276,28.771674],[-96.43008,28.770393],[-96.432214,28.768748],[-96.433837,28.76676],[-96.436244,28.766163],[-96.441824,28.767954],[-96.443868,28.768001],[-96.446202,28.767323],[-96.446986,28.765554],[-96.447296,28.763138],[-96.447679,28.762233],[-96.452074,28.757193],[-96.452949,28.75629],[-96.453296,28.756286],[-96.451348,28.75308],[-96.451322,28.751545],[-96.450629,28.750269],[-96.450743,28.748152],[-96.450457,28.746984],[-96.450717,28.745174],[-96.450483,28.743662],[-96.451055,28.742929],[-96.450717,28.741669],[-96.450951,28.740615],[-96.450587,28.739721],[-96.449729,28.738599],[-96.448846,28.737774],[-96.447702,28.73743],[-96.445311,28.737155],[-96.439384,28.738507],[-96.436499,28.738805],[-96.435719,28.738323],[-96.43546,28.736972],[-96.436162,28.734589],[-96.435382,28.732642],[-96.43546,28.731061],[-96.435668,28.730717],[-96.436786,28.730167],[-96.437098,28.729572],[-96.436942,28.728793],[-96.437488,28.727877],[-96.43754,28.725082],[-96.43884,28.724097],[-96.439204,28.720753],[-96.439801,28.719538],[-96.439853,28.718691],[-96.439204,28.717591],[-96.437749,28.716995],[-96.437775,28.716697],[-96.438788,28.715552],[-96.438632,28.714292],[-96.438295,28.713925],[-96.436839,28.71294],[-96.436268,28.713032],[-96.435644,28.712459],[-96.435021,28.710947],[-96.433384,28.710099],[-96.433069,28.709479],[-96.43142,28.70801],[-96.428415,28.707137],[-96.428394,28.703523],[-96.478081,28.702535],[-96.476192,28.703683],[-96.474638,28.705227],[-96.474958,28.706343],[-96.475509,28.70675],[-96.52845,28.705642],[-96.52845,28.706568],[-96.52819,28.706911],[-96.528293,28.707828],[-96.529462,28.709753],[-96.529279,28.711769],[-96.529695,28.713029],[-96.529252,28.714472],[-96.531097,28.714816],[-96.531071,28.71532],[-96.531721,28.716077],[-96.533305,28.719056],[-96.533305,28.719812],[-96.532733,28.720041],[-96.532733,28.720247],[-96.533408,28.72153],[-96.533044,28.722424],[-96.533511,28.724599],[-96.530781,28.725904],[-96.530521,28.726752],[-96.529533,28.72682],[-96.529403,28.72705],[-96.529741,28.727622],[-96.529741,28.728928],[-96.530182,28.729822],[-96.529844,28.730624],[-96.529791,28.731724],[-96.52792,28.732983],[-96.527815,28.735228],[-96.528256,28.735916],[-96.528256,28.736557],[-96.527866,28.737313],[-96.527917,28.739123],[-96.528255,28.739902],[-96.527708,28.741346],[-96.52776,28.741827],[-96.529137,28.742858],[-96.529215,28.743843],[-96.530722,28.745998],[-96.531942,28.749228],[-96.532592,28.749854],[-96.53231,28.754447],[-96.533427,28.756807],[-96.535091,28.758664],[-96.535169,28.759351],[-96.536234,28.760634],[-96.535896,28.762627],[-96.537378,28.76343],[-96.538547,28.76469],[-96.538547,28.765652],[-96.539067,28.766912],[-96.538884,28.76831],[-96.539768,28.769754],[-96.539768,28.770304],[-96.539482,28.770692],[-96.538286,28.771512],[-96.537323,28.773771],[-96.537298,28.775116],[-96.535321,28.778309],[-96.535503,28.779314],[-96.536673,28.780065],[-96.536777,28.78148],[-96.537921,28.782848],[-96.537946,28.784263],[-96.537297,28.785062],[-96.536413,28.785539],[-96.535994,28.786355],[-96.511544,28.786508],[-96.511349,28.786766],[-96.511227,28.788545],[-96.511494,28.789109],[-96.511295,28.789657],[-96.510454,28.789127],[-96.509829,28.790135],[-96.504807,28.794669],[-96.502049,28.796317],[-96.501838,28.797308],[-96.501552,28.797245],[-96.501033,28.799514],[-96.500694,28.799955],[-96.499349,28.800372],[-96.498997,28.800888],[-96.499986,28.805977],[-96.500485,28.810389],[-96.499282,28.814282],[-96.499323,28.814935],[-96.502792,28.819354],[-96.503403,28.82532],[-96.504443,28.826127],[-96.504357,28.84119],[-96.503724,28.842696],[-96.502466,28.843641],[-96.500849,28.844046],[-96.498183,28.844036],[-96.497653,28.887422],[-96.524197,28.887107],[-96.524814,28.916456],[-96.524584,28.917151],[-96.523885,28.917704],[-96.519922,28.917969],[-96.519165,28.918462],[-96.518897,28.919069],[-96.519106,28.931211],[-96.517092,28.939469],[-96.517158,28.952539],[-96.493791,28.950763],[-96.460505,28.951196],[-96.353319,28.953347],[-96.349693,28.952595]]]}},{"type":"Feature","properties":{"PRECINCT":"5","VTD":"0005"},"geometry":{"type":"Polygon","coordinates":[[[-96.647499,28.911308],[-96.645651,28.910207],[-96.644923,28.908832],[-96.644897,28.90803],[-96.647217,28.902349],[-96.64701,28.897835],[-96.646048,28.894444],[-96.645997,28.89245],[-96.646232,28.891465],[-96.647898,28.89032],[-96.648185,28.889747],[-96.648576,28.887228],[-96.64829,28.886518],[-96.647562,28.885991],[-96.643531,28.885208],[-96.640367,28.885202],[-96.637695,28.88577],[-96.635334,28.885742],[-96.630609,28.887223],[-96.628993,28.887521],[-96.626908,28.8883],[-96.625295,28.888726],[-96.623632,28.888879],[-96.616908,28.887739],[-96.615447,28.886755],[-96.615158,28.885221],[-96.613774,28.882795],[-96.612884,28.87936],[-96.611733,28.876178],[-96.611539,28.872682],[-96.612083,28.871056],[-96.612081,28.869522],[-96.612599,28.868032],[-96.614416,28.864643],[-96.615922,28.862399],[-96.616259,28.861551],[-96.616128,28.86091],[-96.61566,28.86052],[-96.614879,28.860314],[-96.612016,28.860246],[-96.605042,28.864762],[-96.602413,28.865496],[-96.600618,28.864992],[-96.597208,28.86261],[-96.59562,28.86245],[-96.594189,28.863092],[-96.593512,28.863985],[-96.593278,28.865245],[-96.592914,28.865658],[-96.592315,28.865818],[-96.591847,28.86536],[-96.591846,28.86355],[-96.59156,28.863138],[-96.590415,28.862313],[-96.588515,28.861718],[-96.588229,28.861099],[-96.588358,28.860183],[-96.589009,28.85961],[-96.590466,28.859014],[-96.593589,28.859563],[-96.595463,28.859288],[-96.59653,28.858853],[-96.598638,28.857295],[-96.59999,28.855737],[-96.600771,28.854018],[-96.601213,28.852437],[-96.601264,28.851063],[-96.600873,28.849734],[-96.600119,28.848772],[-96.599103,28.848176],[-96.598661,28.848176],[-96.596085,28.848658],[-96.595279,28.849185],[-96.594654,28.850056],[-96.594134,28.850262],[-96.593145,28.849873],[-96.59278,28.849208],[-96.592884,28.846046],[-96.592571,28.842908],[-96.593689,28.839035],[-96.593533,28.838004],[-96.592439,28.835461],[-96.591554,28.834614],[-96.590019,28.83427],[-96.589057,28.834866],[-96.588302,28.836172],[-96.58786,28.836516],[-96.586637,28.836722],[-96.584269,28.835967],[-96.582916,28.835096],[-96.580028,28.833836],[-96.57943,28.833767],[-96.579508,28.833172],[-96.578851,28.832525],[-96.577828,28.83293],[-96.577493,28.832435],[-96.574221,28.825962],[-96.57535,28.822486],[-96.575883,28.818986],[-96.574622,28.807738],[-96.575168,28.805806],[-96.576251,28.803859],[-96.577875,28.80194],[-96.584335,28.796636],[-96.588632,28.792766],[-96.589678,28.790162],[-96.589438,28.788748],[-96.588374,28.786552],[-96.582752,28.77923],[-96.579947,28.773577],[-96.576696,28.768669],[-96.575697,28.766078],[-96.575393,28.758139],[-96.575964,28.755046],[-96.586382,28.740379],[-96.587776,28.737429],[-96.588037,28.734897],[-96.586527,28.732265],[-96.584768,28.730779],[-96.581995,28.72909],[-96.578993,28.728206],[-96.577689,28.72743],[-96.576132,28.725832],[-96.574749,28.723251],[-96.575041,28.711257],[-96.574388,28.707165],[-96.57568,28.700271],[-96.575649,28.697753],[-96.576558,28.697758],[-96.577155,28.697082],[-96.577991,28.696835],[-96.579363,28.696994],[-96.580255,28.697791],[-96.579862,28.698044],[-96.579918,28.698643],[-96.579363,28.700447],[-96.578733,28.702223],[-96.577929,28.703147],[-96.577711,28.704445],[-96.576806,28.705105],[-96.577898,28.704577],[-96.577611,28.706397],[-96.577798,28.707475],[-96.578491,28.70858],[-96.578828,28.710499],[-96.579657,28.712335],[-96.580088,28.716558],[-96.580899,28.717636],[-96.580868,28.717927],[-96.581242,28.718202],[-96.580637,28.718818],[-96.580513,28.719439],[-96.581205,28.719907],[-96.581386,28.72033],[-96.581898,28.720341],[-96.582228,28.720022],[-96.582478,28.720132],[-96.583045,28.721512],[-96.584443,28.723129],[-96.58536,28.724734],[-96.58687,28.725311],[-96.587887,28.725135],[-96.587544,28.726175],[-96.587849,28.726026],[-96.588149,28.726416],[-96.588099,28.725608],[-96.588928,28.725047],[-96.594218,28.724551],[-96.594624,28.724936],[-96.595029,28.72498],[-96.595197,28.724535],[-96.596089,28.724018],[-96.599788,28.722978],[-96.601716,28.72279],[-96.602152,28.722532],[-96.602807,28.722664],[-96.604454,28.722113],[-96.605252,28.722366],[-96.60582,28.722003],[-96.606132,28.722195],[-96.606656,28.72186],[-96.606868,28.72203],[-96.606874,28.721794],[-96.609369,28.721612],[-96.611646,28.721132],[-96.612326,28.720703],[-96.612469,28.72023],[-96.61356,28.71979],[-96.616798,28.719569],[-96.621413,28.718116],[-96.624823,28.717256],[-96.625532,28.717318],[-96.628309,28.715901],[-96.628983,28.715896],[-96.629681,28.715456],[-96.633088,28.714259],[-96.633786,28.714359],[-96.633849,28.713979],[-96.634691,28.713617],[-96.635795,28.713694],[-96.637923,28.712755],[-96.638278,28.712865],[-96.639956,28.712343],[-96.641372,28.712421],[-96.641822,28.71219],[-96.643442,28.712105],[-96.644903,28.711425],[-96.646223,28.71202],[-96.649965,28.715091],[-96.650458,28.715962],[-96.650925,28.717681],[-96.65108,28.719331],[-96.651054,28.720087],[-96.650742,28.720705],[-96.650326,28.72098],[-96.649676,28.720957],[-96.648819,28.720567],[-96.64674,28.718802],[-96.643882,28.717083],[-96.642505,28.716945],[-96.642349,28.717243],[-96.64331,28.718137],[-96.643725,28.719649],[-96.645543,28.721139],[-96.645933,28.721093],[-96.645752,28.720177],[-96.646064,28.720039],[-96.646532,28.720177],[-96.648662,28.721782],[-96.64952,28.72208],[-96.651807,28.72247],[-96.6536,28.72302],[-96.654068,28.72341],[-96.655836,28.723296],[-96.656044,28.722792],[-96.655161,28.721211],[-96.65524,28.719951],[-96.656045,28.720226],[-96.656357,28.720226],[-96.656669,28.719814],[-96.657267,28.719768],[-96.657605,28.720203],[-96.657891,28.720203],[-96.658281,28.719745],[-96.658878,28.719723],[-96.659346,28.719975],[-96.659814,28.720387],[-96.660057,28.721909],[-96.659589,28.722634],[-96.65921,28.724045],[-96.659633,28.72528],[-96.661157,28.727582],[-96.662643,28.732182],[-96.663515,28.733191],[-96.668075,28.735571],[-96.668802,28.736299],[-96.66879,28.737186],[-96.668478,28.737621],[-96.665535,28.739245],[-96.664134,28.740492],[-96.663316,28.742281],[-96.663718,28.7445],[-96.665005,28.746568],[-96.666741,28.748063],[-96.67052,28.7497],[-96.671714,28.751071],[-96.671971,28.75233],[-96.671786,28.754176],[-96.671346,28.75602],[-96.670067,28.75911],[-96.669878,28.760287],[-96.670091,28.761191],[-96.670663,28.76183],[-96.673171,28.763176],[-96.675355,28.763657],[-96.678163,28.763566],[-96.682894,28.763017],[-96.686248,28.76375],[-96.687549,28.76462],[-96.688901,28.766224],[-96.689291,28.767324],[-96.689265,28.768057],[-96.688667,28.768859],[-96.688069,28.769203],[-96.68656,28.769501],[-96.685572,28.770188],[-96.685468,28.771196],[-96.68591,28.77193],[-96.686222,28.772205],[-96.68773,28.772663],[-96.6928,28.772342],[-96.695375,28.772571],[-96.696207,28.772869],[-96.697377,28.773831],[-96.698496,28.775756],[-96.699329,28.777841],[-96.69933,28.778643],[-96.698394,28.779147],[-96.697172,28.779399],[-96.69673,28.77972],[-96.696417,28.780499],[-96.698004,28.785013],[-96.698238,28.786479],[-96.697666,28.787831],[-96.695976,28.790145],[-96.69517,28.791657],[-96.69517,28.79294],[-96.696132,28.796606],[-96.69647,28.797018],[-96.697017,28.797225],[-96.698577,28.797293],[-96.702895,28.795529],[-96.704429,28.795254],[-96.705418,28.79546],[-96.706485,28.796101],[-96.706615,28.797086],[-96.706173,28.797682],[-96.70534,28.798164],[-96.704586,28.798209],[-96.702479,28.797041],[-96.702089,28.797179],[-96.701647,28.798187],[-96.701959,28.79963],[-96.703936,28.801486],[-96.705367,28.802494],[-96.706746,28.804167],[-96.707058,28.805335],[-96.707006,28.806114],[-96.705706,28.812186],[-96.706227,28.814867],[-96.70719,28.815486],[-96.711223,28.815256],[-96.712836,28.815485],[-96.715099,28.816195],[-96.717129,28.816149],[-96.71869,28.816561],[-96.719652,28.817178],[-96.72072,28.819195],[-96.722385,28.820386],[-96.723088,28.821188],[-96.722906,28.821852],[-96.721787,28.822379],[-96.719498,28.822632],[-96.717963,28.823228],[-96.716454,28.823114],[-96.715751,28.823297],[-96.715231,28.823801],[-96.715257,28.824168],[-96.71596,28.824741],[-96.718379,28.824901],[-96.719082,28.82529],[-96.719317,28.826527],[-96.719161,28.827673],[-96.719551,28.828406],[-96.719525,28.829094],[-96.719083,28.829689],[-96.71708,28.829919],[-96.713853,28.829713],[-96.712396,28.830172],[-96.712188,28.830538],[-96.712344,28.831042],[-96.712969,28.831592],[-96.715597,28.833264],[-96.716404,28.834295],[-96.716586,28.834891],[-96.716743,28.837045],[-96.716353,28.838672],[-96.713327,28.84312],[-96.713326,28.843601],[-96.713769,28.844381],[-96.713714,28.845114],[-96.71322,28.845343],[-96.710202,28.844908],[-96.70937,28.844976],[-96.708357,28.845526],[-96.707059,28.8458],[-96.705086,28.847265],[-96.704253,28.848983],[-96.703134,28.849785],[-96.702718,28.85045],[-96.702718,28.851023],[-96.703577,28.852214],[-96.704618,28.85242],[-96.705711,28.853199],[-96.707246,28.853657],[-96.709198,28.853336],[-96.709511,28.853038],[-96.70964,28.851984],[-96.710057,28.851389],[-96.710551,28.851205],[-96.711514,28.851411],[-96.712503,28.852626],[-96.714221,28.853794],[-96.715524,28.855467],[-96.715602,28.856246],[-96.715107,28.857368],[-96.714977,28.859018],[-96.716461,28.858926],[-96.718023,28.86037],[-96.719012,28.860759],[-96.719403,28.862317],[-96.718857,28.864081],[-96.706832,28.874831],[-96.703767,28.877976],[-96.690516,28.890038],[-96.660461,28.908758],[-96.655439,28.911439],[-96.653276,28.911341],[-96.652628,28.912707],[-96.650129,28.912202],[-96.647499,28.911308]]]}},{"type":"Feature","properties":{"PRECINCT":"6","VTD":"0006"},"geometry":{"type":"Polygon","coordinates":[[[-96.553855,29.000771],[-96.553039,29.000627],[-96.551501,29.001116],[-96.550876,29.000666],[-96.550625,28.999978],[-96.549712,28.999507],[-96.546675,28.999075],[-96.546165,28.998669],[-96.546123,28.997928],[-96.547413,28.996538],[-96.547509,28.995781],[-96.547192,28.993635],[-96.547433,28.993128],[-96.545727,28.990445],[-96.545602,28.989896],[-96.546043,28.987955],[-96.545966,28.987165],[-96.541852,28.981513],[-96.541166,28.979889],[-96.54048,28.979782],[-96.539154,28.98105],[-96.538218,28.981546],[-96.536349,28.981659],[-96.534722,28.982861],[-96.533961,28.983019],[-96.532781,28.982877],[-96.531612,28.98242],[-96.530829,28.981675],[-96.530589,28.980489],[-96.529782,28.97926],[-96.529938,28.977544],[-96.529538,28.975649],[-96.530321,28.974774],[-96.530805,28.974872],[-96.532802,28.976267],[-96.533397,28.976173],[-96.53427,28.972533],[-96.534229,28.971606],[-96.532939,28.970028],[-96.532742,28.96935],[-96.5328,28.96869],[-96.533375,28.967515],[-96.531807,28.966436],[-96.531545,28.965927],[-96.532562,28.965617],[-96.533226,28.964782],[-96.533572,28.962163],[-96.53146,28.957043],[-96.531291,28.956131],[-96.531576,28.95358],[-96.544965,28.953835],[-96.597833,28.953264],[-96.604165,28.95378],[-96.608688,28.954699],[-96.612393,28.956143],[-96.637886,28.971188],[-96.63963,28.969562],[-96.646119,28.975109],[-96.646916,28.974351],[-96.647719,28.975034],[-96.649118,28.977176],[-96.650118,28.976642],[-96.64866,28.974421],[-96.654781,28.971285],[-96.657418,28.97518],[-96.646583,28.98085],[-96.644895,28.979353],[-96.642112,28.980642],[-96.637524,28.982338],[-96.637532,28.982006],[-96.62595,28.977379],[-96.625329,28.978144],[-96.630273,28.984988],[-96.607889,28.996668],[-96.60196,28.999551],[-96.601139,29.000231],[-96.559237,29.022079],[-96.552321,29.02512],[-96.551904,29.024265],[-96.552038,29.023464],[-96.552274,29.022939],[-96.553609,29.022151],[-96.554081,29.018837],[-96.553891,29.017375],[-96.554131,29.015621],[-96.553578,29.012932],[-96.554414,29.01124],[-96.55461,29.009834],[-96.555373,29.008297],[-96.555974,29.005354],[-96.55523,29.002763],[-96.554545,29.001343],[-96.553855,29.000771]]]}},{"type":"Feature","properties":{"PRECINCT":"7","VTD":"0007"},"geometry":{"type":"Polygon","coordinates":[[[-96.312148,28.911638],[-96.311184,28.911478],[-96.315301,28.829111],[-96.316154,28.828676],[-96.319357,28.829587],[-96.321101,28.8297],[-96.324434,28.831344],[-96.327143,28.833401],[-96.329356,28.834222],[-96.330372,28.833763],[-96.331231,28.833051],[-96.331284,28.832179],[-96.330999,28.831445],[-96.331311,28.830872],[-96.332639,28.830159],[-96.333759,28.829149],[-96.335816,28.828024],[-96.336987,28.827748],[-96.337847,28.827174],[-96.338316,28.826577],[-96.338316,28.82543],[-96.338656,28.82497],[-96.339905,28.825014],[-96.340425,28.825494],[-96.340844,28.826775],[-96.341391,28.827255],[-96.341964,28.82753],[-96.342719,28.827437],[-96.342979,28.827115],[-96.342721,28.825693],[-96.343762,28.824866],[-96.343762,28.824475],[-96.341891,28.823236],[-96.340618,28.82296],[-96.340384,28.82273],[-96.340488,28.822156],[-96.343326,28.821602],[-96.345643,28.821621],[-96.346059,28.82153],[-96.346761,28.820867],[-96.346488,28.818618],[-96.345935,28.817734],[-96.346288,28.815871],[-96.345918,28.815123],[-96.344765,28.813831],[-96.344556,28.813213],[-96.344556,28.811334],[-96.344894,28.810395],[-96.346298,28.809707],[-96.347806,28.808241],[-96.349989,28.803362],[-96.351628,28.803224],[-96.353422,28.80359],[-96.355112,28.802375],[-96.357219,28.801527],[-96.358337,28.801481],[-96.360365,28.801893],[-96.362888,28.800586],[-96.364994,28.800356],[-96.366034,28.799691],[-96.366605,28.798431],[-96.366475,28.796736],[-96.366656,28.796346],[-96.36728,28.795774],[-96.36871,28.795429],[-96.368788,28.794696],[-96.368216,28.794032],[-96.365406,28.792292],[-96.364834,28.791353],[-96.364808,28.79078],[-96.365171,28.790024],[-96.366315,28.789405],[-96.366861,28.788466],[-96.366652,28.787389],[-96.365482,28.786427],[-96.365143,28.78574],[-96.365351,28.784893],[-96.366702,28.783702],[-96.367196,28.783472],[-96.369302,28.783334],[-96.370186,28.783059],[-96.372085,28.782142],[-96.374034,28.780812],[-96.377036,28.778311],[-96.378597,28.776502],[-96.380314,28.773799],[-96.381381,28.772723],[-96.382343,28.77254],[-96.384527,28.773732],[-96.385722,28.774076],[-96.386736,28.7741],[-96.389649,28.773322],[-96.392691,28.773231],[-96.394797,28.772522],[-96.397163,28.772202],[-96.399607,28.773119],[-96.402752,28.774998],[-96.404442,28.775388],[-96.40569,28.775411],[-96.40699,28.775114],[-96.408682,28.774038],[-96.410424,28.773282],[-96.411776,28.772962],[-96.414064,28.772734],[-96.416872,28.771887],[-96.41955,28.772254],[-96.41981,28.772689],[-96.419758,28.773399],[-96.41877,28.774567],[-96.418041,28.776422],[-96.416455,28.778392],[-96.416168,28.782378],[-96.415127,28.784188],[-96.414399,28.784898],[-96.412735,28.785447],[-96.409224,28.784897],[-96.407247,28.785332],[-96.406285,28.786454],[-96.405946,28.788997],[-96.404957,28.790692],[-96.404982,28.792662],[-96.404332,28.793716],[-96.402537,28.794196],[-96.399053,28.793852],[-96.39601,28.794033],[-96.394397,28.795659],[-96.392238,28.79717],[-96.389792,28.799529],[-96.389428,28.80017],[-96.389479,28.800766],[-96.390025,28.801339],[-96.392418,28.801912],[-96.393068,28.802165],[-96.393432,28.802577],[-96.393457,28.803219],[-96.392858,28.804433],[-96.390595,28.806448],[-96.39023,28.807204],[-96.390438,28.808258],[-96.391036,28.808716],[-96.393428,28.809404],[-96.39413,28.809886],[-96.394962,28.811902],[-96.395404,28.812246],[-96.396496,28.812292],[-96.399175,28.811605],[-96.400008,28.811835],[-96.400814,28.812683],[-96.400787,28.814103],[-96.399042,28.816858],[-96.398859,28.81789],[-96.399717,28.818603],[-96.401354,28.818698],[-96.402005,28.818975],[-96.402316,28.819572],[-96.402029,28.820214],[-96.400987,28.820835],[-96.399894,28.822005],[-96.399581,28.822923],[-96.399607,28.823727],[-96.39984,28.824209],[-96.402283,28.826117],[-96.404596,28.828299],[-96.404621,28.829195],[-96.403736,28.83048],[-96.403502,28.832935],[-96.403684,28.833348],[-96.404334,28.833829],[-96.405871,28.834472],[-96.406522,28.835321],[-96.406601,28.836628],[-96.406186,28.839103],[-96.406578,28.840272],[-96.407437,28.841327],[-96.410067,28.843598],[-96.412386,28.843874],[-96.412151,28.844929],[-96.411366,28.846354],[-96.411337,28.847324],[-96.412481,28.848355],[-96.413105,28.8495],[-96.413808,28.850188],[-96.414562,28.851745],[-96.414562,28.85257],[-96.413234,28.854952],[-96.413286,28.855456],[-96.413546,28.855868],[-96.416303,28.857793],[-96.416407,28.858366],[-96.415236,28.859695],[-96.414299,28.859878],[-96.413701,28.859694],[-96.413024,28.859969],[-96.41292,28.861091],[-96.412009,28.862076],[-96.411904,28.862695],[-96.409692,28.864138],[-96.409692,28.864619],[-96.409145,28.864916],[-96.408832,28.865718],[-96.407661,28.867001],[-96.406308,28.867069],[-96.405319,28.866519],[-96.401883,28.867824],[-96.397927,28.867845],[-96.396963,28.86844],[-96.395879,28.871446],[-96.394909,28.872546],[-96.393881,28.874346],[-96.388972,28.880545],[-96.387259,28.883145],[-96.38597,28.886514],[-96.382619,28.888167],[-96.38241,28.889496],[-96.381811,28.890755],[-96.380691,28.892198],[-96.380533,28.895152],[-96.380168,28.896412],[-96.379554,28.897181],[-96.380365,28.919537],[-96.380215,28.919701],[-96.354717,28.920429],[-96.354717,28.920689],[-96.343631,28.921045],[-96.312825,28.921511],[-96.313527,28.92016],[-96.313371,28.919152],[-96.31384,28.918488],[-96.31371,28.916517],[-96.314699,28.91622],[-96.314985,28.915212],[-96.315714,28.91457],[-96.315714,28.913814],[-96.315272,28.913425],[-96.313736,28.91315],[-96.312564,28.91228],[-96.312148,28.911638]]]}},{"type":"Feature","properties":{"PRECINCT":"8","VTD":"0008"},"geometry":{"type":"Polygon","coordinates":[[[-96.531576,28.95358],[-96.517158,28.952539],[-96.517092,28.939469],[-96.519106,28.931211],[-96.518897,28.919069],[-96.519165,28.918462],[-96.519922,28.917969],[-96.523885,28.917704],[-96.524584,28.917151],[-96.524814,28.916456],[-96.524197,28.887107],[-96.497649,28.887404],[-96.498183,28.844036],[-96.500849,28.844046],[-96.502466,28.843641],[-96.503724,28.842696],[-96.504357,28.84119],[-96.504443,28.826127],[-96.503403,28.82532],[-96.502792,28.819354],[-96.499323,28.814935],[-96.499282,28.814282],[-96.500485,28.810389],[-96.499986,28.805977],[-96.498997,28.800888],[-96.499349,28.800372],[-96.500694,28.799955],[-96.501033,28.799514],[-96.501552,28.797245],[-96.501838,28.797308],[-96.502049,28.796317],[-96.504807,28.794669],[-96.509829,28.790135],[-96.510454,28.789127],[-96.511295,28.789657],[-96.511494,28.789109],[-96.511227,28.788545],[-96.511349,28.786766],[-96.511544,28.786508],[-96.535994,28.786355],[-96.536413,28.785539],[-96.537297,28.785062],[-96.537946,28.784263],[-96.537921,28.782848],[-96.536777,28.78148],[-96.536673,28.780065],[-96.535503,28.779314],[-96.535321,28.778309],[-96.537298,28.775116],[-96.537323,28.773771],[-96.538286,28.771512],[-96.539482,28.770692],[-96.539768,28.770304],[-96.539768,28.769754],[-96.538884,28.76831],[-96.539067,28.766912],[-96.538547,28.765652],[-96.538547,28.76469],[-96.537378,28.76343],[-96.535896,28.762627],[-96.536234,28.760634],[-96.535169,28.759351],[-96.535091,28.758664],[-96.533427,28.756807],[-96.53231,28.754447],[-96.532592,28.749854],[-96.531942,28.749228],[-96.530722,28.745998],[-96.529215,28.743843],[-96.529137,28.742858],[-96.52776,28.741827],[-96.527708,28.741346],[-96.528255,28.739902],[-96.527917,28.739123],[-96.527866,28.737313],[-96.528256,28.736557],[-96.528256,28.735916],[-96.527815,28.735228],[-96.52792,28.732983],[-96.529791,28.731724],[-96.529844,28.730624],[-96.530182,28.729822],[-96.529741,28.728928],[-96.529741,28.727622],[-96.529403,28.72705],[-96.529533,28.72682],[-96.530521,28.726752],[-96.530781,28.725904],[-96.533511,28.724599],[-96.533044,28.722424],[-96.533408,28.72153],[-96.532733,28.720247],[-96.532733,28.720041],[-96.533305,28.719812],[-96.533305,28.719056],[-96.531721,28.716077],[-96.531071,28.71532],[-96.531097,28.714816],[-96.529252,28.714472],[-96.529695,28.713029],[-96.529279,28.711769],[-96.529462,28.709753],[-96.528293,28.707828],[-96.52819,28.706911],[-96.52845,28.706568],[-96.52845,28.705642],[-96.56147,28.704968],[-96.562818,28.704984],[-96.563462,28.7052],[-96.57462,28.705503],[-96.574388,28.707165],[-96.575041,28.711257],[-96.574749,28.723251],[-96.576132,28.725832],[-96.577689,28.72743],[-96.578993,28.728206],[-96.581995,28.72909],[-96.584768,28.730779],[-96.586527,28.732265],[-96.588037,28.734897],[-96.587776,28.737429],[-96.586382,28.740379],[-96.575964,28.755046],[-96.575393,28.758139],[-96.575697,28.766078],[-96.576696,28.768669],[-96.579947,28.773577],[-96.582752,28.77923],[-96.588374,28.786552],[-96.589438,28.788748],[-96.589678,28.790162],[-96.588632,28.792766],[-96.584335,28.796636],[-96.577875,28.80194],[-96.576251,28.803859],[-96.575168,28.805806],[-96.574622,28.807738],[-96.575883,28.818986],[-96.57535,28.822486],[-96.574221,28.825962],[-96.577493,28.832435],[-96.57964,28.835087],[-96.581318,28.838969],[-96.581861,28.841335],[-96.582834,28.851162],[-96.58282,28.854086],[-96.581266,28.860394],[-96.580482,28.862608],[-96.578247,28.866964],[-96.575189,28.870554],[-96.572118,28.872877],[-96.571832,28.873427],[-96.571832,28.874251],[-96.572274,28.874783],[-96.573107,28.874794],[-96.574799,28.873976],[-96.575554,28.872831],[-96.576283,28.872464],[-96.577089,28.87267],[-96.577844,28.873404],[-96.578755,28.87377],[-96.579927,28.873518],[-96.581073,28.87267],[-96.581515,28.872716],[-96.582817,28.873449],[-96.583363,28.874091],[-96.58428,28.876353],[-96.584281,28.877224],[-96.582641,28.879538],[-96.581886,28.879378],[-96.58074,28.878324],[-96.579699,28.878347],[-96.579204,28.879218],[-96.579204,28.879882],[-96.579959,28.881096],[-96.57996,28.882424],[-96.580663,28.882905],[-96.580819,28.883524],[-96.580194,28.883982],[-96.579127,28.883868],[-96.576602,28.884418],[-96.575691,28.885197],[-96.575665,28.886251],[-96.578386,28.890648],[-96.578321,28.8916],[-96.576681,28.892198],[-96.576139,28.894405],[-96.575241,28.896255],[-96.574656,28.896261],[-96.574074,28.895751],[-96.571906,28.895678],[-96.570851,28.896311],[-96.570087,28.897275],[-96.56939,28.897562],[-96.568459,28.89726],[-96.567675,28.896693],[-96.565583,28.896378],[-96.56398,28.896823],[-96.563044,28.897392],[-96.562637,28.898197],[-96.562392,28.899526],[-96.561895,28.899999],[-96.561283,28.899836],[-96.560519,28.899139],[-96.559559,28.898982],[-96.559128,28.899303],[-96.559477,28.903908],[-96.559242,28.905002],[-96.557605,28.906624],[-96.558274,28.908166],[-96.557694,28.908704],[-96.556566,28.907708],[-96.555835,28.90752],[-96.55491,28.907758],[-96.554498,28.909417],[-96.554757,28.910595],[-96.555631,28.911308],[-96.556399,28.911295],[-96.556551,28.911973],[-96.555944,28.912478],[-96.554579,28.912698],[-96.553764,28.911252],[-96.55308,28.91091],[-96.552072,28.911293],[-96.551557,28.911799],[-96.551864,28.91234],[-96.552459,28.912415],[-96.552968,28.912933],[-96.553008,28.913869],[-96.55165,28.916266],[-96.55192,28.917057],[-96.552475,28.917615],[-96.552087,28.918251],[-96.551273,28.918312],[-96.550141,28.917823],[-96.549669,28.917217],[-96.549242,28.915143],[-96.548649,28.914722],[-96.547524,28.914709],[-96.54646,28.915374],[-96.545727,28.915524],[-96.544209,28.913768],[-96.543396,28.913708],[-96.54269,28.913931],[-96.541863,28.914605],[-96.540821,28.916068],[-96.539698,28.917159],[-96.539758,28.917893],[-96.542056,28.920797],[-96.541988,28.921498],[-96.540483,28.923813],[-96.540352,28.925917],[-96.539757,28.927615],[-96.539885,28.929171],[-96.540412,28.929907],[-96.540326,28.930406],[-96.538786,28.931004],[-96.538019,28.933919],[-96.536152,28.935628],[-96.53439,28.9365],[-96.533974,28.937191],[-96.533849,28.938223],[-96.534189,28.941158],[-96.532481,28.943755],[-96.531175,28.944926],[-96.530304,28.945269],[-96.529378,28.94533],[-96.527944,28.944961],[-96.527101,28.945046],[-96.526734,28.945327],[-96.527202,28.946562],[-96.528596,28.947656],[-96.528731,28.948084],[-96.528417,28.948502],[-96.527203,28.94807],[-96.526524,28.948389],[-96.526007,28.949008],[-96.526185,28.949903],[-96.526667,28.950405],[-96.528958,28.951439],[-96.529855,28.951418],[-96.53036,28.951009],[-96.530273,28.95038],[-96.529964,28.950016],[-96.530313,28.949687],[-96.531843,28.949557],[-96.532008,28.951033],[-96.531576,28.95358]]]}},{"type":"Feature","properties":{"PRECINCT":"9","VTD":"0009"},"geometry":{"type":"Polygon","coordinates":[[[-96.321101,28.8297],[-96.319357,28.829587],[-96.316154,28.828676],[-96.315301,28.829111],[-96.316731,28.800478],[-96.319488,28.753901],[-96.323522,28.675597],[-96.356457,28.675053],[-96.381108,28.67494],[-96.404445,28.674409],[-96.404279,28.689875],[-96.40008,28.689879],[-96.39954,28.730231],[-96.407534,28.730278],[-96.420469,28.71361],[-96.428578,28.71372],[-96.428415,28.707137],[-96.43142,28.70801],[-96.433069,28.709479],[-96.433384,28.710099],[-96.435021,28.710947],[-96.435644,28.712459],[-96.436268,28.713032],[-96.436839,28.71294],[-96.437385,28.713215],[-96.438632,28.714292],[-96.438788,28.715552],[-96.437775,28.716697],[-96.437749,28.716995],[-96.439204,28.717591],[-96.439853,28.718691],[-96.439801,28.719538],[-96.439204,28.720753],[-96.43884,28.724097],[-96.43754,28.725082],[-96.437488,28.727877],[-96.436942,28.728793],[-96.437098,28.729572],[-96.436786,28.730167],[-96.435668,28.730717],[-96.43546,28.731061],[-96.435382,28.732642],[-96.436162,28.734589],[-96.43546,28.736972],[-96.43546,28.737773],[-96.435719,28.738323],[-96.436499,28.738805],[-96.439384,28.738507],[-96.442997,28.737545],[-96.445908,28.737178],[-96.448846,28.737774],[-96.449729,28.738599],[-96.450587,28.739721],[-96.450951,28.740615],[-96.450717,28.741669],[-96.451055,28.742929],[-96.450483,28.743662],[-96.450717,28.745174],[-96.450457,28.746984],[-96.450743,28.748152],[-96.450629,28.750269],[-96.451322,28.751545],[-96.451348,28.75308],[-96.453296,28.756286],[-96.452949,28.75629],[-96.452074,28.757193],[-96.447679,28.762233],[-96.447296,28.763138],[-96.446986,28.765554],[-96.446202,28.767323],[-96.443868,28.768001],[-96.441824,28.767954],[-96.436244,28.766163],[-96.433837,28.76676],[-96.432214,28.768748],[-96.43008,28.770393],[-96.4276,28.771674],[-96.42171,28.77246],[-96.416872,28.771887],[-96.414064,28.772734],[-96.410424,28.773282],[-96.406314,28.775366],[-96.404442,28.775388],[-96.402752,28.774998],[-96.399607,28.773119],[-96.397163,28.772202],[-96.394797,28.772522],[-96.392691,28.773231],[-96.389649,28.773322],[-96.386736,28.7741],[-96.385722,28.774076],[-96.384527,28.773732],[-96.382343,28.77254],[-96.381381,28.772723],[-96.380314,28.773799],[-96.378597,28.776502],[-96.377036,28.778311],[-96.374034,28.780812],[-96.372085,28.782142],[-96.370186,28.783059],[-96.369302,28.783334],[-96.367196,28.783472],[-96.366702,28.783702],[-96.365351,28.784893],[-96.365143,28.78574],[-96.365482,28.786427],[-96.366652,28.787389],[-96.366861,28.788466],[-96.366315,28.789405],[-96.365171,28.790024],[-96.364808,28.79078],[-96.364834,28.791353],[-96.365406,28.792292],[-96.368216,28.794032],[-96.368788,28.794696],[-96.36871,28.795429],[-96.36728,28.795774],[-96.366656,28.796346],[-96.366475,28.796736],[-96.366605,28.798431],[-96.366034,28.799691],[-96.364994,28.800356],[-96.362888,28.800586],[-96.360365,28.801893],[-96.358337,28.801481],[-96.357219,28.801527],[-96.355112,28.802375],[-96.353422,28.80359],[-96.351628,28.803224],[-96.349989,28.803362],[-96.347806,28.808241],[-96.346298,28.809707],[-96.344894,28.810395],[-96.344556,28.811334],[-96.344556,28.813213],[-96.344765,28.813831],[-96.345918,28.815123],[-96.346288,28.815871],[-96.345935,28.817734],[-96.346488,28.818618],[-96.346761,28.820867],[-96.346059,28.82153],[-96.345643,28.821621],[-96.343326,28.821602],[-96.340488,28.822156],[-96.340384,28.82273],[-96.340618,28.82296],[-96.341891,28.823236],[-96.343762,28.824475],[-96.343762,28.824866],[-96.342721,28.825693],[-96.342979,28.827115],[-96.342719,28.827437],[-96.341964,28.82753],[-96.341391,28.827255],[-96.340844,28.826775],[-96.340425,28.825494],[-96.339905,28.825014],[-96.338656,28.82497],[-96.338316,28.82543],[-96.338316,28.826577],[-96.337847,28.827174],[-96.336987,28.827748],[-96.335816,28.828024],[-96.333759,28.829149],[-96.332639,28.830159],[-96.331311,28.830872],[-96.330999,28.831445],[-96.331284,28.832179],[-96.331231,28.833051],[-96.330372,28.833763],[-96.329356,28.834222],[-96.327143,28.833401],[-96.324434,28.831344],[-96.321101,28.8297]]]}}]}