{"type":"FeatureCollection","features":[{"type":"Feature","properties":{"PRECINCT":"402","VTD":"0402"},"geometry":{"type":"Polygon","coordinates":[[[-99.725491,32.490554],[-99.721034,32.489949],[-99.719064,32.489382],[-99.716028,32.488039],[-99.701005,32.478408],[-99.686687,32.468851],[-99.686701,32.467128],[-99.690925,32.467114],[-99.690956,32.459836],[-99.706016,32.45984],[-99.70598,32.463737],[-99.705076,32.465815],[-99.715997,32.465826],[-99.720178,32.463592],[-99.722132,32.463346],[-99.723666,32.467923],[-99.728465,32.478757],[-99.729245,32.481631],[-99.729364,32.488591],[-99.729501,32.490375],[-99.729713,32.490561],[-99.725491,32.490554]]]}},{"type":"Feature","properties":{"PRECINCT":"401","VTD":"0401"},"geometry":{"type":"Polygon","coordinates":[[[-99.729713,32.490561],[-99.729501,32.490375],[-99.729364,32.488591],[-99.729245,32.481631],[-99.729031,32.480472],[-99.726568,32.474538],[-99.744516,32.474401],[-99.746088,32.47869],[-99.746027,32.486759],[-99.748204,32.490478],[-99.729713,32.490561]]]}},{"type":"Feature","properties":{"PRECINCT":"408","VTD":"0408"},"geometry":{"type":"Polygon","coordinates":[[[-99.68258,32.386853],[-99.682846,32.372242],[-99.630444,32.372431],[-99.630843,32.341347],[-99.630539,32.328603],[-99.630864,32.299378],[-99.63779,32.299312],[-99.637714,32.294553],[-99.639687,32.29461],[-99.6567,32.290329],[-99.653308,32.287799],[-99.653669,32.287795],[-99.653722,32.28459],[-99.665308,32.284531],[-99.66556,32.278446],[-99.666331,32.277449],[-99.673704,32.27744],[-99.673861,32.270088],[-99.697159,32.270259],[-99.696611,32.270873],[-99.708177,32.270956],[-99.708264,32.270552],[-99.733907,32.270455],[-99.733879,32.284568],[-99.759344,32.284766],[-99.759293,32.291779],[-99.75779,32.306629],[-99.742579,32.343297],[-99.736387,32.343252],[-99.736282,32.344002],[-99.734978,32.344563],[-99.735032,32.34511],[-99.735938,32.345858],[-99.735756,32.34639],[-99.736603,32.347164],[-99.736511,32.348377],[-99.733859,32.348514],[-99.7341,32.348892],[-99.731604,32.350587],[-99.731457,32.355131],[-99.732841,32.356232],[-99.716732,32.35626],[-99.716965,32.372308],[-99.708061,32.372321],[-99.708089,32.379579],[-99.704987,32.379583],[-99.704992,32.380956],[-99.705293,32.381266],[-99.705861,32.381266],[-99.705896,32.386835],[-99.68258,32.386853]]]}},{"type":"Feature","properties":{"PRECINCT":"409","VTD":"0409"},"geometry":{"type":"Polygon","coordinates":[[[-99.630864,32.299378],[-99.631129,32.257364],[-99.63095,32.250163],[-99.630666,32.249092],[-99.630669,32.237187],[-99.631505,32.112434],[-99.631413,32.081274],[-99.714249,32.082147],[-99.807381,32.081203],[-99.81501,32.081392],[-99.86265,32.08152],[-99.862522,32.087758],[-99.863103,32.090004],[-99.862957,32.092227],[-99.863056,32.094195],[-99.863426,32.09547],[-99.863937,32.110928],[-99.863617,32.128394],[-99.86409,32.128948],[-99.863571,32.129387],[-99.863352,32.156993],[-99.843184,32.156785],[-99.843185,32.160792],[-99.825705,32.160712],[-99.825715,32.165331],[-99.822153,32.165326],[-99.821753,32.182999],[-99.822204,32.183841],[-99.822177,32.1873],[-99.807792,32.18717],[-99.807808,32.189197],[-99.807617,32.18922],[-99.751122,32.188828],[-99.750961,32.20396],[-99.707399,32.203649],[-99.707829,32.219896],[-99.697687,32.219755],[-99.697734,32.218347],[-99.692971,32.218276],[-99.692914,32.227676],[-99.676072,32.227733],[-99.675892,32.270007],[-99.673862,32.270061],[-99.673704,32.27744],[-99.666331,32.277449],[-99.66556,32.278446],[-99.665308,32.284531],[-99.653722,32.28459],[-99.653669,32.287795],[-99.653308,32.287799],[-99.6567,32.290329],[-99.639687,32.29461],[-99.637714,32.294553],[-99.63779,32.299312],[-99.630864,32.299378]]]}},{"type":"Feature","properties":{"PRECINCT":"403","VTD":"0403"},"geometry":{"type":"Polygon","coordinates":[[[-99.705076,32.465815],[-99.70598,32.463737],[-99.706016,32.45984],[-99.690956,32.459836],[-99.69102,32.444334],[-99.723665,32.448025],[-99.722947,32.449505],[-99.722624,32.453927],[-99.722992,32.455007],[-99.72206,32.461655],[-99.722132,32.463346],[-99.720178,32.463592],[-99.715997,32.465826],[-99.705076,32.465815]]]}},{"type":"Feature","properties":{"PRECINCT":"102","VTD":"0102"},"geometry":{"type":"Polygon","coordinates":[[[-99.75236,32.450208],[-99.752558,32.432181],[-99.7752,32.432347],[-99.772638,32.434983],[-99.772991,32.435421],[-99.772685,32.436929],[-99.771398,32.438626],[-99.770793,32.438109],[-99.769613,32.437892],[-99.769405,32.438156],[-99.769245,32.439139],[-99.769366,32.439625],[-99.770067,32.440025],[-99.770367,32.442725],[-99.769967,32.443825],[-99.769531,32.444303],[-99.768202,32.444382],[-99.767553,32.444863],[-99.767393,32.44567],[-99.767633,32.446415],[-99.76766,32.448312],[-99.769304,32.447792],[-99.769557,32.447965],[-99.769324,32.448687],[-99.770147,32.449469],[-99.768633,32.451662],[-99.763902,32.451399],[-99.757918,32.450637],[-99.753831,32.450481],[-99.75236,32.450208]]]}},{"type":"Feature","properties":{"PRECINCT":"101","VTD":"0101"},"geometry":{"type":"Polygon","coordinates":[[[-99.778528,32.471015],[-99.77569,32.470722],[-99.759035,32.470649],[-99.757799,32.470042],[-99.757918,32.450637],[-99.763902,32.451399],[-99.768635,32.451662],[-99.768167,32.452224],[-99.768187,32.452711],[-99.768823,32.454176],[-99.769725,32.455014],[-99.770332,32.454799],[-99.770578,32.455137],[-99.772137,32.455663],[-99.773532,32.455243],[-99.773819,32.454771],[-99.774506,32.454486],[-99.774577,32.453901],[-99.775899,32.453005],[-99.776372,32.452988],[-99.776809,32.453445],[-99.7768,32.453798],[-99.77602,32.45452],[-99.775786,32.455365],[-99.77625,32.455697],[-99.77668,32.457008],[-99.77665,32.458529],[-99.776454,32.459077],[-99.776149,32.459236],[-99.775144,32.458131],[-99.774772,32.458271],[-99.774225,32.459063],[-99.774661,32.459404],[-99.774792,32.459952],[-99.774501,32.461163],[-99.774646,32.461416],[-99.775277,32.461472],[-99.775494,32.461112],[-99.775957,32.461019],[-99.776884,32.461355],[-99.77732,32.461963],[-99.784512,32.462043],[-99.782915,32.465139],[-99.778528,32.471015]]]}},{"type":"Feature","properties":{"PRECINCT":"203","VTD":"0203"},"geometry":{"type":"Polygon","coordinates":[[[-99.752603,32.520732],[-99.744554,32.511118],[-99.739137,32.505118],[-99.739358,32.504984],[-99.739415,32.490566],[-99.748204,32.490478],[-99.746027,32.486759],[-99.746088,32.47869],[-99.744516,32.474401],[-99.757761,32.474451],[-99.757799,32.470042],[-99.759035,32.470649],[-99.77569,32.470722],[-99.777666,32.470778],[-99.778528,32.471015],[-99.76036,32.495196],[-99.756898,32.500203],[-99.75476,32.504744],[-99.752168,32.513593],[-99.7521,32.515406],[-99.753026,32.520712],[-99.752603,32.520732]]]}},{"type":"Feature","properties":{"PRECINCT":"103","VTD":"0103"},"geometry":{"type":"Polygon","coordinates":[[[-99.769557,32.447965],[-99.769304,32.447792],[-99.768438,32.447926],[-99.76766,32.448312],[-99.767633,32.446415],[-99.767393,32.44567],[-99.767553,32.444863],[-99.768202,32.444382],[-99.769531,32.444303],[-99.769967,32.443825],[-99.770367,32.442725],[-99.770067,32.440025],[-99.769366,32.439625],[-99.769245,32.439139],[-99.769405,32.438156],[-99.769613,32.437892],[-99.770793,32.438109],[-99.771398,32.438626],[-99.772685,32.436929],[-99.772991,32.435421],[-99.772638,32.434983],[-99.7752,32.432347],[-99.778185,32.432174],[-99.780939,32.4313],[-99.782739,32.430149],[-99.785752,32.427003],[-99.786798,32.429752],[-99.786928,32.433258],[-99.78714,32.433259],[-99.786983,32.443078],[-99.786618,32.447589],[-99.779397,32.447657],[-99.778821,32.452516],[-99.770303,32.45196],[-99.768633,32.451662],[-99.769666,32.449904],[-99.770131,32.449698],[-99.770147,32.449469],[-99.769324,32.448687],[-99.769557,32.447965]]]}},{"type":"Feature","properties":{"PRECINCT":"404","VTD":"0404"},"geometry":{"type":"Polygon","coordinates":[[[-99.734079,32.445414],[-99.734254,32.443358],[-99.737962,32.443633],[-99.738557,32.437319],[-99.738587,32.432115],[-99.752558,32.432181],[-99.75236,32.450208],[-99.737447,32.449187],[-99.737733,32.445726],[-99.734079,32.445414]]]}},{"type":"Feature","properties":{"PRECINCT":"301","VTD":"0301"},"geometry":{"type":"Polygon","coordinates":[[[-99.766141,32.432268],[-99.748103,32.432155],[-99.748071,32.415678],[-99.749246,32.416251],[-99.749988,32.417006],[-99.750818,32.417319],[-99.761075,32.41734],[-99.762354,32.417838],[-99.768205,32.417916],[-99.766534,32.420971],[-99.766127,32.422392],[-99.766531,32.42411],[-99.767771,32.426128],[-99.767711,32.431145],[-99.76717,32.431786],[-99.766141,32.432268]]]}},{"type":"Feature","properties":{"PRECINCT":"104","VTD":"0104"},"geometry":{"type":"Polygon","coordinates":[[[-99.7752,32.432347],[-99.766141,32.432268],[-99.76717,32.431786],[-99.767711,32.431145],[-99.767795,32.428807],[-99.767771,32.426128],[-99.766531,32.42411],[-99.766127,32.422392],[-99.766236,32.421726],[-99.768077,32.41836],[-99.768205,32.417916],[-99.767932,32.417912],[-99.768728,32.416317],[-99.769995,32.415994],[-99.771301,32.41428],[-99.772257,32.413763],[-99.773024,32.411961],[-99.773343,32.411729],[-99.78118,32.418329],[-99.782818,32.42073],[-99.785752,32.427003],[-99.782739,32.430149],[-99.780939,32.4313],[-99.778185,32.432174],[-99.7752,32.432347]]]}},{"type":"Feature","properties":{"PRECINCT":"307","VTD":"0307"},"geometry":{"type":"Polygon","coordinates":[[[-99.780456,32.374738],[-99.777823,32.3747],[-99.777654,32.375688],[-99.77787,32.374388],[-99.777081,32.374405],[-99.777387,32.373168],[-99.762659,32.373057],[-99.76072,32.372714],[-99.761657,32.369799],[-99.761668,32.368032],[-99.76131,32.367176],[-99.759667,32.365913],[-99.759424,32.351965],[-99.758881,32.351954],[-99.759099,32.350428],[-99.742367,32.35024],[-99.742264,32.345146],[-99.742592,32.343243],[-99.75779,32.306629],[-99.759293,32.291779],[-99.759384,32.277531],[-99.792166,32.277442],[-99.79332,32.276998],[-99.793412,32.277414],[-99.793986,32.277448],[-99.794056,32.302456],[-99.798723,32.302386],[-99.798648,32.312481],[-99.798902,32.31264],[-99.800414,32.312114],[-99.802195,32.311152],[-99.802743,32.311399],[-99.802823,32.304623],[-99.807693,32.303939],[-99.810112,32.302887],[-99.812318,32.300938],[-99.812607,32.300899],[-99.813538,32.301201],[-99.814687,32.301958],[-99.814681,32.303271],[-99.814982,32.303491],[-99.816688,32.303966],[-99.818738,32.30541],[-99.820518,32.306258],[-99.821516,32.306603],[-99.821753,32.306171],[-99.821805,32.312931],[-99.830597,32.312908],[-99.83062,32.310637],[-99.837304,32.310794],[-99.839748,32.312788],[-99.846594,32.312761],[-99.849175,32.320926],[-99.839588,32.319697],[-99.839706,32.327728],[-99.805689,32.327789],[-99.805797,32.329531],[-99.806202,32.329852],[-99.809493,32.330999],[-99.809844,32.331412],[-99.809843,32.332465],[-99.809114,32.333634],[-99.807223,32.335214],[-99.806441,32.334961],[-99.806414,32.333953],[-99.806118,32.333587],[-99.803716,32.3337],[-99.803149,32.334043],[-99.803094,32.334936],[-99.803902,32.337297],[-99.803551,32.337525],[-99.80231,32.337044],[-99.801743,32.33709],[-99.801823,32.338098],[-99.802201,32.338579],[-99.802038,32.339908],[-99.802307,32.340961],[-99.802577,32.341237],[-99.802847,32.341169],[-99.802955,32.340297],[-99.803117,32.340321],[-99.803495,32.341032],[-99.803601,32.34252],[-99.805273,32.344262],[-99.80773,32.343989],[-99.810105,32.343395],[-99.810807,32.343463],[-99.811049,32.345366],[-99.810913,32.346031],[-99.810211,32.346786],[-99.808402,32.346922],[-99.806215,32.347747],[-99.806404,32.347999],[-99.807349,32.348137],[-99.808266,32.348939],[-99.808616,32.349581],[-99.807832,32.351826],[-99.808236,32.353521],[-99.808235,32.354736],[-99.807992,32.355584],[-99.807586,32.355973],[-99.80575,32.356476],[-99.804859,32.357574],[-99.805452,32.358812],[-99.805316,32.359294],[-99.803235,32.363118],[-99.803612,32.36376],[-99.803612,32.364265],[-99.80353,32.365159],[-99.803044,32.366166],[-99.804663,32.366397],[-99.804771,32.367289],[-99.804446,32.36855],[-99.803716,32.368985],[-99.802502,32.368893],[-99.801097,32.369349],[-99.801583,32.370106],[-99.801069,32.371206],[-99.800502,32.37164],[-99.799583,32.371778],[-99.797775,32.371571],[-99.79737,32.371662],[-99.796883,32.372189],[-99.794859,32.371752],[-99.79224,32.37191],[-99.791186,32.372667],[-99.790564,32.373742],[-99.791465,32.374695],[-99.785888,32.374812],[-99.785881,32.377277],[-99.780449,32.377251],[-99.780456,32.374738]]]}},{"type":"Feature","properties":{"PRECINCT":"308","VTD":"0308"},"geometry":{"type":"Polygon","coordinates":[[[-99.872004,32.323052],[-99.870259,32.317556],[-99.862798,32.319221],[-99.862339,32.317816],[-99.849175,32.320926],[-99.846594,32.312761],[-99.839748,32.312788],[-99.837304,32.310794],[-99.83062,32.310637],[-99.830597,32.312908],[-99.821805,32.312931],[-99.821753,32.306171],[-99.821516,32.306603],[-99.820518,32.306258],[-99.818738,32.30541],[-99.816688,32.303966],[-99.814982,32.303491],[-99.814681,32.303271],[-99.814687,32.301958],[-99.813538,32.301201],[-99.812607,32.300899],[-99.812318,32.300938],[-99.810112,32.302887],[-99.807693,32.303939],[-99.802823,32.304623],[-99.802743,32.311399],[-99.802195,32.311152],[-99.800414,32.312114],[-99.798902,32.31264],[-99.798648,32.312481],[-99.798723,32.302386],[-99.794056,32.302456],[-99.793986,32.277448],[-99.793412,32.277414],[-99.79332,32.276998],[-99.792166,32.277442],[-99.776878,32.277473],[-99.776955,32.27084],[-99.782845,32.255501],[-99.822594,32.255347],[-99.821747,32.252102],[-99.820656,32.250095],[-99.815926,32.2457],[-99.811737,32.240696],[-99.819748,32.24062],[-99.81971,32.233376],[-99.841263,32.233334],[-99.840172,32.229897],[-99.856644,32.226379],[-99.857834,32.230003],[-99.869904,32.227435],[-99.872299,32.234692],[-99.872665,32.234795],[-99.877276,32.233815],[-99.874906,32.226221],[-99.87474,32.226254],[-99.870552,32.212243],[-99.904567,32.204496],[-99.903307,32.200564],[-99.947561,32.190964],[-99.946746,32.188711],[-99.953346,32.188577],[-99.953441,32.190672],[-100.003946,32.189766],[-100.02189,32.193001],[-100.031239,32.192984],[-100.03184,32.192838],[-100.038936,32.193105],[-100.056572,32.193167],[-100.05657,32.227598],[-100.056338,32.237168],[-100.02171,32.236946],[-100.021654,32.237899],[-100.02034,32.2383],[-100.006035,32.239075],[-100.004211,32.239573],[-99.996895,32.243983],[-99.991074,32.24897],[-99.986656,32.251759],[-99.982628,32.255875],[-99.976326,32.259448],[-99.974937,32.261147],[-99.973045,32.262424],[-99.970825,32.264603],[-99.969574,32.265053],[-99.966049,32.265307],[-99.953117,32.269302],[-99.93573,32.279655],[-99.920149,32.283048],[-99.9246,32.296967],[-99.874579,32.308007],[-99.878768,32.321557],[-99.872004,32.323052]]]}},{"type":"Feature","properties":{"PRECINCT":"303","VTD":"0303"},"geometry":{"type":"Polygon","coordinates":[[[-99.733879,32.284568],[-99.733907,32.270455],[-99.708264,32.270552],[-99.708177,32.270956],[-99.696611,32.270873],[-99.697159,32.270259],[-99.673861,32.270088],[-99.675892,32.270007],[-99.676072,32.227733],[-99.692914,32.227676],[-99.692971,32.218276],[-99.697734,32.218347],[-99.697687,32.219755],[-99.707829,32.219896],[-99.707399,32.203649],[-99.750961,32.20396],[-99.751045,32.188839],[-99.807617,32.18922],[-99.807808,32.189197],[-99.807792,32.18717],[-99.822177,32.1873],[-99.822204,32.183841],[-99.821753,32.182999],[-99.822153,32.165326],[-99.825715,32.165331],[-99.825705,32.160712],[-99.843185,32.160792],[-99.843184,32.156785],[-99.863352,32.156993],[-99.863571,32.129387],[-99.86409,32.128948],[-99.863617,32.128394],[-99.863937,32.110928],[-99.863426,32.09547],[-99.863056,32.094195],[-99.862957,32.092227],[-99.863103,32.090004],[-99.862522,32.087758],[-99.86265,32.08152],[-99.939241,32.08204],[-100.056042,32.082401],[-100.055852,32.089576],[-100.055458,32.089553],[-100.055973,32.091738],[-100.055886,32.09931],[-100.055406,32.099679],[-100.055682,32.100149],[-100.055851,32.101572],[-100.055828,32.105662],[-100.056504,32.119926],[-100.056572,32.193167],[-100.038936,32.193105],[-100.03184,32.192838],[-100.031239,32.192984],[-100.02189,32.193001],[-100.003946,32.189766],[-99.953441,32.190672],[-99.953346,32.188577],[-99.946746,32.188711],[-99.947561,32.190964],[-99.903307,32.200564],[-99.904567,32.204496],[-99.870552,32.212243],[-99.87474,32.226254],[-99.874906,32.226221],[-99.877276,32.233815],[-99.872665,32.234795],[-99.872299,32.234692],[-99.869904,32.227435],[-99.857834,32.230003],[-99.856644,32.226379],[-99.840172,32.229897],[-99.841263,32.233334],[-99.81971,32.233376],[-99.819748,32.24062],[-99.811737,32.240696],[-99.815926,32.2457],[-99.820656,32.250095],[-99.821747,32.252102],[-99.822594,32.255347],[-99.782845,32.255501],[-99.776955,32.27084],[-99.776878,32.277473],[-99.759384,32.277531],[-99.759344,32.284766],[-99.733879,32.284568]]]}},{"type":"Feature","properties":{"PRECINCT":"201","VTD":"0201"},"geometry":{"type":"Polygon","coordinates":[[[-99.739321,32.47452],[-99.726568,32.474538],[-99.723666,32.467923],[-99.722132,32.463346],[-99.72206,32.461655],[-99.722992,32.455007],[-99.722624,32.453927],[-99.722947,32.449505],[-99.725365,32.444825],[-99.72601,32.441732],[-99.726475,32.436881],[-99.728624,32.437042],[-99.728624,32.431426],[-99.732469,32.431735],[-99.73336,32.432135],[-99.738587,32.432115],[-99.738557,32.437319],[-99.737962,32.443633],[-99.734254,32.443358],[-99.734079,32.445414],[-99.737733,32.445726],[-99.737447,32.449187],[-99.74172,32.449596],[-99.739321,32.47452]]]}},{"type":"Feature","properties":{"PRECINCT":"202","VTD":"0202"},"geometry":{"type":"Polygon","coordinates":[[[-99.739321,32.47452],[-99.74172,32.449596],[-99.757918,32.450637],[-99.757761,32.474451],[-99.739321,32.47452]]]}},{"type":"Feature","properties":{"PRECINCT":"406","VTD":"0406"},"geometry":{"type":"Polygon","coordinates":[[[-99.6911,32.444347],[-99.682253,32.442787],[-99.68252,32.430266],[-99.674966,32.41601],[-99.6739,32.416006],[-99.673942,32.401494],[-99.687927,32.401548],[-99.688052,32.406554],[-99.691031,32.408998],[-99.691071,32.415976],[-99.702743,32.416016],[-99.708154,32.415976],[-99.707979,32.401449],[-99.716691,32.401513],[-99.716446,32.401919],[-99.716574,32.414319],[-99.725235,32.414257],[-99.725322,32.3908],[-99.732507,32.388109],[-99.734365,32.3876],[-99.738458,32.387386],[-99.742406,32.387541],[-99.742281,32.401386],[-99.742471,32.401393],[-99.742456,32.404922],[-99.734572,32.422787],[-99.733682,32.423857],[-99.733675,32.424909],[-99.729333,32.429301],[-99.728807,32.430179],[-99.728616,32.431148],[-99.728624,32.437042],[-99.726475,32.436881],[-99.72601,32.441732],[-99.725365,32.444825],[-99.723665,32.448025],[-99.697158,32.445124],[-99.6911,32.444347]]]}},{"type":"Feature","properties":{"PRECINCT":"405","VTD":"0405"},"geometry":{"type":"Polygon","coordinates":[[[-99.748103,32.432155],[-99.73336,32.432135],[-99.732469,32.431735],[-99.728624,32.431426],[-99.728715,32.430438],[-99.729333,32.429301],[-99.733675,32.424909],[-99.733682,32.423857],[-99.734572,32.422787],[-99.742456,32.404922],[-99.742471,32.401393],[-99.742281,32.401386],[-99.74241,32.386751],[-99.743257,32.386674],[-99.743983,32.386728],[-99.744432,32.387833],[-99.74414,32.387666],[-99.745416,32.390422],[-99.751131,32.396205],[-99.751032,32.406672],[-99.748369,32.408327],[-99.748025,32.409087],[-99.748103,32.432155]]]}},{"type":"Feature","properties":{"PRECINCT":"204","VTD":"0204"},"geometry":{"type":"Polygon","coordinates":[[[-99.629639,32.520713],[-99.6298,32.436774],[-99.636591,32.43826],[-99.644991,32.440559],[-99.648004,32.441515],[-99.650789,32.442798],[-99.671541,32.456473],[-99.687952,32.469836],[-99.708406,32.483207],[-99.717043,32.488543],[-99.721034,32.489949],[-99.724074,32.490459],[-99.739415,32.490566],[-99.739358,32.504984],[-99.739137,32.505118],[-99.751777,32.519466],[-99.752603,32.520732],[-99.717163,32.520567],[-99.629639,32.520713]]]}},{"type":"Feature","properties":{"PRECINCT":"407","VTD":"0407"},"geometry":{"type":"Polygon","coordinates":[[[-99.651283,32.443109],[-99.648004,32.441515],[-99.644991,32.440559],[-99.636591,32.43826],[-99.6298,32.436774],[-99.630444,32.372431],[-99.682846,32.372242],[-99.68258,32.386853],[-99.708061,32.38684],[-99.708154,32.415976],[-99.691071,32.415976],[-99.691031,32.408998],[-99.688052,32.406554],[-99.687927,32.401548],[-99.673942,32.401494],[-99.6739,32.416006],[-99.674966,32.41601],[-99.68252,32.430266],[-99.682253,32.442787],[-99.69102,32.444334],[-99.690925,32.467114],[-99.686701,32.467128],[-99.686687,32.468851],[-99.671541,32.456473],[-99.651283,32.443109]]]}},{"type":"Feature","properties":{"PRECINCT":"302","VTD":"0302"},"geometry":{"type":"Polygon","coordinates":[[[-99.767932,32.417912],[-99.762354,32.417838],[-99.761075,32.41734],[-99.750818,32.417319],[-99.749988,32.417006],[-99.749246,32.416251],[-99.748071,32.415678],[-99.74801,32.409309],[-99.748182,32.408609],[-99.748781,32.408],[-99.751032,32.406672],[-99.751131,32.396205],[-99.75377,32.398474],[-99.760607,32.403274],[-99.763666,32.405303],[-99.768655,32.407927],[-99.773343,32.411729],[-99.773024,32.411961],[-99.772257,32.413763],[-99.771301,32.41428],[-99.769995,32.415994],[-99.768728,32.416317],[-99.767932,32.417912]]]}},{"type":"Feature","properties":{"PRECINCT":"304","VTD":"0304"},"geometry":{"type":"Polygon","coordinates":[[[-99.758111,32.401517],[-99.758928,32.399665],[-99.762392,32.394756],[-99.763263,32.391548],[-99.764859,32.388266],[-99.786974,32.388053],[-99.786626,32.389857],[-99.786255,32.39002],[-99.786653,32.391736],[-99.788059,32.391933],[-99.788187,32.391617],[-99.788847,32.391522],[-99.789838,32.391741],[-99.79014,32.392035],[-99.790532,32.39372],[-99.790944,32.394028],[-99.790845,32.394621],[-99.78952,32.395888],[-99.790625,32.396776],[-99.790824,32.397594],[-99.790516,32.397916],[-99.790379,32.399909],[-99.789649,32.400779],[-99.789676,32.401337],[-99.794771,32.401294],[-99.79162,32.404227],[-99.789048,32.405813],[-99.787058,32.406729],[-99.783495,32.407747],[-99.780748,32.408862],[-99.777002,32.410822],[-99.774612,32.412773],[-99.768655,32.407927],[-99.763666,32.405303],[-99.758111,32.401517]]]}},{"type":"Feature","properties":{"PRECINCT":"305","VTD":"0305"},"geometry":{"type":"Polygon","coordinates":[[[-99.745149,32.390009],[-99.743983,32.386728],[-99.753324,32.386667],[-99.753302,32.380519],[-99.770986,32.380632],[-99.764887,32.388205],[-99.763263,32.391548],[-99.762392,32.394756],[-99.758928,32.399665],[-99.758111,32.401517],[-99.75377,32.398474],[-99.751131,32.396205],[-99.745958,32.391078],[-99.745149,32.390009]]]}},{"type":"Feature","properties":{"PRECINCT":"306","VTD":"0306"},"geometry":{"type":"Polygon","coordinates":[[[-99.716691,32.401513],[-99.707979,32.401449],[-99.708061,32.38684],[-99.705896,32.386835],[-99.705861,32.381266],[-99.705293,32.381266],[-99.704992,32.380956],[-99.704987,32.379583],[-99.708089,32.379579],[-99.708061,32.372321],[-99.716965,32.372308],[-99.716732,32.35626],[-99.732841,32.356232],[-99.731457,32.355131],[-99.731604,32.350587],[-99.7341,32.348892],[-99.733859,32.348514],[-99.736511,32.348377],[-99.736603,32.347164],[-99.735756,32.34639],[-99.735938,32.345858],[-99.735032,32.34511],[-99.734978,32.344563],[-99.736282,32.344002],[-99.736387,32.343252],[-99.742579,32.343297],[-99.742264,32.345146],[-99.742367,32.35024],[-99.759099,32.350428],[-99.758881,32.351954],[-99.759424,32.351965],[-99.759667,32.365913],[-99.76131,32.367176],[-99.761668,32.368032],[-99.761657,32.369799],[-99.76072,32.372714],[-99.762659,32.373057],[-99.777387,32.373168],[-99.777081,32.374405],[-99.77787,32.374388],[-99.776943,32.379971],[-99.777177,32.380492],[-99.776871,32.381117],[-99.777334,32.382174],[-99.778158,32.3828],[-99.778128,32.384649],[-99.777185,32.387481],[-99.776395,32.388212],[-99.764859,32.388266],[-99.770986,32.380632],[-99.753302,32.380519],[-99.753324,32.386667],[-99.743257,32.386674],[-99.74241,32.386751],[-99.742406,32.387541],[-99.741147,32.387392],[-99.735131,32.387473],[-99.732507,32.388109],[-99.725322,32.3908],[-99.725235,32.414257],[-99.716574,32.414319],[-99.716446,32.401919],[-99.716691,32.401513]]]}},{"type":"Feature","properties":{"PRECINCT":"205","VTD":"0205"},"geometry":{"type":"Polygon","coordinates":[[[-99.842828,32.520902],[-99.753026,32.520712],[-99.752046,32.514678],[-99.75226,32.51324],[-99.755193,32.503574],[-99.756898,32.500203],[-99.758696,32.4975],[-99.782915,32.465139],[-99.784512,32.462043],[-99.77732,32.461963],[-99.776884,32.461355],[-99.775957,32.461019],[-99.775494,32.461112],[-99.775277,32.461472],[-99.774646,32.461416],[-99.774501,32.461163],[-99.774792,32.459952],[-99.774661,32.459404],[-99.774225,32.459063],[-99.774772,32.458271],[-99.775144,32.458131],[-99.776149,32.459236],[-99.776454,32.459077],[-99.77665,32.458529],[-99.77668,32.457008],[-99.77625,32.455697],[-99.775786,32.455365],[-99.77602,32.45452],[-99.776699,32.454011],[-99.776809,32.453445],[-99.776372,32.452988],[-99.775899,32.453005],[-99.774577,32.453901],[-99.774506,32.454486],[-99.773819,32.454771],[-99.773532,32.455243],[-99.772137,32.455663],[-99.770578,32.455137],[-99.770332,32.454799],[-99.769725,32.455014],[-99.768587,32.453842],[-99.768167,32.452224],[-99.768635,32.451662],[-99.770303,32.45196],[-99.778821,32.452516],[-99.779397,32.447657],[-99.786618,32.447589],[-99.786983,32.443078],[-99.787139,32.433332],[-99.790308,32.433366],[-99.793069,32.434257],[-99.800501,32.435481],[-99.808672,32.435591],[-99.80862,32.449959],[-99.808246,32.454372],[-99.818455,32.45534],[-99.836274,32.45627],[-99.84373,32.483674],[-99.843408,32.483564],[-99.84565,32.490733],[-99.848345,32.501376],[-99.849268,32.50403],[-99.838307,32.506299],[-99.842828,32.520902]]]}},{"type":"Feature","properties":{"PRECINCT":"105","VTD":"0105"},"geometry":{"type":"Polygon","coordinates":[[[-99.789957,32.433334],[-99.786928,32.433258],[-99.786905,32.430453],[-99.78647,32.428524],[-99.782221,32.419701],[-99.780609,32.417789],[-99.774612,32.412773],[-99.777002,32.410822],[-99.780748,32.408862],[-99.783495,32.407747],[-99.787058,32.406729],[-99.789048,32.405813],[-99.79162,32.404227],[-99.794771,32.401294],[-99.809803,32.401342],[-99.805111,32.405987],[-99.807651,32.408206],[-99.808755,32.410155],[-99.808435,32.430652],[-99.808672,32.435591],[-99.800501,32.435481],[-99.793069,32.434257],[-99.789957,32.433334]]]}},{"type":"Feature","properties":{"PRECINCT":"106","VTD":"0106"},"geometry":{"type":"Polygon","coordinates":[[[-99.808809,32.437613],[-99.808435,32.430652],[-99.808755,32.410155],[-99.807651,32.408206],[-99.805111,32.405987],[-99.809803,32.401342],[-99.828104,32.401411],[-99.828087,32.398322],[-99.838732,32.398167],[-99.840042,32.402307],[-99.848181,32.400617],[-99.847326,32.397855],[-99.854527,32.396465],[-99.855453,32.399375],[-99.856499,32.401106],[-99.865952,32.409385],[-99.867111,32.410961],[-99.867615,32.412388],[-99.8675,32.423985],[-99.866951,32.424881],[-99.864609,32.427261],[-99.864204,32.428314],[-99.864213,32.42943],[-99.860009,32.430512],[-99.859979,32.432291],[-99.862881,32.443969],[-99.860006,32.445341],[-99.857169,32.446024],[-99.856986,32.44456],[-99.856543,32.444616],[-99.856797,32.444048],[-99.856027,32.441791],[-99.855181,32.440766],[-99.853671,32.440939],[-99.852983,32.437431],[-99.847965,32.438446],[-99.849671,32.445656],[-99.833968,32.448014],[-99.836274,32.45627],[-99.818455,32.45534],[-99.808246,32.454372],[-99.80862,32.449959],[-99.808809,32.437613]]]}},{"type":"Feature","properties":{"PRECINCT":"108","VTD":"0108"},"geometry":{"type":"Polygon","coordinates":[[[-99.865952,32.409385],[-99.857101,32.401756],[-99.856026,32.400463],[-99.855309,32.398998],[-99.854527,32.396465],[-99.847326,32.397855],[-99.848181,32.400617],[-99.840042,32.402307],[-99.838732,32.398167],[-99.828087,32.398322],[-99.828104,32.401411],[-99.799333,32.401286],[-99.790054,32.401426],[-99.789676,32.401337],[-99.789649,32.400779],[-99.790379,32.399909],[-99.790516,32.397916],[-99.790824,32.397594],[-99.790625,32.396776],[-99.78952,32.395888],[-99.790845,32.394621],[-99.790944,32.394028],[-99.790532,32.39372],[-99.79014,32.392035],[-99.789838,32.391741],[-99.788847,32.391522],[-99.788187,32.391617],[-99.788059,32.391933],[-99.786653,32.391736],[-99.786255,32.39002],[-99.786626,32.389857],[-99.786974,32.388053],[-99.776395,32.388212],[-99.777402,32.387115],[-99.777646,32.38568],[-99.778128,32.384649],[-99.778158,32.3828],[-99.777334,32.382174],[-99.776871,32.381117],[-99.777177,32.380492],[-99.776943,32.379971],[-99.777823,32.3747],[-99.780456,32.374738],[-99.780449,32.377251],[-99.785881,32.377277],[-99.785888,32.374812],[-99.791465,32.374695],[-99.790564,32.373742],[-99.791186,32.372667],[-99.79224,32.37191],[-99.794859,32.371752],[-99.796883,32.372189],[-99.79737,32.371662],[-99.797775,32.371571],[-99.799583,32.371778],[-99.800502,32.37164],[-99.801069,32.371206],[-99.801583,32.370106],[-99.801097,32.369349],[-99.802502,32.368893],[-99.803716,32.368985],[-99.804446,32.36855],[-99.804771,32.367289],[-99.804663,32.366397],[-99.803044,32.366166],[-99.80353,32.365159],[-99.803612,32.364265],[-99.803612,32.36376],[-99.803235,32.363118],[-99.805316,32.359294],[-99.805452,32.358812],[-99.804859,32.357574],[-99.80575,32.356476],[-99.807586,32.355973],[-99.807992,32.355584],[-99.808235,32.354736],[-99.808236,32.353521],[-99.807832,32.351826],[-99.808616,32.349581],[-99.808266,32.348939],[-99.807349,32.348137],[-99.806404,32.347999],[-99.806215,32.347747],[-99.808402,32.346922],[-99.810211,32.346786],[-99.810913,32.346031],[-99.811049,32.345366],[-99.810807,32.343463],[-99.810105,32.343395],[-99.80773,32.343989],[-99.805273,32.344262],[-99.803601,32.34252],[-99.803495,32.341032],[-99.803117,32.340321],[-99.802955,32.340297],[-99.802847,32.341169],[-99.802577,32.341237],[-99.802307,32.340961],[-99.802038,32.339908],[-99.802201,32.338579],[-99.801823,32.338098],[-99.801743,32.33709],[-99.80231,32.337044],[-99.803551,32.337525],[-99.803902,32.337297],[-99.803094,32.334936],[-99.803149,32.334043],[-99.803716,32.3337],[-99.806118,32.333587],[-99.806414,32.333953],[-99.806441,32.334961],[-99.807223,32.335214],[-99.809114,32.333634],[-99.809843,32.332465],[-99.809844,32.331412],[-99.809493,32.330999],[-99.806202,32.329852],[-99.805797,32.329531],[-99.805689,32.327789],[-99.839706,32.327728],[-99.839588,32.319697],[-99.849162,32.320929],[-99.862339,32.317816],[-99.862798,32.319221],[-99.870259,32.317556],[-99.872004,32.323052],[-99.878768,32.321557],[-99.874579,32.308007],[-99.9246,32.296967],[-99.920149,32.283048],[-99.93573,32.279655],[-99.953117,32.269302],[-99.966049,32.265307],[-99.969574,32.265053],[-99.970825,32.264603],[-99.973045,32.262424],[-99.974937,32.261147],[-99.976326,32.259448],[-99.982628,32.255875],[-99.986656,32.251759],[-99.991074,32.24897],[-99.996895,32.243983],[-100.004471,32.239452],[-100.006035,32.239075],[-100.02005,32.238338],[-100.021694,32.237915],[-100.021293,32.262017],[-100.020603,32.261752],[-100.016608,32.261527],[-100.01663,32.269953],[-99.976539,32.270196],[-99.976533,32.27585],[-99.977598,32.28451],[-99.977615,32.288705],[-99.977424,32.288735],[-99.977615,32.288756],[-99.97772,32.315878],[-99.977155,32.315885],[-99.999832,32.39043],[-99.972748,32.396755],[-99.914665,32.409756],[-99.913124,32.409453],[-99.912125,32.408638],[-99.910233,32.402831],[-99.867523,32.412022],[-99.86692,32.410625],[-99.865952,32.409385]]]}},{"type":"Feature","properties":{"PRECINCT":"206","VTD":"0206"},"geometry":{"type":"Polygon","coordinates":[[[-100.084288,32.522637],[-100.003112,32.521541],[-100.000392,32.521709],[-99.973632,32.521746],[-99.891167,32.521003],[-99.842828,32.520902],[-99.838307,32.506299],[-99.849268,32.50403],[-99.848345,32.501376],[-99.84565,32.490733],[-99.843408,32.483564],[-99.84373,32.483674],[-99.841888,32.476776],[-99.858643,32.474037],[-99.859116,32.475323],[-99.871803,32.472808],[-99.87706,32.472847],[-99.872841,32.459103],[-99.874466,32.459148],[-99.878998,32.458691],[-99.880157,32.458332],[-99.880447,32.457893],[-99.88822,32.458069],[-99.885493,32.448712],[-99.88913,32.447944],[-99.889442,32.447612],[-99.884338,32.429993],[-99.875343,32.431919],[-99.875099,32.43217],[-99.87246,32.423487],[-99.867163,32.424611],[-99.867661,32.423119],[-99.867722,32.413471],[-99.867523,32.412022],[-99.910233,32.402831],[-99.912125,32.408638],[-99.913361,32.409557],[-99.914932,32.409729],[-99.985306,32.393808],[-100.001225,32.400771],[-100.011956,32.405102],[-100.023502,32.410499],[-100.030171,32.412201],[-100.056971,32.420575],[-100.068768,32.464874],[-100.085519,32.461582],[-100.087372,32.468548],[-100.070611,32.471723],[-100.084288,32.522637]]]}},{"type":"Feature","properties":{"PRECINCT":"107","VTD":"0107"},"geometry":{"type":"Polygon","coordinates":[[[-99.841797,32.47665],[-99.833968,32.448014],[-99.849671,32.445656],[-99.847965,32.438446],[-99.852983,32.437431],[-99.853671,32.440939],[-99.855181,32.440766],[-99.856027,32.441791],[-99.856797,32.444048],[-99.856543,32.444616],[-99.856986,32.44456],[-99.857169,32.446024],[-99.860006,32.445341],[-99.862881,32.443969],[-99.859979,32.432291],[-99.860009,32.430512],[-99.864213,32.42943],[-99.864204,32.428314],[-99.864609,32.427261],[-99.867163,32.424611],[-99.87246,32.423487],[-99.875099,32.43217],[-99.875343,32.431919],[-99.884338,32.429993],[-99.889442,32.447612],[-99.88913,32.447944],[-99.885493,32.448712],[-99.88822,32.458069],[-99.880447,32.457893],[-99.880157,32.458332],[-99.878998,32.458691],[-99.874466,32.459148],[-99.872841,32.459103],[-99.87706,32.472847],[-99.871803,32.472808],[-99.859116,32.475323],[-99.858643,32.474037],[-99.842155,32.47683],[-99.841797,32.47665]]]}},{"type":"Feature","properties":{"PRECINCT":"109","VTD":"0109"},"geometry":{"type":"Polygon","coordinates":[[[-100.01663,32.269953],[-100.016608,32.261527],[-100.020603,32.261752],[-100.021293,32.262017],[-100.02171,32.236946],[-100.073843,32.237282],[-100.073574,32.2646],[-100.075647,32.265113],[-100.078909,32.265551],[-100.081363,32.266308],[-100.084868,32.266263],[-100.087916,32.265576],[-100.089588,32.265554],[-100.090647,32.266237],[-100.090725,32.251992],[-100.116308,32.251769],[-100.117056,32.251953],[-100.11751,32.251615],[-100.118762,32.251434],[-100.149819,32.252011],[-100.148609,32.404941],[-100.12431,32.409789],[-100.090753,32.41575],[-100.091431,32.417336],[-100.095065,32.430435],[-100.092148,32.430918],[-100.059081,32.421233],[-100.030171,32.412201],[-100.023738,32.410583],[-100.011956,32.405102],[-100.001225,32.400771],[-99.985306,32.393808],[-99.999893,32.390312],[-99.977155,32.315885],[-99.97772,32.315878],[-99.977615,32.288756],[-99.977424,32.288735],[-99.977615,32.288705],[-99.977598,32.28451],[-99.976533,32.27585],[-99.976539,32.270196],[-100.01663,32.269953]]]}},{"type":"Feature","properties":{"PRECINCT":"207","VTD":"0207"},"geometry":{"type":"Polygon","coordinates":[[[-100.084288,32.522637],[-100.070611,32.471723],[-100.087328,32.468685],[-100.085678,32.462108],[-100.085519,32.461582],[-100.068768,32.464874],[-100.056971,32.420575],[-100.092148,32.430918],[-100.095065,32.430435],[-100.091431,32.417336],[-100.090753,32.41575],[-100.12431,32.409789],[-100.148609,32.404941],[-100.148073,32.447539],[-100.146858,32.500098],[-100.146666,32.500293],[-100.146543,32.522793],[-100.125455,32.522512],[-100.119306,32.523001],[-100.084288,32.522637]]]}},{"type":"Feature","properties":{"PRECINCT":"110","VTD":"0110"},"geometry":{"type":"Polygon","coordinates":[[[-100.081363,32.266308],[-100.078909,32.265551],[-100.075647,32.265113],[-100.073574,32.2646],[-100.073843,32.237282],[-100.056338,32.237168],[-100.056587,32.222174],[-100.056504,32.119926],[-100.055828,32.105662],[-100.055851,32.101572],[-100.055682,32.100149],[-100.055406,32.099679],[-100.055886,32.09931],[-100.055973,32.091738],[-100.055458,32.089553],[-100.055852,32.089576],[-100.056042,32.082401],[-100.151911,32.082638],[-100.151658,32.117581],[-100.151055,32.126597],[-100.15093,32.135064],[-100.149819,32.252011],[-100.118762,32.251434],[-100.11751,32.251615],[-100.117056,32.251953],[-100.116308,32.251769],[-100.090725,32.251992],[-100.090647,32.266237],[-100.089588,32.265554],[-100.087916,32.265576],[-100.084868,32.266263],[-100.083116,32.266377],[-100.081363,32.266308]]]}}]}