{"type":"FeatureCollection","features":[{"type":"Feature","properties":{"PRECINCT":"harris:10","COUNTY":"Harris"},"geometry":{"type":"Polygon","coordinates":[[[-95.32582,29.75962],[-95.32525,29.75938],[-95.32511,29.75958],[-95.32298,29.75733],[-95.32052,29.75641],[-95.3181,29.75503],[-95.31651,29.75483],[-95.31548,29.74779],[-95.3178,29.74815],[-95.31991,29.74978],[-95.32361,29.75097],[-95.3252,29.74749],[-95.32579,29.74766],[-95.32755,29.74332],[-95.32701,29.74323],[-95.32813,29.74165],[-95.33946,29.74516],[-95.32957,29.75784],[-95.33025,29.75823],[-95.32909,29.75959],[-95.32582,29.75962]]]}},{"type":"Feature","properties":{"PRECINCT":"harris:100","COUNTY":"Harris"},"geometry":{"type":"Polygon","coordinates":[[[-94.96188,29.74372],[-94.96171,29.74304],[-94.96016,29.74331],[-94.96112,29.74183],[-94.95865,29.74087],[-94.95388,29.73986],[-94.95494,29.73797],[-94.95959,29.72732],[-94.96047,29.72338],[-94.961,29.72243],[-94.96181,29.72166],[-94.96335,29.72086],[-94.97551,29.71653],[-94.97544,29.71551],[-94.97585,29.71392],[-94.97703,29.71133],[-94.97775,29.71075],[-94.97804,29.71017],[-94.97825,29.71012],[-94.97911,29.71143],[-94.98174,29.71235],[-94.98299,29.70935],[-94.98368,29.70958],[-94.98467,29.70925],[-94.98531,29.70937],[-94.98604,29.70901],[-94.98726,29.70892],[-94.98907,29.70835],[-94.98965,29.70921],[-94.9889,29.71014],[-94.99228,29.71238],[-94.993,29.7125],[-94.99282,29.71183],[-94.99291,29.71157],[-94.99312,29.71162],[-94.99314,29.71105],[-94.99396,29.71055],[-94.99446,29.71058],[-94.99308,29.70932],[-94.99312,29.70858],[-94.99417,29.70802],[-94.99637,29.70791],[-94.99927,29.70856],[-95.00229,29.71054],[-95.00274,29.71174],[-95.00494,29.71138],[-95.00579,29.7109],[-95.00586,29.71128],[-95.00051,29.71422],[-94.99766,29.71653],[-94.99598,29.71836],[-94.997,29.71907],[-94.99645,29.71966],[-94.99844,29.7214],[-94.99702,29.72233],[-94.99534,29.72083],[-94.99496,29.72143],[-94.9949,29.72209],[-94.99557,29.72328],[-94.99483,29.72377],[-94.99371,29.72339],[-94.99335,29.72421],[-94.98562,29.72153],[-94.97949,29.72018],[-94.9796,29.71936],[-94.97821,29.71984],[-94.97766,29.71854],[-94.97161,29.72053],[-94.9725,29.72251],[-94.97155,29.72276],[-94.97155,29.72354],[-94.96951,29.7286],[-94.96895,29.72947],[-94.96381,29.72773],[-94.96352,29.72838],[-94.96455,29.72874],[-94.96088,29.7372],[-94.96498,29.73856],[-94.96367,29.74159],[-94.96367,29.7434],[-94.96188,29.74372]]]}},{"type":"Feature","properties":{"PRECINCT":"harris:102","COUNTY":"Harris"},"geometry":{"type":"Polygon","coordinates":[[[-94.989,29.74766],[-94.98719,29.74656],[-94.98673,29.74716],[-94.98332,29.74284],[-94.98474,29.74061],[-94.98362,29.7386],[-94.98326,29.73521],[-94.98355,29.73462],[-94.98454,29.73399],[-94.9854,29.73412],[-94.98693,29.73382],[-94.98755,29.73297],[-94.98861,29.73214],[-94.98936,29.73098],[-94.98999,29.72729],[-94.9897,29.72621],[-94.98843,29.72373],[-94.98879,29.72262],[-94.99335,29.72421],[-94.99371,29.72339],[-94.99483,29.72377],[-94.99557,29.72328],[-94.9949,29.72209],[-94.99496,29.72143],[-94.99534,29.72083],[-94.99702,29.72233],[-94.99844,29.7214],[-94.99645,29.71966],[-94.997,29.71907],[-94.99598,29.71836],[-94.99795,29.71622],[-95.00051,29.71422],[-95.00586,29.71128],[-95.00581,29.71104],[-95.01038,29.70844],[-95.01714,29.70322],[-95.01769,29.70375],[-95.01978,29.70719],[-95.02044,29.70916],[-95.02114,29.72341],[-95.02225,29.72527],[-95.02339,29.7264],[-95.02183,29.72726],[-95.02001,29.72712],[-95.02016,29.72646],[-95.01848,29.7202],[-95.01689,29.72063],[-95.01366,29.72273],[-95.01277,29.72246],[-95.01257,29.7242],[-95.01295,29.72599],[-95.01345,29.72789],[-95.01459,29.72972],[-95.013,29.73064],[-95.00573,29.73384],[-95.00376,29.73388],[-95.00347,29.73365],[-94.9993,29.73274],[-94.998,29.73502],[-94.99572,29.73821],[-94.99462,29.73759],[-94.99353,29.73909],[-94.99467,29.73969],[-94.989,29.74766]]]}},{"type":"Feature","properties":{"PRECINCT":"harris:11","COUNTY":"Harris"},"geometry":{"type":"Polygon","coordinates":[[[-95.30434,29.75566],[-95.30291,29.75395],[-95.31144,29.74138],[-95.31301,29.73898],[-95.3127,29.73888],[-95.31398,29.73719],[-95.32813,29.74165],[-95.32701,29.74323],[-95.32755,29.74332],[-95.32579,29.74766],[-95.3252,29.74749],[-95.32361,29.75097],[-95.31991,29.74978],[-95.3178,29.74815],[-95.31548,29.74779],[-95.31651,29.75483],[-95.31574,29.75475],[-95.31467,29.7553],[-95.31301,29.75554],[-95.30945,29.7547],[-95.30826,29.75461],[-95.3068,29.755],[-95.3053,29.75584],[-95.30434,29.75566]]]}},{"type":"Feature","properties":{"PRECINCT":"harris:12","COUNTY":"Harris"},"geometry":{"type":"Polygon","coordinates":[[[-94.97123,29.75649],[-94.96962,29.75567],[-94.96388,29.75576],[-94.96373,29.7503],[-94.96998,29.74996],[-94.9771,29.74994],[-94.97719,29.75472],[-94.9762,29.75529],[-94.97378,29.75581],[-94.97293,29.75669],[-94.97123,29.75649]]]}},{"type":"Feature","properties":{"PRECINCT":"harris:141","COUNTY":"Harris"},"geometry":{"type":"Polygon","coordinates":[[[-95.09558,29.7883],[-95.09584,29.78726],[-95.09076,29.78892],[-95.08847,29.78943],[-95.08505,29.79005],[-95.08492,29.78965],[-95.08511,29.78924],[-95.08558,29.78919],[-95.08549,29.78773],[-95.08594,29.78625],[-95.08592,29.78761],[-95.08661,29.78913],[-95.08684,29.78902],[-95.08626,29.78699],[-95.08641,29.7868],[-95.08689,29.78866],[-95.08721,29.78887],[-95.08741,29.78863],[-95.08727,29.78636],[-95.08797,29.78588],[-95.08873,29.78606],[-95.0917,29.78539],[-95.09206,29.78636],[-95.09249,29.78543],[-95.09409,29.78562],[-95.09585,29.78549],[-95.09933,29.7844],[-95.10026,29.7834],[-95.10058,29.7816],[-95.10084,29.7813],[-95.09985,29.78081],[-95.10027,29.77976],[-95.10046,29.77969],[-95.10034,29.78048],[-95.10168,29.78152],[-95.10209,29.78167],[-95.1028,29.78129],[-95.10314,29.7814],[-95.10338,29.78241],[-95.10444,29.78185],[-95.10365,29.78107],[-95.1022,29.78111],[-95.10195,29.78033],[-95.10291,29.77696],[-95.10295,29.77347],[-95.10355,29.77048],[-95.10127,29.7705],[-95.10004,29.76631],[-95.09691,29.76333],[-95.09601,29.76323],[-95.09441,29.76363],[-95.09251,29.76483],[-95.09101,29.76523],[-95.08901,29.76493],[-95.08859,29.76438],[-95.09143,29.76313],[-95.09165,29.76202],[-95.09404,29.76047],[-95.09579,29.75995],[-95.09596,29.7596],[-95.09538,29.7586],[-95.09551,29.75824],[-95.09529,29.7579],[-95.09607,29.75674],[-95.09785,29.75781],[-95.10075,29.75871],[-95.10218,29.75954],[-95.10548,29.76031],[-95.10763,29.76122],[-95.1088,29.76262],[-95.11213,29.76305],[-95.11295,29.7625],[-95.11464,29.76022],[-95.11541,29.75957],[-95.11639,29.75919],[-95.11765,29.75913],[-95.11885,29.75915],[-95.12133,29.75962],[-95.12266,29.75795],[-95.12398,29.75727],[-95.12451,29.7782],[-95.12081,29.77929],[-95.10814,29.7846],[-95.09218,29.78989],[-95.08932,29.79059],[-95.08374,29.79123],[-95.07968,29.79242],[-95.07947,29.79197],[-95.08127,29.79144],[-95.08639,29.79073],[-95.09155,29.78964],[-95.09558,29.7883]]]}},{"type":"Feature","properties":{"PRECINCT":"harris:162","COUNTY":"Harris"},"geometry":{"type":"Polygon","coordinates":[[[-95.19569,29.76975],[-95.19286,29.77018],[-95.19142,29.77012],[-95.19086,29.76989],[-95.1902,29.76946],[-95.18959,29.76864],[-95.18839,29.7664],[-95.18819,29.76442],[-95.18933,29.76258],[-95.19036,29.76203],[-95.1915,29.76038],[-95.19176,29.75941],[-95.19141,29.75828],[-95.19057,29.75816],[-95.18997,29.7584],[-95.18842,29.75979],[-95.18682,29.76074],[-95.18418,29.76101],[-95.18274,29.7607],[-95.18146,29.7598],[-95.17892,29.75731],[-95.17772,29.75581],[-95.1776,29.75529],[-95.17611,29.75353],[-95.17362,29.75287],[-95.16838,29.75226],[-95.16603,29.7523],[-95.16511,29.75179],[-95.16502,29.75061],[-95.16723,29.74964],[-95.17019,29.74682],[-95.1711,29.74699],[-95.1734,29.74692],[-95.17852,29.7459],[-95.18211,29.74553],[-95.18661,29.74583],[-95.19261,29.74363],[-95.19843,29.74182],[-95.20011,29.74093],[-95.20231,29.73913],[-95.20491,29.73613],[-95.20931,29.72813],[-95.21188,29.72653],[-95.21192,29.73167],[-95.21135,29.73286],[-95.21206,29.7341],[-95.21227,29.73895],[-95.21115,29.7396],[-95.21091,29.74083],[-95.21142,29.74971],[-95.21133,29.75768],[-95.21151,29.75963],[-95.21183,29.75981],[-95.21923,29.7596],[-95.21911,29.75983],[-95.21975,29.76001],[-95.21971,29.76023],[-95.21918,29.76049],[-95.21946,29.76079],[-95.21934,29.76128],[-95.21969,29.76158],[-95.22003,29.76131],[-95.22147,29.76116],[-95.22395,29.76034],[-95.22414,29.76555],[-95.22389,29.76607],[-95.22407,29.7667],[-95.22357,29.76835],[-95.22393,29.7687],[-95.22439,29.76855],[-95.2251,29.76871],[-95.22526,29.7695],[-95.22556,29.76954],[-95.22651,29.76893],[-95.22724,29.76906],[-95.22715,29.77048],[-95.22797,29.77212],[-95.21968,29.77044],[-95.21516,29.77058],[-95.20642,29.77139],[-95.2006,29.77166],[-95.19703,29.77153],[-95.19663,29.77022],[-95.19569,29.76975]]]}},{"type":"Feature","properties":{"PRECINCT":"harris:163","COUNTY":"Harris"},"geometry":{"type":"Polygon","coordinates":[[[-95.22377,29.76749],[-95.22407,29.7667],[-95.22391,29.76588],[-95.22414,29.76555],[-95.22395,29.76034],[-95.22147,29.76116],[-95.22003,29.76131],[-95.21969,29.76158],[-95.21934,29.76128],[-95.21946,29.76079],[-95.21918,29.76049],[-95.21971,29.76023],[-95.21975,29.76001],[-95.21911,29.75983],[-95.21923,29.7596],[-95.24036,29.75884],[-95.24036,29.759],[-95.24184,29.759],[-95.2419,29.75988],[-95.25586,29.75989],[-95.25606,29.76818],[-95.25016,29.76745],[-95.22656,29.76779],[-95.22497,29.76775],[-95.22377,29.76749]]]}},{"type":"Feature","properties":{"PRECINCT":"harris:164","COUNTY":"Harris"},"geometry":{"type":"Polygon","coordinates":[[[-95.2594,29.76824],[-95.25607,29.76793],[-95.25586,29.75989],[-95.25172,29.75992],[-95.25163,29.75761],[-95.2543,29.7575],[-95.2536,29.73344],[-95.25378,29.73037],[-95.25668,29.73214],[-95.25664,29.73246],[-95.26542,29.73824],[-95.265,29.74136],[-95.2649,29.74477],[-95.26557,29.76736],[-95.26541,29.76961],[-95.2594,29.7687],[-95.2594,29.76824]]]}},{"type":"Feature","properties":{"PRECINCT":"harris:187","COUNTY":"Harris"},"geometry":{"type":"Polygon","coordinates":[[[-95.28378,29.76599],[-95.2835,29.7501],[-95.28696,29.75237],[-95.28719,29.76597],[-95.28378,29.76599]]]}},{"type":"Feature","properties":{"PRECINCT":"harris:208","COUNTY":"Harris"},"geometry":{"type":"Polygon","coordinates":[[[-95.2419,29.75988],[-95.24184,29.759],[-95.24036,29.759],[-95.23998,29.71931],[-95.24171,29.71942],[-95.24302,29.71909],[-95.24554,29.71968],[-95.24519,29.72032],[-95.24134,29.72039],[-95.24115,29.7206],[-95.24124,29.7265],[-95.24378,29.72582],[-95.24379,29.73022],[-95.25289,29.73022],[-95.25378,29.73037],[-95.2536,29.73344],[-95.2543,29.7575],[-95.25163,29.75761],[-95.25172,29.75992],[-95.25094,29.75977],[-95.2419,29.75988]]]}},{"type":"Feature","properties":{"PRECINCT":"harris:220","COUNTY":"Harris"},"geometry":{"type":"Polygon","coordinates":[[[-95.10961,29.87565],[-95.11018,29.87441],[-95.10254,29.87449],[-95.09424,29.87619],[-95.09455,29.87409],[-95.09361,29.86963],[-95.09359,29.86625],[-95.0939,29.86448],[-95.09337,29.86288],[-95.09395,29.86197],[-95.09396,29.86093],[-95.0924,29.85821],[-95.08928,29.8515],[-95.08956,29.85019],[-95.09031,29.84864],[-95.09216,29.84668],[-95.09363,29.84606],[-95.09689,29.84567],[-95.10068,29.8432],[-95.10098,29.84311],[-95.1018,29.84346],[-95.10282,29.84424],[-95.10309,29.84484],[-95.10411,29.84539],[-95.10609,29.84568],[-95.10643,29.84499],[-95.10638,29.84417],[-95.10296,29.83863],[-95.09994,29.83622],[-95.09351,29.83223],[-95.0919,29.83157],[-95.08562,29.8299],[-95.08138,29.82928],[-95.07708,29.82961],[-95.07216,29.83074],[-95.06765,29.83263],[-95.06593,29.83299],[-95.06478,29.83277],[-95.06308,29.8319],[-95.06182,29.83065],[-95.06123,29.82912],[-95.06121,29.82837],[-95.0616,29.82727],[-95.06248,29.82596],[-95.06366,29.82496],[-95.06629,29.82395],[-95.06927,29.82429],[-95.07432,29.82585],[-95.07589,29.82609],[-95.07771,29.82582],[-95.07838,29.82541],[-95.07924,29.82398],[-95.07949,29.82155],[-95.07902,29.81911],[-95.07914,29.81845],[-95.0796,29.81795],[-95.08102,29.81747],[-95.08349,29.81754],[-95.08531,29.81734],[-95.08703,29.81666],[-95.08856,29.81547],[-95.08967,29.81396],[-95.09022,29.80786],[-95.08966,29.79983],[-95.08921,29.79925],[-95.08808,29.79854],[-95.08666,29.79819],[-95.08494,29.79837],[-95.07927,29.79976],[-95.07612,29.80158],[-95.07344,29.8026],[-95.07013,29.80333],[-95.06744,29.80316],[-95.06401,29.80249],[-95.05838,29.80003],[-95.05722,29.79901],[-95.05671,29.79776],[-95.05671,29.79669],[-95.05696,29.79582],[-95.05813,29.79424],[-95.06082,29.79251],[-95.06596,29.79482],[-95.06728,29.79521],[-95.06973,29.79545],[-95.072,29.79513],[-95.08288,29.79143],[-95.08932,29.79059],[-95.09218,29.78989],[-95.10814,29.7846],[-95.12081,29.77929],[-95.12451,29.7782],[-95.12464,29.78948],[-95.12397,29.80147],[-95.1272,29.82097],[-95.12819,29.86819],[-95.10659,29.87759],[-95.10816,29.87631],[-95.10961,29.87565]]]}},{"type":"Feature","properties":{"PRECINCT":"harris:229","COUNTY":"Harris"},"geometry":{"type":"Polygon","coordinates":[[[-95.23197,29.77175],[-95.23181,29.77029],[-95.23369,29.77036],[-95.2338,29.76961],[-95.23176,29.76951],[-95.23175,29.7688],[-95.23386,29.7688],[-95.23382,29.76775],[-95.25113,29.76747],[-95.25126,29.77333],[-95.23614,29.77341],[-95.23303,29.77276],[-95.23324,29.77206],[-95.23197,29.77175]]]}},{"type":"Feature","properties":{"PRECINCT":"harris:248","COUNTY":"Harris"},"geometry":{"type":"Polygon","coordinates":[[[-94.96088,29.7372],[-94.96455,29.72874],[-94.96352,29.72838],[-94.96381,29.72773],[-94.96895,29.72947],[-94.96951,29.7286],[-94.97155,29.72354],[-94.97155,29.72276],[-94.9725,29.72251],[-94.97161,29.72053],[-94.97766,29.71854],[-94.97821,29.71984],[-94.9796,29.71936],[-94.97949,29.72018],[-94.98562,29.72153],[-94.98879,29.72262],[-94.98843,29.72373],[-94.9897,29.72621],[-94.98999,29.72729],[-94.98956,29.7305],[-94.98581,29.72977],[-94.97443,29.72992],[-94.97391,29.73111],[-94.97492,29.73146],[-94.97436,29.73274],[-94.97125,29.73172],[-94.97067,29.73304],[-94.97008,29.7344],[-94.97082,29.73464],[-94.97027,29.73593],[-94.9716,29.73637],[-94.97103,29.73765],[-94.96764,29.73652],[-94.96736,29.73717],[-94.96582,29.73666],[-94.96498,29.73856],[-94.96088,29.7372]]]}},{"type":"Feature","properties":{"PRECINCT":"harris:266","COUNTY":"Harris"},"geometry":{"type":"Polygon","coordinates":[[[-95.19481,29.78616],[-95.18319,29.78628],[-95.18282,29.77089],[-95.18224,29.77088],[-95.18226,29.77061],[-95.19703,29.77153],[-95.19673,29.7726],[-95.19542,29.77389],[-95.19515,29.77452],[-95.19596,29.77609],[-95.19714,29.77681],[-95.19851,29.77674],[-95.2001,29.77546],[-95.20135,29.775],[-95.20473,29.77535],[-95.20457,29.7759],[-95.20507,29.77692],[-95.20475,29.77829],[-95.20292,29.78109],[-95.20306,29.78182],[-95.20241,29.78304],[-95.2026,29.78411],[-95.2018,29.78518],[-95.2005,29.78617],[-95.2002,29.78601],[-95.19948,29.78617],[-95.19833,29.78601],[-95.19776,29.78678],[-95.19687,29.78741],[-95.19481,29.78616]]]}},{"type":"Feature","properties":{"PRECINCT":"harris:354","COUNTY":"Harris"},"geometry":{"type":"Polygon","coordinates":[[[-95.17921,29.8062],[-95.18999,29.7929],[-95.19199,29.79381],[-95.19453,29.794],[-95.19647,29.79354],[-95.19883,29.79216],[-95.20029,29.7916],[-95.20561,29.79131],[-95.20638,29.79226],[-95.20651,29.79382],[-95.2063,29.79384],[-95.2068,29.79555],[-95.20624,29.79573],[-95.20441,29.79552],[-95.20384,29.79596],[-95.20379,29.79668],[-95.20728,29.80009],[-95.20872,29.80273],[-95.21009,29.80363],[-95.21077,29.80475],[-95.2128,29.80521],[-95.21111,29.80637],[-95.20955,29.8068],[-95.20537,29.80666],[-95.20078,29.80594],[-95.19094,29.80606],[-95.18735,29.80566],[-95.18393,29.80612],[-95.17921,29.8062]]]}},{"type":"Feature","properties":{"PRECINCT":"harris:368","COUNTY":"Harris"},"geometry":{"type":"Polygon","coordinates":[[[-95.1576,29.80827],[-95.15702,29.80818],[-95.15656,29.8071],[-95.15715,29.80675],[-95.15739,29.8062],[-95.15857,29.80545],[-95.16043,29.80516],[-95.16115,29.80476],[-95.16121,29.80424],[-95.16076,29.80381],[-95.1605,29.80297],[-95.15865,29.80221],[-95.15597,29.8017],[-95.1555,29.80087],[-95.15574,29.80036],[-95.15674,29.79967],[-95.15771,29.79829],[-95.15759,29.79615],[-95.15834,29.79567],[-95.15846,29.79456],[-95.15985,29.79413],[-95.16035,29.79365],[-95.15897,29.79062],[-95.16105,29.79066],[-95.1627,29.7952],[-95.16322,29.79823],[-95.16329,29.80874],[-95.15869,29.80995],[-95.15855,29.80905],[-95.1576,29.80827]]]}},{"type":"Feature","properties":{"PRECINCT":"harris:375","COUNTY":"Harris"},"geometry":{"type":"Polygon","coordinates":[[[-95.18695,29.79183],[-95.17691,29.79199],[-95.17076,29.79051],[-95.15897,29.79062],[-95.15845,29.78927],[-95.15413,29.78466],[-95.15367,29.78375],[-95.15372,29.78298],[-95.1546,29.78261],[-95.15502,29.78061],[-95.15684,29.77746],[-95.15668,29.77687],[-95.15593,29.77607],[-95.15667,29.77498],[-95.15792,29.77745],[-95.15831,29.78026],[-95.16076,29.78026],[-95.16076,29.77724],[-95.18293,29.77679],[-95.18324,29.78917],[-95.18689,29.78909],[-95.18695,29.79183]]]}},{"type":"Feature","properties":{"PRECINCT":"harris:381","COUNTY":"Harris"},"geometry":{"type":"Polygon","coordinates":[[[-95.12464,29.78948],[-95.12395,29.76096],[-95.12398,29.75727],[-95.12422,29.75724],[-95.12551,29.75755],[-95.12673,29.75862],[-95.1273,29.75949],[-95.12734,29.75999],[-95.12631,29.76309],[-95.12674,29.76395],[-95.12765,29.7642],[-95.13231,29.76345],[-95.13285,29.76401],[-95.13235,29.76564],[-95.13275,29.76651],[-95.13791,29.76732],[-95.1401,29.76934],[-95.14128,29.77084],[-95.14292,29.77074],[-95.14356,29.77141],[-95.1451,29.7714],[-95.14594,29.77174],[-95.14678,29.77134],[-95.14798,29.77139],[-95.14868,29.77157],[-95.14934,29.77216],[-95.13846,29.77483],[-95.13859,29.77919],[-95.13982,29.78235],[-95.14018,29.78401],[-95.14049,29.79253],[-95.14198,29.79677],[-95.14279,29.81545],[-95.13431,29.81843],[-95.12716,29.82051],[-95.12399,29.80191],[-95.12464,29.78948]]]}},{"type":"Feature","properties":{"PRECINCT":"harris:413","COUNTY":"Harris"},"geometry":{"type":"Polygon","coordinates":[[[-95.16324,29.80001],[-95.16291,29.79609],[-95.16207,29.79315],[-95.16105,29.79066],[-95.16634,29.79045],[-95.1712,29.79054],[-95.17691,29.79199],[-95.1749,29.79803],[-95.17476,29.79906],[-95.17386,29.79905],[-95.1738,29.80084],[-95.17308,29.80391],[-95.17333,29.80638],[-95.16329,29.80874],[-95.16324,29.80001]]]}},{"type":"Feature","properties":{"PRECINCT":"harris:528","COUNTY":"Harris"},"geometry":{"type":"Polygon","coordinates":[[[-95.27752,29.74661],[-95.27523,29.7457],[-95.26494,29.74598],[-95.26495,29.74192],[-95.26542,29.73824],[-95.2803,29.74799],[-95.28112,29.74856],[-95.28108,29.749],[-95.27752,29.74661]]]}},{"type":"Feature","properties":{"PRECINCT":"harris:530","COUNTY":"Harris"},"geometry":{"type":"Polygon","coordinates":[[[-95.29742,29.75423],[-95.29499,29.75152],[-95.29483,29.75086],[-95.29631,29.74882],[-95.29652,29.74816],[-95.29747,29.74716],[-95.29889,29.74382],[-95.29909,29.74389],[-95.29905,29.74231],[-95.30827,29.74523],[-95.30911,29.74401],[-95.30956,29.74415],[-95.30291,29.75395],[-95.3018,29.75305],[-95.30084,29.75273],[-95.29996,29.75289],[-95.29861,29.75416],[-95.29742,29.75423]]]}},{"type":"Feature","properties":{"PRECINCT":"harris:533","COUNTY":"Harris"},"geometry":{"type":"Polygon","coordinates":[[[-94.94419,29.75211],[-94.9524,29.74198],[-94.95388,29.73986],[-94.95865,29.74087],[-94.96112,29.74183],[-94.95705,29.74866],[-94.96379,29.7476],[-94.96384,29.75352],[-94.94524,29.75643],[-94.94035,29.75742],[-94.94177,29.7567],[-94.94242,29.75611],[-94.94317,29.75482],[-94.94419,29.75211]]]}},{"type":"Feature","properties":{"PRECINCT":"harris:560","COUNTY":"Harris"},"geometry":{"type":"Polygon","coordinates":[[[-95.29758,29.77557],[-95.29927,29.77522],[-95.29879,29.77537],[-95.29906,29.78754],[-95.2916,29.78765],[-95.29148,29.77989],[-95.29125,29.77789],[-95.29327,29.77736],[-95.29758,29.77557]]]}},{"type":"Feature","properties":{"PRECINCT":"harris:605","COUNTY":"Harris"},"geometry":{"type":"Polygon","coordinates":[[[-95.14407,29.78893],[-95.15346,29.78887],[-95.15897,29.79062],[-95.16035,29.79365],[-95.15985,29.79413],[-95.15846,29.79456],[-95.15834,29.79567],[-95.15759,29.79615],[-95.15762,29.79723],[-95.15275,29.79722],[-95.15285,29.80103],[-95.15338,29.80355],[-95.15346,29.8056],[-95.1423,29.80568],[-95.14198,29.79677],[-95.14064,29.7932],[-95.14275,29.79288],[-95.14425,29.79232],[-95.14407,29.78893]]]}},{"type":"Feature","properties":{"PRECINCT":"harris:62","COUNTY":"Harris"},"geometry":{"type":"Polygon","coordinates":[[[-95.28719,29.76597],[-95.28696,29.75237],[-95.26542,29.73824],[-95.26675,29.72887],[-95.26653,29.72494],[-95.26989,29.72465],[-95.27164,29.72505],[-95.27518,29.72739],[-95.27614,29.72915],[-95.27691,29.73294],[-95.27905,29.73766],[-95.28141,29.74106],[-95.28477,29.74462],[-95.28495,29.74544],[-95.28665,29.74829],[-95.28881,29.74991],[-95.29303,29.74727],[-95.2957,29.74722],[-95.29645,29.74764],[-95.29652,29.74816],[-95.29583,29.74954],[-95.29502,29.75035],[-95.29483,29.75115],[-95.2954,29.75206],[-95.29742,29.75423],[-95.29861,29.75416],[-95.29996,29.75289],[-95.30084,29.75273],[-95.30242,29.75346],[-95.30419,29.75554],[-95.3048,29.75582],[-95.30577,29.7557],[-95.3068,29.755],[-95.30826,29.75461],[-95.30945,29.7547],[-95.31301,29.75554],[-95.31467,29.7553],[-95.31574,29.75475],[-95.3181,29.75503],[-95.32005,29.75612],[-95.31548,29.76363],[-95.31548,29.76468],[-95.31405,29.76423],[-95.31335,29.7645],[-95.31252,29.76534],[-95.31243,29.77442],[-95.30123,29.77442],[-95.29884,29.77506],[-95.29222,29.77769],[-95.28991,29.77803],[-95.28404,29.77811],[-95.28378,29.76599],[-95.28719,29.76597]]]}},{"type":"Feature","properties":{"PRECINCT":"harris:64","COUNTY":"Harris"},"geometry":{"type":"Polygon","coordinates":[[[-95.28657,29.74816],[-95.28495,29.74544],[-95.28477,29.74462],[-95.28179,29.74151],[-95.2881,29.74316],[-95.28829,29.74204],[-95.29298,29.73045],[-95.29462,29.72868],[-95.2949,29.72794],[-95.29763,29.72753],[-95.2996,29.72822],[-95.29927,29.72908],[-95.30072,29.72953],[-95.29949,29.73265],[-95.30314,29.7338],[-95.30063,29.73978],[-95.29894,29.73925],[-95.29909,29.74389],[-95.29889,29.74382],[-95.29747,29.74716],[-95.29652,29.74816],[-95.29645,29.74764],[-95.2957,29.74722],[-95.29303,29.74727],[-95.28884,29.74993],[-95.28657,29.74816]]]}},{"type":"Feature","properties":{"PRECINCT":"harris:65","COUNTY":"Harris"},"geometry":{"type":"Polygon","coordinates":[[[-95.27518,29.72739],[-95.27651,29.72665],[-95.27844,29.7275],[-95.28167,29.72738],[-95.28222,29.72597],[-95.28207,29.7247],[-95.28338,29.72262],[-95.28414,29.72237],[-95.28643,29.72266],[-95.28781,29.72346],[-95.28931,29.72327],[-95.29013,29.72349],[-95.29127,29.72584],[-95.29326,29.72649],[-95.29433,29.7277],[-95.2949,29.72794],[-95.29462,29.72868],[-95.29298,29.73045],[-95.28829,29.74204],[-95.2881,29.74316],[-95.28179,29.74151],[-95.28141,29.74106],[-95.27905,29.73766],[-95.278,29.73535],[-95.27691,29.73294],[-95.27614,29.72915],[-95.27518,29.72739]]]}},{"type":"Feature","properties":{"PRECINCT":"harris:69","COUNTY":"Harris"},"geometry":{"type":"Polygon","coordinates":[[[-95.30827,29.74523],[-95.29905,29.74231],[-95.29894,29.73925],[-95.30063,29.73978],[-95.30314,29.7338],[-95.31398,29.73719],[-95.3127,29.73888],[-95.31301,29.73898],[-95.30956,29.74415],[-95.30911,29.74401],[-95.30827,29.74523]]]}},{"type":"Feature","properties":{"PRECINCT":"harris:719","COUNTY":"Harris"},"geometry":{"type":"Polygon","coordinates":[[[-95.14064,29.7932],[-95.14018,29.78401],[-95.13982,29.78235],[-95.13859,29.77919],[-95.13846,29.77483],[-95.14934,29.77216],[-95.15069,29.77327],[-95.15191,29.77292],[-95.1531,29.77357],[-95.15377,29.77363],[-95.15644,29.77229],[-95.15745,29.77249],[-95.15813,29.77341],[-95.15817,29.77391],[-95.15667,29.77498],[-95.15593,29.77607],[-95.15668,29.77687],[-95.15684,29.77746],[-95.15502,29.78061],[-95.1546,29.78261],[-95.15372,29.78298],[-95.15367,29.78375],[-95.15413,29.78466],[-95.15845,29.78927],[-95.15897,29.79062],[-95.15346,29.78887],[-95.14407,29.78893],[-95.14425,29.79232],[-95.14275,29.79288],[-95.14064,29.7932]]]}},{"type":"Feature","properties":{"PRECINCT":"harris:725","COUNTY":"Harris"},"geometry":{"type":"Polygon","coordinates":[[[-95.1731,29.80375],[-95.17386,29.79905],[-95.17476,29.79906],[-95.1749,29.79803],[-95.17694,29.79187],[-95.17845,29.7921],[-95.18681,29.79182],[-95.18783,29.79195],[-95.18999,29.7929],[-95.17921,29.8062],[-95.17333,29.80638],[-95.1731,29.80375]]]}},{"type":"Feature","properties":{"PRECINCT":"harris:740","COUNTY":"Harris"},"geometry":{"type":"Polygon","coordinates":[[[-95.00222,29.78861],[-95.00249,29.788],[-95.00236,29.787],[-95.0026,29.78599],[-95.00217,29.78502],[-95.00236,29.78227],[-95.03189,29.78696],[-95.03919,29.78665],[-95.03969,29.78616],[-95.04322,29.78763],[-95.04338,29.7861],[-95.04379,29.78596],[-95.04399,29.78545],[-95.04509,29.78445],[-95.04513,29.78409],[-95.04558,29.78384],[-95.04566,29.78351],[-95.046,29.78358],[-95.0464,29.78327],[-95.04778,29.78155],[-95.0487,29.78016],[-95.04838,29.77951],[-95.05173,29.7795],[-95.05555,29.78035],[-95.05725,29.77952],[-95.05807,29.77872],[-95.06022,29.77808],[-95.06089,29.77825],[-95.05992,29.78067],[-95.0619,29.78129],[-95.0689,29.76995],[-95.06871,29.76799],[-95.06896,29.76746],[-95.07601,29.76607],[-95.07774,29.76505],[-95.07876,29.76477],[-95.07948,29.7637],[-95.08268,29.76414],[-95.08653,29.76345],[-95.08751,29.76293],[-95.08901,29.76493],[-95.09101,29.76523],[-95.09251,29.76483],[-95.09441,29.76363],[-95.09601,29.76323],[-95.09691,29.76333],[-95.10004,29.76631],[-95.10127,29.7705],[-95.10355,29.77048],[-95.10295,29.77347],[-95.10291,29.77696],[-95.10195,29.78033],[-95.1022,29.78111],[-95.10365,29.78107],[-95.10444,29.78185],[-95.10338,29.78241],[-95.10314,29.7814],[-95.1028,29.78129],[-95.10209,29.78167],[-95.10168,29.78152],[-95.10034,29.78048],[-95.10046,29.77969],[-95.10027,29.77976],[-95.09985,29.78081],[-95.10084,29.7813],[-95.10058,29.7816],[-95.10026,29.7834],[-95.09933,29.7844],[-95.09585,29.78549],[-95.09409,29.78562],[-95.09249,29.78543],[-95.09206,29.78636],[-95.0917,29.78539],[-95.08873,29.78606],[-95.08797,29.78588],[-95.08727,29.78636],[-95.08741,29.78863],[-95.08721,29.78887],[-95.08689,29.78866],[-95.08641,29.7868],[-95.08626,29.78699],[-95.08684,29.78902],[-95.08661,29.78913],[-95.08592,29.78761],[-95.08594,29.78625],[-95.08549,29.78773],[-95.08558,29.78919],[-95.08511,29.78924],[-95.08492,29.78965],[-95.08505,29.79005],[-95.09015,29.78909],[-95.09584,29.78726],[-95.09558,29.7883],[-95.09067,29.78988],[-95.08042,29.79164],[-95.07947,29.79197],[-95.07968,29.79242],[-95.07279,29.7949],[-95.07101,29.79535],[-95.06879,29.79543],[-95.06668,29.79507],[-95.057,29.79089],[-95.05491,29.79048],[-95.0524,29.79051],[-95.04915,29.79116],[-95.02624,29.79963],[-95.02399,29.79991],[-95.01101,29.80022],[-95.00476,29.80115],[-95.004,29.80086],[-95.00283,29.79978],[-95.00259,29.7991],[-95.00268,29.79745],[-95.00178,29.79556],[-95.00157,29.7946],[-95.00192,29.79405],[-95.00293,29.79046],[-95.00235,29.78979],[-95.00222,29.78861]]]}},{"type":"Feature","properties":{"PRECINCT":"harris:741","COUNTY":"Harris"},"geometry":{"type":"Polygon","coordinates":[[[-95.14279,29.81545],[-95.1423,29.80568],[-95.15346,29.8056],[-95.15338,29.80355],[-95.15285,29.80103],[-95.15275,29.79722],[-95.15762,29.79723],[-95.15771,29.79829],[-95.15649,29.79994],[-95.15574,29.80036],[-95.1555,29.80087],[-95.15569,29.80137],[-95.15597,29.8017],[-95.15865,29.80221],[-95.16041,29.80292],[-95.16122,29.80431],[-95.16115,29.80476],[-95.16043,29.80516],[-95.15885,29.80533],[-95.1583,29.8056],[-95.15656,29.8071],[-95.15702,29.80818],[-95.1576,29.80827],[-95.15855,29.80905],[-95.15869,29.80995],[-95.15183,29.81197],[-95.14963,29.81303],[-95.14279,29.81545]]]}},{"type":"Feature","properties":{"PRECINCT":"harris:769","COUNTY":"Harris"},"geometry":{"type":"Polygon","coordinates":[[[-95.25126,29.77333],[-95.25113,29.76747],[-95.25896,29.76863],[-95.25912,29.77336],[-95.25525,29.77379],[-95.25126,29.77333]]]}},{"type":"Feature","properties":{"PRECINCT":"harris:79","COUNTY":"Harris"},"geometry":{"type":"Polygon","coordinates":[[[-95.29879,29.77537],[-95.29927,29.77522],[-95.29758,29.77557],[-95.30123,29.77442],[-95.31243,29.77442],[-95.3125,29.7856],[-95.3124,29.78647],[-95.3119,29.78742],[-95.29906,29.78754],[-95.29879,29.77537]]]}},{"type":"Feature","properties":{"PRECINCT":"harris:80","COUNTY":"Harris"},"geometry":{"type":"Polygon","coordinates":[[[-95.21266,29.80512],[-95.21077,29.80475],[-95.21009,29.80363],[-95.20894,29.80295],[-95.20769,29.80058],[-95.20406,29.79712],[-95.2037,29.79629],[-95.20441,29.79552],[-95.20624,29.79573],[-95.2068,29.79555],[-95.20685,29.79534],[-95.2063,29.79384],[-95.20651,29.79382],[-95.20638,29.79226],[-95.20492,29.79058],[-95.20487,29.78917],[-95.20517,29.78878],[-95.20603,29.7888],[-95.20653,29.78917],[-95.20817,29.78947],[-95.20816,29.78966],[-95.20932,29.78968],[-95.21191,29.78787],[-95.21402,29.78733],[-95.21471,29.78652],[-95.21488,29.78577],[-95.21434,29.78488],[-95.21386,29.78332],[-95.21297,29.78215],[-95.21272,29.78032],[-95.21193,29.77954],[-95.21071,29.77893],[-95.20878,29.77909],[-95.20835,29.77891],[-95.20805,29.77836],[-95.20792,29.77604],[-95.20707,29.77547],[-95.20553,29.77554],[-95.20361,29.77514],[-95.20135,29.775],[-95.2001,29.77546],[-95.19851,29.77674],[-95.1975,29.77689],[-95.19673,29.77663],[-95.19574,29.77583],[-95.19515,29.77452],[-95.19542,29.77389],[-95.19673,29.7726],[-95.19703,29.77153],[-95.2006,29.77166],[-95.20642,29.77139],[-95.21366,29.77074],[-95.21389,29.77138],[-95.21292,29.7722],[-95.21569,29.77474],[-95.21747,29.77469],[-95.21827,29.77584],[-95.21849,29.77653],[-95.21865,29.78414],[-95.21934,29.78402],[-95.22071,29.78325],[-95.22313,29.78315],[-95.22312,29.78162],[-95.22402,29.78181],[-95.2286,29.78182],[-95.22875,29.7813],[-95.2305,29.78129],[-95.23163,29.78176],[-95.23237,29.78133],[-95.23438,29.78112],[-95.23378,29.78069],[-95.23352,29.78007],[-95.23363,29.77975],[-95.23303,29.77942],[-95.23185,29.77713],[-95.23137,29.77698],[-95.23103,29.77657],[-95.22996,29.77634],[-95.22854,29.77471],[-95.22838,29.77309],[-95.22772,29.77161],[-95.23614,29.77341],[-95.23958,29.77348],[-95.23749,29.77367],[-95.23757,29.77388],[-95.23968,29.77409],[-95.23773,29.77413],[-95.2378,29.77669],[-95.23807,29.77732],[-95.23785,29.77839],[-95.23788,29.78079],[-95.24118,29.78077],[-95.24243,29.78013],[-95.24304,29.78076],[-95.24641,29.78081],[-95.2466,29.78006],[-95.24748,29.78024],[-95.24749,29.78071],[-95.25142,29.78068],[-95.25151,29.78669],[-95.24614,29.78683],[-95.24619,29.79493],[-95.24026,29.7951],[-95.21461,29.80405],[-95.21266,29.80512]]]}},{"type":"Feature","properties":{"PRECINCT":"harris:81","COUNTY":"Harris"},"geometry":{"type":"Polygon","coordinates":[[[-95.21151,29.75963],[-95.21133,29.75768],[-95.21142,29.74971],[-95.21091,29.74083],[-95.21115,29.7396],[-95.21227,29.73895],[-95.21206,29.7341],[-95.21135,29.73286],[-95.21192,29.73167],[-95.21188,29.72653],[-95.21521,29.72453],[-95.21931,29.72413],[-95.22453,29.72558],[-95.227,29.72582],[-95.23375,29.72359],[-95.23568,29.72237],[-95.23891,29.71952],[-95.23998,29.71931],[-95.24036,29.75884],[-95.21308,29.75979],[-95.21183,29.75981],[-95.21151,29.75963]]]}},{"type":"Feature","properties":{"PRECINCT":"harris:810","COUNTY":"Harris"},"geometry":{"type":"Polygon","coordinates":[[[-95.28123,29.75413],[-95.28112,29.74856],[-95.2835,29.7501],[-95.28381,29.76793],[-95.2797,29.76799],[-95.27883,29.76762],[-95.27828,29.76667],[-95.27821,29.76057],[-95.2794,29.75912],[-95.27946,29.75547],[-95.27971,29.75516],[-95.28085,29.7548],[-95.28123,29.75413]]]}},{"type":"Feature","properties":{"PRECINCT":"harris:811","COUNTY":"Harris"},"geometry":{"type":"Polygon","coordinates":[[[-95.28838,29.78821],[-95.28821,29.78083],[-95.28726,29.78173],[-95.28405,29.78189],[-95.28404,29.77811],[-95.29125,29.77789],[-95.29148,29.77989],[-95.2916,29.78765],[-95.28838,29.78821]]]}},{"type":"Feature","properties":{"PRECINCT":"harris:812","COUNTY":"Harris"},"geometry":{"type":"Polygon","coordinates":[[[-95.28726,29.78173],[-95.28821,29.78083],[-95.28838,29.78821],[-95.27755,29.79011],[-95.28329,29.78358],[-95.28405,29.78189],[-95.28726,29.78173]]]}},{"type":"Feature","properties":{"PRECINCT":"harris:821","COUNTY":"Harris"},"geometry":{"type":"Polygon","coordinates":[[[-95.21865,29.78414],[-95.21849,29.77653],[-95.21827,29.77584],[-95.21747,29.77469],[-95.21569,29.77474],[-95.21292,29.7722],[-95.21389,29.77138],[-95.21366,29.77074],[-95.21653,29.7705],[-95.22047,29.7705],[-95.22797,29.77212],[-95.22838,29.77309],[-95.22854,29.77471],[-95.22996,29.77634],[-95.23103,29.77657],[-95.23137,29.77698],[-95.23185,29.77713],[-95.23303,29.77942],[-95.23363,29.77975],[-95.23352,29.78007],[-95.23378,29.78069],[-95.23438,29.78112],[-95.23237,29.78133],[-95.23163,29.78176],[-95.2305,29.78129],[-95.22875,29.7813],[-95.2286,29.78182],[-95.22402,29.78181],[-95.22312,29.78162],[-95.22313,29.78315],[-95.22071,29.78325],[-95.21934,29.78402],[-95.21865,29.78414]]]}},{"type":"Feature","properties":{"PRECINCT":"harris:824","COUNTY":"Harris"},"geometry":{"type":"Polygon","coordinates":[[[-95.18695,29.79183],[-95.18689,29.78909],[-95.18324,29.78917],[-95.18319,29.78628],[-95.19458,29.78607],[-95.19687,29.78741],[-95.19843,29.78597],[-95.2005,29.78617],[-95.20151,29.78547],[-95.2026,29.78411],[-95.20241,29.78304],[-95.20306,29.78182],[-95.20292,29.78109],[-95.20475,29.77829],[-95.20502,29.77726],[-95.205,29.77665],[-95.20457,29.7759],[-95.20473,29.77535],[-95.20553,29.77554],[-95.20707,29.77547],[-95.20782,29.77594],[-95.2081,29.77653],[-95.20805,29.77836],[-95.20854,29.77904],[-95.21071,29.77893],[-95.21252,29.78004],[-95.21283,29.78062],[-95.21297,29.78215],[-95.21386,29.78332],[-95.21434,29.78488],[-95.21488,29.78577],[-95.21471,29.78652],[-95.21402,29.78733],[-95.21191,29.78787],[-95.20932,29.78968],[-95.20816,29.78966],[-95.20817,29.78947],[-95.20653,29.78917],[-95.20603,29.7888],[-95.20517,29.78878],[-95.20487,29.78917],[-95.20476,29.78992],[-95.20492,29.79058],[-95.20561,29.79131],[-95.20029,29.7916],[-95.19883,29.79216],[-95.19677,29.79341],[-95.19523,29.7939],[-95.19325,29.79402],[-95.19136,29.79361],[-95.18783,29.79195],[-95.18695,29.79183]]]}},{"type":"Feature","properties":{"PRECINCT":"harris:827","COUNTY":"Harris"},"geometry":{"type":"Polygon","coordinates":[[[-95.15792,29.77745],[-95.15669,29.77497],[-95.15817,29.77391],[-95.15813,29.77341],[-95.15745,29.77249],[-95.15644,29.77229],[-95.15412,29.77357],[-95.15341,29.7736],[-95.15191,29.77292],[-95.15069,29.77327],[-95.14881,29.77167],[-95.15045,29.77121],[-95.15037,29.77084],[-95.15118,29.77107],[-95.15444,29.77052],[-95.1558,29.7706],[-95.15574,29.76871],[-95.1626,29.76857],[-95.16263,29.76937],[-95.16183,29.76986],[-95.15916,29.76989],[-95.15917,29.77058],[-95.16126,29.77062],[-95.16051,29.77107],[-95.18226,29.77061],[-95.18224,29.77088],[-95.18282,29.77089],[-95.18293,29.77679],[-95.16076,29.77724],[-95.16076,29.78026],[-95.15831,29.78026],[-95.15792,29.77745]]]}},{"type":"Feature","properties":{"PRECINCT":"harris:831","COUNTY":"Harris"},"geometry":{"type":"Polygon","coordinates":[[[-95.16126,29.77062],[-95.15917,29.77058],[-95.15916,29.76989],[-95.16183,29.76986],[-95.16263,29.76937],[-95.16298,29.76982],[-95.16619,29.76976],[-95.1662,29.77048],[-95.17277,29.77035],[-95.17265,29.7674],[-95.18121,29.7671],[-95.18145,29.7702],[-95.18329,29.77015],[-95.18462,29.76989],[-95.18462,29.76966],[-95.18597,29.76962],[-95.18595,29.77007],[-95.18656,29.76987],[-95.18718,29.76999],[-95.1901,29.76932],[-95.19142,29.77012],[-95.19286,29.77018],[-95.19569,29.76975],[-95.19663,29.77022],[-95.19703,29.77153],[-95.18226,29.77061],[-95.16051,29.77107],[-95.16126,29.77062]]]}},{"type":"Feature","properties":{"PRECINCT":"harris:838","COUNTY":"Harris"},"geometry":{"type":"Polygon","coordinates":[[[-95.25606,29.76818],[-95.25607,29.76793],[-95.2594,29.76824],[-95.2594,29.7687],[-95.25606,29.76818]]]}},{"type":"Feature","properties":{"PRECINCT":"harris:857","COUNTY":"Harris"},"geometry":{"type":"Polygon","coordinates":[[[-95.254,29.73044],[-95.25289,29.73022],[-95.24379,29.73022],[-95.24376,29.72407],[-95.24559,29.72181],[-95.24792,29.72064],[-95.2497,29.72205],[-95.25261,29.72498],[-95.25403,29.72602],[-95.25579,29.72681],[-95.25932,29.72687],[-95.2627,29.7262],[-95.26398,29.72563],[-95.26653,29.72494],[-95.26675,29.72887],[-95.26542,29.73824],[-95.25664,29.73246],[-95.25668,29.73214],[-95.254,29.73044]]]}},{"type":"Feature","properties":{"PRECINCT":"harris:860","COUNTY":"Harris"},"geometry":{"type":"Polygon","coordinates":[[[-95.24134,29.72039],[-95.24519,29.72032],[-95.24554,29.71968],[-95.24778,29.7206],[-95.24559,29.72181],[-95.24435,29.72324],[-95.24376,29.72407],[-95.24378,29.72582],[-95.24124,29.7265],[-95.24115,29.7206],[-95.24134,29.72039]]]}},{"type":"Feature","properties":{"PRECINCT":"harris:872","COUNTY":"Harris"},"geometry":{"type":"Polygon","coordinates":[[[-95.14308,29.7708],[-95.14128,29.77084],[-95.1401,29.76934],[-95.13791,29.76732],[-95.13275,29.76651],[-95.13235,29.76564],[-95.13285,29.76401],[-95.13231,29.76345],[-95.12765,29.7642],[-95.12674,29.76395],[-95.12631,29.76309],[-95.12734,29.75999],[-95.1273,29.75949],[-95.12673,29.75862],[-95.12551,29.75755],[-95.12463,29.75724],[-95.12369,29.75731],[-95.12295,29.7577],[-95.12133,29.75962],[-95.11885,29.75915],[-95.11603,29.75928],[-95.11464,29.76022],[-95.11326,29.76217],[-95.11213,29.76305],[-95.1088,29.76262],[-95.10763,29.76122],[-95.10548,29.76031],[-95.10218,29.75954],[-95.10075,29.75871],[-95.09785,29.75781],[-95.09607,29.75674],[-95.09529,29.7579],[-95.09551,29.75824],[-95.09538,29.7586],[-95.09598,29.75971],[-95.09574,29.75999],[-95.09428,29.76034],[-95.09165,29.76202],[-95.09143,29.76313],[-95.08859,29.76438],[-95.08751,29.76293],[-95.09001,29.76063],[-95.09104,29.7584],[-95.09245,29.75694],[-95.09304,29.75565],[-95.09309,29.75462],[-95.09401,29.75285],[-95.09611,29.75093],[-95.09807,29.74986],[-95.09998,29.74847],[-95.10061,29.74771],[-95.10069,29.747],[-95.10341,29.74461],[-95.10461,29.7431],[-95.10661,29.7416],[-95.10885,29.74048],[-95.11023,29.74014],[-95.11221,29.74015],[-95.11388,29.73954],[-95.11528,29.73956],[-95.11741,29.73861],[-95.12279,29.73503],[-95.12468,29.7343],[-95.12629,29.73424],[-95.12803,29.73488],[-95.12914,29.73432],[-95.13119,29.73378],[-95.13251,29.73428],[-95.13705,29.735],[-95.14214,29.73539],[-95.1458,29.73608],[-95.14844,29.73626],[-95.15078,29.736],[-95.15286,29.73629],[-95.15632,29.73837],[-95.15684,29.73918],[-95.1581,29.74026],[-95.15926,29.74203],[-95.16336,29.74348],[-95.16508,29.74522],[-95.16628,29.74549],[-95.16894,29.7469],[-95.1682,29.748],[-95.16502,29.75061],[-95.165,29.75156],[-95.16553,29.75213],[-95.17362,29.75287],[-95.17611,29.75353],[-95.1776,29.75529],[-95.17772,29.75581],[-95.17892,29.75731],[-95.18209,29.76032],[-95.18361,29.76093],[-95.18574,29.76097],[-95.18682,29.76074],[-95.1876,29.76039],[-95.19029,29.75823],[-95.19102,29.75815],[-95.19159,29.75855],[-95.19176,29.75941],[-95.1915,29.76038],[-95.19036,29.76203],[-95.18933,29.76258],[-95.18819,29.76442],[-95.18839,29.7664],[-95.1901,29.76932],[-95.1883,29.7698],[-95.18595,29.77007],[-95.18597,29.76962],[-95.18462,29.76966],[-95.18462,29.76989],[-95.18329,29.77015],[-95.18145,29.7702],[-95.18121,29.7671],[-95.17265,29.7674],[-95.17277,29.77035],[-95.1662,29.77048],[-95.16619,29.76976],[-95.16298,29.76982],[-95.16263,29.76937],[-95.1626,29.76857],[-95.15574,29.76871],[-95.1558,29.7706],[-95.15444,29.77052],[-95.15118,29.77107],[-95.15077,29.77083],[-95.14658,29.77019],[-95.14334,29.77116],[-95.14308,29.7708]]]}},{"type":"Feature","properties":{"PRECINCT":"harris:905","COUNTY":"Harris"},"geometry":{"type":"Polygon","coordinates":[[[-95.25143,29.78079],[-95.24749,29.78071],[-95.24748,29.78024],[-95.2466,29.78006],[-95.24641,29.78081],[-95.24304,29.78076],[-95.24243,29.78013],[-95.24118,29.78077],[-95.23788,29.78079],[-95.23785,29.77839],[-95.23807,29.77732],[-95.2378,29.77669],[-95.23773,29.77413],[-95.23968,29.77409],[-95.23757,29.77388],[-95.23749,29.77367],[-95.24958,29.77327],[-95.25576,29.77378],[-95.25912,29.77336],[-95.25896,29.76863],[-95.26541,29.76961],[-95.26355,29.77822],[-95.26346,29.7802],[-95.2647,29.78393],[-95.26802,29.79181],[-95.2616,29.7921],[-95.24728,29.79489],[-95.24619,29.79493],[-95.24614,29.78683],[-95.25151,29.78669],[-95.25143,29.78079]]]}},{"type":"Feature","properties":{"PRECINCT":"harris:925","COUNTY":"Harris"},"geometry":{"type":"Polygon","coordinates":[[[-95.16894,29.7469],[-95.17019,29.74682],[-95.16723,29.74964],[-95.1653,29.75035],[-95.1682,29.748],[-95.16894,29.7469]]]}},{"type":"Feature","properties":{"PRECINCT":"harris:935","COUNTY":"Harris"},"geometry":{"type":"Polygon","coordinates":[[[-95.22714,29.77024],[-95.22724,29.76906],[-95.22651,29.76893],[-95.22556,29.76954],[-95.22526,29.7695],[-95.2251,29.76871],[-95.22439,29.76855],[-95.22393,29.7687],[-95.22357,29.76835],[-95.22377,29.76749],[-95.22538,29.76777],[-95.23382,29.76775],[-95.23386,29.7688],[-95.23175,29.7688],[-95.23176,29.76951],[-95.2338,29.76961],[-95.23369,29.77036],[-95.23181,29.77029],[-95.23184,29.7716],[-95.23324,29.77206],[-95.23303,29.77276],[-95.22772,29.77161],[-95.22714,29.77024]]]}},{"type":"Feature","properties":{"PRECINCT":"harris:954","COUNTY":"Harris"},"geometry":{"type":"Polygon","coordinates":[[[-95.14543,29.77146],[-95.14356,29.77141],[-95.14334,29.77116],[-95.14658,29.77019],[-95.15037,29.77084],[-95.15045,29.77121],[-95.14881,29.77167],[-95.1471,29.77129],[-95.14594,29.77174],[-95.14543,29.77146]]]}},{"type":"Feature","properties":{"PRECINCT":"harris:99","COUNTY":"Harris"},"geometry":{"type":"Polygon","coordinates":[[[-94.96373,29.7503],[-94.96379,29.7476],[-94.95705,29.74866],[-94.96016,29.74331],[-94.96171,29.74304],[-94.96188,29.74372],[-94.96367,29.7434],[-94.96367,29.74159],[-94.96582,29.73666],[-94.96736,29.73717],[-94.96764,29.73652],[-94.97103,29.73765],[-94.9716,29.73637],[-94.97027,29.73593],[-94.97082,29.73464],[-94.97008,29.7344],[-94.97125,29.73172],[-94.97436,29.73274],[-94.97492,29.73146],[-94.97391,29.73111],[-94.97443,29.72992],[-94.98581,29.72977],[-94.98956,29.7305],[-94.98861,29.73214],[-94.98755,29.73297],[-94.98693,29.73382],[-94.9854,29.73412],[-94.98454,29.73399],[-94.98355,29.73462],[-94.98326,29.73521],[-94.98362,29.7386],[-94.98474,29.74061],[-94.98332,29.74284],[-94.98566,29.74588],[-94.98389,29.74551],[-94.9833,29.74556],[-94.98281,29.74593],[-94.98231,29.74707],[-94.98265,29.74824],[-94.98247,29.74865],[-94.97988,29.74924],[-94.97947,29.74985],[-94.96998,29.74996],[-94.96373,29.7503]]]}}]}