{"type":"FeatureCollection","features":[{"type":"Feature","properties":{"PRECINCT":"1","VTD":"0001"},"geometry":{"type":"Polygon","coordinates":[[[-100.019944,32.960232],[-99.975836,32.960078],[-99.794915,32.958381],[-99.794915,32.95684],[-99.797493,32.956781],[-99.797525,32.954725],[-99.801621,32.954729],[-99.801719,32.941806],[-99.800839,32.940672],[-99.801724,32.940682],[-99.801782,32.934565],[-99.813549,32.934854],[-99.816303,32.935116],[-99.816368,32.93652],[-99.820355,32.936483],[-99.823177,32.934193],[-99.834508,32.923532],[-99.835646,32.923074],[-99.881231,32.922744],[-99.951976,32.92338],[-99.952896,32.893998],[-99.973678,32.894385],[-99.974644,32.893982],[-99.975895,32.894416],[-99.978525,32.894416],[-99.97913,32.877626],[-99.978552,32.873238],[-99.953467,32.872779],[-99.953675,32.865288],[-99.901399,32.86394],[-99.90138,32.858953],[-99.899087,32.858586],[-99.896696,32.857286],[-99.89663,32.856738],[-99.897157,32.855342],[-99.899045,32.854355],[-99.89965,32.849159],[-99.901371,32.849207],[-99.901659,32.848944],[-99.903104,32.780101],[-99.898917,32.778807],[-99.896447,32.777447],[-99.896896,32.77599],[-99.896712,32.769596],[-99.892466,32.769534],[-99.892509,32.768115],[-99.885631,32.768002],[-99.88583,32.757973],[-99.884629,32.758004],[-99.884598,32.755955],[-99.887269,32.755952],[-99.887294,32.752995],[-99.888455,32.753008],[-99.888447,32.751492],[-99.894405,32.75151],[-99.89438,32.756968],[-99.896788,32.756997],[-99.896743,32.762036],[-99.905254,32.762064],[-99.905203,32.766637],[-99.91792,32.766798],[-99.920557,32.76681],[-99.921446,32.766485],[-99.922528,32.766458],[-99.922624,32.751876],[-99.955531,32.75197],[-99.963851,32.750608],[-100.015115,32.749989],[-100.018337,32.750748],[-100.025503,32.753605],[-100.02688,32.754323],[-100.036175,32.760697],[-100.037561,32.761409],[-100.039834,32.762072],[-100.052504,32.764044],[-100.054152,32.764139],[-100.056441,32.763844],[-100.122282,32.749907],[-100.125374,32.75],[-100.145488,32.754514],[-100.144761,32.806776],[-100.144914,32.875107],[-100.144224,32.959978],[-100.125379,32.959801],[-100.019944,32.960232]]]}},{"type":"Feature","properties":{"PRECINCT":"2","VTD":"0002"},"geometry":{"type":"Polygon","coordinates":[[[-99.794779,32.958379],[-99.612001,32.956962],[-99.612264,32.903716],[-99.611961,32.792794],[-99.613345,32.793397],[-99.615168,32.793577],[-99.621873,32.792931],[-99.623318,32.792672],[-99.624086,32.792298],[-99.62449,32.792715],[-99.624426,32.793512],[-99.6247,32.793824],[-99.625364,32.793518],[-99.62598,32.792335],[-99.62676,32.791851],[-99.628671,32.791708],[-99.629775,32.792187],[-99.630637,32.792206],[-99.631766,32.791471],[-99.632653,32.790289],[-99.633564,32.789679],[-99.634912,32.789537],[-99.63555,32.789811],[-99.636872,32.789367],[-99.638265,32.789544],[-99.640301,32.789417],[-99.640144,32.801974],[-99.643603,32.801616],[-99.713269,32.801985],[-99.713094,32.853402],[-99.73044,32.853363],[-99.730551,32.868246],[-99.834739,32.868527],[-99.834804,32.85741],[-99.834423,32.853457],[-99.834332,32.847478],[-99.834407,32.816947],[-99.834143,32.808495],[-99.834709,32.765766],[-99.834859,32.72204],[-99.826294,32.72196],[-99.82633,32.707276],[-99.800183,32.707299],[-99.799045,32.705588],[-99.797495,32.70447],[-99.781138,32.697906],[-99.779851,32.697116],[-99.778755,32.695945],[-99.777896,32.693838],[-99.77137,32.670203],[-99.76337,32.640331],[-99.762363,32.63478],[-99.760517,32.62883],[-99.760521,32.627724],[-99.761049,32.6266],[-99.761608,32.626008],[-99.762892,32.625307],[-99.792875,32.618718],[-99.805707,32.615121],[-99.813364,32.639851],[-99.813395,32.641123],[-99.81265,32.642792],[-99.81099,32.64407],[-99.80221,32.646116],[-99.801047,32.646642],[-99.799574,32.648192],[-99.799199,32.649327],[-99.799202,32.650303],[-99.802378,32.660522],[-99.804217,32.663839],[-99.810708,32.687584],[-99.811366,32.688758],[-99.812276,32.689568],[-99.81354,32.690178],[-99.81574,32.690401],[-99.862619,32.681434],[-99.863632,32.682698],[-99.870282,32.693755],[-99.870779,32.694983],[-99.871809,32.696302],[-99.877857,32.706366],[-99.8785,32.707833],[-99.879344,32.708838],[-99.88362,32.71585],[-99.886876,32.721283],[-99.887209,32.72224],[-99.887659,32.722229],[-99.896432,32.73686],[-99.886022,32.73675],[-99.886287,32.747096],[-99.886477,32.747739],[-99.885901,32.751485],[-99.888447,32.751492],[-99.888455,32.753008],[-99.887294,32.752995],[-99.887269,32.755952],[-99.884598,32.755955],[-99.884629,32.758004],[-99.88583,32.757973],[-99.885631,32.768002],[-99.892509,32.768115],[-99.892466,32.769534],[-99.896712,32.769596],[-99.896896,32.77599],[-99.896447,32.777447],[-99.898917,32.778807],[-99.903104,32.780101],[-99.901659,32.848944],[-99.901371,32.849207],[-99.89965,32.849159],[-99.899045,32.854355],[-99.897157,32.855342],[-99.89663,32.856738],[-99.896696,32.857286],[-99.899087,32.858586],[-99.90138,32.858953],[-99.901399,32.86394],[-99.953675,32.865288],[-99.953467,32.872779],[-99.978552,32.873238],[-99.97913,32.877626],[-99.978525,32.894416],[-99.975895,32.894416],[-99.974644,32.893982],[-99.973678,32.894385],[-99.952896,32.893998],[-99.951976,32.92338],[-99.881231,32.922744],[-99.835192,32.923141],[-99.834508,32.923532],[-99.823177,32.934193],[-99.820355,32.936483],[-99.816368,32.93652],[-99.816303,32.935116],[-99.813549,32.934854],[-99.801782,32.934565],[-99.801724,32.940682],[-99.800839,32.940672],[-99.801719,32.941806],[-99.801621,32.954729],[-99.797525,32.954725],[-99.797493,32.956781],[-99.794915,32.95684],[-99.794779,32.958379]]]}},{"type":"Feature","properties":{"PRECINCT":"3","VTD":"0003"},"geometry":{"type":"Polygon","coordinates":[[[-99.834739,32.868527],[-99.730551,32.868246],[-99.73044,32.853363],[-99.713094,32.853402],[-99.713269,32.801985],[-99.643603,32.801616],[-99.640144,32.801974],[-99.640301,32.789417],[-99.638265,32.789544],[-99.636872,32.789367],[-99.63555,32.789811],[-99.634912,32.789537],[-99.633564,32.789679],[-99.632653,32.790289],[-99.631766,32.791471],[-99.630637,32.792206],[-99.629775,32.792187],[-99.628671,32.791708],[-99.62676,32.791851],[-99.62598,32.792335],[-99.625364,32.793518],[-99.6247,32.793824],[-99.624426,32.793512],[-99.62449,32.792715],[-99.624086,32.792298],[-99.623318,32.792672],[-99.621873,32.792931],[-99.615168,32.793577],[-99.613345,32.793397],[-99.611961,32.792794],[-99.612026,32.514654],[-99.629579,32.514657],[-99.629639,32.520713],[-99.717163,32.520567],[-99.753026,32.520712],[-99.754215,32.522379],[-99.750344,32.524099],[-99.748329,32.524566],[-99.741834,32.524637],[-99.741817,32.534737],[-99.742451,32.536626],[-99.742316,32.536962],[-99.738411,32.536942],[-99.738035,32.537965],[-99.734209,32.537915],[-99.733345,32.537737],[-99.733157,32.548063],[-99.733435,32.549596],[-99.733375,32.560306],[-99.749462,32.560338],[-99.747293,32.553114],[-99.76706,32.548592],[-99.767621,32.548448],[-99.767817,32.547993],[-99.773971,32.546539],[-99.779422,32.5531],[-99.789891,32.56271],[-99.79433,32.569133],[-99.803553,32.581334],[-99.807276,32.580616],[-99.814526,32.590514],[-99.823434,32.608925],[-99.829314,32.618761],[-99.825702,32.619708],[-99.827101,32.622421],[-99.828277,32.623925],[-99.834139,32.633685],[-99.834558,32.634715],[-99.836269,32.637169],[-99.862107,32.680174],[-99.862619,32.681434],[-99.81574,32.690401],[-99.81354,32.690178],[-99.812276,32.689568],[-99.811366,32.688758],[-99.810708,32.687584],[-99.804217,32.663839],[-99.802378,32.660522],[-99.799202,32.650303],[-99.799199,32.649327],[-99.799574,32.648192],[-99.801047,32.646642],[-99.80221,32.646116],[-99.81099,32.64407],[-99.81265,32.642792],[-99.813395,32.641123],[-99.813364,32.639851],[-99.805707,32.615121],[-99.792875,32.618718],[-99.762892,32.625307],[-99.761173,32.626438],[-99.760627,32.627406],[-99.760466,32.628303],[-99.762363,32.63478],[-99.76337,32.640331],[-99.77137,32.670203],[-99.777896,32.693838],[-99.778755,32.695945],[-99.779851,32.697116],[-99.781138,32.697906],[-99.797495,32.70447],[-99.799045,32.705588],[-99.800183,32.707299],[-99.82633,32.707276],[-99.826294,32.72196],[-99.834859,32.72204],[-99.834709,32.765766],[-99.834143,32.808495],[-99.834407,32.816947],[-99.834332,32.847478],[-99.834423,32.853457],[-99.834804,32.85741],[-99.834739,32.868527]]]}},{"type":"Feature","properties":{"PRECINCT":"4","VTD":"0004"},"geometry":{"type":"Polygon","coordinates":[[[-99.920337,32.766815],[-99.905203,32.766637],[-99.905254,32.762064],[-99.896743,32.762036],[-99.896788,32.756997],[-99.89438,32.756968],[-99.894405,32.75151],[-99.885901,32.751485],[-99.886477,32.747739],[-99.886287,32.747096],[-99.886022,32.73675],[-99.896432,32.73686],[-99.887659,32.722229],[-99.887209,32.72224],[-99.886444,32.720537],[-99.879344,32.708838],[-99.8785,32.707833],[-99.876057,32.70335],[-99.871809,32.696302],[-99.870779,32.694983],[-99.870282,32.693755],[-99.863632,32.682698],[-99.862619,32.681434],[-99.862107,32.680174],[-99.836269,32.637169],[-99.834558,32.634715],[-99.834139,32.633685],[-99.828277,32.623925],[-99.827101,32.622421],[-99.825702,32.619708],[-99.829314,32.618761],[-99.823434,32.608925],[-99.814526,32.590514],[-99.807276,32.580616],[-99.803553,32.581334],[-99.79433,32.569133],[-99.789891,32.56271],[-99.779422,32.5531],[-99.773971,32.546539],[-99.767817,32.547993],[-99.767621,32.548448],[-99.76706,32.548592],[-99.747293,32.553114],[-99.749462,32.560338],[-99.733375,32.560306],[-99.733435,32.549596],[-99.733157,32.548063],[-99.733345,32.537737],[-99.734209,32.537915],[-99.738035,32.537965],[-99.738411,32.536942],[-99.742316,32.536962],[-99.742451,32.536626],[-99.741817,32.534737],[-99.741834,32.524637],[-99.748329,32.524566],[-99.750344,32.524099],[-99.754215,32.522379],[-99.753026,32.520712],[-99.891167,32.521003],[-99.973632,32.521746],[-100.000392,32.521709],[-100.003112,32.521541],[-100.017924,32.521873],[-100.119306,32.523001],[-100.125455,32.522512],[-100.146543,32.522793],[-100.145919,32.623407],[-100.145773,32.635714],[-100.145515,32.638548],[-100.145849,32.640821],[-100.145683,32.689253],[-100.145975,32.707203],[-100.145636,32.713571],[-100.145321,32.715486],[-100.145843,32.724946],[-100.145488,32.754514],[-100.125374,32.75],[-100.122282,32.749907],[-100.056441,32.763844],[-100.054152,32.764139],[-100.052504,32.764044],[-100.039834,32.762072],[-100.037561,32.761409],[-100.036175,32.760697],[-100.02688,32.754323],[-100.025503,32.753605],[-100.018337,32.750748],[-100.015115,32.749989],[-99.963851,32.750608],[-99.955531,32.75197],[-99.922624,32.751876],[-99.922528,32.766458],[-99.921446,32.766485],[-99.920337,32.766815]]]}}]}