{"type":"FeatureCollection","features":[{"type":"Feature","properties":{"PRECINCT":"el-paso:132","COUNTY":"El Paso"},"geometry":{"type":"Polygon","coordinates":[[[-106.37405,31.76127],[-106.37355,31.76136],[-106.37321,31.76081],[-106.37253,31.76038],[-106.36861,31.7583],[-106.36694,31.7578],[-106.36692,31.75365],[-106.36521,31.75367],[-106.36514,31.74867],[-106.36539,31.74815],[-106.36661,31.74751],[-106.36748,31.74617],[-106.37241,31.75004],[-106.38138,31.75483],[-106.3855,31.7583],[-106.39147,31.7608],[-106.39404,31.76164],[-106.39315,31.76728],[-106.39321,31.76939],[-106.39799,31.78117],[-106.37065,31.7684],[-106.3712,31.768],[-106.37556,31.76204],[-106.37405,31.76127]]]}},{"type":"Feature","properties":{"PRECINCT":"el-paso:133","COUNTY":"El Paso"},"geometry":{"type":"Polygon","coordinates":[[[-106.37065,31.7684],[-106.35971,31.76161],[-106.36154,31.75951],[-106.36232,31.75893],[-106.36141,31.75753],[-106.35857,31.75757],[-106.35853,31.75369],[-106.36692,31.75365],[-106.36694,31.7578],[-106.3689,31.75844],[-106.37299,31.76064],[-106.37355,31.76136],[-106.37421,31.76131],[-106.37556,31.76204],[-106.3712,31.768],[-106.37065,31.7684]]]}},{"type":"Feature","properties":{"PRECINCT":"el-paso:134","COUNTY":"El Paso"},"geometry":{"type":"Polygon","coordinates":[[[-106.36479,31.74167],[-106.3751,31.74174],[-106.39368,31.75755],[-106.39441,31.75898],[-106.39404,31.76164],[-106.39147,31.7608],[-106.3855,31.7583],[-106.381,31.75459],[-106.37536,31.75176],[-106.37178,31.74962],[-106.36697,31.74572],[-106.36561,31.74403],[-106.3643,31.74181],[-106.36479,31.74167]]]}},{"type":"Feature","properties":{"PRECINCT":"el-paso:135","COUNTY":"El Paso"},"geometry":{"type":"Polygon","coordinates":[[[-106.39465,31.73935],[-106.40412,31.74462],[-106.39826,31.75244],[-106.39939,31.75725],[-106.3963,31.75977],[-106.38755,31.75233],[-106.38892,31.75093],[-106.38678,31.74921],[-106.39465,31.73935]]]}},{"type":"Feature","properties":{"PRECINCT":"el-paso:136","COUNTY":"El Paso"},"geometry":{"type":"Polygon","coordinates":[[[-106.38755,31.75233],[-106.3751,31.74174],[-106.37756,31.74167],[-106.3838,31.73364],[-106.39116,31.73766],[-106.39472,31.73925],[-106.38678,31.74921],[-106.38892,31.75093],[-106.38755,31.75233]]]}},{"type":"Feature","properties":{"PRECINCT":"el-paso:137","COUNTY":"El Paso"},"geometry":{"type":"Polygon","coordinates":[[[-106.35971,31.76161],[-106.34525,31.75268],[-106.34597,31.75166],[-106.34595,31.74911],[-106.34914,31.74809],[-106.35392,31.74797],[-106.35392,31.74777],[-106.35795,31.74882],[-106.36339,31.75151],[-106.36518,31.75158],[-106.36521,31.75367],[-106.35853,31.75369],[-106.35857,31.75757],[-106.36141,31.75753],[-106.36232,31.75893],[-106.36154,31.75951],[-106.35971,31.76161]]]}},{"type":"Feature","properties":{"PRECINCT":"el-paso:138","COUNTY":"El Paso"},"geometry":{"type":"Polygon","coordinates":[[[-106.35805,31.74885],[-106.35392,31.74777],[-106.35392,31.74797],[-106.34955,31.74803],[-106.34595,31.74911],[-106.34589,31.73927],[-106.34838,31.73934],[-106.34927,31.73976],[-106.35049,31.74096],[-106.35125,31.74134],[-106.35566,31.74211],[-106.35888,31.74299],[-106.36158,31.74286],[-106.3643,31.74181],[-106.36561,31.74403],[-106.36748,31.74617],[-106.36655,31.74757],[-106.36522,31.74838],[-106.36518,31.75158],[-106.36339,31.75151],[-106.35805,31.74885]]]}},{"type":"Feature","properties":{"PRECINCT":"el-paso:139","COUNTY":"El Paso"},"geometry":{"type":"Polygon","coordinates":[[[-106.34521,31.75265],[-106.33185,31.74439],[-106.33232,31.74368],[-106.33372,31.73509],[-106.33633,31.73575],[-106.34071,31.73594],[-106.34125,31.73625],[-106.34207,31.73731],[-106.34403,31.73882],[-106.34478,31.73916],[-106.34589,31.73927],[-106.34598,31.75152],[-106.34579,31.75217],[-106.34521,31.75265]]]}},{"type":"Feature","properties":{"PRECINCT":"el-paso:140","COUNTY":"El Paso"},"geometry":{"type":"Polygon","coordinates":[[[-106.34771,31.73925],[-106.34589,31.73927],[-106.34559,31.73765],[-106.34402,31.73354],[-106.34426,31.73263],[-106.34534,31.73063],[-106.34794,31.72859],[-106.35843,31.73482],[-106.36263,31.7393],[-106.3643,31.74181],[-106.36132,31.74292],[-106.3586,31.74295],[-106.35566,31.74211],[-106.35125,31.74134],[-106.35049,31.74096],[-106.3491,31.73965],[-106.34771,31.73925]]]}},{"type":"Feature","properties":{"PRECINCT":"el-paso:141","COUNTY":"El Paso"},"geometry":{"type":"Polygon","coordinates":[[[-106.3751,31.74174],[-106.3643,31.74181],[-106.36263,31.7393],[-106.35818,31.73462],[-106.34794,31.72859],[-106.34952,31.72757],[-106.35016,31.72684],[-106.35051,31.72597],[-106.35077,31.7237],[-106.352,31.7221],[-106.3751,31.74174]]]}},{"type":"Feature","properties":{"PRECINCT":"el-paso:142","COUNTY":"El Paso"},"geometry":{"type":"Polygon","coordinates":[[[-106.3683,31.73147],[-106.36848,31.7295],[-106.36926,31.72951],[-106.37369,31.72856],[-106.3735,31.72787],[-106.37763,31.72696],[-106.37804,31.72831],[-106.38032,31.73138],[-106.38107,31.73208],[-106.3838,31.73364],[-106.37749,31.74172],[-106.3751,31.74174],[-106.36669,31.73459],[-106.36886,31.73267],[-106.3683,31.73147]]]}},{"type":"Feature","properties":{"PRECINCT":"el-paso:143","COUNTY":"El Paso"},"geometry":{"type":"Polygon","coordinates":[[[-106.36436,31.73121],[-106.36199,31.72929],[-106.36382,31.72756],[-106.36379,31.72319],[-106.36331,31.72115],[-106.36413,31.71894],[-106.36375,31.71868],[-106.36434,31.71785],[-106.36573,31.71456],[-106.36815,31.7109],[-106.36829,31.70957],[-106.37014,31.71071],[-106.37237,31.71257],[-106.37404,31.71485],[-106.37763,31.72696],[-106.3735,31.72787],[-106.37369,31.72856],[-106.36926,31.72951],[-106.36848,31.7295],[-106.3683,31.73147],[-106.36886,31.73267],[-106.36669,31.73459],[-106.36353,31.73191],[-106.36436,31.73121]]]}},{"type":"Feature","properties":{"PRECINCT":"el-paso:144","COUNTY":"El Paso"},"geometry":{"type":"Polygon","coordinates":[[[-106.32548,31.73903],[-106.3294,31.72734],[-106.33149,31.7225],[-106.33247,31.72093],[-106.3399,31.72398],[-106.34794,31.72859],[-106.34534,31.73063],[-106.34406,31.73311],[-106.3441,31.73397],[-106.34559,31.73765],[-106.34589,31.73927],[-106.34478,31.73916],[-106.34403,31.73882],[-106.34207,31.73731],[-106.34125,31.73625],[-106.34071,31.73594],[-106.33633,31.73575],[-106.33372,31.73509],[-106.33232,31.74368],[-106.33185,31.74439],[-106.32484,31.73986],[-106.32548,31.73903]]]}},{"type":"Feature","properties":{"PRECINCT":"el-paso:145","COUNTY":"El Paso"},"geometry":{"type":"Polygon","coordinates":[[[-106.31492,31.7072],[-106.31752,31.70495],[-106.31819,31.70572],[-106.32918,31.71903],[-106.33057,31.72011],[-106.33247,31.72093],[-106.33149,31.7225],[-106.3294,31.72734],[-106.32556,31.73882],[-106.32484,31.73986],[-106.30476,31.72066],[-106.31197,31.71069],[-106.31492,31.7072]]]}},{"type":"Feature","properties":{"PRECINCT":"el-paso:146","COUNTY":"El Paso"},"geometry":{"type":"Polygon","coordinates":[[[-106.34083,31.71274],[-106.352,31.7221],[-106.35077,31.7237],[-106.35051,31.72597],[-106.35016,31.72684],[-106.34952,31.72757],[-106.34794,31.72859],[-106.34009,31.72408],[-106.3372,31.72284],[-106.33911,31.71601],[-106.33904,31.71487],[-106.34083,31.71274]]]}},{"type":"Feature","properties":{"PRECINCT":"el-paso:147","COUNTY":"El Paso"},"geometry":{"type":"Polygon","coordinates":[[[-106.36353,31.73191],[-106.34092,31.71267],[-106.34578,31.71182],[-106.34581,31.71119],[-106.34714,31.71087],[-106.34859,31.71284],[-106.3494,31.71268],[-106.35635,31.71456],[-106.35591,31.71565],[-106.36423,31.71807],[-106.36375,31.71868],[-106.36413,31.71894],[-106.36331,31.72105],[-106.36379,31.72319],[-106.36382,31.72756],[-106.36199,31.72929],[-106.36436,31.73121],[-106.36353,31.73191]]]}},{"type":"Feature","properties":{"PRECINCT":"el-paso:148","COUNTY":"El Paso"},"geometry":{"type":"Polygon","coordinates":[[[-106.34928,31.71266],[-106.34859,31.71284],[-106.34329,31.70538],[-106.35617,31.70231],[-106.35701,31.70219],[-106.36829,31.70957],[-106.36815,31.7109],[-106.36573,31.71456],[-106.36423,31.71807],[-106.35591,31.71565],[-106.35635,31.71456],[-106.34928,31.71266]]]}},{"type":"Feature","properties":{"PRECINCT":"el-paso:149","COUNTY":"El Paso"},"geometry":{"type":"Polygon","coordinates":[[[-106.32114,31.70278],[-106.3248,31.69894],[-106.34092,31.71267],[-106.33904,31.71487],[-106.33911,31.71601],[-106.3372,31.72284],[-106.33075,31.72021],[-106.32947,31.71932],[-106.31752,31.70495],[-106.32114,31.70278]]]}},{"type":"Feature","properties":{"PRECINCT":"el-paso:150","COUNTY":"El Paso"},"geometry":{"type":"Polygon","coordinates":[[[-106.34092,31.71267],[-106.3248,31.69894],[-106.327,31.69694],[-106.32781,31.69543],[-106.32721,31.69527],[-106.32722,31.69482],[-106.32665,31.69372],[-106.32643,31.69213],[-106.32698,31.69219],[-106.32703,31.69149],[-106.3357,31.69494],[-106.33712,31.69582],[-106.34426,31.70689],[-106.34714,31.71087],[-106.34581,31.71119],[-106.34578,31.71182],[-106.34092,31.71267]]]}},{"type":"Feature","properties":{"PRECINCT":"el-paso:151","COUNTY":"El Paso"},"geometry":{"type":"Polygon","coordinates":[[[-106.34329,31.70538],[-106.33771,31.6965],[-106.33696,31.69567],[-106.3357,31.69494],[-106.32786,31.69184],[-106.32812,31.69075],[-106.32981,31.69096],[-106.33025,31.68996],[-106.3296,31.68978],[-106.33049,31.68781],[-106.33302,31.68778],[-106.33491,31.68727],[-106.33926,31.68741],[-106.33941,31.68982],[-106.34133,31.6897],[-106.34121,31.68826],[-106.34184,31.68806],[-106.34296,31.69204],[-106.34697,31.69111],[-106.34842,31.69464],[-106.34956,31.69671],[-106.35175,31.69859],[-106.35701,31.70219],[-106.34329,31.70538]]]}},{"type":"Feature","properties":{"PRECINCT":"el-paso:152","COUNTY":"El Paso"},"geometry":{"type":"Polygon","coordinates":[[[-106.29368,31.70882],[-106.29521,31.70452],[-106.29597,31.70349],[-106.29827,31.70148],[-106.296,31.69964],[-106.29628,31.69909],[-106.29883,31.70097],[-106.30016,31.69842],[-106.30182,31.69957],[-106.30445,31.70406],[-106.30562,31.70526],[-106.30631,31.70544],[-106.30858,31.70515],[-106.31083,31.7055],[-106.31326,31.70638],[-106.31484,31.70729],[-106.31197,31.71069],[-106.30476,31.72066],[-106.29309,31.70944],[-106.293,31.70903],[-106.29368,31.70882]]]}},{"type":"Feature","properties":{"PRECINCT":"el-paso:153","COUNTY":"El Paso"},"geometry":{"type":"Polygon","coordinates":[[[-106.30858,31.70515],[-106.30631,31.70544],[-106.30562,31.70526],[-106.30445,31.70406],[-106.30314,31.70181],[-106.30544,31.70085],[-106.30797,31.69926],[-106.30764,31.69889],[-106.30949,31.6977],[-106.30984,31.69806],[-106.3119,31.69674],[-106.3114,31.69635],[-106.31392,31.69375],[-106.31133,31.69009],[-106.3101,31.68911],[-106.31051,31.68874],[-106.31076,31.68789],[-106.31187,31.68729],[-106.31207,31.6867],[-106.31707,31.69222],[-106.3248,31.69894],[-106.32114,31.70278],[-106.31769,31.70475],[-106.31484,31.70729],[-106.31359,31.70652],[-106.31147,31.70568],[-106.30858,31.70515]]]}},{"type":"Feature","properties":{"PRECINCT":"el-paso:154","COUNTY":"El Paso"},"geometry":{"type":"Polygon","coordinates":[[[-106.28412,31.70135],[-106.29624,31.688],[-106.29806,31.6865],[-106.30202,31.68992],[-106.30638,31.69247],[-106.3119,31.69674],[-106.30984,31.69806],[-106.30949,31.6977],[-106.30764,31.69889],[-106.30797,31.69926],[-106.30544,31.70085],[-106.30314,31.70181],[-106.30172,31.69944],[-106.30016,31.69842],[-106.29883,31.70097],[-106.29628,31.69909],[-106.296,31.69964],[-106.29827,31.70148],[-106.29597,31.70349],[-106.29521,31.70452],[-106.29396,31.70839],[-106.29352,31.70896],[-106.293,31.70903],[-106.29309,31.70944],[-106.28412,31.70135]]]}},{"type":"Feature","properties":{"PRECINCT":"el-paso:155","COUNTY":"El Paso"},"geometry":{"type":"Polygon","coordinates":[[[-106.28994,31.67828],[-106.2907,31.67754],[-106.29158,31.6775],[-106.29204,31.67703],[-106.29158,31.67656],[-106.29736,31.67007],[-106.31202,31.68675],[-106.31187,31.68729],[-106.31076,31.68789],[-106.31051,31.68874],[-106.3101,31.68911],[-106.31133,31.69009],[-106.31392,31.69375],[-106.3114,31.69635],[-106.30638,31.69247],[-106.30273,31.6904],[-106.30097,31.68905],[-106.29464,31.68346],[-106.28994,31.67828]]]}},{"type":"Feature","properties":{"PRECINCT":"el-paso:156","COUNTY":"El Paso"},"geometry":{"type":"Polygon","coordinates":[[[-106.30166,31.66359],[-106.30215,31.66272],[-106.30325,31.66279],[-106.30311,31.66198],[-106.30411,31.66178],[-106.30578,31.66233],[-106.3059,31.66338],[-106.30665,31.66277],[-106.31659,31.67844],[-106.31279,31.68033],[-106.29951,31.66497],[-106.30166,31.66359]]]}},{"type":"Feature","properties":{"PRECINCT":"el-paso:179","COUNTY":"El Paso"},"geometry":{"type":"Polygon","coordinates":[[[-106.34296,31.69204],[-106.34184,31.68806],[-106.34122,31.68822],[-106.34133,31.6897],[-106.33941,31.68982],[-106.33926,31.68741],[-106.33491,31.68727],[-106.33302,31.68778],[-106.33049,31.68781],[-106.3296,31.68978],[-106.33025,31.68996],[-106.32981,31.69096],[-106.32812,31.69075],[-106.32864,31.68903],[-106.32996,31.68718],[-106.33188,31.68523],[-106.33472,31.67996],[-106.33654,31.67277],[-106.33639,31.67161],[-106.33692,31.67123],[-106.33793,31.67121],[-106.34697,31.69111],[-106.34296,31.69204]]]}},{"type":"Feature","properties":{"PRECINCT":"el-paso:186","COUNTY":"El Paso"},"geometry":{"type":"Polygon","coordinates":[[[-106.45416,31.85611],[-106.44408,31.8563],[-106.44401,31.85326],[-106.4402,31.85331],[-106.44012,31.85158],[-106.45405,31.85136],[-106.45416,31.85611]]]}},{"type":"Feature","properties":{"PRECINCT":"el-paso:188","COUNTY":"El Paso"},"geometry":{"type":"Polygon","coordinates":[[[-106.46295,31.82418],[-106.46311,31.81828],[-106.46589,31.81826],[-106.46591,31.82044],[-106.46557,31.8217],[-106.46453,31.82299],[-106.46295,31.82418]]]}},{"type":"Feature","properties":{"PRECINCT":"el-paso:219","COUNTY":"El Paso"},"geometry":{"type":"Polygon","coordinates":[[[-106.3248,31.69894],[-106.3165,31.69165],[-106.29736,31.67007],[-106.30119,31.66685],[-106.31279,31.68033],[-106.31659,31.67844],[-106.32065,31.68477],[-106.32586,31.68866],[-106.32843,31.68944],[-106.32786,31.69184],[-106.32703,31.69149],[-106.32698,31.69219],[-106.32643,31.69213],[-106.32668,31.69382],[-106.32722,31.69482],[-106.32721,31.69527],[-106.32781,31.69543],[-106.327,31.69694],[-106.3248,31.69894]]]}},{"type":"Feature","properties":{"PRECINCT":"el-paso:25","COUNTY":"El Paso"},"geometry":{"type":"Polygon","coordinates":[[[-106.49215,31.83213],[-106.49091,31.82933],[-106.49081,31.82841],[-106.49137,31.82682],[-106.4899,31.82392],[-106.48984,31.8229],[-106.49049,31.82205],[-106.49067,31.82074],[-106.49033,31.81809],[-106.48712,31.81201],[-106.48396,31.80671],[-106.48312,31.80401],[-106.48344,31.80321],[-106.50914,31.8058],[-106.50926,31.80697],[-106.50831,31.80739],[-106.50768,31.80838],[-106.50925,31.80979],[-106.50991,31.80898],[-106.51041,31.80868],[-106.51052,31.80882],[-106.51215,31.81105],[-106.51361,31.81573],[-106.51416,31.8167],[-106.5258,31.82713],[-106.52464,31.82769],[-106.52294,31.82936],[-106.52252,31.82899],[-106.52159,31.82974],[-106.51888,31.83115],[-106.51754,31.83108],[-106.517,31.83029],[-106.51388,31.83011],[-106.51188,31.82958],[-106.51026,31.82956],[-106.50996,31.8293],[-106.50842,31.82984],[-106.50773,31.83091],[-106.50659,31.8319],[-106.5069,31.83227],[-106.49398,31.8342],[-106.49215,31.83213]]]}},{"type":"Feature","properties":{"PRECINCT":"el-paso:26","COUNTY":"El Paso"},"geometry":{"type":"Polygon","coordinates":[[[-106.54901,31.82361],[-106.55193,31.8234],[-106.55163,31.82132],[-106.55057,31.82],[-106.54913,31.81964],[-106.54498,31.82016],[-106.5441,31.81979],[-106.54329,31.81888],[-106.54566,31.81804],[-106.54943,31.81519],[-106.55474,31.8206],[-106.55628,31.82262],[-106.55698,31.82462],[-106.55681,31.82564],[-106.55621,31.82669],[-106.5534,31.83045],[-106.5516,31.83209],[-106.55058,31.83559],[-106.53704,31.83295],[-106.53826,31.8293],[-106.5379,31.82842],[-106.5423,31.8265],[-106.54654,31.82502],[-106.54901,31.82361]]]}},{"type":"Feature","properties":{"PRECINCT":"el-paso:27","COUNTY":"El Paso"},"geometry":{"type":"Polygon","coordinates":[[[-106.52775,31.82864],[-106.5367,31.82307],[-106.54107,31.81977],[-106.54329,31.81888],[-106.5441,31.81979],[-106.54498,31.82016],[-106.54913,31.81964],[-106.55001,31.81977],[-106.55057,31.82],[-106.55132,31.8208],[-106.55174,31.82169],[-106.55193,31.8234],[-106.54901,31.82361],[-106.54654,31.82502],[-106.5423,31.8265],[-106.5379,31.82842],[-106.53826,31.8293],[-106.53704,31.83295],[-106.53422,31.83223],[-106.53195,31.83135],[-106.52949,31.83001],[-106.52775,31.82864]]]}},{"type":"Feature","properties":{"PRECINCT":"el-paso:29","COUNTY":"El Paso"},"geometry":{"type":"Polygon","coordinates":[[[-106.52761,31.82876],[-106.5157,31.81814],[-106.51747,31.8169],[-106.51779,31.81494],[-106.52177,31.81425],[-106.52266,31.81472],[-106.52515,31.81382],[-106.52705,31.81399],[-106.527,31.81759],[-106.5273,31.81858],[-106.53072,31.81841],[-106.53682,31.81638],[-106.53722,31.81707],[-106.53844,31.81818],[-106.5387,31.81834],[-106.53932,31.81815],[-106.53972,31.81881],[-106.5409,31.81988],[-106.5367,31.82307],[-106.52885,31.8278],[-106.52761,31.82876]]]}},{"type":"Feature","properties":{"PRECINCT":"el-paso:30","COUNTY":"El Paso"},"geometry":{"type":"Polygon","coordinates":[[[-106.54133,31.80935],[-106.53923,31.8095],[-106.52782,31.80937],[-106.52513,31.80854],[-106.52391,31.80776],[-106.52284,31.80671],[-106.52065,31.80249],[-106.51988,31.80012],[-106.51964,31.79812],[-106.51974,31.79309],[-106.52276,31.79051],[-106.52423,31.78854],[-106.52501,31.78822],[-106.52607,31.78818],[-106.52706,31.78884],[-106.52731,31.78989],[-106.52839,31.791],[-106.53036,31.79201],[-106.5318,31.79189],[-106.53279,31.79244],[-106.53394,31.79519],[-106.53543,31.7971],[-106.53601,31.79851],[-106.53838,31.80042],[-106.54213,31.80207],[-106.54416,31.80347],[-106.54654,31.80661],[-106.54513,31.81022],[-106.54477,31.81034],[-106.54318,31.80964],[-106.54133,31.80935]]]}},{"type":"Feature","properties":{"PRECINCT":"el-paso:31","COUNTY":"El Paso"},"geometry":{"type":"Polygon","coordinates":[[[-106.5409,31.81988],[-106.53932,31.81815],[-106.53859,31.81831],[-106.53734,31.8172],[-106.53682,31.81638],[-106.53072,31.81841],[-106.5273,31.81858],[-106.527,31.81759],[-106.52705,31.81399],[-106.52515,31.81382],[-106.52266,31.81472],[-106.52177,31.81425],[-106.51779,31.81494],[-106.51747,31.8169],[-106.5157,31.81814],[-106.51386,31.81626],[-106.51215,31.81105],[-106.51041,31.80868],[-106.50925,31.80979],[-106.50768,31.80838],[-106.50831,31.80739],[-106.50926,31.80697],[-106.50923,31.80389],[-106.51098,31.79865],[-106.51102,31.79522],[-106.51251,31.79516],[-106.51408,31.79548],[-106.51636,31.79531],[-106.51785,31.79464],[-106.51974,31.79309],[-106.51964,31.79812],[-106.52008,31.80093],[-106.52227,31.80589],[-106.52417,31.80795],[-106.52601,31.80892],[-106.52808,31.8094],[-106.5401,31.80949],[-106.54,31.80932],[-106.54292,31.80957],[-106.54429,31.81007],[-106.54564,31.81098],[-106.54964,31.81505],[-106.54566,31.81804],[-106.54227,31.8192],[-106.5409,31.81988]]]}},{"type":"Feature","properties":{"PRECINCT":"el-paso:32","COUNTY":"El Paso"},"geometry":{"type":"Polygon","coordinates":[[[-106.50122,31.78575],[-106.50562,31.784],[-106.50807,31.79227],[-106.50876,31.79311],[-106.5105,31.79427],[-106.51101,31.79511],[-106.51098,31.79865],[-106.50935,31.80325],[-106.50914,31.8058],[-106.50321,31.80512],[-106.50433,31.80289],[-106.50443,31.79463],[-106.50408,31.79391],[-106.50152,31.79221],[-106.50113,31.79166],[-106.5011,31.79093],[-106.50171,31.78925],[-106.50116,31.7873],[-106.50122,31.78575]]]}},{"type":"Feature","properties":{"PRECINCT":"el-paso:33","COUNTY":"El Paso"},"geometry":{"type":"Polygon","coordinates":[[[-106.47983,31.78827],[-106.47939,31.7858],[-106.48034,31.78253],[-106.48144,31.78371],[-106.48237,31.78416],[-106.48236,31.78494],[-106.48286,31.78524],[-106.48334,31.78597],[-106.48368,31.78597],[-106.48407,31.78547],[-106.48451,31.78541],[-106.48611,31.78644],[-106.48708,31.78767],[-106.48745,31.78774],[-106.48933,31.78514],[-106.49026,31.78459],[-106.49204,31.78421],[-106.49267,31.78422],[-106.49326,31.78452],[-106.49371,31.78572],[-106.49427,31.78642],[-106.49492,31.7853],[-106.49687,31.78445],[-106.49796,31.78337],[-106.49859,31.78099],[-106.50291,31.77823],[-106.50331,31.77929],[-106.5032,31.78284],[-106.50526,31.78256],[-106.50562,31.784],[-106.50463,31.78423],[-106.50122,31.78575],[-106.50116,31.7873],[-106.50171,31.78925],[-106.5011,31.79093],[-106.50113,31.79166],[-106.50152,31.79221],[-106.50408,31.79391],[-106.50443,31.79463],[-106.50433,31.80289],[-106.50321,31.80512],[-106.48344,31.80321],[-106.48346,31.80201],[-106.48303,31.80021],[-106.48199,31.79835],[-106.48195,31.79669],[-106.48032,31.79287],[-106.47979,31.79014],[-106.47983,31.78827]]]}},{"type":"Feature","properties":{"PRECINCT":"el-paso:34","COUNTY":"El Paso"},"geometry":{"type":"Polygon","coordinates":[[[-106.50833,31.79266],[-106.50526,31.78256],[-106.5032,31.78284],[-106.50331,31.77929],[-106.50291,31.77823],[-106.50476,31.77704],[-106.50562,31.77592],[-106.50729,31.77582],[-106.50886,31.77532],[-106.51256,31.772],[-106.50987,31.76917],[-106.50698,31.76466],[-106.5051,31.7622],[-106.50867,31.76222],[-106.50851,31.76105],[-106.50877,31.76102],[-106.51006,31.76126],[-106.51067,31.76218],[-106.5113,31.76409],[-106.5119,31.76775],[-106.51273,31.7695],[-106.51369,31.77071],[-106.51487,31.77159],[-106.51752,31.77164],[-106.52099,31.77383],[-106.52365,31.77622],[-106.52532,31.77868],[-106.52795,31.78085],[-106.5285,31.7815],[-106.52864,31.78231],[-106.52813,31.78339],[-106.52808,31.78524],[-106.52706,31.78884],[-106.52607,31.78818],[-106.52501,31.78822],[-106.52423,31.78854],[-106.52263,31.79062],[-106.51803,31.7945],[-106.51671,31.79521],[-106.51499,31.79549],[-106.51251,31.79516],[-106.51102,31.79522],[-106.5105,31.79427],[-106.50833,31.79266]]]}},{"type":"Feature","properties":{"PRECINCT":"el-paso:35","COUNTY":"El Paso"},"geometry":{"type":"Polygon","coordinates":[[[-106.46897,31.79229],[-106.46898,31.79139],[-106.47048,31.79139],[-106.4705,31.78777],[-106.47353,31.78769],[-106.47355,31.78325],[-106.47531,31.78326],[-106.47604,31.78304],[-106.47701,31.78181],[-106.47931,31.78022],[-106.48232,31.78042],[-106.48502,31.77894],[-106.48773,31.77852],[-106.48809,31.77809],[-106.488,31.77717],[-106.48826,31.77652],[-106.48993,31.77512],[-106.49059,31.77368],[-106.50382,31.76517],[-106.50445,31.76501],[-106.50522,31.76512],[-106.50694,31.76654],[-106.50799,31.76627],[-106.51026,31.76968],[-106.51256,31.772],[-106.50886,31.77532],[-106.50729,31.77582],[-106.50562,31.77592],[-106.50476,31.77704],[-106.49865,31.78093],[-106.49796,31.78337],[-106.49687,31.78445],[-106.49492,31.7853],[-106.49427,31.78642],[-106.49371,31.78572],[-106.49326,31.78452],[-106.49267,31.78422],[-106.49204,31.78421],[-106.49038,31.78455],[-106.48958,31.78495],[-106.48881,31.78569],[-106.48766,31.78762],[-106.48718,31.78772],[-106.48627,31.78657],[-106.48451,31.78541],[-106.48407,31.78547],[-106.48368,31.78597],[-106.48334,31.78597],[-106.48286,31.78524],[-106.48236,31.78494],[-106.48237,31.78416],[-106.48144,31.78371],[-106.48065,31.78268],[-106.48029,31.78254],[-106.47856,31.78352],[-106.47784,31.78471],[-106.47668,31.78531],[-106.47544,31.78731],[-106.47562,31.78793],[-106.47482,31.78838],[-106.4748,31.78911],[-106.47372,31.78934],[-106.47368,31.79019],[-106.47297,31.79147],[-106.47066,31.79238],[-106.46897,31.79229]]]}},{"type":"Feature","properties":{"PRECINCT":"el-paso:36","COUNTY":"El Paso"},"geometry":{"type":"Polygon","coordinates":[[[-106.49505,31.7708],[-106.48714,31.76183],[-106.4931,31.75815],[-106.4952,31.75808],[-106.49919,31.75851],[-106.49907,31.75506],[-106.50009,31.75553],[-106.50139,31.75704],[-106.50348,31.75817],[-106.50582,31.76047],[-106.50733,31.76119],[-106.50851,31.76105],[-106.50867,31.76222],[-106.5051,31.7622],[-106.50799,31.76627],[-106.50694,31.76654],[-106.50543,31.76522],[-106.5047,31.76501],[-106.50399,31.7651],[-106.49505,31.7708]]]}},{"type":"Feature","properties":{"PRECINCT":"el-paso:37","COUNTY":"El Paso"},"geometry":{"type":"Polygon","coordinates":[[[-106.48391,31.76431],[-106.48014,31.75986],[-106.47975,31.75996],[-106.47908,31.75777],[-106.47779,31.7585],[-106.47147,31.7601],[-106.46982,31.76115],[-106.46767,31.76335],[-106.46754,31.76122],[-106.46775,31.76027],[-106.46756,31.75921],[-106.4685,31.75825],[-106.46924,31.75683],[-106.47057,31.75274],[-106.47208,31.75105],[-106.47321,31.75049],[-106.48464,31.74781],[-106.48775,31.74781],[-106.49055,31.74892],[-106.49211,31.75013],[-106.49326,31.75069],[-106.49392,31.75146],[-106.49468,31.7518],[-106.49648,31.75384],[-106.49907,31.75506],[-106.49919,31.75851],[-106.49425,31.75803],[-106.49298,31.75819],[-106.4861,31.76248],[-106.48391,31.76431]]]}},{"type":"Feature","properties":{"PRECINCT":"el-paso:38","COUNTY":"El Paso"},"geometry":{"type":"Polygon","coordinates":[[[-106.4864,31.77654],[-106.48377,31.7735],[-106.48283,31.77411],[-106.4822,31.77339],[-106.48192,31.77356],[-106.48129,31.77284],[-106.47767,31.77516],[-106.47437,31.77141],[-106.48443,31.76495],[-106.48391,31.76431],[-106.48714,31.76183],[-106.49505,31.7708],[-106.49049,31.77378],[-106.48993,31.77512],[-106.48826,31.77652],[-106.488,31.77717],[-106.48806,31.77816],[-106.48741,31.77865],[-106.48722,31.77868],[-106.4864,31.77654]]]}},{"type":"Feature","properties":{"PRECINCT":"el-paso:39","COUNTY":"El Paso"},"geometry":{"type":"Polygon","coordinates":[[[-106.46777,31.76823],[-106.46767,31.76335],[-106.47063,31.76055],[-106.47218,31.75983],[-106.47803,31.75842],[-106.47908,31.75777],[-106.47975,31.75996],[-106.48014,31.75986],[-106.48443,31.76495],[-106.47192,31.77298],[-106.46777,31.76823]]]}},{"type":"Feature","properties":{"PRECINCT":"el-paso:40","COUNTY":"El Paso"},"geometry":{"type":"Polygon","coordinates":[[[-106.47355,31.78325],[-106.47351,31.77782],[-106.48129,31.77284],[-106.48192,31.77356],[-106.4822,31.77339],[-106.48283,31.77411],[-106.48377,31.7735],[-106.48621,31.77627],[-106.48707,31.77803],[-106.48722,31.77868],[-106.48502,31.77894],[-106.48244,31.7804],[-106.47987,31.78013],[-106.47917,31.78027],[-106.47701,31.78181],[-106.47615,31.78296],[-106.47549,31.78323],[-106.47355,31.78325]]]}},{"type":"Feature","properties":{"PRECINCT":"el-paso:41","COUNTY":"El Paso"},"geometry":{"type":"Polygon","coordinates":[[[-106.46144,31.78551],[-106.46148,31.77827],[-106.46353,31.77799],[-106.46507,31.77735],[-106.47437,31.77141],[-106.47767,31.77516],[-106.47351,31.77782],[-106.47355,31.78325],[-106.46768,31.78322],[-106.46751,31.78318],[-106.46776,31.78293],[-106.46658,31.78192],[-106.46459,31.78379],[-106.46144,31.78551]]]}},{"type":"Feature","properties":{"PRECINCT":"el-paso:42","COUNTY":"El Paso"},"geometry":{"type":"Polygon","coordinates":[[[-106.45089,31.7782],[-106.45117,31.76436],[-106.45281,31.76457],[-106.45506,31.76417],[-106.46613,31.76001],[-106.46756,31.75921],[-106.46775,31.76027],[-106.46754,31.76122],[-106.46765,31.76794],[-106.47192,31.77298],[-106.46525,31.77725],[-106.46353,31.77799],[-106.46141,31.77827],[-106.45089,31.7782]]]}},{"type":"Feature","properties":{"PRECINCT":"el-paso:65","COUNTY":"El Paso"},"geometry":{"type":"Polygon","coordinates":[[[-106.43977,31.8485],[-106.42026,31.84893],[-106.43911,31.81906],[-106.44297,31.81906],[-106.44293,31.82169],[-106.44464,31.82165],[-106.445,31.82584],[-106.43835,31.82595],[-106.43976,31.82991],[-106.43993,31.83502],[-106.44386,31.83476],[-106.4524,31.83476],[-106.45237,31.84482],[-106.45394,31.84478],[-106.45334,31.8476],[-106.45405,31.85136],[-106.44012,31.85158],[-106.43977,31.8485]]]}},{"type":"Feature","properties":{"PRECINCT":"el-paso:66","COUNTY":"El Paso"},"geometry":{"type":"Polygon","coordinates":[[[-106.4524,31.83476],[-106.43993,31.83502],[-106.43976,31.82991],[-106.43835,31.82595],[-106.45569,31.82568],[-106.45477,31.82652],[-106.45422,31.8278],[-106.45425,31.83188],[-106.45477,31.83325],[-106.45691,31.836],[-106.45731,31.83726],[-106.45738,31.83865],[-106.45683,31.84061],[-106.45469,31.84321],[-106.45394,31.84478],[-106.45237,31.84482],[-106.4524,31.83476]]]}},{"type":"Feature","properties":{"PRECINCT":"el-paso:67","COUNTY":"El Paso"},"geometry":{"type":"Polygon","coordinates":[[[-106.445,31.82584],[-106.44464,31.82165],[-106.44293,31.82169],[-106.44297,31.81906],[-106.43951,31.81906],[-106.44015,31.81763],[-106.44161,31.81259],[-106.44189,31.81258],[-106.44187,31.81292],[-106.44376,31.81302],[-106.46132,31.81309],[-106.46141,31.81828],[-106.46311,31.81828],[-106.46309,31.82074],[-106.463,31.82141],[-106.46282,31.8214],[-106.46295,31.82418],[-106.46146,31.82464],[-106.45707,31.82511],[-106.45569,31.82568],[-106.445,31.82584]]]}},{"type":"Feature","properties":{"PRECINCT":"el-paso:68","COUNTY":"El Paso"},"geometry":{"type":"Polygon","coordinates":[[[-106.4882,31.8423],[-106.48677,31.84225],[-106.48381,31.84006],[-106.48247,31.83803],[-106.48109,31.83662],[-106.47889,31.83653],[-106.47801,31.83601],[-106.47747,31.83429],[-106.4763,31.83323],[-106.47601,31.83267],[-106.4754,31.82679],[-106.47552,31.82448],[-106.47479,31.82357],[-106.47379,31.82281],[-106.47159,31.82193],[-106.46552,31.82179],[-106.46592,31.8202],[-106.46588,31.81055],[-106.46763,31.81056],[-106.46769,31.80703],[-106.4659,31.80693],[-106.46594,31.795],[-106.46852,31.79503],[-106.46934,31.79416],[-106.46955,31.79316],[-106.47026,31.79286],[-106.47078,31.79231],[-106.47297,31.79147],[-106.47368,31.79019],[-106.47372,31.78934],[-106.4748,31.78911],[-106.47482,31.78838],[-106.47562,31.78793],[-106.47544,31.78731],[-106.47668,31.78531],[-106.47784,31.78471],[-106.47856,31.78352],[-106.48034,31.78253],[-106.47939,31.7858],[-106.47983,31.78827],[-106.47979,31.79014],[-106.48032,31.79287],[-106.48195,31.79669],[-106.48199,31.79835],[-106.48303,31.80021],[-106.48346,31.80201],[-106.48344,31.80321],[-106.48312,31.80401],[-106.4833,31.80491],[-106.48396,31.80671],[-106.48712,31.81201],[-106.49033,31.81809],[-106.49067,31.82074],[-106.49049,31.82205],[-106.48984,31.8229],[-106.4899,31.82392],[-106.49137,31.82682],[-106.49081,31.82841],[-106.49091,31.82933],[-106.49215,31.83213],[-106.49325,31.83319],[-106.49762,31.83954],[-106.49847,31.84159],[-106.49656,31.84337],[-106.49622,31.8448],[-106.49686,31.84726],[-106.49611,31.84824],[-106.49438,31.84936],[-106.49374,31.85071],[-106.4918,31.84863],[-106.49009,31.84407],[-106.48928,31.84264],[-106.4882,31.8423]]]}},{"type":"Feature","properties":{"PRECINCT":"el-paso:69","COUNTY":"El Paso"},"geometry":{"type":"Polygon","coordinates":[[[-106.46132,31.81309],[-106.44187,31.81292],[-106.44189,31.81258],[-106.44161,31.81259],[-106.44222,31.80708],[-106.44225,31.80372],[-106.44231,31.80399],[-106.46137,31.80404],[-106.46138,31.80223],[-106.46591,31.80225],[-106.4659,31.80693],[-106.46769,31.80703],[-106.46763,31.81056],[-106.46588,31.81055],[-106.46589,31.81826],[-106.46141,31.81828],[-106.46132,31.81309]]]}},{"type":"Feature","properties":{"PRECINCT":"el-paso:70","COUNTY":"El Paso"},"geometry":{"type":"Polygon","coordinates":[[[-106.46138,31.80223],[-106.46144,31.78551],[-106.46459,31.78379],[-106.46658,31.78192],[-106.46776,31.78293],[-106.46751,31.78318],[-106.46768,31.78322],[-106.47355,31.78325],[-106.47353,31.78769],[-106.4705,31.78777],[-106.47048,31.79139],[-106.46898,31.79139],[-106.46897,31.79229],[-106.47066,31.79238],[-106.47026,31.79286],[-106.4695,31.79321],[-106.46934,31.79416],[-106.46852,31.79503],[-106.46594,31.795],[-106.46591,31.80225],[-106.46138,31.80223]]]}},{"type":"Feature","properties":{"PRECINCT":"el-paso:71","COUNTY":"El Paso"},"geometry":{"type":"Polygon","coordinates":[[[-106.46137,31.80404],[-106.45381,31.80403],[-106.45383,31.8004],[-106.45419,31.79822],[-106.45399,31.79306],[-106.44985,31.79305],[-106.45351,31.7907],[-106.45713,31.78785],[-106.46144,31.78551],[-106.46137,31.80404]]]}},{"type":"Feature","properties":{"PRECINCT":"el-paso:72","COUNTY":"El Paso"},"geometry":{"type":"Polygon","coordinates":[[[-106.44231,31.80399],[-106.44225,31.80372],[-106.44214,31.80432],[-106.44136,31.80131],[-106.44313,31.80125],[-106.44414,31.79967],[-106.44985,31.79305],[-106.45399,31.79306],[-106.45419,31.79822],[-106.45383,31.8004],[-106.45381,31.80403],[-106.44231,31.80399]]]}},{"type":"Feature","properties":{"PRECINCT":"el-paso:73","COUNTY":"El Paso"},"geometry":{"type":"Polygon","coordinates":[[[-106.44106,31.7999],[-106.44111,31.78673],[-106.44955,31.78671],[-106.44952,31.79341],[-106.44414,31.79967],[-106.44313,31.80125],[-106.44136,31.80131],[-106.44106,31.7999]]]}},{"type":"Feature","properties":{"PRECINCT":"el-paso:74","COUNTY":"El Paso"},"geometry":{"type":"Polygon","coordinates":[[[-106.44952,31.79341],[-106.44955,31.78671],[-106.44111,31.78673],[-106.44123,31.77984],[-106.44146,31.7788],[-106.44217,31.77762],[-106.44691,31.77765],[-106.4515,31.77823],[-106.46148,31.77827],[-106.46144,31.78551],[-106.45682,31.78805],[-106.45392,31.79041],[-106.45066,31.79237],[-106.44952,31.79341]]]}},{"type":"Feature","properties":{"PRECINCT":"el-paso:79","COUNTY":"El Paso"},"geometry":{"type":"Polygon","coordinates":[[[-106.43154,31.76845],[-106.44272,31.76742],[-106.44462,31.76743],[-106.44826,31.76853],[-106.45092,31.7697],[-106.45089,31.7782],[-106.44648,31.77762],[-106.43755,31.77756],[-106.43785,31.77421],[-106.43168,31.77367],[-106.43154,31.76845]]]}},{"type":"Feature","properties":{"PRECINCT":"el-paso:80","COUNTY":"El Paso"},"geometry":{"type":"Polygon","coordinates":[[[-106.44368,31.76737],[-106.43154,31.76845],[-106.43164,31.75659],[-106.43257,31.75658],[-106.43256,31.75522],[-106.43364,31.75456],[-106.43572,31.75528],[-106.43747,31.75616],[-106.44775,31.76267],[-106.45117,31.76436],[-106.45092,31.7697],[-106.44594,31.76774],[-106.44368,31.76737]]]}},{"type":"Feature","properties":{"PRECINCT":"el-paso:81","COUNTY":"El Paso"},"geometry":{"type":"Polygon","coordinates":[[[-106.43755,31.77756],[-106.42241,31.77764],[-106.42069,31.77822],[-106.42074,31.77128],[-106.42557,31.7704],[-106.42609,31.76931],[-106.42616,31.76842],[-106.42742,31.76856],[-106.43154,31.76828],[-106.43168,31.77367],[-106.43785,31.77421],[-106.43755,31.77756]]]}},{"type":"Feature","properties":{"PRECINCT":"el-paso:82","COUNTY":"El Paso"},"geometry":{"type":"Polygon","coordinates":[[[-106.39997,31.78202],[-106.39799,31.78117],[-106.39328,31.76972],[-106.39315,31.76728],[-106.39442,31.75917],[-106.39426,31.75845],[-106.39368,31.75755],[-106.40228,31.76487],[-106.40437,31.76788],[-106.40482,31.76796],[-106.40549,31.76851],[-106.40655,31.76875],[-106.41317,31.76877],[-106.42074,31.77128],[-106.42069,31.77822],[-106.41614,31.78095],[-106.41349,31.78172],[-106.40868,31.78149],[-106.40215,31.7823],[-106.39997,31.78202]]]}},{"type":"Feature","properties":{"PRECINCT":"el-paso:83","COUNTY":"El Paso"},"geometry":{"type":"Polygon","coordinates":[[[-106.41697,31.76994],[-106.41682,31.76034],[-106.41873,31.76036],[-106.42032,31.76118],[-106.42154,31.76139],[-106.4316,31.76137],[-106.43154,31.76828],[-106.42742,31.76856],[-106.42616,31.76842],[-106.42609,31.76931],[-106.42557,31.7704],[-106.42074,31.77128],[-106.41697,31.76994]]]}},{"type":"Feature","properties":{"PRECINCT":"el-paso:84","COUNTY":"El Paso"},"geometry":{"type":"Polygon","coordinates":[[[-106.41164,31.75959],[-106.41393,31.758],[-106.41582,31.75514],[-106.41791,31.75384],[-106.41879,31.75221],[-106.42172,31.75295],[-106.42984,31.75383],[-106.43364,31.75456],[-106.43256,31.75522],[-106.43257,31.75658],[-106.43164,31.75659],[-106.4316,31.76137],[-106.42154,31.76139],[-106.42032,31.76118],[-106.41873,31.76036],[-106.41569,31.76033],[-106.41164,31.75959]]]}},{"type":"Feature","properties":{"PRECINCT":"el-paso:85","COUNTY":"El Paso"},"geometry":{"type":"Polygon","coordinates":[[[-106.40228,31.76487],[-106.39632,31.75973],[-106.39939,31.75725],[-106.39826,31.75244],[-106.40412,31.74462],[-106.40812,31.74699],[-106.41206,31.74879],[-106.41426,31.75023],[-106.4173,31.75159],[-106.42187,31.75297],[-106.41879,31.75221],[-106.41791,31.75384],[-106.41582,31.75514],[-106.41393,31.758],[-106.41269,31.75907],[-106.41164,31.75959],[-106.41562,31.76032],[-106.41682,31.76034],[-106.41697,31.77016],[-106.41298,31.76874],[-106.40655,31.76875],[-106.40549,31.76851],[-106.40482,31.76796],[-106.40437,31.76788],[-106.40228,31.76487]]]}}]}