{"type":"FeatureCollection","features":[{"type":"Feature","properties":{"PRECINCT":"2","VTD":"0002"},"geometry":{"type":"Polygon","coordinates":[[[-101.773606,32.316676],[-101.763096,32.283302],[-101.734661,32.277712],[-101.714037,32.271655],[-101.710928,32.271294],[-101.692269,32.271062],[-101.695011,32.087532],[-101.772008,32.086882],[-101.783158,32.122249],[-101.791519,32.120548],[-101.791961,32.122021],[-101.794703,32.120967],[-101.797197,32.126049],[-101.796186,32.12642],[-101.796744,32.127543],[-101.789907,32.130045],[-101.790385,32.130986],[-101.787924,32.131873],[-101.788121,32.132277],[-101.787641,32.132482],[-101.787437,32.132056],[-101.785444,32.132773],[-101.787614,32.13655],[-101.794122,32.157279],[-101.785901,32.159282],[-101.79024,32.173249],[-101.815143,32.167617],[-101.860127,32.308036],[-101.876415,32.304298],[-101.878613,32.311204],[-101.86241,32.315018],[-101.868605,32.334109],[-101.869332,32.33734],[-101.873591,32.350208],[-101.79066,32.368868],[-101.773606,32.316676]]]}},{"type":"Feature","properties":{"PRECINCT":"3A","VTD":"003A"},"geometry":{"type":"Polygon","coordinates":[[[-102.211037,32.523244],[-101.982056,32.523959],[-101.973541,32.495372],[-101.972319,32.495611],[-101.967549,32.480714],[-101.985465,32.476725],[-101.97162,32.433586],[-101.955293,32.437426],[-101.938613,32.441848],[-101.931276,32.418823],[-101.931014,32.418293],[-101.929166,32.416419],[-101.929243,32.414604],[-101.929577,32.413481],[-101.924683,32.398308],[-101.957877,32.390631],[-101.949101,32.363279],[-101.932562,32.367012],[-101.916541,32.317744],[-101.913534,32.307167],[-101.894738,32.305247],[-101.893186,32.300452],[-101.926306,32.292794],[-101.912663,32.250726],[-102.046792,32.219395],[-102.047111,32.219655],[-102.050155,32.228917],[-102.084357,32.220745],[-102.099699,32.216749],[-102.096177,32.203457],[-102.128791,32.195589],[-102.162431,32.188051],[-102.170892,32.185927],[-102.174806,32.185252],[-102.198959,32.179502],[-102.211033,32.177037],[-102.211044,32.370602],[-102.21121,32.375107],[-102.210843,32.500102],[-102.211037,32.523244]]]}},{"type":"Feature","properties":{"PRECINCT":"3","VTD":"0003"},"geometry":{"type":"Polygon","coordinates":[[[-101.912663,32.250726],[-101.890048,32.180572],[-101.857516,32.188168],[-101.857097,32.188074],[-101.845938,32.153165],[-101.845569,32.153012],[-101.842136,32.153806],[-101.841784,32.153699],[-101.839577,32.146859],[-101.85189,32.144045],[-101.847485,32.130167],[-101.797821,32.141461],[-101.796831,32.138017],[-101.794318,32.138611],[-101.794085,32.139294],[-101.793842,32.139156],[-101.793872,32.138728],[-101.79335,32.138918],[-101.792213,32.137089],[-101.793239,32.13672],[-101.792402,32.135027],[-101.795394,32.133919],[-101.796964,32.133762],[-101.796658,32.132893],[-101.796393,32.132031],[-101.796078,32.132111],[-101.795729,32.130997],[-101.795142,32.131214],[-101.794696,32.130409],[-101.793804,32.12864],[-101.789937,32.13006],[-101.790419,32.130999],[-101.788418,32.131701],[-101.788827,32.132544],[-101.788338,32.132725],[-101.788121,32.132277],[-101.788602,32.132099],[-101.788399,32.131696],[-101.790399,32.130995],[-101.789922,32.130056],[-101.79381,32.128623],[-101.795147,32.131198],[-101.795737,32.130981],[-101.796084,32.132095],[-101.796404,32.132018],[-101.796975,32.133759],[-101.798201,32.133521],[-101.797235,32.130411],[-101.798021,32.130125],[-101.800191,32.134399],[-101.799945,32.133532],[-101.803968,32.132268],[-101.802188,32.126671],[-101.802975,32.126467],[-101.802548,32.124899],[-101.803486,32.124644],[-101.805867,32.124648],[-101.805486,32.123289],[-101.828882,32.114796],[-101.830954,32.114221],[-101.832714,32.113408],[-101.865412,32.101469],[-101.865937,32.102602],[-101.866581,32.105471],[-101.881042,32.152489],[-101.914808,32.144724],[-101.945066,32.137323],[-101.947289,32.136581],[-101.94782,32.135974],[-101.947936,32.135293],[-101.960295,32.174069],[-101.960964,32.175532],[-101.962056,32.17665],[-101.963417,32.177387],[-101.964483,32.177679],[-101.966624,32.177681],[-101.992308,32.171659],[-101.994459,32.171898],[-101.995378,32.172407],[-101.996084,32.173152],[-102.013626,32.227191],[-101.912663,32.250726]]]}},{"type":"Feature","properties":{"PRECINCT":"4","VTD":"0004"},"geometry":{"type":"Polygon","coordinates":[[[-101.85868,32.413455],[-101.849681,32.385631],[-101.799186,32.396962],[-101.794656,32.382972],[-101.761482,32.390477],[-101.757065,32.376418],[-101.740926,32.379818],[-101.69032,32.391406],[-101.692269,32.271062],[-101.710928,32.271294],[-101.714037,32.271655],[-101.734661,32.277712],[-101.763096,32.283302],[-101.773606,32.316676],[-101.79066,32.368868],[-101.873591,32.350208],[-101.869332,32.33734],[-101.868605,32.334109],[-101.86241,32.315018],[-101.878613,32.311204],[-101.876489,32.304514],[-101.876415,32.304298],[-101.860127,32.308036],[-101.815143,32.167617],[-101.79024,32.173249],[-101.785901,32.159282],[-101.794122,32.157279],[-101.787614,32.13655],[-101.785444,32.132773],[-101.787437,32.132056],[-101.787641,32.132482],[-101.788121,32.132277],[-101.788338,32.132725],[-101.788827,32.132544],[-101.788418,32.131701],[-101.790419,32.130999],[-101.789937,32.13006],[-101.793804,32.12864],[-101.795142,32.131214],[-101.795729,32.130997],[-101.796078,32.132111],[-101.796393,32.132031],[-101.796964,32.133762],[-101.795394,32.133919],[-101.792402,32.135027],[-101.793239,32.13672],[-101.792213,32.137089],[-101.79335,32.138918],[-101.793872,32.138728],[-101.793842,32.139156],[-101.794085,32.139294],[-101.794318,32.138611],[-101.796831,32.138017],[-101.797821,32.141461],[-101.847485,32.130167],[-101.85189,32.144045],[-101.839577,32.146859],[-101.841784,32.153699],[-101.842136,32.153806],[-101.845569,32.153012],[-101.845938,32.153165],[-101.857097,32.188074],[-101.857516,32.188168],[-101.890048,32.180572],[-101.926306,32.292794],[-101.893186,32.300452],[-101.894738,32.305247],[-101.913534,32.307167],[-101.916541,32.317744],[-101.932475,32.366912],[-101.93278,32.366996],[-101.949101,32.363279],[-101.957877,32.390631],[-101.85868,32.413455]]]}},{"type":"Feature","properties":{"PRECINCT":"4A","VTD":"004A"},"geometry":{"type":"Polygon","coordinates":[[[-101.875749,32.524398],[-101.743431,32.525215],[-101.68874,32.525222],[-101.688703,32.500111],[-101.69032,32.391406],[-101.740926,32.379818],[-101.757065,32.376418],[-101.761482,32.390477],[-101.794656,32.382972],[-101.799186,32.396962],[-101.849681,32.385631],[-101.85868,32.413455],[-101.924683,32.398308],[-101.929577,32.413481],[-101.929243,32.414604],[-101.929166,32.416419],[-101.931014,32.418293],[-101.931276,32.418823],[-101.938613,32.441848],[-101.955293,32.437426],[-101.97162,32.433586],[-101.985465,32.476725],[-101.967549,32.480714],[-101.972319,32.495611],[-101.973541,32.495372],[-101.982056,32.523959],[-101.875749,32.524398]]]}},{"type":"Feature","properties":{"PRECINCT":"1","VTD":"0001"},"geometry":{"type":"Polygon","coordinates":[[[-102.046948,32.21942],[-102.013626,32.227191],[-101.996084,32.173152],[-101.995378,32.172407],[-101.994459,32.171898],[-101.992308,32.171659],[-101.966624,32.177681],[-101.964483,32.177679],[-101.963417,32.177387],[-101.962056,32.17665],[-101.960964,32.175532],[-101.960295,32.174069],[-101.947936,32.135293],[-101.94782,32.135974],[-101.947289,32.136581],[-101.945066,32.137323],[-101.914808,32.144724],[-101.881042,32.152489],[-101.866581,32.105471],[-101.865937,32.102602],[-101.865412,32.101469],[-101.832714,32.113408],[-101.830954,32.114221],[-101.828882,32.114796],[-101.805486,32.123289],[-101.805867,32.124648],[-101.803486,32.124644],[-101.802548,32.124899],[-101.802975,32.126467],[-101.802188,32.126671],[-101.803968,32.132268],[-101.799945,32.133532],[-101.800191,32.134399],[-101.798021,32.130125],[-101.797235,32.130411],[-101.798201,32.133521],[-101.796975,32.133759],[-101.796404,32.132018],[-101.796084,32.132095],[-101.795737,32.130981],[-101.795147,32.131198],[-101.79381,32.128623],[-101.789922,32.130056],[-101.790399,32.130995],[-101.788399,32.131696],[-101.788602,32.132099],[-101.788121,32.132277],[-101.787924,32.131873],[-101.788393,32.131684],[-101.790385,32.130986],[-101.789907,32.130045],[-101.796744,32.127543],[-101.796186,32.12642],[-101.797197,32.126049],[-101.794703,32.120967],[-101.791961,32.122021],[-101.791519,32.120548],[-101.783158,32.122249],[-101.772008,32.086882],[-101.984884,32.086765],[-102.067819,32.086993],[-102.211249,32.0868],[-102.211033,32.177037],[-102.198959,32.179502],[-102.174806,32.185252],[-102.170892,32.185927],[-102.162431,32.188051],[-102.128791,32.195589],[-102.096177,32.203457],[-102.099699,32.216749],[-102.084357,32.220745],[-102.050155,32.228917],[-102.046948,32.21942]]]}}]}