{"type":"FeatureCollection","features":[{"type":"Feature","properties":{"PRECINCT":"10","VTD":"0010"},"geometry":{"type":"Polygon","coordinates":[[[-99.361026,28.843671],[-99.360288,28.843864],[-99.358851,28.843826],[-99.356882,28.84326],[-99.356595,28.843683],[-99.355508,28.843601],[-99.354751,28.843519],[-99.353908,28.843057],[-99.35312,28.843013],[-99.352733,28.842645],[-99.35262,28.841957],[-99.351457,28.841187],[-99.351701,28.840537],[-99.351475,28.839734],[-99.349869,28.838271],[-99.350206,28.837792],[-99.349731,28.837088],[-99.349506,28.836973],[-99.349087,28.837358],[-99.34855,28.837468],[-99.3478,28.83727],[-99.347706,28.836852],[-99.348381,28.836852],[-99.348468,28.836544],[-99.348337,28.836203],[-99.34765,28.835818],[-99.348068,28.835763],[-99.348462,28.83524],[-99.347393,28.835047],[-99.346524,28.834305],[-99.345937,28.834217],[-99.345468,28.83436],[-99.345262,28.834833],[-99.344962,28.834888],[-99.342319,28.833354],[-99.341406,28.83205],[-99.341287,28.830719],[-99.34188,28.830366],[-99.341593,28.829684],[-99.338362,28.828953],[-99.338143,28.827858],[-99.336175,28.826692],[-99.334643,28.825322],[-99.332294,28.823771],[-99.331044,28.822533],[-99.329651,28.823392],[-99.329051,28.822676],[-99.327345,28.822798],[-99.326777,28.823827],[-99.327252,28.82474],[-99.327002,28.824993],[-99.324946,28.824234],[-99.324621,28.8237],[-99.324846,28.823513],[-99.324109,28.82238],[-99.323584,28.822385],[-99.324284,28.823288],[-99.323996,28.82348],[-99.322734,28.822963],[-99.322653,28.822385],[-99.321603,28.82205],[-99.320854,28.822551],[-99.320316,28.822424],[-99.319854,28.822672],[-99.319679,28.822875],[-99.319973,28.823266],[-99.319648,28.823822],[-99.317611,28.824867],[-99.317336,28.824796],[-99.31783,28.823877],[-99.316874,28.824003],[-99.316661,28.824686],[-99.315062,28.824922],[-99.314718,28.825302],[-99.312937,28.824581],[-99.312906,28.823646],[-99.312619,28.823305],[-99.311625,28.82336],[-99.311444,28.823932],[-99.310875,28.823723],[-99.310807,28.823327],[-99.309632,28.823085],[-99.309632,28.822721],[-99.310176,28.82243],[-99.310113,28.821638],[-99.310744,28.821351],[-99.310913,28.820735],[-99.309264,28.819915],[-99.309445,28.819013],[-99.308895,28.818562],[-99.307139,28.818947],[-99.305115,28.818182],[-99.303872,28.819464],[-99.303441,28.819392],[-99.303222,28.820031],[-99.302791,28.82002],[-99.302316,28.819634],[-99.30196,28.819997],[-99.30166,28.81997],[-99.301154,28.819222],[-99.300798,28.819189],[-99.301079,28.818809],[-99.30041,28.818418],[-99.300554,28.817692],[-99.300254,28.817274],[-99.299648,28.816977],[-99.298161,28.816883],[-99.297793,28.816547],[-99.298018,28.816305],[-99.298874,28.816564],[-99.298636,28.815562],[-99.299849,28.81433],[-99.299974,28.813774],[-99.299643,28.813521],[-99.297656,28.813444],[-99.297881,28.815199],[-99.296444,28.81554],[-99.295944,28.814929],[-99.294101,28.81532],[-99.293083,28.813944],[-99.292064,28.81412],[-99.291408,28.814444],[-99.29197,28.815771],[-99.291514,28.817157],[-99.290508,28.817377],[-99.289765,28.816073],[-99.289946,28.815534],[-99.289278,28.815396],[-99.288915,28.814763],[-99.287622,28.814422],[-99.287547,28.814658],[-99.288122,28.81522],[-99.287603,28.815451],[-99.286785,28.815445],[-99.285217,28.814757],[-99.284904,28.814251],[-99.284542,28.814218],[-99.284586,28.813678],[-99.284036,28.813288],[-99.284867,28.81287],[-99.284836,28.812281],[-99.284087,28.811714],[-99.283393,28.811736],[-99.283181,28.811466],[-99.283431,28.811087],[-99.284649,28.811076],[-99.284206,28.810267],[-99.283887,28.810102],[-99.28415,28.809386],[-99.283813,28.807747],[-99.282034,28.806293],[-99.281689,28.806727],[-99.279499,28.813798],[-99.235646,28.80384],[-99.229938,28.80013],[-99.206567,28.794781],[-99.165941,28.781996],[-99.157566,28.776389],[-99.137909,28.771899],[-99.135154,28.770906],[-99.13252,28.770304],[-99.133074,28.768337],[-99.132518,28.768208],[-99.136655,28.752193],[-99.139134,28.743612],[-99.151626,28.72436],[-99.153445,28.720319],[-99.16066,28.69628],[-99.167102,28.677202],[-99.169934,28.667225],[-99.171293,28.660378],[-99.175464,28.646261],[-99.177155,28.644168],[-99.205864,28.643912],[-99.205866,28.644111],[-99.213682,28.643888],[-99.214562,28.644065],[-99.252224,28.643253],[-99.409021,28.640566],[-99.408764,28.652655],[-99.409247,28.703571],[-99.409759,28.707642],[-99.409684,28.712098],[-99.410094,28.714461],[-99.410126,28.716062],[-99.40968,28.716267],[-99.411088,28.750254],[-99.411689,28.832012],[-99.409293,28.840241],[-99.408761,28.840474],[-99.408117,28.840155],[-99.406911,28.840744],[-99.404011,28.841123],[-99.403505,28.840435],[-99.403756,28.839818],[-99.403074,28.840187],[-99.402956,28.839631],[-99.402493,28.839813],[-99.402,28.839719],[-99.400994,28.839058],[-99.400769,28.839119],[-99.400344,28.839999],[-99.400812,28.840753],[-99.400824,28.841452],[-99.40048,28.842239],[-99.400074,28.842398],[-99.399493,28.842101],[-99.399149,28.841369],[-99.398481,28.841374],[-99.397937,28.840378],[-99.397244,28.840207],[-99.397313,28.83974],[-99.396063,28.840058],[-99.395763,28.840521],[-99.395869,28.841005],[-99.394912,28.84145],[-99.394219,28.840735],[-99.393275,28.841175],[-99.392769,28.840987],[-99.392357,28.840239],[-99.391251,28.840277],[-99.390127,28.83911],[-99.389208,28.839319],[-99.387846,28.838774],[-99.386827,28.839291],[-99.385459,28.839081],[-99.385246,28.839345],[-99.382834,28.838997],[-99.382484,28.839085],[-99.382128,28.839778],[-99.381471,28.840202],[-99.381302,28.840725],[-99.380221,28.840757],[-99.379484,28.840311],[-99.378378,28.840234],[-99.377697,28.840442],[-99.377309,28.841092],[-99.376772,28.840783],[-99.37624,28.841086],[-99.374654,28.841173],[-99.372742,28.842411],[-99.372468,28.843044],[-99.371455,28.843017],[-99.371731,28.843677],[-99.370962,28.843557],[-99.370462,28.844008],[-99.369831,28.84375],[-99.369231,28.84293],[-99.368618,28.842925],[-99.368105,28.841924],[-99.366437,28.842282],[-99.365593,28.842167],[-99.364487,28.842343],[-99.364037,28.841661],[-99.363624,28.841804],[-99.363019,28.842476],[-99.363013,28.843422],[-99.362594,28.843841],[-99.362788,28.844165],[-99.362301,28.84427],[-99.361026,28.843671]]]}},{"type":"Feature","properties":{"PRECINCT":"9","VTD":"0009"},"geometry":{"type":"Polygon","coordinates":[[[-99.143238,28.735555],[-99.142583,28.735373],[-99.142564,28.734592],[-99.142171,28.734207],[-99.142365,28.733783],[-99.142003,28.733387],[-99.141647,28.733689],[-99.141465,28.734614],[-99.140723,28.734487],[-99.140723,28.734046],[-99.140411,28.733788],[-99.13998,28.734431],[-99.139075,28.733523],[-99.13855,28.7336],[-99.138407,28.733022],[-99.137864,28.73267],[-99.137564,28.732703],[-99.137408,28.733297],[-99.137059,28.733088],[-99.136628,28.733605],[-99.135592,28.732449],[-99.135217,28.732537],[-99.134892,28.733037],[-99.134318,28.732223],[-99.13272,28.732844],[-99.132514,28.732338],[-99.132214,28.732706],[-99.131909,28.732679],[-99.13184,28.732051],[-99.131097,28.732398],[-99.130511,28.731968],[-99.130742,28.731699],[-99.130242,28.73161],[-99.130086,28.731214],[-99.129549,28.731478],[-99.129256,28.731384],[-99.1294,28.730818],[-99.129238,28.730487],[-99.128857,28.730746],[-99.127852,28.73074],[-99.127752,28.730333],[-99.12847,28.729992],[-99.128252,28.729711],[-99.127453,28.729667],[-99.127403,28.730228],[-99.127041,28.730305],[-99.126598,28.729821],[-99.125955,28.730002],[-99.125531,28.729292],[-99.124906,28.729044],[-99.124544,28.72911],[-99.124033,28.729627],[-99.123009,28.729232],[-99.122666,28.729733],[-99.122391,28.729265],[-99.121317,28.729288],[-99.121155,28.729057],[-99.121722,28.72838],[-99.12116,28.728028],[-99.121728,28.727967],[-99.121291,28.727521],[-99.121822,28.727499],[-99.122078,28.727229],[-99.120586,28.727302],[-99.120411,28.727087],[-99.121422,28.726591],[-99.121291,28.726217],[-99.120423,28.72619],[-99.120104,28.725734],[-99.119299,28.725371],[-99.119043,28.725635],[-99.119287,28.726471],[-99.11875,28.726169],[-99.118394,28.725602],[-99.118144,28.726235],[-99.117832,28.726158],[-99.117613,28.725668],[-99.1179,28.725025],[-99.117108,28.725251],[-99.117089,28.72459],[-99.11657,28.724651],[-99.117113,28.72426],[-99.117101,28.724045],[-99.115116,28.724321],[-99.115428,28.723606],[-99.11524,28.72349],[-99.114298,28.723975],[-99.11398,28.72392],[-99.112749,28.722837],[-99.112699,28.722374],[-99.111807,28.72254],[-99.11243,28.72189],[-99.112343,28.721665],[-99.111538,28.721561],[-99.111419,28.722012],[-99.111163,28.722067],[-99.110907,28.721528],[-99.1112,28.721192],[-99.11037,28.721297],[-99.10959,28.720631],[-99.109122,28.721226],[-99.109072,28.720631],[-99.108473,28.72083],[-99.107742,28.71952],[-99.107124,28.719603],[-99.106974,28.719097],[-99.106037,28.718696],[-99.10663,28.718173],[-99.105581,28.717969],[-99.106105,28.71765],[-99.1057,28.717375],[-99.106024,28.716907],[-99.105007,28.716919],[-99.104757,28.716462],[-99.105131,28.716137],[-99.104463,28.716154],[-99.105025,28.715405],[-99.104544,28.715092],[-99.103895,28.715175],[-99.103683,28.714861],[-99.103926,28.71458],[-99.104581,28.714426],[-99.104425,28.713826],[-99.104955,28.713733],[-99.104462,28.71337],[-99.104849,28.71305],[-99.104762,28.71283],[-99.103732,28.712748],[-99.104218,28.712088],[-99.103819,28.711582],[-99.103812,28.71074],[-99.104717,28.710822],[-99.104948,28.710646],[-99.104654,28.710272],[-99.103737,28.710239],[-99.105116,28.709842],[-99.10491,28.708626],[-99.104379,28.708385],[-99.104354,28.707966],[-99.103986,28.707911],[-99.103449,28.708181],[-99.103487,28.708897],[-99.103044,28.708814],[-99.102774,28.706987],[-99.102057,28.70674],[-99.101045,28.705799],[-99.100833,28.705293],[-99.099909,28.704908],[-99.099834,28.704039],[-99.099278,28.704028],[-99.098111,28.703456],[-99.098005,28.703143],[-99.098311,28.702779],[-99.097505,28.701767],[-99.095982,28.701712],[-99.095833,28.702136],[-99.095309,28.702208],[-99.094834,28.701938],[-99.094678,28.701421],[-99.093761,28.701867],[-99.093767,28.701289],[-99.093018,28.701493],[-99.092337,28.700745],[-99.091844,28.700734],[-99.090833,28.700184],[-99.090121,28.698715],[-99.090546,28.698225],[-99.090508,28.697818],[-99.090177,28.697658],[-99.089734,28.697835],[-99.08984,28.697339],[-99.089378,28.697103],[-99.088991,28.69724],[-99.088954,28.696778],[-99.088242,28.696877],[-99.088249,28.697571],[-99.087194,28.696861],[-99.083462,28.697439],[-99.082114,28.696658],[-99.080816,28.696873],[-99.080354,28.696559],[-99.079562,28.69667],[-99.079275,28.696389],[-99.079574,28.696059],[-99.078919,28.696108],[-99.078145,28.695844],[-99.077646,28.694865],[-99.077234,28.694794],[-99.077053,28.693765],[-99.077414,28.693203],[-99.07674,28.69295],[-99.076397,28.692439],[-99.075817,28.692334],[-99.075723,28.691503],[-99.074912,28.690645],[-99.07392,28.690684],[-99.073439,28.689946],[-99.073639,28.689523],[-99.073383,28.689231],[-99.072553,28.689104],[-99.072503,28.688483],[-99.072103,28.688043],[-99.072166,28.687399],[-99.071804,28.686584],[-99.072659,28.685643],[-99.07254,28.68517],[-99.072084,28.685011],[-99.072409,28.684455],[-99.072509,28.682656],[-99.073001,28.682391],[-99.072908,28.681412],[-99.072346,28.680851],[-99.072252,28.680383],[-99.071791,28.679937],[-99.071229,28.679871],[-99.071366,28.67936],[-99.07093,28.678941],[-99.069501,28.679151],[-99.069026,28.678738],[-99.067566,28.678468],[-99.066581,28.677621],[-99.064958,28.676994],[-99.065357,28.676592],[-99.06489,28.676113],[-99.064996,28.675508],[-99.064135,28.675624],[-99.063124,28.675046],[-99.063167,28.674727],[-99.063829,28.674166],[-99.06308,28.673626],[-99.063891,28.672548],[-99.063872,28.671882],[-99.063361,28.671678],[-99.063373,28.672201],[-99.062575,28.672394],[-99.062306,28.671178],[-99.061576,28.671167],[-99.061601,28.670776],[-99.062431,28.670418],[-99.061876,28.670149],[-99.062294,28.669538],[-99.061951,28.668856],[-99.062094,28.66797],[-99.061539,28.667623],[-99.061701,28.66721],[-99.060928,28.667216],[-99.060528,28.666792],[-99.061109,28.665824],[-99.061839,28.665972],[-99.061764,28.66534],[-99.060971,28.665064],[-99.061608,28.664668],[-99.062288,28.664597],[-99.0625,28.663694],[-99.063105,28.663826],[-99.063323,28.663683],[-99.062961,28.663326],[-99.06288,28.662583],[-99.06381,28.662049],[-99.064022,28.66113],[-99.064571,28.660673],[-99.064109,28.66003],[-99.064328,28.659215],[-99.063985,28.658494],[-99.063966,28.65741],[-99.063404,28.657212],[-99.063953,28.656816],[-99.063292,28.656524],[-99.062918,28.655507],[-99.062593,28.655407],[-99.06225,28.655655],[-99.061963,28.655209],[-99.061059,28.654714],[-99.061302,28.654318],[-99.058345,28.653894],[-99.056037,28.652832],[-99.054808,28.652937],[-99.054659,28.652579],[-99.055058,28.652265],[-99.054852,28.652001],[-99.053997,28.652177],[-99.053854,28.65166],[-99.054353,28.651385],[-99.053237,28.650868],[-99.053492,28.65051],[-99.053305,28.649316],[-99.053942,28.648749],[-99.054229,28.648788],[-99.054335,28.648419],[-99.053811,28.647918],[-99.054241,28.647451],[-99.053798,28.647115],[-99.054534,28.646532],[-99.053798,28.645155],[-99.177155,28.644168],[-99.175464,28.646261],[-99.171293,28.660378],[-99.169934,28.667225],[-99.167102,28.677202],[-99.16066,28.69628],[-99.153445,28.720319],[-99.151626,28.72436],[-99.143493,28.736727],[-99.143,28.736303],[-99.143425,28.735825],[-99.143238,28.735555]]]}},{"type":"Feature","properties":{"PRECINCT":"3","VTD":"0003"},"geometry":{"type":"Polygon","coordinates":[[[-99.115024,28.899849],[-99.112163,28.906591],[-99.102728,28.898366],[-99.102352,28.898106],[-99.101672,28.898696],[-99.100553,28.897811],[-99.099894,28.897201],[-99.100452,28.896492],[-99.102026,28.891582],[-99.106256,28.892615],[-99.107086,28.893153],[-99.115024,28.899849]]]}},{"type":"Feature","properties":{"PRECINCT":"1","VTD":"0001"},"geometry":{"type":"Polygon","coordinates":[[[-98.982632,28.89677],[-98.984542,28.872026],[-98.977047,28.865542],[-98.9121,28.86125],[-98.911317,28.860377],[-98.910905,28.859266],[-98.911336,28.858776],[-98.91098,28.858237],[-98.910993,28.857345],[-98.911668,28.855898],[-98.910925,28.854292],[-98.91115,28.852118],[-98.91082,28.850165],[-98.911251,28.848272],[-98.911801,28.847914],[-98.911827,28.845009],[-98.910915,28.843909],[-98.910597,28.842274],[-98.90981,28.841064],[-98.909722,28.83998],[-98.909191,28.83993],[-98.909054,28.839022],[-98.908548,28.83895],[-98.907811,28.838268],[-98.906967,28.838334],[-98.90598,28.838092],[-98.905436,28.838554],[-98.90428,28.838119],[-98.904118,28.837926],[-98.904299,28.837359],[-98.903874,28.83693],[-98.903781,28.835797],[-98.902906,28.835274],[-98.902725,28.834707],[-98.901457,28.833276],[-98.900245,28.83239],[-98.899808,28.832378],[-98.899608,28.831806],[-98.899021,28.831278],[-98.899471,28.831052],[-98.899134,28.830408],[-98.899646,28.829572],[-98.899672,28.82884],[-98.899422,28.828174],[-98.898566,28.827228],[-98.899104,28.826931],[-98.898816,28.826518],[-98.898267,28.826408],[-98.898504,28.825946],[-98.898067,28.825351],[-98.898211,28.825027],[-98.898898,28.824862],[-98.899055,28.822898],[-98.898818,28.822534],[-98.898955,28.822364],[-98.898543,28.821973],[-98.898344,28.820597],[-98.897807,28.819579],[-98.898432,28.819013],[-98.897258,28.817373],[-98.895409,28.816167],[-98.894491,28.814483],[-98.896017,28.812486],[-98.896054,28.811551],[-98.896711,28.810869],[-98.897185,28.810726],[-98.897142,28.810137],[-98.897592,28.809405],[-98.897417,28.808635],[-98.898311,28.807958],[-98.898012,28.806924],[-98.898731,28.805615],[-98.898294,28.804718],[-98.897263,28.804662],[-98.896238,28.804321],[-98.896014,28.803286],[-98.894927,28.802317],[-98.895203,28.801613],[-98.895039,28.801101],[-98.901834,28.797292],[-98.905986,28.795846],[-98.936185,28.79201],[-98.967642,28.785189],[-98.969112,28.784821],[-98.970771,28.784093],[-98.972337,28.782972],[-98.985862,28.770943],[-99.01657,28.745265],[-99.047319,28.717625],[-99.057828,28.726677],[-99.061188,28.730166],[-99.068748,28.736864],[-99.072509,28.739859],[-99.074602,28.741091],[-99.079038,28.744764],[-99.080436,28.745223],[-99.081891,28.745104],[-99.082992,28.744592],[-99.085731,28.742193],[-99.086811,28.74153],[-99.088441,28.741254],[-99.090075,28.741648],[-99.094672,28.745596],[-99.11027,28.756858],[-99.125766,28.766388],[-99.128088,28.76724],[-99.133074,28.768337],[-99.13116,28.775089],[-99.13014,28.78173],[-99.129088,28.783605],[-99.129255,28.782376],[-99.128282,28.783131],[-99.128041,28.783879],[-99.110089,28.847337],[-99.097796,28.888654],[-99.097289,28.888542],[-99.097009,28.889507],[-99.095981,28.889264],[-99.0946,28.893973],[-99.090306,28.893012],[-99.091397,28.889232],[-99.084251,28.887611],[-99.083703,28.889421],[-99.077507,28.887952],[-99.071931,28.88555],[-99.070545,28.885171],[-99.064827,28.885334],[-99.02811,28.887609],[-99.008671,28.892043],[-98.996782,28.894204],[-98.985309,28.901724],[-98.98261,28.902874],[-98.982632,28.89677]]]}},{"type":"Feature","properties":{"PRECINCT":"2","VTD":"0002"},"geometry":{"type":"Polygon","coordinates":[[[-99.217175,28.955183],[-99.211348,28.955004],[-99.207039,28.956582],[-99.205291,28.956616],[-99.204241,28.95625],[-99.184887,28.943225],[-99.18302,28.941887],[-99.180137,28.939296],[-99.154212,28.927298],[-99.152524,28.926291],[-99.117263,28.901634],[-99.106298,28.892633],[-99.102026,28.891582],[-99.100242,28.896853],[-99.096533,28.896],[-99.09578,28.895253],[-99.110089,28.847337],[-99.128041,28.783879],[-99.128282,28.783131],[-99.129255,28.782376],[-99.129088,28.783605],[-99.13014,28.78173],[-99.13116,28.775089],[-99.13252,28.770304],[-99.135154,28.770906],[-99.137909,28.771899],[-99.157566,28.776389],[-99.165941,28.781996],[-99.206567,28.794781],[-99.229938,28.80013],[-99.235646,28.80384],[-99.279499,28.813798],[-99.281689,28.806727],[-99.282034,28.806293],[-99.283813,28.807747],[-99.28415,28.809386],[-99.283887,28.810102],[-99.284206,28.810267],[-99.284649,28.811076],[-99.283431,28.811087],[-99.283181,28.811466],[-99.283393,28.811736],[-99.284087,28.811714],[-99.284836,28.812281],[-99.284867,28.81287],[-99.284036,28.813288],[-99.284586,28.813678],[-99.284542,28.814218],[-99.284904,28.814251],[-99.285217,28.814757],[-99.286785,28.815445],[-99.287603,28.815451],[-99.288122,28.81522],[-99.287547,28.814658],[-99.287622,28.814422],[-99.288915,28.814763],[-99.289278,28.815396],[-99.289946,28.815534],[-99.289765,28.816073],[-99.290508,28.817377],[-99.291514,28.817157],[-99.29197,28.815771],[-99.291408,28.814444],[-99.292064,28.81412],[-99.293083,28.813944],[-99.294101,28.81532],[-99.295944,28.814929],[-99.296444,28.81554],[-99.297881,28.815199],[-99.297656,28.813444],[-99.299643,28.813521],[-99.299974,28.813774],[-99.299849,28.81433],[-99.298636,28.815562],[-99.298874,28.816564],[-99.298018,28.816305],[-99.297793,28.816547],[-99.298161,28.816883],[-99.299648,28.816977],[-99.300254,28.817274],[-99.300554,28.817692],[-99.30041,28.818418],[-99.301079,28.818809],[-99.300798,28.819189],[-99.301154,28.819222],[-99.30166,28.81997],[-99.30196,28.819997],[-99.302316,28.819634],[-99.302791,28.82002],[-99.303222,28.820031],[-99.303441,28.819392],[-99.303872,28.819464],[-99.305115,28.818182],[-99.307139,28.818947],[-99.308895,28.818562],[-99.309445,28.819013],[-99.309264,28.819915],[-99.310913,28.820735],[-99.310744,28.821351],[-99.310113,28.821638],[-99.310176,28.82243],[-99.309632,28.822721],[-99.309632,28.823085],[-99.310807,28.823327],[-99.310875,28.823723],[-99.311444,28.823932],[-99.311625,28.82336],[-99.312619,28.823305],[-99.312906,28.823646],[-99.312937,28.824581],[-99.314718,28.825302],[-99.315062,28.824922],[-99.316661,28.824686],[-99.316874,28.824003],[-99.31783,28.823877],[-99.317336,28.824796],[-99.317611,28.824867],[-99.319648,28.823822],[-99.319973,28.823266],[-99.319679,28.822875],[-99.319854,28.822672],[-99.320316,28.822424],[-99.320854,28.822551],[-99.321603,28.82205],[-99.322653,28.822385],[-99.322734,28.822963],[-99.323996,28.82348],[-99.324284,28.823288],[-99.323584,28.822385],[-99.324109,28.82238],[-99.324846,28.823513],[-99.324621,28.8237],[-99.324946,28.824234],[-99.327002,28.824993],[-99.327252,28.82474],[-99.326777,28.823827],[-99.327345,28.822798],[-99.329051,28.822676],[-99.329651,28.823392],[-99.331044,28.822533],[-99.332294,28.823771],[-99.334643,28.825322],[-99.336175,28.826692],[-99.338143,28.827858],[-99.338362,28.828953],[-99.341593,28.829684],[-99.34188,28.830366],[-99.341287,28.830719],[-99.341406,28.83205],[-99.342319,28.833354],[-99.344962,28.834888],[-99.345262,28.834833],[-99.345468,28.83436],[-99.345937,28.834217],[-99.346524,28.834305],[-99.347393,28.835047],[-99.348462,28.83524],[-99.348068,28.835763],[-99.34765,28.835818],[-99.348337,28.836203],[-99.348468,28.836544],[-99.348381,28.836852],[-99.347706,28.836852],[-99.347863,28.837353],[-99.34855,28.837468],[-99.349087,28.837358],[-99.349506,28.836973],[-99.349731,28.837088],[-99.350206,28.837792],[-99.349869,28.838271],[-99.351475,28.839734],[-99.351701,28.840537],[-99.351457,28.841187],[-99.35262,28.841957],[-99.352733,28.842645],[-99.35312,28.843013],[-99.353908,28.843057],[-99.354751,28.843519],[-99.356595,28.843683],[-99.356882,28.84326],[-99.358851,28.843826],[-99.360288,28.843864],[-99.361026,28.843671],[-99.362395,28.84427],[-99.362788,28.844165],[-99.362594,28.843841],[-99.363013,28.843422],[-99.363019,28.842476],[-99.363624,28.841804],[-99.364037,28.841661],[-99.364487,28.842343],[-99.365593,28.842167],[-99.366437,28.842282],[-99.368105,28.841924],[-99.368618,28.842925],[-99.369231,28.84293],[-99.369831,28.84375],[-99.370462,28.844008],[-99.370962,28.843557],[-99.371731,28.843677],[-99.371455,28.843017],[-99.372468,28.843044],[-99.372742,28.842411],[-99.374654,28.841173],[-99.37624,28.841086],[-99.376772,28.840783],[-99.377309,28.841092],[-99.377697,28.840442],[-99.378378,28.840234],[-99.379484,28.840311],[-99.380221,28.840757],[-99.381302,28.840725],[-99.381471,28.840202],[-99.382128,28.839778],[-99.382484,28.839085],[-99.382834,28.838997],[-99.385246,28.839345],[-99.385459,28.839081],[-99.386827,28.839291],[-99.387846,28.838774],[-99.389208,28.839319],[-99.390127,28.83911],[-99.391251,28.840277],[-99.392357,28.840239],[-99.392769,28.840987],[-99.393275,28.841175],[-99.394219,28.840735],[-99.394912,28.84145],[-99.395869,28.841005],[-99.395763,28.840521],[-99.396063,28.840058],[-99.397313,28.83974],[-99.397244,28.840207],[-99.397937,28.840378],[-99.398481,28.841374],[-99.399149,28.841369],[-99.399493,28.842101],[-99.400074,28.842398],[-99.40048,28.842239],[-99.400824,28.841452],[-99.400812,28.840753],[-99.400344,28.839999],[-99.400769,28.839119],[-99.400994,28.839058],[-99.402,28.839719],[-99.402493,28.839813],[-99.402956,28.839631],[-99.403074,28.840187],[-99.403756,28.839818],[-99.403505,28.840435],[-99.404011,28.841123],[-99.406911,28.840744],[-99.408117,28.840155],[-99.408711,28.840474],[-99.409293,28.840241],[-99.399914,28.871739],[-99.399343,28.872114],[-99.398676,28.872188],[-99.38015,28.868536],[-99.378691,28.868527],[-99.377318,28.869571],[-99.362023,28.920586],[-99.361823,28.920928],[-99.360941,28.921291],[-99.358762,28.920823],[-99.358396,28.920958],[-99.35146,28.944472],[-99.347886,28.943731],[-99.344475,28.94351],[-99.341737,28.943666],[-99.329686,28.945215],[-99.302538,28.944432],[-99.275566,28.946415],[-99.273017,28.946782],[-99.270998,28.947564],[-99.269272,28.948766],[-99.242682,28.972567],[-99.241082,28.971628],[-99.223421,28.957643],[-99.219387,28.955705],[-99.217175,28.955183]]]}},{"type":"Feature","properties":{"PRECINCT":"8","VTD":"0008"},"geometry":{"type":"Polygon","coordinates":[[[-99.120776,29.090995],[-99.120821,29.089393],[-99.120574,29.089155],[-99.119663,29.08901],[-99.119592,29.088209],[-99.117806,29.084472],[-99.117666,29.073553],[-99.112712,29.07358],[-99.112545,29.06529],[-99.10784,29.062417],[-99.106628,29.062075],[-99.106103,29.061362],[-99.106545,29.057281],[-99.105441,29.052503],[-99.105055,29.035993],[-99.1004,29.026133],[-99.094756,29.01782],[-99.092736,29.011584],[-99.090807,29.009367],[-99.083899,29.00588],[-99.066425,28.99047],[-99.064458,28.989152],[-99.072249,28.970844],[-99.074025,28.965967],[-99.079827,28.947652],[-99.09578,28.895253],[-99.096533,28.896],[-99.100242,28.896853],[-99.099894,28.897201],[-99.101672,28.898696],[-99.102352,28.898106],[-99.102728,28.898366],[-99.112163,28.906591],[-99.115024,28.899849],[-99.117263,28.901634],[-99.153111,28.926664],[-99.180137,28.939296],[-99.18302,28.941887],[-99.184887,28.943225],[-99.204241,28.95625],[-99.205291,28.956616],[-99.207039,28.956582],[-99.210349,28.955224],[-99.211726,28.954979],[-99.216754,28.955143],[-99.219387,28.955705],[-99.223421,28.957643],[-99.241082,28.971628],[-99.242682,28.972567],[-99.269272,28.948766],[-99.270998,28.947564],[-99.273017,28.946782],[-99.275566,28.946415],[-99.302538,28.944432],[-99.329686,28.945215],[-99.341737,28.943666],[-99.344475,28.94351],[-99.347886,28.943731],[-99.35146,28.944472],[-99.358396,28.920958],[-99.358762,28.920823],[-99.360941,28.921291],[-99.361823,28.920928],[-99.362023,28.920586],[-99.377318,28.869571],[-99.378691,28.868527],[-99.38015,28.868536],[-99.398676,28.872188],[-99.399343,28.872114],[-99.399996,28.871652],[-99.409067,28.841455],[-99.409349,28.839808],[-99.411689,28.832012],[-99.412068,28.89537],[-99.412339,28.906765],[-99.412157,28.907498],[-99.413765,29.059936],[-99.41388,29.091335],[-99.250316,29.09154],[-99.247993,29.091023],[-99.206841,29.090771],[-99.192522,29.090872],[-99.191259,29.091047],[-99.165198,29.090987],[-99.125323,29.090604],[-99.120776,29.090995]]]}},{"type":"Feature","properties":{"PRECINCT":"5","VTD":"0005"},"geometry":{"type":"Polygon","coordinates":[[[-98.8049,29.090434],[-98.804724,29.034322],[-98.805237,29.034662],[-98.804714,29.033436],[-98.804614,29.001592],[-98.804316,28.991294],[-98.801536,28.712567],[-98.805346,28.711638],[-98.809053,28.709756],[-98.814952,28.708269],[-98.819798,28.702908],[-98.820782,28.703472],[-98.822785,28.706624],[-98.823977,28.707681],[-98.82472,28.710036],[-98.825688,28.710905],[-98.825956,28.711543],[-98.826768,28.712049],[-98.831768,28.714024],[-98.83374,28.716043],[-98.833878,28.71677],[-98.834271,28.717265],[-98.834278,28.718387],[-98.835614,28.720065],[-98.836432,28.720285],[-98.837599,28.720059],[-98.838367,28.720164],[-98.83954,28.721005],[-98.84019,28.722788],[-98.840309,28.723988],[-98.840908,28.725303],[-98.842107,28.726386],[-98.842844,28.726727],[-98.843262,28.727322],[-98.84194,28.730271],[-98.840554,28.730937],[-98.840386,28.731256],[-98.840548,28.7319],[-98.841666,28.732802],[-98.843851,28.732824],[-98.844169,28.733093],[-98.844257,28.734166],[-98.843215,28.735427],[-98.841904,28.735752],[-98.841548,28.736847],[-98.84251,28.738723],[-98.844821,28.741451],[-98.845652,28.742068],[-98.847468,28.742727],[-98.850834,28.743315],[-98.854262,28.745691],[-98.854824,28.745878],[-98.855424,28.745862],[-98.858439,28.74416],[-98.861717,28.744473],[-98.863784,28.745644],[-98.864302,28.746101],[-98.864402,28.746541],[-98.863828,28.747729],[-98.86155,28.748902],[-98.861901,28.750086],[-98.862294,28.750609],[-98.862856,28.750944],[-98.863649,28.751054],[-98.864368,28.75172],[-98.865298,28.751653],[-98.867084,28.752401],[-98.869682,28.752796],[-98.871468,28.754116],[-98.872455,28.754071],[-98.87308,28.754423],[-98.873086,28.755221],[-98.872188,28.756806],[-98.872108,28.758116],[-98.873082,28.758957],[-98.874344,28.759617],[-98.874351,28.761086],[-98.876747,28.762523],[-98.877158,28.764361],[-98.87677,28.765841],[-98.877837,28.767151],[-98.877262,28.768663],[-98.877192,28.770001],[-98.877528,28.77284],[-98.87932,28.773429],[-98.879888,28.773963],[-98.880037,28.774695],[-98.880537,28.775257],[-98.883203,28.77703],[-98.88537,28.77719],[-98.886499,28.77948],[-98.886854,28.781549],[-98.888009,28.783277],[-98.887995,28.784867],[-98.888676,28.785687],[-98.8883,28.786941],[-98.889018,28.787663],[-98.889149,28.788686],[-98.88991,28.790139],[-98.889829,28.790568],[-98.89036,28.791196],[-98.88969,28.793011],[-98.890434,28.793457],[-98.891252,28.793435],[-98.891764,28.793997],[-98.893025,28.794509],[-98.894131,28.794614],[-98.895142,28.796507],[-98.895729,28.797118],[-98.895554,28.797432],[-98.894648,28.797767],[-98.894535,28.798383],[-98.895291,28.799765],[-98.894978,28.800898],[-98.89519,28.801745],[-98.894927,28.802317],[-98.896014,28.803286],[-98.896238,28.804321],[-98.897263,28.804662],[-98.898294,28.804718],[-98.898731,28.805615],[-98.898012,28.806924],[-98.898311,28.807958],[-98.897417,28.808635],[-98.897592,28.809405],[-98.897142,28.810137],[-98.897185,28.810726],[-98.896711,28.810869],[-98.896054,28.811551],[-98.896017,28.812486],[-98.894491,28.814483],[-98.895409,28.816167],[-98.897258,28.817373],[-98.898432,28.819013],[-98.897807,28.819579],[-98.898344,28.820597],[-98.898543,28.821973],[-98.898955,28.822364],[-98.898818,28.822534],[-98.899055,28.822898],[-98.898898,28.824862],[-98.898211,28.825027],[-98.898067,28.825351],[-98.898504,28.825946],[-98.898267,28.826408],[-98.898816,28.826518],[-98.899104,28.826931],[-98.898566,28.827228],[-98.899422,28.828174],[-98.899672,28.82884],[-98.899646,28.829572],[-98.899134,28.830408],[-98.899471,28.831052],[-98.899021,28.831278],[-98.899608,28.831806],[-98.899808,28.832378],[-98.900245,28.83239],[-98.901457,28.833276],[-98.902725,28.834707],[-98.902906,28.835274],[-98.903781,28.835797],[-98.903874,28.83693],[-98.904299,28.837359],[-98.904118,28.837926],[-98.90428,28.838119],[-98.905436,28.838554],[-98.90598,28.838092],[-98.906967,28.838334],[-98.907811,28.838268],[-98.908548,28.83895],[-98.909054,28.839022],[-98.909191,28.83993],[-98.909722,28.83998],[-98.90981,28.841064],[-98.910597,28.842274],[-98.910915,28.843909],[-98.911827,28.845009],[-98.911801,28.847914],[-98.911251,28.848272],[-98.91082,28.850165],[-98.91115,28.852118],[-98.910925,28.854292],[-98.911668,28.855898],[-98.910993,28.857345],[-98.91098,28.858237],[-98.911336,28.858776],[-98.910905,28.859266],[-98.911317,28.860377],[-98.912029,28.860955],[-98.912385,28.862419],[-98.912848,28.862364],[-98.913192,28.862815],[-98.913729,28.862865],[-98.914248,28.863294],[-98.914385,28.863927],[-98.915266,28.86467],[-98.915635,28.865495],[-98.91621,28.866084],[-98.916472,28.867295],[-98.91721,28.868059],[-98.917172,28.868373],[-98.916791,28.86856],[-98.916928,28.869666],[-98.916728,28.87075],[-98.917178,28.870926],[-98.917153,28.871999],[-98.917565,28.872027],[-98.917615,28.872599],[-98.918059,28.872979],[-98.917934,28.873149],[-98.917609,28.873083],[-98.917946,28.873793],[-98.917415,28.873799],[-98.917396,28.874464],[-98.917046,28.874712],[-98.917196,28.875331],[-98.917671,28.875513],[-98.917846,28.875865],[-98.917302,28.875942],[-98.917233,28.876691],[-98.916439,28.876861],[-98.916758,28.877488],[-98.91582,28.877994],[-98.915439,28.878666],[-98.915757,28.879166],[-98.915713,28.879706],[-98.91455,28.880553],[-98.915482,28.881549],[-98.916657,28.882363],[-98.916081,28.884086],[-98.917212,28.886419],[-98.916675,28.886804],[-98.916099,28.886969],[-98.915387,28.886831],[-98.914043,28.887403],[-98.913542,28.888493],[-98.913211,28.888734],[-98.91311,28.889362],[-98.913311,28.88983],[-98.91216,28.890743],[-98.910909,28.892558],[-98.91119,28.893648],[-98.911021,28.894264],[-98.912665,28.895805],[-98.913584,28.896322],[-98.913559,28.897747],[-98.913721,28.897962],[-98.914165,28.897984],[-98.914321,28.89876],[-98.914584,28.898744],[-98.914803,28.899068],[-98.914665,28.900246],[-98.913733,28.900625],[-98.912501,28.900025],[-98.912789,28.901439],[-98.912132,28.901439],[-98.911063,28.902418],[-98.909693,28.903078],[-98.90933,28.90348],[-98.909292,28.90523],[-98.908466,28.907271],[-98.908204,28.907441],[-98.908479,28.908883],[-98.908053,28.909631],[-98.908178,28.91],[-98.907809,28.910253],[-98.908397,28.910781],[-98.908109,28.911007],[-98.908259,28.911332],[-98.907965,28.911755],[-98.908378,28.912146],[-98.908277,28.912839],[-98.909165,28.913417],[-98.909177,28.914204],[-98.909634,28.914551],[-98.909565,28.915277],[-98.910178,28.915602],[-98.910703,28.916658],[-98.911841,28.91728],[-98.912153,28.918067],[-98.91199,28.918474],[-98.912341,28.919003],[-98.912203,28.919454],[-98.912397,28.920175],[-98.912978,28.92073],[-98.913384,28.921798],[-98.913866,28.922095],[-98.913972,28.922739],[-98.913647,28.922959],[-98.913916,28.923339],[-98.913803,28.923828],[-98.914122,28.924093],[-98.914015,28.924714],[-98.914315,28.925358],[-98.914028,28.92609],[-98.913608,28.926359],[-98.91429,28.927064],[-98.914402,28.927873],[-98.914759,28.928065],[-98.915528,28.927851],[-98.917154,28.929051],[-98.918105,28.929309],[-98.918242,28.92959],[-98.91888,28.929662],[-98.919831,28.930751],[-98.920437,28.930828],[-98.92115,28.93183],[-98.921669,28.931978],[-98.922708,28.932985],[-98.923145,28.933118],[-98.924627,28.934846],[-98.924834,28.936122],[-98.925222,28.936579],[-98.925465,28.937465],[-98.926185,28.93796],[-98.926103,28.939176],[-98.923851,28.940639],[-98.922988,28.942312],[-98.923357,28.943093],[-98.923238,28.943693],[-98.922487,28.944331],[-98.92193,28.945586],[-98.921492,28.945707],[-98.921292,28.94613],[-98.921567,28.946361],[-98.920541,28.946818],[-98.920485,28.947071],[-98.920091,28.947104],[-98.920109,28.948282],[-98.919721,28.94865],[-98.919265,28.94854],[-98.918664,28.949057],[-98.917713,28.951071],[-98.918082,28.952094],[-98.918588,28.951979],[-98.919364,28.952964],[-98.921234,28.953338],[-98.92156,28.953586],[-98.922085,28.954571],[-98.924168,28.956453],[-98.924431,28.957185],[-98.924744,28.957223],[-98.924819,28.956656],[-98.92515,28.956491],[-98.926833,28.957201],[-98.928116,28.957356],[-98.928372,28.957779],[-98.927928,28.957928],[-98.927878,28.958351],[-98.928253,28.95883],[-98.928754,28.958946],[-98.928923,28.959364],[-98.929029,28.960415],[-98.928747,28.960773],[-98.929173,28.961526],[-98.928916,28.96206],[-98.930518,28.963172],[-98.930893,28.964382],[-98.932488,28.963777],[-98.933008,28.964701],[-98.933633,28.965043],[-98.935529,28.964982],[-98.93648,28.96551],[-98.937387,28.965703],[-98.937938,28.965549],[-98.938357,28.965846],[-98.938757,28.966649],[-98.93912,28.96682],[-98.938914,28.96803],[-98.939095,28.968498],[-98.938682,28.969054],[-98.939583,28.969802],[-98.941348,28.970611],[-98.941711,28.970991],[-98.942236,28.971012],[-98.942618,28.97181],[-98.944045,28.971876],[-98.94621,28.973252],[-98.94805,28.976525],[-98.949289,28.976657],[-98.949476,28.976817],[-98.949264,28.976811],[-98.949207,28.977175],[-98.949495,28.97778],[-98.949946,28.978115],[-98.951323,28.978522],[-98.9529,28.979733],[-98.954809,28.983733],[-98.954502,28.98458],[-98.952494,28.985417],[-98.951211,28.986924],[-98.950329,28.986958],[-98.950304,28.987656],[-98.951136,28.988702],[-98.950492,28.989599],[-98.950992,28.989967],[-98.951255,28.989923],[-98.951556,28.990611],[-98.951819,28.993043],[-98.951719,28.994793],[-98.950067,28.997346],[-98.949416,28.997786],[-98.949266,28.998529],[-98.948584,28.998843],[-98.948083,28.999607],[-98.948234,29.000108],[-98.947464,29.002227],[-98.947827,29.004103],[-98.94856,29.005561],[-98.94804,29.007267],[-98.948003,29.008252],[-98.947765,29.008444],[-98.947252,29.008263],[-98.947089,29.008395],[-98.946814,29.011168],[-98.945606,29.012967],[-98.945256,29.013985],[-98.944054,29.015102],[-98.943347,29.01623],[-98.94416,29.019201],[-98.943591,29.020368],[-98.944173,29.021342],[-98.94324,29.022084],[-98.944361,29.023548],[-98.946646,29.025584],[-98.946628,29.026679],[-98.946064,29.027752],[-98.945394,29.02823],[-98.944343,29.028423],[-98.944161,29.028869],[-98.944524,29.029848],[-98.944512,29.030684],[-98.945432,29.03294],[-98.944637,29.034431],[-98.9449,29.037122],[-98.945351,29.03814],[-98.945376,29.039686],[-98.945877,29.040154],[-98.94651,29.041557],[-98.946485,29.042927],[-98.945178,29.043891],[-98.945195,29.044709],[-98.944832,29.045447],[-98.944745,29.046982],[-98.94445,29.047758],[-98.944068,29.048038],[-98.943298,29.047736],[-98.943185,29.048044],[-98.944112,29.051059],[-98.944557,29.05162],[-98.945665,29.052176],[-98.946088,29.052871],[-98.943017,29.052501],[-98.943493,29.053084],[-98.945998,29.054822],[-98.946292,29.05529],[-98.946211,29.056231],[-98.944407,29.058982],[-98.944426,29.059934],[-98.945397,29.061183],[-98.945691,29.062922],[-98.944746,29.06411],[-98.944257,29.065689],[-98.942967,29.067802],[-98.941665,29.069018],[-98.940443,29.069706],[-98.94045,29.070652],[-98.941452,29.070421],[-98.941871,29.070685],[-98.94169,29.071428],[-98.942009,29.072446],[-98.941778,29.073547],[-98.940594,29.074537],[-98.940425,29.075192],[-98.939974,29.075544],[-98.937794,29.075769],[-98.937055,29.076056],[-98.937049,29.076336],[-98.936473,29.076677],[-98.935796,29.076408],[-98.93517,29.076809],[-98.934976,29.077877],[-98.934387,29.078482],[-98.9346,29.079043],[-98.93413,29.081063],[-98.932915,29.082174],[-98.932389,29.084127],[-98.930672,29.086482],[-98.928993,29.08728],[-98.92816,29.087241],[-98.926607,29.086702],[-98.925911,29.086938],[-98.925141,29.088512],[-98.923932,29.089365],[-98.922926,29.090672],[-98.875305,29.090636],[-98.87208,29.09024],[-98.8049,29.090434]]]}},{"type":"Feature","properties":{"PRECINCT":"6","VTD":"0006"},"geometry":{"type":"Polygon","coordinates":[[[-98.997135,29.091223],[-98.922926,29.090672],[-98.923932,29.089365],[-98.925141,29.088512],[-98.925911,29.086938],[-98.926607,29.086702],[-98.92816,29.087241],[-98.928993,29.08728],[-98.930672,29.086482],[-98.932389,29.084127],[-98.932915,29.082174],[-98.93413,29.081063],[-98.9346,29.079043],[-98.934387,29.078482],[-98.934976,29.077877],[-98.93517,29.076809],[-98.935796,29.076408],[-98.936473,29.076677],[-98.937049,29.076336],[-98.937055,29.076056],[-98.937794,29.075769],[-98.939974,29.075544],[-98.940425,29.075192],[-98.940594,29.074537],[-98.941621,29.073761],[-98.941984,29.072985],[-98.94169,29.071428],[-98.941896,29.070762],[-98.941452,29.070421],[-98.94045,29.070652],[-98.940443,29.069706],[-98.941665,29.069018],[-98.942967,29.067802],[-98.944257,29.065689],[-98.944746,29.06411],[-98.945691,29.062922],[-98.945397,29.061183],[-98.944426,29.059934],[-98.944407,29.058982],[-98.946211,29.056231],[-98.946292,29.05529],[-98.945998,29.054822],[-98.943493,29.053084],[-98.943017,29.052501],[-98.946088,29.052871],[-98.945665,29.052176],[-98.944557,29.05162],[-98.944112,29.051059],[-98.943185,29.048044],[-98.943298,29.047736],[-98.944068,29.048038],[-98.94445,29.047758],[-98.944745,29.046982],[-98.944832,29.045447],[-98.945195,29.044709],[-98.945178,29.043891],[-98.946485,29.042927],[-98.94651,29.041557],[-98.945877,29.040154],[-98.945376,29.039686],[-98.945351,29.03814],[-98.9449,29.037122],[-98.944637,29.034431],[-98.945432,29.03294],[-98.944512,29.030684],[-98.944524,29.029848],[-98.944161,29.028869],[-98.944343,29.028423],[-98.945394,29.02823],[-98.946064,29.027752],[-98.946628,29.026679],[-98.946646,29.025584],[-98.944361,29.023548],[-98.94324,29.022084],[-98.944173,29.021342],[-98.943591,29.020368],[-98.94416,29.019201],[-98.943347,29.01623],[-98.944054,29.015102],[-98.945256,29.013985],[-98.945606,29.012967],[-98.946814,29.011168],[-98.946921,29.00917],[-98.949729,29.009566],[-98.970129,29.011251],[-98.970293,29.0115],[-98.970012,29.015402],[-98.970373,29.015777],[-98.994265,29.017288],[-98.996123,28.990134],[-99.000896,28.978462],[-99.001784,28.97895],[-99.001884,28.978752],[-99.002347,28.97895],[-99.002478,28.979297],[-99.003035,28.979269],[-99.003216,28.979644],[-99.004324,28.980101],[-99.004861,28.980838],[-99.00481,28.982263],[-99.006168,28.982869],[-99.006118,28.983276],[-99.006437,28.983535],[-99.007118,28.98512],[-99.008676,28.985165],[-99.010485,28.98571],[-99.01049,28.986354],[-99.010152,28.986965],[-99.010596,28.987372],[-99.011116,28.987091],[-99.011554,28.987427],[-99.012154,28.987345],[-99.012054,28.988088],[-99.011603,28.988225],[-99.011534,28.988583],[-99.012754,28.990498],[-99.012966,28.990614],[-99.013065,28.990199],[-99.013799,28.990129],[-99.013705,28.990553],[-99.014068,28.990531],[-99.014249,28.990746],[-99.013961,28.991197],[-99.014537,28.991885],[-99.015325,28.992491],[-99.016545,28.99275],[-99.01667,28.994615],[-99.016438,28.994686],[-99.016306,28.995407],[-99.015844,28.99562],[-99.016031,28.996051],[-99.015849,28.996595],[-99.015342,28.996744],[-99.015792,28.997977],[-99.015629,28.999082],[-99.016805,28.999666],[-99.017412,29.00025],[-99.017894,29.000327],[-99.017693,29.000921],[-99.01805,29.001691],[-99.018444,29.001416],[-99.01912,29.001554],[-99.019383,29.002083],[-99.019746,29.001824],[-99.020152,29.001874],[-99.021197,29.003536],[-99.020909,29.003706],[-99.021478,29.004273],[-99.022098,29.00418],[-99.022905,29.004543],[-99.023976,29.004615],[-99.024263,29.004824],[-99.024382,29.005512],[-99.025002,29.005688],[-99.024832,29.006486],[-99.025464,29.006992],[-99.025433,29.007471],[-99.026647,29.00915],[-99.026565,29.009579],[-99.027022,29.009881],[-99.027491,29.010778],[-99.028198,29.011015],[-99.028599,29.011654],[-99.027965,29.011996],[-99.027956,29.012238],[-99.029906,29.014168],[-99.029718,29.014917],[-99.029324,29.01512],[-99.029787,29.016298],[-99.030519,29.016138],[-99.030913,29.016496],[-99.031032,29.01703],[-99.033097,29.020299],[-99.033209,29.021228],[-99.033948,29.021905],[-99.034899,29.023523],[-99.035956,29.026176],[-99.037727,29.027414],[-99.038347,29.029587],[-99.037927,29.030308],[-99.038252,29.031766],[-99.040982,29.032009],[-99.042898,29.031525],[-99.043338,29.031832],[-99.047762,29.028347],[-99.048078,29.028493],[-99.048411,29.02817],[-99.059367,29.003105],[-99.064458,28.989152],[-99.066425,28.99047],[-99.083899,29.00588],[-99.085506,29.006847],[-99.09051,29.009185],[-99.091974,29.01055],[-99.09311,29.012379],[-99.094756,29.01782],[-99.1004,29.026133],[-99.105055,29.035993],[-99.105441,29.052503],[-99.106545,29.057281],[-99.106103,29.061362],[-99.106628,29.062075],[-99.10784,29.062417],[-99.112545,29.06529],[-99.112712,29.07358],[-99.117666,29.073553],[-99.117806,29.084472],[-99.119592,29.088209],[-99.119663,29.08901],[-99.120574,29.089155],[-99.120821,29.089393],[-99.120777,29.091002],[-99.064435,29.090939],[-98.997135,29.091223]]]}},{"type":"Feature","properties":{"PRECINCT":"4","VTD":"0004"},"geometry":{"type":"MultiPolygon","coordinates":[[[[-98.894131,28.794614],[-98.893025,28.794509],[-98.891764,28.793997],[-98.891252,28.793435],[-98.890434,28.793457],[-98.88969,28.793011],[-98.89036,28.791196],[-98.889829,28.790568],[-98.88991,28.790139],[-98.889149,28.788686],[-98.889018,28.787663],[-98.8883,28.786941],[-98.888676,28.785687],[-98.887995,28.784867],[-98.888009,28.783277],[-98.886854,28.781549],[-98.886499,28.77948],[-98.88537,28.77719],[-98.883203,28.77703],[-98.880537,28.775257],[-98.880037,28.774695],[-98.879888,28.773963],[-98.87932,28.773429],[-98.877528,28.77284],[-98.877192,28.770001],[-98.877262,28.768663],[-98.877837,28.767151],[-98.87677,28.765841],[-98.877158,28.764361],[-98.876747,28.762523],[-98.874351,28.761086],[-98.874344,28.759617],[-98.873082,28.758957],[-98.872108,28.758116],[-98.872188,28.756806],[-98.873086,28.755221],[-98.87308,28.754423],[-98.872455,28.754071],[-98.871468,28.754116],[-98.869682,28.752796],[-98.867084,28.752401],[-98.865298,28.751653],[-98.864368,28.75172],[-98.863649,28.751054],[-98.862856,28.750944],[-98.862294,28.750609],[-98.861901,28.750086],[-98.86155,28.748902],[-98.863828,28.747729],[-98.864402,28.746541],[-98.864302,28.746101],[-98.863784,28.745644],[-98.861717,28.744473],[-98.858439,28.74416],[-98.855424,28.745862],[-98.854824,28.745878],[-98.854262,28.745691],[-98.850834,28.743315],[-98.847468,28.742727],[-98.845652,28.742068],[-98.844821,28.741451],[-98.84251,28.738723],[-98.841548,28.736847],[-98.841904,28.735752],[-98.843215,28.735427],[-98.844257,28.734166],[-98.844169,28.733093],[-98.843851,28.732824],[-98.841666,28.732802],[-98.840548,28.7319],[-98.840386,28.731256],[-98.840554,28.730937],[-98.84194,28.730271],[-98.843262,28.727322],[-98.842844,28.726727],[-98.842107,28.726386],[-98.840908,28.725303],[-98.840309,28.723988],[-98.84019,28.722788],[-98.83954,28.721005],[-98.838367,28.720164],[-98.837599,28.720059],[-98.836432,28.720285],[-98.835614,28.720065],[-98.834278,28.718387],[-98.834271,28.717265],[-98.833878,28.71677],[-98.83374,28.716043],[-98.831768,28.714024],[-98.826768,28.712049],[-98.825956,28.711543],[-98.825688,28.710905],[-98.82472,28.710036],[-98.823977,28.707681],[-98.822785,28.706624],[-98.820782,28.703472],[-98.819798,28.702908],[-98.814864,28.708315],[-98.809053,28.709756],[-98.805346,28.711638],[-98.801537,28.712553],[-98.800841,28.647487],[-98.986864,28.64606],[-99.000229,28.645661],[-99.053798,28.645155],[-99.054534,28.646532],[-99.053798,28.647115],[-99.054241,28.647451],[-99.053811,28.647918],[-99.054335,28.648419],[-99.054229,28.648788],[-99.053942,28.648749],[-99.053305,28.649316],[-99.053492,28.65051],[-99.053237,28.650868],[-99.054353,28.651385],[-99.053854,28.65166],[-99.053997,28.652177],[-99.054852,28.652001],[-99.055058,28.652265],[-99.054659,28.652579],[-99.054808,28.652937],[-99.056037,28.652832],[-99.058345,28.653894],[-99.061302,28.654318],[-99.061059,28.654714],[-99.061963,28.655209],[-99.06225,28.655655],[-99.062593,28.655407],[-99.062918,28.655507],[-99.063292,28.656524],[-99.063953,28.656816],[-99.063404,28.657212],[-99.063966,28.65741],[-99.063985,28.658494],[-99.064328,28.659215],[-99.064109,28.66003],[-99.064571,28.660673],[-99.064022,28.66113],[-99.06381,28.662049],[-99.06288,28.662583],[-99.062961,28.663326],[-99.063323,28.663683],[-99.063105,28.663826],[-99.0625,28.663694],[-99.062288,28.664597],[-99.061608,28.664668],[-99.060971,28.665064],[-99.061764,28.66534],[-99.061839,28.665972],[-99.061109,28.665824],[-99.060528,28.666792],[-99.060928,28.667216],[-99.061701,28.66721],[-99.061539,28.667623],[-99.062094,28.66797],[-99.061951,28.668856],[-99.062294,28.669538],[-99.061876,28.670149],[-99.062431,28.670418],[-99.061601,28.670776],[-99.061576,28.671167],[-99.062306,28.671178],[-99.062575,28.672394],[-99.063373,28.672201],[-99.063361,28.671678],[-99.063872,28.671882],[-99.063891,28.672548],[-99.06308,28.673626],[-99.063829,28.674166],[-99.063167,28.674727],[-99.063124,28.675046],[-99.064135,28.675624],[-99.064996,28.675508],[-99.06489,28.676113],[-99.065357,28.676592],[-99.064958,28.676994],[-99.066581,28.677621],[-99.067566,28.678468],[-99.069026,28.678738],[-99.069501,28.679151],[-99.07093,28.678941],[-99.071366,28.67936],[-99.071229,28.679871],[-99.071791,28.679937],[-99.072252,28.680383],[-99.072346,28.680851],[-99.072908,28.681412],[-99.073001,28.682391],[-99.072509,28.682656],[-99.072409,28.684455],[-99.072084,28.685011],[-99.07254,28.68517],[-99.072659,28.685643],[-99.071804,28.686584],[-99.072166,28.687399],[-99.072103,28.688043],[-99.072503,28.688483],[-99.072553,28.689104],[-99.073383,28.689231],[-99.073639,28.689523],[-99.073439,28.689946],[-99.07392,28.690684],[-99.074912,28.690645],[-99.075723,28.691503],[-99.075817,28.692334],[-99.076397,28.692439],[-99.07674,28.69295],[-99.077414,28.693203],[-99.077053,28.693765],[-99.077234,28.694794],[-99.077646,28.694865],[-99.078145,28.695844],[-99.078919,28.696108],[-99.079574,28.696059],[-99.079275,28.696389],[-99.079562,28.69667],[-99.080354,28.696559],[-99.080816,28.696873],[-99.082114,28.696658],[-99.083462,28.697439],[-99.087194,28.696861],[-99.088249,28.697571],[-99.088242,28.696877],[-99.088954,28.696778],[-99.088991,28.69724],[-99.089378,28.697103],[-99.08984,28.697339],[-99.089734,28.697835],[-99.090177,28.697658],[-99.090508,28.697818],[-99.090546,28.698225],[-99.090121,28.698715],[-99.090833,28.700184],[-99.091844,28.700734],[-99.092337,28.700745],[-99.093018,28.701493],[-99.093767,28.701289],[-99.093761,28.701867],[-99.094678,28.701421],[-99.094834,28.701938],[-99.095309,28.702208],[-99.095833,28.702136],[-99.095982,28.701712],[-99.097505,28.701767],[-99.098311,28.702779],[-99.098005,28.703143],[-99.098111,28.703456],[-99.099278,28.704028],[-99.099834,28.704039],[-99.099909,28.704908],[-99.100833,28.705293],[-99.101045,28.705799],[-99.102057,28.70674],[-99.102774,28.706987],[-99.103044,28.708814],[-99.103487,28.708897],[-99.103449,28.708181],[-99.103986,28.707911],[-99.104354,28.707966],[-99.104379,28.708385],[-99.10491,28.708626],[-99.105116,28.709842],[-99.103737,28.710239],[-99.104654,28.710272],[-99.104948,28.710646],[-99.104717,28.710822],[-99.103812,28.71074],[-99.103819,28.711582],[-99.104218,28.712088],[-99.103732,28.712748],[-99.104762,28.71283],[-99.104849,28.71305],[-99.104462,28.71337],[-99.104955,28.713733],[-99.104425,28.713826],[-99.104581,28.714426],[-99.103926,28.71458],[-99.103683,28.714861],[-99.103895,28.715175],[-99.104544,28.715092],[-99.105025,28.715405],[-99.104463,28.716154],[-99.105131,28.716137],[-99.104757,28.716462],[-99.105007,28.716919],[-99.106024,28.716907],[-99.1057,28.717375],[-99.106105,28.71765],[-99.105581,28.717969],[-99.10663,28.718173],[-99.106037,28.718696],[-99.106974,28.719097],[-99.107124,28.719603],[-99.107742,28.71952],[-99.108473,28.72083],[-99.109072,28.720631],[-99.109122,28.721226],[-99.10959,28.720631],[-99.11037,28.721297],[-99.1112,28.721192],[-99.110907,28.721528],[-99.111163,28.722067],[-99.111419,28.722012],[-99.111538,28.721561],[-99.112343,28.721665],[-99.11243,28.72189],[-99.111807,28.72254],[-99.112699,28.722374],[-99.112749,28.722837],[-99.11398,28.72392],[-99.114298,28.723975],[-99.11524,28.72349],[-99.115428,28.723606],[-99.115116,28.724321],[-99.117101,28.724045],[-99.117113,28.72426],[-99.11657,28.724651],[-99.117089,28.72459],[-99.117108,28.725251],[-99.1179,28.725025],[-99.117613,28.725668],[-99.117832,28.726158],[-99.118144,28.726235],[-99.118394,28.725602],[-99.11875,28.726169],[-99.119287,28.726471],[-99.119043,28.725635],[-99.119299,28.725371],[-99.120104,28.725734],[-99.120423,28.72619],[-99.121291,28.726217],[-99.121422,28.726591],[-99.120411,28.727087],[-99.120586,28.727302],[-99.122078,28.727229],[-99.121822,28.727499],[-99.121291,28.727521],[-99.121728,28.727967],[-99.12116,28.728028],[-99.121722,28.72838],[-99.121155,28.729057],[-99.121317,28.729288],[-99.122391,28.729265],[-99.122666,28.729733],[-99.123009,28.729232],[-99.124033,28.729627],[-99.124544,28.72911],[-99.124906,28.729044],[-99.125531,28.729292],[-99.125955,28.730002],[-99.126598,28.729821],[-99.127041,28.730305],[-99.127403,28.730228],[-99.127453,28.729667],[-99.128252,28.729711],[-99.12847,28.729992],[-99.127752,28.730333],[-99.127852,28.73074],[-99.128857,28.730746],[-99.129238,28.730487],[-99.1294,28.730818],[-99.129256,28.731384],[-99.129549,28.731478],[-99.130086,28.731214],[-99.130242,28.73161],[-99.130742,28.731699],[-99.130511,28.731968],[-99.131097,28.732398],[-99.13184,28.732051],[-99.131909,28.732679],[-99.132214,28.732706],[-99.132514,28.732338],[-99.13272,28.732844],[-99.134318,28.732223],[-99.134892,28.733037],[-99.135217,28.732537],[-99.135592,28.732449],[-99.136628,28.733605],[-99.137059,28.733088],[-99.137408,28.733297],[-99.137564,28.732703],[-99.137864,28.73267],[-99.138407,28.733022],[-99.13855,28.7336],[-99.139075,28.733523],[-99.13998,28.734431],[-99.140411,28.733788],[-99.140723,28.734046],[-99.140723,28.734487],[-99.141465,28.734614],[-99.141647,28.733689],[-99.142003,28.733387],[-99.142365,28.733783],[-99.142171,28.734207],[-99.142564,28.734592],[-99.142583,28.735373],[-99.143413,28.735698],[-99.143057,28.736446],[-99.143493,28.736727],[-99.143656,28.736232],[-99.143965,28.736183],[-99.139134,28.743612],[-99.136655,28.752193],[-99.132518,28.768208],[-99.128088,28.76724],[-99.125766,28.766388],[-99.11027,28.756858],[-99.094672,28.745596],[-99.090075,28.741648],[-99.088441,28.741254],[-99.086811,28.74153],[-99.085731,28.742193],[-99.082992,28.744592],[-99.081891,28.745104],[-99.080436,28.745223],[-99.079038,28.744764],[-99.074602,28.741091],[-99.072509,28.739859],[-99.068748,28.736864],[-99.061188,28.730166],[-99.057828,28.726677],[-99.047319,28.717625],[-99.01657,28.745265],[-98.984529,28.772074],[-98.971842,28.783395],[-98.970222,28.784385],[-98.967642,28.785189],[-98.936185,28.79201],[-98.905986,28.795846],[-98.901834,28.797292],[-98.895039,28.801101],[-98.895291,28.799765],[-98.894535,28.798477],[-98.894623,28.797816],[-98.895554,28.797432],[-98.895729,28.797118],[-98.895142,28.796507],[-98.894131,28.794614]]],[[[-99.040569,29.03202],[-99.038252,29.031766],[-99.037927,29.030308],[-99.038347,29.029587],[-99.037727,29.027414],[-99.035956,29.026176],[-99.034899,29.023523],[-99.033948,29.021905],[-99.033209,29.021228],[-99.033097,29.020299],[-99.031032,29.01703],[-99.030913,29.016496],[-99.030519,29.016138],[-99.029787,29.016298],[-99.029324,29.01512],[-99.029718,29.014917],[-99.029906,29.014168],[-99.027956,29.012238],[-99.027965,29.011996],[-99.028599,29.011654],[-99.028198,29.011015],[-99.027491,29.010778],[-99.027022,29.009881],[-99.026565,29.009579],[-99.026647,29.00915],[-99.025433,29.007471],[-99.025464,29.006992],[-99.024832,29.006486],[-99.025002,29.005688],[-99.024382,29.005512],[-99.024263,29.004824],[-99.023976,29.004615],[-99.022905,29.004543],[-99.022098,29.00418],[-99.021478,29.004273],[-99.020909,29.003706],[-99.021197,29.003536],[-99.020152,29.001874],[-99.019746,29.001824],[-99.019383,29.002083],[-99.01912,29.001554],[-99.018444,29.001416],[-99.01805,29.001691],[-99.017693,29.000921],[-99.017894,29.000327],[-99.017412,29.00025],[-99.016805,28.999666],[-99.015629,28.999082],[-99.015792,28.997977],[-99.015342,28.996744],[-99.015849,28.996595],[-99.016031,28.996051],[-99.015844,28.99562],[-99.016306,28.995407],[-99.016438,28.994686],[-99.01667,28.994615],[-99.016545,28.99275],[-99.015325,28.992491],[-99.014537,28.991885],[-99.013961,28.991197],[-99.014249,28.990746],[-99.014068,28.990531],[-99.013705,28.990553],[-99.013799,28.990129],[-99.013065,28.990199],[-99.012966,28.990614],[-99.012754,28.990498],[-99.011534,28.988583],[-99.011603,28.988225],[-99.012054,28.988088],[-99.012154,28.987345],[-99.011554,28.987427],[-99.011116,28.987091],[-99.010596,28.987372],[-99.010152,28.986965],[-99.01049,28.986354],[-99.010485,28.98571],[-99.008676,28.985165],[-99.007118,28.98512],[-99.006437,28.983535],[-99.006118,28.983276],[-99.006168,28.982869],[-99.00481,28.982263],[-99.004861,28.980838],[-99.004324,28.980101],[-99.003216,28.979644],[-99.003035,28.979269],[-99.002478,28.979297],[-99.002347,28.97895],[-99.001884,28.978752],[-99.001784,28.97895],[-99.000896,28.978462],[-98.996123,28.990134],[-98.994265,29.017288],[-98.970373,29.015777],[-98.970012,29.015402],[-98.970293,29.0115],[-98.970129,29.011251],[-98.949729,29.009566],[-98.946921,29.00917],[-98.947133,29.008345],[-98.947984,29.008307],[-98.94804,29.007267],[-98.948553,29.005786],[-98.947827,29.004103],[-98.94747,29.002353],[-98.948234,29.000108],[-98.948083,28.999607],[-98.948584,28.998843],[-98.949266,28.998529],[-98.949416,28.997786],[-98.950067,28.997346],[-98.951719,28.994793],[-98.951819,28.993043],[-98.951556,28.990611],[-98.951255,28.989923],[-98.950992,28.989967],[-98.950492,28.989599],[-98.951136,28.988702],[-98.950304,28.987656],[-98.950329,28.986958],[-98.951211,28.986924],[-98.952494,28.985417],[-98.954502,28.98458],[-98.954809,28.983733],[-98.954658,28.983122],[-98.9529,28.979733],[-98.951323,28.978522],[-98.949946,28.978115],[-98.949495,28.97778],[-98.949207,28.977175],[-98.949264,28.976811],[-98.949476,28.976817],[-98.949289,28.976657],[-98.94805,28.976525],[-98.94621,28.973252],[-98.944045,28.971876],[-98.942618,28.97181],[-98.942236,28.971012],[-98.941711,28.970991],[-98.941348,28.970611],[-98.939583,28.969802],[-98.938682,28.969054],[-98.939095,28.968498],[-98.938914,28.96803],[-98.93912,28.96682],[-98.938757,28.966649],[-98.938101,28.965626],[-98.936868,28.965626],[-98.935529,28.964982],[-98.933633,28.965043],[-98.933008,28.964701],[-98.932488,28.963777],[-98.930893,28.964382],[-98.930518,28.963172],[-98.928916,28.96206],[-98.929173,28.961526],[-98.928747,28.960773],[-98.929029,28.960415],[-98.928923,28.959364],[-98.928754,28.958946],[-98.928253,28.95883],[-98.927878,28.958351],[-98.927928,28.957928],[-98.928372,28.957779],[-98.928116,28.957356],[-98.926833,28.957201],[-98.92515,28.956491],[-98.924819,28.956656],[-98.924762,28.95719],[-98.924568,28.957262],[-98.924005,28.956255],[-98.922085,28.954571],[-98.921391,28.953443],[-98.919364,28.952964],[-98.918588,28.951979],[-98.918082,28.952094],[-98.917688,28.950977],[-98.918188,28.950284],[-98.918289,28.949684],[-98.919265,28.94854],[-98.919721,28.94865],[-98.920109,28.948282],[-98.920091,28.947104],[-98.920485,28.947071],[-98.920541,28.946818],[-98.921567,28.946361],[-98.921292,28.94613],[-98.921492,28.945707],[-98.92193,28.945586],[-98.922487,28.944331],[-98.923238,28.943693],[-98.923357,28.943093],[-98.922988,28.942312],[-98.923851,28.940639],[-98.926103,28.939176],[-98.926185,28.93796],[-98.925465,28.937465],[-98.925222,28.936579],[-98.924834,28.936122],[-98.924627,28.934846],[-98.923145,28.933118],[-98.922708,28.932985],[-98.921669,28.931978],[-98.92115,28.93183],[-98.920437,28.930828],[-98.919831,28.930751],[-98.91888,28.929662],[-98.918242,28.92959],[-98.918105,28.929309],[-98.917154,28.929051],[-98.915528,28.927851],[-98.914759,28.928065],[-98.914402,28.927873],[-98.91429,28.927064],[-98.913608,28.926359],[-98.914028,28.92609],[-98.914315,28.925358],[-98.914015,28.924714],[-98.914122,28.924093],[-98.913803,28.923828],[-98.913916,28.923339],[-98.913647,28.922959],[-98.913972,28.922739],[-98.913866,28.922095],[-98.913384,28.921798],[-98.912978,28.92073],[-98.912397,28.920175],[-98.912203,28.919454],[-98.912341,28.919003],[-98.91199,28.918474],[-98.912153,28.918067],[-98.911841,28.91728],[-98.910703,28.916658],[-98.910178,28.915602],[-98.909565,28.915277],[-98.909634,28.914551],[-98.909177,28.914204],[-98.909165,28.913417],[-98.908277,28.912839],[-98.908378,28.912146],[-98.907965,28.911755],[-98.908259,28.911332],[-98.908109,28.911007],[-98.908397,28.910781],[-98.907809,28.910253],[-98.908178,28.91],[-98.908053,28.909631],[-98.908491,28.908812],[-98.908204,28.907441],[-98.908466,28.907271],[-98.909292,28.90523],[-98.90933,28.90348],[-98.909693,28.903078],[-98.911063,28.902418],[-98.912132,28.901439],[-98.912789,28.901439],[-98.912501,28.900025],[-98.913871,28.900625],[-98.914665,28.900246],[-98.914815,28.899464],[-98.914765,28.898975],[-98.914321,28.89876],[-98.914165,28.897984],[-98.913721,28.897962],[-98.913559,28.897747],[-98.913553,28.896273],[-98.912665,28.895805],[-98.910971,28.894176],[-98.91119,28.893648],[-98.910934,28.892399],[-98.91216,28.890743],[-98.913311,28.88983],[-98.91311,28.889362],[-98.913211,28.888734],[-98.913542,28.888493],[-98.914043,28.887403],[-98.915387,28.886831],[-98.916099,28.886969],[-98.916675,28.886804],[-98.917212,28.886419],[-98.916081,28.884086],[-98.916657,28.882363],[-98.91455,28.88063],[-98.915713,28.879706],[-98.915757,28.879166],[-98.915439,28.878666],[-98.91582,28.877994],[-98.916758,28.877488],[-98.916439,28.876861],[-98.917233,28.876691],[-98.917302,28.875942],[-98.917846,28.875865],[-98.917671,28.875513],[-98.917196,28.875331],[-98.917046,28.874712],[-98.917396,28.874464],[-98.917415,28.873799],[-98.917946,28.873793],[-98.917609,28.873083],[-98.918065,28.873045],[-98.917615,28.872599],[-98.917565,28.872027],[-98.917153,28.871999],[-98.917178,28.870926],[-98.916728,28.87075],[-98.916928,28.869666],[-98.916791,28.86856],[-98.917172,28.868373],[-98.91721,28.868059],[-98.916472,28.867295],[-98.91621,28.866084],[-98.915635,28.865495],[-98.915266,28.86467],[-98.914385,28.863927],[-98.914248,28.863294],[-98.913729,28.862865],[-98.913192,28.862815],[-98.912848,28.862364],[-98.912423,28.862463],[-98.9121,28.86125],[-98.977047,28.865542],[-98.984542,28.872026],[-98.982632,28.89677],[-98.98261,28.902874],[-98.985309,28.901724],[-98.996782,28.894204],[-99.008671,28.892043],[-99.02811,28.887609],[-99.064827,28.885334],[-99.070545,28.885171],[-99.071931,28.88555],[-99.077507,28.887952],[-99.083703,28.889421],[-99.084251,28.887611],[-99.091397,28.889232],[-99.090306,28.893012],[-99.0946,28.893973],[-99.095981,28.889264],[-99.097009,28.889507],[-99.097289,28.888542],[-99.097796,28.888654],[-99.079827,28.947652],[-99.074025,28.965967],[-99.072249,28.970844],[-99.064564,28.988854],[-99.060538,29.000201],[-99.048411,29.02817],[-99.048078,29.028493],[-99.047762,29.028347],[-99.043338,29.031832],[-99.042898,29.031525],[-99.040569,29.03202]]]]}}]}