{"type":"FeatureCollection","features":[{"type":"Feature","properties":{"PRECINCT":"1","VTD":"0001"},"geometry":{"type":"Polygon","coordinates":[[[-99.877809,28.532896],[-99.873183,28.526793],[-99.873206,28.527279],[-99.872562,28.526495],[-99.872763,28.526346],[-99.871716,28.525635],[-99.863625,28.522925],[-99.860918,28.529286],[-99.857586,28.532242],[-99.854284,28.528201],[-99.857239,28.521122],[-99.860508,28.521875],[-99.861601,28.518852],[-99.861427,28.517902],[-99.860932,28.517203],[-99.859292,28.516211],[-99.858262,28.516431],[-99.857731,28.515581],[-99.856948,28.514894],[-99.818329,28.49377],[-99.815424,28.491219],[-99.80657,28.480216],[-99.843283,28.457087],[-99.847577,28.462438],[-99.847925,28.462598],[-99.858356,28.456176],[-99.858203,28.454947],[-99.87687,28.448546],[-99.877419,28.44901],[-99.881454,28.458763],[-99.881681,28.458857],[-99.901851,28.452264],[-99.904335,28.448593],[-99.905196,28.447759],[-99.906436,28.447004],[-99.929204,28.439492],[-99.930362,28.438557],[-99.930836,28.437437],[-99.930734,28.428719],[-99.930987,28.427695],[-99.931544,28.426855],[-99.935408,28.424253],[-99.938257,28.422828],[-99.940636,28.42091],[-99.955105,28.411953],[-99.958496,28.409533],[-99.967544,28.403758],[-99.966831,28.403606],[-99.96037,28.396052],[-99.959416,28.394919],[-99.958933,28.393646],[-99.958999,28.359004],[-99.961433,28.358924],[-99.961632,28.358607],[-99.961289,28.32933],[-99.962109,28.326418],[-99.96195,28.314257],[-99.962341,28.314105],[-100.007849,28.313738],[-100.00832,28.313507],[-100.008511,28.262672],[-100.008147,28.198707],[-100.113719,28.197819],[-100.113835,28.343515],[-100.114042,28.349588],[-100.113836,28.402128],[-100.11402,28.489864],[-100.039934,28.48948],[-100.012697,28.489799],[-100.010736,28.490204],[-100.008765,28.490973],[-100.003309,28.494628],[-100.000345,28.495886],[-99.977238,28.501238],[-99.901371,28.525208],[-99.877809,28.532896]]]}},{"type":"Feature","properties":{"PRECINCT":"2","VTD":"0002"},"geometry":{"type":"Polygon","coordinates":[[[-100.114336,28.648122],[-100.000458,28.647294],[-99.9997,28.647434],[-99.935943,28.646459],[-99.913051,28.646756],[-99.890076,28.644805],[-99.875333,28.643934],[-99.845042,28.643959],[-99.838535,28.589196],[-99.834485,28.561314],[-99.834635,28.559667],[-99.835101,28.558145],[-99.843007,28.546761],[-99.849204,28.539685],[-99.850056,28.539433],[-99.855799,28.533847],[-99.860918,28.529286],[-99.863625,28.522925],[-99.872211,28.525892],[-99.872763,28.526346],[-99.872562,28.526495],[-99.873206,28.527279],[-99.873183,28.526793],[-99.877809,28.532896],[-99.901371,28.525208],[-99.977238,28.501238],[-100.000345,28.495886],[-100.003309,28.494628],[-100.008765,28.490973],[-100.010736,28.490204],[-100.012697,28.489799],[-100.039934,28.48948],[-100.11402,28.489864],[-100.114091,28.618499],[-100.114336,28.648122]]]}},{"type":"Feature","properties":{"PRECINCT":"3","VTD":"0003"},"geometry":{"type":"Polygon","coordinates":[[[-99.749471,28.643862],[-99.680301,28.643388],[-99.655268,28.643548],[-99.623932,28.642867],[-99.567685,28.642483],[-99.526761,28.642573],[-99.513222,28.641724],[-99.502224,28.641336],[-99.501501,28.64113],[-99.501287,28.641305],[-99.492967,28.641402],[-99.412349,28.640512],[-99.395736,28.640784],[-99.395707,28.625258],[-99.396069,28.614972],[-99.3963,28.551494],[-99.396313,28.519789],[-99.395944,28.500263],[-99.396681,28.500268],[-99.395926,28.426299],[-99.396474,28.425854],[-99.396356,28.425612],[-99.396848,28.424946],[-99.397831,28.424457],[-99.3979,28.42411],[-99.397695,28.423962],[-99.398087,28.423692],[-99.39802,28.423441],[-99.405514,28.420983],[-99.407755,28.422506],[-99.41044,28.422983],[-99.411952,28.422443],[-99.413022,28.423141],[-99.415215,28.423402],[-99.415748,28.42326],[-99.417531,28.421826],[-99.418538,28.421377],[-99.422661,28.420803],[-99.426056,28.418702],[-99.426626,28.417593],[-99.428444,28.417152],[-99.430531,28.416265],[-99.433011,28.416206],[-99.435414,28.41472],[-99.437602,28.413859],[-99.440945,28.413312],[-99.441712,28.413896],[-99.442996,28.414083],[-99.445272,28.413489],[-99.445509,28.414942],[-99.445913,28.415017],[-99.454403,28.409977],[-99.455109,28.410263],[-99.454971,28.409615],[-99.455192,28.409289],[-99.45561,28.409648],[-99.456132,28.409703],[-99.456344,28.409407],[-99.457466,28.409076],[-99.458797,28.40918],[-99.459002,28.408954],[-99.459699,28.408844],[-99.459936,28.40924],[-99.460583,28.408585],[-99.461255,28.4088],[-99.46113,28.408294],[-99.461921,28.407958],[-99.4624,28.408514],[-99.462462,28.409064],[-99.462886,28.409245],[-99.463116,28.408756],[-99.463501,28.408855],[-99.46347,28.409223],[-99.463807,28.4093],[-99.463862,28.408491],[-99.464671,28.40832],[-99.465157,28.407924],[-99.465325,28.408249],[-99.465698,28.408194],[-99.465735,28.407765],[-99.466028,28.407682],[-99.466476,28.407984],[-99.466196,28.408518],[-99.466644,28.408639],[-99.467329,28.409354],[-99.467572,28.408826],[-99.468045,28.408947],[-99.468891,28.408661],[-99.470578,28.409062],[-99.470721,28.409486],[-99.470497,28.409986],[-99.471375,28.410129],[-99.471213,28.410702],[-99.471412,28.411037],[-99.471244,28.411257],[-99.470242,28.410927],[-99.469981,28.411192],[-99.470087,28.411434],[-99.471232,28.411846],[-99.471357,28.412523],[-99.471674,28.411978],[-99.472209,28.412039],[-99.47188,28.412545],[-99.47277,28.413029],[-99.473118,28.412677],[-99.473697,28.41266],[-99.473797,28.412962],[-99.473187,28.41332],[-99.474239,28.41376],[-99.474407,28.414035],[-99.475434,28.413419],[-99.476311,28.414194],[-99.476691,28.413308],[-99.477892,28.413027],[-99.478172,28.413952],[-99.478477,28.413913],[-99.478471,28.413605],[-99.47895,28.413621],[-99.479075,28.413968],[-99.479591,28.41405],[-99.480195,28.414633],[-99.480836,28.414237],[-99.481135,28.414991],[-99.481403,28.415068],[-99.481689,28.414754],[-99.481751,28.41411],[-99.482392,28.414099],[-99.482124,28.413692],[-99.482896,28.413389],[-99.483232,28.414104],[-99.483967,28.413895],[-99.485317,28.413999],[-99.485411,28.414164],[-99.484788,28.414511],[-99.48523,28.414775],[-99.485641,28.414725],[-99.485896,28.414037],[-99.486419,28.414037],[-99.486444,28.41434],[-99.485909,28.41483],[-99.486444,28.415187],[-99.486544,28.415517],[-99.487073,28.415379],[-99.487322,28.415665],[-99.487789,28.415269],[-99.488667,28.41616],[-99.488984,28.416061],[-99.48904,28.41578],[-99.488573,28.415489],[-99.488635,28.415247],[-99.490284,28.414938],[-99.491125,28.415339],[-99.491193,28.415802],[-99.492052,28.41557],[-99.492725,28.416357],[-99.493914,28.416642],[-99.494293,28.417022],[-99.49504,28.416807],[-99.494661,28.416402],[-99.494971,28.41591],[-99.494654,28.415795],[-99.494679,28.415564],[-99.495936,28.41542],[-99.496278,28.415893],[-99.496142,28.416427],[-99.497642,28.416861],[-99.498258,28.416833],[-99.498825,28.417289],[-99.499634,28.417289],[-99.500129,28.417714],[-99.500447,28.417692],[-99.500577,28.418259],[-99.500334,28.418748],[-99.500863,28.419134],[-99.501491,28.419189],[-99.500813,28.41866],[-99.500851,28.418457],[-99.502058,28.418325],[-99.502052,28.418655],[-99.502494,28.418733],[-99.503059,28.419855],[-99.502524,28.419938],[-99.502599,28.420306],[-99.503065,28.420576],[-99.503333,28.420378],[-99.503706,28.420455],[-99.50388,28.421391],[-99.503656,28.421831],[-99.504328,28.421787],[-99.50449,28.422035],[-99.504558,28.422723],[-99.504091,28.423168],[-99.504284,28.423455],[-99.504925,28.423631],[-99.504433,28.424032],[-99.504867,28.425953],[-99.504463,28.42647],[-99.504973,28.426949],[-99.50468,28.427158],[-99.504748,28.427538],[-99.505022,28.427697],[-99.505278,28.427301],[-99.505495,28.427318],[-99.505663,28.42827],[-99.506118,28.427973],[-99.50651,28.42799],[-99.506142,28.429079],[-99.506547,28.429019],[-99.506877,28.428573],[-99.507499,28.428584],[-99.507412,28.429129],[-99.506833,28.429195],[-99.50682,28.429387],[-99.507374,28.429872],[-99.507598,28.429278],[-99.508003,28.429426],[-99.509029,28.431177],[-99.509353,28.431122],[-99.509303,28.430665],[-99.510056,28.430588],[-99.510025,28.431551],[-99.510579,28.431029],[-99.511674,28.431827],[-99.512552,28.432069],[-99.511998,28.432537],[-99.511723,28.433582],[-99.511873,28.433852],[-99.51252,28.433984],[-99.511971,28.435475],[-99.51232,28.435932],[-99.51212,28.43728],[-99.512736,28.437484],[-99.512512,28.438045],[-99.512941,28.43881],[-99.514734,28.439273],[-99.513968,28.439729],[-99.513999,28.439982],[-99.515101,28.440098],[-99.515044,28.440528],[-99.51566,28.44099],[-99.515934,28.441606],[-99.516345,28.441441],[-99.516277,28.440605],[-99.51665,28.440666],[-99.517011,28.441073],[-99.518157,28.441161],[-99.518169,28.442289],[-99.518791,28.442433],[-99.518698,28.442961],[-99.519339,28.442774],[-99.51947,28.442912],[-99.519289,28.443478],[-99.519619,28.443302],[-99.519905,28.443418],[-99.519301,28.444205],[-99.519693,28.444315],[-99.520154,28.444056],[-99.520733,28.444508],[-99.520328,28.44514],[-99.520508,28.445366],[-99.521056,28.445328],[-99.521081,28.445691],[-99.522364,28.445592],[-99.522357,28.445988],[-99.521884,28.446324],[-99.522749,28.446412],[-99.52293,28.44705],[-99.523434,28.446682],[-99.523683,28.446765],[-99.523097,28.447892],[-99.524062,28.447909],[-99.524492,28.448333],[-99.524572,28.448762],[-99.524734,28.448597],[-99.525201,28.448762],[-99.524672,28.449235],[-99.524921,28.449698],[-99.525313,28.449681],[-99.525407,28.449137],[-99.526042,28.44923],[-99.526309,28.449792],[-99.527399,28.449913],[-99.527511,28.450144],[-99.52715,28.450331],[-99.527156,28.450551],[-99.527498,28.450744],[-99.528681,28.449869],[-99.529945,28.449523],[-99.530144,28.449754],[-99.529609,28.450035],[-99.530051,28.45064],[-99.531694,28.450387],[-99.531819,28.450717],[-99.532348,28.450866],[-99.532285,28.451609],[-99.532877,28.452027],[-99.532528,28.452264],[-99.53264,28.452473],[-99.533611,28.452236],[-99.533649,28.452919],[-99.534053,28.452935],[-99.534128,28.452297],[-99.534552,28.452083],[-99.534794,28.452314],[-99.534695,28.453023],[-99.53579,28.452776],[-99.535815,28.453068],[-99.535267,28.453233],[-99.535298,28.453546],[-99.534819,28.453409],[-99.534638,28.453568],[-99.535547,28.454366],[-99.535858,28.454443],[-99.535989,28.454229],[-99.535784,28.453656],[-99.536512,28.453459],[-99.536793,28.453805],[-99.536867,28.454988],[-99.537197,28.454856],[-99.537378,28.454218],[-99.537832,28.454284],[-99.537776,28.454928],[-99.538293,28.455082],[-99.538324,28.455852],[-99.537826,28.455874],[-99.537502,28.456204],[-99.537844,28.456821],[-99.537059,28.457371],[-99.537296,28.457542],[-99.537869,28.457459],[-99.537999,28.458455],[-99.53724,28.458603],[-99.537327,28.459335],[-99.535042,28.459995],[-99.535708,28.460276],[-99.535353,28.46049],[-99.535322,28.460848],[-99.536038,28.460749],[-99.536318,28.461189],[-99.536156,28.461927],[-99.536392,28.462923],[-99.535551,28.463055],[-99.53534,28.463539],[-99.535526,28.464045],[-99.536167,28.464469],[-99.535974,28.465157],[-99.536367,28.465575],[-99.535706,28.465608],[-99.535706,28.466114],[-99.535127,28.466158],[-99.535258,28.466466],[-99.535837,28.466686],[-99.535874,28.466939],[-99.535594,28.467193],[-99.535027,28.466868],[-99.534753,28.466967],[-99.534691,28.467374],[-99.535251,28.467545],[-99.53451,28.46782],[-99.534261,28.468188],[-99.534715,28.46909],[-99.537493,28.469966],[-99.537125,28.470335],[-99.537218,28.470582],[-99.538514,28.470775],[-99.538352,28.471144],[-99.537704,28.471204],[-99.537436,28.471584],[-99.537598,28.471843],[-99.538115,28.471969],[-99.539062,28.47121],[-99.540095,28.471672],[-99.540064,28.471953],[-99.53964,28.472256],[-99.538196,28.472547],[-99.538526,28.472916],[-99.53776,28.47318],[-99.538364,28.473515],[-99.537697,28.474077],[-99.538052,28.474511],[-99.538544,28.474401],[-99.538861,28.475865],[-99.539883,28.476041],[-99.53997,28.476625],[-99.540206,28.476531],[-99.540287,28.476096],[-99.540711,28.476118],[-99.541458,28.477115],[-99.542492,28.477863],[-99.54246,28.478562],[-99.543313,28.47958],[-99.544584,28.480521],[-99.544621,28.481126],[-99.545119,28.481357],[-99.5468,28.48155],[-99.547317,28.481831],[-99.548108,28.481022],[-99.549995,28.48149],[-99.550475,28.480995],[-99.551266,28.480841],[-99.55144,28.481242],[-99.550487,28.482106],[-99.550481,28.482436],[-99.551241,28.4828],[-99.55129,28.483366],[-99.551016,28.483476],[-99.550506,28.483124],[-99.550306,28.483553],[-99.549329,28.48368],[-99.54888,28.484423],[-99.54898,28.485099],[-99.549677,28.484654],[-99.549958,28.484868],[-99.550014,28.485611],[-99.550275,28.485606],[-99.550381,28.485133],[-99.550811,28.484852],[-99.551085,28.485501],[-99.55162,28.485545],[-99.553321,28.485144],[-99.554579,28.484577],[-99.555027,28.484968],[-99.555768,28.485094],[-99.555799,28.485865],[-99.556055,28.486123],[-99.556298,28.485799],[-99.556136,28.485408],[-99.556665,28.485017],[-99.55692,28.485304],[-99.556671,28.486096],[-99.557587,28.485656],[-99.558048,28.485903],[-99.557568,28.486509],[-99.557674,28.486806],[-99.560109,28.486998],[-99.560103,28.487433],[-99.560813,28.488275],[-99.561585,28.48789],[-99.56204,28.488445],[-99.562563,28.488231],[-99.563528,28.488489],[-99.564008,28.490118],[-99.564606,28.489964],[-99.565029,28.490613],[-99.564431,28.491477],[-99.564737,28.492374],[-99.565067,28.492391],[-99.56521,28.492071],[-99.566667,28.491455],[-99.567284,28.491488],[-99.567265,28.492011],[-99.566306,28.492044],[-99.566113,28.492567],[-99.566244,28.492715],[-99.566885,28.492457],[-99.567272,28.4926],[-99.566655,28.493276],[-99.567359,28.493816],[-99.567683,28.493766],[-99.567471,28.493078],[-99.56848,28.493227],[-99.567751,28.494217],[-99.567926,28.494514],[-99.56843,28.494514],[-99.56929,28.493727],[-99.569383,28.494327],[-99.569931,28.494646],[-99.572124,28.493876],[-99.57241,28.494311],[-99.573326,28.493914],[-99.573762,28.494156],[-99.573961,28.494982],[-99.573818,28.495405],[-99.574329,28.495989],[-99.574565,28.49524],[-99.575992,28.495614],[-99.576751,28.495025],[-99.577007,28.495179],[-99.577032,28.496236],[-99.577424,28.496247],[-99.577493,28.495642],[-99.57781,28.495658],[-99.578284,28.496082],[-99.578253,28.496736],[-99.578695,28.497138],[-99.579038,28.496973],[-99.57867,28.496362],[-99.580221,28.496081],[-99.580352,28.496263],[-99.57986,28.496731],[-99.580115,28.497033],[-99.581211,28.496527],[-99.581006,28.497176],[-99.581442,28.497242],[-99.581785,28.498249],[-99.58265,28.497693],[-99.583086,28.497787],[-99.582844,28.498276],[-99.582258,28.498612],[-99.582345,28.498948],[-99.583298,28.498348],[-99.583716,28.498623],[-99.583728,28.49919],[-99.582894,28.499267],[-99.582682,28.49963],[-99.581804,28.499647],[-99.581622,28.500127],[-99.581952,28.500523],[-99.582425,28.500594],[-99.583292,28.499613],[-99.583741,28.499619],[-99.583516,28.500781],[-99.583696,28.501243],[-99.583173,28.501865],[-99.583453,28.501997],[-99.583584,28.502658],[-99.584282,28.502834],[-99.584662,28.50334],[-99.584955,28.503362],[-99.585092,28.502927],[-99.585709,28.502916],[-99.58602,28.50203],[-99.5864,28.501782],[-99.586742,28.501881],[-99.587166,28.502652],[-99.587708,28.502849],[-99.589365,28.502877],[-99.589645,28.502101],[-99.590093,28.501804],[-99.590953,28.502607],[-99.591377,28.502618],[-99.591732,28.502067],[-99.592529,28.502761],[-99.593351,28.502859],[-99.592797,28.502155],[-99.593407,28.501902],[-99.593513,28.501456],[-99.594142,28.501032],[-99.594279,28.501285],[-99.593644,28.502221],[-99.594528,28.502276],[-99.595251,28.50265],[-99.595562,28.502474],[-99.594915,28.501957],[-99.595182,28.501346],[-99.59545,28.50128],[-99.595967,28.501912],[-99.59664,28.501186],[-99.597182,28.501863],[-99.597194,28.502341],[-99.597711,28.502418],[-99.598073,28.502803],[-99.598428,28.502748],[-99.598415,28.502302],[-99.597381,28.501395],[-99.597306,28.501032],[-99.597642,28.500916],[-99.598515,28.501593],[-99.598589,28.50091],[-99.598988,28.500806],[-99.600607,28.501031],[-99.600259,28.502021],[-99.600726,28.502439],[-99.60181,28.501927],[-99.602408,28.502356],[-99.602732,28.502301],[-99.603498,28.501657],[-99.604283,28.502031],[-99.604843,28.501321],[-99.605105,28.501789],[-99.605385,28.5018],[-99.605553,28.501205],[-99.605927,28.50104],[-99.606369,28.501205],[-99.606295,28.50192],[-99.60764,28.50214],[-99.607871,28.501854],[-99.607372,28.501452],[-99.608013,28.500489],[-99.608387,28.501045],[-99.608443,28.500319],[-99.608829,28.500252],[-99.609085,28.500957],[-99.609452,28.501177],[-99.609795,28.50105],[-99.609601,28.500219],[-99.610188,28.499133],[-99.610562,28.499314],[-99.610343,28.50018],[-99.611023,28.499826],[-99.611652,28.499952],[-99.611321,28.501242],[-99.61205,28.501704],[-99.612984,28.501852],[-99.613233,28.50167],[-99.612934,28.501098],[-99.612367,28.500873],[-99.612548,28.500526],[-99.612971,28.500642],[-99.613457,28.500443],[-99.614348,28.500878],[-99.614778,28.500795],[-99.614822,28.499786],[-99.615551,28.499335],[-99.616049,28.499631],[-99.615288,28.500332],[-99.615425,28.500652],[-99.616123,28.500442],[-99.616547,28.500838],[-99.616977,28.500844],[-99.617313,28.50059],[-99.617276,28.499961],[-99.617849,28.499911],[-99.61816,28.500706],[-99.61722,28.501625],[-99.618316,28.502202],[-99.619338,28.502081],[-99.618965,28.503022],[-99.620266,28.50268],[-99.621612,28.502663],[-99.622116,28.50241],[-99.622808,28.503708],[-99.623394,28.50379],[-99.623456,28.50313],[-99.624072,28.502777],[-99.624259,28.503019],[-99.624035,28.50363],[-99.624714,28.503812],[-99.625248,28.50367],[-99.62637,28.50263],[-99.626626,28.501563],[-99.6269,28.501403],[-99.629011,28.501195],[-99.62931,28.50152],[-99.628874,28.502197],[-99.62916,28.502758],[-99.629658,28.502665],[-99.630425,28.501917],[-99.630774,28.501851],[-99.631558,28.502236],[-99.632219,28.502082],[-99.631397,28.501251],[-99.631279,28.500756],[-99.632587,28.501191],[-99.633004,28.501109],[-99.632402,28.5],[-99.632602,28.499104],[-99.63287,28.499082],[-99.632944,28.499742],[-99.634506,28.500168],[-99.634788,28.499792],[-99.633854,28.499044],[-99.633867,28.498653],[-99.634371,28.498692],[-99.634944,28.499215],[-99.635013,28.498433],[-99.635953,28.498879],[-99.636171,28.498637],[-99.635997,28.497746],[-99.63639,28.497476],[-99.636676,28.497592],[-99.636483,28.498329],[-99.637162,28.49834],[-99.637729,28.497829],[-99.638214,28.497912],[-99.638264,28.498368],[-99.637572,28.499089],[-99.637765,28.499529],[-99.638862,28.499034],[-99.639727,28.499365],[-99.639429,28.498501],[-99.640687,28.498347],[-99.642574,28.49941],[-99.643315,28.499564],[-99.643309,28.499861],[-99.643886,28.500111],[-99.643954,28.500585],[-99.645233,28.49973],[-99.646199,28.499746],[-99.646515,28.500195],[-99.646353,28.500563],[-99.645661,28.501025],[-99.646047,28.50146],[-99.646801,28.501521],[-99.648632,28.500492],[-99.649791,28.50074],[-99.653721,28.500103],[-99.65414,28.499138],[-99.654464,28.498929],[-99.654932,28.498802],[-99.656215,28.498989],[-99.656339,28.498368],[-99.657068,28.497614],[-99.658376,28.498005],[-99.659877,28.498066],[-99.661167,28.49767],[-99.661553,28.497235],[-99.662493,28.497351],[-99.662444,28.496707],[-99.663005,28.496108],[-99.664611,28.496014],[-99.66681,28.495277],[-99.668218,28.495272],[-99.668965,28.49459],[-99.669956,28.494282],[-99.670354,28.493456],[-99.6699,28.492658],[-99.670311,28.492427],[-99.67236,28.492813],[-99.673114,28.492488],[-99.674577,28.492329],[-99.674976,28.492631],[-99.675293,28.494123],[-99.675717,28.494216],[-99.676159,28.493831],[-99.676601,28.494051],[-99.676745,28.494711],[-99.67814,28.494833],[-99.678327,28.494612],[-99.678682,28.494673],[-99.679024,28.494976],[-99.679155,28.496126],[-99.679491,28.496219],[-99.68032,28.495867],[-99.680749,28.496087],[-99.68045,28.497281],[-99.681023,28.497375],[-99.681235,28.497727],[-99.681042,28.497925],[-99.680407,28.497782],[-99.680182,28.497919],[-99.680494,28.498745],[-99.680214,28.499317],[-99.680294,28.499708],[-99.681314,28.499997],[-99.684709,28.501714],[-99.685618,28.502671],[-99.686758,28.504663],[-99.689599,28.504812],[-99.69062,28.506286],[-99.690957,28.507712],[-99.691717,28.508223],[-99.692695,28.510413],[-99.693156,28.51082],[-99.693741,28.510848],[-99.69594,28.509945],[-99.698064,28.508041],[-99.700282,28.50759],[-99.70149,28.508151],[-99.703527,28.506731],[-99.705009,28.507336],[-99.706025,28.506786],[-99.708765,28.507],[-99.711363,28.506675],[-99.711755,28.505426],[-99.712141,28.505019],[-99.712509,28.505195],[-99.712422,28.506757],[-99.712895,28.50706],[-99.713456,28.507076],[-99.713842,28.506548],[-99.713044,28.505602],[-99.713368,28.505046],[-99.71401,28.504881],[-99.714726,28.505772],[-99.715635,28.504413],[-99.716464,28.504451],[-99.717075,28.505832],[-99.716926,28.507021],[-99.717586,28.508583],[-99.7173,28.509518],[-99.718589,28.509458],[-99.718247,28.509909],[-99.716982,28.510278],[-99.716883,28.510696],[-99.717817,28.510872],[-99.719094,28.510404],[-99.719244,28.510008],[-99.720122,28.510024],[-99.720589,28.510332],[-99.720539,28.510778],[-99.719325,28.510767],[-99.719182,28.510976],[-99.720546,28.511884],[-99.721287,28.512131],[-99.721967,28.513545],[-99.722497,28.513837],[-99.723163,28.512835],[-99.72358,28.512851],[-99.723755,28.514051],[-99.724951,28.514777],[-99.724067,28.51596],[-99.724304,28.516147],[-99.725637,28.51618],[-99.725818,28.516372],[-99.724859,28.518122],[-99.725102,28.519333],[-99.725495,28.519993],[-99.728405,28.522418],[-99.729614,28.522699],[-99.73081,28.523414],[-99.7322,28.523727],[-99.732605,28.524348],[-99.734138,28.524573],[-99.733995,28.524788],[-99.733253,28.524783],[-99.732867,28.525608],[-99.733067,28.525768],[-99.734132,28.525685],[-99.733229,28.527226],[-99.73432,28.527198],[-99.73508,28.527759],[-99.735778,28.52777],[-99.737236,28.528732],[-99.737367,28.529266],[-99.738595,28.529139],[-99.739062,28.53003],[-99.739677,28.530438],[-99.739632,28.531531],[-99.74044,28.532378],[-99.741838,28.533204],[-99.742659,28.532867],[-99.743392,28.533067],[-99.744002,28.53412],[-99.745714,28.535227],[-99.746692,28.536726],[-99.747077,28.537996],[-99.747615,28.538648],[-99.748544,28.539319],[-99.749884,28.53961],[-99.749866,28.540111],[-99.749436,28.540771],[-99.750321,28.54124],[-99.75012,28.542875],[-99.750444,28.543117],[-99.750986,28.543073],[-99.75141,28.542209],[-99.751672,28.542121],[-99.752967,28.54358],[-99.752948,28.544284],[-99.753621,28.544736],[-99.752736,28.546039],[-99.752729,28.547046],[-99.753246,28.547558],[-99.753919,28.547603],[-99.754218,28.548043],[-99.753519,28.548719],[-99.753264,28.548505],[-99.75327,28.54802],[-99.752367,28.548378],[-99.752217,28.548801],[-99.752528,28.549599],[-99.75249,28.550441],[-99.756427,28.553331],[-99.758022,28.553937],[-99.758632,28.555506],[-99.759753,28.557388],[-99.761167,28.558555],[-99.761615,28.559259],[-99.762743,28.560041],[-99.763345,28.565103],[-99.765021,28.567448],[-99.766497,28.568186],[-99.766884,28.568796],[-99.766944,28.572477],[-99.76786,28.573908],[-99.768202,28.575537],[-99.7689,28.576803],[-99.769043,28.578178],[-99.769086,28.579708],[-99.768823,28.580847],[-99.768063,28.581501],[-99.768854,28.583334],[-99.768323,28.586002],[-99.769207,28.587741],[-99.768814,28.588027],[-99.767586,28.587774],[-99.76743,28.588131],[-99.768172,28.588665],[-99.768502,28.589436],[-99.76925,28.589948],[-99.769562,28.589348],[-99.770416,28.589502],[-99.771164,28.588963],[-99.771407,28.588996],[-99.771868,28.589481],[-99.771563,28.59029],[-99.772491,28.590779],[-99.772342,28.591082],[-99.771406,28.591616],[-99.770415,28.592782],[-99.769286,28.593343],[-99.769541,28.593733],[-99.769429,28.593937],[-99.768475,28.593617],[-99.768132,28.593969],[-99.768575,28.594652],[-99.7685,28.595191],[-99.769541,28.595538],[-99.769846,28.595863],[-99.769796,28.596325],[-99.76931,28.596561],[-99.769123,28.59709],[-99.769291,28.597739],[-99.769988,28.598718],[-99.769128,28.598823],[-99.768835,28.599081],[-99.770686,28.60021],[-99.770427,28.601],[-99.771834,28.601305],[-99.772635,28.60106],[-99.775814,28.602963],[-99.779531,28.60723],[-99.779774,28.608471],[-99.781885,28.60934],[-99.78258,28.610718],[-99.782516,28.611702],[-99.783293,28.612338],[-99.782701,28.613583],[-99.782961,28.61504],[-99.783623,28.615679],[-99.783597,28.616394],[-99.784806,28.61639],[-99.784756,28.617208],[-99.785813,28.617336],[-99.786132,28.61772],[-99.785942,28.618301],[-99.786941,28.618431],[-99.78642,28.619954],[-99.787447,28.619765],[-99.78765,28.620102],[-99.787098,28.620644],[-99.78806,28.621222],[-99.788128,28.621462],[-99.787726,28.622921],[-99.787787,28.623366],[-99.788119,28.623609],[-99.787355,28.623889],[-99.786905,28.624945],[-99.786433,28.625086],[-99.785833,28.624076],[-99.78557,28.624061],[-99.784914,28.624924],[-99.784034,28.625188],[-99.784467,28.626037],[-99.784466,28.627077],[-99.784772,28.627814],[-99.784608,28.62856],[-99.784863,28.629433],[-99.784746,28.629944],[-99.783378,28.629593],[-99.782696,28.629052],[-99.781294,28.629817],[-99.779882,28.630149],[-99.779621,28.629984],[-99.779976,28.629314],[-99.778878,28.628887],[-99.778237,28.629267],[-99.7769,28.629597],[-99.776744,28.630093],[-99.775851,28.630682],[-99.775166,28.630282],[-99.773761,28.630556],[-99.77321,28.631041],[-99.773488,28.632004],[-99.77305,28.632494],[-99.773801,28.63438],[-99.774073,28.634578],[-99.775319,28.634542],[-99.775496,28.63551],[-99.776035,28.635895],[-99.776183,28.637118],[-99.777367,28.639443],[-99.780093,28.642506],[-99.780854,28.643827],[-99.749471,28.643862]]]}},{"type":"Feature","properties":{"PRECINCT":"4","VTD":"0004"},"geometry":{"type":"Polygon","coordinates":[[[-99.535214,28.467627],[-99.53466,28.467308],[-99.534903,28.466884],[-99.535532,28.467193],[-99.535874,28.466939],[-99.535837,28.466686],[-99.535258,28.466466],[-99.535127,28.466158],[-99.535706,28.466114],[-99.535706,28.465608],[-99.536367,28.465575],[-99.535974,28.465157],[-99.536167,28.464469],[-99.535526,28.464045],[-99.535371,28.463269],[-99.536398,28.46284],[-99.536156,28.461927],[-99.536287,28.461063],[-99.536038,28.460749],[-99.535322,28.460848],[-99.535353,28.46049],[-99.535708,28.460276],[-99.535042,28.459995],[-99.537327,28.459335],[-99.53724,28.458603],[-99.537999,28.458455],[-99.537869,28.457459],[-99.537296,28.457542],[-99.537059,28.457371],[-99.537844,28.456821],[-99.537502,28.456204],[-99.537826,28.455874],[-99.538324,28.455852],[-99.538293,28.455082],[-99.537776,28.454928],[-99.537832,28.454284],[-99.537378,28.454218],[-99.537197,28.454856],[-99.536867,28.454988],[-99.536793,28.453805],[-99.536512,28.453459],[-99.535784,28.453656],[-99.535989,28.454229],[-99.535858,28.454443],[-99.535547,28.454366],[-99.534638,28.453568],[-99.534819,28.453409],[-99.535298,28.453546],[-99.535267,28.453233],[-99.535815,28.453068],[-99.53579,28.452776],[-99.534695,28.453023],[-99.534794,28.452314],[-99.534552,28.452083],[-99.534128,28.452297],[-99.534053,28.452935],[-99.533649,28.452919],[-99.533611,28.452236],[-99.53264,28.452473],[-99.532528,28.452264],[-99.532877,28.452027],[-99.532285,28.451609],[-99.532348,28.450866],[-99.531819,28.450717],[-99.531694,28.450387],[-99.530051,28.45064],[-99.529609,28.450035],[-99.530144,28.449754],[-99.529945,28.449523],[-99.528681,28.449869],[-99.527498,28.450744],[-99.527156,28.450551],[-99.52715,28.450331],[-99.527511,28.450144],[-99.527399,28.449913],[-99.526309,28.449792],[-99.526042,28.44923],[-99.525407,28.449137],[-99.525313,28.449681],[-99.524921,28.449698],[-99.524672,28.449235],[-99.525201,28.448762],[-99.524734,28.448597],[-99.524572,28.448762],[-99.524492,28.448333],[-99.524062,28.447909],[-99.523097,28.447892],[-99.523683,28.446765],[-99.523434,28.446682],[-99.52293,28.44705],[-99.522749,28.446412],[-99.521884,28.446324],[-99.522357,28.445988],[-99.522364,28.445592],[-99.521081,28.445691],[-99.521056,28.445328],[-99.520508,28.445366],[-99.520328,28.44514],[-99.520733,28.444508],[-99.520154,28.444056],[-99.519693,28.444315],[-99.519301,28.444205],[-99.519905,28.443418],[-99.519619,28.443302],[-99.519289,28.443478],[-99.51947,28.442912],[-99.519339,28.442774],[-99.518698,28.442961],[-99.518791,28.442433],[-99.518169,28.442289],[-99.518157,28.441161],[-99.517011,28.441073],[-99.51665,28.440666],[-99.516277,28.440605],[-99.516345,28.441441],[-99.515934,28.441606],[-99.51566,28.44099],[-99.515044,28.440528],[-99.515101,28.440098],[-99.513999,28.439982],[-99.513968,28.439729],[-99.514734,28.439273],[-99.512941,28.43881],[-99.512512,28.438045],[-99.512736,28.437484],[-99.51212,28.43728],[-99.51232,28.435932],[-99.511971,28.435475],[-99.51252,28.433984],[-99.511873,28.433852],[-99.511723,28.433582],[-99.511998,28.432537],[-99.512552,28.432069],[-99.511674,28.431827],[-99.510579,28.431029],[-99.510025,28.431551],[-99.510056,28.430588],[-99.509303,28.430665],[-99.509353,28.431122],[-99.509029,28.431177],[-99.508003,28.429426],[-99.507598,28.429278],[-99.507374,28.429872],[-99.50682,28.429387],[-99.506833,28.429195],[-99.507412,28.429129],[-99.507499,28.428584],[-99.506982,28.428535],[-99.506547,28.429019],[-99.506086,28.429051],[-99.506553,28.428056],[-99.506205,28.427945],[-99.5058,28.428264],[-99.505532,28.428198],[-99.505663,28.427522],[-99.505371,28.427279],[-99.504873,28.427664],[-99.50468,28.427158],[-99.504973,28.426949],[-99.504463,28.42647],[-99.504867,28.425953],[-99.504433,28.424032],[-99.504925,28.423631],[-99.504103,28.423267],[-99.504558,28.422723],[-99.504434,28.421859],[-99.503656,28.421831],[-99.50388,28.421259],[-99.503644,28.4204],[-99.503065,28.420576],[-99.502599,28.420306],[-99.502524,28.419938],[-99.503072,28.41991],[-99.502494,28.418733],[-99.502077,28.418688],[-99.501965,28.418292],[-99.500851,28.418457],[-99.500813,28.41866],[-99.501491,28.419189],[-99.500863,28.419134],[-99.500334,28.418748],[-99.500577,28.418259],[-99.500447,28.417692],[-99.500129,28.417714],[-99.499634,28.417289],[-99.498825,28.417289],[-99.498258,28.416833],[-99.497642,28.416861],[-99.496142,28.416427],[-99.496278,28.415893],[-99.495936,28.41542],[-99.494679,28.415564],[-99.494654,28.415795],[-99.494971,28.41591],[-99.494661,28.416402],[-99.49504,28.416807],[-99.494262,28.417022],[-99.493914,28.416642],[-99.492725,28.416357],[-99.492052,28.41557],[-99.491193,28.415802],[-99.491125,28.415339],[-99.490284,28.414938],[-99.488635,28.415247],[-99.488573,28.415489],[-99.48904,28.41578],[-99.488841,28.41616],[-99.488218,28.415896],[-99.487789,28.415269],[-99.487322,28.415665],[-99.487073,28.415379],[-99.486544,28.415517],[-99.486444,28.415187],[-99.485909,28.41483],[-99.486444,28.41434],[-99.486419,28.414037],[-99.485896,28.414037],[-99.485641,28.414725],[-99.48523,28.414775],[-99.484788,28.414511],[-99.485411,28.414164],[-99.485317,28.413999],[-99.483967,28.413895],[-99.483232,28.414104],[-99.482896,28.413389],[-99.482124,28.413692],[-99.482392,28.414099],[-99.481751,28.41411],[-99.481689,28.414754],[-99.481403,28.415068],[-99.481135,28.414991],[-99.480836,28.414237],[-99.480195,28.414633],[-99.479591,28.41405],[-99.479075,28.413968],[-99.47895,28.413621],[-99.478471,28.413605],[-99.478477,28.413913],[-99.478172,28.413952],[-99.477892,28.413027],[-99.476691,28.413308],[-99.476311,28.414194],[-99.475434,28.413419],[-99.474407,28.414035],[-99.474239,28.41376],[-99.473187,28.41332],[-99.473797,28.412962],[-99.473697,28.41266],[-99.473118,28.412677],[-99.47277,28.413029],[-99.47188,28.412545],[-99.472209,28.412039],[-99.471674,28.411978],[-99.471357,28.412523],[-99.471232,28.411846],[-99.470087,28.411434],[-99.469981,28.411192],[-99.470242,28.410927],[-99.471244,28.411257],[-99.471412,28.411037],[-99.471213,28.410702],[-99.471375,28.410129],[-99.470497,28.409986],[-99.470721,28.409486],[-99.470578,28.409062],[-99.468891,28.408661],[-99.468045,28.408947],[-99.467572,28.408826],[-99.467329,28.409354],[-99.466644,28.408639],[-99.466196,28.408518],[-99.466476,28.407984],[-99.465966,28.407676],[-99.465735,28.407765],[-99.465698,28.408194],[-99.465325,28.408249],[-99.465157,28.407924],[-99.464671,28.40832],[-99.463862,28.408491],[-99.463881,28.409267],[-99.463489,28.409245],[-99.463501,28.408855],[-99.463116,28.408756],[-99.462848,28.409256],[-99.462406,28.408998],[-99.462138,28.408073],[-99.46169,28.40798],[-99.46113,28.408294],[-99.46128,28.408783],[-99.460583,28.408585],[-99.459936,28.40924],[-99.459699,28.408844],[-99.459002,28.408954],[-99.458797,28.40918],[-99.457466,28.409076],[-99.456344,28.409407],[-99.456132,28.409703],[-99.45561,28.409648],[-99.455192,28.409289],[-99.454971,28.409615],[-99.455109,28.410263],[-99.454403,28.409977],[-99.445913,28.415017],[-99.445509,28.414942],[-99.445272,28.413489],[-99.442996,28.414083],[-99.441712,28.413896],[-99.440945,28.413312],[-99.437602,28.413859],[-99.435414,28.41472],[-99.433011,28.416206],[-99.430531,28.416265],[-99.428444,28.417152],[-99.426626,28.417593],[-99.426056,28.418702],[-99.422661,28.420803],[-99.418538,28.421377],[-99.417531,28.421826],[-99.415748,28.42326],[-99.415215,28.423402],[-99.413022,28.423141],[-99.411952,28.422443],[-99.410973,28.422879],[-99.40956,28.422947],[-99.407553,28.422418],[-99.405514,28.420983],[-99.405213,28.420985],[-99.39802,28.423441],[-99.398087,28.423692],[-99.397695,28.423962],[-99.3979,28.42411],[-99.397831,28.424457],[-99.396848,28.424946],[-99.396356,28.425612],[-99.396474,28.425854],[-99.395926,28.426299],[-99.395279,28.364255],[-99.39463,28.349818],[-99.394414,28.349792],[-99.395672,28.252278],[-99.394177,28.204627],[-99.480872,28.203838],[-99.499908,28.203236],[-99.61401,28.202092],[-99.872612,28.199836],[-99.874736,28.199818],[-99.875329,28.200068],[-100.008147,28.198707],[-100.008511,28.262672],[-100.008516,28.297179],[-100.008365,28.313333],[-100.008185,28.313645],[-99.962003,28.314179],[-99.959965,28.31381],[-99.827314,28.31192],[-99.806057,28.317466],[-99.806038,28.317631],[-99.805456,28.317673],[-99.789558,28.327767],[-99.788962,28.328686],[-99.786753,28.329581],[-99.783831,28.331714],[-99.783108,28.331934],[-99.782544,28.332459],[-99.780895,28.333307],[-99.779591,28.334236],[-99.778972,28.335999],[-99.778551,28.336396],[-99.776245,28.336231],[-99.757463,28.348155],[-99.756725,28.34882],[-99.752214,28.351399],[-99.74656,28.355115],[-99.745803,28.355514],[-99.744381,28.355251],[-99.743689,28.35538],[-99.742182,28.357206],[-99.741907,28.358044],[-99.731553,28.364913],[-99.712092,28.376949],[-99.706581,28.380606],[-99.705007,28.381389],[-99.704692,28.381784],[-99.701656,28.383586],[-99.698703,28.385689],[-99.679992,28.397554],[-99.679798,28.397422],[-99.679011,28.398423],[-99.677421,28.399743],[-99.667611,28.409523],[-99.666749,28.409752],[-99.65942,28.408745],[-99.656871,28.409827],[-99.65564,28.40975],[-99.651773,28.412146],[-99.610245,28.4317],[-99.534715,28.46909],[-99.534267,28.468078],[-99.535214,28.467627]]]}},{"type":"Feature","properties":{"PRECINCT":"5","VTD":"0005"},"geometry":{"type":"Polygon","coordinates":[[[-99.752217,28.548801],[-99.752367,28.548378],[-99.752946,28.548015],[-99.753364,28.548109],[-99.753264,28.548505],[-99.753476,28.548719],[-99.754174,28.548202],[-99.754049,28.547696],[-99.753246,28.547558],[-99.752729,28.547046],[-99.752736,28.546039],[-99.753621,28.54467],[-99.752948,28.544284],[-99.752967,28.54358],[-99.751741,28.542149],[-99.75141,28.542209],[-99.750986,28.543073],[-99.750444,28.543117],[-99.75012,28.542875],[-99.750321,28.54124],[-99.749436,28.540771],[-99.749866,28.540111],[-99.749884,28.53961],[-99.748544,28.539319],[-99.747615,28.538648],[-99.747077,28.537996],[-99.746692,28.536726],[-99.745714,28.535227],[-99.744002,28.53412],[-99.743392,28.533067],[-99.742659,28.532867],[-99.741838,28.533204],[-99.74044,28.532378],[-99.739632,28.531531],[-99.739677,28.530438],[-99.739062,28.53003],[-99.738595,28.529139],[-99.737367,28.529266],[-99.737236,28.528732],[-99.735778,28.52777],[-99.73508,28.527759],[-99.73432,28.527198],[-99.733229,28.527226],[-99.734132,28.525685],[-99.733067,28.525768],[-99.732867,28.525608],[-99.733253,28.524783],[-99.733995,28.524788],[-99.734138,28.524573],[-99.732605,28.524348],[-99.7322,28.523727],[-99.73081,28.523414],[-99.729614,28.522699],[-99.728405,28.522418],[-99.725495,28.519993],[-99.725102,28.519333],[-99.724859,28.518122],[-99.725818,28.516372],[-99.725637,28.51618],[-99.724304,28.516147],[-99.724067,28.51596],[-99.724951,28.514777],[-99.723755,28.514051],[-99.72358,28.512851],[-99.723163,28.512835],[-99.722497,28.513837],[-99.721967,28.513545],[-99.721287,28.512131],[-99.720546,28.511884],[-99.719182,28.510976],[-99.719325,28.510767],[-99.720539,28.510778],[-99.720589,28.510332],[-99.720122,28.510024],[-99.719244,28.510008],[-99.719094,28.510404],[-99.717817,28.510872],[-99.716883,28.510696],[-99.716982,28.510278],[-99.718247,28.509909],[-99.718589,28.509458],[-99.7173,28.509518],[-99.717586,28.508583],[-99.716926,28.507021],[-99.717075,28.505832],[-99.716464,28.504451],[-99.715635,28.504413],[-99.714726,28.505772],[-99.71401,28.504881],[-99.713368,28.505046],[-99.713044,28.505602],[-99.713842,28.506548],[-99.713456,28.507076],[-99.712895,28.50706],[-99.712422,28.506757],[-99.712509,28.505195],[-99.712141,28.505019],[-99.711755,28.505426],[-99.711363,28.506675],[-99.708765,28.507],[-99.706025,28.506786],[-99.705009,28.507336],[-99.703527,28.506731],[-99.70149,28.508151],[-99.700282,28.50759],[-99.698064,28.508041],[-99.69594,28.509945],[-99.693741,28.510848],[-99.693156,28.51082],[-99.692695,28.510413],[-99.691717,28.508223],[-99.690957,28.507712],[-99.69062,28.506286],[-99.689599,28.504812],[-99.686758,28.504663],[-99.685618,28.502671],[-99.684709,28.501714],[-99.681314,28.499997],[-99.680294,28.499708],[-99.680214,28.499317],[-99.680494,28.498745],[-99.680182,28.497919],[-99.680407,28.497782],[-99.681042,28.497925],[-99.681235,28.497727],[-99.681023,28.497375],[-99.68045,28.497281],[-99.680749,28.496087],[-99.68032,28.495867],[-99.679491,28.496219],[-99.679155,28.496126],[-99.679024,28.494976],[-99.678682,28.494673],[-99.678327,28.494612],[-99.67814,28.494833],[-99.676745,28.494711],[-99.676601,28.494051],[-99.676159,28.493831],[-99.675717,28.494216],[-99.675293,28.494123],[-99.674976,28.492631],[-99.674577,28.492329],[-99.673114,28.492488],[-99.67236,28.492813],[-99.670311,28.492427],[-99.6699,28.492658],[-99.670354,28.493456],[-99.669956,28.494282],[-99.668965,28.49459],[-99.668218,28.495272],[-99.66681,28.495277],[-99.664611,28.496014],[-99.663005,28.496108],[-99.662444,28.496707],[-99.662493,28.497351],[-99.661553,28.497235],[-99.661167,28.49767],[-99.659877,28.498066],[-99.658376,28.498005],[-99.657068,28.497614],[-99.656339,28.498368],[-99.656215,28.498989],[-99.654932,28.498802],[-99.654464,28.498929],[-99.65414,28.499138],[-99.653721,28.500103],[-99.649791,28.50074],[-99.648632,28.500492],[-99.646801,28.501521],[-99.646047,28.50146],[-99.645661,28.501025],[-99.646353,28.500563],[-99.646515,28.500195],[-99.646199,28.499746],[-99.645233,28.49973],[-99.643954,28.500585],[-99.643886,28.500111],[-99.643309,28.499861],[-99.643315,28.499564],[-99.642574,28.49941],[-99.640687,28.498347],[-99.639429,28.498501],[-99.639727,28.499365],[-99.638862,28.499034],[-99.637765,28.499529],[-99.637572,28.499089],[-99.638264,28.498368],[-99.638214,28.497912],[-99.637729,28.497829],[-99.637162,28.49834],[-99.636483,28.498329],[-99.636676,28.497592],[-99.63639,28.497476],[-99.635997,28.497746],[-99.636171,28.498637],[-99.635953,28.498879],[-99.635013,28.498433],[-99.634944,28.499215],[-99.634371,28.498692],[-99.633867,28.498653],[-99.633854,28.499044],[-99.634788,28.499792],[-99.634506,28.500168],[-99.632944,28.499742],[-99.63287,28.499082],[-99.632602,28.499104],[-99.632402,28.5],[-99.633004,28.501109],[-99.632587,28.501191],[-99.631279,28.500756],[-99.631397,28.501251],[-99.632219,28.502082],[-99.631558,28.502236],[-99.630774,28.501851],[-99.630425,28.501917],[-99.629658,28.502665],[-99.62916,28.502758],[-99.628874,28.502197],[-99.62931,28.50152],[-99.629011,28.501195],[-99.6269,28.501403],[-99.626626,28.501563],[-99.62637,28.50263],[-99.625248,28.50367],[-99.624714,28.503812],[-99.624035,28.50363],[-99.624259,28.503019],[-99.624072,28.502777],[-99.623456,28.50313],[-99.623394,28.50379],[-99.622808,28.503708],[-99.622116,28.50241],[-99.621612,28.502663],[-99.620266,28.50268],[-99.618965,28.503022],[-99.619338,28.502081],[-99.618316,28.502202],[-99.61722,28.501625],[-99.61816,28.500706],[-99.617849,28.499911],[-99.617276,28.499961],[-99.617313,28.50059],[-99.616977,28.500844],[-99.616547,28.500838],[-99.616123,28.500442],[-99.615425,28.500652],[-99.615288,28.500332],[-99.616049,28.499631],[-99.615551,28.499335],[-99.614822,28.499786],[-99.614778,28.500795],[-99.614348,28.500878],[-99.613457,28.500443],[-99.612971,28.500642],[-99.612548,28.500526],[-99.612367,28.500873],[-99.612934,28.501098],[-99.613233,28.50167],[-99.612984,28.501852],[-99.61205,28.501704],[-99.611321,28.501242],[-99.611652,28.499952],[-99.611023,28.499826],[-99.610343,28.50018],[-99.610562,28.499314],[-99.610188,28.499133],[-99.609601,28.500219],[-99.609795,28.50105],[-99.609452,28.501177],[-99.609085,28.500957],[-99.608829,28.500252],[-99.608443,28.500319],[-99.608387,28.501045],[-99.608013,28.500489],[-99.607372,28.501452],[-99.607871,28.501854],[-99.60764,28.50214],[-99.606295,28.50192],[-99.606369,28.501205],[-99.605927,28.50104],[-99.605553,28.501205],[-99.605385,28.5018],[-99.605105,28.501789],[-99.604843,28.501321],[-99.604283,28.502031],[-99.603498,28.501657],[-99.602732,28.502301],[-99.602408,28.502356],[-99.60181,28.501927],[-99.600726,28.502439],[-99.600259,28.502021],[-99.600607,28.501031],[-99.598988,28.500806],[-99.598589,28.50091],[-99.598515,28.501593],[-99.597642,28.500916],[-99.597306,28.501032],[-99.597381,28.501395],[-99.598415,28.502302],[-99.598428,28.502748],[-99.598073,28.502803],[-99.597711,28.502418],[-99.597194,28.502341],[-99.597182,28.501863],[-99.59664,28.501186],[-99.595967,28.501912],[-99.59545,28.50128],[-99.595182,28.501346],[-99.594915,28.501957],[-99.595562,28.502474],[-99.595251,28.50265],[-99.594528,28.502276],[-99.593644,28.502221],[-99.594279,28.501285],[-99.594142,28.501032],[-99.593513,28.501456],[-99.593407,28.501902],[-99.592797,28.502155],[-99.593351,28.502859],[-99.592529,28.502761],[-99.591732,28.502067],[-99.591377,28.502618],[-99.590953,28.502607],[-99.590093,28.501804],[-99.589645,28.502101],[-99.589365,28.502877],[-99.587708,28.502849],[-99.587166,28.502652],[-99.586742,28.501881],[-99.5864,28.501782],[-99.58602,28.50203],[-99.585709,28.502916],[-99.585092,28.502927],[-99.584874,28.503395],[-99.584494,28.503268],[-99.584282,28.502834],[-99.583584,28.502658],[-99.583453,28.501997],[-99.583173,28.501865],[-99.583696,28.501243],[-99.583516,28.500781],[-99.583741,28.499619],[-99.583292,28.499613],[-99.582425,28.500594],[-99.581684,28.500253],[-99.58176,28.499669],[-99.582682,28.49963],[-99.582894,28.499267],[-99.583535,28.499272],[-99.583815,28.498997],[-99.583716,28.498623],[-99.583298,28.498348],[-99.582345,28.498948],[-99.582258,28.498612],[-99.582844,28.498276],[-99.583086,28.497787],[-99.58265,28.497693],[-99.581785,28.498249],[-99.581442,28.497242],[-99.581006,28.497176],[-99.581261,28.496846],[-99.581149,28.496494],[-99.580321,28.497044],[-99.579866,28.496835],[-99.580352,28.496263],[-99.580221,28.496081],[-99.57867,28.496362],[-99.579038,28.496973],[-99.578695,28.497138],[-99.578253,28.496736],[-99.578284,28.496082],[-99.57781,28.495658],[-99.577493,28.495642],[-99.577424,28.496247],[-99.577032,28.496236],[-99.577007,28.495179],[-99.576751,28.495025],[-99.575992,28.495614],[-99.574565,28.49524],[-99.574329,28.495989],[-99.573818,28.495405],[-99.573961,28.494982],[-99.573762,28.494156],[-99.573326,28.493914],[-99.57241,28.494311],[-99.572124,28.493876],[-99.569931,28.494646],[-99.569383,28.494327],[-99.56929,28.493727],[-99.56843,28.494514],[-99.567926,28.494514],[-99.567751,28.494217],[-99.56848,28.493227],[-99.567471,28.493078],[-99.567683,28.493766],[-99.567359,28.493816],[-99.566655,28.493276],[-99.567272,28.4926],[-99.566885,28.492457],[-99.566244,28.492715],[-99.566113,28.492567],[-99.566306,28.492044],[-99.567265,28.492011],[-99.567284,28.491488],[-99.566499,28.491516],[-99.56478,28.492413],[-99.564431,28.491477],[-99.565029,28.490613],[-99.564606,28.489964],[-99.564008,28.490118],[-99.563528,28.488489],[-99.562563,28.488231],[-99.56204,28.488445],[-99.561585,28.48789],[-99.560813,28.488275],[-99.560103,28.487433],[-99.560109,28.486998],[-99.557674,28.486806],[-99.557568,28.486509],[-99.558048,28.485903],[-99.557587,28.485656],[-99.556671,28.486096],[-99.55692,28.485304],[-99.556665,28.485017],[-99.556136,28.485408],[-99.556298,28.485799],[-99.556055,28.486123],[-99.555799,28.485865],[-99.555768,28.485094],[-99.555027,28.484968],[-99.554579,28.484577],[-99.553321,28.485144],[-99.55162,28.485545],[-99.551085,28.485501],[-99.550811,28.484852],[-99.550381,28.485133],[-99.550232,28.485633],[-99.549964,28.485534],[-99.549958,28.484868],[-99.549677,28.484654],[-99.549216,28.485088],[-99.548936,28.485072],[-99.54888,28.484423],[-99.549329,28.48368],[-99.550306,28.483553],[-99.550506,28.483124],[-99.551016,28.483476],[-99.55129,28.483366],[-99.551241,28.4828],[-99.550481,28.482436],[-99.550487,28.482106],[-99.55144,28.481242],[-99.551266,28.480841],[-99.550475,28.480995],[-99.549995,28.48149],[-99.548108,28.481022],[-99.547317,28.481831],[-99.5468,28.48155],[-99.545368,28.481412],[-99.544621,28.481126],[-99.544584,28.480521],[-99.543313,28.47958],[-99.54246,28.478562],[-99.542492,28.477863],[-99.541458,28.477115],[-99.540648,28.476074],[-99.540287,28.476096],[-99.540206,28.476531],[-99.53997,28.476625],[-99.539883,28.476041],[-99.538861,28.475865],[-99.538544,28.474401],[-99.538052,28.474511],[-99.537697,28.474077],[-99.538339,28.473648],[-99.53776,28.47318],[-99.538526,28.472916],[-99.538196,28.472547],[-99.53964,28.472256],[-99.540064,28.471953],[-99.540095,28.471672],[-99.539062,28.47121],[-99.538476,28.47181],[-99.53776,28.471936],[-99.537467,28.471507],[-99.537804,28.471133],[-99.538352,28.471144],[-99.538426,28.470682],[-99.537218,28.470582],[-99.537125,28.470335],[-99.537493,28.469966],[-99.534715,28.46909],[-99.610245,28.4317],[-99.651773,28.412146],[-99.65564,28.40975],[-99.656871,28.409827],[-99.65942,28.408745],[-99.666749,28.409752],[-99.667611,28.409523],[-99.677421,28.399743],[-99.679011,28.398423],[-99.679798,28.397422],[-99.679992,28.397554],[-99.698703,28.385689],[-99.701656,28.383586],[-99.704692,28.381784],[-99.705007,28.381389],[-99.706581,28.380606],[-99.712092,28.376949],[-99.731553,28.364913],[-99.741907,28.358044],[-99.742182,28.357206],[-99.743689,28.35538],[-99.744381,28.355251],[-99.745803,28.355514],[-99.74656,28.355115],[-99.752214,28.351399],[-99.756725,28.34882],[-99.757463,28.348155],[-99.776245,28.336231],[-99.778551,28.336396],[-99.778972,28.335999],[-99.779591,28.334236],[-99.780895,28.333307],[-99.782544,28.332459],[-99.783108,28.331934],[-99.783831,28.331714],[-99.786753,28.329581],[-99.788962,28.328686],[-99.789558,28.327767],[-99.805456,28.317673],[-99.827314,28.31192],[-99.959965,28.31381],[-99.962003,28.314179],[-99.962109,28.326418],[-99.961289,28.32933],[-99.961632,28.358607],[-99.961433,28.358924],[-99.958999,28.359004],[-99.958933,28.393646],[-99.959416,28.394919],[-99.96037,28.396052],[-99.966831,28.403606],[-99.967544,28.403758],[-99.958496,28.409533],[-99.955105,28.411953],[-99.940636,28.42091],[-99.938257,28.422828],[-99.935408,28.424253],[-99.931544,28.426855],[-99.930987,28.427695],[-99.930734,28.428719],[-99.930836,28.437437],[-99.930362,28.438557],[-99.929204,28.439492],[-99.906436,28.447004],[-99.905196,28.447759],[-99.904335,28.448593],[-99.901851,28.452264],[-99.881681,28.458857],[-99.881454,28.458763],[-99.877419,28.44901],[-99.87687,28.448546],[-99.858203,28.454947],[-99.858356,28.456176],[-99.847925,28.462598],[-99.847577,28.462438],[-99.843283,28.457087],[-99.779719,28.49722],[-99.779702,28.497557],[-99.781755,28.500188],[-99.802026,28.525324],[-99.798424,28.527753],[-99.792752,28.536111],[-99.798485,28.547071],[-99.793935,28.548871],[-99.790955,28.549251],[-99.752498,28.54954],[-99.752217,28.548801]]]}},{"type":"Feature","properties":{"PRECINCT":"6","VTD":"0006"},"geometry":{"type":"Polygon","coordinates":[[[-99.845042,28.643959],[-99.780854,28.643827],[-99.780093,28.642506],[-99.777367,28.639443],[-99.776183,28.637118],[-99.776035,28.635895],[-99.775496,28.63551],[-99.775319,28.634542],[-99.774073,28.634578],[-99.773801,28.63438],[-99.77305,28.632494],[-99.773488,28.632004],[-99.77321,28.631041],[-99.773761,28.630556],[-99.775166,28.630282],[-99.775851,28.630682],[-99.776744,28.630093],[-99.7769,28.629597],[-99.778237,28.629267],[-99.778878,28.628887],[-99.779976,28.629314],[-99.779621,28.629984],[-99.779882,28.630149],[-99.781294,28.629817],[-99.782696,28.629052],[-99.783378,28.629593],[-99.784746,28.629944],[-99.784863,28.629433],[-99.784608,28.62856],[-99.784772,28.627814],[-99.784466,28.627077],[-99.784467,28.626037],[-99.784034,28.625188],[-99.784914,28.624924],[-99.78557,28.624061],[-99.785833,28.624076],[-99.786433,28.625086],[-99.786905,28.624945],[-99.787355,28.623889],[-99.788119,28.623609],[-99.787787,28.623366],[-99.787726,28.622921],[-99.788102,28.621845],[-99.78806,28.621222],[-99.787098,28.620644],[-99.78765,28.620102],[-99.787447,28.619765],[-99.78642,28.619954],[-99.786941,28.618431],[-99.785942,28.618301],[-99.786132,28.61772],[-99.785813,28.617336],[-99.784756,28.617208],[-99.784806,28.61639],[-99.783597,28.616394],[-99.783623,28.615679],[-99.782961,28.61504],[-99.782701,28.613583],[-99.783293,28.612338],[-99.782516,28.611702],[-99.78258,28.610718],[-99.781885,28.60934],[-99.779774,28.608471],[-99.779531,28.60723],[-99.775814,28.602963],[-99.772635,28.60106],[-99.771834,28.601305],[-99.770427,28.601],[-99.770686,28.60021],[-99.768835,28.599081],[-99.769128,28.598823],[-99.769988,28.598718],[-99.769291,28.597739],[-99.769123,28.59709],[-99.76931,28.596561],[-99.769796,28.596325],[-99.769846,28.595863],[-99.769541,28.595538],[-99.7685,28.595191],[-99.768575,28.594652],[-99.768132,28.593969],[-99.768475,28.593617],[-99.769429,28.593937],[-99.769541,28.593733],[-99.769286,28.593343],[-99.770415,28.592782],[-99.771406,28.591616],[-99.772342,28.591082],[-99.772491,28.590779],[-99.771563,28.59029],[-99.771868,28.589481],[-99.771407,28.588996],[-99.771164,28.588963],[-99.770416,28.589502],[-99.769562,28.589348],[-99.76925,28.589948],[-99.768502,28.589436],[-99.768172,28.588665],[-99.76743,28.588131],[-99.767586,28.587774],[-99.768814,28.588027],[-99.769207,28.587741],[-99.768323,28.586002],[-99.768854,28.583334],[-99.768063,28.581501],[-99.768823,28.580847],[-99.769086,28.579708],[-99.769043,28.578178],[-99.7689,28.576803],[-99.768202,28.575537],[-99.76786,28.573908],[-99.766944,28.572477],[-99.766884,28.568796],[-99.766497,28.568186],[-99.765021,28.567448],[-99.763345,28.565103],[-99.762674,28.55992],[-99.761615,28.559259],[-99.761167,28.558555],[-99.759753,28.557388],[-99.757953,28.553866],[-99.756427,28.553331],[-99.754228,28.551625],[-99.753206,28.551091],[-99.75249,28.550441],[-99.752498,28.54954],[-99.78976,28.549283],[-99.792234,28.549186],[-99.793935,28.548871],[-99.816044,28.539779],[-99.84584,28.521195],[-99.847475,28.52046],[-99.849121,28.520461],[-99.856482,28.522921],[-99.854284,28.528201],[-99.857586,28.532242],[-99.850056,28.539433],[-99.849204,28.539685],[-99.843887,28.545644],[-99.835479,28.557434],[-99.834942,28.558589],[-99.834514,28.560421],[-99.838535,28.589196],[-99.845042,28.643959]]]}},{"type":"Feature","properties":{"PRECINCT":"7","VTD":"0007"},"geometry":{"type":"Polygon","coordinates":[[[-99.802014,28.525415],[-99.788515,28.5087],[-99.779639,28.497304],[-99.80657,28.480216],[-99.815424,28.491219],[-99.818329,28.49377],[-99.856948,28.514894],[-99.857731,28.515581],[-99.858262,28.516431],[-99.85915,28.51618],[-99.860411,28.516801],[-99.861312,28.517668],[-99.861601,28.518852],[-99.860508,28.521875],[-99.857239,28.521122],[-99.856482,28.522921],[-99.849121,28.520461],[-99.848173,28.520377],[-99.84698,28.520592],[-99.816044,28.539779],[-99.798485,28.547071],[-99.792752,28.536201],[-99.798424,28.527753],[-99.802014,28.525415]]]}}]}