{"type":"FeatureCollection","features":[{"type":"Feature","properties":{"PRECINCT":"1","VTD":"0001"},"geometry":{"type":"Polygon","coordinates":[[[-98.738114,31.430362],[-98.729279,31.429296],[-98.726094,31.428278],[-98.724412,31.427353],[-98.724018,31.424937],[-98.724301,31.422701],[-98.7252,31.419432],[-98.725453,31.416028],[-98.726464,31.414891],[-98.727732,31.414808],[-98.728738,31.414411],[-98.729129,31.412653],[-98.728399,31.411224],[-98.727116,31.409768],[-98.723839,31.40727],[-98.722642,31.406681],[-98.721855,31.406715],[-98.719201,31.40441],[-98.718125,31.40403],[-98.713164,31.405068],[-98.7115,31.405647],[-98.708945,31.406997],[-98.706427,31.407559],[-98.70158,31.407091],[-98.697407,31.407629],[-98.696634,31.407287],[-98.695473,31.405559],[-98.695247,31.398846],[-98.695892,31.394257],[-98.695225,31.392497],[-98.693029,31.389975],[-98.692815,31.387854],[-98.693477,31.387173],[-98.694916,31.386917],[-98.698533,31.385466],[-98.699516,31.384792],[-98.704231,31.380416],[-98.704764,31.378139],[-98.704126,31.375239],[-98.704832,31.371926],[-98.705101,31.369258],[-98.704871,31.368607],[-98.703403,31.366623],[-98.702577,31.364749],[-98.703298,31.360076],[-98.704636,31.357603],[-98.706161,31.355912],[-98.707752,31.355553],[-98.708915,31.356338],[-98.710056,31.356403],[-98.712175,31.355847],[-98.712542,31.355562],[-98.712641,31.354961],[-98.713125,31.349321],[-98.712801,31.347801],[-98.712352,31.347157],[-98.711383,31.346768],[-98.708282,31.347501],[-98.706634,31.347158],[-98.70546,31.343566],[-98.702695,31.339148],[-98.701931,31.338756],[-98.698999,31.338718],[-98.696644,31.339372],[-98.695351,31.339963],[-98.691086,31.342704],[-98.690451,31.343901],[-98.686736,31.345037],[-98.684118,31.345577],[-98.682773,31.346157],[-98.679819,31.3485],[-98.67741,31.350767],[-98.677132,31.351898],[-98.674721,31.352969],[-98.6726,31.352935],[-98.671836,31.353129],[-98.670865,31.353886],[-98.670167,31.355111],[-98.669914,31.356634],[-98.670316,31.360507],[-98.669947,31.361182],[-98.667675,31.363083],[-98.665016,31.364375],[-98.664391,31.364421],[-98.663355,31.363939],[-98.66238,31.364249],[-98.661546,31.364815],[-98.661087,31.365631],[-98.656449,31.369173],[-98.65456,31.370022],[-98.653476,31.370044],[-98.651354,31.368793],[-98.650633,31.368002],[-98.650119,31.366875],[-98.650113,31.366016],[-98.650356,31.365175],[-98.652142,31.362625],[-98.654804,31.359809],[-98.654913,31.359005],[-98.654614,31.358493],[-98.653023,31.357299],[-98.651677,31.356934],[-98.650921,31.357208],[-98.64944,31.358363],[-98.648653,31.359658],[-98.647597,31.359969],[-98.646076,31.359707],[-98.644399,31.358987],[-98.643784,31.357519],[-98.642821,31.356553],[-98.63834,31.354431],[-98.63677,31.353458],[-98.636375,31.352912],[-98.636786,31.350804],[-98.63812,31.347676],[-98.638253,31.346694],[-98.639467,31.346184],[-98.641213,31.346213],[-98.641857,31.345966],[-98.643813,31.344239],[-98.646969,31.340685],[-98.646958,31.340068],[-98.646265,31.338931],[-98.645549,31.336645],[-98.644901,31.335441],[-98.643453,31.334534],[-98.640026,31.333284],[-98.639639,31.332381],[-98.639722,31.33187],[-98.640265,31.331423],[-98.640423,31.330649],[-98.641719,31.328359],[-98.642555,31.327378],[-98.643087,31.327402],[-98.644271,31.325911],[-98.64809,31.323985],[-98.648531,31.323469],[-98.649036,31.320057],[-98.649095,31.317585],[-98.648545,31.31588],[-98.647633,31.31486],[-98.646656,31.314446],[-98.644257,31.314078],[-98.643174,31.314464],[-98.639618,31.317168],[-98.637644,31.318983],[-98.632643,31.324969],[-98.631879,31.325633],[-98.630993,31.325957],[-98.629154,31.325939],[-98.626908,31.325407],[-98.621992,31.325391],[-98.619137,31.324358],[-98.618579,31.323824],[-98.618097,31.322728],[-98.618355,31.321916],[-98.618742,31.321668],[-98.619295,31.3215],[-98.620906,31.321625],[-98.62237,31.320791],[-98.62269,31.32038],[-98.62292,31.319026],[-98.62427,31.317916],[-98.629818,31.316433],[-98.630795,31.31561],[-98.631372,31.311901],[-98.631043,31.310434],[-98.630771,31.310163],[-98.627426,31.309488],[-98.623103,31.309466],[-98.606849,31.312149],[-98.604175,31.312971],[-98.599418,31.316625],[-98.596567,31.319595],[-98.595242,31.322022],[-98.595229,31.32281],[-98.595865,31.323493],[-98.595553,31.324823],[-98.594411,31.326354],[-98.593537,31.326775],[-98.591846,31.326932],[-98.588572,31.326044],[-98.587268,31.325463],[-98.585987,31.321557],[-98.586814,31.319217],[-98.587653,31.318625],[-98.590218,31.317622],[-98.590628,31.316373],[-98.590675,31.314896],[-98.593917,31.312002],[-98.594835,31.310565],[-98.596281,31.305833],[-98.59722,31.301231],[-98.59736,31.297078],[-98.597955,31.295612],[-98.598385,31.291859],[-98.597803,31.288274],[-98.598189,31.286998],[-98.598539,31.286581],[-98.60017,31.286045],[-98.604435,31.284067],[-98.614106,31.281573],[-98.619474,31.284621],[-98.621058,31.285087],[-98.622135,31.285088],[-98.623692,31.284074],[-98.626926,31.281182],[-98.628369,31.274251],[-98.625628,31.269798],[-98.624886,31.269479],[-98.624347,31.2695],[-98.619628,31.267142],[-98.618481,31.267013],[-98.616643,31.265286],[-98.612537,31.262684],[-98.606575,31.260959],[-98.601481,31.257329],[-98.598519,31.254365],[-98.596375,31.253205],[-98.596103,31.252627],[-98.596519,31.250898],[-98.594628,31.24846],[-98.594084,31.24725],[-98.594222,31.246312],[-98.595086,31.245644],[-98.595925,31.245517],[-98.596492,31.246115],[-98.597003,31.247578],[-98.59752,31.247925],[-98.598666,31.248186],[-98.599714,31.249313],[-98.600766,31.249252],[-98.602449,31.247846],[-98.602721,31.247121],[-98.602161,31.246738],[-98.601191,31.246725],[-98.600337,31.246385],[-98.600186,31.245633],[-98.6004,31.244406],[-98.599649,31.243344],[-98.599791,31.242514],[-98.600333,31.242321],[-98.601342,31.243556],[-98.602023,31.243756],[-98.602757,31.242984],[-98.603146,31.241968],[-98.603733,31.241843],[-98.605252,31.242268],[-98.606731,31.242028],[-98.607204,31.24101],[-98.607101,31.240437],[-98.605779,31.239964],[-98.60517,31.239367],[-98.602982,31.23949],[-98.602127,31.239114],[-98.602129,31.238537],[-98.602532,31.238551],[-98.603024,31.239022],[-98.604747,31.238783],[-98.606205,31.239113],[-98.610686,31.237367],[-98.611306,31.237297],[-98.621582,31.246314],[-98.616459,31.250864],[-98.619201,31.253444],[-98.617766,31.254865],[-98.618819,31.256935],[-98.619888,31.257551],[-98.620805,31.256805],[-98.621078,31.256806],[-98.627275,31.262057],[-98.630006,31.262065],[-98.6313,31.261437],[-98.63377,31.261119],[-98.634339,31.260589],[-98.636378,31.260189],[-98.637894,31.259281],[-98.641027,31.255835],[-98.642614,31.255433],[-98.643111,31.254586],[-98.643304,31.253378],[-98.643959,31.252604],[-98.644046,31.251575],[-98.644363,31.251215],[-98.645477,31.250911],[-98.651705,31.250992],[-98.654479,31.247598],[-98.657361,31.244544],[-98.658184,31.245095],[-98.666132,31.242964],[-98.678898,31.231781],[-98.686717,31.232982],[-98.692708,31.227763],[-98.695287,31.229579],[-98.701118,31.224589],[-98.709578,31.218455],[-98.710398,31.218238],[-98.711583,31.218847],[-98.712319,31.218832],[-98.716907,31.214997],[-98.719975,31.213948],[-98.718554,31.204751],[-98.718511,31.203019],[-98.71774,31.203215],[-98.717469,31.202836],[-98.716634,31.20281],[-98.716619,31.201196],[-98.713588,31.201193],[-98.713934,31.20076],[-98.713913,31.200118],[-98.713475,31.199625],[-98.712791,31.199318],[-98.711821,31.199306],[-98.711119,31.199719],[-98.710061,31.20086],[-98.709219,31.20088],[-98.708191,31.200366],[-98.707132,31.198917],[-98.708929,31.197744],[-98.709499,31.197887],[-98.709819,31.198861],[-98.710459,31.19814],[-98.711258,31.198244],[-98.711034,31.197794],[-98.71184,31.196798],[-98.711239,31.196231],[-98.711744,31.195786],[-98.720084,31.195781],[-98.720139,31.1975],[-98.727235,31.197542],[-98.728473,31.197545],[-98.72846,31.195713],[-98.7376,31.195633],[-98.739657,31.195863],[-98.755199,31.200991],[-98.774863,31.204338],[-98.787951,31.208171],[-98.872989,31.230143],[-98.880168,31.232532],[-98.88009,31.235933],[-98.879617,31.236727],[-98.879295,31.258309],[-98.88003,31.266521],[-98.881489,31.310066],[-98.88061,31.323744],[-98.879966,31.375723],[-98.880186,31.375931],[-98.882783,31.376132],[-98.881184,31.37678],[-98.880089,31.37806],[-98.879759,31.381155],[-98.879316,31.382102],[-98.878231,31.38312],[-98.877095,31.383516],[-98.865872,31.384182],[-98.864904,31.384343],[-98.863715,31.38491],[-98.862809,31.385866],[-98.862408,31.386903],[-98.862363,31.396376],[-98.861834,31.398009],[-98.86036,31.399189],[-98.859234,31.399486],[-98.846989,31.399725],[-98.848523,31.400971],[-98.850055,31.403572],[-98.84817,31.405756],[-98.84814,31.407468],[-98.84744,31.408576],[-98.846172,31.409576],[-98.846241,31.410478],[-98.837658,31.410574],[-98.834575,31.410446],[-98.832048,31.410077],[-98.829935,31.410331],[-98.826303,31.41196],[-98.823842,31.413981],[-98.818983,31.416449],[-98.816021,31.417075],[-98.815273,31.416636],[-98.814649,31.415797],[-98.814256,31.412981],[-98.816385,31.408808],[-98.817006,31.408194],[-98.816865,31.406929],[-98.816358,31.406381],[-98.813559,31.404717],[-98.808726,31.405471],[-98.805553,31.406678],[-98.802224,31.408621],[-98.801332,31.41012],[-98.79982,31.410546],[-98.798493,31.410482],[-98.79433,31.409237],[-98.793284,31.408556],[-98.791473,31.407886],[-98.788525,31.407504],[-98.787457,31.407916],[-98.782326,31.41103],[-98.778304,31.413802],[-98.777243,31.414012],[-98.776638,31.413865],[-98.773997,31.412433],[-98.773,31.410926],[-98.772843,31.408824],[-98.773228,31.406884],[-98.774168,31.404855],[-98.77466,31.402943],[-98.774464,31.395741],[-98.774968,31.393747],[-98.775853,31.391812],[-98.775625,31.38759],[-98.776151,31.385271],[-98.777882,31.381907],[-98.77932,31.379868],[-98.779407,31.37874],[-98.77878,31.377672],[-98.778272,31.377286],[-98.776774,31.377122],[-98.773074,31.380279],[-98.771696,31.380794],[-98.770594,31.379992],[-98.768062,31.376204],[-98.763724,31.375216],[-98.762589,31.375282],[-98.76162,31.375953],[-98.759825,31.37794],[-98.758429,31.38039],[-98.756957,31.382234],[-98.753366,31.384776],[-98.751406,31.387605],[-98.752285,31.390391],[-98.753905,31.393734],[-98.75463,31.394322],[-98.755382,31.395932],[-98.755911,31.398997],[-98.755672,31.400444],[-98.753852,31.402209],[-98.75185,31.403374],[-98.749663,31.403838],[-98.747445,31.404035],[-98.7454,31.403918],[-98.744119,31.404243],[-98.742271,31.405273],[-98.740067,31.407951],[-98.738765,31.411365],[-98.738376,31.414423],[-98.736783,31.417127],[-98.736842,31.418832],[-98.737149,31.420631],[-98.738321,31.422681],[-98.739612,31.424312],[-98.74216,31.426571],[-98.742894,31.427715],[-98.742512,31.428427],[-98.739495,31.429856],[-98.738114,31.430362]]]}},{"type":"Feature","properties":{"PRECINCT":"2A","VTD":"002A"},"geometry":{"type":"Polygon","coordinates":[[[-99.033323,31.486743],[-99.032474,31.485808],[-99.031573,31.484192],[-99.030125,31.482668],[-99.029914,31.482063],[-99.027745,31.480484],[-99.027057,31.479465],[-99.025311,31.478812],[-99.024336,31.477035],[-99.02174,31.475104],[-99.021084,31.47415],[-99.019165,31.469717],[-99.018224,31.469519],[-99.012113,31.470802],[-99.009805,31.47172],[-99.009132,31.472619],[-99.007585,31.476756],[-99.006358,31.478871],[-99.006374,31.479869],[-99.006103,31.480274],[-99.003895,31.480876],[-99.002304,31.480388],[-98.99739,31.48124],[-98.991827,31.484054],[-98.990991,31.484119],[-98.990188,31.48391],[-98.98784,31.482478],[-98.987172,31.481393],[-98.986828,31.480031],[-98.986941,31.478929],[-98.98822,31.477931],[-98.991163,31.474701],[-98.991764,31.474309],[-98.993153,31.474083],[-98.993491,31.473778],[-98.994399,31.472245],[-98.994723,31.470985],[-98.995091,31.467387],[-98.99495,31.466358],[-98.991572,31.464579],[-98.990673,31.464666],[-98.988255,31.463078],[-98.985388,31.461804],[-98.982983,31.459243],[-98.978228,31.456253],[-98.974786,31.455147],[-98.967853,31.454191],[-98.965809,31.453764],[-98.965018,31.453298],[-98.964321,31.452255],[-98.964453,31.451023],[-98.9642,31.448523],[-98.963517,31.44664],[-98.964275,31.445235],[-98.966857,31.444321],[-98.967227,31.443841],[-98.967122,31.44292],[-98.966476,31.441724],[-98.967461,31.4388],[-98.967577,31.437063],[-98.966878,31.435548],[-98.966046,31.435143],[-98.964001,31.434842],[-98.963365,31.435081],[-98.961536,31.437385],[-98.960272,31.440035],[-98.959175,31.441384],[-98.956761,31.443978],[-98.954243,31.445959],[-98.952985,31.447309],[-98.953016,31.448787],[-98.953349,31.4492],[-98.955253,31.450258],[-98.955732,31.451003],[-98.955426,31.452391],[-98.954237,31.453867],[-98.952821,31.455033],[-98.95141,31.455649],[-98.950803,31.456462],[-98.949644,31.457267],[-98.94626,31.458319],[-98.944264,31.458611],[-98.940327,31.458435],[-98.937761,31.457161],[-98.93591,31.455931],[-98.935172,31.452899],[-98.935203,31.451228],[-98.935778,31.449696],[-98.935541,31.446503],[-98.933508,31.437469],[-98.933188,31.436928],[-98.931813,31.436182],[-98.929097,31.435112],[-98.928136,31.434863],[-98.927073,31.434925],[-98.925192,31.433988],[-98.924026,31.433906],[-98.921757,31.434318],[-98.918852,31.435833],[-98.917869,31.435988],[-98.914432,31.435074],[-98.912996,31.434201],[-98.909314,31.434257],[-98.907213,31.434954],[-98.904868,31.436168],[-98.903475,31.436363],[-98.898951,31.434946],[-98.898033,31.434514],[-98.897374,31.433756],[-98.895557,31.433614],[-98.893511,31.434653],[-98.888621,31.439073],[-98.887479,31.439862],[-98.88588,31.442573],[-98.885453,31.442914],[-98.881752,31.443789],[-98.879668,31.443756],[-98.877346,31.444333],[-98.87473,31.444664],[-98.8725,31.444299],[-98.871017,31.443701],[-98.865937,31.440524],[-98.859855,31.435539],[-98.858827,31.434276],[-98.85549,31.425615],[-98.853093,31.421964],[-98.852463,31.420408],[-98.852544,31.418776],[-98.854879,31.415165],[-98.854744,31.4138],[-98.853916,31.413263],[-98.851627,31.412493],[-98.850668,31.412804],[-98.84936,31.412598],[-98.84712,31.410676],[-98.846241,31.410478],[-98.846172,31.409576],[-98.84744,31.408576],[-98.84814,31.407468],[-98.84817,31.405756],[-98.850055,31.403572],[-98.848523,31.400971],[-98.846989,31.399725],[-98.85876,31.39953],[-98.859844,31.399369],[-98.860992,31.398829],[-98.861834,31.398009],[-98.862288,31.396972],[-98.862376,31.387218],[-98.862514,31.386515],[-98.86321,31.385352],[-98.864305,31.384576],[-98.865399,31.384235],[-98.876569,31.383597],[-98.878231,31.38312],[-98.879316,31.382102],[-98.879643,31.381452],[-98.879867,31.3788],[-98.880458,31.377474],[-98.881184,31.37678],[-98.882783,31.376132],[-98.880186,31.375931],[-98.879966,31.375723],[-98.88061,31.323744],[-98.88149,31.309273],[-98.88003,31.266521],[-98.879295,31.258309],[-98.879617,31.236727],[-98.88009,31.235933],[-98.880168,31.232532],[-98.880157,31.21648],[-98.882697,31.216392],[-98.882929,31.216212],[-98.883106,31.208922],[-98.884767,31.20673],[-98.885869,31.206677],[-98.896769,31.204043],[-98.908446,31.19917],[-98.908521,31.19825],[-98.909183,31.197673],[-98.909152,31.196771],[-98.90868,31.195967],[-98.903959,31.194141],[-98.903613,31.193572],[-98.903153,31.191343],[-98.902497,31.190797],[-98.902607,31.190106],[-98.903532,31.189046],[-98.908199,31.186957],[-98.909127,31.185895],[-98.909999,31.184224],[-98.910351,31.18286],[-98.908866,31.176705],[-98.908628,31.171657],[-98.909222,31.169626],[-98.910283,31.167818],[-98.910741,31.167357],[-98.91171,31.167368],[-98.913168,31.168085],[-98.913589,31.168074],[-98.915078,31.167315],[-98.915681,31.166508],[-98.917427,31.165887],[-98.919077,31.164908],[-98.91943,31.164956],[-98.92038,31.164299],[-98.920108,31.163343],[-98.918531,31.161426],[-98.918716,31.160677],[-98.920341,31.159083],[-98.920222,31.158248],[-98.922925,31.158332],[-98.924723,31.15681],[-98.925508,31.155206],[-98.925762,31.154983],[-98.926341,31.154968],[-98.927859,31.153849],[-98.928279,31.1515],[-98.929736,31.149842],[-98.929417,31.148016],[-98.930025,31.146806],[-98.929961,31.14639],[-98.934282,31.14163],[-98.937115,31.137523],[-98.941583,31.133988],[-98.942967,31.134046],[-98.943914,31.134695],[-98.9447,31.133864],[-98.946625,31.132945],[-98.946823,31.13239],[-98.946631,31.132082],[-98.947306,31.131937],[-98.949951,31.130241],[-98.955453,31.128055],[-98.957929,31.127841],[-98.959079,31.127824],[-98.964504,31.128575],[-98.966258,31.12901],[-98.969152,31.128853],[-98.972592,31.130043],[-98.978336,31.13102],[-98.981718,31.132251],[-98.982932,31.132119],[-98.984459,31.131297],[-98.986777,31.129012],[-98.987254,31.127809],[-98.988115,31.126836],[-98.988752,31.123643],[-98.988756,31.118748],[-98.989522,31.115475],[-98.990058,31.114429],[-98.991406,31.112966],[-98.993634,31.111552],[-98.996568,31.110179],[-98.998775,31.109544],[-99.000002,31.108951],[-99.000451,31.108499],[-99.000915,31.107407],[-99.002092,31.106224],[-99.005191,31.104097],[-99.006718,31.102717],[-99.007519,31.101616],[-99.009638,31.097457],[-99.011636,31.095748],[-99.014356,31.094199],[-99.016698,31.091545],[-99.01992,31.08991],[-99.025175,31.085532],[-99.026451,31.084088],[-99.025123,31.085405],[-99.028699,31.079827],[-99.030105,31.078012],[-99.036582,31.072816],[-99.037635,31.071669],[-99.038181,31.069956],[-99.038689,31.066494],[-99.039934,31.063336],[-99.040921,31.062479],[-99.041861,31.062037],[-99.043328,31.061797],[-99.046728,31.061697],[-99.047752,31.061228],[-99.048938,31.060332],[-99.050156,31.056916],[-99.051164,31.055773],[-99.052865,31.05515],[-99.055339,31.054939],[-99.056571,31.054149],[-99.056823,31.053154],[-99.056723,31.052597],[-99.056101,31.051715],[-99.056159,31.05103],[-99.056504,31.050124],[-99.057672,31.048757],[-99.058374,31.048414],[-99.061529,31.048435],[-99.065648,31.049473],[-99.067781,31.050277],[-99.069558,31.051668],[-99.072863,31.055642],[-99.076343,31.058677],[-99.078537,31.059983],[-99.080525,31.060252],[-99.083825,31.059657],[-99.086847,31.058385],[-99.087602,31.057365],[-99.088093,31.055025],[-99.088486,31.054567],[-99.08846,31.053444],[-99.089099,31.052069],[-99.089658,31.051702],[-99.091017,31.05161],[-99.092037,31.050636],[-99.091831,31.250165],[-99.090622,31.460927],[-99.089991,31.461221],[-99.088568,31.461229],[-99.087499,31.460395],[-99.086705,31.459043],[-99.086579,31.458241],[-99.088356,31.456944],[-99.087506,31.456017],[-99.086367,31.455789],[-99.084849,31.456464],[-99.085226,31.457847],[-99.084981,31.458166],[-99.083285,31.458557],[-99.075538,31.463252],[-99.073342,31.466386],[-99.072618,31.467078],[-99.067974,31.465659],[-99.06534,31.462841],[-99.064212,31.462383],[-99.063511,31.462417],[-99.060155,31.464962],[-99.060071,31.465847],[-99.060605,31.467501],[-99.061139,31.468001],[-99.061396,31.468753],[-99.062264,31.469886],[-99.06228,31.470712],[-99.061446,31.471691],[-99.060026,31.4728],[-99.058244,31.473521],[-99.056503,31.473689],[-99.05533,31.474445],[-99.053873,31.476952],[-99.052268,31.480671],[-99.050068,31.484906],[-99.047255,31.486601],[-99.04598,31.486866],[-99.045406,31.487473],[-99.043528,31.4884],[-99.04287,31.488903],[-99.042589,31.489613],[-99.041343,31.490559],[-99.039387,31.490209],[-99.037623,31.489536],[-99.033323,31.486743]]]}},{"type":"Feature","properties":{"PRECINCT":"2B","VTD":"002B"},"geometry":{"type":"Polygon","coordinates":[[[-98.720139,31.1975],[-98.720084,31.195781],[-98.728053,31.195718],[-98.72807,31.191622],[-98.727839,31.191624],[-98.727738,31.189923],[-98.727914,31.189122],[-98.728477,31.189094],[-98.728476,31.188079],[-98.728655,31.188088],[-98.728616,31.189663],[-98.729611,31.189653],[-98.729618,31.18998],[-98.73096,31.19],[-98.73098,31.190321],[-98.732075,31.190332],[-98.732076,31.191568],[-98.735574,31.191606],[-98.735572,31.191791],[-98.736206,31.191808],[-98.736249,31.193788],[-98.736615,31.193789],[-98.736695,31.192663],[-98.737355,31.192883],[-98.737376,31.193687],[-98.737678,31.193683],[-98.737655,31.19173],[-98.73904,31.191695],[-98.73897,31.18915],[-98.741125,31.189163],[-98.741092,31.193809],[-98.741261,31.193859],[-98.740977,31.194049],[-98.739688,31.194019],[-98.739657,31.195863],[-98.7376,31.195633],[-98.72846,31.195713],[-98.728473,31.197545],[-98.720139,31.1975]]]}},{"type":"Feature","properties":{"PRECINCT":"3A","VTD":"003A"},"geometry":{"type":"Polygon","coordinates":[[[-98.905954,31.146782],[-98.891591,31.144935],[-98.890418,31.145352],[-98.889136,31.144349],[-98.88845,31.144257],[-98.870163,31.136278],[-98.862967,31.132644],[-98.836544,31.12134],[-98.831985,31.11916],[-98.822667,31.113924],[-98.819274,31.112951],[-98.80605,31.107307],[-98.804493,31.106004],[-98.802745,31.101833],[-98.797311,31.097439],[-98.742453,31.069005],[-98.728769,31.068937],[-98.725563,31.067982],[-98.723506,31.066567],[-98.716113,31.064273],[-98.711574,31.063629],[-98.710848,31.065016],[-98.710165,31.068327],[-98.710568,31.069659],[-98.71055,31.073327],[-98.710154,31.073877],[-98.709272,31.074103],[-98.707815,31.073867],[-98.70552,31.072013],[-98.703341,31.068658],[-98.70228,31.067921],[-98.70258,31.06576],[-98.703826,31.064307],[-98.70541,31.063207],[-98.705615,31.062751],[-98.705289,31.06208],[-98.703237,31.0612],[-98.703641,31.060549],[-98.667251,31.048683],[-98.650481,31.039243],[-98.636445,31.030575],[-98.63478,31.029861],[-98.615878,31.023982],[-98.611984,31.024088],[-98.61035,31.02273],[-98.605383,31.017773],[-98.600967,31.011993],[-98.592589,31.006319],[-98.589589,31.005192],[-98.584161,31.004234],[-98.568699,30.998119],[-98.567704,30.997551],[-98.557493,30.994068],[-98.553507,30.992248],[-98.547627,30.991325],[-98.539133,30.98891],[-98.523841,30.983861],[-98.521694,30.982978],[-98.517587,30.981967],[-98.511692,30.979701],[-98.503454,30.975898],[-98.500408,30.975029],[-98.486944,30.968094],[-98.477304,30.962248],[-98.47225,30.959488],[-98.469741,30.957542],[-98.462279,30.954324],[-98.454642,30.953253],[-98.44838,30.954316],[-98.447098,30.951755],[-98.445875,30.950697],[-98.444472,30.950187],[-98.441977,30.949645],[-98.434255,30.94891],[-98.427553,30.948689],[-98.424688,30.948376],[-98.418985,30.946425],[-98.416033,30.944851],[-98.414864,30.943479],[-98.414508,30.94211],[-98.414734,30.940168],[-98.416826,30.931963],[-98.417137,30.929546],[-98.418208,30.927003],[-98.419606,30.925352],[-98.420873,30.924651],[-98.422331,30.924259],[-98.425233,30.925017],[-98.429207,30.926435],[-98.431146,30.926719],[-98.435122,30.927104],[-98.440202,30.92652],[-98.441898,30.925865],[-98.444599,30.923109],[-98.445782,30.921439],[-98.500327,30.921949],[-98.51552,30.921843],[-98.516771,30.922042],[-98.523681,30.922121],[-98.529989,30.92175],[-98.53406,30.921874],[-98.536695,30.921702],[-98.557512,30.921998],[-98.591081,30.922028],[-98.747007,30.920871],[-98.750312,30.920343],[-98.870281,30.921097],[-98.875437,30.920744],[-99.000325,30.921654],[-99.092431,30.921968],[-99.092037,31.050636],[-99.091017,31.05161],[-99.089658,31.051702],[-99.089099,31.052069],[-99.08846,31.053444],[-99.088486,31.054567],[-99.088093,31.055025],[-99.087295,31.057977],[-99.086356,31.058723],[-99.082575,31.059979],[-99.080525,31.060252],[-99.078537,31.059983],[-99.076343,31.058677],[-99.072863,31.055642],[-99.069558,31.051668],[-99.067781,31.050277],[-99.065648,31.049473],[-99.061529,31.048435],[-99.058374,31.048414],[-99.057672,31.048757],[-99.056504,31.050124],[-99.056159,31.05103],[-99.056101,31.051715],[-99.056723,31.052597],[-99.056823,31.053154],[-99.056571,31.054149],[-99.055339,31.054939],[-99.052865,31.05515],[-99.051164,31.055773],[-99.050156,31.056916],[-99.048938,31.060332],[-99.047752,31.061228],[-99.046728,31.061697],[-99.043328,31.061797],[-99.041861,31.062037],[-99.040921,31.062479],[-99.039934,31.063336],[-99.038689,31.066494],[-99.038181,31.069956],[-99.037635,31.071669],[-99.036582,31.072816],[-99.030105,31.078012],[-99.028699,31.079827],[-99.025123,31.085405],[-99.026451,31.084088],[-99.025175,31.085532],[-99.01992,31.08991],[-99.016698,31.091545],[-99.014356,31.094199],[-99.011636,31.095748],[-99.009638,31.097457],[-99.007519,31.101616],[-99.006718,31.102717],[-99.005191,31.104097],[-99.002092,31.106224],[-99.000915,31.107407],[-99.000451,31.108499],[-99.000002,31.108951],[-98.998775,31.109544],[-98.996568,31.110179],[-98.993634,31.111552],[-98.991406,31.112966],[-98.990058,31.114429],[-98.989522,31.115475],[-98.988756,31.118748],[-98.988752,31.123643],[-98.988089,31.126907],[-98.987254,31.127809],[-98.986777,31.129012],[-98.984459,31.131297],[-98.982932,31.132119],[-98.981718,31.132251],[-98.978336,31.13102],[-98.972592,31.130043],[-98.969152,31.128853],[-98.966258,31.12901],[-98.964504,31.128575],[-98.959079,31.127824],[-98.955453,31.128055],[-98.949951,31.130241],[-98.947306,31.131937],[-98.946631,31.132082],[-98.946823,31.13239],[-98.946625,31.132945],[-98.9447,31.133864],[-98.943914,31.134695],[-98.942925,31.134035],[-98.941583,31.133988],[-98.941196,31.134196],[-98.937115,31.137523],[-98.934282,31.14163],[-98.930548,31.145623],[-98.929961,31.14639],[-98.930025,31.146806],[-98.929671,31.146969],[-98.929455,31.146399],[-98.932966,31.142659],[-98.932518,31.142505],[-98.932262,31.141504],[-98.931956,31.141295],[-98.932627,31.140443],[-98.932205,31.140019],[-98.930504,31.140058],[-98.928336,31.139067],[-98.928625,31.139521],[-98.928249,31.139228],[-98.927569,31.139133],[-98.927422,31.138479],[-98.928202,31.136521],[-98.928081,31.134821],[-98.927793,31.134458],[-98.926911,31.134364],[-98.92531,31.1347],[-98.923912,31.134524],[-98.922978,31.134859],[-98.922191,31.134859],[-98.921853,31.13405],[-98.921968,31.133242],[-98.921674,31.133033],[-98.921783,31.132164],[-98.921508,31.130832],[-98.921035,31.131036],[-98.920497,31.132185],[-98.918713,31.13301],[-98.918317,31.132862],[-98.917403,31.131717],[-98.917422,31.13103],[-98.918304,31.130001],[-98.919315,31.129298],[-98.919488,31.12866],[-98.919347,31.127658],[-98.918305,31.127064],[-98.917519,31.127537],[-98.916182,31.127597],[-98.915242,31.128235],[-98.915044,31.128609],[-98.914628,31.128686],[-98.914813,31.129962],[-98.915772,31.1318],[-98.915529,31.132042],[-98.913764,31.132074],[-98.911367,31.130682],[-98.90989,31.13033],[-98.909218,31.130572],[-98.908943,31.130918],[-98.90829,31.133426],[-98.907958,31.133322],[-98.907644,31.132772],[-98.906417,31.132183],[-98.905351,31.13256],[-98.905982,31.133255],[-98.906211,31.134347],[-98.906262,31.135981],[-98.905788,31.137848],[-98.906855,31.141341],[-98.905954,31.146782]]]}},{"type":"Feature","properties":{"PRECINCT":"3B","VTD":"003B"},"geometry":{"type":"Polygon","coordinates":[[[-98.717468,31.19578],[-98.717438,31.194968],[-98.716536,31.194975],[-98.716571,31.188904],[-98.719909,31.188865],[-98.719907,31.190033],[-98.720488,31.190027],[-98.720477,31.189067],[-98.721382,31.189013],[-98.721414,31.190733],[-98.722693,31.190807],[-98.726063,31.190705],[-98.726037,31.189138],[-98.727914,31.189122],[-98.727742,31.190161],[-98.727839,31.191624],[-98.72807,31.191622],[-98.728053,31.195718],[-98.717468,31.19578]]]}},{"type":"Feature","properties":{"PRECINCT":"4A","VTD":"004A"},"geometry":{"type":"Polygon","coordinates":[[[-98.575136,31.254153],[-98.57139,31.248585],[-98.56843,31.244808],[-98.565662,31.243039],[-98.564996,31.242281],[-98.565099,31.241385],[-98.56355,31.23785],[-98.562963,31.235781],[-98.562725,31.230309],[-98.56331,31.22227],[-98.56363,31.2208],[-98.566201,31.214509],[-98.567755,31.211898],[-98.568524,31.208023],[-98.569533,31.206183],[-98.569923,31.203109],[-98.569238,31.201117],[-98.569372,31.199176],[-98.569078,31.198186],[-98.56408,31.195425],[-98.562986,31.193978],[-98.560919,31.193215],[-98.560058,31.192669],[-98.557696,31.191903],[-98.555793,31.191549],[-98.552958,31.191708],[-98.551702,31.192016],[-98.544891,31.194251],[-98.543582,31.194444],[-98.542187,31.194108],[-98.540195,31.192536],[-98.539602,31.191873],[-98.538462,31.189695],[-98.536146,31.187639],[-98.535713,31.186929],[-98.535947,31.185984],[-98.536745,31.185219],[-98.539194,31.183407],[-98.54258,31.18152],[-98.544336,31.179965],[-98.544889,31.178741],[-98.544964,31.177959],[-98.544607,31.176513],[-98.543827,31.175265],[-98.541754,31.174401],[-98.532089,31.173843],[-98.53047,31.173447],[-98.527957,31.17189],[-98.521582,31.165678],[-98.519791,31.164863],[-98.517457,31.164516],[-98.514962,31.164631],[-98.508962,31.16602],[-98.507087,31.166811],[-98.50559,31.167069],[-98.504554,31.166029],[-98.504249,31.163994],[-98.504371,31.163235],[-98.508422,31.157929],[-98.510777,31.155697],[-98.511839,31.155235],[-98.514603,31.154747],[-98.517052,31.154802],[-98.521497,31.155376],[-98.523383,31.156103],[-98.525794,31.156378],[-98.526946,31.156071],[-98.528494,31.15513],[-98.529358,31.15391],[-98.52978,31.152287],[-98.5292,31.147188],[-98.528549,31.144757],[-98.527871,31.143816],[-98.527501,31.142749],[-98.527566,31.139581],[-98.527969,31.13809],[-98.528692,31.137211],[-98.530246,31.136006],[-98.532427,31.134808],[-98.541284,31.131152],[-98.54358,31.130861],[-98.543484,31.131114],[-98.541035,31.132714],[-98.541508,31.133842],[-98.542102,31.134469],[-98.543362,31.135041],[-98.546214,31.135366],[-98.547173,31.136142],[-98.549174,31.136257],[-98.550805,31.136037],[-98.554059,31.137055],[-98.555696,31.13683],[-98.557289,31.136082],[-98.559009,31.135719],[-98.560576,31.134795],[-98.561458,31.133871],[-98.562423,31.133447],[-98.563792,31.133546],[-98.564994,31.134025],[-98.565915,31.133854],[-98.566612,31.134206],[-98.567098,31.135059],[-98.569835,31.134476],[-98.572718,31.134305],[-98.573243,31.13398],[-98.573901,31.131709],[-98.574688,31.131049],[-98.57667,31.130641],[-98.578057,31.131252],[-98.579138,31.131197],[-98.579679,31.131023],[-98.579423,31.130763],[-98.582199,31.129137],[-98.582445,31.127592],[-98.581196,31.126472],[-98.57929,31.125328],[-98.578413,31.124003],[-98.578435,31.121883],[-98.580001,31.119297],[-98.582529,31.118338],[-98.583326,31.117721],[-98.585227,31.11551],[-98.587477,31.114657],[-98.588596,31.113463],[-98.590322,31.112979],[-98.591498,31.11311],[-98.593915,31.114331],[-98.595615,31.114732],[-98.597073,31.113764],[-98.599085,31.11016],[-98.602524,31.108306],[-98.603412,31.107464],[-98.60462,31.107546],[-98.606078,31.108866],[-98.607152,31.108101],[-98.608443,31.107704],[-98.609121,31.107809],[-98.609076,31.107143],[-98.609625,31.106703],[-98.611434,31.106609],[-98.612003,31.105288],[-98.611222,31.104387],[-98.611286,31.104106],[-98.612021,31.103171],[-98.613005,31.103093],[-98.613612,31.102697],[-98.61342,31.101746],[-98.613873,31.101305],[-98.615293,31.101574],[-98.616028,31.101321],[-98.617671,31.102481],[-98.618598,31.101919],[-98.619046,31.103278],[-98.618183,31.104131],[-98.617672,31.104148],[-98.617615,31.104456],[-98.618165,31.104895],[-98.619596,31.104812],[-98.62129,31.103854],[-98.621507,31.103348],[-98.621891,31.103425],[-98.622517,31.103111],[-98.623405,31.103023],[-98.62574,31.102118],[-98.624971,31.100406],[-98.624841,31.093602],[-98.624173,31.092716],[-98.62207,31.091798],[-98.622651,31.090663],[-98.622908,31.081379],[-98.623896,31.080489],[-98.627102,31.078567],[-98.628839,31.076587],[-98.628493,31.073879],[-98.63024,31.069409],[-98.63847,31.055311],[-98.63796,31.051538],[-98.637976,31.044536],[-98.638506,31.042832],[-98.638389,31.040612],[-98.640649,31.038669],[-98.644488,31.037697],[-98.646138,31.036474],[-98.650481,31.039243],[-98.667251,31.048683],[-98.703641,31.060549],[-98.703237,31.0612],[-98.705289,31.06208],[-98.705615,31.062751],[-98.70541,31.063207],[-98.703826,31.064307],[-98.70258,31.06576],[-98.70228,31.067921],[-98.703341,31.068658],[-98.70552,31.072013],[-98.707815,31.073867],[-98.708371,31.074065],[-98.710154,31.073877],[-98.71055,31.073327],[-98.710568,31.069659],[-98.710165,31.068327],[-98.710848,31.065016],[-98.711574,31.063629],[-98.716113,31.064273],[-98.723506,31.066567],[-98.725563,31.067982],[-98.728769,31.068937],[-98.742453,31.069005],[-98.797311,31.097439],[-98.802745,31.101833],[-98.804493,31.106004],[-98.80605,31.107307],[-98.819274,31.112951],[-98.822667,31.113924],[-98.831985,31.11916],[-98.836544,31.12134],[-98.862967,31.132644],[-98.870163,31.136278],[-98.88845,31.144257],[-98.889136,31.144349],[-98.890418,31.145352],[-98.891591,31.144935],[-98.905954,31.146782],[-98.906855,31.141341],[-98.905788,31.137848],[-98.906262,31.135981],[-98.906211,31.134347],[-98.905982,31.133255],[-98.905351,31.13256],[-98.906417,31.132183],[-98.907644,31.132772],[-98.907958,31.133322],[-98.90829,31.133426],[-98.908943,31.130918],[-98.909218,31.130572],[-98.90989,31.13033],[-98.911367,31.130682],[-98.913764,31.132074],[-98.915529,31.132042],[-98.915772,31.1318],[-98.914813,31.129962],[-98.914628,31.128686],[-98.915044,31.128609],[-98.915242,31.128235],[-98.916182,31.127597],[-98.917519,31.127537],[-98.918305,31.127064],[-98.919347,31.127658],[-98.919488,31.12866],[-98.919315,31.129298],[-98.918304,31.130001],[-98.917422,31.13103],[-98.917403,31.131717],[-98.918317,31.132862],[-98.918713,31.13301],[-98.920497,31.132185],[-98.921035,31.131036],[-98.921508,31.130832],[-98.921783,31.132164],[-98.921674,31.133033],[-98.921968,31.133242],[-98.921853,31.13405],[-98.922191,31.134859],[-98.922978,31.134859],[-98.923912,31.134524],[-98.92531,31.1347],[-98.926911,31.134364],[-98.927793,31.134458],[-98.928081,31.134821],[-98.928202,31.136521],[-98.927422,31.138479],[-98.927569,31.139133],[-98.928249,31.139228],[-98.928625,31.139521],[-98.928336,31.139067],[-98.930504,31.140058],[-98.932205,31.140019],[-98.932627,31.140443],[-98.931956,31.141295],[-98.932262,31.141504],[-98.932518,31.142505],[-98.932966,31.142659],[-98.929455,31.146399],[-98.929539,31.1469],[-98.930025,31.146806],[-98.929417,31.148016],[-98.929736,31.149842],[-98.928279,31.1515],[-98.927859,31.153849],[-98.926341,31.154968],[-98.925762,31.154983],[-98.925508,31.155206],[-98.924723,31.15681],[-98.922925,31.158332],[-98.920222,31.158248],[-98.920223,31.159302],[-98.918716,31.160677],[-98.918597,31.161648],[-98.920108,31.163343],[-98.92038,31.164299],[-98.91943,31.164956],[-98.919077,31.164908],[-98.917427,31.165887],[-98.915681,31.166508],[-98.915078,31.167315],[-98.913589,31.168074],[-98.913168,31.168085],[-98.91171,31.167368],[-98.910741,31.167357],[-98.909222,31.169626],[-98.908628,31.171657],[-98.908866,31.176705],[-98.910351,31.18286],[-98.909999,31.184224],[-98.909127,31.185895],[-98.908199,31.186957],[-98.903532,31.189046],[-98.902607,31.190106],[-98.902497,31.190797],[-98.903153,31.191343],[-98.903613,31.193572],[-98.903959,31.194141],[-98.90868,31.195967],[-98.909152,31.196771],[-98.909183,31.197673],[-98.908521,31.19825],[-98.908446,31.19917],[-98.896769,31.204043],[-98.885869,31.206677],[-98.884767,31.20673],[-98.883179,31.208723],[-98.882929,31.216212],[-98.882697,31.216392],[-98.880157,31.21648],[-98.880168,31.232532],[-98.872989,31.230143],[-98.787951,31.208171],[-98.774863,31.204338],[-98.754287,31.200746],[-98.739657,31.195863],[-98.739688,31.194019],[-98.740977,31.194049],[-98.741261,31.193859],[-98.741092,31.193809],[-98.741125,31.189163],[-98.73897,31.18915],[-98.73904,31.191695],[-98.737655,31.19173],[-98.737678,31.193683],[-98.737376,31.193687],[-98.737355,31.192883],[-98.736695,31.192663],[-98.736615,31.193789],[-98.736249,31.193788],[-98.736206,31.191808],[-98.735572,31.191791],[-98.735574,31.191606],[-98.732076,31.191568],[-98.732075,31.190332],[-98.73098,31.190321],[-98.73096,31.19],[-98.729618,31.18998],[-98.729611,31.189653],[-98.728616,31.189663],[-98.728655,31.188088],[-98.728476,31.188079],[-98.728477,31.189094],[-98.726037,31.189138],[-98.726063,31.190705],[-98.72441,31.190818],[-98.721414,31.190733],[-98.721382,31.189013],[-98.720477,31.189067],[-98.720488,31.190027],[-98.719907,31.190033],[-98.719909,31.188865],[-98.716571,31.188904],[-98.716536,31.194975],[-98.717438,31.194968],[-98.717468,31.19578],[-98.711744,31.195786],[-98.711239,31.196231],[-98.71184,31.196798],[-98.711034,31.197794],[-98.711258,31.198244],[-98.710459,31.19814],[-98.709819,31.198861],[-98.709499,31.197887],[-98.708929,31.197744],[-98.707132,31.198917],[-98.708191,31.200366],[-98.709219,31.20088],[-98.710061,31.20086],[-98.711119,31.199719],[-98.711821,31.199306],[-98.712791,31.199318],[-98.713475,31.199625],[-98.713913,31.200118],[-98.713934,31.20076],[-98.713588,31.201193],[-98.716619,31.201196],[-98.716634,31.20281],[-98.717469,31.202836],[-98.71774,31.203215],[-98.718511,31.203019],[-98.718554,31.204751],[-98.719975,31.213948],[-98.716907,31.214997],[-98.712319,31.218832],[-98.711583,31.218847],[-98.710398,31.218238],[-98.709578,31.218455],[-98.701118,31.224589],[-98.695287,31.229579],[-98.692708,31.227763],[-98.686717,31.232982],[-98.678898,31.231781],[-98.666132,31.242964],[-98.658184,31.245095],[-98.657361,31.244544],[-98.654479,31.247598],[-98.651705,31.250992],[-98.645477,31.250911],[-98.644363,31.251215],[-98.644046,31.251575],[-98.643959,31.252604],[-98.643304,31.253378],[-98.643111,31.254586],[-98.642614,31.255433],[-98.641027,31.255835],[-98.637894,31.259281],[-98.636378,31.260189],[-98.634339,31.260589],[-98.63377,31.261119],[-98.6313,31.261437],[-98.630006,31.262065],[-98.627275,31.262057],[-98.621078,31.256806],[-98.620805,31.256805],[-98.619888,31.257551],[-98.618819,31.256935],[-98.617766,31.254865],[-98.619201,31.253444],[-98.616459,31.250864],[-98.621582,31.246314],[-98.611169,31.23726],[-98.606205,31.239113],[-98.604747,31.238783],[-98.603024,31.239022],[-98.602532,31.238551],[-98.602129,31.238537],[-98.602127,31.239114],[-98.602982,31.23949],[-98.60517,31.239367],[-98.605779,31.239964],[-98.607101,31.240437],[-98.607204,31.24101],[-98.606731,31.242028],[-98.605252,31.242268],[-98.603733,31.241843],[-98.603146,31.241968],[-98.602757,31.242984],[-98.602023,31.243756],[-98.601342,31.243556],[-98.600333,31.242321],[-98.599791,31.242514],[-98.599649,31.243344],[-98.6004,31.244406],[-98.600186,31.245633],[-98.600337,31.246385],[-98.601191,31.246725],[-98.602161,31.246738],[-98.602721,31.247121],[-98.602449,31.247846],[-98.600766,31.249252],[-98.599714,31.249313],[-98.598666,31.248186],[-98.59752,31.247925],[-98.597003,31.247578],[-98.596492,31.246115],[-98.595925,31.245517],[-98.595086,31.245644],[-98.594222,31.246312],[-98.594084,31.24725],[-98.594628,31.24846],[-98.596519,31.250898],[-98.596534,31.251365],[-98.596103,31.252627],[-98.596375,31.253205],[-98.595651,31.253059],[-98.594386,31.253786],[-98.593918,31.254925],[-98.593736,31.258537],[-98.594642,31.261145],[-98.594653,31.262171],[-98.592793,31.266067],[-98.588543,31.267592],[-98.585566,31.266877],[-98.5838,31.266167],[-98.57981,31.265386],[-98.578785,31.26453],[-98.578219,31.26302],[-98.578216,31.260993],[-98.576174,31.257981],[-98.575654,31.255397],[-98.575136,31.254153]]]}},{"type":"Feature","properties":{"PRECINCT":"4B","VTD":"004B"},"geometry":{"type":"Polygon","coordinates":[[[-98.55712,31.19215],[-98.554351,31.19203],[-98.552429,31.192284],[-98.547992,31.193451],[-98.54506,31.19452],[-98.54322,31.19467],[-98.54177,31.19431],[-98.53942,31.19252],[-98.538386,31.191303],[-98.537987,31.189505],[-98.53564,31.18757],[-98.535363,31.186768],[-98.53547,31.18603],[-98.53643,31.18485],[-98.54293,31.18082],[-98.54438,31.17946],[-98.544691,31.178647],[-98.54454,31.17712],[-98.5438,31.17574],[-98.542981,31.174904],[-98.542016,31.174496],[-98.540511,31.174472],[-98.532064,31.173922],[-98.53015,31.17363],[-98.52796,31.17234],[-98.52172,31.16628],[-98.52043,31.16526],[-98.519688,31.164958],[-98.51749,31.164633],[-98.51398,31.164871],[-98.511669,31.165365],[-98.508277,31.166475],[-98.507342,31.167004],[-98.50595,31.16733],[-98.50479,31.16693],[-98.504,31.16563],[-98.503851,31.163451],[-98.50486,31.16165],[-98.50753,31.158409],[-98.510341,31.155666],[-98.51127,31.15515],[-98.51344,31.15459],[-98.517255,31.15457],[-98.521513,31.155088],[-98.525336,31.15603],[-98.526728,31.155819],[-98.527641,31.155313],[-98.52856,31.154451],[-98.529394,31.152416],[-98.528424,31.145542],[-98.527467,31.14368],[-98.526959,31.14039],[-98.5271,31.139115],[-98.52782,31.13748],[-98.52905,31.13629],[-98.531502,31.134729],[-98.539129,31.131437],[-98.542014,31.130471],[-98.544261,31.130183],[-98.544966,31.129814],[-98.545742,31.129937],[-98.547196,31.129205],[-98.547715,31.128363],[-98.548402,31.125169],[-98.548327,31.124206],[-98.54465,31.11943],[-98.542498,31.118142],[-98.538013,31.113533],[-98.5376,31.11289],[-98.536949,31.110343],[-98.536569,31.109733],[-98.531014,31.102702],[-98.529466,31.094769],[-98.527504,31.091171],[-98.52646,31.09012],[-98.52477,31.08901],[-98.52422,31.08882],[-98.523459,31.088886],[-98.51829,31.0927],[-98.517022,31.094319],[-98.516,31.096379],[-98.5131,31.103205],[-98.512212,31.105875],[-98.510899,31.106818],[-98.50872,31.10753],[-98.5067,31.10783],[-98.50535,31.10868],[-98.50418,31.11008],[-98.50083,31.11741],[-98.500327,31.117874],[-98.49893,31.11854],[-98.495547,31.118937],[-98.493612,31.118601],[-98.490289,31.115016],[-98.489203,31.114385],[-98.488249,31.11416],[-98.487414,31.114211],[-98.485781,31.115342],[-98.484071,31.1177],[-98.482881,31.118757],[-98.482,31.11918],[-98.480771,31.119217],[-98.479936,31.118751],[-98.479328,31.118071],[-98.475747,31.112056],[-98.473608,31.109459],[-98.47206,31.107866],[-98.470984,31.107187],[-98.470024,31.106888],[-98.468329,31.106741],[-98.466729,31.107095],[-98.465811,31.107566],[-98.462318,31.110495],[-98.45974,31.11198],[-98.45851,31.11222],[-98.45695,31.11201],[-98.455598,31.110905],[-98.455261,31.108151],[-98.455731,31.106955],[-98.457076,31.105936],[-98.461456,31.101174],[-98.464933,31.098912],[-98.469146,31.096645],[-98.47046,31.0952],[-98.470531,31.094441],[-98.470151,31.09319],[-98.46862,31.09211],[-98.46148,31.09039],[-98.45866,31.08933],[-98.45784,31.08872],[-98.45706,31.0877],[-98.45664,31.0866],[-98.45591,31.082739],[-98.456028,31.079609],[-98.456419,31.078699],[-98.457541,31.077713],[-98.460219,31.07651],[-98.462732,31.075961],[-98.470992,31.076706],[-98.472466,31.076255],[-98.472994,31.075926],[-98.474527,31.072441],[-98.47667,31.070177],[-98.478332,31.069565],[-98.481962,31.068941],[-98.482839,31.068411],[-98.48406,31.06697],[-98.48418,31.06446],[-98.48404,31.06301],[-98.48305,31.06014],[-98.48216,31.05922],[-98.48022,31.05803],[-98.479323,31.056664],[-98.47667,31.05413],[-98.47494,31.0528],[-98.46915,31.05008],[-98.46449,31.04758],[-98.45308,31.04435],[-98.44945,31.04263],[-98.44759,31.0414],[-98.44591,31.03987],[-98.44486,31.03855],[-98.443284,31.034903],[-98.43977,31.029907],[-98.4394,31.028241],[-98.439528,31.025125],[-98.440293,31.023184],[-98.441147,31.021785],[-98.442327,31.020476],[-98.445604,31.018051],[-98.448291,31.016703],[-98.451725,31.015449],[-98.456954,31.013157],[-98.458745,31.011545],[-98.459241,31.010378],[-98.459235,31.007745],[-98.458546,31.006184],[-98.454471,31.000991],[-98.446185,30.992898],[-98.442576,30.98619],[-98.441874,30.984324],[-98.442154,30.982496],[-98.443229,30.979735],[-98.452203,30.970227],[-98.452897,30.968727],[-98.452796,30.964399],[-98.450534,30.958646],[-98.44838,30.954316],[-98.454642,30.953253],[-98.462279,30.954324],[-98.469741,30.957542],[-98.47225,30.959488],[-98.477304,30.962248],[-98.486944,30.968094],[-98.500408,30.975029],[-98.503454,30.975898],[-98.511692,30.979701],[-98.517587,30.981967],[-98.521694,30.982978],[-98.523841,30.983861],[-98.539133,30.98891],[-98.547627,30.991325],[-98.553507,30.992248],[-98.557493,30.994068],[-98.567704,30.997551],[-98.568699,30.998119],[-98.584161,31.004234],[-98.589589,31.005192],[-98.592589,31.006319],[-98.600967,31.011993],[-98.605383,31.017773],[-98.61035,31.02273],[-98.611984,31.024088],[-98.615878,31.023982],[-98.63478,31.029861],[-98.636445,31.030575],[-98.646138,31.036474],[-98.644488,31.037697],[-98.640649,31.038669],[-98.638389,31.040612],[-98.638506,31.042832],[-98.637976,31.044536],[-98.63796,31.051538],[-98.63847,31.055311],[-98.63024,31.069409],[-98.628493,31.073879],[-98.628839,31.076587],[-98.627102,31.078567],[-98.623896,31.080489],[-98.622908,31.081379],[-98.622651,31.090663],[-98.62207,31.091798],[-98.624173,31.092716],[-98.624841,31.093602],[-98.624971,31.100406],[-98.62574,31.102118],[-98.623405,31.103023],[-98.622517,31.103111],[-98.621891,31.103425],[-98.621507,31.103348],[-98.62129,31.103854],[-98.619596,31.104812],[-98.618165,31.104895],[-98.617615,31.104456],[-98.617672,31.104148],[-98.618183,31.104131],[-98.619046,31.103278],[-98.618598,31.101919],[-98.617671,31.102481],[-98.616028,31.101321],[-98.615293,31.101574],[-98.613873,31.101305],[-98.61342,31.101746],[-98.613612,31.102697],[-98.613005,31.103093],[-98.612021,31.103171],[-98.611286,31.104106],[-98.611222,31.104387],[-98.612003,31.105288],[-98.611434,31.106609],[-98.609625,31.106703],[-98.609076,31.107143],[-98.609121,31.107809],[-98.608443,31.107704],[-98.607152,31.108101],[-98.606078,31.108866],[-98.60462,31.107546],[-98.603412,31.107464],[-98.602524,31.108306],[-98.599085,31.11016],[-98.597073,31.113764],[-98.595615,31.114732],[-98.593915,31.114331],[-98.591498,31.11311],[-98.590322,31.112979],[-98.588596,31.113463],[-98.587477,31.114657],[-98.585227,31.11551],[-98.583326,31.117721],[-98.582529,31.118338],[-98.580001,31.119297],[-98.578435,31.121883],[-98.578413,31.124003],[-98.57929,31.125328],[-98.581196,31.126472],[-98.582445,31.127592],[-98.582199,31.129137],[-98.579423,31.130763],[-98.579679,31.131023],[-98.579138,31.131197],[-98.578057,31.131252],[-98.57667,31.130641],[-98.574688,31.131049],[-98.573901,31.131709],[-98.573243,31.13398],[-98.572718,31.134305],[-98.569835,31.134476],[-98.567098,31.135059],[-98.566612,31.134206],[-98.565915,31.133854],[-98.564994,31.134025],[-98.563792,31.133546],[-98.562423,31.133447],[-98.561458,31.133871],[-98.560576,31.134795],[-98.559009,31.135719],[-98.557289,31.136082],[-98.555696,31.13683],[-98.554059,31.137055],[-98.550805,31.136037],[-98.549174,31.136257],[-98.547173,31.136142],[-98.546214,31.135366],[-98.543362,31.135041],[-98.542102,31.134469],[-98.541508,31.133842],[-98.541035,31.132714],[-98.543484,31.131114],[-98.54358,31.130861],[-98.541284,31.131152],[-98.532427,31.134808],[-98.530246,31.136006],[-98.528692,31.137211],[-98.527969,31.13809],[-98.527566,31.139581],[-98.527501,31.142749],[-98.527871,31.143816],[-98.528549,31.144757],[-98.5292,31.147188],[-98.52978,31.152287],[-98.529358,31.15391],[-98.528494,31.15513],[-98.526946,31.156071],[-98.525794,31.156378],[-98.523383,31.156103],[-98.521497,31.155376],[-98.517052,31.154802],[-98.514603,31.154747],[-98.511839,31.155235],[-98.510777,31.155697],[-98.508422,31.157929],[-98.504524,31.162806],[-98.504249,31.163994],[-98.504554,31.166029],[-98.50559,31.167069],[-98.507087,31.166811],[-98.508962,31.16602],[-98.513465,31.164872],[-98.514962,31.164631],[-98.517457,31.164516],[-98.519791,31.164863],[-98.521582,31.165678],[-98.527957,31.17189],[-98.53047,31.173447],[-98.532089,31.173843],[-98.541754,31.174401],[-98.542919,31.174737],[-98.543827,31.175265],[-98.544607,31.176513],[-98.544964,31.177959],[-98.544889,31.178741],[-98.544336,31.179965],[-98.54258,31.18152],[-98.539194,31.183407],[-98.536745,31.185219],[-98.535947,31.185984],[-98.535713,31.186929],[-98.536146,31.187639],[-98.538462,31.189695],[-98.539602,31.191873],[-98.540195,31.192536],[-98.542187,31.194108],[-98.543582,31.194444],[-98.544891,31.194251],[-98.551702,31.192016],[-98.552958,31.191708],[-98.555793,31.191549],[-98.557696,31.191903],[-98.560058,31.192669],[-98.560919,31.193215],[-98.562986,31.193978],[-98.56408,31.195425],[-98.569078,31.198186],[-98.569372,31.199176],[-98.569238,31.201117],[-98.569923,31.203109],[-98.569533,31.206183],[-98.568524,31.208023],[-98.567755,31.211898],[-98.566201,31.214509],[-98.564668,31.218439],[-98.5655,31.21545],[-98.567398,31.211892],[-98.568511,31.207057],[-98.5695,31.204394],[-98.569645,31.203269],[-98.5691,31.20079],[-98.56914,31.199003],[-98.568217,31.197825],[-98.563965,31.195594],[-98.56253,31.19456],[-98.559558,31.192975],[-98.55712,31.19215]]]}}]}