{"type":"FeatureCollection","features":[{"type":"Feature","properties":{"PRECINCT":"1","VTD":"0001"},"geometry":{"type":"Polygon","coordinates":[[[-100.995398,33.833696],[-100.926924,33.834258],[-100.847354,33.834526],[-100.847096,33.757899],[-100.846587,33.755887],[-100.841897,33.745407],[-100.841322,33.743293],[-100.841113,33.679478],[-100.840995,33.676879],[-100.839696,33.671565],[-100.839498,33.657256],[-100.839797,33.655403],[-100.841405,33.650452],[-100.841396,33.640634],[-100.840819,33.636866],[-100.841222,33.629978],[-100.84145,33.628737],[-100.843436,33.625186],[-100.843753,33.624117],[-100.844455,33.620102],[-100.844514,33.616297],[-100.851395,33.616234],[-100.852457,33.616534],[-100.854788,33.61804],[-100.856456,33.618727],[-100.858166,33.61978],[-100.858291,33.620545],[-100.860683,33.621664],[-100.879057,33.632827],[-100.881021,33.633416],[-100.906468,33.638619],[-100.906582,33.587952],[-100.898376,33.58795],[-100.89764,33.587515],[-100.89764,33.558369],[-100.899588,33.558647],[-100.899876,33.559159],[-100.899876,33.559977],[-100.900145,33.560225],[-100.901091,33.559895],[-100.901485,33.559384],[-100.901879,33.559313],[-100.903395,33.559984],[-100.904425,33.561952],[-100.905193,33.562122],[-100.905633,33.562474],[-100.905632,33.564293],[-100.905881,33.564964],[-100.907719,33.566712],[-100.907791,33.569026],[-100.908099,33.569213],[-100.909773,33.569268],[-100.910325,33.569653],[-100.910548,33.57034],[-100.912629,33.570242],[-100.914416,33.569519],[-100.916838,33.57088],[-100.917359,33.571516],[-100.919718,33.573119],[-100.920987,33.572799],[-100.922228,33.571689],[-100.922799,33.571573],[-100.924185,33.57181],[-100.925058,33.57281],[-100.92579,33.573237],[-100.925821,33.572014],[-100.927627,33.571304],[-100.928147,33.571213],[-100.929186,33.571442],[-100.930773,33.572014],[-100.932141,33.57206],[-100.933536,33.573572],[-100.935424,33.574442],[-100.937366,33.574969],[-100.939267,33.57506],[-100.939328,33.575434],[-100.937722,33.576671],[-100.937818,33.57708],[-100.938334,33.577729],[-100.938012,33.577224],[-100.938498,33.576476],[-100.939326,33.576432],[-100.939424,33.575542],[-100.940041,33.575712],[-100.941059,33.574915],[-100.941354,33.57547],[-100.941866,33.575322],[-100.942851,33.57348],[-100.943094,33.573415],[-100.943409,33.573805],[-100.943449,33.575008],[-100.944499,33.575184],[-100.94488,33.575514],[-100.944388,33.576289],[-100.944684,33.577454],[-100.944946,33.577641],[-100.945366,33.577454],[-100.945747,33.577971],[-100.946621,33.578025],[-100.945229,33.578965],[-100.945951,33.582148],[-100.946937,33.582813],[-100.947731,33.582637],[-100.948775,33.582015],[-100.951159,33.582152],[-100.951776,33.582515],[-100.950515,33.582543],[-100.951034,33.582999],[-100.952315,33.582971],[-100.953326,33.583405],[-100.953123,33.584411],[-100.954508,33.584208],[-100.954771,33.583729],[-100.955592,33.583702],[-100.955795,33.583927],[-100.955014,33.584021],[-100.954777,33.584488],[-100.95399,33.584812],[-100.953819,33.585252],[-100.954042,33.585735],[-100.955205,33.585906],[-100.955264,33.586433],[-100.955888,33.586898],[-101.007312,33.586079],[-101.007398,33.587393],[-101.008685,33.58684],[-101.010461,33.586611],[-101.011917,33.590786],[-101.012814,33.590787],[-101.012381,33.590967],[-101.014214,33.591517],[-101.015746,33.592296],[-101.01736,33.59248],[-101.021054,33.593832],[-101.022284,33.595275],[-101.024857,33.596444],[-101.026553,33.598162],[-101.027128,33.598437],[-101.027538,33.598872],[-101.027729,33.60091],[-101.026771,33.601941],[-101.026797,33.603315],[-101.027153,33.603791],[-101.028025,33.603859],[-101.030312,33.60467],[-101.031045,33.604677],[-101.031595,33.60512],[-101.032011,33.606056],[-101.031511,33.607169],[-101.030904,33.607178],[-101.030662,33.606864],[-101.029727,33.606833],[-101.028985,33.607447],[-101.026914,33.607599],[-101.025181,33.608787],[-101.022335,33.608695],[-101.018868,33.607674],[-101.025339,33.617534],[-101.028693,33.621404],[-101.029909,33.623176],[-101.033351,33.625411],[-101.039271,33.630546],[-101.039954,33.631374],[-101.041158,33.833625],[-100.995398,33.833696]]]}},{"type":"Feature","properties":{"PRECINCT":"2","VTD":"0002"},"geometry":{"type":"Polygon","coordinates":[[[-100.847354,33.834526],[-100.671664,33.83536],[-100.518691,33.83565],[-100.518166,33.689954],[-100.523088,33.689768],[-100.533197,33.691351],[-100.533005,33.690573],[-100.53579,33.690765],[-100.538157,33.690623],[-100.540837,33.687427],[-100.542169,33.686864],[-100.545677,33.683914],[-100.546044,33.682393],[-100.54931,33.677482],[-100.551128,33.676716],[-100.553059,33.675169],[-100.55595,33.674674],[-100.564333,33.674872],[-100.568157,33.674727],[-100.567308,33.678368],[-100.565473,33.680933],[-100.563966,33.683727],[-100.562542,33.691057],[-100.559665,33.698615],[-100.559637,33.699004],[-100.563146,33.70063],[-100.605728,33.700507],[-100.613154,33.699084],[-100.613564,33.698374],[-100.614085,33.698259],[-100.617592,33.698739],[-100.621301,33.700449],[-100.62617,33.700429],[-100.626711,33.699617],[-100.626846,33.691485],[-100.627302,33.691293],[-100.632878,33.691162],[-100.63338,33.691252],[-100.633626,33.692191],[-100.633379,33.695145],[-100.635188,33.694322],[-100.637763,33.69359],[-100.639927,33.695103],[-100.641214,33.696822],[-100.64135,33.697875],[-100.643596,33.700257],[-100.648567,33.700335],[-100.648581,33.700121],[-100.652406,33.69996],[-100.656094,33.699477],[-100.659509,33.699592],[-100.660656,33.700003],[-100.660654,33.691049],[-100.667837,33.690889],[-100.668145,33.690707],[-100.668009,33.676514],[-100.700349,33.67627],[-100.702672,33.675904],[-100.754339,33.67599],[-100.754275,33.654469],[-100.756545,33.654236],[-100.761423,33.654243],[-100.762527,33.653745],[-100.762984,33.652993],[-100.762975,33.635208],[-100.762738,33.634521],[-100.761231,33.633248],[-100.760903,33.632617],[-100.760909,33.621626],[-100.783751,33.624007],[-100.81201,33.62492],[-100.814114,33.625192],[-100.818442,33.626339],[-100.821634,33.626251],[-100.825016,33.625122],[-100.824857,33.627457],[-100.831641,33.627211],[-100.836306,33.627492],[-100.836285,33.625823],[-100.843127,33.625798],[-100.84145,33.628737],[-100.84113,33.630608],[-100.840819,33.636866],[-100.841396,33.640634],[-100.841435,33.649903],[-100.841343,33.651055],[-100.839557,33.656583],[-100.839604,33.668727],[-100.839696,33.671565],[-100.841074,33.677639],[-100.841322,33.743293],[-100.841897,33.745407],[-100.846587,33.755887],[-100.847096,33.757899],[-100.847354,33.834526]]]}},{"type":"Feature","properties":{"PRECINCT":"6","VTD":"0006"},"geometry":{"type":"Polygon","coordinates":[[[-100.858166,33.61978],[-100.853139,33.616958],[-100.861892,33.616945],[-100.861785,33.5735],[-100.843919,33.573458],[-100.843531,33.544279],[-100.843659,33.527338],[-100.843374,33.515408],[-100.825423,33.515487],[-100.824924,33.479317],[-100.831605,33.479227],[-100.832306,33.478764],[-100.833219,33.4774],[-100.833779,33.477697],[-100.834953,33.479056],[-100.832999,33.480645],[-100.833012,33.481375],[-100.833439,33.482419],[-100.834056,33.48276],[-100.835191,33.484178],[-100.835683,33.484254],[-100.837768,33.483018],[-100.838208,33.482979],[-100.839894,33.483846],[-100.84057,33.484769],[-100.843246,33.484737],[-100.843443,33.485473],[-100.843201,33.485912],[-100.844001,33.486292],[-100.846415,33.48617],[-100.847786,33.486956],[-100.848941,33.486972],[-100.849774,33.486631],[-100.849786,33.485993],[-100.852128,33.486416],[-100.852541,33.486322],[-100.852863,33.485788],[-100.853289,33.485661],[-100.85468,33.486047],[-100.854772,33.486288],[-100.854378,33.486679],[-100.854595,33.487018],[-100.85652,33.487564],[-100.856505,33.486305],[-100.857218,33.48594],[-100.857039,33.484859],[-100.857264,33.484571],[-100.859004,33.486651],[-100.859703,33.485326],[-100.862445,33.486261],[-100.869925,33.486241],[-100.869872,33.482734],[-100.862317,33.480145],[-100.86285,33.479089],[-100.862422,33.478935],[-100.873355,33.479038],[-100.930087,33.499581],[-100.932215,33.50078],[-100.933272,33.501821],[-100.939152,33.510464],[-100.940124,33.51158],[-100.946307,33.515898],[-100.961075,33.524844],[-100.962781,33.526597],[-100.964121,33.529083],[-100.933359,33.529319],[-100.933443,33.537939],[-100.933745,33.538778],[-100.933477,33.539408],[-100.933559,33.54385],[-100.915547,33.544022],[-100.915672,33.558487],[-100.900206,33.558653],[-100.89841,33.558124],[-100.897633,33.557342],[-100.89764,33.587515],[-100.898376,33.58795],[-100.906582,33.587952],[-100.906468,33.638619],[-100.881021,33.633416],[-100.879057,33.632827],[-100.860683,33.621664],[-100.858291,33.620545],[-100.858166,33.61978]]]}},{"type":"Feature","properties":{"PRECINCT":"3","VTD":"0003"},"geometry":{"type":"MultiPolygon","coordinates":[[[[-100.842554,33.468617],[-100.840396,33.46735],[-100.814502,33.457977],[-100.815856,33.459837],[-100.815931,33.46038],[-100.816,33.471774],[-100.815701,33.472064],[-100.807101,33.472065],[-100.807223,33.478893],[-100.807476,33.479286],[-100.824924,33.479317],[-100.825423,33.515487],[-100.843374,33.515408],[-100.843659,33.527338],[-100.843531,33.544279],[-100.843811,33.573462],[-100.7817,33.573714],[-100.781293,33.573436],[-100.781302,33.571494],[-100.780268,33.571507],[-100.778654,33.571919],[-100.775535,33.570795],[-100.773154,33.570268],[-100.772662,33.570268],[-100.770883,33.571023],[-100.768968,33.570793],[-100.767983,33.571343],[-100.76459,33.571616],[-100.763223,33.571043],[-100.762786,33.5696],[-100.762212,33.569096],[-100.760707,33.569393],[-100.756713,33.569094],[-100.756386,33.565956],[-100.754773,33.565429],[-100.753514,33.56584],[-100.749954,33.565836],[-100.749914,33.567485],[-100.750731,33.567946],[-100.750404,33.568437],[-100.749104,33.569432],[-100.748065,33.569799],[-100.746506,33.570785],[-100.744806,33.57221],[-100.732283,33.572279],[-100.731405,33.571754],[-100.729878,33.572292],[-100.720422,33.572343],[-100.720295,33.570943],[-100.699064,33.570867],[-100.698708,33.568783],[-100.699228,33.567684],[-100.699447,33.565349],[-100.698653,33.563402],[-100.698652,33.562805],[-100.699332,33.560767],[-100.699385,33.559529],[-100.700092,33.557789],[-100.699899,33.556116],[-100.700909,33.555291],[-100.701372,33.554443],[-100.701317,33.553755],[-100.699798,33.551056],[-100.698897,33.550736],[-100.698432,33.550049],[-100.697885,33.548675],[-100.697775,33.547095],[-100.697283,33.545651],[-100.698597,33.545972],[-100.699833,33.546712],[-100.700142,33.547283],[-100.700773,33.547597],[-100.702075,33.547857],[-100.702698,33.548377],[-100.703244,33.548353],[-100.704582,33.548947],[-100.707343,33.548648],[-100.707507,33.548167],[-100.707317,33.546977],[-100.707644,33.545189],[-100.706468,33.543726],[-100.706633,33.542969],[-100.708712,33.542786],[-100.709532,33.541939],[-100.711037,33.542029],[-100.712377,33.541389],[-100.713772,33.541182],[-100.715031,33.541272],[-100.716317,33.540838],[-100.717165,33.541204],[-100.71897,33.541342],[-100.721979,33.540311],[-100.723128,33.540173],[-100.72403,33.540309],[-100.724386,33.540058],[-100.725342,33.538294],[-100.72567,33.536989],[-100.726873,33.536735],[-100.731794,33.534238],[-100.733161,33.532474],[-100.734336,33.531626],[-100.736086,33.531236],[-100.737453,33.531281],[-100.738985,33.531785],[-100.740024,33.530707],[-100.740897,33.527661],[-100.740869,33.526379],[-100.740375,33.52473],[-100.740948,33.521616],[-100.741876,33.519623],[-100.743762,33.518408],[-100.740972,33.517608],[-100.739714,33.516921],[-100.736077,33.51596],[-100.708527,33.516366],[-100.70745,33.517342],[-100.70715,33.518281],[-100.705837,33.518693],[-100.704853,33.519587],[-100.703705,33.519908],[-100.702529,33.520847],[-100.700397,33.52348],[-100.699194,33.524237],[-100.697007,33.525063],[-100.696431,33.52552],[-100.693068,33.529505],[-100.691537,33.531911],[-100.691045,33.534202],[-100.691209,33.535393],[-100.690361,33.536766],[-100.689737,33.537115],[-100.689534,33.537055],[-100.689501,33.536521],[-100.688497,33.535659],[-100.687919,33.534312],[-100.68555,33.534433],[-100.684821,33.534774],[-100.683974,33.534692],[-100.683003,33.532916],[-100.680975,33.531185],[-100.679833,33.531559],[-100.676381,33.531514],[-100.673611,33.530744],[-100.672679,33.529809],[-100.672305,33.528869],[-100.673067,33.527628],[-100.671774,33.527133],[-100.668921,33.527406],[-100.667856,33.527237],[-100.666694,33.527654],[-100.664278,33.529116],[-100.661647,33.528675],[-100.659462,33.526916],[-100.657756,33.524448],[-100.656516,33.523541],[-100.654672,33.522881],[-100.652611,33.523864],[-100.65198,33.525039],[-100.651094,33.525452],[-100.650247,33.526227],[-100.649414,33.526524],[-100.647399,33.526474],[-100.646717,33.525962],[-100.646304,33.524665],[-100.643739,33.52174],[-100.642427,33.520865],[-100.642073,33.520255],[-100.641036,33.519809],[-100.638207,33.520528],[-100.637151,33.520539],[-100.635831,33.521561],[-100.634105,33.522302],[-100.632949,33.522548],[-100.632313,33.52201],[-100.631859,33.520652],[-100.6325,33.520378],[-100.635154,33.517608],[-100.634883,33.514653],[-100.635402,33.514424],[-100.636606,33.512363],[-100.637263,33.512089],[-100.639587,33.511837],[-100.639942,33.511563],[-100.640353,33.510807],[-100.64008,33.509272],[-100.640491,33.50799],[-100.64216,33.505792],[-100.64216,33.505516],[-100.644129,33.504371],[-100.645716,33.501876],[-100.645908,33.500663],[-100.64553,33.500085],[-100.645557,33.499602],[-100.645913,33.499229],[-100.646541,33.499093],[-100.646542,33.498337],[-100.647362,33.497214],[-100.647499,33.496389],[-100.646844,33.494259],[-100.645231,33.494557],[-100.643126,33.49458],[-100.642279,33.494396],[-100.640284,33.493433],[-100.638206,33.493752],[-100.635774,33.493226],[-100.631264,33.490796],[-100.62864,33.490679],[-100.625398,33.488731],[-100.624373,33.487837],[-100.623225,33.487746],[-100.622021,33.48612],[-100.619069,33.485732],[-100.617975,33.484954],[-100.617838,33.483534],[-100.615185,33.480832],[-100.612067,33.479368],[-100.610864,33.477927],[-100.610426,33.476598],[-100.610043,33.476278],[-100.607993,33.475889],[-100.607173,33.47534],[-100.605696,33.472935],[-100.60441,33.471767],[-100.602361,33.472318],[-100.599957,33.474243],[-100.599192,33.47461],[-100.596678,33.475296],[-100.597306,33.473832],[-100.597168,33.470945],[-100.599599,33.468151],[-100.600172,33.466478],[-100.6005,33.466135],[-100.601968,33.465502],[-100.602987,33.462035],[-100.602274,33.46011],[-100.602598,33.457819],[-100.602926,33.457611],[-100.606121,33.457656],[-100.607932,33.457223],[-100.610295,33.458059],[-100.612335,33.457865],[-100.613521,33.457518],[-100.613987,33.457155],[-100.615429,33.456924],[-100.616498,33.456176],[-100.617724,33.455762],[-100.618668,33.454932],[-100.619146,33.454059],[-100.619355,33.452683],[-100.618533,33.450381],[-100.617247,33.449222],[-100.616768,33.448392],[-100.614944,33.447013],[-100.614183,33.445892],[-100.612605,33.445166],[-100.612264,33.443523],[-100.61076,33.441487],[-100.611033,33.440455],[-100.611634,33.4405],[-100.612454,33.441302],[-100.614585,33.442034],[-100.615487,33.44263],[-100.618356,33.442766],[-100.618957,33.442971],[-100.622018,33.445375],[-100.624644,33.449931],[-100.62861,33.452294],[-100.629839,33.452798],[-100.631205,33.452959],[-100.632243,33.452523],[-100.631533,33.451562],[-100.632163,33.449525],[-100.6317,33.447876],[-100.633612,33.448357],[-100.634705,33.448152],[-100.636564,33.445999],[-100.638859,33.44568],[-100.640636,33.443413],[-100.640991,33.442703],[-100.640883,33.441626],[-100.641949,33.440161],[-100.642441,33.438626],[-100.642469,33.437939],[-100.641978,33.436565],[-100.642115,33.435626],[-100.644383,33.433954],[-100.645121,33.432969],[-100.645886,33.432581],[-100.649,33.431803],[-100.650585,33.430796],[-100.651023,33.429628],[-100.650996,33.427795],[-100.652526,33.42578],[-100.652937,33.423215],[-100.653893,33.422345],[-100.655428,33.421523],[-100.655245,33.411145],[-100.650555,33.409455],[-100.642047,33.404927],[-100.642894,33.404179],[-100.644861,33.403401],[-100.646418,33.402073],[-100.646746,33.40086],[-100.647393,33.400368],[-100.647122,33.399051],[-100.731152,33.39898],[-100.750325,33.398285],[-100.859554,33.39813],[-100.859448,33.398635],[-100.85727,33.398681],[-100.857058,33.399015],[-100.857599,33.416617],[-100.85781,33.416857],[-100.859751,33.416822],[-100.860076,33.417017],[-100.860246,33.429147],[-100.860823,33.428192],[-100.862037,33.427768],[-100.878153,33.427684],[-100.878619,33.464222],[-100.860665,33.464314],[-100.860721,33.469223],[-100.862874,33.469985],[-100.862424,33.470855],[-100.862779,33.471086],[-100.86027,33.475645],[-100.85903,33.475251],[-100.858484,33.476255],[-100.85227,33.474035],[-100.853324,33.471955],[-100.853896,33.472126],[-100.854953,33.470036],[-100.842681,33.462823],[-100.842809,33.46732],[-100.842554,33.468617]]],[[[-100.857264,33.484571],[-100.857039,33.484859],[-100.857218,33.48594],[-100.856505,33.486305],[-100.85652,33.487564],[-100.854595,33.487018],[-100.854378,33.486679],[-100.854772,33.486288],[-100.85468,33.486047],[-100.853289,33.485661],[-100.852863,33.485788],[-100.852541,33.486322],[-100.852128,33.486416],[-100.849786,33.485993],[-100.849774,33.486631],[-100.848941,33.486972],[-100.847786,33.486956],[-100.846415,33.48617],[-100.844001,33.486292],[-100.843201,33.485912],[-100.843443,33.485473],[-100.843246,33.484737],[-100.84057,33.484769],[-100.839894,33.483846],[-100.838208,33.482979],[-100.837768,33.483018],[-100.835473,33.484294],[-100.834679,33.483689],[-100.833924,33.482633],[-100.833439,33.482419],[-100.833012,33.481375],[-100.832999,33.480645],[-100.834953,33.479056],[-100.833779,33.477697],[-100.833219,33.4774],[-100.833627,33.477041],[-100.836307,33.476233],[-100.842688,33.476132],[-100.842625,33.472593],[-100.842298,33.472606],[-100.842279,33.470115],[-100.84258,33.470117],[-100.842413,33.468609],[-100.843233,33.469521],[-100.844817,33.472628],[-100.848543,33.47394],[-100.847979,33.475065],[-100.849005,33.475428],[-100.848402,33.476655],[-100.849273,33.47697],[-100.850481,33.474629],[-100.852961,33.475513],[-100.852387,33.476627],[-100.851157,33.476191],[-100.85068,33.477114],[-100.851904,33.477562],[-100.851748,33.477866],[-100.852996,33.478316],[-100.854205,33.475957],[-100.856701,33.476906],[-100.856154,33.477961],[-100.857397,33.478402],[-100.857932,33.477345],[-100.859174,33.477789],[-100.857986,33.480112],[-100.856754,33.479673],[-100.855468,33.482177],[-100.857264,33.484571]]],[[[-100.859004,33.486651],[-100.857264,33.484571],[-100.857998,33.483159],[-100.860373,33.483998],[-100.861671,33.481426],[-100.86046,33.480995],[-100.861116,33.47972],[-100.869872,33.482734],[-100.869925,33.486241],[-100.862445,33.486261],[-100.859703,33.485326],[-100.859004,33.486651]]]]}},{"type":"Feature","properties":{"PRECINCT":"5","VTD":"0005"},"geometry":{"type":"Polygon","coordinates":[[[-100.605728,33.700507],[-100.563612,33.700699],[-100.562104,33.700218],[-100.559637,33.699004],[-100.560158,33.696943],[-100.562542,33.691057],[-100.563966,33.683727],[-100.565473,33.680933],[-100.567308,33.678368],[-100.568157,33.674727],[-100.564333,33.674872],[-100.55595,33.674674],[-100.553059,33.675169],[-100.551128,33.676716],[-100.54931,33.677482],[-100.546044,33.682393],[-100.545677,33.683914],[-100.542169,33.686864],[-100.540837,33.687427],[-100.538157,33.690623],[-100.53579,33.690765],[-100.533005,33.690573],[-100.533197,33.691351],[-100.523088,33.689768],[-100.518166,33.689954],[-100.518008,33.547292],[-100.517855,33.503155],[-100.517579,33.500085],[-100.517449,33.397866],[-100.623781,33.399049],[-100.647122,33.399051],[-100.647393,33.400368],[-100.646746,33.40086],[-100.646418,33.402073],[-100.644861,33.403401],[-100.642894,33.404179],[-100.642047,33.404927],[-100.650555,33.409455],[-100.655245,33.411145],[-100.655428,33.421523],[-100.653893,33.422345],[-100.652937,33.423215],[-100.652526,33.42578],[-100.650996,33.427795],[-100.651023,33.429628],[-100.650585,33.430796],[-100.649,33.431803],[-100.645886,33.432581],[-100.645121,33.432969],[-100.644383,33.433954],[-100.642115,33.435626],[-100.641978,33.436565],[-100.642469,33.437939],[-100.642441,33.438626],[-100.641949,33.440161],[-100.640883,33.441626],[-100.640991,33.442703],[-100.640636,33.443413],[-100.638859,33.44568],[-100.636564,33.445999],[-100.634705,33.448152],[-100.633612,33.448357],[-100.6317,33.447876],[-100.632163,33.449525],[-100.631533,33.451562],[-100.632243,33.452523],[-100.631205,33.452959],[-100.629839,33.452798],[-100.62861,33.452294],[-100.624644,33.449931],[-100.622018,33.445375],[-100.618957,33.442971],[-100.618356,33.442766],[-100.615487,33.44263],[-100.614585,33.442034],[-100.612454,33.441302],[-100.611634,33.4405],[-100.611033,33.440455],[-100.61076,33.441487],[-100.612264,33.443523],[-100.612605,33.445166],[-100.614183,33.445892],[-100.614944,33.447013],[-100.616768,33.448392],[-100.617247,33.449222],[-100.618533,33.450381],[-100.619355,33.452683],[-100.619146,33.454059],[-100.618668,33.454932],[-100.617724,33.455762],[-100.616498,33.456176],[-100.615429,33.456924],[-100.613987,33.457155],[-100.613521,33.457518],[-100.612335,33.457865],[-100.610295,33.458059],[-100.607932,33.457223],[-100.606121,33.457656],[-100.602926,33.457611],[-100.602598,33.457819],[-100.602274,33.46011],[-100.602987,33.462035],[-100.601968,33.465502],[-100.6005,33.466135],[-100.600172,33.466478],[-100.599599,33.468151],[-100.597414,33.470556],[-100.597086,33.471381],[-100.597306,33.473832],[-100.596678,33.475296],[-100.599192,33.47461],[-100.599957,33.474243],[-100.602361,33.472318],[-100.60441,33.471767],[-100.605696,33.472935],[-100.607173,33.47534],[-100.607993,33.475889],[-100.610043,33.476278],[-100.610426,33.476598],[-100.610864,33.477927],[-100.612067,33.479368],[-100.615185,33.480832],[-100.617838,33.483534],[-100.617975,33.484954],[-100.618194,33.485183],[-100.619069,33.485732],[-100.622021,33.48612],[-100.623225,33.487746],[-100.624373,33.487837],[-100.625398,33.488731],[-100.62864,33.490679],[-100.631264,33.490796],[-100.635774,33.493226],[-100.63755,33.493639],[-100.638671,33.49373],[-100.640284,33.493433],[-100.642279,33.494396],[-100.643126,33.49458],[-100.645231,33.494557],[-100.646844,33.494259],[-100.647499,33.496389],[-100.647362,33.497214],[-100.646542,33.498337],[-100.646541,33.499093],[-100.645913,33.499229],[-100.645557,33.499602],[-100.64553,33.500085],[-100.645908,33.500663],[-100.645716,33.501876],[-100.644129,33.504371],[-100.64216,33.505516],[-100.64216,33.505792],[-100.640491,33.50799],[-100.64008,33.509272],[-100.640353,33.510807],[-100.639942,33.511563],[-100.639587,33.511837],[-100.637263,33.512089],[-100.636606,33.512363],[-100.635402,33.514424],[-100.634883,33.514653],[-100.635154,33.517608],[-100.6325,33.520378],[-100.631859,33.520652],[-100.632398,33.522142],[-100.632949,33.522548],[-100.634105,33.522302],[-100.635831,33.521561],[-100.637151,33.520539],[-100.638207,33.520528],[-100.641036,33.519809],[-100.642073,33.520255],[-100.642427,33.520865],[-100.643739,33.52174],[-100.646304,33.524665],[-100.646717,33.525962],[-100.647399,33.526474],[-100.649414,33.526524],[-100.650247,33.526227],[-100.651094,33.525452],[-100.65198,33.525039],[-100.652611,33.523864],[-100.654672,33.522881],[-100.656516,33.523541],[-100.657756,33.524448],[-100.659462,33.526916],[-100.661647,33.528675],[-100.664278,33.529116],[-100.666694,33.527654],[-100.667856,33.527237],[-100.668921,33.527406],[-100.671774,33.527133],[-100.673067,33.527628],[-100.672305,33.528869],[-100.672679,33.529809],[-100.673611,33.530744],[-100.676381,33.531514],[-100.679833,33.531559],[-100.680975,33.531185],[-100.683003,33.532916],[-100.683974,33.534692],[-100.684821,33.534774],[-100.68555,33.534433],[-100.687919,33.534312],[-100.688497,33.535659],[-100.689501,33.536521],[-100.689534,33.537055],[-100.689737,33.537115],[-100.690361,33.536766],[-100.691209,33.535393],[-100.691045,33.534202],[-100.691537,33.531911],[-100.693068,33.529505],[-100.696431,33.52552],[-100.697007,33.525063],[-100.699194,33.524237],[-100.700397,33.52348],[-100.702529,33.520847],[-100.703705,33.519908],[-100.704853,33.519587],[-100.705837,33.518693],[-100.70715,33.518281],[-100.70745,33.517342],[-100.708527,33.516366],[-100.736077,33.51596],[-100.739714,33.516921],[-100.740972,33.517608],[-100.743625,33.518338],[-100.743653,33.518591],[-100.741876,33.519623],[-100.740948,33.521616],[-100.740375,33.52473],[-100.740869,33.526379],[-100.740897,33.527661],[-100.740024,33.530707],[-100.738985,33.531785],[-100.737453,33.531281],[-100.736086,33.531236],[-100.734336,33.531626],[-100.733161,33.532474],[-100.731794,33.534238],[-100.726873,33.536735],[-100.72567,33.536989],[-100.725342,33.538294],[-100.724386,33.540058],[-100.72403,33.540309],[-100.723128,33.540173],[-100.721979,33.540311],[-100.71897,33.541342],[-100.717165,33.541204],[-100.716317,33.540838],[-100.715031,33.541272],[-100.713772,33.541182],[-100.712377,33.541389],[-100.711037,33.542029],[-100.709532,33.541939],[-100.708712,33.542786],[-100.706633,33.542969],[-100.706468,33.543726],[-100.707644,33.545189],[-100.707317,33.546977],[-100.707507,33.548167],[-100.707343,33.548648],[-100.704582,33.548947],[-100.703244,33.548353],[-100.702698,33.548377],[-100.702075,33.547857],[-100.700773,33.547597],[-100.700142,33.547283],[-100.699833,33.546712],[-100.698597,33.545972],[-100.697283,33.545651],[-100.697775,33.547095],[-100.697885,33.548675],[-100.698432,33.550049],[-100.698897,33.550736],[-100.699798,33.551056],[-100.701317,33.553755],[-100.701372,33.554443],[-100.700909,33.555291],[-100.699899,33.556116],[-100.700092,33.557789],[-100.699385,33.559529],[-100.699332,33.560767],[-100.698652,33.562805],[-100.698653,33.563402],[-100.699447,33.565349],[-100.699228,33.567684],[-100.698708,33.568783],[-100.699064,33.570867],[-100.720295,33.570943],[-100.720422,33.572343],[-100.729878,33.572292],[-100.731405,33.571754],[-100.732283,33.572279],[-100.744806,33.57221],[-100.746506,33.570785],[-100.748065,33.569799],[-100.749104,33.569432],[-100.750404,33.568437],[-100.750731,33.567946],[-100.749914,33.567485],[-100.749954,33.565836],[-100.753514,33.56584],[-100.754773,33.565429],[-100.756386,33.565956],[-100.756713,33.569094],[-100.760707,33.569393],[-100.762212,33.569096],[-100.762786,33.5696],[-100.763223,33.571043],[-100.76459,33.571616],[-100.767983,33.571343],[-100.768968,33.570793],[-100.770883,33.571023],[-100.772662,33.570268],[-100.773154,33.570268],[-100.775535,33.570795],[-100.778654,33.571919],[-100.780268,33.571507],[-100.781302,33.571494],[-100.781293,33.573436],[-100.7817,33.573714],[-100.861761,33.573442],[-100.861892,33.616945],[-100.853139,33.616958],[-100.851395,33.616234],[-100.844514,33.616297],[-100.844455,33.620102],[-100.843753,33.624117],[-100.843127,33.625798],[-100.836285,33.625823],[-100.836306,33.627492],[-100.831641,33.627211],[-100.824857,33.627457],[-100.825016,33.625122],[-100.821634,33.626251],[-100.818442,33.626339],[-100.814114,33.625192],[-100.81201,33.62492],[-100.783751,33.624007],[-100.760909,33.621626],[-100.760903,33.632617],[-100.761231,33.633248],[-100.762738,33.634521],[-100.762975,33.635208],[-100.762984,33.652993],[-100.762527,33.653745],[-100.761423,33.654243],[-100.756545,33.654236],[-100.754275,33.654469],[-100.754339,33.67599],[-100.702672,33.675904],[-100.700349,33.67627],[-100.668009,33.676514],[-100.668145,33.690707],[-100.667837,33.690889],[-100.660654,33.691049],[-100.660656,33.700003],[-100.659509,33.699592],[-100.656094,33.699477],[-100.652406,33.69996],[-100.648581,33.700121],[-100.648567,33.700335],[-100.643596,33.700257],[-100.64135,33.697875],[-100.641214,33.696822],[-100.639927,33.695103],[-100.637763,33.69359],[-100.635188,33.694322],[-100.633379,33.695145],[-100.633626,33.692191],[-100.63338,33.691252],[-100.632878,33.691162],[-100.627302,33.691293],[-100.626846,33.691485],[-100.626711,33.699617],[-100.62617,33.700429],[-100.621301,33.700449],[-100.617592,33.698739],[-100.614085,33.698259],[-100.613564,33.698374],[-100.613154,33.699084],[-100.605728,33.700507]]]}},{"type":"Feature","properties":{"PRECINCT":"4","VTD":"0004"},"geometry":{"type":"MultiPolygon","coordinates":[[[[-100.842466,33.468653],[-100.842809,33.46732],[-100.842681,33.462823],[-100.854953,33.470036],[-100.853896,33.472126],[-100.853324,33.471955],[-100.85227,33.474035],[-100.858484,33.476255],[-100.85903,33.475251],[-100.86027,33.475645],[-100.862779,33.471086],[-100.862424,33.470855],[-100.862874,33.469985],[-100.860721,33.469223],[-100.860665,33.464314],[-100.878619,33.464222],[-100.878153,33.427684],[-100.862037,33.427768],[-100.860823,33.428192],[-100.860246,33.429147],[-100.860076,33.417017],[-100.859751,33.416822],[-100.85781,33.416857],[-100.857599,33.416617],[-100.857186,33.398711],[-100.859351,33.398659],[-100.859554,33.39813],[-100.875406,33.397988],[-100.948856,33.397458],[-100.993221,33.397514],[-101.00176,33.397179],[-101.038788,33.397214],[-101.038855,33.500088],[-101.039954,33.631374],[-101.039271,33.630546],[-101.033351,33.625411],[-101.029909,33.623176],[-101.028693,33.621404],[-101.025339,33.617534],[-101.018868,33.607674],[-101.021568,33.608534],[-101.02436,33.608833],[-101.025619,33.608627],[-101.026914,33.607599],[-101.028985,33.607447],[-101.029727,33.606833],[-101.030662,33.606864],[-101.030904,33.607178],[-101.031511,33.607169],[-101.032011,33.606056],[-101.031595,33.60512],[-101.031045,33.604677],[-101.030312,33.60467],[-101.028025,33.603859],[-101.027153,33.603791],[-101.026797,33.603315],[-101.026771,33.601941],[-101.027729,33.60091],[-101.027538,33.598872],[-101.024857,33.596444],[-101.022284,33.595275],[-101.021054,33.593832],[-101.01736,33.59248],[-101.015746,33.592296],[-101.014214,33.591517],[-101.012381,33.590967],[-101.012814,33.590787],[-101.011917,33.590786],[-101.010461,33.586611],[-101.008685,33.58684],[-101.007398,33.587393],[-101.007312,33.586079],[-100.955888,33.586898],[-100.955264,33.586433],[-100.955205,33.585906],[-100.954042,33.585735],[-100.953819,33.585252],[-100.95399,33.584812],[-100.954777,33.584488],[-100.955014,33.584021],[-100.955795,33.583927],[-100.955592,33.583702],[-100.954771,33.583729],[-100.954508,33.584208],[-100.953123,33.584411],[-100.953326,33.583405],[-100.952315,33.582971],[-100.951034,33.582999],[-100.950515,33.582543],[-100.951776,33.582515],[-100.951159,33.582152],[-100.948775,33.582015],[-100.947731,33.582637],[-100.946937,33.582813],[-100.945951,33.582148],[-100.945229,33.578965],[-100.946621,33.578025],[-100.945747,33.577971],[-100.945366,33.577454],[-100.944946,33.577641],[-100.944684,33.577454],[-100.944388,33.576289],[-100.94488,33.575514],[-100.944499,33.575184],[-100.943449,33.575008],[-100.943409,33.573805],[-100.943094,33.573415],[-100.942851,33.57348],[-100.941866,33.575322],[-100.941354,33.57547],[-100.941059,33.574915],[-100.940041,33.575712],[-100.939424,33.575542],[-100.939326,33.576432],[-100.938498,33.576476],[-100.938012,33.577224],[-100.938334,33.577729],[-100.937818,33.57708],[-100.937722,33.576671],[-100.939328,33.575434],[-100.939267,33.57506],[-100.937366,33.574969],[-100.935424,33.574442],[-100.933536,33.573572],[-100.932141,33.57206],[-100.930773,33.572014],[-100.929186,33.571442],[-100.928147,33.571213],[-100.927627,33.571304],[-100.925821,33.572014],[-100.92579,33.573237],[-100.925058,33.57281],[-100.924185,33.57181],[-100.922799,33.571573],[-100.922228,33.571689],[-100.920987,33.572799],[-100.919718,33.573119],[-100.917359,33.571516],[-100.916838,33.57088],[-100.914416,33.569519],[-100.912629,33.570242],[-100.910778,33.570412],[-100.910384,33.570219],[-100.910325,33.569653],[-100.909773,33.569268],[-100.907961,33.569175],[-100.907738,33.568944],[-100.907719,33.566712],[-100.905698,33.564645],[-100.905508,33.562309],[-100.904425,33.561952],[-100.903474,33.560066],[-100.902489,33.559445],[-100.901563,33.55934],[-100.901091,33.559895],[-100.900408,33.560225],[-100.899974,33.560131],[-100.899588,33.558647],[-100.89764,33.558369],[-100.897633,33.557342],[-100.89841,33.558124],[-100.900206,33.558653],[-100.915672,33.558487],[-100.915547,33.544022],[-100.933559,33.54385],[-100.933477,33.539408],[-100.933745,33.538778],[-100.933443,33.537939],[-100.933359,33.529319],[-100.964121,33.529083],[-100.962781,33.526597],[-100.961837,33.525505],[-100.959908,33.524044],[-100.946307,33.515898],[-100.940124,33.51158],[-100.939152,33.510464],[-100.933272,33.501821],[-100.932215,33.50078],[-100.930447,33.499751],[-100.90754,33.491287],[-100.873355,33.479038],[-100.862422,33.478935],[-100.86285,33.479089],[-100.862317,33.480145],[-100.861116,33.47972],[-100.86046,33.480995],[-100.861671,33.481426],[-100.860373,33.483998],[-100.857998,33.483159],[-100.857264,33.484571],[-100.855468,33.482177],[-100.856754,33.479673],[-100.857986,33.480112],[-100.859174,33.477789],[-100.857932,33.477345],[-100.857397,33.478402],[-100.856154,33.477961],[-100.856701,33.476906],[-100.854205,33.475957],[-100.852996,33.478316],[-100.851748,33.477866],[-100.851904,33.477562],[-100.85068,33.477114],[-100.851157,33.476191],[-100.852387,33.476627],[-100.852961,33.475513],[-100.850481,33.474629],[-100.849273,33.47697],[-100.848402,33.476655],[-100.849005,33.475428],[-100.847979,33.475065],[-100.848543,33.47394],[-100.844817,33.472628],[-100.843233,33.469521],[-100.842466,33.468653]]],[[[-100.842413,33.468609],[-100.84258,33.470117],[-100.842279,33.470115],[-100.842298,33.472606],[-100.842625,33.472593],[-100.842688,33.476132],[-100.836056,33.476276],[-100.833409,33.477162],[-100.832306,33.478764],[-100.831484,33.479245],[-100.807912,33.479349],[-100.80725,33.479033],[-100.807101,33.472065],[-100.815701,33.472064],[-100.816,33.471774],[-100.815931,33.46038],[-100.815856,33.459837],[-100.814502,33.457977],[-100.840396,33.46735],[-100.842413,33.468609]]]]}}]}