{"type":"FeatureCollection","features":[{"type":"Feature","properties":{"PRECINCT":"1","VTD":"0001"},"geometry":{"type":"Polygon","coordinates":[[[-99.689879,30.073948],[-99.691215,29.908582],[-99.657811,29.908084],[-99.602776,29.907679],[-99.602642,29.872869],[-99.605407,29.871708],[-99.60687,29.870643],[-99.608689,29.870683],[-99.609969,29.870469],[-99.611681,29.869485],[-99.615379,29.869415],[-99.61624,29.868763],[-99.617688,29.867041],[-99.61813,29.866913],[-99.618985,29.867015],[-99.619572,29.867733],[-99.620001,29.869103],[-99.620524,29.869303],[-99.621034,29.870166],[-99.622393,29.871281],[-99.62354,29.871971],[-99.623962,29.872018],[-99.624617,29.871686],[-99.625006,29.871872],[-99.62672,29.871555],[-99.627605,29.871661],[-99.628809,29.871248],[-99.631332,29.871723],[-99.632527,29.871065],[-99.633466,29.868619],[-99.634659,29.86759],[-99.635479,29.867322],[-99.636302,29.865732],[-99.638411,29.863625],[-99.638579,29.862314],[-99.638904,29.861806],[-99.640048,29.860953],[-99.640743,29.860916],[-99.642465,29.85957],[-99.642571,29.858403],[-99.641958,29.857338],[-99.642104,29.856484],[-99.642832,29.85582],[-99.645523,29.853935],[-99.646191,29.8538],[-99.64721,29.853063],[-99.648624,29.853122],[-99.649115,29.852767],[-99.650432,29.851374],[-99.650939,29.849725],[-99.651768,29.84905],[-99.654156,29.84928],[-99.655009,29.848384],[-99.655193,29.847546],[-99.655495,29.847369],[-99.655327,29.846764],[-99.656081,29.846157],[-99.656554,29.845043],[-99.657037,29.844677],[-99.657807,29.844514],[-99.657853,29.8439],[-99.657472,29.843594],[-99.658082,29.843156],[-99.659303,29.842599],[-99.65974,29.842812],[-99.659702,29.843698],[-99.659369,29.844047],[-99.659197,29.84478],[-99.66029,29.845743],[-99.660756,29.845573],[-99.661163,29.84507],[-99.661178,29.843526],[-99.661761,29.842807],[-99.663057,29.843109],[-99.66378,29.842615],[-99.663203,29.842216],[-99.662919,29.841373],[-99.663661,29.841782],[-99.664314,29.8413],[-99.66448,29.841585],[-99.664682,29.841513],[-99.664815,29.840675],[-99.66449,29.839281],[-99.664607,29.838736],[-99.665424,29.839222],[-99.667122,29.83907],[-99.669214,29.839448],[-99.670136,29.839107],[-99.668963,29.83821],[-99.666589,29.837053],[-99.665486,29.836061],[-99.664906,29.834857],[-99.664851,29.834019],[-99.665425,29.832367],[-99.666413,29.831369],[-99.667476,29.830872],[-99.671248,29.830026],[-99.674715,29.829869],[-99.676159,29.829248],[-99.676816,29.828695],[-99.677713,29.826848],[-99.679473,29.812691],[-99.680165,29.810927],[-99.689721,29.802107],[-99.691469,29.801244],[-99.700381,29.797844],[-99.7019,29.796576],[-99.704897,29.791499],[-99.705967,29.783523],[-99.706608,29.781977],[-99.707649,29.780701],[-99.725479,29.765518],[-99.738105,29.753384],[-99.75937,29.740292],[-99.760781,29.73897],[-99.761392,29.737273],[-99.760961,29.733332],[-99.757889,29.73132],[-99.758648,29.727706],[-99.761759,29.728171],[-99.762436,29.727164],[-99.762784,29.725918],[-99.761807,29.725768],[-99.76166,29.726583],[-99.758963,29.726198],[-99.758805,29.726942],[-99.756424,29.72658],[-99.75603,29.727444],[-99.754819,29.727378],[-99.753982,29.729858],[-99.753401,29.730789],[-99.753124,29.732061],[-99.750727,29.732444],[-99.749439,29.731339],[-99.748313,29.731163],[-99.747767,29.730692],[-99.747366,29.731119],[-99.746145,29.730026],[-99.746038,29.729328],[-99.746453,29.728882],[-99.746434,29.727303],[-99.747491,29.725207],[-99.748468,29.724513],[-99.750595,29.724013],[-99.750696,29.72387],[-99.750424,29.723784],[-99.749867,29.72368],[-99.747846,29.724046],[-99.746597,29.723724],[-99.746441,29.724195],[-99.744473,29.726092],[-99.744028,29.727638],[-99.744299,29.728507],[-99.741695,29.729185],[-99.739908,29.729512],[-99.736675,29.728606],[-99.734062,29.728754],[-99.731371,29.728408],[-99.730581,29.727986],[-99.731252,29.727147],[-99.731004,29.725931],[-99.730427,29.724702],[-99.730686,29.724071],[-99.732058,29.723057],[-99.733946,29.722704],[-99.736475,29.719425],[-99.739219,29.718313],[-99.73704,29.717011],[-99.733488,29.715385],[-99.731122,29.7123],[-99.73048,29.711842],[-99.729466,29.711565],[-99.726517,29.705062],[-99.727773,29.704199],[-99.735613,29.700095],[-99.73618,29.700442],[-99.737955,29.700519],[-99.739339,29.701125],[-99.740756,29.70107],[-99.742431,29.70047],[-99.743822,29.700591],[-99.744465,29.70016],[-99.744805,29.69961],[-99.744897,29.699009],[-99.744362,29.697926],[-99.744381,29.697646],[-99.744816,29.697301],[-99.745373,29.697],[-99.746634,29.697111],[-99.749456,29.696386],[-99.746868,29.696349],[-99.745173,29.695375],[-99.744562,29.695342],[-99.743315,29.693619],[-99.742792,29.690946],[-99.74175,29.690596],[-99.741625,29.690152],[-99.741156,29.686552],[-99.743712,29.686233],[-99.743488,29.684828],[-99.746284,29.684486],[-99.747591,29.68627],[-99.748403,29.686078],[-99.748692,29.685166],[-99.751555,29.687876],[-99.752865,29.689521],[-99.754414,29.69032],[-99.755239,29.691211],[-99.762318,29.689503],[-99.763564,29.6993],[-99.763106,29.70544],[-99.763313,29.720404],[-99.765021,29.720142],[-99.765196,29.721186],[-99.771715,29.721606],[-99.771468,29.722132],[-99.771572,29.723562],[-99.772123,29.723595],[-99.772074,29.724688],[-99.766471,29.724695],[-99.766694,29.725145],[-99.767414,29.725722],[-99.774816,29.726354],[-99.78024,29.731573],[-99.782317,29.733146],[-99.783541,29.733719],[-99.790021,29.73503],[-99.793778,29.736364],[-99.796871,29.736376],[-99.803543,29.737086],[-99.810332,29.740638],[-99.811331,29.740691],[-99.816853,29.739891],[-99.818308,29.741104],[-99.818865,29.741252],[-99.819474,29.740857],[-99.81945,29.73944],[-99.819726,29.738655],[-99.820258,29.738202],[-99.820819,29.738311],[-99.821095,29.739004],[-99.820584,29.740489],[-99.820643,29.741094],[-99.822575,29.7424],[-99.822674,29.74291],[-99.822326,29.743788],[-99.822528,29.744572],[-99.823206,29.744953],[-99.824228,29.745063],[-99.824684,29.745606],[-99.824423,29.746739],[-99.823047,29.747987],[-99.822811,29.74936],[-99.822969,29.750426],[-99.826027,29.752611],[-99.82876,29.753725],[-99.830717,29.757788],[-99.841136,29.769419],[-99.842605,29.770228],[-99.846068,29.77108],[-99.845562,29.771778],[-99.845466,29.772356],[-99.845858,29.773601],[-99.841708,29.774541],[-99.839688,29.776035],[-99.839097,29.776543],[-99.839007,29.77733],[-99.838559,29.777859],[-99.835434,29.78047],[-99.834508,29.782018],[-99.832154,29.784162],[-99.831179,29.786053],[-99.829512,29.786481],[-99.827473,29.785439],[-99.827057,29.785583],[-99.825471,29.788057],[-99.825775,29.789977],[-99.825384,29.790693],[-99.823274,29.790983],[-99.820473,29.792047],[-99.819599,29.792597],[-99.818368,29.792712],[-99.815313,29.791797],[-99.814781,29.791417],[-99.813596,29.791323],[-99.812377,29.790302],[-99.811374,29.790236],[-99.810457,29.790525],[-99.810006,29.79158],[-99.808262,29.792865],[-99.806987,29.793103],[-99.807097,29.793359],[-99.80775,29.793425],[-99.807641,29.793758],[-99.806938,29.794001],[-99.805644,29.793781],[-99.805159,29.794127],[-99.805166,29.796142],[-99.805923,29.796108],[-99.80676,29.796493],[-99.807937,29.797623],[-99.809008,29.79932],[-99.81129,29.799779],[-99.811715,29.800593],[-99.812358,29.801023],[-99.81341,29.800233],[-99.813965,29.800088],[-99.817244,29.800151],[-99.818592,29.800792],[-99.819173,29.800793],[-99.820021,29.800168],[-99.82023,29.79921],[-99.82109,29.798083],[-99.823852,29.7989],[-99.826253,29.797713],[-99.827186,29.798179],[-99.828086,29.799259],[-99.827924,29.80011],[-99.826822,29.801285],[-99.826806,29.80162],[-99.827365,29.802021],[-99.829555,29.801598],[-99.831076,29.801919],[-99.831935,29.80252],[-99.83245,29.80254],[-99.833704,29.801812],[-99.835244,29.800449],[-99.835722,29.800356],[-99.835917,29.801271],[-99.83545,29.803264],[-99.83556,29.803956],[-99.835945,29.804158],[-99.837107,29.803966],[-99.840772,29.80456],[-99.842418,29.804219],[-99.843372,29.80349],[-99.844924,29.803192],[-99.845835,29.803238],[-99.848289,29.801633],[-99.849158,29.801458],[-99.849681,29.800943],[-99.850279,29.800735],[-99.850859,29.799402],[-99.851728,29.798212],[-99.852618,29.798112],[-99.853623,29.798503],[-99.854125,29.800262],[-99.85395,29.800877],[-99.854335,29.801437],[-99.85467,29.804164],[-99.853501,29.8049],[-99.851926,29.806881],[-99.850139,29.808167],[-99.850082,29.809406],[-99.849115,29.811724],[-99.849422,29.813968],[-99.848365,29.813942],[-99.847924,29.814216],[-99.84718,29.814821],[-99.846427,29.8159],[-99.846176,29.815803],[-99.846039,29.814631],[-99.845301,29.816125],[-99.845567,29.817119],[-99.844795,29.817926],[-99.842934,29.818686],[-99.841549,29.818876],[-99.840061,29.819749],[-99.837268,29.819291],[-99.835813,29.819934],[-99.834283,29.819512],[-99.832798,29.820972],[-99.831499,29.821274],[-99.831104,29.82113],[-99.829648,29.819672],[-99.828189,29.818939],[-99.827126,29.818736],[-99.824574,29.819052],[-99.823407,29.820052],[-99.822729,29.820336],[-99.822086,29.820175],[-99.821442,29.819313],[-99.821097,29.819178],[-99.820367,29.819451],[-99.819436,29.820178],[-99.818791,29.820322],[-99.813846,29.820366],[-99.812768,29.820184],[-99.812279,29.819715],[-99.811419,29.817435],[-99.810288,29.815495],[-99.809099,29.814365],[-99.808575,29.813407],[-99.80675,29.812588],[-99.806147,29.811057],[-99.801274,29.809332],[-99.798036,29.807793],[-99.797876,29.807279],[-99.798436,29.806136],[-99.798081,29.804789],[-99.796167,29.802678],[-99.795392,29.800862],[-99.791723,29.796703],[-99.790303,29.795642],[-99.787429,29.795299],[-99.784633,29.794174],[-99.782449,29.793951],[-99.78269,29.795237],[-99.781972,29.797519],[-99.778088,29.80079],[-99.774435,29.802456],[-99.770685,29.806345],[-99.770615,29.806849],[-99.771544,29.80889],[-99.774217,29.811295],[-99.77483,29.813837],[-99.777098,29.818324],[-99.778706,29.819705],[-99.779297,29.822192],[-99.779785,29.823187],[-99.782725,29.825858],[-99.783164,29.826498],[-99.784002,29.829958],[-99.783664,29.831064],[-99.784199,29.833838],[-99.782579,29.836145],[-99.78456,29.837026],[-99.785949,29.836476],[-99.786971,29.835728],[-99.788227,29.835337],[-99.789394,29.83558],[-99.790107,29.836894],[-99.791015,29.837324],[-99.791728,29.839618],[-99.791898,29.840603],[-99.791141,29.841764],[-99.79198,29.841846],[-99.792121,29.84244],[-99.792784,29.842922],[-99.793697,29.842555],[-99.79485,29.841269],[-99.796027,29.84206],[-99.79739,29.842141],[-99.800267,29.841811],[-99.80131,29.841032],[-99.801861,29.839491],[-99.803009,29.839712],[-99.803542,29.839516],[-99.806076,29.839724],[-99.806244,29.84005],[-99.806763,29.84027],[-99.807066,29.84119],[-99.807721,29.842042],[-99.810795,29.843822],[-99.811113,29.845769],[-99.809762,29.84734],[-99.807695,29.848591],[-99.807803,29.849852],[-99.808569,29.851183],[-99.809262,29.851497],[-99.811784,29.851714],[-99.812324,29.851486],[-99.812754,29.85081],[-99.814474,29.85049],[-99.816458,29.849808],[-99.817216,29.850151],[-99.817468,29.850498],[-99.817552,29.850962],[-99.817012,29.852383],[-99.81705,29.853679],[-99.817414,29.854769],[-99.816681,29.856442],[-99.816045,29.856833],[-99.814767,29.856988],[-99.814727,29.857503],[-99.814427,29.857838],[-99.811489,29.85969],[-99.809906,29.861713],[-99.809829,29.863219],[-99.809077,29.863538],[-99.80849,29.863406],[-99.807116,29.862011],[-99.806368,29.861678],[-99.805745,29.861702],[-99.805597,29.861904],[-99.805773,29.862275],[-99.80555,29.862513],[-99.805973,29.86315],[-99.807329,29.863765],[-99.807352,29.864505],[-99.806762,29.866094],[-99.805281,29.8664],[-99.804913,29.866658],[-99.801302,29.86666],[-99.800662,29.866709],[-99.800594,29.866956],[-99.800947,29.86775],[-99.802621,29.868555],[-99.804233,29.870095],[-99.805597,29.872528],[-99.80636,29.874838],[-99.807997,29.877073],[-99.809373,29.878251],[-99.809949,29.878428],[-99.809735,29.87818],[-99.810025,29.878208],[-99.811136,29.878753],[-99.812632,29.879094],[-99.813187,29.879638],[-99.813011,29.880282],[-99.813604,29.881151],[-99.814046,29.882774],[-99.81373,29.88416],[-99.813894,29.884281],[-99.81309,29.885466],[-99.813083,29.885806],[-99.812682,29.886146],[-99.8126,29.886724],[-99.811993,29.887088],[-99.812454,29.888189],[-99.814212,29.888638],[-99.817045,29.888055],[-99.819639,29.888126],[-99.824545,29.889028],[-99.825769,29.889754],[-99.825599,29.890436],[-99.826672,29.890904],[-99.832941,29.89076],[-99.833869,29.891546],[-99.834432,29.892839],[-99.836029,29.89494],[-99.837659,29.895792],[-99.838423,29.896738],[-99.83925,29.897101],[-99.840222,29.897217],[-99.842419,29.896738],[-99.843259,29.89688],[-99.84365,29.89704],[-99.843947,29.898191],[-99.844548,29.897938],[-99.846542,29.898162],[-99.847286,29.898056],[-99.848693,29.897286],[-99.850397,29.896987],[-99.852675,29.896253],[-99.853424,29.895958],[-99.853891,29.895432],[-99.855612,29.895038],[-99.857544,29.893262],[-99.858403,29.892836],[-99.858585,29.891651],[-99.861857,29.887533],[-99.862581,29.887358],[-99.863643,29.888375],[-99.864593,29.890762],[-99.864612,29.89497],[-99.865035,29.895419],[-99.865438,29.896479],[-99.86653,29.896783],[-99.86798,29.898019],[-99.867367,29.898494],[-99.867086,29.899048],[-99.866991,29.900482],[-99.868385,29.902477],[-99.869208,29.905714],[-99.868757,29.906324],[-99.869616,29.90642],[-99.870186,29.906734],[-99.870241,29.926821],[-99.869672,29.968879],[-99.868517,29.969836],[-99.868036,29.9709],[-99.867795,29.971736],[-99.867897,29.974702],[-99.86759,29.975148],[-99.86108,29.976926],[-99.859358,29.975589],[-99.856433,29.973903],[-99.856109,29.973977],[-99.855278,29.975187],[-99.854791,29.975496],[-99.852587,29.974249],[-99.852421,29.973377],[-99.851414,29.971756],[-99.850798,29.971568],[-99.849586,29.971722],[-99.847393,29.971028],[-99.846244,29.969687],[-99.844969,29.968993],[-99.843894,29.967522],[-99.843734,29.966486],[-99.840614,29.96456],[-99.840102,29.965521],[-99.839693,29.96582],[-99.837194,29.965769],[-99.836449,29.966116],[-99.835858,29.966732],[-99.833743,29.971721],[-99.836615,29.973921],[-99.837752,29.976178],[-99.837707,29.978145],[-99.836299,29.983976],[-99.83517,29.985476],[-99.824303,29.992758],[-99.822998,29.994741],[-99.82255,29.996832],[-99.822837,29.99852],[-99.828118,30.011288],[-99.829085,30.013025],[-99.832673,30.018123],[-99.833947,30.020581],[-99.834396,30.022959],[-99.834287,30.025335],[-99.833467,30.028274],[-99.833105,30.030846],[-99.82907,30.031016],[-99.826888,30.031721],[-99.821787,30.032266],[-99.821505,30.033841],[-99.822205,30.035355],[-99.820571,30.036785],[-99.820273,30.037692],[-99.819821,30.03823],[-99.819705,30.039015],[-99.819855,30.040636],[-99.820514,30.042526],[-99.820234,30.044426],[-99.820849,30.046107],[-99.819621,30.046534],[-99.819474,30.046798],[-99.819449,30.048265],[-99.820096,30.049276],[-99.819157,30.051358],[-99.817508,30.051438],[-99.816971,30.051244],[-99.815833,30.050071],[-99.814311,30.049525],[-99.810823,30.049745],[-99.807708,30.051715],[-99.802529,30.056677],[-99.798311,30.059171],[-99.796729,30.05968],[-99.769816,30.059809],[-99.761672,30.062764],[-99.760374,30.062889],[-99.754667,30.062405],[-99.75302,30.062531],[-99.745031,30.066393],[-99.744018,30.066661],[-99.73911,30.067079],[-99.694348,30.066686],[-99.693797,30.066823],[-99.693598,30.073968],[-99.689879,30.073948]]]}},{"type":"Feature","properties":{"PRECINCT":"2","VTD":"0002"},"geometry":{"type":"Polygon","coordinates":[[[-99.602639,29.872788],[-99.603042,29.750223],[-99.603323,29.742889],[-99.60313,29.627181],[-99.745393,29.625227],[-99.751765,29.624772],[-99.755369,29.624763],[-99.756839,29.631196],[-99.755183,29.652523],[-99.754958,29.658459],[-99.756436,29.66664],[-99.761026,29.680279],[-99.762318,29.689503],[-99.755239,29.691211],[-99.754414,29.69032],[-99.752865,29.689521],[-99.751555,29.687876],[-99.748692,29.685166],[-99.748403,29.686078],[-99.747591,29.68627],[-99.746284,29.684486],[-99.743488,29.684828],[-99.743712,29.686233],[-99.741156,29.686552],[-99.74175,29.690596],[-99.742792,29.690946],[-99.743315,29.693619],[-99.744562,29.695342],[-99.745173,29.695375],[-99.746868,29.696349],[-99.749456,29.696386],[-99.746634,29.697111],[-99.745373,29.697],[-99.744816,29.697301],[-99.744381,29.697646],[-99.744362,29.697926],[-99.744897,29.699009],[-99.744805,29.69961],[-99.744465,29.70016],[-99.743822,29.700591],[-99.742431,29.70047],[-99.740756,29.70107],[-99.739339,29.701125],[-99.737955,29.700519],[-99.73618,29.700442],[-99.735613,29.700095],[-99.727773,29.704199],[-99.726517,29.705062],[-99.726519,29.705294],[-99.729466,29.711565],[-99.73048,29.711842],[-99.731122,29.7123],[-99.733488,29.715385],[-99.73704,29.717011],[-99.739219,29.718313],[-99.736475,29.719425],[-99.733946,29.722704],[-99.732058,29.723057],[-99.730686,29.724071],[-99.730427,29.724702],[-99.731255,29.726996],[-99.730634,29.728044],[-99.731508,29.728437],[-99.734062,29.728754],[-99.736675,29.728606],[-99.739908,29.729512],[-99.741695,29.729185],[-99.744299,29.728507],[-99.744028,29.727638],[-99.744473,29.726092],[-99.746441,29.724195],[-99.746597,29.723724],[-99.747846,29.724046],[-99.749867,29.72368],[-99.750424,29.723784],[-99.750696,29.72387],[-99.750595,29.724013],[-99.748468,29.724513],[-99.747491,29.725207],[-99.746434,29.727303],[-99.746453,29.728882],[-99.746038,29.729328],[-99.746145,29.730026],[-99.747366,29.731119],[-99.747767,29.730692],[-99.748313,29.731163],[-99.749439,29.731339],[-99.750727,29.732444],[-99.753124,29.732061],[-99.753401,29.730789],[-99.753982,29.729858],[-99.754819,29.727378],[-99.75603,29.727444],[-99.756424,29.72658],[-99.758805,29.726942],[-99.758963,29.726198],[-99.76166,29.726583],[-99.761807,29.725768],[-99.762784,29.725918],[-99.762436,29.727164],[-99.761759,29.728171],[-99.758648,29.727706],[-99.757889,29.73132],[-99.760961,29.733332],[-99.761392,29.737273],[-99.760781,29.73897],[-99.75937,29.740292],[-99.738105,29.753384],[-99.725479,29.765518],[-99.707649,29.780701],[-99.706608,29.781977],[-99.705967,29.783523],[-99.704897,29.791499],[-99.7019,29.796576],[-99.700381,29.797844],[-99.691469,29.801244],[-99.689721,29.802107],[-99.680165,29.810927],[-99.679473,29.812691],[-99.677713,29.826848],[-99.676816,29.828695],[-99.676159,29.829248],[-99.674715,29.829869],[-99.671248,29.830026],[-99.667476,29.830872],[-99.666413,29.831369],[-99.665425,29.832367],[-99.664851,29.834019],[-99.664906,29.834857],[-99.665486,29.836061],[-99.666589,29.837053],[-99.668963,29.83821],[-99.670136,29.839107],[-99.669214,29.839448],[-99.667122,29.83907],[-99.665424,29.839222],[-99.664607,29.838736],[-99.66449,29.839281],[-99.664815,29.840675],[-99.664682,29.841513],[-99.66448,29.841585],[-99.664314,29.8413],[-99.663661,29.841782],[-99.662919,29.841373],[-99.663203,29.842216],[-99.66378,29.842615],[-99.663057,29.843109],[-99.661761,29.842807],[-99.661178,29.843526],[-99.661163,29.84507],[-99.660756,29.845573],[-99.66029,29.845743],[-99.659197,29.84478],[-99.659369,29.844047],[-99.659702,29.843698],[-99.65974,29.842812],[-99.659303,29.842599],[-99.658082,29.843156],[-99.657472,29.843594],[-99.657853,29.8439],[-99.657807,29.844514],[-99.657037,29.844677],[-99.656554,29.845043],[-99.656081,29.846157],[-99.655327,29.846764],[-99.655495,29.847369],[-99.655193,29.847546],[-99.655009,29.848384],[-99.654156,29.84928],[-99.651768,29.84905],[-99.650939,29.849725],[-99.650432,29.851374],[-99.649115,29.852767],[-99.648624,29.853122],[-99.64721,29.853063],[-99.646191,29.8538],[-99.645523,29.853935],[-99.642832,29.85582],[-99.642104,29.856484],[-99.641958,29.857338],[-99.642571,29.858403],[-99.642465,29.85957],[-99.640743,29.860916],[-99.640048,29.860953],[-99.638904,29.861806],[-99.638579,29.862314],[-99.638411,29.863625],[-99.636302,29.865732],[-99.635479,29.867322],[-99.634659,29.86759],[-99.633466,29.868619],[-99.632527,29.871065],[-99.631332,29.871723],[-99.628809,29.871248],[-99.627605,29.871661],[-99.62672,29.871555],[-99.625006,29.871872],[-99.624617,29.871686],[-99.623962,29.872018],[-99.62354,29.871971],[-99.622393,29.871281],[-99.621034,29.870166],[-99.620524,29.869303],[-99.620001,29.869103],[-99.619572,29.867733],[-99.618985,29.867015],[-99.61813,29.866913],[-99.617688,29.867041],[-99.61624,29.868763],[-99.615379,29.869415],[-99.611681,29.869485],[-99.609969,29.870469],[-99.608689,29.870683],[-99.60687,29.870643],[-99.605407,29.871708],[-99.602639,29.872788]]]}},{"type":"Feature","properties":{"PRECINCT":"3","VTD":"0003"},"geometry":{"type":"Polygon","coordinates":[[[-99.904539,29.75048],[-99.902261,29.747651],[-99.900769,29.747642],[-99.899858,29.747364],[-99.899206,29.746615],[-99.897471,29.745999],[-99.897014,29.745629],[-99.896597,29.7447],[-99.897036,29.744153],[-99.898662,29.743701],[-99.900832,29.742245],[-99.900737,29.741626],[-99.901049,29.740388],[-99.899872,29.738547],[-99.899319,29.738149],[-99.898664,29.738112],[-99.897803,29.737638],[-99.895243,29.736994],[-99.894797,29.737131],[-99.894177,29.738351],[-99.894082,29.737785],[-99.893072,29.736345],[-99.89308,29.73553],[-99.891493,29.734358],[-99.889505,29.733411],[-99.888921,29.733329],[-99.887827,29.734457],[-99.885129,29.734941],[-99.884515,29.734263],[-99.884717,29.733265],[-99.884471,29.732492],[-99.885365,29.731235],[-99.885404,29.730394],[-99.885854,29.729752],[-99.885676,29.729427],[-99.885199,29.729007],[-99.883255,29.728289],[-99.882559,29.728803],[-99.882283,29.72933],[-99.88181,29.729353],[-99.881195,29.729042],[-99.880372,29.728438],[-99.88015,29.727777],[-99.878974,29.726127],[-99.877691,29.724879],[-99.877592,29.724233],[-99.878025,29.72368],[-99.880421,29.723315],[-99.881122,29.722693],[-99.881905,29.720803],[-99.881912,29.718258],[-99.882691,29.717254],[-99.884068,29.717189],[-99.886244,29.717666],[-99.886828,29.717086],[-99.888481,29.716589],[-99.888634,29.716047],[-99.888409,29.715651],[-99.885112,29.713809],[-99.884439,29.712374],[-99.88375,29.712829],[-99.883671,29.713136],[-99.880154,29.713462],[-99.878099,29.713259],[-99.877451,29.71281],[-99.877694,29.712467],[-99.879573,29.71249],[-99.880509,29.712056],[-99.881961,29.711835],[-99.882286,29.710992],[-99.881955,29.709983],[-99.867213,29.712227],[-99.86739,29.711587],[-99.868442,29.710187],[-99.86672,29.708963],[-99.867243,29.708413],[-99.869183,29.708382],[-99.869479,29.707984],[-99.870822,29.707264],[-99.87086,29.706122],[-99.871562,29.705703],[-99.870931,29.70522],[-99.871128,29.70412],[-99.870855,29.702302],[-99.871238,29.700948],[-99.869377,29.700557],[-99.868922,29.700032],[-99.868722,29.699216],[-99.867596,29.698653],[-99.867505,29.698419],[-99.868291,29.696648],[-99.867572,29.695049],[-99.867728,29.694423],[-99.867415,29.693968],[-99.866997,29.69134],[-99.891123,29.691257],[-99.891319,29.664434],[-99.891291,29.663414],[-99.890647,29.662408],[-99.890573,29.661761],[-99.891113,29.659023],[-99.890935,29.624282],[-100.014188,29.623495],[-100.013954,29.625227],[-100.014247,29.625226],[-100.013548,29.626185],[-100.01323,29.626541],[-100.010072,29.62801],[-100.009001,29.629239],[-100.007275,29.632018],[-100.00843,29.633022],[-100.009202,29.635221],[-100.009108,29.635735],[-100.008516,29.636389],[-100.008436,29.63706],[-100.009459,29.638617],[-100.010819,29.639493],[-100.012035,29.639862],[-100.01346,29.640874],[-100.01363,29.642321],[-100.014582,29.643883],[-100.015932,29.644543],[-100.017388,29.646204],[-100.018353,29.64828],[-100.020108,29.6503],[-100.021072,29.65255],[-100.022828,29.653981],[-100.023577,29.654295],[-100.024246,29.655377],[-100.026234,29.657134],[-100.026138,29.657822],[-100.026715,29.658769],[-100.028848,29.661044],[-100.030303,29.663256],[-100.030451,29.665005],[-100.030143,29.665893],[-100.027975,29.667509],[-100.025041,29.668345],[-100.024337,29.667143],[-100.019258,29.670789],[-100.015116,29.671899],[-100.016131,29.674806],[-100.015613,29.67493],[-100.014571,29.672048],[-100.013445,29.672317],[-100.012433,29.669428],[-100.011573,29.669655],[-100.011904,29.670659],[-100.011687,29.670715],[-100.01234,29.672606],[-100.01096,29.672989],[-100.01138,29.675132],[-100.012972,29.674742],[-100.013245,29.67539],[-100.014413,29.675052],[-100.014647,29.676066],[-100.007618,29.677382],[-100.003475,29.678626],[-100.001938,29.679883],[-99.997187,29.682059],[-99.995198,29.680385],[-99.987324,29.687358],[-99.989457,29.688035],[-99.989808,29.688818],[-99.987501,29.69053],[-99.986375,29.68974],[-99.981631,29.698258],[-99.979364,29.701807],[-99.974315,29.712396],[-99.972946,29.713681],[-99.963375,29.720897],[-99.95537,29.723933],[-99.949907,29.727549],[-99.948971,29.727958],[-99.947441,29.72817],[-99.93802,29.72821],[-99.927859,29.731423],[-99.924608,29.733976],[-99.921469,29.734883],[-99.92014,29.736355],[-99.918555,29.737254],[-99.916649,29.739758],[-99.915876,29.740493],[-99.914855,29.740902],[-99.913737,29.742245],[-99.913817,29.743966],[-99.914191,29.74511],[-99.913432,29.745991],[-99.912208,29.745941],[-99.911247,29.746249],[-99.911643,29.747135],[-99.91143,29.747387],[-99.909277,29.747825],[-99.907988,29.749379],[-99.90667,29.749949],[-99.905635,29.75079],[-99.904539,29.75048]]]}},{"type":"Feature","properties":{"PRECINCT":"4","VTD":"0004"},"geometry":{"type":"Polygon","coordinates":[[[-99.932989,29.841709],[-99.932187,29.841439],[-99.931197,29.840427],[-99.930616,29.838331],[-99.929941,29.838095],[-99.928944,29.836741],[-99.929708,29.836032],[-99.930475,29.834794],[-99.930434,29.832076],[-99.928531,29.83144],[-99.926415,29.831174],[-99.925834,29.831295],[-99.925493,29.831637],[-99.921972,29.832049],[-99.920451,29.83191],[-99.919385,29.831302],[-99.918334,29.829592],[-99.918482,29.828632],[-99.919205,29.827987],[-99.921645,29.827352],[-99.922533,29.826797],[-99.923481,29.826569],[-99.925675,29.824905],[-99.926078,29.823876],[-99.92546,29.822551],[-99.921359,29.821461],[-99.915483,29.821134],[-99.914997,29.821398],[-99.914826,29.822542],[-99.915513,29.825782],[-99.915274,29.826293],[-99.914813,29.826475],[-99.913394,29.826172],[-99.909628,29.824406],[-99.907394,29.823861],[-99.90631,29.822727],[-99.906442,29.821247],[-99.907831,29.819322],[-99.911503,29.816754],[-99.913409,29.814736],[-99.913895,29.813569],[-99.913933,29.812937],[-99.913599,29.812057],[-99.911069,29.811143],[-99.908729,29.810779],[-99.90794,29.810895],[-99.907392,29.811456],[-99.906804,29.813133],[-99.906564,29.815504],[-99.906242,29.81606],[-99.905586,29.816626],[-99.90428,29.816813],[-99.903258,29.815801],[-99.903044,29.814293],[-99.902534,29.813094],[-99.903058,29.811103],[-99.90268,29.810123],[-99.900024,29.809309],[-99.898385,29.808356],[-99.897994,29.807493],[-99.897925,29.806458],[-99.897421,29.806178],[-99.896512,29.806139],[-99.895421,29.806634],[-99.893989,29.80682],[-99.893024,29.806672],[-99.892135,29.80611],[-99.891706,29.804905],[-99.89194,29.803035],[-99.89138,29.801852],[-99.890228,29.800613],[-99.889432,29.799117],[-99.889287,29.798072],[-99.889603,29.796499],[-99.889087,29.795668],[-99.888343,29.795415],[-99.88768,29.795618],[-99.887289,29.796008],[-99.887036,29.797422],[-99.886626,29.797681],[-99.885629,29.797433],[-99.884261,29.796689],[-99.882836,29.796716],[-99.881467,29.796105],[-99.880566,29.794427],[-99.881034,29.793475],[-99.882195,29.792717],[-99.884692,29.792173],[-99.884856,29.791953],[-99.884529,29.791084],[-99.882631,29.789504],[-99.882745,29.789141],[-99.883774,29.788388],[-99.883894,29.787156],[-99.884295,29.78612],[-99.884923,29.785302],[-99.883879,29.782245],[-99.883301,29.781422],[-99.88212,29.780798],[-99.881883,29.779847],[-99.882028,29.777652],[-99.881306,29.77686],[-99.880968,29.776715],[-99.878426,29.77717],[-99.877523,29.777089],[-99.874583,29.778614],[-99.872675,29.778524],[-99.872384,29.777758],[-99.872635,29.775038],[-99.87393,29.773048],[-99.874348,29.771707],[-99.87599,29.771587],[-99.887924,29.769192],[-99.89546,29.768415],[-99.897269,29.767686],[-99.903827,29.761313],[-99.907135,29.755304],[-99.907204,29.754629],[-99.90651,29.753529],[-99.905253,29.752676],[-99.905244,29.751663],[-99.907877,29.74953],[-99.908951,29.748039],[-99.910044,29.747556],[-99.911601,29.747251],[-99.911247,29.746249],[-99.912208,29.745941],[-99.913432,29.745991],[-99.914191,29.74511],[-99.913817,29.743966],[-99.913737,29.742245],[-99.914855,29.740902],[-99.915876,29.740493],[-99.916649,29.739758],[-99.918555,29.737254],[-99.92014,29.736355],[-99.921192,29.735081],[-99.924608,29.733976],[-99.927859,29.731423],[-99.936817,29.728473],[-99.939155,29.728141],[-99.947441,29.72817],[-99.948971,29.727958],[-99.949907,29.727549],[-99.95537,29.723933],[-99.963375,29.720897],[-99.972946,29.713681],[-99.974315,29.712396],[-99.979364,29.701807],[-99.981631,29.698258],[-99.986375,29.68974],[-99.987501,29.69053],[-99.989808,29.688818],[-99.989457,29.688035],[-99.987324,29.687358],[-99.987845,29.686719],[-99.995198,29.680385],[-99.997187,29.682059],[-100.001938,29.679883],[-100.003475,29.678626],[-100.007618,29.677382],[-100.014647,29.676066],[-100.014413,29.675052],[-100.013245,29.67539],[-100.012972,29.674742],[-100.01138,29.675132],[-100.01096,29.672989],[-100.01234,29.672606],[-100.011687,29.670715],[-100.011904,29.670659],[-100.011573,29.669655],[-100.012433,29.669428],[-100.013445,29.672317],[-100.014571,29.672048],[-100.015613,29.67493],[-100.016131,29.674806],[-100.015116,29.671899],[-100.019258,29.670789],[-100.024337,29.667143],[-100.025041,29.668345],[-100.021538,29.669505],[-100.020447,29.670428],[-100.018874,29.673684],[-100.017013,29.676178],[-100.016954,29.676823],[-100.017433,29.677661],[-100.019279,29.67764],[-100.021376,29.678273],[-100.022157,29.678845],[-100.025142,29.681366],[-100.024895,29.683177],[-100.025186,29.683428],[-100.027378,29.683066],[-100.028122,29.683182],[-100.029198,29.684189],[-100.030718,29.686293],[-100.030458,29.686752],[-100.030451,29.688623],[-100.034225,29.689267],[-100.035926,29.689202],[-100.036801,29.689565],[-100.038153,29.689605],[-100.039189,29.690099],[-100.039948,29.691816],[-100.040776,29.692937],[-100.044014,29.693301],[-100.044745,29.693802],[-100.045791,29.694924],[-100.045677,29.697823],[-100.045929,29.699281],[-100.046603,29.699765],[-100.047573,29.702367],[-100.047466,29.704111],[-100.047384,29.704325],[-100.046709,29.704562],[-100.046268,29.706487],[-100.04996,29.708182],[-100.052097,29.709645],[-100.053508,29.708908],[-100.055298,29.708842],[-100.057365,29.709959],[-100.060509,29.709585],[-100.061965,29.710531],[-100.063741,29.71106],[-100.039529,29.718717],[-100.039347,29.719281],[-100.037589,29.72116],[-100.035525,29.721],[-100.033498,29.721266],[-100.031817,29.720972],[-100.030416,29.721051],[-100.029735,29.721309],[-100.028838,29.722083],[-100.02637,29.723184],[-100.025974,29.723595],[-100.025764,29.724367],[-100.025846,29.725687],[-100.026393,29.726969],[-100.024918,29.727805],[-100.024748,29.729114],[-100.024981,29.72984],[-100.026304,29.730732],[-100.026852,29.730424],[-100.027104,29.730792],[-100.027924,29.731157],[-100.028237,29.731686],[-100.029298,29.73426],[-100.029605,29.73647],[-100.029409,29.737845],[-100.027927,29.741618],[-100.027605,29.741789],[-100.026994,29.741701],[-100.025544,29.742405],[-100.024296,29.742465],[-100.02359,29.742833],[-100.022272,29.743906],[-100.021861,29.745391],[-100.022258,29.746133],[-100.02309,29.746728],[-100.024552,29.748378],[-100.025356,29.750119],[-100.025267,29.751274],[-100.024409,29.752346],[-100.024087,29.753733],[-100.025158,29.755664],[-100.025662,29.757809],[-100.026084,29.758073],[-100.026727,29.758007],[-100.028322,29.758431],[-100.029507,29.760088],[-100.029904,29.761463],[-100.029321,29.762249],[-100.029411,29.763702],[-100.030665,29.766117],[-100.030639,29.767698],[-100.031584,29.770952],[-100.032097,29.771395],[-100.031655,29.771418],[-100.031261,29.771048],[-100.030512,29.772049],[-100.029125,29.772277],[-100.028983,29.771836],[-100.027136,29.771237],[-100.025762,29.770465],[-100.025955,29.769982],[-100.025561,29.769178],[-100.024412,29.769311],[-100.024493,29.768723],[-100.023813,29.765892],[-100.021885,29.762963],[-100.02203,29.761365],[-100.021258,29.760107],[-100.020954,29.758896],[-100.020182,29.757928],[-100.020155,29.757399],[-100.019913,29.757217],[-100.019945,29.757478],[-100.018998,29.757816],[-100.017517,29.75804],[-100.016988,29.758658],[-100.016622,29.758764],[-100.015202,29.758295],[-100.012939,29.758253],[-100.011399,29.757597],[-100.009219,29.756068],[-100.008653,29.755166],[-100.008459,29.754097],[-100.009128,29.751947],[-100.008597,29.752462],[-100.008298,29.753826],[-100.007355,29.755129],[-100.005798,29.755794],[-100.004927,29.756498],[-100.003817,29.757895],[-100.003325,29.758032],[-100.002351,29.757591],[-100.001877,29.757772],[-100.002189,29.758315],[-100.003079,29.758896],[-100.002517,29.75955],[-100.001716,29.759764],[-99.999008,29.759812],[-99.998787,29.759504],[-99.9989,29.758634],[-99.998598,29.758437],[-99.997797,29.758794],[-99.995743,29.760528],[-99.995194,29.760688],[-99.993958,29.760243],[-99.993763,29.760683],[-99.993019,29.760942],[-99.993114,29.760678],[-99.992799,29.760816],[-99.99198,29.761817],[-99.991999,29.762252],[-99.992939,29.763351],[-99.992574,29.765024],[-99.992353,29.765371],[-99.99067,29.766213],[-99.990696,29.766658],[-99.991346,29.767373],[-99.991157,29.767825],[-99.990438,29.767907],[-99.989505,29.767677],[-99.988938,29.768089],[-99.98827,29.770219],[-99.987848,29.770697],[-99.987035,29.770962],[-99.987516,29.77204],[-99.983817,29.771889],[-99.983391,29.772201],[-99.982439,29.772229],[-99.982206,29.772718],[-99.982672,29.77268],[-99.983108,29.773488],[-99.982433,29.773763],[-99.981525,29.774627],[-99.981658,29.774809],[-99.981053,29.775436],[-99.980901,29.77537],[-99.98116,29.775084],[-99.980599,29.775035],[-99.979407,29.775437],[-99.978915,29.775354],[-99.9779,29.774546],[-99.975257,29.775082],[-99.974089,29.774948],[-99.9737,29.775224],[-99.973745,29.775637],[-99.973391,29.775892],[-99.97208,29.775917],[-99.971305,29.776314],[-99.970454,29.777612],[-99.969899,29.776859],[-99.96952,29.776919],[-99.968014,29.778894],[-99.967169,29.778394],[-99.96621,29.778499],[-99.966829,29.77983],[-99.966614,29.780331],[-99.965044,29.781024],[-99.96355,29.780507],[-99.963241,29.782229],[-99.962611,29.783214],[-99.962094,29.783033],[-99.961923,29.783192],[-99.961098,29.785101],[-99.960461,29.784832],[-99.95918,29.783451],[-99.956803,29.784557],[-99.955956,29.784263],[-99.956313,29.784652],[-99.955408,29.786519],[-99.955367,29.787615],[-99.952832,29.790755],[-99.952126,29.792209],[-99.951495,29.791952],[-99.949312,29.792829],[-99.94849,29.792475],[-99.947831,29.792594],[-99.947437,29.79173],[-99.946659,29.791119],[-99.944459,29.790307],[-99.943563,29.789577],[-99.942072,29.789012],[-99.9413,29.786917],[-99.940444,29.786272],[-99.939917,29.785249],[-99.940516,29.784178],[-99.942172,29.782214],[-99.942277,29.780878],[-99.940609,29.780182],[-99.939638,29.779122],[-99.939919,29.778366],[-99.939311,29.7778],[-99.937841,29.77793],[-99.935702,29.777266],[-99.935051,29.776181],[-99.933645,29.775523],[-99.932212,29.775258],[-99.931371,29.775798],[-99.929731,29.775978],[-99.928702,29.776612],[-99.927787,29.776647],[-99.926805,29.777696],[-99.925805,29.77819],[-99.924379,29.777979],[-99.923283,29.776514],[-99.922125,29.776435],[-99.921891,29.777421],[-99.92118,29.778624],[-99.91988,29.779537],[-99.919125,29.782947],[-99.918429,29.784351],[-99.916427,29.786871],[-99.915286,29.789205],[-99.914265,29.79064],[-99.915052,29.792746],[-99.915646,29.793315],[-99.917743,29.793838],[-99.919759,29.794805],[-99.920575,29.795833],[-99.922633,29.797152],[-99.922839,29.798802],[-99.923352,29.799865],[-99.924558,29.800378],[-99.927214,29.802421],[-99.928324,29.802275],[-99.930103,29.801447],[-99.932653,29.801159],[-99.933719,29.80243],[-99.934677,29.804912],[-99.935753,29.805561],[-99.937033,29.805912],[-99.937613,29.805518],[-99.937664,29.804885],[-99.938421,29.803427],[-99.939582,29.803292],[-99.941057,29.804159],[-99.941726,29.805061],[-99.94153,29.806381],[-99.941108,29.807217],[-99.939985,29.808395],[-99.938295,29.810782],[-99.938086,29.812152],[-99.938673,29.81312],[-99.939922,29.81361],[-99.940849,29.813544],[-99.941758,29.813197],[-99.942609,29.812504],[-99.944167,29.810281],[-99.944842,29.809929],[-99.945946,29.809742],[-99.946558,29.80988],[-99.947315,29.811139],[-99.947157,29.812036],[-99.943606,29.813786],[-99.942237,29.815073],[-99.940717,29.815326],[-99.939588,29.814803],[-99.93902,29.814842],[-99.93726,29.815486],[-99.936327,29.816443],[-99.935715,29.81833],[-99.93644,29.81883],[-99.937393,29.818533],[-99.938162,29.818863],[-99.938724,29.819782],[-99.939102,29.821564],[-99.940755,29.823286],[-99.941582,29.823726],[-99.942269,29.823715],[-99.942837,29.823258],[-99.943417,29.82218],[-99.944105,29.822015],[-99.945323,29.822383],[-99.945676,29.823764],[-99.945342,29.824457],[-99.944579,29.824556],[-99.943822,29.82498],[-99.943538,29.826075],[-99.942667,29.826515],[-99.941923,29.827472],[-99.941853,29.82866],[-99.942276,29.829947],[-99.942016,29.830621],[-99.942226,29.833182],[-99.943103,29.83404],[-99.943911,29.83602],[-99.943122,29.838226],[-99.939999,29.84073],[-99.939267,29.841043],[-99.936295,29.841538],[-99.936024,29.84128],[-99.934402,29.841791],[-99.932989,29.841709]]]}},{"type":"Feature","properties":{"PRECINCT":"6","VTD":"0006"},"geometry":{"type":"Polygon","coordinates":[[[-99.729223,30.074192],[-99.693598,30.073968],[-99.693797,30.066823],[-99.694947,30.066655],[-99.73911,30.067079],[-99.744018,30.066661],[-99.745031,30.066393],[-99.75302,30.062531],[-99.754667,30.062405],[-99.760374,30.062889],[-99.761672,30.062764],[-99.769816,30.059809],[-99.796729,30.05968],[-99.798311,30.059171],[-99.802529,30.056677],[-99.807708,30.051715],[-99.810823,30.049745],[-99.814311,30.049525],[-99.815833,30.050071],[-99.816971,30.051244],[-99.817508,30.051438],[-99.819157,30.051358],[-99.820096,30.049276],[-99.819449,30.048265],[-99.819474,30.046798],[-99.819621,30.046534],[-99.820849,30.046107],[-99.820234,30.044426],[-99.820514,30.042526],[-99.819855,30.040636],[-99.819705,30.039015],[-99.819821,30.03823],[-99.820273,30.037692],[-99.820571,30.036785],[-99.822205,30.035355],[-99.821505,30.033841],[-99.821787,30.032266],[-99.826888,30.031721],[-99.82907,30.031016],[-99.833105,30.030846],[-99.833467,30.028274],[-99.834287,30.025335],[-99.834396,30.022959],[-99.833947,30.020581],[-99.832673,30.018123],[-99.829085,30.013025],[-99.828118,30.011288],[-99.822837,29.99852],[-99.82255,29.996832],[-99.822998,29.994741],[-99.824303,29.992758],[-99.83517,29.985476],[-99.836299,29.983976],[-99.837707,29.978145],[-99.837752,29.976178],[-99.836615,29.973921],[-99.833743,29.971721],[-99.835858,29.966732],[-99.836449,29.966116],[-99.837194,29.965769],[-99.839693,29.96582],[-99.840102,29.965521],[-99.840614,29.96456],[-99.843734,29.966486],[-99.843894,29.967522],[-99.844969,29.968993],[-99.846244,29.969687],[-99.847393,29.971028],[-99.849586,29.971722],[-99.850798,29.971568],[-99.851414,29.971756],[-99.852421,29.973377],[-99.852587,29.974249],[-99.854791,29.975496],[-99.855278,29.975187],[-99.856109,29.973977],[-99.856433,29.973903],[-99.859358,29.975589],[-99.86108,29.976926],[-99.86759,29.975148],[-99.867897,29.974702],[-99.867795,29.971736],[-99.868036,29.9709],[-99.868517,29.969836],[-99.869672,29.968879],[-99.870241,29.926821],[-99.870186,29.906734],[-99.869616,29.90642],[-99.868757,29.906324],[-99.869208,29.905714],[-99.868385,29.902477],[-99.866991,29.900482],[-99.867086,29.899048],[-99.867367,29.898494],[-99.86798,29.898019],[-99.86653,29.896783],[-99.865438,29.896479],[-99.865035,29.895419],[-99.864612,29.89497],[-99.864593,29.890762],[-99.863643,29.888375],[-99.862581,29.887358],[-99.861857,29.887533],[-99.858585,29.891651],[-99.858403,29.892836],[-99.857544,29.893262],[-99.855612,29.895038],[-99.853891,29.895432],[-99.853424,29.895958],[-99.852675,29.896253],[-99.850397,29.896987],[-99.848693,29.897286],[-99.847286,29.898056],[-99.846542,29.898162],[-99.844548,29.897938],[-99.843947,29.898191],[-99.84365,29.89704],[-99.843259,29.89688],[-99.842419,29.896738],[-99.840222,29.897217],[-99.83925,29.897101],[-99.838423,29.896738],[-99.837659,29.895792],[-99.836029,29.89494],[-99.834432,29.892839],[-99.833869,29.891546],[-99.832941,29.89076],[-99.826672,29.890904],[-99.825599,29.890436],[-99.825769,29.889754],[-99.824545,29.889028],[-99.819639,29.888126],[-99.817045,29.888055],[-99.814212,29.888638],[-99.812454,29.888189],[-99.811993,29.887088],[-99.8126,29.886724],[-99.812682,29.886146],[-99.813083,29.885806],[-99.81309,29.885466],[-99.813894,29.884281],[-99.81373,29.88416],[-99.814046,29.882774],[-99.813604,29.881151],[-99.813011,29.880282],[-99.813187,29.879638],[-99.812632,29.879094],[-99.811136,29.878753],[-99.810025,29.878208],[-99.809735,29.87818],[-99.809949,29.878428],[-99.809373,29.878251],[-99.807997,29.877073],[-99.80636,29.874838],[-99.805597,29.872528],[-99.804233,29.870095],[-99.802621,29.868555],[-99.800947,29.86775],[-99.800594,29.866956],[-99.800662,29.866709],[-99.801302,29.86666],[-99.804913,29.866658],[-99.805281,29.8664],[-99.806762,29.866094],[-99.807352,29.864505],[-99.807329,29.863765],[-99.805973,29.86315],[-99.80555,29.862513],[-99.805773,29.862275],[-99.805597,29.861904],[-99.805745,29.861702],[-99.806368,29.861678],[-99.807116,29.862011],[-99.80849,29.863406],[-99.809077,29.863538],[-99.809829,29.863219],[-99.809906,29.861713],[-99.811489,29.85969],[-99.814427,29.857838],[-99.814727,29.857503],[-99.814767,29.856988],[-99.816045,29.856833],[-99.816681,29.856442],[-99.817414,29.854769],[-99.81705,29.853679],[-99.817012,29.852383],[-99.817552,29.850962],[-99.817468,29.850498],[-99.817216,29.850151],[-99.816458,29.849808],[-99.814474,29.85049],[-99.812754,29.85081],[-99.812324,29.851486],[-99.811784,29.851714],[-99.809262,29.851497],[-99.808569,29.851183],[-99.807803,29.849852],[-99.807695,29.848591],[-99.809762,29.84734],[-99.811113,29.845769],[-99.810795,29.843822],[-99.807721,29.842042],[-99.807066,29.84119],[-99.806763,29.84027],[-99.806244,29.84005],[-99.806076,29.839724],[-99.803542,29.839516],[-99.803009,29.839712],[-99.801861,29.839491],[-99.80131,29.841032],[-99.800267,29.841811],[-99.79739,29.842141],[-99.796027,29.84206],[-99.79485,29.841269],[-99.793697,29.842555],[-99.792784,29.842922],[-99.792121,29.84244],[-99.79198,29.841846],[-99.791141,29.841764],[-99.791898,29.840603],[-99.791728,29.839618],[-99.791015,29.837324],[-99.790107,29.836894],[-99.789394,29.83558],[-99.788227,29.835337],[-99.786971,29.835728],[-99.785949,29.836476],[-99.78456,29.837026],[-99.782579,29.836145],[-99.784199,29.833838],[-99.783664,29.831064],[-99.784002,29.829958],[-99.783164,29.826498],[-99.782725,29.825858],[-99.779785,29.823187],[-99.779297,29.822192],[-99.778706,29.819705],[-99.777098,29.818324],[-99.77483,29.813837],[-99.774217,29.811295],[-99.771544,29.80889],[-99.770615,29.806849],[-99.770685,29.806345],[-99.774435,29.802456],[-99.778088,29.80079],[-99.781972,29.797519],[-99.78269,29.795237],[-99.782449,29.793951],[-99.784633,29.794174],[-99.787429,29.795299],[-99.790303,29.795642],[-99.791723,29.796703],[-99.795392,29.800862],[-99.796167,29.802678],[-99.798081,29.804789],[-99.798436,29.806136],[-99.797876,29.807279],[-99.798036,29.807793],[-99.801274,29.809332],[-99.806147,29.811057],[-99.80675,29.812588],[-99.808575,29.813407],[-99.809099,29.814365],[-99.810288,29.815495],[-99.812643,29.820119],[-99.813846,29.820366],[-99.818791,29.820322],[-99.819436,29.820178],[-99.820367,29.819451],[-99.821097,29.819178],[-99.821442,29.819313],[-99.822086,29.820175],[-99.822729,29.820336],[-99.823407,29.820052],[-99.824574,29.819052],[-99.827126,29.818736],[-99.828189,29.818939],[-99.829648,29.819672],[-99.831104,29.82113],[-99.831499,29.821274],[-99.832798,29.820972],[-99.834283,29.819512],[-99.835813,29.819934],[-99.837268,29.819291],[-99.840061,29.819749],[-99.841549,29.818876],[-99.842934,29.818686],[-99.844992,29.817793],[-99.845567,29.817119],[-99.845301,29.816125],[-99.846039,29.814631],[-99.846176,29.815803],[-99.846427,29.8159],[-99.84718,29.814821],[-99.847924,29.814216],[-99.848365,29.813942],[-99.849422,29.813968],[-99.849115,29.811724],[-99.850082,29.809406],[-99.850139,29.808167],[-99.851926,29.806881],[-99.853501,29.8049],[-99.85467,29.804164],[-99.854335,29.801437],[-99.85395,29.800877],[-99.854125,29.800262],[-99.853736,29.798608],[-99.852618,29.798112],[-99.851728,29.798212],[-99.850859,29.799402],[-99.850516,29.800486],[-99.849158,29.801458],[-99.848289,29.801633],[-99.845835,29.803238],[-99.844924,29.803192],[-99.843372,29.80349],[-99.842418,29.804219],[-99.840772,29.80456],[-99.837107,29.803966],[-99.835945,29.804158],[-99.83556,29.803956],[-99.83545,29.803264],[-99.835917,29.801271],[-99.835859,29.800591],[-99.83555,29.800321],[-99.83245,29.80254],[-99.831935,29.80252],[-99.831076,29.801919],[-99.829555,29.801598],[-99.827365,29.802021],[-99.826806,29.80162],[-99.826822,29.801285],[-99.827741,29.800394],[-99.828124,29.799475],[-99.827548,29.798586],[-99.826678,29.797813],[-99.825974,29.797793],[-99.824478,29.798735],[-99.823852,29.7989],[-99.82109,29.798083],[-99.82023,29.79921],[-99.820021,29.800168],[-99.819173,29.800793],[-99.818592,29.800792],[-99.817244,29.800151],[-99.813965,29.800088],[-99.813315,29.800293],[-99.812472,29.801036],[-99.811715,29.800593],[-99.81129,29.799779],[-99.809008,29.79932],[-99.807937,29.797623],[-99.80676,29.796493],[-99.805923,29.796108],[-99.805166,29.796142],[-99.805229,29.793912],[-99.806135,29.793778],[-99.806938,29.794001],[-99.807641,29.793758],[-99.80775,29.793425],[-99.807097,29.793359],[-99.806987,29.793103],[-99.808334,29.792817],[-99.809945,29.791641],[-99.810406,29.790582],[-99.810825,29.790363],[-99.812377,29.790302],[-99.813596,29.791323],[-99.814781,29.791417],[-99.815313,29.791797],[-99.818637,29.792718],[-99.819689,29.792564],[-99.820473,29.792047],[-99.823274,29.790983],[-99.825456,29.790649],[-99.825776,29.789882],[-99.825471,29.788057],[-99.827057,29.785583],[-99.827473,29.785439],[-99.829512,29.786481],[-99.831179,29.786053],[-99.832154,29.784162],[-99.834508,29.782018],[-99.835434,29.78047],[-99.838559,29.777859],[-99.839007,29.77733],[-99.839097,29.776543],[-99.839688,29.776035],[-99.841708,29.774541],[-99.845858,29.773601],[-99.845466,29.772356],[-99.845562,29.771778],[-99.846068,29.77108],[-99.842605,29.770228],[-99.841136,29.769419],[-99.830717,29.757788],[-99.82876,29.753725],[-99.826027,29.752611],[-99.822969,29.750426],[-99.822811,29.74936],[-99.823047,29.747987],[-99.824423,29.746739],[-99.824684,29.745606],[-99.824228,29.745063],[-99.823206,29.744953],[-99.822528,29.744572],[-99.822326,29.743788],[-99.822674,29.74291],[-99.822575,29.7424],[-99.820643,29.741094],[-99.820584,29.740489],[-99.821095,29.739004],[-99.820819,29.738311],[-99.820258,29.738202],[-99.819726,29.738655],[-99.81945,29.73944],[-99.819474,29.740857],[-99.818865,29.741252],[-99.818308,29.741104],[-99.816853,29.739891],[-99.810654,29.740701],[-99.809257,29.740186],[-99.803543,29.737086],[-99.796871,29.736376],[-99.793778,29.736364],[-99.790021,29.73503],[-99.783976,29.733865],[-99.782317,29.733146],[-99.78024,29.731573],[-99.774816,29.726354],[-99.767414,29.725722],[-99.766694,29.725145],[-99.766471,29.724695],[-99.772074,29.724688],[-99.772123,29.723595],[-99.771572,29.723562],[-99.771468,29.722132],[-99.771715,29.721606],[-99.765196,29.721186],[-99.765021,29.720142],[-99.763313,29.720404],[-99.763106,29.70544],[-99.763564,29.6993],[-99.762093,29.687801],[-99.761026,29.680279],[-99.756436,29.66664],[-99.754853,29.657396],[-99.756839,29.631196],[-99.755369,29.624763],[-99.858173,29.62419],[-99.869566,29.624163],[-99.87534,29.624377],[-99.890935,29.624282],[-99.891113,29.659023],[-99.890573,29.661761],[-99.890647,29.662408],[-99.891291,29.663414],[-99.891319,29.664434],[-99.891123,29.691257],[-99.866997,29.69134],[-99.867415,29.693968],[-99.867728,29.694423],[-99.867572,29.695049],[-99.868291,29.696648],[-99.867505,29.698419],[-99.867596,29.698653],[-99.868722,29.699216],[-99.868922,29.700032],[-99.869377,29.700557],[-99.871238,29.700948],[-99.870855,29.702302],[-99.871128,29.70412],[-99.870931,29.70522],[-99.871562,29.705703],[-99.87086,29.706122],[-99.870822,29.707264],[-99.869479,29.707984],[-99.869183,29.708382],[-99.867243,29.708413],[-99.86672,29.708963],[-99.868442,29.710187],[-99.86739,29.711587],[-99.867213,29.712227],[-99.881955,29.709983],[-99.882286,29.710992],[-99.881961,29.711835],[-99.880509,29.712056],[-99.879573,29.71249],[-99.877694,29.712467],[-99.877451,29.71281],[-99.878099,29.713259],[-99.880154,29.713462],[-99.883671,29.713136],[-99.88375,29.712829],[-99.884439,29.712374],[-99.885112,29.713809],[-99.888409,29.715651],[-99.888634,29.716047],[-99.888481,29.716589],[-99.886828,29.717086],[-99.886244,29.717666],[-99.884068,29.717189],[-99.882691,29.717254],[-99.881912,29.718258],[-99.881905,29.720803],[-99.881122,29.722693],[-99.880421,29.723315],[-99.878025,29.72368],[-99.877592,29.724233],[-99.877827,29.725179],[-99.878974,29.726127],[-99.88015,29.727777],[-99.880372,29.728438],[-99.881195,29.729042],[-99.88181,29.729353],[-99.882283,29.72933],[-99.882559,29.728803],[-99.883255,29.728289],[-99.885199,29.729007],[-99.885676,29.729427],[-99.885854,29.729752],[-99.885404,29.730394],[-99.885365,29.731235],[-99.884471,29.732492],[-99.884717,29.733265],[-99.884515,29.734263],[-99.885129,29.734941],[-99.887827,29.734457],[-99.888921,29.733329],[-99.889505,29.733411],[-99.891493,29.734358],[-99.89308,29.73553],[-99.893072,29.736345],[-99.894082,29.737785],[-99.894177,29.738351],[-99.894797,29.737131],[-99.895243,29.736994],[-99.897803,29.737638],[-99.898664,29.738112],[-99.899319,29.738149],[-99.899872,29.738547],[-99.901049,29.740388],[-99.900737,29.741626],[-99.900832,29.742245],[-99.898662,29.743701],[-99.897036,29.744153],[-99.896597,29.7447],[-99.897014,29.745629],[-99.897471,29.745999],[-99.899206,29.746615],[-99.90016,29.747512],[-99.902261,29.747651],[-99.904198,29.750165],[-99.905263,29.750754],[-99.905975,29.750639],[-99.90667,29.749949],[-99.907988,29.749379],[-99.905137,29.751811],[-99.905384,29.752919],[-99.90651,29.753529],[-99.907249,29.754822],[-99.90412,29.760921],[-99.897269,29.767686],[-99.89546,29.768415],[-99.887924,29.769192],[-99.87599,29.771587],[-99.874348,29.771707],[-99.87393,29.773048],[-99.872635,29.775038],[-99.872384,29.777758],[-99.872675,29.778524],[-99.874583,29.778614],[-99.877523,29.777089],[-99.878426,29.77717],[-99.880968,29.776715],[-99.881777,29.777325],[-99.882028,29.777652],[-99.881883,29.779847],[-99.88212,29.780798],[-99.883301,29.781422],[-99.883879,29.782245],[-99.884942,29.785379],[-99.884295,29.78612],[-99.883894,29.787156],[-99.883774,29.788388],[-99.882745,29.789141],[-99.882631,29.789504],[-99.884529,29.791084],[-99.884875,29.791843],[-99.884692,29.792173],[-99.882516,29.792596],[-99.881166,29.793349],[-99.880598,29.794196],[-99.880799,29.795148],[-99.881467,29.796105],[-99.882836,29.796716],[-99.884261,29.796689],[-99.8865,29.79768],[-99.887036,29.797422],[-99.887289,29.796008],[-99.88768,29.795618],[-99.888343,29.795415],[-99.889087,29.795668],[-99.889603,29.796499],[-99.889287,29.798072],[-99.889432,29.799117],[-99.890228,29.800613],[-99.89138,29.801852],[-99.89194,29.803035],[-99.891706,29.804905],[-99.892135,29.80611],[-99.893024,29.806672],[-99.893989,29.80682],[-99.895421,29.806634],[-99.896512,29.806139],[-99.897421,29.806178],[-99.897925,29.806458],[-99.897994,29.807493],[-99.898385,29.808356],[-99.900024,29.809309],[-99.90268,29.810123],[-99.903058,29.811103],[-99.902534,29.813094],[-99.903044,29.814293],[-99.903258,29.815801],[-99.90411,29.816714],[-99.904551,29.816879],[-99.905586,29.816626],[-99.906242,29.81606],[-99.906564,29.815504],[-99.906804,29.813133],[-99.907392,29.811456],[-99.90794,29.810895],[-99.908729,29.810779],[-99.911069,29.811143],[-99.913599,29.812057],[-99.913933,29.812937],[-99.913895,29.813569],[-99.913409,29.814736],[-99.911503,29.816754],[-99.907831,29.819322],[-99.906903,29.820461],[-99.906442,29.821247],[-99.906272,29.822166],[-99.90631,29.822727],[-99.906719,29.823305],[-99.907773,29.824053],[-99.909628,29.824406],[-99.913394,29.826172],[-99.914813,29.826475],[-99.915274,29.826293],[-99.915513,29.825782],[-99.914826,29.822542],[-99.914997,29.821398],[-99.915483,29.821134],[-99.921359,29.821461],[-99.925536,29.822629],[-99.926078,29.823876],[-99.925675,29.824905],[-99.923481,29.826569],[-99.922533,29.826797],[-99.921645,29.827352],[-99.919205,29.827987],[-99.918482,29.828632],[-99.918294,29.829464],[-99.919385,29.831302],[-99.920352,29.831884],[-99.921972,29.832049],[-99.925493,29.831637],[-99.924579,29.833182],[-99.924181,29.8347],[-99.923443,29.835718],[-99.922875,29.837423],[-99.923625,29.838435],[-99.925304,29.839288],[-99.925348,29.839552],[-99.926786,29.8403],[-99.927405,29.8409],[-99.927783,29.842699],[-99.927606,29.843276],[-99.926635,29.844041],[-99.925094,29.843966],[-99.923674,29.843466],[-99.922056,29.84343],[-99.921136,29.843093],[-99.918801,29.841063],[-99.914328,29.840007],[-99.913656,29.84035],[-99.913418,29.840945],[-99.913586,29.842286],[-99.914632,29.844585],[-99.914419,29.845059],[-99.912439,29.845812],[-99.911766,29.845864],[-99.910722,29.845726],[-99.908187,29.844715],[-99.906095,29.843567],[-99.904424,29.844224],[-99.903536,29.845144],[-99.903241,29.846351],[-99.902143,29.847035],[-99.902856,29.847488],[-99.903288,29.849076],[-99.903472,29.851159],[-99.903053,29.851852],[-99.903364,29.852917],[-99.902896,29.853796],[-99.901088,29.855223],[-99.898286,29.855378],[-99.897737,29.855198],[-99.897175,29.855407],[-99.896139,29.856897],[-99.896171,29.857365],[-99.896732,29.857849],[-99.898076,29.858432],[-99.900045,29.85884],[-99.900398,29.858994],[-99.900455,29.859401],[-99.899937,29.859946],[-99.896232,29.861309],[-99.893997,29.863002],[-99.893486,29.863745],[-99.892867,29.86528],[-99.893068,29.86594],[-99.893681,29.866458],[-99.893498,29.867096],[-99.893605,29.869103],[-99.893927,29.869816],[-99.893811,29.870309],[-99.893003,29.871215],[-99.889184,29.871379],[-99.887518,29.871951],[-99.886489,29.872742],[-99.884409,29.874997],[-99.884123,29.877467],[-99.884284,29.879614],[-99.884548,29.880459],[-99.885158,29.881016],[-99.885325,29.881491],[-99.886447,29.881997],[-99.887066,29.882616],[-99.889103,29.882862],[-99.891414,29.884289],[-99.894051,29.88441],[-99.89613,29.883684],[-99.896302,29.884054],[-99.896104,29.884752],[-99.897278,29.885962],[-99.89728,29.886253],[-99.895006,29.886671],[-99.894542,29.886895],[-99.894197,29.887659],[-99.894694,29.889482],[-99.895524,29.890127],[-99.895121,29.891226],[-99.895372,29.89171],[-99.897543,29.892491],[-99.899124,29.892277],[-99.900517,29.892639],[-99.901047,29.892554],[-99.902013,29.892982],[-99.902542,29.892921],[-99.903307,29.89208],[-99.90379,29.892016],[-99.904582,29.892292],[-99.903777,29.892882],[-99.903137,29.893925],[-99.90195,29.894768],[-99.900036,29.895043],[-99.898337,29.896544],[-99.897409,29.896896],[-99.897572,29.899157],[-99.896991,29.900554],[-99.895774,29.902069],[-99.896244,29.904031],[-99.895388,29.90566],[-99.895455,29.906225],[-99.894989,29.906737],[-99.893581,29.907089],[-99.892585,29.908037],[-99.892079,29.908178],[-99.892472,29.908621],[-99.892677,29.911316],[-99.891811,29.912328],[-99.891833,29.912957],[-99.891227,29.91357],[-99.89065,29.914671],[-99.890797,29.915227],[-99.891836,29.916573],[-99.892149,29.919091],[-99.893454,29.922081],[-99.893692,29.924579],[-99.893043,29.925162],[-99.892701,29.926915],[-99.893104,29.927451],[-99.892257,29.927583],[-99.892663,29.92793],[-99.8959,29.928564],[-99.896771,29.929395],[-99.897327,29.929445],[-99.898211,29.931118],[-99.902365,29.935409],[-99.906179,29.936868],[-99.907897,29.938266],[-99.908977,29.938425],[-99.912324,29.937849],[-99.913177,29.938118],[-99.913903,29.940489],[-99.914167,29.942904],[-99.916175,29.945594],[-99.917611,29.94628],[-99.917708,29.946761],[-99.92088,29.946406],[-99.923561,29.9458],[-99.925617,29.946069],[-99.928623,29.947477],[-99.929598,29.948453],[-99.930474,29.948408],[-99.932352,29.951135],[-99.934866,29.95272],[-99.936729,29.953259],[-99.938132,29.953072],[-99.940015,29.951258],[-99.940747,29.951439],[-99.943312,29.950811],[-99.946357,29.950853],[-99.949522,29.952738],[-99.94992,29.952819],[-99.950531,29.952503],[-99.951654,29.95243],[-99.951584,29.953238],[-99.950495,29.954451],[-99.950256,29.955523],[-99.950433,29.956125],[-99.951271,29.956735],[-99.952197,29.955536],[-99.952811,29.955539],[-99.953531,29.956008],[-99.956036,29.955576],[-99.958289,29.954537],[-99.958719,29.953951],[-99.959029,29.952887],[-99.959975,29.952802],[-99.96063,29.953031],[-99.960876,29.953375],[-99.960797,29.953983],[-99.958792,29.955509],[-99.958753,29.956305],[-99.954266,29.959044],[-99.953534,29.959897],[-99.953066,29.961102],[-99.95342,29.961888],[-99.9546,29.962774],[-99.954999,29.963859],[-99.957745,29.965744],[-99.958991,29.967889],[-99.960461,29.969011],[-99.960254,29.970919],[-99.960981,29.972682],[-99.960542,29.977628],[-99.958281,29.979214],[-99.957922,29.978994],[-99.95719,29.979203],[-99.956886,29.978847],[-99.955332,29.980987],[-99.955294,29.981702],[-99.955105,29.981796],[-99.955079,29.981015],[-99.956406,29.978726],[-99.955244,29.979088],[-99.956387,29.978328],[-99.954632,29.978894],[-99.953805,29.978597],[-99.953539,29.978238],[-99.951374,29.978226],[-99.94971,29.978577],[-99.948721,29.97841],[-99.947991,29.978616],[-99.94641,29.976906],[-99.944767,29.976164],[-99.943667,29.976456],[-99.941286,29.978508],[-99.938872,29.979415],[-99.937867,29.979443],[-99.937558,29.979272],[-99.937419,29.978761],[-99.934215,29.977699],[-99.932263,29.978447],[-99.931223,29.979348],[-99.929762,29.979548],[-99.928702,29.98009],[-99.927692,29.980967],[-99.927243,29.982498],[-99.926963,29.982623],[-99.925962,29.982632],[-99.923725,29.983111],[-99.92145,29.983941],[-99.920666,29.983966],[-99.919875,29.983585],[-99.919162,29.983844],[-99.917673,29.984961],[-99.914931,29.985751],[-99.913785,29.986754],[-99.912816,29.988228],[-99.912351,29.987862],[-99.912634,29.985554],[-99.91229,29.984699],[-99.910274,29.983522],[-99.909921,29.982503],[-99.908171,29.983592],[-99.907556,29.984567],[-99.906443,29.9848],[-99.906127,29.985097],[-99.902497,29.98533],[-99.901011,29.98623],[-99.899698,29.986384],[-99.898374,29.986144],[-99.894891,29.987185],[-99.893948,29.986406],[-99.892267,29.985515],[-99.891556,29.985486],[-99.889619,29.986458],[-99.888028,29.98666],[-99.887101,29.987013],[-99.885866,29.987021],[-99.884916,29.988088],[-99.885522,29.989026],[-99.885544,29.990691],[-99.886361,29.992211],[-99.886458,29.993517],[-99.886243,29.994703],[-99.886761,29.996226],[-99.887164,29.996703],[-99.889971,29.997181],[-99.891021,29.998792],[-99.892512,29.99914],[-99.894315,29.999055],[-99.893003,29.999631],[-99.892509,30.000181],[-99.887732,30.000933],[-99.885725,30.000557],[-99.884615,30.000055],[-99.882983,30.000533],[-99.880344,30.002305],[-99.878703,30.002167],[-99.875938,30.002338],[-99.875341,30.001916],[-99.875112,30.001027],[-99.874667,30.00061],[-99.87324,29.999963],[-99.871919,29.998853],[-99.871678,29.998306],[-99.869174,29.998334],[-99.869097,30.003595],[-99.868671,30.003377],[-99.867332,30.003634],[-99.865714,30.003387],[-99.864975,30.003506],[-99.863968,30.004017],[-99.863068,30.004112],[-99.86203,30.004862],[-99.861793,30.005476],[-99.862037,30.006045],[-99.861486,30.007656],[-99.861874,30.008849],[-99.861227,30.009434],[-99.861279,30.010011],[-99.860976,30.010517],[-99.861153,30.011529],[-99.860831,30.012817],[-99.860394,30.013183],[-99.860144,30.014715],[-99.859281,30.015324],[-99.857032,30.015434],[-99.855569,30.017048],[-99.855122,30.017127],[-99.854487,30.018716],[-99.854662,30.020747],[-99.853434,30.021928],[-99.853641,30.022536],[-99.854416,30.0232],[-99.854207,30.025737],[-99.853949,30.026408],[-99.854408,30.029524],[-99.85458,30.029912],[-99.855256,30.030195],[-99.855278,30.030947],[-99.857477,30.033124],[-99.858757,30.035206],[-99.858706,30.036212],[-99.857853,30.039542],[-99.8438,30.045425],[-99.844085,30.045972],[-99.844228,30.061922],[-99.84351,30.069296],[-99.844119,30.070987],[-99.844659,30.071115],[-99.845246,30.070962],[-99.845388,30.071609],[-99.845014,30.071954],[-99.844994,30.072534],[-99.846061,30.073831],[-99.729223,30.074192]]]}},{"type":"Feature","properties":{"PRECINCT":"7","VTD":"0007"},"geometry":{"type":"Polygon","coordinates":[[[-99.917482,30.078597],[-99.918029,30.073637],[-99.846061,30.073831],[-99.844994,30.072534],[-99.845014,30.071954],[-99.845388,30.071609],[-99.845246,30.070962],[-99.844659,30.071115],[-99.844119,30.070987],[-99.843561,30.069647],[-99.844228,30.061922],[-99.844085,30.045972],[-99.8438,30.045425],[-99.857853,30.039542],[-99.858706,30.036212],[-99.858757,30.035206],[-99.857477,30.033124],[-99.855278,30.030947],[-99.855256,30.030195],[-99.85458,30.029912],[-99.854408,30.029524],[-99.853949,30.026408],[-99.854207,30.025737],[-99.854416,30.0232],[-99.853641,30.022536],[-99.853434,30.021928],[-99.854662,30.020747],[-99.854487,30.018716],[-99.855122,30.017127],[-99.855569,30.017048],[-99.857032,30.015434],[-99.859281,30.015324],[-99.860144,30.014715],[-99.860394,30.013183],[-99.860831,30.012817],[-99.861153,30.011529],[-99.860976,30.010517],[-99.861279,30.010011],[-99.861227,30.009434],[-99.861874,30.008849],[-99.861486,30.007656],[-99.862037,30.006045],[-99.861793,30.005476],[-99.86203,30.004862],[-99.863068,30.004112],[-99.863968,30.004017],[-99.864975,30.003506],[-99.865714,30.003387],[-99.867332,30.003634],[-99.868671,30.003377],[-99.869097,30.003595],[-99.869174,29.998334],[-99.871678,29.998306],[-99.871919,29.998853],[-99.87324,29.999963],[-99.874667,30.00061],[-99.875112,30.001027],[-99.875341,30.001916],[-99.875938,30.002338],[-99.878703,30.002167],[-99.880344,30.002305],[-99.882983,30.000533],[-99.884615,30.000055],[-99.885725,30.000557],[-99.887732,30.000933],[-99.892509,30.000181],[-99.893003,29.999631],[-99.894315,29.999055],[-99.892512,29.99914],[-99.891021,29.998792],[-99.889971,29.997181],[-99.887164,29.996703],[-99.886761,29.996226],[-99.886243,29.994703],[-99.886458,29.993517],[-99.886361,29.992211],[-99.885544,29.990691],[-99.885522,29.989026],[-99.884916,29.988088],[-99.885866,29.987021],[-99.887101,29.987013],[-99.888028,29.98666],[-99.889619,29.986458],[-99.891556,29.985486],[-99.892267,29.985515],[-99.893948,29.986406],[-99.894891,29.987185],[-99.898374,29.986144],[-99.899698,29.986384],[-99.901011,29.98623],[-99.902497,29.98533],[-99.906127,29.985097],[-99.906443,29.9848],[-99.907556,29.984567],[-99.908171,29.983592],[-99.909921,29.982503],[-99.910274,29.983522],[-99.91229,29.984699],[-99.912634,29.985554],[-99.912351,29.987862],[-99.912816,29.988228],[-99.913785,29.986754],[-99.914931,29.985751],[-99.917673,29.984961],[-99.919162,29.983844],[-99.919875,29.983585],[-99.920666,29.983966],[-99.92145,29.983941],[-99.923725,29.983111],[-99.925962,29.982632],[-99.926963,29.982623],[-99.927243,29.982498],[-99.927692,29.980967],[-99.928702,29.98009],[-99.929762,29.979548],[-99.931223,29.979348],[-99.932263,29.978447],[-99.934215,29.977699],[-99.937419,29.978761],[-99.937558,29.979272],[-99.937867,29.979443],[-99.938872,29.979415],[-99.941286,29.978508],[-99.943667,29.976456],[-99.944767,29.976164],[-99.94641,29.976906],[-99.947991,29.978616],[-99.948721,29.97841],[-99.94971,29.978577],[-99.951374,29.978226],[-99.953539,29.978238],[-99.953805,29.978597],[-99.954632,29.978894],[-99.956387,29.978328],[-99.955244,29.979088],[-99.956406,29.978726],[-99.955079,29.981015],[-99.955105,29.981796],[-99.955294,29.981702],[-99.955332,29.980987],[-99.956709,29.978984],[-99.956886,29.978847],[-99.95719,29.979203],[-99.957922,29.978994],[-99.958281,29.979214],[-99.960084,29.978119],[-99.960569,29.977526],[-99.960981,29.972682],[-99.960254,29.970919],[-99.960461,29.969011],[-99.958991,29.967889],[-99.957745,29.965744],[-99.954999,29.963859],[-99.9546,29.962774],[-99.95342,29.961888],[-99.953066,29.961102],[-99.953534,29.959897],[-99.954266,29.959044],[-99.958753,29.956305],[-99.958792,29.955509],[-99.960797,29.953983],[-99.960876,29.953375],[-99.96063,29.953031],[-99.959975,29.952802],[-99.959029,29.952887],[-99.958719,29.953951],[-99.958289,29.954537],[-99.956036,29.955576],[-99.953531,29.956008],[-99.952811,29.955539],[-99.952197,29.955536],[-99.951271,29.956735],[-99.950433,29.956125],[-99.950256,29.955523],[-99.950495,29.954451],[-99.951584,29.953238],[-99.951654,29.95243],[-99.950531,29.952503],[-99.94992,29.952819],[-99.949522,29.952738],[-99.946357,29.950853],[-99.943312,29.950811],[-99.940747,29.951439],[-99.940015,29.951258],[-99.938132,29.953072],[-99.936729,29.953259],[-99.934866,29.95272],[-99.932352,29.951135],[-99.930474,29.948408],[-99.929598,29.948453],[-99.928623,29.947477],[-99.925617,29.946069],[-99.923561,29.9458],[-99.92088,29.946406],[-99.917708,29.946761],[-99.917611,29.94628],[-99.916175,29.945594],[-99.914167,29.942904],[-99.913903,29.940489],[-99.913177,29.938118],[-99.912324,29.937849],[-99.908977,29.938425],[-99.907897,29.938266],[-99.906179,29.936868],[-99.902365,29.935409],[-99.898211,29.931118],[-99.897327,29.929445],[-99.896771,29.929395],[-99.8959,29.928564],[-99.892305,29.927714],[-99.89236,29.927497],[-99.893104,29.927451],[-99.892701,29.926915],[-99.893017,29.925243],[-99.893677,29.924673],[-99.893454,29.922081],[-99.892149,29.919091],[-99.891836,29.916573],[-99.890797,29.915227],[-99.89065,29.914671],[-99.891227,29.91357],[-99.891833,29.912957],[-99.891811,29.912328],[-99.892677,29.911316],[-99.892472,29.908621],[-99.892079,29.908178],[-99.892585,29.908037],[-99.893581,29.907089],[-99.894989,29.906737],[-99.895455,29.906225],[-99.895388,29.90566],[-99.896244,29.904031],[-99.895774,29.902069],[-99.896991,29.900554],[-99.897572,29.899157],[-99.897409,29.896896],[-99.898337,29.896544],[-99.900036,29.895043],[-99.90195,29.894768],[-99.903137,29.893925],[-99.903777,29.892882],[-99.904582,29.892292],[-99.90379,29.892016],[-99.903307,29.89208],[-99.902542,29.892921],[-99.902013,29.892982],[-99.901047,29.892554],[-99.900517,29.892639],[-99.899124,29.892277],[-99.897543,29.892491],[-99.895372,29.89171],[-99.895121,29.891226],[-99.895524,29.890127],[-99.894694,29.889482],[-99.894197,29.887659],[-99.894542,29.886895],[-99.895006,29.886671],[-99.89728,29.886253],[-99.897278,29.885962],[-99.896104,29.884752],[-99.896302,29.884054],[-99.89613,29.883684],[-99.894051,29.88441],[-99.891414,29.884289],[-99.889103,29.882862],[-99.887066,29.882616],[-99.886447,29.881997],[-99.885605,29.881687],[-99.884548,29.880459],[-99.884284,29.879614],[-99.884251,29.875377],[-99.885819,29.87343],[-99.887518,29.871951],[-99.889184,29.871379],[-99.893003,29.871215],[-99.893811,29.870309],[-99.893927,29.869816],[-99.893605,29.869103],[-99.893498,29.867096],[-99.893681,29.866458],[-99.893068,29.86594],[-99.892867,29.86528],[-99.893486,29.863745],[-99.893997,29.863002],[-99.896232,29.861309],[-99.899937,29.859946],[-99.900455,29.859401],[-99.900398,29.858994],[-99.900045,29.85884],[-99.898076,29.858432],[-99.896732,29.857849],[-99.896171,29.857365],[-99.896139,29.856897],[-99.897175,29.855407],[-99.897737,29.855198],[-99.898286,29.855378],[-99.901088,29.855223],[-99.902896,29.853796],[-99.903364,29.852917],[-99.903053,29.851852],[-99.903472,29.851159],[-99.903288,29.849076],[-99.902856,29.847488],[-99.902143,29.847035],[-99.903241,29.846351],[-99.903536,29.845144],[-99.904424,29.844224],[-99.906095,29.843567],[-99.908187,29.844715],[-99.910722,29.845726],[-99.911766,29.845864],[-99.912439,29.845812],[-99.914419,29.845059],[-99.914632,29.844585],[-99.913586,29.842286],[-99.913418,29.840945],[-99.913656,29.84035],[-99.914328,29.840007],[-99.918801,29.841063],[-99.921463,29.843245],[-99.923872,29.843494],[-99.925173,29.843979],[-99.926849,29.843975],[-99.927745,29.84293],[-99.927405,29.8409],[-99.926786,29.8403],[-99.925348,29.839552],[-99.925304,29.839288],[-99.923625,29.838435],[-99.922875,29.837423],[-99.923443,29.835718],[-99.924181,29.8347],[-99.924579,29.833182],[-99.925607,29.831466],[-99.926131,29.831207],[-99.928531,29.83144],[-99.930472,29.832137],[-99.930475,29.834794],[-99.929708,29.836032],[-99.928944,29.836741],[-99.929941,29.838095],[-99.930616,29.838331],[-99.931197,29.840427],[-99.932516,29.841582],[-99.934402,29.841791],[-99.936112,29.841269],[-99.936295,29.841538],[-99.937696,29.841434],[-99.939854,29.840812],[-99.943122,29.838226],[-99.94381,29.836626],[-99.943829,29.835547],[-99.943103,29.83404],[-99.942226,29.833182],[-99.942068,29.832461],[-99.942016,29.830621],[-99.942276,29.829947],[-99.941853,29.82866],[-99.941923,29.827472],[-99.942667,29.826515],[-99.943538,29.826075],[-99.943941,29.824865],[-99.945449,29.824364],[-99.945676,29.823764],[-99.945493,29.822631],[-99.94485,29.822114],[-99.943701,29.822015],[-99.942269,29.823715],[-99.94114,29.823528],[-99.939102,29.821564],[-99.938724,29.819782],[-99.938162,29.818863],[-99.937393,29.818533],[-99.93644,29.81883],[-99.935633,29.818159],[-99.936327,29.816443],[-99.93726,29.815486],[-99.939411,29.814792],[-99.940717,29.815326],[-99.942237,29.815073],[-99.943606,29.813786],[-99.946993,29.812157],[-99.947315,29.811139],[-99.946798,29.810155],[-99.946558,29.80988],[-99.945946,29.809742],[-99.944413,29.810127],[-99.942609,29.812504],[-99.94142,29.81337],[-99.939922,29.81361],[-99.938673,29.81312],[-99.938086,29.812152],[-99.938295,29.810782],[-99.939985,29.808395],[-99.941108,29.807217],[-99.94153,29.806381],[-99.941726,29.805061],[-99.941057,29.804159],[-99.939582,29.803292],[-99.938421,29.803427],[-99.937664,29.804885],[-99.937613,29.805518],[-99.937033,29.805912],[-99.935753,29.805561],[-99.934677,29.804912],[-99.933719,29.80243],[-99.932653,29.801159],[-99.930103,29.801447],[-99.928324,29.802275],[-99.927139,29.802388],[-99.924558,29.800378],[-99.923267,29.799778],[-99.922839,29.798802],[-99.922573,29.797087],[-99.920575,29.795833],[-99.919689,29.79476],[-99.917743,29.793838],[-99.915646,29.793315],[-99.914732,29.792293],[-99.914265,29.79064],[-99.915286,29.789205],[-99.916427,29.786871],[-99.918429,29.784351],[-99.919125,29.782947],[-99.91988,29.779537],[-99.92118,29.778624],[-99.921891,29.777421],[-99.922125,29.776435],[-99.923283,29.776514],[-99.924379,29.777979],[-99.925805,29.77819],[-99.926805,29.777696],[-99.927787,29.776647],[-99.928702,29.776612],[-99.929731,29.775978],[-99.931371,29.775798],[-99.932212,29.775258],[-99.933645,29.775523],[-99.935051,29.776181],[-99.935702,29.777266],[-99.937841,29.77793],[-99.939311,29.7778],[-99.939919,29.778366],[-99.939638,29.779122],[-99.940609,29.780182],[-99.942277,29.780878],[-99.942172,29.782214],[-99.940516,29.784178],[-99.939917,29.785249],[-99.940444,29.786272],[-99.9413,29.786917],[-99.942072,29.789012],[-99.943563,29.789577],[-99.944459,29.790307],[-99.946659,29.791119],[-99.947437,29.79173],[-99.947831,29.792594],[-99.94849,29.792475],[-99.949312,29.792829],[-99.951495,29.791952],[-99.952126,29.792209],[-99.952832,29.790755],[-99.955367,29.787615],[-99.955408,29.786519],[-99.956313,29.784652],[-99.955956,29.784263],[-99.956803,29.784557],[-99.95918,29.783451],[-99.960461,29.784832],[-99.961098,29.785101],[-99.961923,29.783192],[-99.962094,29.783033],[-99.962611,29.783214],[-99.963241,29.782229],[-99.96355,29.780507],[-99.965044,29.781024],[-99.966614,29.780331],[-99.966829,29.77983],[-99.96621,29.778499],[-99.967169,29.778394],[-99.968014,29.778894],[-99.96952,29.776919],[-99.969899,29.776859],[-99.970454,29.777612],[-99.971305,29.776314],[-99.97208,29.775917],[-99.973391,29.775892],[-99.973745,29.775637],[-99.9737,29.775224],[-99.974089,29.774948],[-99.975257,29.775082],[-99.9779,29.774546],[-99.978915,29.775354],[-99.979407,29.775437],[-99.980599,29.775035],[-99.98116,29.775084],[-99.980901,29.77537],[-99.981053,29.775436],[-99.981658,29.774809],[-99.981525,29.774627],[-99.982433,29.773763],[-99.983108,29.773488],[-99.982672,29.77268],[-99.982206,29.772718],[-99.982439,29.772229],[-99.983391,29.772201],[-99.983817,29.771889],[-99.987516,29.77204],[-99.987035,29.770962],[-99.987848,29.770697],[-99.98827,29.770219],[-99.988938,29.768089],[-99.989505,29.767677],[-99.990438,29.767907],[-99.991157,29.767825],[-99.991346,29.767373],[-99.990696,29.766658],[-99.99067,29.766213],[-99.992353,29.765371],[-99.992574,29.765024],[-99.992939,29.763351],[-99.991999,29.762252],[-99.99198,29.761817],[-99.992799,29.760816],[-99.993114,29.760678],[-99.993019,29.760942],[-99.993763,29.760683],[-99.993958,29.760243],[-99.995194,29.760688],[-99.995743,29.760528],[-99.997797,29.758794],[-99.998598,29.758437],[-99.9989,29.758634],[-99.998787,29.759504],[-99.999008,29.759812],[-100.001716,29.759764],[-100.002517,29.75955],[-100.003079,29.758896],[-100.002189,29.758315],[-100.001877,29.757772],[-100.002351,29.757591],[-100.003325,29.758032],[-100.003817,29.757895],[-100.004927,29.756498],[-100.005798,29.755794],[-100.007355,29.755129],[-100.008298,29.753826],[-100.008597,29.752462],[-100.009128,29.751947],[-100.008459,29.754097],[-100.008653,29.755166],[-100.009219,29.756068],[-100.011399,29.757597],[-100.012939,29.758253],[-100.015202,29.758295],[-100.016622,29.758764],[-100.016988,29.758658],[-100.017517,29.75804],[-100.018998,29.757816],[-100.019945,29.757478],[-100.019913,29.757217],[-100.020155,29.757399],[-100.020182,29.757928],[-100.020954,29.758896],[-100.021258,29.760107],[-100.02203,29.761365],[-100.021885,29.762963],[-100.023813,29.765892],[-100.024493,29.768723],[-100.024412,29.769311],[-100.025561,29.769178],[-100.025955,29.769982],[-100.025762,29.770465],[-100.027136,29.771237],[-100.028983,29.771836],[-100.029125,29.772277],[-100.030512,29.772049],[-100.031261,29.771048],[-100.031655,29.771418],[-100.032139,29.771285],[-100.032923,29.771557],[-100.035138,29.77351],[-100.036281,29.775937],[-100.036419,29.777126],[-100.035958,29.77937],[-100.031865,29.780904],[-100.030238,29.782119],[-100.029073,29.783322],[-100.028471,29.784935],[-100.029259,29.786096],[-100.029391,29.786921],[-100.028976,29.788993],[-100.02869,29.789385],[-100.026912,29.79004],[-100.025821,29.78988],[-100.024812,29.789995],[-100.02391,29.790446],[-100.02227,29.790852],[-100.020964,29.79204],[-100.019846,29.79174],[-100.01788,29.791852],[-100.015439,29.793144],[-100.014541,29.793189],[-100.013291,29.794339],[-100.013469,29.796301],[-100.01594,29.800207],[-100.015542,29.801445],[-100.016172,29.802881],[-100.016474,29.805885],[-100.017085,29.80666],[-100.017287,29.807442],[-100.016788,29.809455],[-100.01704,29.809741],[-100.016831,29.810604],[-100.017225,29.812407],[-100.017846,29.813322],[-100.018325,29.813564],[-100.018564,29.81412],[-100.018463,29.814791],[-100.019018,29.815314],[-100.020033,29.815809],[-100.020847,29.815248],[-100.022333,29.815084],[-100.024033,29.816438],[-100.023692,29.817285],[-100.024568,29.819265],[-100.025104,29.819645],[-100.025295,29.820102],[-100.025765,29.822555],[-100.026301,29.823518],[-100.027266,29.82436],[-100.026736,29.826246],[-100.026483,29.826587],[-100.02584,29.826675],[-100.025555,29.827121],[-100.025347,29.828314],[-100.025542,29.829063],[-100.026476,29.830449],[-100.026759,29.830488],[-100.027535,29.832364],[-100.027907,29.83276],[-100.027761,29.834157],[-100.028487,29.83545],[-100.029124,29.835224],[-100.029528,29.835357],[-100.031458,29.836985],[-100.031947,29.839217],[-100.031268,29.840231],[-100.031402,29.841004],[-100.033532,29.84252],[-100.034327,29.842267],[-100.034893,29.843496],[-100.034238,29.846249],[-100.033298,29.846453],[-100.032383,29.847366],[-100.03088,29.848273],[-100.028508,29.848184],[-100.026167,29.848437],[-100.025036,29.848995],[-100.024032,29.849204],[-100.023427,29.85172],[-100.022714,29.852595],[-100.022165,29.854074],[-100.022605,29.855912],[-100.022073,29.859696],[-100.022395,29.861092],[-100.022117,29.862331],[-100.020318,29.863337],[-100.019553,29.864822],[-100.019395,29.86584],[-100.019811,29.867342],[-100.019556,29.869589],[-100.019616,29.870092],[-100.021192,29.871759],[-100.021785,29.872997],[-100.022201,29.873206],[-100.023034,29.873162],[-100.023571,29.873679],[-100.023871,29.874423],[-100.023902,29.875917],[-100.023144,29.877254],[-100.022894,29.878376],[-100.022972,29.881572],[-100.02361,29.881776],[-100.02375,29.882236],[-100.023533,29.882958],[-100.020647,29.885103],[-100.020047,29.886439],[-100.02016,29.88733],[-100.019535,29.888331],[-100.01855,29.888991],[-100.017268,29.890811],[-100.01562,29.891801],[-100.01531,29.891669],[-100.014565,29.891922],[-100.01346,29.89257],[-100.010303,29.893796],[-100.009412,29.894505],[-100.009595,29.895765],[-100.009015,29.897121],[-100.002302,29.896828],[-100.000349,29.915405],[-100.000349,29.919694],[-99.991829,30.000211],[-99.989672,30.025747],[-99.973046,30.024591],[-99.967626,30.082356],[-99.917482,30.078597]]]}}]}