{"type":"FeatureCollection","features":[{"type":"Feature","properties":{"PRECINCT":"harris:110","COUNTY":"Harris"},"geometry":{"type":"Polygon","coordinates":[[[-95.41598,30.08091],[-95.41136,30.07456],[-95.41168,30.07168],[-95.41105,30.0699],[-95.40682,30.06416],[-95.40604,30.06276],[-95.40359,30.05298],[-95.40382,30.05086],[-95.4077,30.04197],[-95.40863,30.0465],[-95.41594,30.04263],[-95.41692,30.04393],[-95.41899,30.04459],[-95.41921,30.04542],[-95.42078,30.0456],[-95.42049,30.04962],[-95.42168,30.05175],[-95.42356,30.05435],[-95.42816,30.05194],[-95.42949,30.0519],[-95.43189,30.05258],[-95.43556,30.0717],[-95.43613,30.07481],[-95.42486,30.07911],[-95.42391,30.07925],[-95.42158,30.07878],[-95.41887,30.07868],[-95.41746,30.07941],[-95.41767,30.07973],[-95.41741,30.07994],[-95.41755,30.08059],[-95.41598,30.08091]]]}},{"type":"Feature","properties":{"PRECINCT":"harris:114","COUNTY":"Harris"},"geometry":{"type":"Polygon","coordinates":[[[-95.57463,30.15178],[-95.57455,30.13196],[-95.57485,30.13085],[-95.57608,30.12968],[-95.57592,30.12837],[-95.5754,30.12797],[-95.57445,30.12789],[-95.57445,30.12943],[-95.574,30.13008],[-95.56662,30.13025],[-95.56571,30.13125],[-95.56252,30.13135],[-95.56276,30.13662],[-95.55345,30.1366],[-95.55457,30.11386],[-95.55425,30.11273],[-95.55341,30.11125],[-95.54665,30.10547],[-95.5473,30.1046],[-95.54736,30.10397],[-95.56928,30.10791],[-95.57226,30.10876],[-95.57798,30.11196],[-95.57788,30.09981],[-95.59398,30.09969],[-95.59257,30.10669],[-95.59277,30.11637],[-95.61951,30.11599],[-95.61964,30.12721],[-95.61992,30.1312],[-95.6196,30.13431],[-95.6192,30.13524],[-95.61963,30.13549],[-95.61959,30.1358],[-95.61876,30.13589],[-95.61856,30.13531],[-95.61749,30.13498],[-95.61687,30.13572],[-95.61636,30.13509],[-95.61589,30.13495],[-95.61316,30.13541],[-95.61253,30.13524],[-95.61219,30.13488],[-95.6111,30.13505],[-95.61053,30.13478],[-95.60939,30.13474],[-95.60818,30.13422],[-95.60746,30.13449],[-95.60699,30.13406],[-95.60628,30.13399],[-95.60609,30.1345],[-95.60546,30.13395],[-95.60551,30.13359],[-95.60465,30.13392],[-95.60366,30.13347],[-95.60339,30.13381],[-95.60295,30.13374],[-95.60251,30.13323],[-95.60249,30.13276],[-95.60186,30.13284],[-95.60216,30.13366],[-95.60085,30.13274],[-95.60033,30.13336],[-95.5975,30.13352],[-95.5973,30.13371],[-95.59739,30.13426],[-95.59716,30.1344],[-95.59653,30.13443],[-95.5964,30.13389],[-95.59616,30.13381],[-95.59574,30.1343],[-95.59602,30.13464],[-95.59501,30.13513],[-95.5948,30.13509],[-95.59483,30.1346],[-95.59433,30.13434],[-95.59408,30.13469],[-95.59418,30.13555],[-95.59356,30.13527],[-95.59263,30.13575],[-95.59193,30.13562],[-95.5916,30.13633],[-95.5911,30.13665],[-95.59086,30.13593],[-95.59061,30.13587],[-95.59034,30.1367],[-95.58963,30.13684],[-95.5881,30.13783],[-95.5869,30.14],[-95.58689,30.1409],[-95.58546,30.14201],[-95.58519,30.1448],[-95.58398,30.14574],[-95.58423,30.14665],[-95.58367,30.1468],[-95.58288,30.14759],[-95.58221,30.14746],[-95.58228,30.1482],[-95.58061,30.14991],[-95.57979,30.15011],[-95.57912,30.14977],[-95.57843,30.15025],[-95.5775,30.15011],[-95.57669,30.15074],[-95.57607,30.15072],[-95.5759,30.15126],[-95.57542,30.15165],[-95.57463,30.15178]]]}},{"type":"Feature","properties":{"PRECINCT":"harris:246","COUNTY":"Harris"},"geometry":{"type":"Polygon","coordinates":[[[-95.44695,30.06324],[-95.45291,30.05986],[-95.4554,30.05711],[-95.45789,30.05567],[-95.46222,30.05257],[-95.46841,30.05132],[-95.47614,30.04716],[-95.47387,30.04848],[-95.47674,30.05297],[-95.4771,30.054],[-95.47798,30.05416],[-95.47844,30.05512],[-95.4791,30.05528],[-95.47976,30.05585],[-95.48045,30.05743],[-95.47735,30.05919],[-95.47738,30.06026],[-95.4764,30.06445],[-95.47649,30.0706],[-95.46028,30.07069],[-95.45219,30.07045],[-95.44695,30.06324]]]}},{"type":"Feature","properties":{"PRECINCT":"harris:263","COUNTY":"Harris"},"geometry":{"type":"Polygon","coordinates":[[[-95.49681,30.06497],[-95.49606,30.06257],[-95.49603,30.05849],[-95.49277,30.05046],[-95.5017,30.0455],[-95.50512,30.04403],[-95.50657,30.04378],[-95.50792,30.04382],[-95.51033,30.04458],[-95.51187,30.04573],[-95.5141,30.04869],[-95.51516,30.04933],[-95.51685,30.04988],[-95.51847,30.05376],[-95.52095,30.05656],[-95.52146,30.05782],[-95.52156,30.06277],[-95.52012,30.06591],[-95.51788,30.06552],[-95.51538,30.06552],[-95.51364,30.06583],[-95.51178,30.06669],[-95.50841,30.06938],[-95.51342,30.0741],[-95.49682,30.07405],[-95.49681,30.06497]]]}},{"type":"Feature","properties":{"PRECINCT":"harris:399","COUNTY":"Harris"},"geometry":{"type":"Polygon","coordinates":[[[-95.38241,30.04036],[-95.38084,30.02982],[-95.38135,30.02513],[-95.3801,30.02037],[-95.38608,30.02152],[-95.39781,30.02648],[-95.40002,30.027],[-95.40122,30.02706],[-95.40252,30.02697],[-95.42178,30.02333],[-95.42898,30.02115],[-95.42928,30.02691],[-95.42937,30.03564],[-95.42914,30.03574],[-95.42651,30.03585],[-95.42535,30.03496],[-95.42358,30.03442],[-95.42319,30.03492],[-95.42239,30.03529],[-95.42118,30.03523],[-95.42063,30.03555],[-95.41943,30.0355],[-95.41865,30.03623],[-95.41733,30.0368],[-95.41662,30.03738],[-95.41477,30.03761],[-95.41333,30.03753],[-95.41164,30.03707],[-95.41031,30.03635],[-95.40828,30.03383],[-95.40807,30.03191],[-95.40633,30.03093],[-95.40452,30.03155],[-95.40426,30.03324],[-95.40235,30.03388],[-95.4011,30.03457],[-95.39999,30.03609],[-95.39907,30.03619],[-95.3987,30.03599],[-95.39864,30.03565],[-95.39812,30.03554],[-95.39688,30.03599],[-95.39548,30.03567],[-95.3944,30.03629],[-95.39283,30.03617],[-95.39073,30.03687],[-95.38884,30.03647],[-95.38706,30.03737],[-95.38413,30.03844],[-95.38309,30.03993],[-95.38241,30.04036]]]}},{"type":"Feature","properties":{"PRECINCT":"harris:41","COUNTY":"Harris"},"geometry":{"type":"Polygon","coordinates":[[[-95.43184,30.09837],[-95.43148,30.09791],[-95.43064,30.09828],[-95.42973,30.09619],[-95.42967,30.09502],[-95.42831,30.09508],[-95.42802,30.094],[-95.42682,30.09399],[-95.42656,30.09413],[-95.42656,30.09446],[-95.42567,30.09449],[-95.42559,30.09398],[-95.42279,30.09397],[-95.42223,30.09421],[-95.42183,30.09375],[-95.42174,30.08942],[-95.42176,30.08925],[-95.42216,30.08925],[-95.42214,30.08618],[-95.42361,30.08621],[-95.42301,30.08381],[-95.41868,30.08466],[-95.41872,30.08526],[-95.41716,30.08541],[-95.4128,30.08774],[-95.41337,30.08977],[-95.41219,30.09095],[-95.41084,30.09081],[-95.40984,30.08936],[-95.40706,30.09086],[-95.40544,30.09208],[-95.40224,30.09166],[-95.40026,30.09032],[-95.39987,30.0899],[-95.39902,30.08778],[-95.39849,30.08583],[-95.39806,30.08541],[-95.39695,30.08499],[-95.40282,30.08185],[-95.40251,30.08143],[-95.40304,30.08117],[-95.4033,30.08045],[-95.40583,30.0791],[-95.40633,30.07915],[-95.41141,30.07633],[-95.41239,30.076],[-95.41598,30.08091],[-95.41755,30.08059],[-95.41741,30.07994],[-95.41767,30.07973],[-95.41746,30.07941],[-95.41879,30.0787],[-95.42158,30.07878],[-95.4243,30.07925],[-95.43613,30.07481],[-95.43718,30.08113],[-95.43655,30.08448],[-95.43631,30.08443],[-95.43523,30.08909],[-95.43567,30.08569],[-95.43472,30.09015],[-95.43463,30.09308],[-95.43505,30.09762],[-95.43355,30.09754],[-95.43184,30.09837]]]}},{"type":"Feature","properties":{"PRECINCT":"harris:452","COUNTY":"Harris"},"geometry":{"type":"Polygon","coordinates":[[[-95.50116,30.11239],[-95.50066,30.11238],[-95.50075,30.11277],[-95.50011,30.11285],[-95.49967,30.11161],[-95.49876,30.11094],[-95.49874,30.10975],[-95.4977,30.10917],[-95.49631,30.10906],[-95.49517,30.10968],[-95.49387,30.10991],[-95.49309,30.11076],[-95.49186,30.11059],[-95.49179,30.11081],[-95.49134,30.11082],[-95.49112,30.11037],[-95.49128,30.10992],[-95.4904,30.10964],[-95.4894,30.10872],[-95.48858,30.10847],[-95.4883,30.10793],[-95.48539,30.10778],[-95.48462,30.10793],[-95.48343,30.10757],[-95.48307,30.10707],[-95.48228,30.10733],[-95.48185,30.10651],[-95.48065,30.10606],[-95.48028,30.10566],[-95.47965,30.10645],[-95.47921,30.10474],[-95.47792,30.10507],[-95.47746,30.10441],[-95.47576,30.104],[-95.4754,30.10354],[-95.47465,30.10322],[-95.47431,30.10388],[-95.47384,30.10349],[-95.47349,30.10367],[-95.47309,30.10462],[-95.47239,30.104],[-95.47213,30.10338],[-95.47062,30.10404],[-95.47015,30.10397],[-95.46937,30.10463],[-95.46898,30.10419],[-95.4682,30.10426],[-95.46796,30.1037],[-95.46731,30.10346],[-95.46646,30.10366],[-95.4661,30.10401],[-95.46651,30.10479],[-95.46636,30.10504],[-95.46559,30.10501],[-95.46477,30.10532],[-95.46446,30.10439],[-95.46405,30.10422],[-95.4636,30.10444],[-95.46292,30.1053],[-95.46188,30.10517],[-95.46064,30.10563],[-95.45965,30.10518],[-95.45879,30.10526],[-95.4586,30.1046],[-95.45724,30.1047],[-95.4567,30.10523],[-95.45634,30.10523],[-95.45571,30.10497],[-95.45514,30.10428],[-95.45339,30.10485],[-95.45364,30.10584],[-95.4535,30.10639],[-95.45238,30.10672],[-95.45203,30.1072],[-95.45192,30.10813],[-95.45119,30.10847],[-95.44721,30.10975],[-95.44655,30.10943],[-95.44522,30.10972],[-95.44352,30.10969],[-95.44189,30.10902],[-95.44032,30.10962],[-95.43927,30.1097],[-95.4389,30.11053],[-95.43737,30.10993],[-95.43664,30.11037],[-95.43579,30.10757],[-95.43533,30.09046],[-95.43688,30.08308],[-95.47155,30.08266],[-95.49091,30.08378],[-95.4942,30.08376],[-95.49957,30.0831],[-95.49962,30.088],[-95.50394,30.08798],[-95.50378,30.09237],[-95.504,30.09337],[-95.50349,30.0935],[-95.50423,30.09477],[-95.50398,30.09567],[-95.50347,30.09617],[-95.50678,30.09694],[-95.50674,30.11443],[-95.50606,30.1145],[-95.50387,30.11551],[-95.50348,30.11548],[-95.50261,30.11438],[-95.50221,30.11313],[-95.50116,30.11239]]]}},{"type":"Feature","properties":{"PRECINCT":"harris:477","COUNTY":"Harris"},"geometry":{"type":"Polygon","coordinates":[[[-95.51702,30.04757],[-95.51657,30.04577],[-95.51803,30.04393],[-95.51778,30.04328],[-95.51579,30.04159],[-95.51409,30.03912],[-95.51304,30.03818],[-95.51262,30.03686],[-95.51302,30.03613],[-95.51325,30.03486],[-95.51434,30.03501],[-95.51467,30.03415],[-95.51526,30.03355],[-95.51903,30.03144],[-95.51957,30.03143],[-95.51972,30.03084],[-95.52049,30.03035],[-95.51903,30.02804],[-95.52092,30.02694],[-95.52114,30.02724],[-95.52307,30.02642],[-95.52298,30.02532],[-95.52318,30.0249],[-95.52631,30.02306],[-95.52761,30.02417],[-95.53096,30.02793],[-95.53515,30.03437],[-95.53736,30.04],[-95.5384,30.04592],[-95.53649,30.04605],[-95.53416,30.04684],[-95.53003,30.04894],[-95.52594,30.05029],[-95.51988,30.05057],[-95.51699,30.04992],[-95.51681,30.04955],[-95.51702,30.04757]]]}},{"type":"Feature","properties":{"PRECINCT":"harris:482","COUNTY":"Harris"},"geometry":{"type":"Polygon","coordinates":[[[-95.48192,30.07061],[-95.47649,30.0706],[-95.4764,30.06445],[-95.47738,30.06026],[-95.47735,30.05919],[-95.48045,30.05743],[-95.47976,30.05585],[-95.4791,30.05528],[-95.47844,30.05512],[-95.47798,30.05416],[-95.4771,30.054],[-95.47674,30.05297],[-95.47387,30.04848],[-95.48856,30.04039],[-95.49603,30.05849],[-95.49606,30.06257],[-95.49683,30.06507],[-95.49682,30.07405],[-95.49308,30.0735],[-95.48571,30.07122],[-95.48192,30.07061]]]}},{"type":"Feature","properties":{"PRECINCT":"harris:500","COUNTY":"Harris"},"geometry":{"type":"Polygon","coordinates":[[[-95.43613,30.07481],[-95.42966,30.04005],[-95.42937,30.03564],[-95.4298,30.03546],[-95.4304,30.03468],[-95.43105,30.03456],[-95.43162,30.03564],[-95.43317,30.03581],[-95.43478,30.03403],[-95.43522,30.03408],[-95.43562,30.0345],[-95.43674,30.03425],[-95.43766,30.03468],[-95.43871,30.03406],[-95.43972,30.03441],[-95.44062,30.0341],[-95.44123,30.03417],[-95.44159,30.03535],[-95.44284,30.03631],[-95.44238,30.03732],[-95.44273,30.03809],[-95.44371,30.03886],[-95.44419,30.03897],[-95.44513,30.04167],[-95.44617,30.04323],[-95.44622,30.04417],[-95.44657,30.04486],[-95.44693,30.04523],[-95.44999,30.04639],[-95.44821,30.04736],[-95.44647,30.04728],[-95.44664,30.04867],[-95.44921,30.05218],[-95.44858,30.05256],[-95.44776,30.05235],[-95.44898,30.05394],[-95.44894,30.0555],[-95.44974,30.05652],[-95.44992,30.05848],[-95.44944,30.06029],[-95.45017,30.06154],[-95.44695,30.06324],[-95.45219,30.07045],[-95.4471,30.07031],[-95.44478,30.07063],[-95.44303,30.07124],[-95.43613,30.07481]]]}},{"type":"Feature","properties":{"PRECINCT":"harris:503","COUNTY":"Harris"},"geometry":{"type":"Polygon","coordinates":[[[-95.50583,30.13083],[-95.50594,30.12714],[-95.51032,30.12735],[-95.51319,30.12787],[-95.51364,30.12722],[-95.51362,30.12654],[-95.51516,30.12653],[-95.51445,30.12324],[-95.51473,30.1226],[-95.51608,30.12354],[-95.51796,30.12543],[-95.51965,30.12636],[-95.52197,30.12726],[-95.52383,30.12749],[-95.52682,30.12726],[-95.52704,30.13694],[-95.50931,30.13691],[-95.50928,30.14017],[-95.50485,30.1402],[-95.50492,30.13314],[-95.50583,30.13083]]]}},{"type":"Feature","properties":{"PRECINCT":"harris:539","COUNTY":"Harris"},"geometry":{"type":"Polygon","coordinates":[[[-95.49091,30.08378],[-95.47641,30.08293],[-95.47649,30.0706],[-95.48192,30.07061],[-95.4847,30.071],[-95.4927,30.0734],[-95.49682,30.07405],[-95.49671,30.08347],[-95.4942,30.08376],[-95.49091,30.08378]]]}},{"type":"Feature","properties":{"PRECINCT":"harris:552","COUNTY":"Harris"},"geometry":{"type":"Polygon","coordinates":[[[-95.5153,30.12161],[-95.51465,30.12061],[-95.51361,30.12073],[-95.51359,30.11995],[-95.51399,30.1188],[-95.51314,30.11796],[-95.51321,30.11718],[-95.51244,30.11618],[-95.51155,30.11582],[-95.51121,30.11496],[-95.5103,30.11509],[-95.50942,30.11428],[-95.50882,30.11403],[-95.50674,30.11443],[-95.50679,30.10132],[-95.50812,30.10124],[-95.50831,30.10284],[-95.50935,30.10264],[-95.50934,30.10105],[-95.51035,30.1001],[-95.51089,30.09997],[-95.51091,30.09951],[-95.51078,30.09857],[-95.50934,30.09814],[-95.50935,30.0974],[-95.54736,30.10397],[-95.5473,30.1046],[-95.54636,30.10592],[-95.54661,30.10793],[-95.54568,30.10807],[-95.54545,30.1088],[-95.54367,30.10849],[-95.54326,30.10899],[-95.54264,30.10919],[-95.54265,30.1101],[-95.54142,30.11122],[-95.54028,30.11108],[-95.53947,30.11158],[-95.53899,30.11139],[-95.53841,30.11057],[-95.53754,30.11081],[-95.53669,30.11152],[-95.53634,30.11259],[-95.53566,30.11299],[-95.53557,30.11429],[-95.53465,30.11434],[-95.5332,30.11482],[-95.5335,30.11544],[-95.5332,30.11578],[-95.53253,30.11596],[-95.53182,30.11559],[-95.53111,30.11642],[-95.52989,30.11708],[-95.52838,30.1151],[-95.52738,30.11476],[-95.52694,30.11383],[-95.52651,30.11379],[-95.52558,30.11305],[-95.52502,30.11343],[-95.52195,30.11393],[-95.5216,30.11464],[-95.5224,30.1158],[-95.52209,30.11625],[-95.52199,30.11807],[-95.52159,30.11842],[-95.52087,30.11828],[-95.52048,30.11857],[-95.52031,30.11898],[-95.52066,30.11972],[-95.52057,30.12015],[-95.51931,30.11994],[-95.51827,30.1203],[-95.51787,30.12096],[-95.51695,30.12153],[-95.51644,30.12153],[-95.51578,30.1219],[-95.5153,30.12161]]]}},{"type":"Feature","properties":{"PRECINCT":"harris:575","COUNTY":"Harris"},"geometry":{"type":"Polygon","coordinates":[[[-95.50394,30.08798],[-95.49962,30.088],[-95.49957,30.0831],[-95.49671,30.08347],[-95.49682,30.07405],[-95.5254,30.07402],[-95.53238,30.07332],[-95.54971,30.0731],[-95.55179,30.07328],[-95.5539,30.07384],[-95.55542,30.0744],[-95.55673,30.07524],[-95.555,30.07635],[-95.55244,30.07723],[-95.54479,30.07746],[-95.54192,30.07811],[-95.53967,30.0795],[-95.53654,30.08344],[-95.53462,30.08493],[-95.53278,30.08568],[-95.52694,30.08694],[-95.51434,30.09306],[-95.51209,30.09387],[-95.50896,30.09436],[-95.50412,30.09431],[-95.50349,30.0935],[-95.504,30.09337],[-95.50378,30.09237],[-95.50394,30.08798]]]}},{"type":"Feature","properties":{"PRECINCT":"harris:588","COUNTY":"Harris"},"geometry":{"type":"Polygon","coordinates":[[[-95.38222,30.08722],[-95.37923,30.08748],[-95.3784,30.08716],[-95.37685,30.08602],[-95.37586,30.08603],[-95.37497,30.08637],[-95.37457,30.0862],[-95.37423,30.08563],[-95.37413,30.08474],[-95.37437,30.0835],[-95.37416,30.08158],[-95.37374,30.0803],[-95.37261,30.07917],[-95.37102,30.07833],[-95.36986,30.078],[-95.37528,30.07508],[-95.37573,30.07549],[-95.37694,30.07418],[-95.40131,30.0608],[-95.41239,30.076],[-95.41141,30.07633],[-95.40633,30.07915],[-95.40583,30.0791],[-95.4033,30.08045],[-95.40304,30.08117],[-95.40251,30.08143],[-95.40282,30.08185],[-95.39695,30.08499],[-95.39562,30.08403],[-95.39264,30.08322],[-95.39174,30.08273],[-95.39128,30.08274],[-95.39045,30.08323],[-95.39011,30.08463],[-95.38972,30.08516],[-95.38891,30.08516],[-95.3874,30.08467],[-95.38654,30.08475],[-95.38515,30.08553],[-95.38469,30.0864],[-95.38498,30.08732],[-95.38476,30.08777],[-95.3836,30.08794],[-95.38222,30.08722]]]}},{"type":"Feature","properties":{"PRECINCT":"harris:596","COUNTY":"Harris"},"geometry":{"type":"Polygon","coordinates":[[[-95.37957,30.05742],[-95.37632,30.05295],[-95.37608,30.05308],[-95.37211,30.04733],[-95.37087,30.04797],[-95.36743,30.04861],[-95.36383,30.04402],[-95.36321,30.04404],[-95.3606,30.04565],[-95.3601,30.04568],[-95.35887,30.04522],[-95.35861,30.04571],[-95.35755,30.04513],[-95.35613,30.0433],[-95.35462,30.04341],[-95.35317,30.04152],[-95.36745,30.03374],[-95.3679,30.03487],[-95.36925,30.03643],[-95.37398,30.03734],[-95.37769,30.03937],[-95.37931,30.03922],[-95.38017,30.03952],[-95.38054,30.0401],[-95.38131,30.04044],[-95.38241,30.04036],[-95.38304,30.04203],[-95.39018,30.0541],[-95.3915,30.05522],[-95.38145,30.0608],[-95.37914,30.05766],[-95.37957,30.05742]]]}},{"type":"Feature","properties":{"PRECINCT":"harris:6","COUNTY":"Harris"},"geometry":{"type":"Polygon","coordinates":[[[-95.39922,30.059],[-95.39129,30.0551],[-95.39018,30.0541],[-95.38304,30.04203],[-95.38241,30.04036],[-95.38309,30.03993],[-95.38413,30.03844],[-95.38706,30.03737],[-95.38884,30.03647],[-95.39073,30.03687],[-95.39283,30.03617],[-95.3944,30.03629],[-95.39548,30.03567],[-95.39688,30.03599],[-95.39812,30.03554],[-95.39864,30.03565],[-95.3987,30.03599],[-95.39907,30.03619],[-95.39999,30.03609],[-95.4011,30.03457],[-95.40235,30.03388],[-95.40426,30.03324],[-95.40452,30.03155],[-95.40543,30.03112],[-95.4077,30.04016],[-95.40777,30.04152],[-95.40745,30.04287],[-95.40382,30.05086],[-95.40359,30.05298],[-95.40621,30.06316],[-95.41136,30.07052],[-95.4117,30.07211],[-95.41136,30.07456],[-95.4006,30.05997],[-95.39922,30.059]]]}},{"type":"Feature","properties":{"PRECINCT":"harris:634","COUNTY":"Harris"},"geometry":{"type":"Polygon","coordinates":[[[-95.35994,30.07686],[-95.35867,30.07653],[-95.356,30.07732],[-95.35363,30.07634],[-95.36995,30.06734],[-95.37233,30.06961],[-95.37404,30.07049],[-95.37666,30.07088],[-95.37905,30.07037],[-95.37895,30.06992],[-95.37553,30.06514],[-95.37534,30.06466],[-95.37551,30.06428],[-95.37679,30.06335],[-95.39161,30.05517],[-95.39956,30.05919],[-95.40131,30.0608],[-95.37694,30.07418],[-95.37573,30.07549],[-95.37528,30.07508],[-95.36986,30.078],[-95.36757,30.07802],[-95.3669,30.07784],[-95.36554,30.07659],[-95.36468,30.07682],[-95.36326,30.07796],[-95.36214,30.07839],[-95.3611,30.07815],[-95.35994,30.07686]]]}},{"type":"Feature","properties":{"PRECINCT":"harris:672","COUNTY":"Harris"},"geometry":{"type":"Polygon","coordinates":[[[-95.50812,30.10124],[-95.50679,30.10132],[-95.50678,30.09694],[-95.50347,30.09617],[-95.50398,30.09567],[-95.50412,30.09431],[-95.5094,30.09432],[-95.51276,30.09368],[-95.52694,30.08694],[-95.53392,30.08528],[-95.53536,30.08445],[-95.53654,30.08344],[-95.53895,30.08025],[-95.53994,30.07927],[-95.54267,30.07783],[-95.54479,30.07746],[-95.55244,30.07723],[-95.555,30.07635],[-95.55673,30.07524],[-95.56507,30.08246],[-95.56491,30.08302],[-95.56447,30.08327],[-95.56314,30.08299],[-95.56256,30.08361],[-95.56132,30.08387],[-95.56089,30.0843],[-95.56081,30.08481],[-95.55805,30.08597],[-95.55747,30.08639],[-95.55701,30.0872],[-95.55614,30.08728],[-95.55543,30.08931],[-95.5547,30.09001],[-95.55441,30.09106],[-95.55344,30.09136],[-95.5534,30.09233],[-95.5542,30.09309],[-95.55371,30.09389],[-95.55457,30.09553],[-95.55355,30.09606],[-95.55335,30.09671],[-95.55208,30.09796],[-95.55218,30.09926],[-95.55289,30.0999],[-95.55234,30.10041],[-95.5502,30.10076],[-95.54873,30.10131],[-95.54809,30.10209],[-95.54746,30.10185],[-95.54736,30.10397],[-95.50935,30.0974],[-95.50934,30.09814],[-95.51078,30.09857],[-95.51089,30.09997],[-95.51035,30.1001],[-95.50934,30.10105],[-95.50935,30.10264],[-95.50831,30.10284],[-95.50812,30.10124]]]}},{"type":"Feature","properties":{"PRECINCT":"harris:690","COUNTY":"Harris"},"geometry":{"type":"Polygon","coordinates":[[[-95.52704,30.1369],[-95.52682,30.12726],[-95.52835,30.12667],[-95.52962,30.12589],[-95.53214,30.12285],[-95.53243,30.12304],[-95.53303,30.12285],[-95.53338,30.12232],[-95.533,30.12187],[-95.53459,30.11965],[-95.536,30.11852],[-95.53757,30.11772],[-95.53824,30.11687],[-95.5395,30.11603],[-95.5396,30.11545],[-95.54067,30.11485],[-95.54206,30.11442],[-95.54283,30.11442],[-95.54521,30.11496],[-95.54641,30.11499],[-95.549,30.1145],[-95.55052,30.11378],[-95.55264,30.11226],[-95.55345,30.1113],[-95.55425,30.11273],[-95.55463,30.11419],[-95.55358,30.13077],[-95.55345,30.1366],[-95.55256,30.13685],[-95.52704,30.1369]]]}},{"type":"Feature","properties":{"PRECINCT":"harris:735","COUNTY":"Harris"},"geometry":{"type":"Polygon","coordinates":[[[-95.50369,30.14448],[-95.50316,30.14478],[-95.50284,30.14409],[-95.50243,30.14402],[-95.50211,30.14422],[-95.50159,30.14405],[-95.50052,30.14321],[-95.50055,30.14283],[-95.49984,30.14248],[-95.49938,30.13966],[-95.49894,30.13912],[-95.4985,30.13908],[-95.49861,30.13743],[-95.49784,30.13702],[-95.49794,30.13667],[-95.49725,30.1359],[-95.49738,30.13557],[-95.49801,30.13528],[-95.49663,30.13386],[-95.49698,30.13317],[-95.49694,30.13244],[-95.49577,30.13186],[-95.49656,30.13013],[-95.496,30.12978],[-95.49708,30.12872],[-95.49697,30.12845],[-95.49619,30.12827],[-95.49587,30.12795],[-95.49568,30.12742],[-95.49607,30.12689],[-95.49581,30.12616],[-95.49607,30.12605],[-95.49691,30.12663],[-95.49772,30.12598],[-95.49717,30.12518],[-95.49732,30.12454],[-95.49704,30.12386],[-95.49716,30.12367],[-95.49787,30.12359],[-95.49749,30.12314],[-95.49761,30.12271],[-95.49726,30.12235],[-95.49724,30.12181],[-95.49617,30.12153],[-95.49591,30.12023],[-95.49637,30.12003],[-95.49628,30.11962],[-95.49524,30.11901],[-95.49426,30.11802],[-95.49336,30.11768],[-95.49253,30.11633],[-95.49264,30.11548],[-95.49177,30.11504],[-95.4921,30.11403],[-95.49246,30.11386],[-95.4919,30.1131],[-95.49225,30.11273],[-95.49134,30.11082],[-95.49179,30.11081],[-95.49186,30.11059],[-95.49309,30.11076],[-95.49387,30.10991],[-95.49517,30.10968],[-95.49631,30.10906],[-95.4977,30.10917],[-95.49868,30.10968],[-95.49876,30.11094],[-95.49967,30.11161],[-95.50008,30.11282],[-95.50075,30.11277],[-95.50065,30.1124],[-95.50102,30.11237],[-95.50212,30.11303],[-95.50261,30.11438],[-95.50348,30.11548],[-95.50387,30.11551],[-95.50606,30.1145],[-95.50674,30.11443],[-95.5069,30.11804],[-95.50595,30.12153],[-95.50583,30.13083],[-95.50492,30.13314],[-95.50489,30.14079],[-95.50443,30.14377],[-95.50469,30.14513],[-95.50353,30.14527],[-95.50384,30.14479],[-95.50369,30.14448]]]}},{"type":"Feature","properties":{"PRECINCT":"harris:753","COUNTY":"Harris"},"geometry":{"type":"Polygon","coordinates":[[[-95.36995,30.06734],[-95.37551,30.06428],[-95.37534,30.06466],[-95.37553,30.06514],[-95.37895,30.06992],[-95.37905,30.07037],[-95.37666,30.07088],[-95.37404,30.07049],[-95.37233,30.06961],[-95.36995,30.06734]]]}},{"type":"Feature","properties":{"PRECINCT":"harris:851","COUNTY":"Harris"},"geometry":{"type":"Polygon","coordinates":[[[-95.43688,30.08308],[-95.43715,30.08161],[-95.4371,30.08014],[-95.43613,30.07481],[-95.44303,30.07124],[-95.44433,30.07075],[-95.4471,30.07031],[-95.46028,30.07069],[-95.47649,30.0706],[-95.47641,30.08293],[-95.47155,30.08266],[-95.43688,30.08308]]]}},{"type":"Feature","properties":{"PRECINCT":"harris:853","COUNTY":"Harris"},"geometry":{"type":"Polygon","coordinates":[[[-95.51426,30.04881],[-95.51176,30.04562],[-95.51033,30.04458],[-95.50832,30.04388],[-95.50683,30.04377],[-95.50512,30.04403],[-95.50276,30.045],[-95.49833,30.04736],[-95.49746,30.04571],[-95.49878,30.04496],[-95.49866,30.04438],[-95.495,30.03937],[-95.49454,30.03922],[-95.49323,30.03991],[-95.49214,30.03842],[-95.51974,30.0232],[-95.52046,30.02416],[-95.519,30.02514],[-95.51986,30.02711],[-95.5207,30.02664],[-95.52092,30.02694],[-95.51903,30.02804],[-95.52049,30.03035],[-95.51972,30.03084],[-95.51957,30.03143],[-95.51903,30.03144],[-95.51519,30.03359],[-95.51467,30.03415],[-95.51434,30.03501],[-95.51325,30.03486],[-95.51302,30.03613],[-95.51262,30.03686],[-95.51308,30.03825],[-95.51409,30.03912],[-95.51579,30.04159],[-95.51778,30.04328],[-95.51803,30.04393],[-95.51657,30.04577],[-95.51674,30.04676],[-95.51697,30.04674],[-95.51681,30.04955],[-95.51699,30.04992],[-95.51516,30.04933],[-95.51426,30.04881]]]}},{"type":"Feature","properties":{"PRECINCT":"harris:876","COUNTY":"Harris"},"geometry":{"type":"Polygon","coordinates":[[[-95.51342,30.0741],[-95.50841,30.06938],[-95.51178,30.06669],[-95.51364,30.06583],[-95.51538,30.06552],[-95.51788,30.06552],[-95.52012,30.06591],[-95.52156,30.06277],[-95.52146,30.05782],[-95.52036,30.05572],[-95.51847,30.05376],[-95.51685,30.04988],[-95.51988,30.05057],[-95.52645,30.05022],[-95.53024,30.04885],[-95.53416,30.04684],[-95.53649,30.04605],[-95.5384,30.04592],[-95.53929,30.0495],[-95.55071,30.07174],[-95.55459,30.07385],[-95.55447,30.07405],[-95.55179,30.07328],[-95.54971,30.0731],[-95.53238,30.07332],[-95.5254,30.07402],[-95.51342,30.0741]]]}},{"type":"Feature","properties":{"PRECINCT":"harris:878","COUNTY":"Harris"},"geometry":{"type":"Polygon","coordinates":[[[-95.50901,30.12725],[-95.50594,30.12714],[-95.50595,30.12153],[-95.50691,30.11788],[-95.50674,30.11443],[-95.50882,30.11403],[-95.50942,30.11428],[-95.5103,30.11509],[-95.51121,30.11496],[-95.51155,30.11582],[-95.51244,30.11618],[-95.51321,30.11718],[-95.51314,30.11796],[-95.51399,30.1188],[-95.51359,30.11995],[-95.51361,30.12073],[-95.51465,30.12061],[-95.5153,30.12161],[-95.51586,30.12189],[-95.51644,30.12153],[-95.51722,30.1214],[-95.51858,30.12017],[-95.5195,30.11992],[-95.52033,30.12024],[-95.5206,30.1201],[-95.52031,30.11898],[-95.52048,30.11857],[-95.52087,30.11828],[-95.52159,30.11842],[-95.52199,30.11807],[-95.52209,30.11625],[-95.5224,30.1158],[-95.5216,30.11464],[-95.52195,30.11393],[-95.52502,30.11343],[-95.52558,30.11305],[-95.52651,30.11379],[-95.52694,30.11383],[-95.52738,30.11476],[-95.52838,30.1151],[-95.52924,30.11602],[-95.52971,30.11696],[-95.53005,30.11709],[-95.53111,30.11642],[-95.53182,30.11559],[-95.53253,30.11596],[-95.5332,30.11578],[-95.5335,30.11544],[-95.53348,30.11517],[-95.53312,30.11495],[-95.53335,30.11474],[-95.53557,30.11429],[-95.53566,30.11299],[-95.53634,30.11259],[-95.53669,30.11152],[-95.53754,30.11081],[-95.53841,30.11057],[-95.53899,30.11139],[-95.53947,30.11158],[-95.54028,30.11108],[-95.54142,30.11122],[-95.54265,30.1101],[-95.54264,30.10919],[-95.54326,30.10899],[-95.54367,30.10849],[-95.54557,30.10875],[-95.54568,30.10807],[-95.54657,30.10795],[-95.54672,30.10771],[-95.54642,30.10708],[-95.54635,30.10601],[-95.54665,30.10547],[-95.55345,30.1113],[-95.55264,30.11226],[-95.55052,30.11378],[-95.549,30.1145],[-95.54641,30.11499],[-95.54206,30.11442],[-95.54022,30.11507],[-95.5396,30.11545],[-95.5395,30.11603],[-95.53824,30.11687],[-95.53757,30.11772],[-95.536,30.11852],[-95.53459,30.11965],[-95.533,30.12187],[-95.53338,30.12232],[-95.53303,30.12285],[-95.53243,30.12304],[-95.53214,30.12285],[-95.52962,30.12589],[-95.52835,30.12667],[-95.52682,30.12726],[-95.52383,30.12749],[-95.52197,30.12726],[-95.51965,30.12636],[-95.51796,30.12543],[-95.51608,30.12354],[-95.51473,30.1226],[-95.51445,30.12324],[-95.51516,30.12653],[-95.51362,30.12654],[-95.51364,30.12722],[-95.51319,30.12787],[-95.50901,30.12725]]]}},{"type":"Feature","properties":{"PRECINCT":"harris:897","COUNTY":"Harris"},"geometry":{"type":"Polygon","coordinates":[[[-95.42357,30.11453],[-95.42347,30.11332],[-95.42291,30.1121],[-95.423,30.11086],[-95.42245,30.10983],[-95.42118,30.10943],[-95.42046,30.1087],[-95.41884,30.10872],[-95.41894,30.10478],[-95.41799,30.10393],[-95.41639,30.10314],[-95.41385,30.10134],[-95.41174,30.10085],[-95.4116,30.10031],[-95.41221,30.09939],[-95.41102,30.0995],[-95.41061,30.09924],[-95.41054,30.09806],[-95.41285,30.0957],[-95.4127,30.09504],[-95.41091,30.09467],[-95.40987,30.09272],[-95.40809,30.09275],[-95.40729,30.093],[-95.40544,30.09208],[-95.40706,30.09086],[-95.40984,30.08936],[-95.41084,30.09081],[-95.41219,30.09095],[-95.41337,30.08977],[-95.4128,30.08774],[-95.41716,30.08541],[-95.41872,30.08526],[-95.41868,30.08466],[-95.42301,30.08381],[-95.42361,30.08621],[-95.42214,30.08618],[-95.42216,30.08925],[-95.42176,30.08925],[-95.42174,30.08942],[-95.42199,30.09395],[-95.42223,30.09421],[-95.42279,30.09397],[-95.42559,30.09398],[-95.42567,30.09449],[-95.42656,30.09446],[-95.42656,30.09413],[-95.42682,30.09399],[-95.42802,30.094],[-95.42831,30.09508],[-95.42967,30.09502],[-95.42973,30.09619],[-95.43064,30.09828],[-95.43148,30.09791],[-95.43184,30.09837],[-95.4338,30.09748],[-95.43505,30.09762],[-95.43463,30.09095],[-95.43567,30.08569],[-95.43523,30.08909],[-95.43631,30.08443],[-95.43655,30.08448],[-95.43533,30.0904],[-95.43579,30.10757],[-95.43664,30.11037],[-95.43606,30.11118],[-95.43586,30.11219],[-95.43513,30.11298],[-95.43284,30.11363],[-95.43062,30.11391],[-95.42968,30.11359],[-95.4291,30.1141],[-95.42651,30.11545],[-95.4256,30.11561],[-95.42422,30.11549],[-95.42357,30.11453]]]}},{"type":"Feature","properties":{"PRECINCT":"harris:912","COUNTY":"Harris"},"geometry":{"type":"Polygon","coordinates":[[[-95.42168,30.05175],[-95.42049,30.04962],[-95.42078,30.0456],[-95.41921,30.04542],[-95.41899,30.04459],[-95.41692,30.04393],[-95.41594,30.04263],[-95.40863,30.0465],[-95.4077,30.04197],[-95.4077,30.04016],[-95.40543,30.03112],[-95.40633,30.03093],[-95.40794,30.03178],[-95.40818,30.03211],[-95.40828,30.03383],[-95.40996,30.036],[-95.41164,30.03707],[-95.41333,30.03753],[-95.41477,30.03761],[-95.41662,30.03738],[-95.41733,30.0368],[-95.41865,30.03623],[-95.41943,30.0355],[-95.42063,30.03555],[-95.42118,30.03523],[-95.42239,30.03529],[-95.42319,30.03492],[-95.42358,30.03442],[-95.42535,30.03496],[-95.42651,30.03585],[-95.42937,30.03564],[-95.42966,30.04005],[-95.43189,30.05258],[-95.42949,30.0519],[-95.42816,30.05194],[-95.42356,30.05435],[-95.42168,30.05175]]]}},{"type":"Feature","properties":{"PRECINCT":"harris:915","COUNTY":"Harris"},"geometry":{"type":"Polygon","coordinates":[[[-95.57445,30.12789],[-95.57572,30.12819],[-95.57615,30.12911],[-95.57595,30.12992],[-95.57464,30.13121],[-95.57422,30.12992],[-95.57445,30.12943],[-95.57445,30.12789]]]}},{"type":"Feature","properties":{"PRECINCT":"harris:916","COUNTY":"Harris"},"geometry":{"type":"Polygon","coordinates":[[[-95.54736,30.10397],[-95.54746,30.10185],[-95.54809,30.10209],[-95.54873,30.10131],[-95.5502,30.10076],[-95.55234,30.10041],[-95.55289,30.0999],[-95.55218,30.09926],[-95.55208,30.09796],[-95.55335,30.09671],[-95.55355,30.09606],[-95.55457,30.09553],[-95.55371,30.09389],[-95.5542,30.09309],[-95.5534,30.09233],[-95.55344,30.09136],[-95.55441,30.09106],[-95.5547,30.09001],[-95.55543,30.08931],[-95.55614,30.08728],[-95.55707,30.08717],[-95.55763,30.08625],[-95.55947,30.08524],[-95.56081,30.08481],[-95.56113,30.08398],[-95.56194,30.08362],[-95.56256,30.08361],[-95.56301,30.08303],[-95.5635,30.08297],[-95.56406,30.08329],[-95.5648,30.08312],[-95.56542,30.08162],[-95.56622,30.08068],[-95.567,30.08043],[-95.56788,30.07949],[-95.56871,30.07897],[-95.56938,30.07909],[-95.56969,30.07892],[-95.57044,30.0772],[-95.57013,30.07644],[-95.56978,30.07624],[-95.56939,30.07631],[-95.56919,30.07603],[-95.56967,30.07477],[-95.57132,30.07468],[-95.57181,30.07484],[-95.57355,30.072],[-95.57444,30.07185],[-95.5752,30.07127],[-95.57527,30.0706],[-95.57496,30.06996],[-95.57514,30.06973],[-95.57628,30.06935],[-95.5772,30.06808],[-95.57791,30.06817],[-95.57912,30.06776],[-95.57962,30.06646],[-95.58039,30.06591],[-95.58142,30.06617],[-95.58209,30.06525],[-95.58309,30.06508],[-95.58343,30.06431],[-95.58246,30.06347],[-95.58264,30.06319],[-95.58253,30.06251],[-95.58327,30.06134],[-95.58481,30.06095],[-95.58636,30.06169],[-95.58773,30.0613],[-95.58859,30.06176],[-95.58937,30.06186],[-95.58926,30.06371],[-95.58871,30.06457],[-95.58911,30.06812],[-95.58901,30.07248],[-95.59405,30.08586],[-95.59398,30.09969],[-95.57788,30.09981],[-95.57798,30.11196],[-95.57128,30.10837],[-95.54736,30.10397]]]}},{"type":"Feature","properties":{"PRECINCT":"harris:955","COUNTY":"Harris"},"geometry":{"type":"Polygon","coordinates":[[[-95.54197,30.17053],[-95.53972,30.16954],[-95.53886,30.16854],[-95.53726,30.16932],[-95.53696,30.16917],[-95.53679,30.16822],[-95.53614,30.16847],[-95.53472,30.16807],[-95.53464,30.16788],[-95.5351,30.16772],[-95.53509,30.1675],[-95.5339,30.16717],[-95.53377,30.16701],[-95.53405,30.1664],[-95.53268,30.1659],[-95.53168,30.16511],[-95.53155,30.16445],[-95.53101,30.16467],[-95.53109,30.16506],[-95.53045,30.16577],[-95.52953,30.16582],[-95.5292,30.16555],[-95.5292,30.16486],[-95.52806,30.16495],[-95.52753,30.16469],[-95.52708,30.16391],[-95.52632,30.16348],[-95.52498,30.16335],[-95.52456,30.16278],[-95.52452,30.16204],[-95.52386,30.1612],[-95.52436,30.15874],[-95.5239,30.15844],[-95.52333,30.15868],[-95.52301,30.15852],[-95.5235,30.15802],[-95.52351,30.15741],[-95.52227,30.15637],[-95.52198,30.15555],[-95.52237,30.15508],[-95.52109,30.15509],[-95.52091,30.1542],[-95.51939,30.15342],[-95.51951,30.15305],[-95.52,30.15281],[-95.51868,30.15218],[-95.51824,30.15297],[-95.51853,30.1534],[-95.51792,30.1541],[-95.51726,30.15423],[-95.51684,30.15374],[-95.51682,30.15311],[-95.51608,30.15263],[-95.51611,30.15214],[-95.51533,30.1518],[-95.51529,30.15123],[-95.5146,30.15119],[-95.51315,30.15044],[-95.51255,30.14957],[-95.51113,30.14883],[-95.50948,30.14835],[-95.50894,30.14782],[-95.50887,30.14728],[-95.50699,30.14631],[-95.50684,30.14562],[-95.50469,30.14513],[-95.50443,30.14377],[-95.50485,30.1402],[-95.50928,30.14017],[-95.50931,30.13691],[-95.55256,30.13685],[-95.55333,30.1366],[-95.56276,30.13662],[-95.56252,30.13135],[-95.56571,30.13125],[-95.56662,30.13025],[-95.57255,30.13019],[-95.57422,30.12992],[-95.57464,30.13121],[-95.57463,30.15178],[-95.57428,30.15201],[-95.57355,30.15154],[-95.57259,30.15169],[-95.57234,30.15198],[-95.5719,30.15178],[-95.57185,30.15264],[-95.57126,30.15313],[-95.5707,30.15257],[-95.57032,30.15257],[-95.57071,30.15326],[-95.57018,30.15322],[-95.56984,30.15364],[-95.57018,30.15409],[-95.57046,30.15582],[-95.57031,30.15618],[-95.56918,30.15672],[-95.56992,30.15741],[-95.56947,30.15792],[-95.56873,30.15807],[-95.56803,30.15851],[-95.56813,30.15918],[-95.56719,30.15923],[-95.56566,30.16069],[-95.5634,30.16007],[-95.56338,30.16063],[-95.5631,30.16066],[-95.56261,30.16013],[-95.56213,30.15884],[-95.56028,30.1594],[-95.56044,30.15852],[-95.56025,30.15833],[-95.56002,30.15849],[-95.55736,30.1609],[-95.55773,30.16167],[-95.55842,30.16157],[-95.55869,30.16176],[-95.55823,30.16284],[-95.55925,30.16311],[-95.55846,30.16408],[-95.55849,30.16534],[-95.55811,30.16557],[-95.55786,30.16488],[-95.55752,30.16478],[-95.5573,30.16517],[-95.55734,30.16596],[-95.55686,30.16583],[-95.55657,30.16621],[-95.55661,30.16669],[-95.55603,30.16708],[-95.55603,30.16733],[-95.5548,30.16752],[-95.5542,30.16807],[-95.5533,30.16847],[-95.55282,30.16918],[-95.55295,30.1699],[-95.5525,30.17035],[-95.55142,30.17061],[-95.5508,30.17041],[-95.55059,30.17007],[-95.54966,30.17015],[-95.54921,30.16944],[-95.54864,30.16923],[-95.54832,30.1694],[-95.54862,30.1699],[-95.54835,30.17013],[-95.54718,30.16906],[-95.54562,30.16953],[-95.54495,30.16899],[-95.54361,30.17014],[-95.5433,30.17017],[-95.54284,30.16979],[-95.54299,30.17048],[-95.54246,30.17034],[-95.54197,30.17053]]]}}]}