{"type":"FeatureCollection","features":[{"type":"Feature","properties":{"PRECINCT":"harris:1008","COUNTY":"Harris"},"geometry":{"type":"Polygon","coordinates":[[[-95.09447,29.92557],[-95.09484,29.92356],[-95.09342,29.92292],[-95.09295,29.92385],[-95.0931,29.92525],[-95.0909,29.92463],[-95.09237,29.92245],[-95.09162,29.92221],[-95.09018,29.92263],[-95.08895,29.92251],[-95.08949,29.92076],[-95.09158,29.91751],[-95.09229,29.91266],[-95.09209,29.91063],[-95.09047,29.91098],[-95.09038,29.91071],[-95.09028,29.90991],[-95.09055,29.90926],[-95.09129,29.90912],[-95.0913,29.90856],[-95.09163,29.90854],[-95.09182,29.90809],[-95.09079,29.90665],[-95.09128,29.90654],[-95.09228,29.90703],[-95.09272,29.90579],[-95.09257,29.90559],[-95.09185,29.90578],[-95.09103,29.90491],[-95.0905,29.90476],[-95.08975,29.90533],[-95.08873,29.90512],[-95.08839,29.90533],[-95.08788,29.90505],[-95.0878,29.90464],[-95.08728,29.90444],[-95.08692,29.9036],[-95.08494,29.90342],[-95.08437,29.90305],[-95.08428,29.9027],[-95.08468,29.90248],[-95.08471,29.90205],[-95.08533,29.9017],[-95.08514,29.90125],[-95.08572,29.90083],[-95.08646,29.89951],[-95.08576,29.89857],[-95.08652,29.8965],[-95.08605,29.89555],[-95.08621,29.89474],[-95.08659,29.89458],[-95.08773,29.89523],[-95.08822,29.89511],[-95.09035,29.89271],[-95.0903,29.89105],[-95.09206,29.89066],[-95.09247,29.89034],[-95.0924,29.88977],[-95.09163,29.88912],[-95.09041,29.88902],[-95.08975,29.88857],[-95.08882,29.8858],[-95.09019,29.88193],[-95.09211,29.88091],[-95.09538,29.88023],[-95.09651,29.88167],[-95.09701,29.88768],[-95.0974,29.8885],[-95.09937,29.89065],[-95.10189,29.89259],[-95.10369,29.89337],[-95.10515,29.89337],[-95.10867,29.89231],[-95.11088,29.89103],[-95.11215,29.89086],[-95.11324,29.89098],[-95.11414,29.89179],[-95.116,29.89446],[-95.11712,29.89858],[-95.11753,29.89925],[-95.119,29.90045],[-95.12055,29.90127],[-95.12344,29.90384],[-95.12507,29.90596],[-95.1238,29.91226],[-95.12401,29.91328],[-95.12499,29.91499],[-95.12755,29.91672],[-95.12931,29.91733],[-95.1297,29.9177],[-95.13238,29.91883],[-95.1329,29.91945],[-95.13219,29.91993],[-95.13219,29.92012],[-95.12503,29.92352],[-95.12538,29.92409],[-95.12484,29.9243],[-95.12386,29.92322],[-95.12297,29.92267],[-95.12288,29.9213],[-95.12223,29.92017],[-95.12074,29.91982],[-95.11667,29.91729],[-95.11584,29.91715],[-95.11035,29.91878],[-95.10274,29.92067],[-95.09975,29.92414],[-95.09678,29.92595],[-95.09627,29.92606],[-95.09447,29.92557]]]}},{"type":"Feature","properties":{"PRECINCT":"harris:103","COUNTY":"Harris"},"geometry":{"type":"Polygon","coordinates":[[[-94.94556,29.84523],[-94.93589,29.83515],[-94.9346,29.83429],[-94.92673,29.83369],[-94.91778,29.83063],[-94.912,29.82911],[-94.91115,29.82811],[-94.90915,29.82691],[-94.90866,29.82607],[-94.90865,29.82518],[-94.90982,29.82122],[-94.91783,29.82137],[-94.9195,29.82106],[-94.93743,29.81314],[-94.93981,29.81216],[-94.94195,29.81159],[-94.96609,29.80792],[-94.97857,29.80528],[-94.99759,29.80228],[-94.99923,29.80848],[-94.99936,29.81985],[-94.99935,29.82007],[-94.99762,29.82009],[-95.00166,29.83843],[-95.00273,29.84053],[-95.00268,29.84294],[-94.98552,29.84329],[-94.94709,29.84951],[-94.94556,29.84523]]]}},{"type":"Feature","properties":{"PRECINCT":"harris:13","COUNTY":"Harris"},"geometry":{"type":"Polygon","coordinates":[[[-95.04322,29.78763],[-95.02182,29.77857],[-95.02033,29.77737],[-95.01451,29.77133],[-95.0104,29.76758],[-95.00283,29.7599],[-94.99547,29.75592],[-94.99407,29.75787],[-94.99323,29.75856],[-94.98839,29.76033],[-94.98596,29.7607],[-94.97973,29.76089],[-94.97737,29.76128],[-94.9771,29.74994],[-94.97947,29.74985],[-94.97988,29.74924],[-94.98247,29.74865],[-94.98265,29.74824],[-94.98233,29.74696],[-94.98281,29.74593],[-94.9833,29.74556],[-94.98413,29.74551],[-94.98462,29.74578],[-94.98591,29.74595],[-94.98673,29.74716],[-94.98719,29.74656],[-94.989,29.74766],[-94.99467,29.73969],[-94.99353,29.73909],[-94.99462,29.73759],[-94.99572,29.73821],[-94.998,29.73502],[-94.9993,29.73274],[-95.00347,29.73365],[-95.00376,29.73388],[-95.00573,29.73384],[-95.013,29.73064],[-95.01459,29.72972],[-95.01345,29.72789],[-95.01295,29.72599],[-95.01257,29.7242],[-95.01277,29.72246],[-95.01366,29.72273],[-95.01689,29.72063],[-95.01835,29.72015],[-95.01873,29.72062],[-95.01868,29.72128],[-95.02016,29.72646],[-95.02001,29.72712],[-95.02183,29.72726],[-95.02339,29.7264],[-95.02488,29.72768],[-95.0283,29.72944],[-95.03185,29.72984],[-95.03366,29.73033],[-95.03536,29.73025],[-95.04043,29.73062],[-95.04476,29.73118],[-95.04833,29.73262],[-95.05833,29.73858],[-95.05949,29.7401],[-95.05954,29.73982],[-95.06094,29.74313],[-95.06595,29.753],[-95.06808,29.75637],[-95.07066,29.75875],[-95.07948,29.7637],[-95.07876,29.76477],[-95.07774,29.76505],[-95.07601,29.76607],[-95.06896,29.76746],[-95.06871,29.76799],[-95.0689,29.76995],[-95.0619,29.78129],[-95.05992,29.78067],[-95.06089,29.77825],[-95.06022,29.77808],[-95.05807,29.77872],[-95.05725,29.77952],[-95.05555,29.78035],[-95.05173,29.7795],[-95.04838,29.77951],[-95.0487,29.78016],[-95.04778,29.78155],[-95.0464,29.78327],[-95.046,29.78358],[-95.04566,29.78351],[-95.04558,29.78384],[-95.04513,29.78409],[-95.04509,29.78445],[-95.04399,29.78545],[-95.04379,29.78596],[-95.04338,29.7861],[-95.04322,29.78763]]]}},{"type":"Feature","properties":{"PRECINCT":"harris:249","COUNTY":"Harris"},"geometry":{"type":"Polygon","coordinates":[[[-94.9286,29.74116],[-94.9283,29.73875],[-94.92902,29.73706],[-94.93106,29.73548],[-94.93232,29.73388],[-94.93483,29.73258],[-94.93934,29.72662],[-94.94147,29.72468],[-94.942,29.72365],[-94.94235,29.72092],[-94.94354,29.71941],[-94.94522,29.7183],[-94.94553,29.71709],[-94.9454,29.71624],[-94.94479,29.71533],[-94.94252,29.71334],[-94.94149,29.71323],[-94.935,29.71517],[-94.93395,29.71513],[-94.93308,29.71483],[-94.93257,29.71434],[-94.93249,29.71357],[-94.93288,29.71279],[-94.9342,29.71163],[-94.93456,29.71042],[-94.93367,29.70639],[-94.93296,29.70521],[-94.93217,29.70468],[-94.93098,29.70443],[-94.9274,29.70431],[-94.92602,29.70405],[-94.92527,29.70369],[-94.9251,29.70314],[-94.92567,29.70163],[-94.9265,29.70091],[-94.92752,29.70053],[-94.92892,29.70035],[-94.92968,29.69997],[-94.93028,29.69919],[-94.9302,29.6978],[-94.92991,29.69737],[-94.92695,29.69666],[-94.92536,29.6968],[-94.92386,29.69916],[-94.9218,29.69966],[-94.92017,29.6996],[-94.91929,29.69889],[-94.91856,29.69875],[-94.91706,29.69914],[-94.91632,29.69899],[-94.91558,29.69818],[-94.91582,29.69695],[-94.91679,29.69567],[-94.91816,29.69486],[-94.91908,29.69478],[-94.92085,29.69408],[-94.92161,29.69323],[-94.92181,29.69177],[-94.92078,29.69053],[-94.91967,29.68845],[-94.91987,29.68686],[-94.92043,29.6858],[-94.92242,29.6839],[-94.92716,29.68122],[-94.92807,29.68034],[-94.92855,29.67947],[-94.92858,29.6781],[-94.92947,29.67647],[-94.92973,29.67398],[-94.93027,29.6737],[-94.93148,29.67403],[-94.9326,29.67512],[-94.9697,29.6828],[-94.96924,29.68238],[-94.96923,29.68175],[-94.97005,29.68163],[-94.97885,29.67673],[-94.9817,29.68193],[-94.9875,29.68926],[-94.98995,29.69185],[-94.99827,29.69791],[-95.00057,29.69918],[-95.00346,29.70011],[-95.01112,29.70134],[-95.01213,29.7013],[-95.01515,29.70224],[-95.01714,29.70322],[-95.01038,29.70844],[-95.00833,29.70972],[-95.00494,29.71138],[-95.00274,29.71174],[-95.00229,29.71054],[-94.99927,29.70856],[-94.99637,29.70791],[-94.99417,29.70802],[-94.99312,29.70858],[-94.99308,29.70932],[-94.99446,29.71058],[-94.99396,29.71055],[-94.99314,29.71105],[-94.99312,29.71162],[-94.99291,29.71157],[-94.99282,29.71183],[-94.993,29.7125],[-94.99228,29.71238],[-94.9889,29.71014],[-94.98965,29.70921],[-94.98907,29.70835],[-94.98726,29.70892],[-94.98604,29.70901],[-94.98531,29.70937],[-94.98467,29.70925],[-94.98368,29.70958],[-94.98299,29.70935],[-94.98174,29.71235],[-94.97911,29.71143],[-94.97825,29.71012],[-94.97804,29.71017],[-94.97775,29.71075],[-94.97703,29.71133],[-94.97585,29.71392],[-94.97544,29.71551],[-94.97551,29.71653],[-94.96297,29.72101],[-94.96202,29.7215],[-94.961,29.72243],[-94.96028,29.72385],[-94.96,29.72616],[-94.95959,29.72732],[-94.95494,29.73797],[-94.95388,29.73986],[-94.94805,29.73858],[-94.94538,29.73952],[-94.93385,29.74118],[-94.93369,29.74053],[-94.9286,29.74116]]]}},{"type":"Feature","properties":{"PRECINCT":"harris:250","COUNTY":"Harris"},"geometry":{"type":"Polygon","coordinates":[[[-95.02348,29.80772],[-95.0205,29.80774],[-95.0185,29.80801],[-95.01123,29.80802],[-95.01063,29.80744],[-95.00764,29.80564],[-95.00476,29.80115],[-95.0119,29.80017],[-95.02049,29.79998],[-95.02318,29.80026],[-95.0413,29.79997],[-95.03289,29.80635],[-95.03099,29.80715],[-95.02965,29.80919],[-95.02865,29.81017],[-95.02348,29.80772]]]}},{"type":"Feature","properties":{"PRECINCT":"harris:279","COUNTY":"Harris"},"geometry":{"type":"Polygon","coordinates":[[[-95.14786,29.70122],[-95.145,29.70118],[-95.14508,29.70037],[-95.14377,29.70039],[-95.1437,29.6958],[-95.14295,29.69581],[-95.14261,29.6781],[-95.14394,29.67808],[-95.14411,29.67828],[-95.14415,29.6817],[-95.151,29.68167],[-95.16356,29.68904],[-95.16328,29.68939],[-95.16324,29.69012],[-95.16425,29.69055],[-95.16419,29.69254],[-95.16331,29.69254],[-95.16336,29.6933],[-95.15656,29.69341],[-95.15675,29.69218],[-95.15959,29.68966],[-95.1597,29.68929],[-95.15359,29.68934],[-95.15355,29.70003],[-95.15341,29.7004],[-95.15314,29.70039],[-95.15314,29.70167],[-95.15005,29.70165],[-95.14786,29.70122]]]}},{"type":"Feature","properties":{"PRECINCT":"harris:28","COUNTY":"Harris"},"geometry":{"type":"Polygon","coordinates":[[[-94.9776,29.77795],[-94.97737,29.76128],[-94.97973,29.76089],[-94.98596,29.7607],[-94.98839,29.76033],[-94.99323,29.75856],[-94.99407,29.75787],[-94.99547,29.75592],[-95.00283,29.7599],[-95.00837,29.76552],[-95.00356,29.77017],[-95.00293,29.77044],[-95.00053,29.77043],[-95.00045,29.77103],[-94.99488,29.77107],[-94.99309,29.77078],[-94.99052,29.76987],[-94.99074,29.78038],[-94.9776,29.77795]]]}},{"type":"Feature","properties":{"PRECINCT":"harris:346","COUNTY":"Harris"},"geometry":{"type":"Polygon","coordinates":[[[-95.06843,29.75677],[-95.06726,29.75526],[-95.06595,29.753],[-95.06094,29.74313],[-95.05954,29.73982],[-95.05949,29.7401],[-95.05833,29.73858],[-95.04833,29.73262],[-95.04476,29.73118],[-95.04043,29.73062],[-95.03536,29.73025],[-95.03366,29.73033],[-95.03185,29.72984],[-95.0283,29.72944],[-95.02488,29.72768],[-95.02225,29.72527],[-95.02114,29.72341],[-95.02044,29.70916],[-95.01978,29.70719],[-95.01769,29.70375],[-95.01714,29.70322],[-95.02874,29.69363],[-95.02969,29.69215],[-95.03046,29.6898],[-95.03051,29.68494],[-95.04694,29.68988],[-95.04697,29.69073],[-95.09293,29.70467],[-95.08956,29.71332],[-95.08999,29.7496],[-95.08977,29.75054],[-95.08862,29.75241],[-95.08838,29.75352],[-95.08734,29.75472],[-95.08747,29.75505],[-95.09044,29.75744],[-95.09,29.75799],[-95.0898,29.75765],[-95.08929,29.75757],[-95.08752,29.7581],[-95.08637,29.75904],[-95.08944,29.76115],[-95.08751,29.76293],[-95.08653,29.76345],[-95.08268,29.76414],[-95.07948,29.7637],[-95.07066,29.75875],[-95.06843,29.75677]]]}},{"type":"Feature","properties":{"PRECINCT":"harris:352","COUNTY":"Harris"},"geometry":{"type":"Polygon","coordinates":[[[-95.11086,29.64404],[-95.11255,29.64246],[-95.1133,29.64225],[-95.11431,29.64144],[-95.11639,29.63872],[-95.11716,29.6391],[-95.11772,29.63907],[-95.11877,29.63968],[-95.11977,29.63967],[-95.12156,29.64138],[-95.1226,29.64174],[-95.12317,29.64235],[-95.12358,29.64242],[-95.12411,29.64207],[-95.12451,29.6421],[-95.12544,29.64322],[-95.12659,29.64302],[-95.12731,29.64346],[-95.12753,29.64479],[-95.12828,29.64632],[-95.1282,29.64749],[-95.1293,29.64969],[-95.12917,29.65049],[-95.12238,29.65048],[-95.12422,29.65345],[-95.13186,29.66203],[-95.13267,29.6635],[-95.08692,29.66438],[-95.08642,29.65141],[-95.08855,29.65117],[-95.10985,29.65082],[-95.10991,29.64993],[-95.11066,29.64885],[-95.11064,29.64717],[-95.11052,29.64678],[-95.10959,29.64603],[-95.10971,29.64509],[-95.11003,29.64449],[-95.11086,29.64404]]]}},{"type":"Feature","properties":{"PRECINCT":"harris:386","COUNTY":"Harris"},"geometry":{"type":"Polygon","coordinates":[[[-94.90982,29.8212],[-94.91007,29.82014],[-94.90989,29.81964],[-94.91068,29.81945],[-94.91079,29.81923],[-94.91033,29.81856],[-94.91113,29.81817],[-94.9107,29.81749],[-94.91071,29.81702],[-94.91008,29.81646],[-94.91073,29.81585],[-94.91064,29.81565],[-94.9096,29.81502],[-94.90849,29.81506],[-94.90905,29.81376],[-94.90943,29.81359],[-94.91042,29.81402],[-94.91085,29.81393],[-94.91049,29.81196],[-94.91137,29.81199],[-94.91165,29.81221],[-94.91175,29.81405],[-94.91227,29.81388],[-94.91325,29.81292],[-94.91334,29.8124],[-94.91306,29.81196],[-94.91188,29.81119],[-94.9127,29.81057],[-94.91363,29.81048],[-94.9126,29.80929],[-94.91244,29.80879],[-94.91279,29.80837],[-94.91448,29.8076],[-94.91508,29.80691],[-94.91604,29.80663],[-94.91597,29.80563],[-94.91719,29.80495],[-94.91679,29.80404],[-94.91688,29.8033],[-94.9186,29.80319],[-94.91941,29.80276],[-94.92217,29.80313],[-94.92273,29.80272],[-94.92294,29.8016],[-94.92207,29.80019],[-94.92313,29.79881],[-94.92327,29.79809],[-94.92318,29.79787],[-94.92214,29.7974],[-94.92213,29.79695],[-94.9225,29.79664],[-94.92381,29.7964],[-94.92416,29.79593],[-94.92411,29.79492],[-94.9232,29.79448],[-94.92056,29.79418],[-94.91969,29.7947],[-94.91926,29.7944],[-94.91944,29.79366],[-94.92003,29.79298],[-94.92129,29.79253],[-94.92143,29.79229],[-94.92112,29.79193],[-94.92002,29.79172],[-94.91936,29.79113],[-94.91881,29.79007],[-94.91776,29.78883],[-94.91783,29.78821],[-94.91861,29.78754],[-94.91859,29.78724],[-94.9182,29.78689],[-94.91702,29.78677],[-94.917,29.78635],[-94.9182,29.78564],[-94.91835,29.78519],[-94.91806,29.78439],[-94.91837,29.78355],[-94.92106,29.78254],[-94.92137,29.78207],[-94.92132,29.78168],[-94.92102,29.78127],[-94.92003,29.781],[-94.91974,29.78072],[-94.92006,29.77952],[-94.91977,29.77715],[-94.92034,29.77623],[-94.92007,29.77536],[-94.91798,29.77519],[-94.91724,29.77491],[-94.9163,29.77366],[-94.91798,29.77429],[-94.92092,29.77468],[-94.92153,29.77656],[-94.92211,29.77996],[-94.92314,29.78139],[-94.92308,29.78303],[-94.92488,29.78286],[-94.9254,29.78445],[-94.93078,29.7836],[-94.92843,29.77222],[-94.92947,29.77232],[-94.93007,29.77214],[-94.93063,29.77254],[-94.9313,29.77255],[-94.93297,29.77359],[-94.93449,29.77355],[-94.93607,29.77624],[-94.93922,29.77933],[-94.94827,29.76368],[-94.95412,29.76273],[-94.95629,29.77171],[-94.95629,29.77957],[-94.95852,29.79031],[-94.95854,29.79149],[-94.96208,29.80808],[-94.96321,29.8079],[-94.96333,29.80833],[-94.94082,29.81185],[-94.93743,29.81314],[-94.9211,29.82046],[-94.91895,29.82123],[-94.91635,29.82139],[-94.90982,29.8212]]]}},{"type":"Feature","properties":{"PRECINCT":"harris:387","COUNTY":"Harris"},"geometry":{"type":"Polygon","coordinates":[[[-95.03495,29.85733],[-95.02818,29.8573],[-95.02789,29.84209],[-95.0028,29.84239],[-95.00273,29.84053],[-95.00166,29.83843],[-94.99762,29.82009],[-94.99935,29.82007],[-94.99936,29.81985],[-94.99923,29.80848],[-94.99759,29.80228],[-95.00476,29.80115],[-95.00764,29.80564],[-95.01063,29.80744],[-95.01123,29.80802],[-95.0185,29.80801],[-95.0205,29.80774],[-95.02348,29.80772],[-95.02865,29.81017],[-95.02965,29.80919],[-95.03099,29.80715],[-95.03289,29.80635],[-95.0413,29.79997],[-95.02318,29.80026],[-95.02049,29.79998],[-95.02452,29.79989],[-95.02672,29.7995],[-95.04527,29.79263],[-95.04613,29.79348],[-95.04793,29.79422],[-95.04887,29.79527],[-95.04918,29.79604],[-95.04927,29.79804],[-95.05041,29.79876],[-95.05086,29.79934],[-95.05269,29.80357],[-95.05399,29.80438],[-95.05466,29.80528],[-95.05473,29.80617],[-95.05437,29.80716],[-95.05637,29.80712],[-95.05704,29.81183],[-95.05752,29.83235],[-95.05789,29.83523],[-95.05771,29.84202],[-95.05969,29.86119],[-95.06038,29.86351],[-95.03521,29.86346],[-95.03495,29.85733]]]}},{"type":"Feature","properties":{"PRECINCT":"harris:414","COUNTY":"Harris"},"geometry":{"type":"Polygon","coordinates":[[[-94.92488,29.78286],[-94.92308,29.78303],[-94.92314,29.78139],[-94.92211,29.77996],[-94.92153,29.77656],[-94.92092,29.77468],[-94.91798,29.77429],[-94.9163,29.77366],[-94.91652,29.77229],[-94.91702,29.77195],[-94.91769,29.77193],[-94.91915,29.77289],[-94.91954,29.77279],[-94.92001,29.772],[-94.91963,29.77128],[-94.91723,29.77107],[-94.91653,29.77003],[-94.91425,29.76915],[-94.91337,29.7681],[-94.91325,29.7674],[-94.91344,29.76671],[-94.91416,29.7662],[-94.91666,29.76696],[-94.91902,29.76539],[-94.91917,29.76458],[-94.91796,29.76228],[-94.91778,29.76104],[-94.91879,29.75923],[-94.91837,29.75611],[-94.91884,29.75548],[-94.91955,29.75527],[-94.92164,29.75556],[-94.9234,29.75526],[-94.92426,29.75462],[-94.92594,29.75237],[-94.9288,29.75137],[-94.92965,29.75051],[-94.9301,29.74786],[-94.92996,29.74656],[-94.92889,29.74354],[-94.9286,29.74116],[-94.93369,29.74053],[-94.93385,29.74118],[-94.9391,29.74042],[-94.94096,29.74903],[-94.94067,29.74912],[-94.94217,29.75636],[-94.94035,29.75742],[-94.94524,29.75643],[-94.95316,29.75519],[-94.93922,29.77933],[-94.93607,29.77624],[-94.93449,29.77355],[-94.93297,29.77359],[-94.9313,29.77255],[-94.93063,29.77254],[-94.93007,29.77214],[-94.92947,29.77232],[-94.92843,29.77222],[-94.93078,29.7836],[-94.9254,29.78445],[-94.92488,29.78286]]]}},{"type":"Feature","properties":{"PRECINCT":"harris:420","COUNTY":"Harris"},"geometry":{"type":"Polygon","coordinates":[[[-95.09876,29.69516],[-95.09849,29.67967],[-95.12328,29.6792],[-95.12365,29.69472],[-95.09876,29.69516]]]}},{"type":"Feature","properties":{"PRECINCT":"harris:456","COUNTY":"Harris"},"geometry":{"type":"Polygon","coordinates":[[[-94.96333,29.80833],[-94.96321,29.8079],[-94.96208,29.80808],[-94.95854,29.79149],[-94.95852,29.79031],[-94.95629,29.77957],[-94.95629,29.77171],[-94.95412,29.76273],[-94.94827,29.76368],[-94.95316,29.75519],[-94.96384,29.75352],[-94.96388,29.75576],[-94.96962,29.75567],[-94.97123,29.75649],[-94.97293,29.75669],[-94.97378,29.75581],[-94.9762,29.75529],[-94.97719,29.75472],[-94.9776,29.77795],[-94.99344,29.78083],[-94.99759,29.80228],[-94.97857,29.80528],[-94.96609,29.80792],[-94.96333,29.80833]]]}},{"type":"Feature","properties":{"PRECINCT":"harris:470","COUNTY":"Harris"},"geometry":{"type":"Polygon","coordinates":[[[-95.13106,29.68344],[-95.13126,29.6819],[-95.12335,29.682],[-95.12322,29.67645],[-95.13931,29.67629],[-95.14018,29.67537],[-95.14426,29.67784],[-95.14427,29.67807],[-95.14261,29.6781],[-95.14262,29.68174],[-95.13692,29.6818],[-95.13697,29.68336],[-95.13106,29.68344]]]}},{"type":"Feature","properties":{"PRECINCT":"harris:471","COUNTY":"Harris"},"geometry":{"type":"Polygon","coordinates":[[[-95.03962,29.6844],[-95.03917,29.66514],[-95.04639,29.665],[-95.04656,29.67537],[-95.08771,29.6746],[-95.08843,29.70318],[-95.04697,29.69073],[-95.04694,29.68988],[-95.03662,29.68674],[-95.03759,29.68669],[-95.03838,29.68625],[-95.03899,29.68567],[-95.03962,29.6844]]]}},{"type":"Feature","properties":{"PRECINCT":"harris:502","COUNTY":"Harris"},"geometry":{"type":"Polygon","coordinates":[[[-95.01847,29.99638],[-95.01706,29.9958],[-94.99985,29.99149],[-94.9994,29.98982],[-94.99527,29.97945],[-94.99551,29.9779],[-94.98784,29.97451],[-94.98591,29.97301],[-95.03179,29.93779],[-95.03165,29.93752],[-95.03423,29.9348],[-95.06315,29.88623],[-95.06347,29.89839],[-95.06407,29.89842],[-95.0641,29.8991],[-95.06387,29.89939],[-95.0635,29.89936],[-95.06353,29.9019],[-95.07643,29.9019],[-95.07689,29.90193],[-95.07761,29.90269],[-95.06836,29.90975],[-95.06922,29.9124],[-95.07568,29.94554],[-95.07598,29.94637],[-95.08519,29.96228],[-95.08669,29.96962],[-95.06167,29.96992],[-95.06182,29.98032],[-95.04864,29.9805],[-95.04909,29.98058],[-95.04972,29.98897],[-95.04178,29.98904],[-95.03897,29.98959],[-95.02181,29.98977],[-95.02189,29.99162],[-95.02573,29.99173],[-95.02677,29.99674],[-95.02473,29.99658],[-95.02191,29.99691],[-95.01847,29.99638]]]}},{"type":"Feature","properties":{"PRECINCT":"harris:51","COUNTY":"Harris"},"geometry":{"type":"Polygon","coordinates":[[[-95.12032,29.67517],[-95.11305,29.67526],[-95.11318,29.67093],[-95.11289,29.66388],[-95.12295,29.66373],[-95.12328,29.6792],[-95.12043,29.67924],[-95.12032,29.67517]]]}},{"type":"Feature","properties":{"PRECINCT":"harris:531","COUNTY":"Harris"},"geometry":{"type":"Polygon","coordinates":[[[-94.99569,29.92384],[-94.99651,29.92377],[-94.99694,29.92342],[-94.99874,29.91986],[-94.99645,29.91811],[-94.99586,29.91734],[-94.99532,29.91607],[-94.99484,29.91559],[-94.9937,29.9124],[-94.99287,29.91187],[-94.99223,29.91105],[-94.98781,29.90451],[-94.98433,29.89374],[-94.98436,29.89324],[-94.98585,29.89153],[-94.98614,29.89079],[-94.98499,29.88966],[-94.9827,29.88636],[-94.97874,29.87977],[-94.97633,29.87699],[-94.97668,29.87518],[-94.97622,29.87443],[-94.97593,29.873],[-94.97714,29.86818],[-94.97615,29.86767],[-94.9756,29.8667],[-94.97386,29.86586],[-94.9736,29.86506],[-94.97268,29.8644],[-94.97261,29.86303],[-94.97146,29.86242],[-94.97091,29.8616],[-94.97022,29.86136],[-94.96891,29.86043],[-94.968,29.85915],[-94.96595,29.85808],[-94.96033,29.85658],[-94.95309,29.8553],[-94.94759,29.85082],[-94.94709,29.84951],[-94.98569,29.84327],[-95.00252,29.84296],[-95.00278,29.84283],[-95.0028,29.84239],[-95.02789,29.84209],[-95.02818,29.8573],[-95.03474,29.85731],[-95.03509,29.85746],[-95.03525,29.86536],[-95.03567,29.86712],[-95.03585,29.8884],[-95.05227,29.88892],[-95.05933,29.88883],[-95.0599,29.88872],[-95.06005,29.88822],[-95.06164,29.88873],[-95.03423,29.9348],[-95.03165,29.93752],[-95.03179,29.93779],[-94.98591,29.97301],[-94.98529,29.972],[-94.98527,29.97037],[-94.98476,29.96803],[-94.98349,29.96613],[-94.98215,29.96497],[-94.98069,29.9568],[-94.98117,29.95556],[-94.98763,29.95296],[-94.99197,29.94076],[-94.9949,29.93706],[-94.99614,29.93008],[-94.99513,29.92898],[-94.99371,29.92841],[-94.99288,29.92775],[-94.99268,29.92648],[-94.993,29.92603],[-94.99429,29.92563],[-94.99569,29.92384]]]}},{"type":"Feature","properties":{"PRECINCT":"harris:532","COUNTY":"Harris"},"geometry":{"type":"Polygon","coordinates":[[[-94.94217,29.75636],[-94.9391,29.74042],[-94.94538,29.73952],[-94.94805,29.73858],[-94.95388,29.73986],[-94.9524,29.74198],[-94.9449,29.751],[-94.94419,29.75211],[-94.94317,29.75482],[-94.94217,29.75636]]]}},{"type":"Feature","properties":{"PRECINCT":"harris:534","COUNTY":"Harris"},"geometry":{"type":"Polygon","coordinates":[[[-95.13574,29.66349],[-95.13267,29.6635],[-95.13186,29.66203],[-95.12422,29.65345],[-95.12238,29.65048],[-95.1492,29.65029],[-95.15743,29.64981],[-95.15743,29.64965],[-95.17136,29.64952],[-95.1715,29.65541],[-95.17197,29.6578],[-95.17223,29.66532],[-95.14219,29.66587],[-95.13978,29.66531],[-95.1374,29.66398],[-95.13574,29.66349]]]}},{"type":"Feature","properties":{"PRECINCT":"harris:561","COUNTY":"Harris"},"geometry":{"type":"Polygon","coordinates":[[[-95.01377,29.70173],[-95.01213,29.7013],[-95.01112,29.70134],[-95.006,29.70063],[-95.00346,29.70011],[-95.00057,29.69918],[-94.99935,29.69866],[-94.99461,29.69534],[-94.98995,29.69185],[-94.9875,29.68926],[-94.9817,29.68193],[-94.97885,29.67673],[-94.98591,29.67328],[-94.99033,29.6717],[-95.00164,29.66439],[-95.00181,29.66364],[-95.00243,29.66371],[-95.00202,29.66294],[-95.00254,29.66275],[-95.00249,29.66224],[-95.00297,29.66211],[-95.00459,29.66024],[-95.0052,29.65991],[-95.00566,29.65918],[-95.00569,29.65863],[-95.00711,29.65718],[-95.01073,29.65054],[-95.01113,29.6509],[-95.01134,29.65171],[-95.01246,29.65284],[-95.01204,29.65373],[-95.01241,29.6543],[-95.01164,29.65564],[-95.01213,29.65596],[-95.01308,29.65741],[-95.01403,29.65695],[-95.01467,29.65798],[-95.01749,29.65668],[-95.0167,29.6554],[-95.01675,29.65409],[-95.01626,29.65366],[-95.01551,29.65366],[-95.01525,29.65251],[-95.03565,29.65222],[-95.03592,29.6639],[-95.03697,29.66388],[-95.03703,29.66518],[-95.03917,29.66514],[-95.0392,29.66532],[-95.03962,29.6844],[-95.03945,29.68481],[-95.03838,29.68625],[-95.03715,29.68674],[-95.03662,29.68674],[-95.03051,29.68494],[-95.03046,29.6898],[-95.02969,29.69215],[-95.02868,29.69369],[-95.01714,29.70322],[-95.01377,29.70173]]]}},{"type":"Feature","properties":{"PRECINCT":"harris:604","COUNTY":"Harris"},"geometry":{"type":"Polygon","coordinates":[[[-95.09114,29.98843],[-95.08669,29.96962],[-95.08519,29.96228],[-95.08082,29.95474],[-95.08514,29.95455],[-95.08427,29.95361],[-95.08361,29.95185],[-95.08305,29.95154],[-95.08257,29.95089],[-95.08283,29.95028],[-95.08269,29.94987],[-95.08295,29.94834],[-95.08346,29.94771],[-95.08316,29.9476],[-95.08319,29.94721],[-95.08385,29.94651],[-95.08365,29.94637],[-95.08347,29.94662],[-95.08317,29.94654],[-95.08296,29.9461],[-95.08303,29.94539],[-95.08254,29.94535],[-95.08195,29.94498],[-95.08233,29.94479],[-95.08195,29.94452],[-95.08137,29.94278],[-95.08173,29.94254],[-95.08191,29.94141],[-95.08253,29.94104],[-95.08255,29.94064],[-95.08303,29.94036],[-95.0833,29.93983],[-95.0828,29.93883],[-95.08519,29.93816],[-95.08833,29.93825],[-95.08854,29.93668],[-95.09008,29.93329],[-95.09051,29.93117],[-95.0903,29.92914],[-95.08883,29.92486],[-95.08895,29.92251],[-95.09018,29.92263],[-95.09162,29.92221],[-95.09237,29.92245],[-95.0909,29.92463],[-95.0931,29.92525],[-95.09295,29.92385],[-95.09342,29.92292],[-95.09484,29.92356],[-95.09447,29.92557],[-95.09647,29.92605],[-95.09975,29.92414],[-95.10274,29.92067],[-95.11035,29.91878],[-95.11563,29.91718],[-95.11639,29.91715],[-95.12074,29.91982],[-95.12223,29.92017],[-95.12288,29.9213],[-95.12297,29.92267],[-95.12386,29.92322],[-95.12484,29.9243],[-95.12538,29.92409],[-95.12503,29.92352],[-95.13219,29.92012],[-95.13219,29.91993],[-95.1329,29.91945],[-95.14044,29.92672],[-95.1543,29.95115],[-95.12928,29.97787],[-95.13154,29.98767],[-95.11527,29.98812],[-95.11493,29.98843],[-95.11427,29.98851],[-95.11344,29.98819],[-95.09114,29.98843]]]}},{"type":"Feature","properties":{"PRECINCT":"harris:63","COUNTY":"Harris"},"geometry":{"type":"Polygon","coordinates":[[[-95.06038,29.86345],[-95.05969,29.86119],[-95.05771,29.84202],[-95.05789,29.83523],[-95.05752,29.83235],[-95.05704,29.81183],[-95.05637,29.80712],[-95.05437,29.80716],[-95.05473,29.80617],[-95.05466,29.80528],[-95.05399,29.80438],[-95.05269,29.80357],[-95.05086,29.79934],[-95.05041,29.79876],[-95.04927,29.79804],[-95.04918,29.79604],[-95.04887,29.79527],[-95.04793,29.79422],[-95.04613,29.79348],[-95.04527,29.79263],[-95.0498,29.79098],[-95.05295,29.79047],[-95.05491,29.79048],[-95.0566,29.79078],[-95.06082,29.79251],[-95.05813,29.79424],[-95.05732,29.79528],[-95.05671,29.79669],[-95.05687,29.79826],[-95.05748,29.79933],[-95.0589,29.80033],[-95.06228,29.80184],[-95.06541,29.80286],[-95.07013,29.80333],[-95.07344,29.8026],[-95.07612,29.80158],[-95.07927,29.79976],[-95.08322,29.79871],[-95.08596,29.79824],[-95.08754,29.79837],[-95.08863,29.7988],[-95.08921,29.79925],[-95.08981,29.80021],[-95.08992,29.80571],[-95.09022,29.80786],[-95.08967,29.81396],[-95.08856,29.81547],[-95.08703,29.81666],[-95.08531,29.81734],[-95.08349,29.81754],[-95.08102,29.81747],[-95.0796,29.81795],[-95.07914,29.81845],[-95.07902,29.81911],[-95.07949,29.82155],[-95.07924,29.82398],[-95.07838,29.82541],[-95.07771,29.82582],[-95.07589,29.82609],[-95.07432,29.82585],[-95.06927,29.82429],[-95.06761,29.82398],[-95.06629,29.82395],[-95.06366,29.82496],[-95.06209,29.82643],[-95.06121,29.82837],[-95.06145,29.82993],[-95.06234,29.83126],[-95.06391,29.83243],[-95.06593,29.83299],[-95.06765,29.83263],[-95.06953,29.83172],[-95.07298,29.83049],[-95.07708,29.82961],[-95.08138,29.82928],[-95.08562,29.8299],[-95.0919,29.83157],[-95.09351,29.83223],[-95.09631,29.83384],[-95.09994,29.83622],[-95.10296,29.83863],[-95.10549,29.84251],[-95.10644,29.84442],[-95.10609,29.84568],[-95.10497,29.84563],[-95.10331,29.84501],[-95.10256,29.84396],[-95.10098,29.84311],[-95.09689,29.84567],[-95.09363,29.84606],[-95.09216,29.84668],[-95.09031,29.84864],[-95.08956,29.85019],[-95.08928,29.8515],[-95.0924,29.85821],[-95.09396,29.86093],[-95.09395,29.86197],[-95.09337,29.86288],[-95.09385,29.86394],[-95.09387,29.86481],[-95.07359,29.86383],[-95.06038,29.86345]]]}},{"type":"Feature","properties":{"PRECINCT":"harris:665","COUNTY":"Harris"},"geometry":{"type":"Polygon","coordinates":[[[-95.08781,29.67982],[-95.08761,29.67245],[-95.08707,29.67088],[-95.08692,29.66438],[-95.11289,29.66388],[-95.11318,29.67093],[-95.11305,29.67526],[-95.12032,29.67517],[-95.12043,29.67924],[-95.08781,29.67982]]]}},{"type":"Feature","properties":{"PRECINCT":"harris:673","COUNTY":"Harris"},"geometry":{"type":"Polygon","coordinates":[[[-95.12983,29.70061],[-95.12815,29.69989],[-95.12375,29.69988],[-95.12335,29.682],[-95.13126,29.6819],[-95.13106,29.68344],[-95.13697,29.68336],[-95.13692,29.6818],[-95.14262,29.68174],[-95.14295,29.69581],[-95.1437,29.6958],[-95.14377,29.70039],[-95.14508,29.70037],[-95.145,29.70118],[-95.14164,29.70122],[-95.13839,29.70078],[-95.13129,29.70089],[-95.12983,29.70061]]]}},{"type":"Feature","properties":{"PRECINCT":"harris:679","COUNTY":"Harris"},"geometry":{"type":"Polygon","coordinates":[[[-95.14293,29.64043],[-95.14274,29.63122],[-95.18121,29.63036],[-95.1813,29.64078],[-95.17975,29.64078],[-95.17792,29.64033],[-95.17164,29.64044],[-95.17111,29.64063],[-95.17136,29.64952],[-95.15743,29.64965],[-95.15743,29.64981],[-95.15212,29.65001],[-95.15043,29.65025],[-95.14358,29.65035],[-95.14337,29.64187],[-95.14293,29.64043]]]}},{"type":"Feature","properties":{"PRECINCT":"harris:682","COUNTY":"Harris"},"geometry":{"type":"Polygon","coordinates":[[[-95.05933,29.66479],[-95.05925,29.66035],[-95.05951,29.6591],[-95.06025,29.65753],[-95.06687,29.65752],[-95.06809,29.65773],[-95.06784,29.6585],[-95.07152,29.65948],[-95.07059,29.66223],[-95.07057,29.66459],[-95.08692,29.66438],[-95.08707,29.67088],[-95.08761,29.67245],[-95.08771,29.6746],[-95.04656,29.67537],[-95.04639,29.665],[-95.05933,29.66479]]]}},{"type":"Feature","properties":{"PRECINCT":"harris:695","COUNTY":"Harris"},"geometry":{"type":"Polygon","coordinates":[[[-95.12295,29.66373],[-95.13267,29.6635],[-95.13694,29.67322],[-95.14018,29.67537],[-95.13931,29.67629],[-95.12322,29.67645],[-95.12295,29.66373]]]}},{"type":"Feature","properties":{"PRECINCT":"harris:700","COUNTY":"Harris"},"geometry":{"type":"Polygon","coordinates":[[[-95.05684,30.06098],[-95.04982,30.04204],[-95.04622,30.03318],[-95.04513,30.02921],[-95.03118,29.99332],[-95.0308,29.9938],[-95.02896,29.99438],[-95.0275,29.99642],[-95.02677,29.99674],[-95.02573,29.99173],[-95.02189,29.99162],[-95.02181,29.98977],[-95.03897,29.98959],[-95.04178,29.98904],[-95.04972,29.98897],[-95.04909,29.98058],[-95.04864,29.9805],[-95.06182,29.98032],[-95.06167,29.96992],[-95.08669,29.96962],[-95.09114,29.98843],[-95.1099,29.9882],[-95.10294,30.01931],[-95.09938,30.01937],[-95.09946,30.02423],[-95.10175,30.02419],[-95.10194,30.02825],[-95.10091,30.02826],[-95.09855,30.03825],[-95.0976,30.03823],[-95.09744,30.04368],[-95.09863,30.04428],[-95.09914,30.04512],[-95.09914,30.04601],[-95.09812,30.04601],[-95.09814,30.04782],[-95.09336,30.04786],[-95.09571,30.05731],[-95.06336,30.05776],[-95.06342,30.06084],[-95.05684,30.06098]]]}},{"type":"Feature","properties":{"PRECINCT":"harris:704","COUNTY":"Harris"},"geometry":{"type":"Polygon","coordinates":[[[-95.08843,29.70318],[-95.08781,29.67982],[-95.09849,29.67967],[-95.09876,29.69516],[-95.12365,29.69472],[-95.12375,29.69988],[-95.11356,29.70005],[-95.1138,29.71015],[-95.11298,29.71052],[-95.1023,29.70749],[-95.08843,29.70318]]]}},{"type":"Feature","properties":{"PRECINCT":"harris:739","COUNTY":"Harris"},"geometry":{"type":"Polygon","coordinates":[[[-94.99759,29.80228],[-94.99344,29.78083],[-94.99074,29.78038],[-94.99052,29.76987],[-94.99309,29.77078],[-94.99488,29.77107],[-95.00045,29.77103],[-95.00053,29.77043],[-95.00293,29.77044],[-95.00356,29.77017],[-95.00837,29.76552],[-95.01451,29.77133],[-95.02033,29.77737],[-95.02182,29.77857],[-95.03969,29.78616],[-95.03919,29.78665],[-95.03189,29.78696],[-95.00236,29.78227],[-95.00217,29.78502],[-95.0026,29.78599],[-95.00236,29.787],[-95.00249,29.788],[-95.00214,29.78885],[-95.00235,29.78979],[-95.00293,29.79046],[-95.00192,29.79405],[-95.00157,29.7946],[-95.00178,29.79556],[-95.00268,29.79745],[-95.00259,29.7991],[-95.00283,29.79978],[-95.004,29.80086],[-95.00476,29.80115],[-94.99759,29.80228]]]}},{"type":"Feature","properties":{"PRECINCT":"harris:84","COUNTY":"Harris"},"geometry":{"type":"Polygon","coordinates":[[[-95.11795,29.71132],[-95.11298,29.71052],[-95.1138,29.71015],[-95.11356,29.70005],[-95.12702,29.69983],[-95.12815,29.69989],[-95.13087,29.70086],[-95.13839,29.70078],[-95.14164,29.70122],[-95.145,29.70118],[-95.14496,29.71109],[-95.14494,29.71135],[-95.14468,29.71134],[-95.1447,29.71204],[-95.14,29.71191],[-95.13865,29.71155],[-95.13508,29.71142],[-95.13043,29.7116],[-95.11795,29.71132]]]}},{"type":"Feature","properties":{"PRECINCT":"harris:97","COUNTY":"Harris"},"geometry":{"type":"Polygon","coordinates":[[[-95.08082,29.95474],[-95.07568,29.94554],[-95.0751,29.943],[-95.06922,29.9124],[-95.06836,29.90975],[-95.08366,29.89787],[-95.08452,29.89586],[-95.08813,29.88422],[-95.08867,29.88339],[-95.09019,29.88193],[-95.08882,29.8858],[-95.08975,29.88857],[-95.09041,29.88902],[-95.09163,29.88912],[-95.0924,29.88977],[-95.09247,29.89034],[-95.09206,29.89066],[-95.0903,29.89105],[-95.09035,29.89271],[-95.08822,29.89511],[-95.08773,29.89523],[-95.08659,29.89458],[-95.08621,29.89474],[-95.08605,29.89555],[-95.08652,29.8965],[-95.08576,29.89857],[-95.08646,29.89951],[-95.08572,29.90083],[-95.08514,29.90125],[-95.08533,29.9017],[-95.08471,29.90205],[-95.08468,29.90248],[-95.08428,29.90283],[-95.08494,29.90342],[-95.08692,29.9036],[-95.08728,29.90444],[-95.0878,29.90464],[-95.08788,29.90505],[-95.08839,29.90533],[-95.08873,29.90512],[-95.08975,29.90533],[-95.0905,29.90476],[-95.09103,29.90491],[-95.09185,29.90578],[-95.09257,29.90559],[-95.09276,29.90588],[-95.09228,29.90703],[-95.09128,29.90654],[-95.09079,29.90665],[-95.09182,29.90809],[-95.09163,29.90854],[-95.0913,29.90856],[-95.09129,29.90912],[-95.09055,29.90926],[-95.09028,29.90991],[-95.09038,29.91071],[-95.09047,29.91098],[-95.09209,29.91063],[-95.09229,29.91266],[-95.09158,29.91751],[-95.08949,29.92076],[-95.08878,29.92334],[-95.08892,29.92527],[-95.09035,29.9294],[-95.09045,29.9318],[-95.08993,29.93366],[-95.08858,29.93654],[-95.08833,29.93825],[-95.08519,29.93816],[-95.0828,29.93883],[-95.0833,29.93983],[-95.08303,29.94036],[-95.08255,29.94064],[-95.08253,29.94104],[-95.08191,29.94141],[-95.08173,29.94254],[-95.08137,29.94278],[-95.08195,29.94452],[-95.08233,29.94479],[-95.08195,29.94498],[-95.08254,29.94535],[-95.08303,29.94539],[-95.08296,29.9461],[-95.08317,29.94654],[-95.08347,29.94662],[-95.08365,29.94637],[-95.08385,29.94651],[-95.08319,29.94721],[-95.08316,29.9476],[-95.08346,29.94771],[-95.08295,29.94834],[-95.08269,29.94987],[-95.08283,29.95028],[-95.08257,29.95089],[-95.08305,29.95154],[-95.08361,29.95185],[-95.08427,29.95361],[-95.08512,29.95465],[-95.08082,29.95474]]]}},{"type":"Feature","properties":{"PRECINCT":"harris:988","COUNTY":"Harris"},"geometry":{"type":"Polygon","coordinates":[[[-95.07689,29.90193],[-95.06353,29.9019],[-95.0635,29.89936],[-95.06387,29.89939],[-95.0641,29.8991],[-95.06407,29.89842],[-95.06347,29.89839],[-95.06315,29.88623],[-95.06339,29.88571],[-95.06452,29.88456],[-95.06594,29.88396],[-95.08213,29.87961],[-95.08835,29.87757],[-95.09424,29.87619],[-95.09366,29.87818],[-95.09423,29.87938],[-95.09538,29.88023],[-95.09211,29.88091],[-95.09019,29.88193],[-95.08867,29.88339],[-95.08813,29.88422],[-95.08452,29.89586],[-95.08366,29.89787],[-95.07761,29.90269],[-95.07689,29.90193]]]}}]}