{"type":"FeatureCollection","features":[{"type":"Feature","properties":{"PRECINCT":"2","VTD":"0002"},"geometry":{"type":"Polygon","coordinates":[[[-105.481559,31.432397],[-105.485502,31.428997],[-105.499671,31.420817],[-105.505251,31.418161],[-105.50676,31.416595],[-105.50743,31.416343],[-105.508633,31.415299],[-105.509859,31.415278],[-105.529538,31.411743],[-105.532455,31.411151],[-105.533222,31.410735],[-105.5353,31.410937],[-105.540073,31.410338],[-105.547753,31.406632],[-105.548745,31.405803],[-105.54921,31.404704],[-105.548593,31.397549],[-105.548143,31.395044],[-105.549973,31.393006],[-105.551193,31.392319],[-105.55316,31.390702],[-105.553139,31.389923],[-105.553677,31.388609],[-105.553972,31.386794],[-105.553729,31.385661],[-105.551485,31.383153],[-105.551082,31.381833],[-105.549985,31.379919],[-105.548941,31.378868],[-105.547742,31.376915],[-105.54662,31.376866],[-105.546011,31.376255],[-105.543518,31.37516],[-105.540782,31.374335],[-105.536462,31.373751],[-105.535365,31.373234],[-105.530661,31.372056],[-105.526756,31.37299],[-105.525763,31.372643],[-105.525641,31.372324],[-105.524859,31.371796],[-105.524815,31.371097],[-105.521879,31.370112],[-105.521508,31.369149],[-105.521868,31.36734],[-105.521502,31.36646],[-105.521625,31.364837],[-105.521504,31.363495],[-105.521273,31.363303],[-105.521639,31.361625],[-105.521377,31.361125],[-105.520614,31.360673],[-105.519236,31.36086],[-105.518852,31.359589],[-105.519307,31.358924],[-105.51932,31.35833],[-105.518731,31.357125],[-105.518604,31.355283],[-105.518008,31.354579],[-105.516835,31.353781],[-105.516227,31.352796],[-105.517234,31.351707],[-105.516933,31.35124],[-105.517023,31.350992],[-105.516215,31.350871],[-105.515728,31.350392],[-105.514915,31.350089],[-105.514627,31.349347],[-105.513743,31.348323],[-105.51273,31.347734],[-105.512282,31.347069],[-105.511468,31.346755],[-105.509264,31.346468],[-105.508694,31.346204],[-105.508322,31.345604],[-105.508316,31.344779],[-105.508586,31.344411],[-105.509285,31.344015],[-105.510009,31.343922],[-105.509971,31.343014],[-105.509471,31.342283],[-105.509254,31.341414],[-105.50928,31.340423],[-105.509639,31.33961],[-105.509627,31.33802],[-105.511487,31.33576],[-105.511994,31.334319],[-105.511283,31.332917],[-105.510796,31.33267],[-105.510425,31.331492],[-105.509958,31.33092],[-105.510407,31.33015],[-105.510343,31.329682],[-105.5096,31.32928],[-105.509402,31.32884],[-105.510229,31.327174],[-105.509307,31.326448],[-105.507572,31.324302],[-105.508246,31.322025],[-105.507907,31.321491],[-105.507228,31.321211],[-105.506383,31.31972],[-105.505896,31.319989],[-105.504941,31.319675],[-105.504326,31.319323],[-105.503859,31.318509],[-105.503846,31.318272],[-105.504244,31.318333],[-105.50534,31.316925],[-105.505578,31.315963],[-105.504483,31.314989],[-105.504278,31.314147],[-105.50392,31.313773],[-105.504977,31.313119],[-105.503626,31.311952],[-105.503595,31.311023],[-105.502013,31.309246],[-105.502103,31.308668],[-105.502969,31.307722],[-105.502668,31.306919],[-105.502906,31.305995],[-105.502273,31.304549],[-105.50228,31.303828],[-105.501575,31.30303],[-105.502159,31.301595],[-105.502095,31.301034],[-105.500918,31.2999],[-105.50168,31.298982],[-105.501271,31.298415],[-105.502265,31.296661],[-105.502079,31.296199],[-105.50224,31.294786],[-105.502657,31.294241],[-105.504637,31.292906],[-105.504939,31.291256],[-105.507406,31.289326],[-105.50897,31.28771],[-105.509182,31.285741],[-105.509951,31.28545],[-105.510572,31.284823],[-105.510855,31.283855],[-105.511399,31.283613],[-105.512623,31.282453],[-105.512745,31.281881],[-105.513443,31.281508],[-105.513681,31.280562],[-105.515417,31.279462],[-105.516269,31.279567],[-105.517691,31.277796],[-105.518923,31.276797],[-105.520768,31.277216],[-105.521781,31.276972],[-105.523653,31.275073],[-105.527113,31.274048],[-105.528274,31.273231],[-105.531851,31.272926],[-105.53397,31.272513],[-105.537454,31.270452],[-105.537714,31.269113],[-105.538132,31.268558],[-105.537503,31.268759],[-105.536705,31.268694],[-105.535178,31.26767],[-105.533707,31.266295],[-105.532471,31.265794],[-105.531122,31.265443],[-105.528866,31.26537],[-105.527162,31.264578],[-105.524123,31.261773],[-105.518286,31.257866],[-105.514681,31.255863],[-105.480584,31.232011],[-105.479681,31.230682],[-105.479676,31.228679],[-105.479299,31.227264],[-105.478271,31.226354],[-105.478189,31.225787],[-105.479247,31.224068],[-105.480238,31.220457],[-105.482301,31.217112],[-105.485113,31.2178],[-105.4866,31.217713],[-105.488529,31.217099],[-105.52792,31.194507],[-105.530039,31.193561],[-105.531952,31.193161],[-105.534024,31.19313],[-105.545758,31.195249],[-105.564881,31.196733],[-105.588555,31.197331],[-105.591319,31.197201],[-105.606064,31.192886],[-105.609039,31.191717],[-105.612711,31.189359],[-105.618713,31.184313],[-105.621008,31.183086],[-105.656434,31.171669],[-105.655865,31.170274],[-105.655829,31.169535],[-105.657629,31.162812],[-105.657945,31.159838],[-105.657844,31.158173],[-105.656123,31.148482],[-105.655492,31.146459],[-105.652314,31.138966],[-105.648081,31.131845],[-105.635904,31.124056],[-105.631414,31.120329],[-105.619911,31.108212],[-105.598587,31.090011],[-105.593327,31.084647],[-105.588913,31.077036],[-105.579016,31.064954],[-105.576557,31.052496],[-105.575792,31.04705],[-105.576047,31.044476],[-105.574839,31.041423],[-105.573472,31.030098],[-105.571106,31.025561],[-105.57122,31.021005],[-105.570417,31.019581],[-105.571363,31.018766],[-105.576419,31.019387],[-105.577388,31.019672],[-105.578273,31.020348],[-105.581304,31.026863],[-105.581175,31.027902],[-105.579913,31.03039],[-105.579524,31.035695],[-105.584994,31.056964],[-105.585362,31.05767],[-105.588417,31.060457],[-105.593854,31.063243],[-105.595286,31.06431],[-105.596003,31.065285],[-105.596672,31.066924],[-105.598367,31.074318],[-105.602682,31.081817],[-105.604467,31.083744],[-105.606438,31.085278],[-105.627102,31.098405],[-105.628519,31.098655],[-105.640048,31.097639],[-105.641051,31.097858],[-105.641829,31.098333],[-105.642684,31.099583],[-105.646488,31.11308],[-105.647604,31.114979],[-105.648839,31.115877],[-105.659637,31.119655],[-105.661688,31.11995],[-105.663473,31.121113],[-105.665712,31.121999],[-105.679183,31.125937],[-105.7084,31.13593],[-105.710526,31.136975],[-105.71618,31.140567],[-105.717098,31.141534],[-105.717525,31.142415],[-105.717856,31.145653],[-105.718417,31.147635],[-105.719273,31.148894],[-105.741929,31.164602],[-105.743685,31.165254],[-105.745725,31.165363],[-105.76337,31.164127],[-105.76956,31.164876],[-105.77299,31.166702],[-105.774028,31.168474],[-105.775795,31.175829],[-105.779631,31.181763],[-105.78003,31.18274],[-105.780253,31.184941],[-105.779491,31.188338],[-105.779478,31.190228],[-105.780132,31.192326],[-105.782798,31.197459],[-105.783314,31.198106],[-105.784684,31.19898],[-105.792344,31.201202],[-105.794287,31.202286],[-105.818381,31.230146],[-105.822309,31.234222],[-105.834749,31.24591],[-105.836392,31.247722],[-105.850332,31.264968],[-105.853272,31.271716],[-105.853814,31.272521],[-105.857962,31.275561],[-105.863753,31.282315],[-105.862019,31.283437],[-105.859964,31.28546],[-105.854452,31.290069],[-105.84205,31.301688],[-105.838734,31.305502],[-105.838578,31.306205],[-105.838964,31.308276],[-105.838665,31.309278],[-105.829217,31.325116],[-105.827673,31.326966],[-105.772856,31.380601],[-105.760871,31.388629],[-105.749077,31.397265],[-105.744582,31.403055],[-105.742305,31.406437],[-105.734593,31.42559],[-105.727974,31.441098],[-105.726638,31.441854],[-105.717201,31.445097],[-105.716519,31.446513],[-105.71582,31.447279],[-105.712448,31.449586],[-105.711151,31.449645],[-105.710758,31.449846],[-105.709437,31.452544],[-105.708407,31.454021],[-105.707035,31.454327],[-105.706188,31.453913],[-105.705455,31.45453],[-105.703061,31.455611],[-105.702587,31.456272],[-105.700159,31.45684],[-105.696957,31.456524],[-105.693693,31.455519],[-105.692931,31.455586],[-105.691808,31.456052],[-105.691124,31.456824],[-105.690628,31.458833],[-105.690756,31.460886],[-105.670134,31.457797],[-105.66988,31.490116],[-105.670108,31.490813],[-105.669414,31.491189],[-105.663606,31.498649],[-105.647593,31.512372],[-105.646375,31.513111],[-105.645661,31.513253],[-105.645226,31.513121],[-105.640859,31.510518],[-105.638169,31.509362],[-105.630901,31.507577],[-105.628444,31.507863],[-105.628728,31.508989],[-105.629735,31.510463],[-105.628848,31.511832],[-105.628576,31.516628],[-105.625524,31.519597],[-105.625299,31.520443],[-105.623867,31.521631],[-105.623437,31.52283],[-105.62401,31.525459],[-105.624518,31.526619],[-105.624739,31.529726],[-105.625163,31.530726],[-105.624246,31.532663],[-105.622895,31.53807],[-105.622799,31.539099],[-105.623275,31.540633],[-105.622647,31.5417],[-105.622828,31.54324],[-105.621936,31.544418],[-105.620427,31.544699],[-105.617994,31.546174],[-105.616588,31.54668],[-105.613203,31.547012],[-105.611647,31.547627],[-105.610608,31.547491],[-105.605956,31.549478],[-105.602421,31.550384],[-105.598908,31.552036],[-105.595061,31.553045],[-105.592471,31.554016],[-105.590075,31.554554],[-105.587989,31.555419],[-105.586732,31.555664],[-105.583378,31.55537],[-105.581958,31.555599],[-105.58108,31.556509],[-105.580589,31.557764],[-105.578338,31.559629],[-105.571179,31.564716],[-105.566088,31.568961],[-105.565417,31.569832],[-105.563477,31.571157],[-105.561834,31.572804],[-105.561065,31.574007],[-105.558351,31.577118],[-105.556141,31.579223],[-105.554361,31.581462],[-105.549399,31.585807],[-105.543669,31.586852],[-105.534866,31.589291],[-105.530167,31.589964],[-105.529738,31.590464],[-105.52817,31.591074],[-105.512316,31.620376],[-105.493303,31.652768],[-105.479039,31.652377],[-105.47308,31.652505],[-105.473407,31.591748],[-105.473237,31.546786],[-105.473441,31.546786],[-105.479299,31.470682],[-105.478772,31.46195],[-105.480668,31.44121],[-105.48033,31.440307],[-105.481206,31.433154],[-105.48153,31.43297],[-105.481559,31.432397]]]}},{"type":"Feature","properties":{"PRECINCT":"4","VTD":"0004"},"geometry":{"type":"Polygon","coordinates":[[[-104.918276,31.813306],[-104.91716,31.757678],[-104.917443,31.755715],[-104.917153,31.754539],[-104.916687,31.732976],[-104.9164,31.727656],[-104.915356,31.719423],[-104.91289,31.62512],[-104.913093,31.586898],[-105.034303,31.619904],[-105.042491,31.623968],[-105.072166,31.631292],[-105.081074,31.633285],[-105.097321,31.637997],[-105.310525,31.674428],[-105.371507,31.686486],[-105.371679,31.708519],[-105.372907,31.715383],[-105.37178,31.724383],[-105.371894,31.747604],[-105.368687,31.761553],[-105.714691,31.821717],[-105.769113,31.842269],[-105.779687,31.845808],[-105.781583,31.846836],[-105.782587,31.8469],[-105.783329,31.84656],[-105.79272,31.848352],[-105.794079,31.848439],[-105.80885,31.846959],[-105.809156,31.847098],[-105.813059,31.846938],[-105.812137,31.846626],[-105.82345,31.845467],[-105.829963,31.845346],[-105.832379,31.844464],[-105.844026,31.837276],[-105.860909,31.832621],[-105.861396,31.833704],[-105.862407,31.833769],[-105.864167,31.835142],[-105.866891,31.839036],[-105.870267,31.841939],[-105.868141,31.87248],[-105.864775,31.880255],[-105.862299,31.882849],[-105.860512,31.885675],[-105.855883,31.887503],[-105.853913,31.888704],[-105.851485,31.892505],[-105.847748,31.895738],[-105.846714,31.89877],[-105.845773,31.904268],[-105.846425,31.906838],[-105.84673,31.910918],[-105.847735,31.912564],[-105.850863,31.915397],[-105.851616,31.915745],[-105.85821,31.917293],[-105.86293,31.918716],[-105.865978,31.919332],[-105.867852,31.919316],[-105.869101,31.919],[-105.871973,31.919154],[-105.872672,31.918983],[-105.87339,31.919044],[-105.874172,31.919759],[-105.875341,31.919705],[-105.877429,31.920135],[-105.883755,31.920253],[-105.887518,31.918296],[-105.88877,31.916868],[-105.889888,31.916259],[-105.892187,31.916235],[-105.896044,31.915727],[-105.896995,31.915933],[-105.899003,31.915702],[-105.899821,31.915976],[-105.900702,31.915816],[-105.90792,31.915889],[-105.909416,31.917998],[-105.910686,31.917723],[-105.917337,31.917362],[-105.921094,31.917386],[-105.925286,31.917869],[-105.927523,31.918375],[-105.931085,31.919734],[-105.932692,31.920011],[-105.934699,31.921481],[-105.935396,31.921598],[-105.936227,31.92208],[-105.937989,31.924837],[-105.939191,31.925609],[-105.939378,31.9262],[-105.940077,31.926625],[-105.939536,31.929325],[-105.940028,31.929364],[-105.940927,31.930529],[-105.940002,31.932614],[-105.942435,31.940764],[-105.942756,31.941057],[-105.949591,31.9428],[-105.922777,31.986171],[-105.921359,31.987036],[-105.911128,31.989287],[-105.910021,31.98981],[-105.900751,32.001977],[-105.875288,32.001948],[-105.854059,32.00235],[-105.750511,32.002206],[-105.731353,32.001565],[-105.429281,32.000576],[-105.250514,32.000278],[-105.247774,32.000438],[-105.131377,32.000524],[-105.125504,32.000371],[-105.077046,32.000579],[-105.000507,32.00042],[-104.918272,32.000496],[-104.918691,32.000113],[-104.917661,31.885192],[-104.918495,31.885206],[-104.918244,31.869948],[-104.918276,31.813306]]]}},{"type":"Feature","properties":{"PRECINCT":"1","VTD":"0001"},"geometry":{"type":"Polygon","coordinates":[[[-105.371681,31.70856],[-105.371507,31.686486],[-105.310525,31.674428],[-105.097321,31.637997],[-105.081074,31.633285],[-105.072166,31.631292],[-105.042491,31.623968],[-105.034303,31.619904],[-104.913093,31.586898],[-104.912729,31.500122],[-104.911312,31.365986],[-104.909124,31.246609],[-104.908893,31.000134],[-104.907992,30.98487],[-104.907816,30.984772],[-104.907122,30.900342],[-104.907506,30.900312],[-104.907592,30.835919],[-104.916396,30.835979],[-104.917163,30.663626],[-104.979801,30.629258],[-104.980873,30.630015],[-104.981765,30.63004],[-104.982141,30.630275],[-104.982632,30.631701],[-104.982734,30.633874],[-104.9839,30.635025],[-104.98388,30.637111],[-104.984242,30.638465],[-104.984513,30.641342],[-104.983892,30.642798],[-104.984561,30.644245],[-104.98468,30.646726],[-104.985514,30.649899],[-104.985181,30.653127],[-104.98585,30.654575],[-104.985658,30.655268],[-104.984716,30.655636],[-104.985076,30.656795],[-104.986176,30.658076],[-104.985393,30.658332],[-104.985537,30.659158],[-104.986557,30.659547],[-104.985945,30.661233],[-104.986245,30.66215],[-104.98611,30.662767],[-104.987045,30.663083],[-104.989369,30.663109],[-104.990294,30.663326],[-104.991423,30.665132],[-104.992428,30.664812],[-104.993052,30.664914],[-104.993485,30.66596],[-104.99312,30.667018],[-104.993846,30.66852],[-104.995681,30.668714],[-104.996552,30.669158],[-104.997758,30.668994],[-104.999555,30.671465],[-105.001542,30.672704],[-105.00127,30.675199],[-105.001872,30.678192],[-105.002539,30.680087],[-105.002048,30.680426],[-105.002043,30.680878],[-105.004508,30.68309],[-105.005628,30.683076],[-105.006147,30.685476],[-105.006579,30.68606],[-105.007324,30.686357],[-105.007796,30.686221],[-105.010423,30.684584],[-105.012296,30.683832],[-105.012904,30.682653],[-105.013199,30.682562],[-105.014337,30.68254],[-105.015235,30.682865],[-105.016008,30.682878],[-105.016594,30.683509],[-105.016864,30.684311],[-105.016759,30.684875],[-105.017878,30.685086],[-105.019829,30.683931],[-105.020647,30.682218],[-105.02127,30.681509],[-105.024526,30.681494],[-105.025218,30.681287],[-105.026247,30.680722],[-105.026618,30.679428],[-105.027325,30.678881],[-105.028127,30.680004],[-105.028784,30.680264],[-105.030388,30.680143],[-105.031962,30.68099],[-105.033953,30.683335],[-105.034837,30.685014],[-105.036089,30.686658],[-105.038318,30.688082],[-105.040819,30.688935],[-105.041274,30.688874],[-105.042063,30.687663],[-105.042709,30.687353],[-105.044555,30.68781],[-105.045357,30.688957],[-105.046691,30.68848],[-105.047161,30.688074],[-105.047076,30.687433],[-105.044781,30.684964],[-105.044428,30.684183],[-105.044402,30.683205],[-105.045316,30.682668],[-105.045784,30.681876],[-105.045704,30.681029],[-105.04522,30.680559],[-105.045803,30.679899],[-105.046923,30.680139],[-105.04807,30.680092],[-105.048321,30.680285],[-105.048449,30.680728],[-105.047537,30.681704],[-105.047889,30.682224],[-105.048406,30.682458],[-105.050809,30.682174],[-105.051972,30.681569],[-105.055307,30.682156],[-105.055392,30.682753],[-105.054421,30.68418],[-105.054269,30.685104],[-105.054446,30.685318],[-105.055119,30.685232],[-105.055642,30.685544],[-105.056155,30.687206],[-105.056698,30.687864],[-105.057916,30.688132],[-105.05904,30.688015],[-105.060011,30.687285],[-105.059872,30.687014],[-105.059277,30.686812],[-105.059289,30.686452],[-105.061247,30.685738],[-105.061762,30.685845],[-105.062486,30.686532],[-105.063388,30.688938],[-105.062904,30.691385],[-105.061685,30.69466],[-105.06182,30.695953],[-105.062657,30.697015],[-105.062552,30.698502],[-105.065076,30.698372],[-105.066885,30.699256],[-105.068085,30.701572],[-105.068232,30.703702],[-105.06873,30.703668],[-105.069131,30.702549],[-105.070062,30.701885],[-105.072261,30.701802],[-105.073349,30.701527],[-105.075332,30.701893],[-105.07664,30.701239],[-105.077401,30.700012],[-105.07856,30.699708],[-105.080941,30.699846],[-105.081129,30.700336],[-105.080786,30.701441],[-105.082065,30.701301],[-105.082578,30.701678],[-105.082592,30.702088],[-105.081864,30.702981],[-105.08074,30.703033],[-105.080104,30.703315],[-105.079383,30.704343],[-105.079461,30.705605],[-105.080462,30.706389],[-105.080227,30.707724],[-105.081028,30.708471],[-105.082405,30.708648],[-105.083349,30.70997],[-105.087181,30.709745],[-105.087463,30.709877],[-105.087892,30.711437],[-105.087287,30.712806],[-105.086976,30.714451],[-105.087614,30.715488],[-105.088955,30.715897],[-105.090381,30.71697],[-105.091063,30.717177],[-105.092221,30.717247],[-105.093687,30.717025],[-105.094911,30.717197],[-105.09531,30.716058],[-105.095778,30.715891],[-105.098179,30.716479],[-105.098517,30.716768],[-105.098675,30.717477],[-105.098381,30.720045],[-105.099281,30.720868],[-105.099622,30.721953],[-105.100916,30.722544],[-105.103628,30.722755],[-105.105547,30.723808],[-105.105471,30.724597],[-105.103901,30.7253],[-105.103314,30.726337],[-105.103358,30.727076],[-105.103889,30.727828],[-105.103344,30.728598],[-105.103371,30.729129],[-105.10589,30.730483],[-105.106023,30.731821],[-105.106614,30.732221],[-105.107443,30.731633],[-105.106889,30.731098],[-105.106837,30.73057],[-105.107097,30.73015],[-105.107988,30.729908],[-105.108805,30.730087],[-105.11018,30.731295],[-105.110409,30.732116],[-105.111679,30.732868],[-105.111825,30.733261],[-105.111676,30.735716],[-105.110836,30.737681],[-105.110985,30.738563],[-105.110018,30.739108],[-105.10981,30.739564],[-105.11022,30.740248],[-105.111562,30.740104],[-105.112211,30.740502],[-105.112157,30.741073],[-105.111476,30.742351],[-105.110897,30.742648],[-105.110939,30.743552],[-105.113933,30.74598],[-105.114568,30.745808],[-105.116139,30.74466],[-105.115935,30.743578],[-105.116942,30.743009],[-105.11979,30.743159],[-105.120443,30.743853],[-105.120809,30.74486],[-105.120851,30.745894],[-105.119432,30.747519],[-105.119456,30.748354],[-105.118021,30.749083],[-105.118295,30.749726],[-105.119676,30.749995],[-105.121242,30.749563],[-105.122877,30.749545],[-105.124278,30.749227],[-105.125399,30.748101],[-105.126585,30.747797],[-105.127659,30.747845],[-105.128329,30.748161],[-105.12906,30.749992],[-105.129598,30.750376],[-105.130212,30.750572],[-105.133366,30.750734],[-105.135534,30.75149],[-105.137217,30.751737],[-105.138275,30.752522],[-105.139592,30.753023],[-105.140294,30.752308],[-105.140727,30.752214],[-105.141294,30.752676],[-105.142175,30.754696],[-105.142556,30.75498],[-105.143771,30.755205],[-105.147155,30.753648],[-105.148677,30.752258],[-105.150628,30.752003],[-105.151976,30.751462],[-105.15307,30.751689],[-105.155902,30.753602],[-105.156846,30.753972],[-105.157309,30.753829],[-105.157542,30.753267],[-105.158184,30.752862],[-105.160828,30.752069],[-105.16139,30.752133],[-105.161741,30.752501],[-105.161951,30.753351],[-105.161259,30.754789],[-105.161304,30.756263],[-105.160667,30.757546],[-105.158744,30.759394],[-105.157844,30.761305],[-105.15743,30.765512],[-105.157566,30.766819],[-105.156977,30.767658],[-105.156797,30.768686],[-105.156293,30.769126],[-105.156191,30.769773],[-105.157672,30.770607],[-105.158912,30.771014],[-105.160487,30.77036],[-105.162815,30.770719],[-105.165184,30.772897],[-105.166479,30.775539],[-105.166464,30.776441],[-105.167082,30.776594],[-105.168853,30.775823],[-105.169896,30.773017],[-105.170723,30.771728],[-105.172504,30.77053],[-105.172451,30.769936],[-105.173806,30.768166],[-105.173992,30.767531],[-105.175202,30.767353],[-105.176601,30.767975],[-105.179536,30.771369],[-105.180635,30.774021],[-105.182134,30.776272],[-105.182836,30.776475],[-105.184215,30.776452],[-105.184896,30.77696],[-105.185144,30.777722],[-105.185172,30.780593],[-105.184391,30.781573],[-105.185079,30.781876],[-105.185591,30.782518],[-105.185616,30.783736],[-105.185999,30.78455],[-105.188324,30.784954],[-105.190738,30.785697],[-105.191667,30.787138],[-105.192619,30.78997],[-105.194373,30.791034],[-105.195191,30.792304],[-105.195891,30.792111],[-105.196845,30.790727],[-105.199101,30.789016],[-105.199449,30.788036],[-105.199792,30.787731],[-105.200607,30.787365],[-105.202198,30.788004],[-105.20368,30.78793],[-105.204697,30.787545],[-105.20655,30.786346],[-105.207078,30.785576],[-105.207017,30.78432],[-105.209091,30.782655],[-105.209989,30.78265],[-105.211147,30.782212],[-105.211364,30.781831],[-105.211687,30.781766],[-105.213462,30.782201],[-105.214126,30.782631],[-105.214319,30.78335],[-105.214851,30.783726],[-105.215401,30.783817],[-105.215859,30.783409],[-105.216744,30.783385],[-105.216952,30.783634],[-105.216624,30.783941],[-105.216568,30.784611],[-105.21751,30.785101],[-105.218787,30.78536],[-105.219687,30.786262],[-105.22015,30.787763],[-105.220047,30.788898],[-105.218836,30.790434],[-105.218396,30.791563],[-105.218431,30.792113],[-105.217635,30.793167],[-105.217065,30.793416],[-105.21639,30.793066],[-105.215209,30.792858],[-105.212999,30.793232],[-105.211566,30.794334],[-105.211517,30.795311],[-105.210761,30.796813],[-105.20992,30.797068],[-105.209598,30.797628],[-105.209716,30.79808],[-105.210417,30.79854],[-105.21116,30.799626],[-105.212249,30.799798],[-105.213288,30.800806],[-105.213985,30.802183],[-105.213767,30.80298],[-105.213885,30.803838],[-105.215017,30.805893],[-105.216543,30.805792],[-105.217675,30.805955],[-105.218285,30.805759],[-105.223303,30.800872],[-105.224445,30.800741],[-105.225138,30.800322],[-105.225767,30.79957],[-105.227443,30.799191],[-105.228019,30.799272],[-105.229016,30.800162],[-105.228392,30.801393],[-105.228391,30.802867],[-105.230019,30.803827],[-105.230756,30.803788],[-105.232261,30.802969],[-105.233729,30.803056],[-105.23449,30.802647],[-105.23557,30.802747],[-105.236335,30.803153],[-105.23721,30.803283],[-105.237638,30.803647],[-105.238178,30.80366],[-105.239139,30.802419],[-105.241656,30.802215],[-105.242782,30.801601],[-105.244172,30.799812],[-105.24483,30.799915],[-105.245613,30.800465],[-105.246155,30.800477],[-105.247941,30.800115],[-105.249928,30.799236],[-105.252731,30.795867],[-105.253909,30.795875],[-105.255673,30.795095],[-105.256013,30.794402],[-105.25716,30.794354],[-105.257806,30.79461],[-105.25882,30.795489],[-105.259982,30.797396],[-105.261232,30.798497],[-105.26193,30.798648],[-105.264148,30.800335],[-105.265533,30.802636],[-105.265805,30.806495],[-105.266835,30.808481],[-105.268768,30.809309],[-105.271694,30.809382],[-105.272291,30.809035],[-105.27276,30.808274],[-105.273198,30.808098],[-105.274229,30.808167],[-105.274663,30.80755],[-105.275454,30.806977],[-105.275799,30.807003],[-105.276701,30.808497],[-105.277301,30.811284],[-105.279221,30.812905],[-105.279401,30.815698],[-105.281478,30.817286],[-105.282077,30.818126],[-105.282514,30.818279],[-105.285275,30.818682],[-105.286632,30.817891],[-105.28739,30.817721],[-105.287953,30.817877],[-105.288797,30.819124],[-105.289484,30.821584],[-105.289529,30.822786],[-105.289258,30.823779],[-105.289894,30.82478],[-105.291795,30.826193],[-105.293695,30.826439],[-105.294783,30.826344],[-105.299041,30.825399],[-105.300136,30.824771],[-105.300874,30.823262],[-105.300984,30.822504],[-105.300988,30.820615],[-105.300534,30.81919],[-105.301608,30.817349],[-105.302683,30.816133],[-105.303547,30.813665],[-105.304863,30.812438],[-105.305462,30.811421],[-105.306159,30.81132],[-105.306147,30.809838],[-105.306541,30.809708],[-105.307588,30.810032],[-105.308862,30.811089],[-105.30878,30.81373],[-105.307869,30.814732],[-105.309288,30.815647],[-105.30907,30.816706],[-105.309363,30.81704],[-105.309936,30.816814],[-105.310538,30.816031],[-105.311366,30.814017],[-105.311952,30.813391],[-105.314248,30.812452],[-105.314938,30.811363],[-105.316101,30.810948],[-105.316869,30.810913],[-105.317984,30.811944],[-105.319094,30.812259],[-105.318421,30.813444],[-105.318328,30.814552],[-105.317486,30.816573],[-105.317553,30.817261],[-105.316554,30.817929],[-105.315958,30.818717],[-105.316522,30.820414],[-105.317899,30.821577],[-105.318896,30.824046],[-105.318924,30.825056],[-105.31801,30.827175],[-105.318179,30.827816],[-105.319062,30.828902],[-105.319453,30.829084],[-105.320047,30.828804],[-105.319946,30.827789],[-105.320678,30.827372],[-105.321546,30.827391],[-105.323618,30.828215],[-105.324592,30.828303],[-105.32685,30.826084],[-105.327043,30.824705],[-105.329297,30.824975],[-105.330094,30.825691],[-105.330194,30.826134],[-105.328309,30.829066],[-105.327762,30.83031],[-105.327825,30.831087],[-105.328333,30.831486],[-105.33092,30.83224],[-105.332223,30.832382],[-105.333063,30.83319],[-105.334135,30.833633],[-105.335827,30.833341],[-105.337192,30.833481],[-105.33741,30.835765],[-105.338005,30.837157],[-105.337947,30.838023],[-105.338851,30.840001],[-105.339293,30.840475],[-105.340098,30.840648],[-105.341676,30.84047],[-105.342692,30.840998],[-105.345755,30.840612],[-105.347372,30.839516],[-105.347169,30.838708],[-105.347658,30.838044],[-105.348823,30.837639],[-105.351409,30.835625],[-105.351964,30.835544],[-105.353153,30.835927],[-105.354442,30.837781],[-105.353523,30.839569],[-105.353415,30.840683],[-105.353057,30.841278],[-105.353184,30.842021],[-105.353702,30.842658],[-105.354278,30.842887],[-105.354447,30.843339],[-105.356401,30.844328],[-105.357774,30.845433],[-105.35972,30.845942],[-105.360408,30.848584],[-105.361592,30.850545],[-105.362041,30.850545],[-105.363976,30.849701],[-105.367638,30.847693],[-105.370497,30.8475],[-105.372073,30.847612],[-105.373436,30.848422],[-105.374477,30.848617],[-105.374726,30.849697],[-105.375047,30.849965],[-105.376288,30.848851],[-105.377149,30.848634],[-105.377628,30.848814],[-105.377644,30.849194],[-105.376725,30.850546],[-105.376745,30.851002],[-105.377066,30.851262],[-105.37989,30.850615],[-105.382124,30.851202],[-105.382708,30.851966],[-105.383263,30.852106],[-105.383718,30.851819],[-105.384163,30.850585],[-105.384696,30.850497],[-105.385585,30.851325],[-105.38684,30.853502],[-105.387322,30.853734],[-105.38784,30.853638],[-105.389229,30.852255],[-105.391036,30.852289],[-105.391952,30.850594],[-105.393084,30.850961],[-105.394018,30.850913],[-105.394514,30.850234],[-105.394051,30.849358],[-105.39462,30.849021],[-105.395889,30.849295],[-105.396519,30.849965],[-105.397532,30.850521],[-105.398151,30.851277],[-105.399837,30.852077],[-105.401635,30.854266],[-105.401639,30.854658],[-105.400802,30.856314],[-105.39927,30.857737],[-105.395482,30.859089],[-105.394946,30.859757],[-105.394523,30.861288],[-105.395027,30.862192],[-105.394404,30.863107],[-105.395007,30.86399],[-105.39586,30.863933],[-105.395993,30.864305],[-105.395594,30.864915],[-105.394153,30.866102],[-105.39364,30.86693],[-105.393916,30.868007],[-105.394723,30.868992],[-105.394817,30.869619],[-105.394399,30.870563],[-105.39496,30.871194],[-105.394353,30.871891],[-105.392893,30.872519],[-105.392383,30.87316],[-105.391653,30.873309],[-105.391299,30.873853],[-105.391414,30.874347],[-105.392681,30.875766],[-105.393628,30.876381],[-105.397308,30.876219],[-105.399936,30.876674],[-105.40066,30.877024],[-105.40258,30.878791],[-105.404303,30.879676],[-105.403962,30.880271],[-105.402372,30.881658],[-105.400113,30.88294],[-105.399132,30.884255],[-105.398828,30.885329],[-105.399861,30.886122],[-105.400151,30.886629],[-105.399951,30.887694],[-105.399488,30.887949],[-105.399415,30.888305],[-105.400185,30.889382],[-105.401293,30.890174],[-105.402142,30.89028],[-105.40376,30.892106],[-105.406132,30.890765],[-105.408026,30.889361],[-105.412093,30.88856],[-105.412308,30.888922],[-105.412058,30.889546],[-105.412259,30.889954],[-105.412143,30.890443],[-105.411897,30.89086],[-105.410617,30.891572],[-105.410552,30.892048],[-105.410702,30.892469],[-105.412166,30.893843],[-105.413552,30.898073],[-105.413463,30.899096],[-105.413802,30.899567],[-105.416205,30.900188],[-105.421917,30.900483],[-105.424762,30.900996],[-105.425817,30.900396],[-105.426786,30.90192],[-105.427624,30.902562],[-105.428698,30.904533],[-105.430136,30.905604],[-105.432634,30.9061],[-105.434559,30.907685],[-105.435592,30.907832],[-105.436172,30.90748],[-105.43808,30.908385],[-105.439857,30.908877],[-105.440539,30.908349],[-105.441158,30.908449],[-105.442361,30.909442],[-105.444773,30.913336],[-105.44556,30.916124],[-105.44432,30.917258],[-105.446379,30.919355],[-105.446918,30.919613],[-105.447468,30.919392],[-105.448665,30.917723],[-105.450063,30.917039],[-105.45076,30.91611],[-105.451348,30.915727],[-105.452091,30.915653],[-105.453152,30.916206],[-105.4534,30.917517],[-105.454395,30.919345],[-105.453928,30.919768],[-105.452224,30.919971],[-105.451453,30.921041],[-105.451147,30.922064],[-105.451205,30.923963],[-105.451604,30.924827],[-105.452971,30.925085],[-105.455462,30.924905],[-105.456916,30.924515],[-105.457787,30.924923],[-105.459613,30.924802],[-105.460521,30.925408],[-105.462775,30.924964],[-105.464262,30.925449],[-105.464827,30.925857],[-105.46531,30.925386],[-105.465462,30.924551],[-105.466194,30.924236],[-105.466771,30.924279],[-105.467339,30.925552],[-105.467246,30.927159],[-105.467552,30.929668],[-105.46924,30.930505],[-105.469765,30.931119],[-105.470565,30.931026],[-105.470789,30.931239],[-105.470794,30.933712],[-105.473603,30.934388],[-105.474373,30.933885],[-105.475923,30.933817],[-105.478028,30.937984],[-105.479749,30.939536],[-105.481918,30.94074],[-105.483937,30.940983],[-105.486358,30.942625],[-105.486793,30.942481],[-105.487632,30.940962],[-105.488731,30.940815],[-105.490644,30.942261],[-105.491654,30.942407],[-105.49169,30.94345],[-105.491355,30.943806],[-105.490327,30.943709],[-105.488677,30.942515],[-105.488082,30.942856],[-105.488114,30.943725],[-105.490138,30.946469],[-105.493224,30.948663],[-105.493728,30.949461],[-105.496272,30.949273],[-105.497742,30.950169],[-105.498623,30.950134],[-105.498872,30.950418],[-105.49898,30.950826],[-105.497697,30.952396],[-105.497492,30.953239],[-105.496463,30.954325],[-105.496897,30.95513],[-105.49681,30.95542],[-105.495766,30.955779],[-105.495544,30.955655],[-105.49481,30.956255],[-105.494533,30.956055],[-105.494305,30.955261],[-105.49395,30.955624],[-105.493893,30.956424],[-105.494462,30.958045],[-105.495969,30.959542],[-105.496991,30.961401],[-105.498617,30.962725],[-105.499883,30.965719],[-105.501968,30.967737],[-105.503436,30.968026],[-105.506674,30.966507],[-105.508236,30.966295],[-105.511606,30.9665],[-105.513764,30.966261],[-105.514217,30.966077],[-105.514916,30.965223],[-105.515718,30.964857],[-105.516865,30.967207],[-105.516888,30.969428],[-105.517731,30.970322],[-105.517864,30.971098],[-105.519183,30.972345],[-105.520338,30.972974],[-105.521319,30.974689],[-105.521799,30.976286],[-105.522561,30.976801],[-105.52536,30.977332],[-105.527083,30.978178],[-105.530863,30.982286],[-105.532676,30.984697],[-105.533838,30.984997],[-105.535789,30.985022],[-105.538042,30.985734],[-105.53923,30.985507],[-105.541003,30.984634],[-105.543018,30.984644],[-105.555148,30.98847],[-105.556616,30.9892],[-105.558065,30.990633],[-105.563446,30.997165],[-105.565684,31.002336],[-105.570179,31.008418],[-105.5702,31.009427],[-105.568868,31.013595],[-105.568756,31.014606],[-105.569042,31.015576],[-105.570532,31.018007],[-105.571363,31.018766],[-105.570417,31.019581],[-105.57122,31.021005],[-105.571019,31.025204],[-105.573472,31.030098],[-105.574839,31.041423],[-105.576047,31.044476],[-105.575792,31.04705],[-105.576557,31.052496],[-105.578747,31.064228],[-105.579117,31.06514],[-105.588913,31.077036],[-105.593327,31.084647],[-105.598587,31.090011],[-105.619911,31.108212],[-105.631414,31.120329],[-105.635904,31.124056],[-105.648081,31.131845],[-105.652314,31.138966],[-105.655492,31.146459],[-105.656123,31.148482],[-105.657913,31.158944],[-105.657629,31.162812],[-105.655829,31.169535],[-105.655865,31.170274],[-105.656434,31.171669],[-105.620517,31.183288],[-105.618273,31.184649],[-105.611774,31.190074],[-105.609953,31.191251],[-105.60757,31.192367],[-105.592547,31.196896],[-105.589814,31.197341],[-105.564881,31.196733],[-105.545758,31.195249],[-105.534024,31.19313],[-105.53079,31.193373],[-105.52792,31.194507],[-105.488529,31.217099],[-105.4866,31.217713],[-105.485113,31.2178],[-105.482301,31.217112],[-105.480238,31.220457],[-105.479247,31.224068],[-105.478178,31.225968],[-105.478271,31.226354],[-105.479299,31.227264],[-105.479676,31.228679],[-105.479681,31.230682],[-105.480584,31.232011],[-105.514681,31.255863],[-105.518286,31.257866],[-105.524123,31.261773],[-105.527162,31.264578],[-105.528866,31.26537],[-105.531122,31.265443],[-105.532471,31.265794],[-105.533707,31.266295],[-105.535178,31.26767],[-105.536705,31.268694],[-105.537503,31.268759],[-105.538132,31.268558],[-105.537714,31.269113],[-105.537454,31.270452],[-105.53397,31.272513],[-105.531851,31.272926],[-105.528274,31.273231],[-105.527113,31.274048],[-105.523653,31.275073],[-105.521781,31.276972],[-105.520768,31.277216],[-105.518923,31.276797],[-105.517691,31.277796],[-105.516269,31.279567],[-105.515417,31.279462],[-105.513681,31.280562],[-105.513443,31.281508],[-105.512745,31.281881],[-105.512623,31.282453],[-105.511399,31.283613],[-105.510855,31.283855],[-105.510572,31.284823],[-105.509951,31.28545],[-105.509182,31.285741],[-105.50897,31.28771],[-105.507406,31.289326],[-105.504939,31.291256],[-105.504637,31.292906],[-105.502657,31.294241],[-105.50224,31.294786],[-105.502079,31.296199],[-105.502265,31.296661],[-105.501271,31.298415],[-105.50168,31.298982],[-105.500918,31.2999],[-105.502095,31.301034],[-105.502159,31.301595],[-105.501575,31.30303],[-105.50228,31.303828],[-105.502273,31.304549],[-105.502906,31.305995],[-105.502668,31.306919],[-105.502969,31.307722],[-105.502103,31.308668],[-105.502013,31.309246],[-105.503595,31.311023],[-105.503626,31.311952],[-105.504977,31.313119],[-105.50392,31.313773],[-105.504278,31.314147],[-105.504483,31.314989],[-105.505578,31.315963],[-105.50534,31.316925],[-105.504244,31.318333],[-105.503846,31.318272],[-105.503859,31.318509],[-105.504326,31.319323],[-105.504941,31.319675],[-105.505896,31.319989],[-105.506383,31.31972],[-105.507228,31.321211],[-105.507907,31.321491],[-105.508246,31.322025],[-105.507572,31.324302],[-105.509307,31.326448],[-105.510229,31.327174],[-105.509402,31.32884],[-105.5096,31.32928],[-105.510343,31.329682],[-105.510407,31.33015],[-105.509958,31.33092],[-105.510425,31.331492],[-105.510796,31.33267],[-105.511283,31.332917],[-105.511994,31.334319],[-105.511487,31.33576],[-105.509627,31.33802],[-105.509639,31.33961],[-105.50928,31.340423],[-105.509254,31.341414],[-105.509471,31.342283],[-105.509971,31.343014],[-105.510009,31.343922],[-105.509285,31.344015],[-105.508586,31.344411],[-105.508316,31.344779],[-105.508322,31.345604],[-105.508694,31.346204],[-105.509264,31.346468],[-105.511468,31.346755],[-105.512282,31.347069],[-105.51273,31.347734],[-105.513743,31.348323],[-105.514627,31.349347],[-105.514915,31.350089],[-105.515728,31.350392],[-105.516215,31.350871],[-105.517023,31.350992],[-105.516933,31.35124],[-105.517234,31.351707],[-105.516227,31.352796],[-105.516835,31.353781],[-105.518008,31.354579],[-105.518604,31.355283],[-105.518731,31.357125],[-105.51932,31.35833],[-105.519307,31.358924],[-105.518852,31.359589],[-105.519236,31.36086],[-105.520614,31.360673],[-105.521377,31.361125],[-105.521639,31.361625],[-105.521273,31.363303],[-105.521504,31.363495],[-105.521625,31.364837],[-105.521502,31.36646],[-105.521868,31.36734],[-105.521508,31.369149],[-105.521879,31.370112],[-105.524815,31.371097],[-105.524859,31.371796],[-105.525641,31.372324],[-105.525763,31.372643],[-105.526756,31.37299],[-105.530661,31.372056],[-105.535365,31.373234],[-105.536462,31.373751],[-105.540782,31.374335],[-105.543518,31.37516],[-105.546011,31.376255],[-105.54662,31.376866],[-105.547742,31.376915],[-105.548941,31.378868],[-105.549985,31.379919],[-105.551082,31.381833],[-105.551485,31.383153],[-105.553729,31.385661],[-105.553972,31.386794],[-105.553677,31.388609],[-105.553139,31.389923],[-105.55316,31.390702],[-105.551193,31.392319],[-105.549973,31.393006],[-105.548143,31.395044],[-105.548593,31.397549],[-105.54921,31.404704],[-105.548745,31.405803],[-105.547753,31.406632],[-105.540073,31.410338],[-105.5353,31.410937],[-105.533222,31.410735],[-105.532455,31.411151],[-105.529538,31.411743],[-105.509859,31.415278],[-105.508633,31.415299],[-105.50743,31.416343],[-105.50676,31.416595],[-105.505251,31.418161],[-105.499671,31.420817],[-105.485502,31.428997],[-105.481559,31.432397],[-105.48153,31.43297],[-105.481206,31.433154],[-105.48033,31.440307],[-105.480668,31.44121],[-105.478772,31.46195],[-105.479299,31.470682],[-105.473441,31.546786],[-105.473237,31.546786],[-105.473407,31.591748],[-105.473,31.660668],[-105.473154,31.681442],[-105.472967,31.681455],[-105.472884,31.698014],[-105.462025,31.700236],[-105.442058,31.702677],[-105.391989,31.710136],[-105.390338,31.710007],[-105.384325,31.708636],[-105.372161,31.708755],[-105.371681,31.70856]]]}},{"type":"Feature","properties":{"PRECINCT":"3N","VTD":"003N"},"geometry":{"type":"Polygon","coordinates":[[[-105.915881,32.001666],[-105.908383,32.001286],[-105.900751,32.001977],[-105.910021,31.98981],[-105.911128,31.989287],[-105.921359,31.987036],[-105.922777,31.986171],[-105.949591,31.9428],[-105.942756,31.941057],[-105.942435,31.940764],[-105.940002,31.932614],[-105.940927,31.930529],[-105.940028,31.929364],[-105.939536,31.929325],[-105.940077,31.926625],[-105.939378,31.9262],[-105.939191,31.925609],[-105.937989,31.924837],[-105.936227,31.92208],[-105.935396,31.921598],[-105.934699,31.921481],[-105.932692,31.920011],[-105.931085,31.919734],[-105.927523,31.918375],[-105.925286,31.917869],[-105.921094,31.917386],[-105.917337,31.917362],[-105.910686,31.917723],[-105.909416,31.917998],[-105.90792,31.915889],[-105.900702,31.915816],[-105.899821,31.915976],[-105.899003,31.915702],[-105.896995,31.915933],[-105.896044,31.915727],[-105.892187,31.916235],[-105.889888,31.916259],[-105.88877,31.916868],[-105.887518,31.918296],[-105.883755,31.920253],[-105.877429,31.920135],[-105.875341,31.919705],[-105.874172,31.919759],[-105.87339,31.919044],[-105.872672,31.918983],[-105.871973,31.919154],[-105.869101,31.919],[-105.867852,31.919316],[-105.865978,31.919332],[-105.86293,31.918716],[-105.85821,31.917293],[-105.851616,31.915745],[-105.850863,31.915397],[-105.847735,31.912564],[-105.84673,31.910918],[-105.846425,31.906838],[-105.845773,31.904268],[-105.846714,31.89877],[-105.847748,31.895738],[-105.851485,31.892505],[-105.853913,31.888704],[-105.855883,31.887503],[-105.860512,31.885675],[-105.862299,31.882849],[-105.864775,31.880255],[-105.868141,31.87248],[-105.870267,31.841939],[-105.866891,31.839036],[-105.864167,31.835142],[-105.862407,31.833769],[-105.861396,31.833704],[-105.860909,31.832621],[-105.844026,31.837276],[-105.832379,31.844464],[-105.829963,31.845346],[-105.82345,31.845467],[-105.812137,31.846626],[-105.813059,31.846938],[-105.809156,31.847098],[-105.80885,31.846959],[-105.794079,31.848439],[-105.79272,31.848352],[-105.783329,31.84656],[-105.782587,31.8469],[-105.781583,31.846836],[-105.779687,31.845808],[-105.769113,31.842269],[-105.714691,31.821717],[-105.368687,31.761553],[-105.371894,31.747604],[-105.37178,31.724383],[-105.372907,31.715383],[-105.371681,31.70856],[-105.372161,31.708755],[-105.384325,31.708636],[-105.390338,31.710007],[-105.391989,31.710136],[-105.442058,31.702677],[-105.462025,31.700236],[-105.472884,31.698014],[-105.472967,31.681455],[-105.473154,31.681442],[-105.47308,31.652505],[-105.478776,31.652375],[-105.487894,31.652549],[-105.578193,31.654871],[-105.579331,31.653752],[-105.580418,31.65335],[-105.582672,31.652024],[-105.586601,31.649304],[-105.587521,31.648078],[-105.589504,31.644432],[-105.5912,31.643592],[-105.593895,31.64265],[-105.596445,31.64241],[-105.597808,31.642592],[-105.599414,31.642215],[-105.604761,31.641853],[-105.607534,31.641848],[-105.608281,31.642073],[-105.611479,31.641659],[-105.634216,31.640422],[-105.638688,31.644973],[-105.640161,31.646045],[-105.642569,31.648496],[-105.653018,31.657146],[-105.655743,31.658725],[-105.658602,31.660944],[-105.665568,31.666976],[-105.66768,31.668916],[-105.668662,31.670142],[-105.669945,31.670915],[-105.669949,31.671825],[-105.670436,31.672369],[-105.671161,31.675481],[-105.671153,31.68245],[-105.689102,31.678358],[-105.695228,31.676234],[-105.701187,31.673838],[-105.71274,31.66846],[-105.740877,31.660435],[-105.763681,31.655205],[-105.778968,31.649225],[-105.785492,31.646318],[-105.790004,31.644712],[-105.791239,31.6438],[-105.79338,31.642937],[-105.801267,31.642251],[-105.807508,31.640619],[-105.811736,31.639051],[-105.813569,31.638888],[-105.814935,31.638425],[-105.823055,31.637959],[-105.831797,31.637968],[-105.833723,31.638189],[-105.838657,31.637996],[-105.852456,31.634041],[-105.863074,31.631256],[-105.963088,31.608404],[-105.993889,31.606694],[-105.995413,31.748173],[-105.995766,31.750109],[-105.996329,31.858774],[-105.997806,32.000104],[-105.998003,32.002328],[-105.9232,32.002081],[-105.920223,32.001635],[-105.915881,32.001666]]]}},{"type":"Feature","properties":{"PRECINCT":"3S","VTD":"003S"},"geometry":{"type":"Polygon","coordinates":[[[-105.670455,31.672482],[-105.669949,31.671825],[-105.669945,31.670915],[-105.668662,31.670142],[-105.66768,31.668916],[-105.665568,31.666976],[-105.658602,31.660944],[-105.655743,31.658725],[-105.653018,31.657146],[-105.642569,31.648496],[-105.640161,31.646045],[-105.638688,31.644973],[-105.634216,31.640422],[-105.611479,31.641659],[-105.608281,31.642073],[-105.607534,31.641848],[-105.604761,31.641853],[-105.599414,31.642215],[-105.597808,31.642592],[-105.596445,31.64241],[-105.593895,31.64265],[-105.5912,31.643592],[-105.589504,31.644432],[-105.587521,31.648078],[-105.586601,31.649304],[-105.582672,31.652024],[-105.580418,31.65335],[-105.579331,31.653752],[-105.578193,31.654871],[-105.493303,31.652768],[-105.493265,31.652553],[-105.512316,31.620376],[-105.52817,31.591074],[-105.529738,31.590464],[-105.530167,31.589964],[-105.534866,31.589291],[-105.543669,31.586852],[-105.549399,31.585807],[-105.554361,31.581462],[-105.556141,31.579223],[-105.558351,31.577118],[-105.561065,31.574007],[-105.561834,31.572804],[-105.563477,31.571157],[-105.565417,31.569832],[-105.566088,31.568961],[-105.571179,31.564716],[-105.578338,31.559629],[-105.580589,31.557764],[-105.58108,31.556509],[-105.581958,31.555599],[-105.583378,31.55537],[-105.586732,31.555664],[-105.587989,31.555419],[-105.590075,31.554554],[-105.592471,31.554016],[-105.595061,31.553045],[-105.598908,31.552036],[-105.602421,31.550384],[-105.605956,31.549478],[-105.610608,31.547491],[-105.611647,31.547627],[-105.613203,31.547012],[-105.616588,31.54668],[-105.617994,31.546174],[-105.620427,31.544699],[-105.621936,31.544418],[-105.622828,31.54324],[-105.622647,31.5417],[-105.623275,31.540633],[-105.622799,31.539099],[-105.622895,31.53807],[-105.624246,31.532663],[-105.625163,31.530726],[-105.624739,31.529726],[-105.624518,31.526619],[-105.62401,31.525459],[-105.623437,31.52283],[-105.623867,31.521631],[-105.625299,31.520443],[-105.625524,31.519597],[-105.628576,31.516628],[-105.628848,31.511832],[-105.629735,31.510463],[-105.628728,31.508989],[-105.628444,31.507863],[-105.630901,31.507577],[-105.638169,31.509362],[-105.640859,31.510518],[-105.645226,31.513121],[-105.645661,31.513253],[-105.646375,31.513111],[-105.647593,31.512372],[-105.663606,31.498649],[-105.669414,31.491189],[-105.670108,31.490813],[-105.66988,31.490116],[-105.670134,31.457797],[-105.690756,31.460886],[-105.690628,31.458833],[-105.691124,31.456824],[-105.691808,31.456052],[-105.692931,31.455586],[-105.693693,31.455519],[-105.696957,31.456524],[-105.700159,31.45684],[-105.702587,31.456272],[-105.703061,31.455611],[-105.705455,31.45453],[-105.706188,31.453913],[-105.707035,31.454327],[-105.708407,31.454021],[-105.709437,31.452544],[-105.710758,31.449846],[-105.711151,31.449645],[-105.712448,31.449586],[-105.71582,31.447279],[-105.716519,31.446513],[-105.717201,31.445097],[-105.726638,31.441854],[-105.727974,31.441098],[-105.734593,31.42559],[-105.742305,31.406437],[-105.744582,31.403055],[-105.749077,31.397265],[-105.760871,31.388629],[-105.772856,31.380601],[-105.827673,31.326966],[-105.829217,31.325116],[-105.838665,31.309278],[-105.838964,31.308276],[-105.838578,31.306205],[-105.838698,31.305549],[-105.84205,31.301688],[-105.85483,31.289722],[-105.859964,31.28546],[-105.862019,31.283437],[-105.863753,31.282315],[-105.869738,31.289332],[-105.870715,31.289939],[-105.874456,31.291309],[-105.877017,31.291652],[-105.89104,31.290095],[-105.89257,31.290234],[-105.894146,31.290749],[-105.895649,31.291758],[-105.8967,31.293122],[-105.901978,31.303434],[-105.903322,31.306788],[-105.906689,31.310045],[-105.907388,31.312214],[-105.908629,31.312745],[-105.913327,31.313058],[-105.9181,31.312626],[-105.922307,31.311952],[-105.931585,31.312781],[-105.932823,31.313362],[-105.937894,31.318223],[-105.93851,31.31907],[-105.947752,31.339589],[-105.94768,31.342008],[-105.945453,31.351015],[-105.945732,31.35295],[-105.953786,31.364749],[-105.954332,31.365076],[-105.955596,31.365304],[-105.968706,31.365619],[-105.970046,31.365977],[-105.980348,31.374563],[-105.997152,31.38723],[-105.954328,31.423468],[-105.958548,31.423461],[-105.959262,31.478417],[-105.993255,31.478392],[-105.992695,31.500109],[-105.993889,31.606694],[-105.963088,31.608404],[-105.863074,31.631256],[-105.852456,31.634041],[-105.838657,31.637996],[-105.833723,31.638189],[-105.831797,31.637968],[-105.823055,31.637959],[-105.814935,31.638425],[-105.813569,31.638888],[-105.811736,31.639051],[-105.807508,31.640619],[-105.801267,31.642251],[-105.79338,31.642937],[-105.791239,31.6438],[-105.790004,31.644712],[-105.785492,31.646318],[-105.778968,31.649225],[-105.763681,31.655205],[-105.740877,31.660435],[-105.71274,31.66846],[-105.701187,31.673838],[-105.695228,31.676234],[-105.689102,31.678358],[-105.671153,31.68245],[-105.671161,31.675481],[-105.670455,31.672482]]]}}]}