{"type":"FeatureCollection","features":[{"type":"Feature","properties":{"PRECINCT":"4","VTD":"0004"},"geometry":{"type":"Polygon","coordinates":[[[-94.354719,32.619636],[-94.35492,32.615792],[-94.354689,32.616033],[-94.35065,32.615733],[-94.336199,32.615471],[-94.336494,32.619333],[-94.338009,32.622762],[-94.319427,32.622822],[-94.319488,32.615262],[-94.319238,32.611337],[-94.319612,32.607391],[-94.328578,32.595654],[-94.331622,32.592665],[-94.333326,32.591875],[-94.331228,32.590208],[-94.32821,32.589332],[-94.3279,32.588949],[-94.328023,32.582691],[-94.327702,32.575341],[-94.327649,32.565299],[-94.329022,32.564448],[-94.327872,32.562818],[-94.326617,32.563008],[-94.326323,32.56398],[-94.32742,32.565458],[-94.325025,32.567028],[-94.323659,32.566619],[-94.323428,32.556692],[-94.316179,32.557686],[-94.310796,32.559055],[-94.310834,32.556607],[-94.311169,32.555241],[-94.335291,32.549803],[-94.338712,32.549497],[-94.349154,32.549685],[-94.350052,32.549476],[-94.350127,32.544966],[-94.366299,32.54501],[-94.366295,32.544704],[-94.368326,32.544705],[-94.368321,32.545036],[-94.371293,32.545017],[-94.371351,32.549224],[-94.371634,32.549988],[-94.371645,32.551127],[-94.369084,32.551487],[-94.369341,32.568598],[-94.36956,32.568997],[-94.373763,32.568994],[-94.373195,32.572925],[-94.385842,32.569428],[-94.391647,32.566945],[-94.393702,32.56529],[-94.394974,32.563369],[-94.395493,32.561858],[-94.395574,32.559597],[-94.397907,32.559644],[-94.399574,32.560065],[-94.409138,32.564811],[-94.41004,32.565507],[-94.412122,32.568151],[-94.416219,32.572345],[-94.415973,32.572558],[-94.416538,32.594401],[-94.417324,32.603026],[-94.417109,32.603849],[-94.41528,32.605904],[-94.415271,32.609963],[-94.415885,32.611412],[-94.417484,32.613475],[-94.418881,32.619113],[-94.415624,32.617939],[-94.409695,32.616406],[-94.403466,32.613332],[-94.394942,32.613276],[-94.391576,32.612556],[-94.390633,32.608171],[-94.389761,32.605367],[-94.38856,32.603148],[-94.386799,32.596791],[-94.380922,32.596855],[-94.377696,32.597785],[-94.373091,32.598009],[-94.370596,32.597388],[-94.367861,32.597039],[-94.366349,32.600655],[-94.366063,32.602744],[-94.366685,32.614746],[-94.366315,32.623061],[-94.366447,32.626985],[-94.356935,32.620628],[-94.354719,32.619636]]]}},{"type":"Feature","properties":{"PRECINCT":"10","VTD":"0010"},"geometry":{"type":"Polygon","coordinates":[[[-94.374845,32.526656],[-94.375012,32.521359],[-94.376009,32.521215],[-94.376057,32.513245],[-94.377267,32.509949],[-94.377208,32.507184],[-94.37762,32.506433],[-94.38086,32.503348],[-94.381402,32.499708],[-94.382829,32.498431],[-94.38299,32.498009],[-94.383164,32.495488],[-94.383533,32.494702],[-94.381975,32.494078],[-94.381899,32.489104],[-94.375503,32.489296],[-94.375143,32.486971],[-94.362942,32.486802],[-94.362867,32.484145],[-94.35953,32.484148],[-94.358719,32.476694],[-94.348479,32.439584],[-94.346243,32.432824],[-94.349463,32.431858],[-94.351317,32.431548],[-94.364627,32.431047],[-94.379678,32.429545],[-94.389191,32.430673],[-94.397924,32.429534],[-94.399034,32.429722],[-94.400248,32.430257],[-94.407379,32.435517],[-94.409643,32.436022],[-94.415466,32.435397],[-94.420209,32.435258],[-94.422049,32.434952],[-94.438015,32.429799],[-94.438936,32.432313],[-94.438989,32.434483],[-94.436714,32.449029],[-94.435783,32.451817],[-94.428503,32.461867],[-94.420559,32.471131],[-94.419343,32.472954],[-94.417206,32.477102],[-94.412844,32.482652],[-94.411262,32.486135],[-94.407857,32.492054],[-94.406709,32.496251],[-94.407174,32.500963],[-94.407075,32.502547],[-94.406486,32.504341],[-94.403261,32.510237],[-94.396905,32.517359],[-94.395267,32.519744],[-94.390366,32.524742],[-94.388574,32.525392],[-94.388461,32.52396],[-94.383391,32.52398],[-94.383389,32.526643],[-94.381117,32.5265],[-94.381061,32.526638],[-94.374845,32.526656]]]}},{"type":"Feature","properties":{"PRECINCT":"1","VTD":"0001"},"geometry":{"type":"Polygon","coordinates":[[[-94.361408,32.534097],[-94.361591,32.530692],[-94.361391,32.530286],[-94.361665,32.528445],[-94.36128,32.526624],[-94.36132,32.524257],[-94.352392,32.524035],[-94.359385,32.487993],[-94.35953,32.484148],[-94.360043,32.48412],[-94.362867,32.484145],[-94.362942,32.486802],[-94.375143,32.486971],[-94.375503,32.489296],[-94.381899,32.489104],[-94.381975,32.494078],[-94.383533,32.494702],[-94.383164,32.495488],[-94.382829,32.498431],[-94.381402,32.499708],[-94.38086,32.503348],[-94.37762,32.506433],[-94.377208,32.507184],[-94.377267,32.509949],[-94.376057,32.513245],[-94.376009,32.521215],[-94.375012,32.521359],[-94.374845,32.526656],[-94.367441,32.526803],[-94.367756,32.53029],[-94.367453,32.530216],[-94.367463,32.531163],[-94.367873,32.531185],[-94.367916,32.531919],[-94.367487,32.532469],[-94.367916,32.532498],[-94.367906,32.53426],[-94.365807,32.534236],[-94.365325,32.533982],[-94.361408,32.534097]]]}},{"type":"Feature","properties":{"PRECINCT":"3","VTD":"0003"},"geometry":{"type":"Polygon","coordinates":[[[-94.368325,32.54477],[-94.367318,32.544706],[-94.367378,32.541779],[-94.367708,32.540008],[-94.371725,32.540423],[-94.371775,32.536327],[-94.373536,32.53636],[-94.3736,32.530143],[-94.374827,32.530137],[-94.374816,32.528285],[-94.373513,32.528275],[-94.373501,32.526685],[-94.381061,32.526638],[-94.381117,32.5265],[-94.383389,32.526643],[-94.383391,32.52398],[-94.388461,32.52396],[-94.388574,32.525392],[-94.390366,32.524742],[-94.395267,32.519744],[-94.396905,32.517359],[-94.401387,32.512329],[-94.40192,32.512314],[-94.401928,32.517698],[-94.406152,32.517754],[-94.406642,32.518759],[-94.401928,32.519037],[-94.401934,32.529931],[-94.39498,32.529819],[-94.395002,32.536158],[-94.396082,32.538707],[-94.40156,32.538308],[-94.401573,32.539349],[-94.404275,32.539285],[-94.404303,32.540676],[-94.39839,32.541492],[-94.395973,32.542097],[-94.391221,32.542339],[-94.374461,32.544815],[-94.368321,32.545036],[-94.368325,32.54477]]]}},{"type":"Feature","properties":{"PRECINCT":"22","VTD":"0022"},"geometry":{"type":"Polygon","coordinates":[[[-94.349658,32.541922],[-94.347119,32.541689],[-94.337628,32.539274],[-94.337228,32.540186],[-94.329886,32.538622],[-94.330154,32.536353],[-94.329895,32.533954],[-94.328012,32.525502],[-94.328373,32.522507],[-94.328586,32.522289],[-94.329167,32.522267],[-94.336578,32.528407],[-94.341185,32.530515],[-94.341391,32.522758],[-94.346849,32.522941],[-94.346761,32.496829],[-94.334747,32.496948],[-94.33435,32.49551],[-94.334205,32.492035],[-94.349247,32.491421],[-94.349075,32.487625],[-94.357148,32.487259],[-94.357259,32.484185],[-94.35953,32.484148],[-94.359385,32.487993],[-94.352392,32.524035],[-94.36132,32.524257],[-94.36128,32.526624],[-94.361665,32.528445],[-94.361391,32.530286],[-94.361591,32.530692],[-94.361408,32.534097],[-94.365325,32.533982],[-94.365807,32.534236],[-94.367906,32.53426],[-94.367916,32.532498],[-94.367487,32.532469],[-94.367916,32.531919],[-94.367873,32.531185],[-94.367463,32.531163],[-94.367453,32.530216],[-94.367756,32.53029],[-94.367441,32.526803],[-94.373501,32.526685],[-94.373513,32.528275],[-94.374816,32.528285],[-94.374827,32.530137],[-94.3736,32.530143],[-94.373536,32.53636],[-94.371775,32.536327],[-94.371725,32.540423],[-94.367708,32.540008],[-94.367378,32.541779],[-94.367318,32.544706],[-94.366295,32.544704],[-94.366299,32.54501],[-94.350127,32.544966],[-94.350133,32.543338],[-94.349658,32.541922]]]}},{"type":"Feature","properties":{"PRECINCT":"11","VTD":"0011"},"geometry":{"type":"Polygon","coordinates":[[[-94.277478,32.527581],[-94.277835,32.527576],[-94.277907,32.527312],[-94.278166,32.52751],[-94.278154,32.526905],[-94.278881,32.526713],[-94.278952,32.525861],[-94.279945,32.526169],[-94.280997,32.525047],[-94.281211,32.525014],[-94.281367,32.525509],[-94.2816,32.525553],[-94.281795,32.525322],[-94.281575,32.524932],[-94.282418,32.524762],[-94.281925,32.524036],[-94.282302,32.523992],[-94.281997,32.523552],[-94.282224,32.523431],[-94.282088,32.523156],[-94.281393,32.523304],[-94.281082,32.523134],[-94.281491,32.522826],[-94.281095,32.522743],[-94.281744,32.52226],[-94.281478,32.522029],[-94.281095,32.522282],[-94.281465,32.521331],[-94.281024,32.521462],[-94.280745,32.521198],[-94.281277,32.520731],[-94.280901,32.520429],[-94.280901,32.51995],[-94.280434,32.519835],[-94.281161,32.51934],[-94.280564,32.519334],[-94.280441,32.519054],[-94.281148,32.518862],[-94.280934,32.518394],[-94.281668,32.518175],[-94.281674,32.517922],[-94.281265,32.51796],[-94.281246,32.517718],[-94.281609,32.517658],[-94.281499,32.517438],[-94.281973,32.517179],[-94.282194,32.516602],[-94.282771,32.516976],[-94.283128,32.516608],[-94.282882,32.516388],[-94.283829,32.515954],[-94.28344,32.515739],[-94.28322,32.5152],[-94.283323,32.51503],[-94.283946,32.515217],[-94.2837,32.514447],[-94.284329,32.514491],[-94.284232,32.514222],[-94.284518,32.513953],[-94.284109,32.513617],[-94.284259,32.513172],[-94.28481,32.513188],[-94.284687,32.512809],[-94.285284,32.512699],[-94.284999,32.512199],[-94.285823,32.51216],[-94.28605,32.512413],[-94.286206,32.512232],[-94.286478,32.512485],[-94.286738,32.512188],[-94.287166,32.51243],[-94.287607,32.51221],[-94.287108,32.511726],[-94.287173,32.511534],[-94.287769,32.511941],[-94.288295,32.512007],[-94.288347,32.511578],[-94.289372,32.511397],[-94.289314,32.510907],[-94.289042,32.510726],[-94.289301,32.510446],[-94.289944,32.510242],[-94.290359,32.510413],[-94.290904,32.509649],[-94.291508,32.509781],[-94.291826,32.509478],[-94.291683,32.508615],[-94.29217,32.508439],[-94.292403,32.50878],[-94.292473,32.508365],[-94.291511,32.507714],[-94.286862,32.505707],[-94.284469,32.50511],[-94.281314,32.504753],[-94.279328,32.503961],[-94.273087,32.499131],[-94.272455,32.494781],[-94.29687,32.493796],[-94.289211,32.487597],[-94.268938,32.47305],[-94.264354,32.468398],[-94.259039,32.46419],[-94.250312,32.458702],[-94.2403,32.451652],[-94.2387,32.450094],[-94.238024,32.448552],[-94.266307,32.448327],[-94.280221,32.448547],[-94.293411,32.446788],[-94.304353,32.447102],[-94.319667,32.444652],[-94.31978,32.4525],[-94.322432,32.455893],[-94.330087,32.473516],[-94.337427,32.47124],[-94.344458,32.470629],[-94.356183,32.467126],[-94.358719,32.476694],[-94.35953,32.484148],[-94.357259,32.484185],[-94.357148,32.487259],[-94.349075,32.487625],[-94.349247,32.491421],[-94.334205,32.492035],[-94.33435,32.49551],[-94.334747,32.496948],[-94.346761,32.496829],[-94.346849,32.522941],[-94.341391,32.522758],[-94.341185,32.530515],[-94.336578,32.528407],[-94.329167,32.522267],[-94.328586,32.522289],[-94.328373,32.522507],[-94.325153,32.518879],[-94.323037,32.515442],[-94.317059,32.50909],[-94.315006,32.509808],[-94.320217,32.515456],[-94.312454,32.51832],[-94.313023,32.519617],[-94.311735,32.520206],[-94.310846,32.520284],[-94.315171,32.526548],[-94.303057,32.527944],[-94.301479,32.52353],[-94.299616,32.519618],[-94.29079,32.522379],[-94.293384,32.528643],[-94.293491,32.529558],[-94.294636,32.531822],[-94.293854,32.532597],[-94.278479,32.528636],[-94.27727,32.528105],[-94.277478,32.527581]]]}},{"type":"Feature","properties":{"PRECINCT":"2","VTD":"0002"},"geometry":{"type":"Polygon","coordinates":[[[-94.373195,32.572925],[-94.373763,32.568994],[-94.36956,32.568997],[-94.369341,32.568598],[-94.369084,32.551487],[-94.371645,32.551127],[-94.371634,32.549988],[-94.371351,32.549224],[-94.371293,32.545017],[-94.374461,32.544815],[-94.391221,32.542339],[-94.395973,32.542097],[-94.39839,32.541492],[-94.404303,32.540676],[-94.404275,32.539285],[-94.401573,32.539349],[-94.40156,32.538308],[-94.396082,32.538707],[-94.395002,32.536158],[-94.39498,32.529819],[-94.401934,32.529931],[-94.401928,32.519037],[-94.406642,32.518759],[-94.406152,32.517754],[-94.401928,32.517698],[-94.40192,32.512314],[-94.401552,32.512298],[-94.403774,32.50943],[-94.406866,32.503337],[-94.407174,32.500963],[-94.406709,32.496251],[-94.407857,32.492054],[-94.411262,32.486135],[-94.413201,32.482036],[-94.417206,32.477102],[-94.420084,32.471775],[-94.428503,32.461867],[-94.431424,32.457947],[-94.431988,32.458419],[-94.43254,32.458342],[-94.43274,32.459107],[-94.433492,32.459299],[-94.433253,32.459695],[-94.433292,32.461372],[-94.432539,32.462015],[-94.432623,32.462263],[-94.433084,32.462235],[-94.433071,32.462477],[-94.432292,32.462746],[-94.432137,32.463082],[-94.432474,32.46367],[-94.432312,32.464204],[-94.432643,32.464297],[-94.432863,32.46533],[-94.432591,32.465892],[-94.433214,32.466672],[-94.434155,32.467194],[-94.434063,32.467816],[-94.434414,32.468228],[-94.434751,32.468228],[-94.434887,32.468569],[-94.43444,32.46935],[-94.434452,32.469993],[-94.435179,32.470251],[-94.435114,32.470845],[-94.43553,32.471367],[-94.436165,32.471637],[-94.436152,32.472115],[-94.435691,32.472082],[-94.435957,32.472775],[-94.436385,32.472863],[-94.436405,32.473226],[-94.435717,32.473676],[-94.436081,32.474105],[-94.435672,32.474821],[-94.435867,32.474914],[-94.43599,32.474512],[-94.436632,32.474396],[-94.436677,32.4751],[-94.437359,32.475188],[-94.436586,32.475788],[-94.437534,32.475683],[-94.437132,32.477383],[-94.43754,32.477718],[-94.437579,32.478135],[-94.438384,32.478416],[-94.437884,32.478713],[-94.437982,32.478895],[-94.439259,32.479394],[-94.440517,32.479142],[-94.441114,32.479317],[-94.441879,32.478955],[-94.442716,32.479829],[-94.443365,32.479509],[-94.443248,32.480318],[-94.44221,32.480741],[-94.442658,32.481165],[-94.442703,32.481572],[-94.443073,32.481478],[-94.44321,32.482918],[-94.443022,32.483853],[-94.44247,32.484353],[-94.442068,32.485189],[-94.442503,32.485629],[-94.442448,32.487251],[-94.464267,32.486359],[-94.469098,32.486444],[-94.469147,32.488488],[-94.468391,32.497972],[-94.465269,32.497974],[-94.463904,32.498443],[-94.46207,32.499791],[-94.455848,32.506386],[-94.452722,32.508371],[-94.451256,32.512016],[-94.446246,32.520135],[-94.443275,32.522952],[-94.44088,32.526118],[-94.44086,32.52658],[-94.437667,32.527842],[-94.417099,32.54079],[-94.399203,32.54799],[-94.397503,32.548564],[-94.395235,32.548703],[-94.394861,32.551466],[-94.395527,32.55615],[-94.395493,32.561858],[-94.394381,32.564406],[-94.39247,32.566417],[-94.390922,32.567316],[-94.385842,32.569428],[-94.373195,32.572925]]]}},{"type":"Feature","properties":{"PRECINCT":"19","VTD":"0019"},"geometry":{"type":"Polygon","coordinates":[[[-94.626194,32.502827],[-94.626259,32.496526],[-94.626681,32.495959],[-94.628959,32.494351],[-94.629283,32.493889],[-94.628338,32.489665],[-94.628785,32.485775],[-94.628426,32.483767],[-94.626942,32.48366],[-94.625581,32.482196],[-94.625694,32.471859],[-94.622173,32.467811],[-94.621459,32.466648],[-94.609432,32.46841],[-94.593129,32.470395],[-94.576438,32.474123],[-94.526825,32.483696],[-94.523729,32.484129],[-94.473008,32.486299],[-94.464267,32.486359],[-94.442448,32.487251],[-94.442503,32.485629],[-94.442068,32.485189],[-94.44247,32.484353],[-94.443022,32.483853],[-94.44321,32.482918],[-94.443073,32.481478],[-94.442703,32.481572],[-94.442658,32.481165],[-94.44221,32.480741],[-94.443248,32.480318],[-94.443365,32.479509],[-94.442716,32.479829],[-94.441879,32.478955],[-94.441114,32.479317],[-94.440517,32.479142],[-94.439259,32.479394],[-94.437982,32.478895],[-94.437884,32.478713],[-94.438384,32.478416],[-94.437579,32.478135],[-94.43754,32.477718],[-94.437132,32.477383],[-94.437534,32.475683],[-94.436586,32.475788],[-94.437359,32.475188],[-94.436677,32.4751],[-94.436632,32.474396],[-94.43599,32.474512],[-94.435867,32.474914],[-94.435672,32.474821],[-94.436081,32.474105],[-94.435717,32.473676],[-94.436405,32.473226],[-94.436385,32.472863],[-94.435957,32.472775],[-94.435691,32.472082],[-94.436152,32.472115],[-94.436165,32.471637],[-94.43553,32.471367],[-94.435114,32.470845],[-94.435179,32.470251],[-94.434452,32.469993],[-94.43444,32.46935],[-94.434861,32.468371],[-94.434108,32.467898],[-94.434155,32.467194],[-94.433214,32.466672],[-94.432604,32.465919],[-94.432863,32.46533],[-94.432643,32.464297],[-94.432312,32.464204],[-94.432474,32.46367],[-94.432137,32.463082],[-94.432292,32.462746],[-94.433071,32.462477],[-94.433084,32.462235],[-94.432623,32.462263],[-94.432539,32.462015],[-94.433292,32.461372],[-94.433253,32.459695],[-94.433492,32.459299],[-94.43274,32.459107],[-94.432482,32.458699],[-94.432598,32.45837],[-94.431988,32.458419],[-94.431424,32.457947],[-94.435126,32.452871],[-94.436457,32.450129],[-94.438989,32.434483],[-94.438816,32.43178],[-94.437301,32.428016],[-94.437098,32.426736],[-94.438095,32.417553],[-94.436752,32.41118],[-94.436664,32.409243],[-94.437199,32.407333],[-94.441272,32.399207],[-94.44692,32.386133],[-94.447976,32.384336],[-94.458248,32.370243],[-94.45943,32.371493],[-94.463149,32.372404],[-94.463261,32.374197],[-94.463968,32.375364],[-94.463925,32.376632],[-94.464339,32.377024],[-94.467692,32.377378],[-94.470743,32.378429],[-94.472976,32.378179],[-94.474818,32.378616],[-94.476593,32.378541],[-94.477503,32.37906],[-94.477706,32.37966],[-94.477544,32.380252],[-94.477164,32.381015],[-94.476631,32.381423],[-94.476171,32.381258],[-94.475199,32.379844],[-94.474176,32.379863],[-94.473861,32.380389],[-94.474183,32.381043],[-94.475493,32.382254],[-94.475401,32.383965],[-94.47561,32.384352],[-94.477741,32.385142],[-94.478567,32.385994],[-94.478766,32.386981],[-94.478442,32.389318],[-94.479141,32.39024],[-94.479877,32.390598],[-94.480366,32.390478],[-94.481398,32.389657],[-94.483458,32.389458],[-94.487059,32.391526],[-94.489651,32.392492],[-94.491089,32.393732],[-94.492777,32.394484],[-94.495234,32.395193],[-94.495878,32.395045],[-94.497054,32.394226],[-94.497934,32.394317],[-94.498679,32.395056],[-94.498258,32.396009],[-94.498493,32.396722],[-94.499168,32.396933],[-94.499876,32.397805],[-94.501694,32.397915],[-94.503344,32.3959],[-94.505123,32.395013],[-94.506756,32.394856],[-94.507153,32.394553],[-94.507431,32.392348],[-94.506307,32.390757],[-94.506264,32.390332],[-94.506597,32.389339],[-94.50724,32.388723],[-94.50829,32.388625],[-94.508812,32.389112],[-94.508303,32.390497],[-94.508581,32.391063],[-94.510204,32.391142],[-94.512985,32.39025],[-94.513839,32.388979],[-94.514159,32.387508],[-94.514469,32.387218],[-94.515379,32.387145],[-94.517688,32.387868],[-94.518299,32.388533],[-94.518091,32.389118],[-94.517184,32.389682],[-94.517359,32.390278],[-94.517869,32.390457],[-94.519497,32.390162],[-94.520097,32.39043],[-94.520902,32.391218],[-94.521287,32.392244],[-94.520786,32.394235],[-94.521098,32.394645],[-94.522832,32.395317],[-94.523447,32.395201],[-94.523946,32.394871],[-94.524121,32.394395],[-94.5238,32.393555],[-94.523905,32.39322],[-94.525546,32.392499],[-94.526767,32.392931],[-94.527382,32.393566],[-94.52787,32.396176],[-94.52763,32.39689],[-94.526959,32.397348],[-94.525343,32.397048],[-94.524765,32.397137],[-94.52454,32.397429],[-94.524943,32.398457],[-94.526885,32.399115],[-94.52777,32.399908],[-94.527535,32.400561],[-94.5263,32.400746],[-94.525603,32.401139],[-94.525511,32.401871],[-94.525994,32.402323],[-94.527138,32.402631],[-94.529199,32.402729],[-94.531211,32.403421],[-94.532525,32.40338],[-94.53645,32.400889],[-94.540587,32.399388],[-94.541806,32.399296],[-94.542675,32.399955],[-94.543588,32.401751],[-94.544619,32.402498],[-94.546395,32.403098],[-94.549523,32.402802],[-94.550807,32.403209],[-94.551044,32.403707],[-94.550542,32.404414],[-94.550143,32.405653],[-94.550548,32.406833],[-94.551958,32.407401],[-94.554971,32.407603],[-94.555726,32.4075],[-94.55661,32.407002],[-94.559195,32.405084],[-94.5626,32.40099],[-94.565036,32.399264],[-94.569759,32.398364],[-94.577905,32.395564],[-94.586342,32.391951],[-94.588653,32.391381],[-94.589385,32.391442],[-94.591119,32.392215],[-94.592851,32.39371],[-94.596837,32.398564],[-94.598383,32.399488],[-94.599656,32.399814],[-94.601292,32.399828],[-94.603834,32.39947],[-94.608741,32.397749],[-94.612148,32.397746],[-94.615458,32.397462],[-94.618017,32.397667],[-94.621614,32.398636],[-94.625093,32.398391],[-94.629375,32.398762],[-94.631619,32.398699],[-94.636652,32.397835],[-94.639597,32.39791],[-94.642426,32.398315],[-94.645865,32.399506],[-94.648669,32.401169],[-94.651328,32.402172],[-94.653452,32.402453],[-94.654238,32.405845],[-94.656008,32.405991],[-94.657152,32.406497],[-94.65802,32.407518],[-94.658333,32.408946],[-94.660241,32.410339],[-94.6622,32.410681],[-94.665263,32.410708],[-94.666557,32.410168],[-94.667689,32.408928],[-94.668372,32.408788],[-94.668946,32.408968],[-94.66927,32.409575],[-94.669167,32.409957],[-94.667954,32.412273],[-94.667923,32.412741],[-94.668953,32.413158],[-94.670131,32.412008],[-94.6713,32.411812],[-94.674017,32.413656],[-94.673669,32.415064],[-94.673716,32.416524],[-94.672124,32.417898],[-94.671954,32.418663],[-94.672377,32.41865],[-94.673318,32.417449],[-94.674061,32.417275],[-94.675242,32.417561],[-94.675984,32.418307],[-94.67597,32.41872],[-94.675579,32.419153],[-94.673766,32.419595],[-94.672428,32.420404],[-94.671818,32.421052],[-94.67182,32.421735],[-94.674069,32.422732],[-94.676589,32.42438],[-94.677891,32.424755],[-94.680483,32.4248],[-94.681773,32.425869],[-94.68436,32.427181],[-94.686597,32.426968],[-94.688919,32.425904],[-94.689856,32.425752],[-94.691106,32.426139],[-94.691674,32.427243],[-94.692928,32.427447],[-94.698508,32.4244],[-94.70006,32.423899],[-94.701986,32.421782],[-94.702201,32.45291],[-94.701946,32.500071],[-94.693346,32.502056],[-94.691231,32.502319],[-94.671939,32.501444],[-94.66928,32.501847],[-94.660713,32.504037],[-94.657804,32.504223],[-94.651772,32.50366],[-94.649454,32.503667],[-94.62652,32.507507],[-94.626194,32.502827]]]}},{"type":"Feature","properties":{"PRECINCT":"8","VTD":"0008"},"geometry":{"type":"Polygon","coordinates":[[[-94.311268,32.55318],[-94.309158,32.54424],[-94.313563,32.537804],[-94.313975,32.537841],[-94.314101,32.535416],[-94.312346,32.535373],[-94.312455,32.536662],[-94.312234,32.537493],[-94.306385,32.535976],[-94.303057,32.527944],[-94.315171,32.526548],[-94.310846,32.520284],[-94.311735,32.520206],[-94.313023,32.519617],[-94.312454,32.51832],[-94.320217,32.515456],[-94.315006,32.509808],[-94.317059,32.50909],[-94.323037,32.515442],[-94.325153,32.518879],[-94.328373,32.522507],[-94.328012,32.525502],[-94.329895,32.533954],[-94.330154,32.536353],[-94.329886,32.538622],[-94.337228,32.540186],[-94.337628,32.539274],[-94.347901,32.541857],[-94.349556,32.5418],[-94.350188,32.544],[-94.350052,32.549476],[-94.349154,32.549685],[-94.33662,32.549599],[-94.311169,32.555241],[-94.311268,32.55318]]]}},{"type":"Feature","properties":{"PRECINCT":"20","VTD":"0020"},"geometry":{"type":"Polygon","coordinates":[[[-94.042888,32.604474],[-94.042819,32.591175],[-94.0431,32.58862],[-94.042846,32.584415],[-94.042817,32.574534],[-94.043103,32.573542],[-94.042965,32.5511],[-94.043196,32.547995],[-94.043352,32.522112],[-94.043258,32.516199],[-94.042916,32.513605],[-94.043167,32.510705],[-94.042926,32.494047],[-94.04314,32.4785],[-94.042875,32.471348],[-94.042901,32.392283],[-94.104326,32.379853],[-94.104494,32.400731],[-94.105502,32.412375],[-94.105596,32.417708],[-94.105325,32.418396],[-94.105618,32.418952],[-94.105435,32.428788],[-94.105283,32.429816],[-94.104454,32.431701],[-94.104342,32.435472],[-94.105661,32.438304],[-94.105794,32.439806],[-94.106418,32.441392],[-94.110165,32.44485],[-94.111119,32.44713],[-94.110764,32.453366],[-94.111219,32.455752],[-94.112412,32.457183],[-94.112676,32.459623],[-94.111909,32.464461],[-94.112415,32.468861],[-94.111955,32.476655],[-94.112254,32.478204],[-94.113853,32.479075],[-94.114017,32.479432],[-94.113966,32.483123],[-94.111817,32.482735],[-94.111334,32.484716],[-94.11116,32.494043],[-94.111391,32.497942],[-94.110589,32.502278],[-94.110658,32.508333],[-94.11096,32.509165],[-94.116829,32.514315],[-94.118279,32.516509],[-94.099234,32.516639],[-94.089345,32.516561],[-94.088083,32.516376],[-94.08796,32.52498],[-94.088365,32.525222],[-94.088511,32.525891],[-94.087951,32.525775],[-94.087744,32.545549],[-94.087473,32.548826],[-94.087502,32.562131],[-94.087366,32.562707],[-94.086775,32.563389],[-94.102845,32.576688],[-94.104266,32.578385],[-94.104543,32.579726],[-94.10462,32.585179],[-94.104413,32.604355],[-94.08657,32.60505],[-94.079683,32.604225],[-94.053626,32.604027],[-94.049952,32.604367],[-94.042888,32.604474]]]}},{"type":"Feature","properties":{"PRECINCT":"6","VTD":"0006"},"geometry":{"type":"Polygon","coordinates":[[[-94.198273,32.451672],[-94.190957,32.446875],[-94.189065,32.446009],[-94.18726,32.445698],[-94.182067,32.445431],[-94.17821,32.444605],[-94.169132,32.441681],[-94.162093,32.439682],[-94.150514,32.438272],[-94.148215,32.4382],[-94.133425,32.438412],[-94.123282,32.43912],[-94.12153,32.438808],[-94.115201,32.436959],[-94.107149,32.436068],[-94.1046,32.436144],[-94.104342,32.435472],[-94.104259,32.433704],[-94.104454,32.431701],[-94.105283,32.429816],[-94.105435,32.428788],[-94.105618,32.418952],[-94.105325,32.418396],[-94.105596,32.417708],[-94.105502,32.412375],[-94.104494,32.400731],[-94.104326,32.379853],[-94.245487,32.351156],[-94.285317,32.343293],[-94.283902,32.345531],[-94.283339,32.345506],[-94.279996,32.346824],[-94.279852,32.351426],[-94.277969,32.351909],[-94.278472,32.357418],[-94.279876,32.366689],[-94.281429,32.372681],[-94.283363,32.37709],[-94.284781,32.38771],[-94.285022,32.401041],[-94.284699,32.404946],[-94.282407,32.417662],[-94.282254,32.42499],[-94.282723,32.430577],[-94.282628,32.434771],[-94.284584,32.440455],[-94.285299,32.445529],[-94.286101,32.447838],[-94.280221,32.448547],[-94.266307,32.448327],[-94.238024,32.448552],[-94.237159,32.448741],[-94.232877,32.451173],[-94.227338,32.452919],[-94.219849,32.452328],[-94.210155,32.452668],[-94.201167,32.452499],[-94.199838,32.452312],[-94.198273,32.451672]]]}},{"type":"Feature","properties":{"PRECINCT":"21","VTD":"0021"},"geometry":{"type":"Polygon","coordinates":[[[-94.31978,32.4525],[-94.319667,32.444652],[-94.319424,32.44467],[-94.304353,32.447102],[-94.29379,32.446768],[-94.286101,32.447838],[-94.285438,32.445985],[-94.284584,32.440455],[-94.282628,32.434771],[-94.282723,32.430577],[-94.282247,32.42448],[-94.282407,32.417662],[-94.284699,32.404946],[-94.285022,32.401041],[-94.284781,32.38771],[-94.283363,32.37709],[-94.281429,32.372681],[-94.279876,32.366689],[-94.278472,32.357418],[-94.277969,32.351909],[-94.279852,32.351426],[-94.279996,32.346824],[-94.283339,32.345506],[-94.283902,32.345531],[-94.285317,32.343293],[-94.347563,32.330682],[-94.347255,32.331346],[-94.347499,32.332088],[-94.347979,32.332415],[-94.348693,32.332323],[-94.349875,32.330725],[-94.350111,32.329962],[-94.350121,32.32957],[-94.349253,32.328614],[-94.349149,32.32753],[-94.349937,32.32671],[-94.35064,32.326583],[-94.352202,32.327334],[-94.354294,32.329209],[-94.354919,32.329274],[-94.355653,32.328996],[-94.356527,32.329303],[-94.355813,32.330323],[-94.355672,32.33146],[-94.35643,32.332643],[-94.357133,32.334776],[-94.357621,32.335267],[-94.359726,32.335508],[-94.360524,32.336007],[-94.360897,32.336942],[-94.360843,32.339374],[-94.361285,32.340207],[-94.362887,32.340998],[-94.36512,32.341357],[-94.366298,32.342204],[-94.366264,32.343951],[-94.366738,32.345363],[-94.367549,32.346178],[-94.368497,32.346492],[-94.369484,32.346535],[-94.371912,32.345999],[-94.372357,32.345671],[-94.372721,32.344952],[-94.372625,32.344422],[-94.371554,32.341788],[-94.371662,32.341275],[-94.372119,32.341088],[-94.375004,32.342047],[-94.377415,32.341943],[-94.378673,32.342256],[-94.380132,32.344674],[-94.38217,32.344908],[-94.382909,32.345733],[-94.383475,32.346668],[-94.383553,32.347328],[-94.383164,32.347902],[-94.38218,32.348324],[-94.380652,32.347768],[-94.38006,32.347772],[-94.379686,32.348002],[-94.379462,32.348755],[-94.380737,32.350219],[-94.380919,32.352436],[-94.381463,32.353607],[-94.382666,32.354875],[-94.382924,32.355442],[-94.383083,32.357009],[-94.382824,32.359082],[-94.383353,32.360818],[-94.383572,32.363563],[-94.38317,32.364943],[-94.382668,32.365527],[-94.382707,32.365847],[-94.383772,32.366499],[-94.385963,32.36718],[-94.38722,32.366308],[-94.388295,32.365048],[-94.389451,32.365077],[-94.389944,32.365559],[-94.390028,32.365973],[-94.389417,32.367775],[-94.38968,32.36817],[-94.392011,32.367946],[-94.394571,32.368756],[-94.39543,32.368662],[-94.396807,32.366751],[-94.397566,32.366432],[-94.399134,32.366239],[-94.399977,32.366631],[-94.400605,32.36795],[-94.401525,32.369033],[-94.404019,32.369839],[-94.405369,32.369818],[-94.407584,32.369263],[-94.408212,32.369354],[-94.408662,32.369818],[-94.409213,32.371167],[-94.410144,32.371645],[-94.411374,32.371265],[-94.411984,32.370488],[-94.411692,32.369786],[-94.410164,32.369504],[-94.409248,32.368973],[-94.408852,32.367758],[-94.409125,32.36738],[-94.41024,32.367364],[-94.41133,32.367842],[-94.414077,32.367923],[-94.416795,32.368558],[-94.417202,32.367955],[-94.416334,32.366124],[-94.416326,32.365554],[-94.416647,32.365014],[-94.417334,32.364712],[-94.419489,32.364813],[-94.420788,32.365482],[-94.421468,32.366256],[-94.421844,32.367465],[-94.421311,32.368803],[-94.421428,32.369183],[-94.421993,32.369542],[-94.427306,32.367613],[-94.428048,32.366984],[-94.428125,32.36393],[-94.429381,32.36264],[-94.43056,32.36225],[-94.432684,32.36259],[-94.43695,32.361518],[-94.438397,32.361559],[-94.439862,32.361809],[-94.440683,32.362236],[-94.440995,32.362935],[-94.440999,32.364177],[-94.44189,32.365127],[-94.446116,32.366758],[-94.447016,32.367578],[-94.447028,32.368298],[-94.44588,32.369602],[-94.446139,32.371476],[-94.446776,32.372144],[-94.448218,32.372309],[-94.452758,32.369972],[-94.45433,32.369509],[-94.456556,32.369264],[-94.458126,32.37001],[-94.458233,32.370265],[-94.447976,32.384336],[-94.44692,32.386133],[-94.441272,32.399207],[-94.43699,32.407805],[-94.436645,32.410286],[-94.438095,32.417553],[-94.437098,32.426736],[-94.437301,32.428016],[-94.438015,32.429799],[-94.422049,32.434952],[-94.420209,32.435258],[-94.415466,32.435397],[-94.409643,32.436022],[-94.407379,32.435517],[-94.400248,32.430257],[-94.399034,32.429722],[-94.397924,32.429534],[-94.389191,32.430673],[-94.379678,32.429545],[-94.364627,32.431047],[-94.351317,32.431548],[-94.349463,32.431858],[-94.346243,32.432824],[-94.348479,32.439584],[-94.353369,32.457708],[-94.356183,32.467126],[-94.344458,32.470629],[-94.337427,32.47124],[-94.330087,32.473516],[-94.322432,32.455893],[-94.31978,32.4525]]]}},{"type":"Feature","properties":{"PRECINCT":"7","VTD":"0007"},"geometry":{"type":"Polygon","coordinates":[[[-94.27727,32.528105],[-94.264769,32.522323],[-94.262956,32.521785],[-94.193082,32.507518],[-94.156753,32.492793],[-94.128609,32.487033],[-94.117685,32.484989],[-94.115822,32.484644],[-94.111396,32.484332],[-94.111817,32.482735],[-94.113966,32.483123],[-94.114017,32.479432],[-94.113853,32.479075],[-94.112254,32.478204],[-94.111955,32.476655],[-94.112415,32.468861],[-94.111909,32.464461],[-94.112676,32.459623],[-94.112412,32.457183],[-94.111219,32.455752],[-94.110764,32.453366],[-94.111209,32.447707],[-94.110165,32.44485],[-94.106418,32.441392],[-94.105794,32.439806],[-94.105661,32.438304],[-94.1046,32.436144],[-94.107149,32.436068],[-94.115201,32.436959],[-94.12153,32.438808],[-94.123282,32.43912],[-94.133425,32.438412],[-94.148215,32.4382],[-94.150514,32.438272],[-94.162093,32.439682],[-94.169132,32.441681],[-94.17821,32.444605],[-94.182067,32.445431],[-94.18726,32.445698],[-94.189065,32.446009],[-94.190957,32.446875],[-94.198273,32.451672],[-94.20059,32.452456],[-94.210155,32.452668],[-94.219849,32.452328],[-94.227338,32.452919],[-94.232877,32.451173],[-94.237159,32.448741],[-94.238024,32.448552],[-94.2387,32.450094],[-94.2403,32.451652],[-94.250312,32.458702],[-94.259039,32.46419],[-94.264354,32.468398],[-94.268938,32.47305],[-94.289211,32.487597],[-94.29687,32.493796],[-94.272455,32.494781],[-94.273087,32.499131],[-94.279328,32.503961],[-94.281314,32.504753],[-94.284469,32.50511],[-94.286862,32.505707],[-94.291511,32.507714],[-94.292473,32.508365],[-94.292403,32.50878],[-94.29217,32.508439],[-94.291683,32.508615],[-94.291826,32.509478],[-94.291508,32.509781],[-94.290904,32.509649],[-94.290359,32.510413],[-94.289944,32.510242],[-94.289301,32.510446],[-94.289042,32.510726],[-94.289314,32.510907],[-94.289372,32.511397],[-94.288347,32.511578],[-94.288295,32.512007],[-94.287769,32.511941],[-94.287173,32.511534],[-94.287108,32.511726],[-94.287607,32.51221],[-94.287166,32.51243],[-94.286738,32.512188],[-94.286478,32.512485],[-94.286206,32.512232],[-94.28605,32.512413],[-94.285823,32.51216],[-94.284999,32.512199],[-94.285284,32.512699],[-94.284687,32.512809],[-94.28481,32.513188],[-94.284259,32.513172],[-94.284109,32.513617],[-94.284518,32.513953],[-94.284232,32.514222],[-94.284329,32.514491],[-94.2837,32.514447],[-94.283946,32.515217],[-94.283323,32.51503],[-94.28322,32.5152],[-94.28344,32.515739],[-94.283829,32.515954],[-94.282882,32.516388],[-94.283128,32.516608],[-94.282771,32.516976],[-94.282194,32.516602],[-94.281973,32.517179],[-94.281499,32.517438],[-94.281609,32.517658],[-94.281246,32.517718],[-94.281265,32.51796],[-94.281674,32.517922],[-94.281668,32.518175],[-94.280934,32.518394],[-94.281148,32.518862],[-94.280441,32.519054],[-94.280564,32.519334],[-94.281161,32.51934],[-94.280434,32.519835],[-94.280901,32.51995],[-94.280901,32.520429],[-94.281277,32.520731],[-94.280745,32.521198],[-94.281024,32.521462],[-94.281465,32.521331],[-94.281095,32.522282],[-94.281478,32.522029],[-94.281744,32.52226],[-94.281095,32.522743],[-94.281491,32.522826],[-94.281082,32.523134],[-94.281393,32.523304],[-94.282088,32.523156],[-94.282224,32.523431],[-94.281997,32.523552],[-94.282302,32.523992],[-94.281925,32.524036],[-94.282418,32.524762],[-94.281575,32.524932],[-94.281795,32.525322],[-94.2816,32.525553],[-94.281367,32.525509],[-94.281211,32.525014],[-94.280997,32.525047],[-94.279945,32.526169],[-94.278952,32.525861],[-94.278881,32.526713],[-94.278154,32.526905],[-94.278166,32.52751],[-94.277907,32.527312],[-94.277835,32.527576],[-94.277569,32.527515],[-94.27727,32.528105]]]}},{"type":"Feature","properties":{"PRECINCT":"12","VTD":"0012"},"geometry":{"type":"Polygon","coordinates":[[[-94.552694,32.595656],[-94.545956,32.595661],[-94.544089,32.595285],[-94.543492,32.59422],[-94.5432,32.592664],[-94.541712,32.591718],[-94.54196,32.591235],[-94.54144,32.590751],[-94.541693,32.590487],[-94.541232,32.590064],[-94.541551,32.589954],[-94.541589,32.589696],[-94.540837,32.589619],[-94.540628,32.58902],[-94.540011,32.588568],[-94.540233,32.58809],[-94.539895,32.588002],[-94.53994,32.587518],[-94.539629,32.58749],[-94.539435,32.58649],[-94.539616,32.585352],[-94.539851,32.585209],[-94.539026,32.584066],[-94.539117,32.583801],[-94.539643,32.583824],[-94.539578,32.582939],[-94.539799,32.582509],[-94.538974,32.582004],[-94.538845,32.579876],[-94.538624,32.579481],[-94.539105,32.578199],[-94.538969,32.576209],[-94.539326,32.575615],[-94.540417,32.57523],[-94.540547,32.574807],[-94.539645,32.573735],[-94.54017,32.572828],[-94.540048,32.572647],[-94.540963,32.571773],[-94.540594,32.570783],[-94.540619,32.570101],[-94.540159,32.569243],[-94.540646,32.568935],[-94.540626,32.56865],[-94.540075,32.568045],[-94.54086,32.567143],[-94.540017,32.566753],[-94.54001,32.566247],[-94.539556,32.566027],[-94.53955,32.565676],[-94.53914,32.565345],[-94.53894,32.562074],[-94.538284,32.560859],[-94.538369,32.560397],[-94.538966,32.560051],[-94.538974,32.559594],[-94.536573,32.558491],[-94.535734,32.557346],[-94.534355,32.557208],[-94.532462,32.557368],[-94.531975,32.557024],[-94.531841,32.556218],[-94.532546,32.554901],[-94.532822,32.552243],[-94.527004,32.552365],[-94.524054,32.553287],[-94.524036,32.552082],[-94.522674,32.550944],[-94.52244,32.550398],[-94.522284,32.548966],[-94.523026,32.54512],[-94.522812,32.544065],[-94.52161,32.541816],[-94.519151,32.541407],[-94.517281,32.53944],[-94.51691,32.539297],[-94.512964,32.540095],[-94.512186,32.540022],[-94.510848,32.539304],[-94.50824,32.538423],[-94.507424,32.537106],[-94.507816,32.536321],[-94.50757,32.535343],[-94.507801,32.534312],[-94.506933,32.533216],[-94.506115,32.531078],[-94.508537,32.527485],[-94.510438,32.522043],[-94.510768,32.521789],[-94.518259,32.521578],[-94.519486,32.52099],[-94.519765,32.520274],[-94.519746,32.513204],[-94.507255,32.515781],[-94.50709,32.510529],[-94.505991,32.508631],[-94.505608,32.506606],[-94.505853,32.505162],[-94.505665,32.502874],[-94.505921,32.501274],[-94.50576,32.496963],[-94.506041,32.494593],[-94.505816,32.490729],[-94.505574,32.489867],[-94.504328,32.488244],[-94.508165,32.486754],[-94.509062,32.486129],[-94.510174,32.484769],[-94.522728,32.48422],[-94.526825,32.483696],[-94.576438,32.474123],[-94.593129,32.470395],[-94.609432,32.46841],[-94.621459,32.466648],[-94.622173,32.467811],[-94.625694,32.471859],[-94.625581,32.482196],[-94.626942,32.48366],[-94.628426,32.483767],[-94.628785,32.485775],[-94.628338,32.489665],[-94.629252,32.494039],[-94.626681,32.495959],[-94.62621,32.496774],[-94.626194,32.503203],[-94.626626,32.507994],[-94.609261,32.510897],[-94.609302,32.51677],[-94.608997,32.523448],[-94.609397,32.530721],[-94.602993,32.530814],[-94.602741,32.531055],[-94.602696,32.533134],[-94.600193,32.533516],[-94.598563,32.533604],[-94.597464,32.532875],[-94.592258,32.532973],[-94.589638,32.532731],[-94.588756,32.536591],[-94.588741,32.537906],[-94.589973,32.542765],[-94.589972,32.546863],[-94.589502,32.550403],[-94.590403,32.553883],[-94.590844,32.554533],[-94.59146,32.554869],[-94.593215,32.555111],[-94.594431,32.556112],[-94.595997,32.560023],[-94.597458,32.562207],[-94.599598,32.564585],[-94.600107,32.565593],[-94.600718,32.568556],[-94.600232,32.572089],[-94.601217,32.576741],[-94.600484,32.579151],[-94.599955,32.579563],[-94.596804,32.580704],[-94.59602,32.581226],[-94.591346,32.585634],[-94.590913,32.586312],[-94.589945,32.590015],[-94.589585,32.590533],[-94.586942,32.590678],[-94.586418,32.59116],[-94.586657,32.594116],[-94.586102,32.596378],[-94.58603,32.601538],[-94.580036,32.601218],[-94.574517,32.599839],[-94.566839,32.599074],[-94.552694,32.595656]]]}},{"type":"Feature","properties":{"PRECINCT":"13","VTD":"0013"},"geometry":{"type":"Polygon","coordinates":[[[-94.698295,32.607688],[-94.695785,32.60718],[-94.692881,32.605862],[-94.688593,32.602672],[-94.686507,32.601511],[-94.683476,32.600356],[-94.681275,32.600048],[-94.66775,32.600443],[-94.658557,32.601199],[-94.652635,32.599791],[-94.650792,32.5996],[-94.63165,32.602785],[-94.629509,32.602611],[-94.624108,32.601118],[-94.617507,32.600701],[-94.613616,32.601114],[-94.609981,32.600002],[-94.607645,32.599737],[-94.605728,32.59981],[-94.597046,32.601352],[-94.591606,32.601609],[-94.58603,32.601538],[-94.586102,32.596378],[-94.586657,32.594116],[-94.586418,32.59116],[-94.586942,32.590678],[-94.589585,32.590533],[-94.589945,32.590015],[-94.590913,32.586312],[-94.591346,32.585634],[-94.59602,32.581226],[-94.596804,32.580704],[-94.600317,32.579385],[-94.601132,32.577404],[-94.601087,32.575825],[-94.600232,32.572089],[-94.600718,32.568556],[-94.600107,32.565593],[-94.599598,32.564585],[-94.597458,32.562207],[-94.595997,32.560023],[-94.594431,32.556112],[-94.593215,32.555111],[-94.593998,32.554935],[-94.609252,32.555011],[-94.612848,32.555606],[-94.614822,32.556583],[-94.617817,32.557399],[-94.620813,32.55755],[-94.62381,32.558034],[-94.631094,32.560792],[-94.633216,32.56186],[-94.635648,32.562157],[-94.638841,32.562061],[-94.640019,32.562263],[-94.646761,32.564311],[-94.652078,32.567336],[-94.652329,32.569636],[-94.654055,32.571321],[-94.671391,32.560599],[-94.674553,32.556053],[-94.675669,32.555114],[-94.677124,32.55416],[-94.681508,32.552026],[-94.685621,32.54925],[-94.693906,32.542028],[-94.695257,32.54129],[-94.700718,32.539325],[-94.701964,32.534999],[-94.70183,32.607808],[-94.698295,32.607688]]]}},{"type":"Feature","properties":{"PRECINCT":"15","VTD":"0015"},"geometry":{"type":"Polygon","coordinates":[[[-94.533716,32.707134],[-94.562651,32.689796],[-94.561713,32.688938],[-94.560256,32.688544],[-94.553882,32.688523],[-94.550578,32.687866],[-94.546701,32.686728],[-94.545876,32.686679],[-94.545681,32.685926],[-94.544843,32.684595],[-94.544966,32.684095],[-94.544681,32.684183],[-94.544668,32.683853],[-94.543752,32.683309],[-94.543796,32.682798],[-94.543088,32.682132],[-94.542698,32.681351],[-94.540437,32.680807],[-94.54002,32.680136],[-94.538987,32.679724],[-94.537407,32.679476],[-94.53653,32.677734],[-94.535555,32.677294],[-94.535315,32.676694],[-94.534899,32.676678],[-94.534853,32.676254],[-94.534281,32.676331],[-94.533937,32.675742],[-94.534138,32.675545],[-94.533892,32.675324],[-94.53423,32.674918],[-94.534002,32.674318],[-94.534236,32.673804],[-94.544737,32.673905],[-94.546021,32.67361],[-94.549751,32.670752],[-94.55431,32.668684],[-94.557439,32.666997],[-94.557521,32.665679],[-94.557963,32.665178],[-94.557326,32.663612],[-94.557755,32.66254],[-94.558164,32.660005],[-94.557995,32.65906],[-94.558476,32.658186],[-94.558606,32.656845],[-94.557638,32.65602],[-94.557215,32.654414],[-94.556091,32.653397],[-94.555974,32.652561],[-94.555272,32.652056],[-94.555266,32.651528],[-94.554941,32.651512],[-94.555156,32.651176],[-94.554967,32.650901],[-94.555052,32.649911],[-94.554831,32.649714],[-94.554493,32.649779],[-94.554317,32.649527],[-94.554168,32.647927],[-94.555163,32.646036],[-94.554811,32.645744],[-94.555046,32.645492],[-94.554857,32.644765],[-94.555072,32.644117],[-94.554409,32.6426],[-94.554474,32.641758],[-94.553954,32.641621],[-94.553552,32.640527],[-94.553201,32.640274],[-94.553259,32.639994],[-94.552785,32.639663],[-94.55296,32.638932],[-94.550836,32.635331],[-94.551122,32.633924],[-94.550881,32.633303],[-94.549705,32.632676],[-94.549089,32.631345],[-94.548497,32.6314],[-94.547738,32.630317],[-94.547029,32.629586],[-94.546458,32.629438],[-94.546393,32.629157],[-94.540319,32.627309],[-94.539832,32.626891],[-94.538558,32.627248],[-94.536785,32.626236],[-94.53594,32.626385],[-94.535616,32.625983],[-94.534317,32.6253],[-94.534004,32.625542],[-94.533628,32.625471],[-94.532857,32.624998],[-94.532339,32.624259],[-94.531721,32.624247],[-94.530702,32.624876],[-94.528941,32.624956],[-94.527681,32.62462],[-94.527804,32.623587],[-94.526752,32.623317],[-94.52646,32.623444],[-94.526537,32.624317],[-94.525998,32.624648],[-94.525576,32.624554],[-94.525049,32.623932],[-94.52455,32.624003],[-94.524257,32.624477],[-94.523945,32.624499],[-94.52327,32.624146],[-94.522516,32.62419],[-94.521542,32.623514],[-94.5206,32.62414],[-94.520145,32.624195],[-94.519918,32.622815],[-94.519132,32.622072],[-94.518677,32.622067],[-94.518619,32.620791],[-94.518892,32.620335],[-94.520374,32.61966],[-94.520804,32.617224],[-94.521369,32.616521],[-94.520779,32.615613],[-94.52074,32.613986],[-94.522351,32.613788],[-94.522249,32.608049],[-94.522997,32.608052],[-94.523137,32.607823],[-94.523277,32.60351],[-94.524425,32.601882],[-94.525741,32.601086],[-94.525744,32.600188],[-94.525189,32.59856],[-94.52523,32.597741],[-94.525649,32.597012],[-94.526771,32.596319],[-94.527137,32.59439],[-94.526863,32.592743],[-94.527493,32.591916],[-94.527672,32.590003],[-94.530621,32.591255],[-94.533467,32.59202],[-94.535315,32.593134],[-94.544665,32.595426],[-94.545956,32.595661],[-94.550967,32.595571],[-94.553393,32.595731],[-94.566839,32.599074],[-94.573868,32.599735],[-94.580765,32.601305],[-94.58425,32.601551],[-94.591606,32.601609],[-94.597046,32.601352],[-94.606533,32.599723],[-94.609981,32.600002],[-94.613616,32.601114],[-94.617507,32.600701],[-94.623038,32.601043],[-94.622987,32.601929],[-94.622579,32.60233],[-94.623391,32.6025],[-94.622476,32.603106],[-94.622008,32.60282],[-94.621923,32.603117],[-94.622093,32.604321],[-94.622918,32.604348],[-94.622717,32.604782],[-94.622847,32.605425],[-94.623316,32.605414],[-94.623667,32.606151],[-94.62368,32.606843],[-94.623355,32.606838],[-94.623297,32.607405],[-94.622531,32.60752],[-94.622524,32.607136],[-94.622088,32.606911],[-94.621705,32.607109],[-94.62155,32.607598],[-94.621277,32.607642],[-94.620712,32.607027],[-94.620297,32.608005],[-94.619563,32.608336],[-94.619953,32.608819],[-94.619727,32.610204],[-94.619344,32.610666],[-94.618941,32.610595],[-94.618565,32.610947],[-94.618461,32.611882],[-94.618059,32.612162],[-94.617987,32.612674],[-94.617078,32.613043],[-94.616591,32.612581],[-94.616299,32.613076],[-94.615572,32.613219],[-94.615207,32.61245],[-94.614733,32.612323],[-94.614909,32.612768],[-94.614441,32.61311],[-94.614279,32.613725],[-94.613767,32.614374],[-94.613293,32.614441],[-94.61382,32.615419],[-94.613683,32.616189],[-94.613268,32.616303],[-94.613004,32.616694],[-94.613625,32.616947],[-94.613742,32.617585],[-94.614399,32.617782],[-94.613866,32.617998],[-94.613463,32.617832],[-94.613093,32.61852],[-94.614198,32.618624],[-94.614347,32.618822],[-94.614036,32.619185],[-94.614277,32.619454],[-94.613289,32.619889],[-94.613666,32.621136],[-94.614122,32.621581],[-94.613635,32.621801],[-94.613921,32.622115],[-94.613856,32.622423],[-94.613414,32.622896],[-94.612479,32.62266],[-94.612232,32.622797],[-94.612304,32.623111],[-94.61311,32.623562],[-94.613071,32.624325],[-94.611323,32.62365],[-94.610317,32.624475],[-94.608958,32.624509],[-94.609235,32.625108],[-94.610314,32.625916],[-94.610405,32.626312],[-94.609594,32.627483],[-94.609503,32.628176],[-94.60823,32.628995],[-94.606658,32.628831],[-94.605397,32.629019],[-94.604221,32.628348],[-94.603168,32.628052],[-94.601285,32.628349],[-94.600323,32.628195],[-94.600011,32.628355],[-94.600044,32.629102],[-94.599011,32.629158],[-94.598309,32.629438],[-94.597043,32.63088],[-94.596017,32.631676],[-94.595589,32.631694],[-94.595744,32.633084],[-94.596849,32.632875],[-94.598194,32.63354],[-94.599369,32.632836],[-94.600267,32.633001],[-94.601066,32.632814],[-94.602021,32.633484],[-94.60217,32.633841],[-94.603549,32.634138],[-94.604445,32.633901],[-94.604776,32.632966],[-94.606289,32.633185],[-94.608778,32.631781],[-94.60946,32.63192],[-94.609447,32.633113],[-94.609661,32.633454],[-94.61037,32.633932],[-94.61126,32.634157],[-94.612099,32.633859],[-94.612917,32.63481],[-94.612243,32.636119],[-94.611261,32.636741],[-94.611119,32.637114],[-94.611327,32.637505],[-94.612055,32.637581],[-94.613438,32.636938],[-94.614374,32.636794],[-94.614836,32.637245],[-94.615888,32.637354],[-94.616174,32.637667],[-94.617058,32.63792],[-94.617247,32.639091],[-94.618079,32.639223],[-94.618879,32.639953],[-94.619645,32.639931],[-94.619885,32.640377],[-94.621595,32.640975],[-94.622253,32.642865],[-94.623039,32.642915],[-94.623409,32.642046],[-94.623877,32.642326],[-94.624111,32.642634],[-94.624001,32.643706],[-94.624463,32.644096],[-94.626024,32.643032],[-94.627844,32.64222],[-94.62947,32.63956],[-94.630308,32.639384],[-94.631095,32.638692],[-94.631623,32.638704],[-94.622042,32.676902],[-94.62227,32.68014],[-94.622218,32.686576],[-94.620345,32.686929],[-94.620191,32.689513],[-94.617104,32.690188],[-94.616282,32.692081],[-94.616351,32.693324],[-94.617423,32.69458],[-94.617671,32.695696],[-94.618228,32.696395],[-94.617962,32.697543],[-94.61731,32.697861],[-94.615749,32.698006],[-94.615375,32.698515],[-94.61527,32.700259],[-94.613966,32.699867],[-94.612967,32.700546],[-94.610829,32.700911],[-94.61139,32.701962],[-94.604899,32.70213],[-94.601807,32.705787],[-94.601262,32.706161],[-94.593846,32.706382],[-94.592888,32.705852],[-94.592824,32.704883],[-94.592211,32.703557],[-94.587925,32.703188],[-94.587891,32.698273],[-94.58769,32.697709],[-94.586753,32.697553],[-94.580163,32.697573],[-94.580086,32.714059],[-94.579832,32.716726],[-94.578464,32.7196],[-94.578563,32.724436],[-94.578809,32.72524],[-94.57937,32.725734],[-94.582722,32.72668],[-94.583446,32.727396],[-94.584186,32.73013],[-94.583414,32.732601],[-94.533716,32.707134]]]}},{"type":"Feature","properties":{"PRECINCT":"24","VTD":"0024"},"geometry":{"type":"Polygon","coordinates":[[[-94.533716,32.707134],[-94.507323,32.693738],[-94.39261,32.694381],[-94.394816,32.692661],[-94.396779,32.692282],[-94.398301,32.691452],[-94.398522,32.690754],[-94.399055,32.690474],[-94.400005,32.690189],[-94.400492,32.690832],[-94.400863,32.690909],[-94.401448,32.690684],[-94.401949,32.68987],[-94.403158,32.689788],[-94.403439,32.688754],[-94.40338,32.687545],[-94.402763,32.685687],[-94.403316,32.683987],[-94.405059,32.682103],[-94.405384,32.682547],[-94.406834,32.6818],[-94.407192,32.680525],[-94.408993,32.680652],[-94.409299,32.679937],[-94.409033,32.679437],[-94.409194,32.679063],[-94.411094,32.678574],[-94.412433,32.679014],[-94.414058,32.680284],[-94.414103,32.680922],[-94.414642,32.681115],[-94.41476,32.680707],[-94.416151,32.68073],[-94.417321,32.678366],[-94.418497,32.677773],[-94.419141,32.678289],[-94.419688,32.677987],[-94.421462,32.678927],[-94.422457,32.678713],[-94.422807,32.678141],[-94.422763,32.677393],[-94.421547,32.676502],[-94.421365,32.676085],[-94.422268,32.674001],[-94.422171,32.673138],[-94.42253,32.672852],[-94.424349,32.672341],[-94.425097,32.672352],[-94.430148,32.674508],[-94.431031,32.674662],[-94.431629,32.674304],[-94.432058,32.674678],[-94.431447,32.675459],[-94.432292,32.676685],[-94.433956,32.676652],[-94.434405,32.677378],[-94.436869,32.677774],[-94.43815,32.677598],[-94.439086,32.676652],[-94.440275,32.676245],[-94.440796,32.675403],[-94.44218,32.675613],[-94.443285,32.675267],[-94.443843,32.672666],[-94.443668,32.672149],[-94.442797,32.671736],[-94.442686,32.671423],[-94.443155,32.670038],[-94.443896,32.669103],[-94.443441,32.667784],[-94.443804,32.667536],[-94.444519,32.667723],[-94.44474,32.666657],[-94.445604,32.665188],[-94.446345,32.664853],[-94.446781,32.663902],[-94.446761,32.663677],[-94.445696,32.663325],[-94.444804,32.662539],[-94.446312,32.661153],[-94.447826,32.660301],[-94.448021,32.659558],[-94.447846,32.658596],[-94.448918,32.65759],[-94.44871,32.657315],[-94.447111,32.65681],[-94.446701,32.656986],[-94.446643,32.65649],[-94.445863,32.656139],[-94.445883,32.65488],[-94.445363,32.653775],[-94.445623,32.651834],[-94.446591,32.650591],[-94.448404,32.650514],[-94.449112,32.649261],[-94.450315,32.649255],[-94.450814,32.649568],[-94.450685,32.650321],[-94.45151,32.6503],[-94.452127,32.649899],[-94.452374,32.64881],[-94.453089,32.647897],[-94.454395,32.648221],[-94.456611,32.647116],[-94.457775,32.647622],[-94.458177,32.648094],[-94.457612,32.649215],[-94.457203,32.649365],[-94.456572,32.649221],[-94.455851,32.649683],[-94.455825,32.650816],[-94.456898,32.651487],[-94.459062,32.651854],[-94.460355,32.651595],[-94.461499,32.650463],[-94.462557,32.649929],[-94.463377,32.649814],[-94.463837,32.649434],[-94.465235,32.649582],[-94.46545,32.650242],[-94.466827,32.649972],[-94.466924,32.649599],[-94.467328,32.649428],[-94.468828,32.649658],[-94.469407,32.649048],[-94.469855,32.649746],[-94.470291,32.64973],[-94.470746,32.648773],[-94.471389,32.648916],[-94.472474,32.647481],[-94.474708,32.646226],[-94.475183,32.645737],[-94.475468,32.645154],[-94.475254,32.643675],[-94.475955,32.64307],[-94.476045,32.642218],[-94.477227,32.641145],[-94.477696,32.640986],[-94.478202,32.641239],[-94.478313,32.641481],[-94.477761,32.64197],[-94.478554,32.6423],[-94.479535,32.6417],[-94.479599,32.64121],[-94.480794,32.640458],[-94.481484,32.641133],[-94.482178,32.640929],[-94.482211,32.64017],[-94.482925,32.639527],[-94.482281,32.637334],[-94.483775,32.636932],[-94.484606,32.636173],[-94.485179,32.636047],[-94.485822,32.63648],[-94.486972,32.636238],[-94.487823,32.636419],[-94.488622,32.636985],[-94.489174,32.636039],[-94.490973,32.634895],[-94.491486,32.635109],[-94.491573,32.636582],[-94.491793,32.636737],[-94.49232,32.636439],[-94.492988,32.63529],[-94.493501,32.635438],[-94.494697,32.636856],[-94.497336,32.637251],[-94.498772,32.636672],[-94.500668,32.636972],[-94.501748,32.635784],[-94.504054,32.636187],[-94.504795,32.635633],[-94.504549,32.63511],[-94.504665,32.634824],[-94.506284,32.634379],[-94.506362,32.633583],[-94.506746,32.633165],[-94.506006,32.632675],[-94.506636,32.632076],[-94.506175,32.631751],[-94.506168,32.631504],[-94.506506,32.631427],[-94.507182,32.631796],[-94.507254,32.631059],[-94.508053,32.631186],[-94.508092,32.630603],[-94.508431,32.6304],[-94.509807,32.630621],[-94.510107,32.629416],[-94.511413,32.628884],[-94.512336,32.628901],[-94.513571,32.627658],[-94.513987,32.6279],[-94.513973,32.62905],[-94.514479,32.629116],[-94.51465,32.627935],[-94.516175,32.626628],[-94.517547,32.626417],[-94.518782,32.626852],[-94.519113,32.626352],[-94.520023,32.62622],[-94.519601,32.625341],[-94.519663,32.624717],[-94.520145,32.624195],[-94.5206,32.62414],[-94.521346,32.623535],[-94.522516,32.62419],[-94.52327,32.624146],[-94.523945,32.624499],[-94.524257,32.624477],[-94.52455,32.624003],[-94.525049,32.623932],[-94.525907,32.624658],[-94.526537,32.624317],[-94.52646,32.623444],[-94.526752,32.623317],[-94.527804,32.623587],[-94.527681,32.62462],[-94.528941,32.624956],[-94.530702,32.624876],[-94.531721,32.624247],[-94.532339,32.624259],[-94.532857,32.624998],[-94.533628,32.625471],[-94.534004,32.625542],[-94.534317,32.6253],[-94.535616,32.625983],[-94.53594,32.626385],[-94.536785,32.626236],[-94.538558,32.627248],[-94.539832,32.626891],[-94.540319,32.627309],[-94.546393,32.629157],[-94.546458,32.629438],[-94.547029,32.629586],[-94.547738,32.630317],[-94.548497,32.6314],[-94.549121,32.631378],[-94.549705,32.632676],[-94.550881,32.633303],[-94.551122,32.633924],[-94.550836,32.635331],[-94.55296,32.638932],[-94.552785,32.639663],[-94.553259,32.639994],[-94.553201,32.640274],[-94.553552,32.640527],[-94.553954,32.641621],[-94.554474,32.641758],[-94.554409,32.6426],[-94.555072,32.644117],[-94.554857,32.644765],[-94.555046,32.645492],[-94.554811,32.645744],[-94.555149,32.646168],[-94.554721,32.646564],[-94.554168,32.647927],[-94.554317,32.649527],[-94.554493,32.649779],[-94.554831,32.649714],[-94.555052,32.649911],[-94.554967,32.650901],[-94.555156,32.651176],[-94.554941,32.651512],[-94.555266,32.651528],[-94.555272,32.652056],[-94.555974,32.652561],[-94.556091,32.653397],[-94.557215,32.654414],[-94.557638,32.65602],[-94.558606,32.656845],[-94.558476,32.658186],[-94.557995,32.65906],[-94.558164,32.660005],[-94.557755,32.66254],[-94.557326,32.663612],[-94.557963,32.665178],[-94.557521,32.665679],[-94.557439,32.666997],[-94.55431,32.668684],[-94.549751,32.670752],[-94.546021,32.67361],[-94.544737,32.673905],[-94.534236,32.673804],[-94.533983,32.674555],[-94.53423,32.674918],[-94.533885,32.675363],[-94.534138,32.675545],[-94.533937,32.675742],[-94.534359,32.676397],[-94.534853,32.676254],[-94.534899,32.676678],[-94.535315,32.676694],[-94.535555,32.677294],[-94.53653,32.677734],[-94.537517,32.679548],[-94.538987,32.679724],[-94.54002,32.680136],[-94.540437,32.680807],[-94.542698,32.681351],[-94.543088,32.682132],[-94.543796,32.682798],[-94.543752,32.683309],[-94.544668,32.683853],[-94.544681,32.684183],[-94.544966,32.684095],[-94.544843,32.684595],[-94.545681,32.685926],[-94.545876,32.686679],[-94.546701,32.686728],[-94.550578,32.687866],[-94.553882,32.688523],[-94.560256,32.688544],[-94.561713,32.688938],[-94.562651,32.689796],[-94.533716,32.707134]]]}},{"type":"Feature","properties":{"PRECINCT":"25","VTD":"0025"},"geometry":{"type":"Polygon","coordinates":[[[-94.63944,32.562123],[-94.635648,32.562157],[-94.633216,32.56186],[-94.631094,32.560792],[-94.62956,32.560351],[-94.624863,32.558346],[-94.621683,32.557655],[-94.617817,32.557399],[-94.614822,32.556583],[-94.612439,32.555509],[-94.609012,32.554975],[-94.593998,32.554935],[-94.593215,32.555111],[-94.59146,32.554869],[-94.590582,32.55422],[-94.589502,32.550403],[-94.589972,32.546863],[-94.589973,32.542765],[-94.588653,32.537406],[-94.589638,32.532731],[-94.592258,32.532973],[-94.597464,32.532875],[-94.598563,32.533604],[-94.600193,32.533516],[-94.602696,32.533134],[-94.602741,32.531055],[-94.602993,32.530814],[-94.609397,32.530721],[-94.608997,32.523448],[-94.609302,32.51677],[-94.609261,32.510897],[-94.626626,32.507994],[-94.62652,32.507507],[-94.649454,32.503667],[-94.651772,32.50366],[-94.657804,32.504223],[-94.659879,32.504132],[-94.662289,32.50371],[-94.66928,32.501847],[-94.672335,32.501424],[-94.691231,32.502319],[-94.693346,32.502056],[-94.701946,32.500071],[-94.701964,32.534999],[-94.700718,32.539325],[-94.695257,32.54129],[-94.693906,32.542028],[-94.685621,32.54925],[-94.681508,32.552026],[-94.677124,32.55416],[-94.675669,32.555114],[-94.674553,32.556053],[-94.671391,32.560599],[-94.654055,32.571321],[-94.652442,32.569852],[-94.652203,32.567506],[-94.65179,32.567151],[-94.646388,32.564157],[-94.63944,32.562123]]]}},{"type":"Feature","properties":{"PRECINCT":"23","VTD":"0023"},"geometry":{"type":"Polygon","coordinates":[[[-94.667785,32.672614],[-94.659515,32.672384],[-94.65464,32.672936],[-94.648451,32.674366],[-94.635909,32.678607],[-94.631144,32.679713],[-94.627255,32.679851],[-94.622143,32.679441],[-94.622042,32.676902],[-94.631623,32.638704],[-94.631095,32.638692],[-94.630308,32.639384],[-94.62947,32.63956],[-94.627844,32.64222],[-94.626024,32.643032],[-94.624463,32.644096],[-94.624001,32.643706],[-94.624111,32.642634],[-94.623877,32.642326],[-94.623409,32.642046],[-94.623039,32.642915],[-94.622253,32.642865],[-94.621595,32.640975],[-94.619885,32.640377],[-94.619645,32.639931],[-94.618879,32.639953],[-94.618079,32.639223],[-94.617247,32.639091],[-94.617058,32.63792],[-94.616174,32.637667],[-94.615888,32.637354],[-94.614836,32.637245],[-94.614374,32.636794],[-94.613438,32.636938],[-94.612055,32.637581],[-94.611327,32.637505],[-94.611119,32.637114],[-94.611261,32.636741],[-94.612243,32.636119],[-94.612917,32.63481],[-94.612099,32.633859],[-94.61126,32.634157],[-94.61037,32.633932],[-94.609661,32.633454],[-94.609447,32.633113],[-94.60946,32.63192],[-94.608778,32.631781],[-94.606289,32.633185],[-94.604776,32.632966],[-94.604445,32.633901],[-94.603549,32.634138],[-94.60217,32.633841],[-94.602021,32.633484],[-94.601066,32.632814],[-94.600267,32.633001],[-94.599369,32.632836],[-94.598194,32.63354],[-94.596849,32.632875],[-94.595744,32.633084],[-94.595589,32.631694],[-94.596017,32.631676],[-94.597043,32.63088],[-94.598309,32.629438],[-94.599011,32.629158],[-94.600044,32.629102],[-94.600011,32.628355],[-94.600323,32.628195],[-94.601285,32.628349],[-94.603168,32.628052],[-94.604221,32.628348],[-94.605397,32.629019],[-94.606658,32.628831],[-94.60823,32.628995],[-94.609503,32.628176],[-94.609594,32.627483],[-94.610405,32.626312],[-94.610314,32.625916],[-94.609235,32.625108],[-94.608958,32.624509],[-94.610317,32.624475],[-94.611323,32.62365],[-94.613071,32.624325],[-94.61311,32.623562],[-94.612304,32.623111],[-94.612232,32.622797],[-94.612479,32.62266],[-94.613414,32.622896],[-94.613856,32.622423],[-94.613921,32.622115],[-94.613635,32.621801],[-94.614122,32.621581],[-94.613666,32.621136],[-94.613289,32.619889],[-94.614277,32.619454],[-94.614036,32.619185],[-94.614347,32.618822],[-94.614198,32.618624],[-94.613093,32.61852],[-94.613463,32.617832],[-94.613866,32.617998],[-94.614399,32.617782],[-94.613742,32.617585],[-94.613625,32.616947],[-94.613004,32.616694],[-94.613268,32.616303],[-94.613683,32.616189],[-94.61382,32.615419],[-94.613293,32.614441],[-94.613767,32.614374],[-94.614279,32.613725],[-94.614441,32.61311],[-94.614909,32.612768],[-94.614733,32.612323],[-94.615207,32.61245],[-94.615572,32.613219],[-94.616299,32.613076],[-94.616591,32.612581],[-94.617078,32.613043],[-94.617987,32.612674],[-94.618059,32.612162],[-94.618461,32.611882],[-94.618565,32.610947],[-94.618941,32.610595],[-94.619344,32.610666],[-94.619727,32.610204],[-94.619953,32.608819],[-94.619563,32.608336],[-94.620297,32.608005],[-94.620712,32.607027],[-94.621277,32.607642],[-94.62155,32.607598],[-94.621705,32.607109],[-94.622088,32.606911],[-94.622524,32.607136],[-94.622531,32.60752],[-94.623297,32.607405],[-94.623355,32.606838],[-94.62368,32.606843],[-94.623667,32.606151],[-94.623316,32.605414],[-94.622847,32.605425],[-94.622717,32.604782],[-94.622918,32.604348],[-94.622093,32.604321],[-94.621923,32.603117],[-94.622008,32.60282],[-94.622476,32.603106],[-94.623391,32.6025],[-94.622579,32.60233],[-94.622987,32.601929],[-94.623038,32.601043],[-94.624108,32.601118],[-94.629983,32.602712],[-94.63165,32.602785],[-94.650792,32.5996],[-94.652635,32.599791],[-94.658557,32.601199],[-94.66967,32.600352],[-94.682049,32.600103],[-94.684053,32.600526],[-94.687191,32.601839],[-94.692464,32.605604],[-94.695785,32.60718],[-94.697828,32.607649],[-94.70183,32.607808],[-94.701786,32.652196],[-94.702069,32.692392],[-94.701027,32.692754],[-94.698702,32.691009],[-94.691252,32.681649],[-94.688487,32.679668],[-94.684763,32.677408],[-94.674522,32.674228],[-94.667785,32.672614]]]}},{"type":"Feature","properties":{"PRECINCT":"16","VTD":"0016"},"geometry":{"type":"Polygon","coordinates":[[[-94.70214,32.793088],[-94.583414,32.732601],[-94.584186,32.73013],[-94.583446,32.727396],[-94.582722,32.72668],[-94.57937,32.725734],[-94.578809,32.72524],[-94.578563,32.724436],[-94.578464,32.7196],[-94.579832,32.716726],[-94.580086,32.714059],[-94.580163,32.697573],[-94.586753,32.697553],[-94.58769,32.697709],[-94.587891,32.698273],[-94.587925,32.703188],[-94.592211,32.703557],[-94.592824,32.704883],[-94.592888,32.705852],[-94.593505,32.706322],[-94.600458,32.706314],[-94.601262,32.706161],[-94.601807,32.705787],[-94.604899,32.70213],[-94.61139,32.701962],[-94.610829,32.700911],[-94.612967,32.700546],[-94.613966,32.699867],[-94.61527,32.700259],[-94.615375,32.698515],[-94.615749,32.698006],[-94.61731,32.697861],[-94.617962,32.697543],[-94.618228,32.696395],[-94.617671,32.695696],[-94.617423,32.69458],[-94.616351,32.693324],[-94.616282,32.692081],[-94.617104,32.690188],[-94.620191,32.689513],[-94.620345,32.686929],[-94.622218,32.686576],[-94.622143,32.679441],[-94.627255,32.679851],[-94.631144,32.679713],[-94.635909,32.678607],[-94.648451,32.674366],[-94.65464,32.672936],[-94.659515,32.672384],[-94.666525,32.672476],[-94.671564,32.673444],[-94.684763,32.677408],[-94.688487,32.679668],[-94.691252,32.681649],[-94.698702,32.691009],[-94.701027,32.692754],[-94.702069,32.692392],[-94.70214,32.793088]]]}},{"type":"Feature","properties":{"PRECINCT":"18","VTD":"0018"},"geometry":{"type":"Polygon","coordinates":[[[-94.247783,32.626595],[-94.247281,32.626565],[-94.237472,32.630119],[-94.202361,32.625456],[-94.212049,32.619979],[-94.213223,32.619031],[-94.217504,32.614373],[-94.225435,32.610117],[-94.251781,32.591274],[-94.253294,32.590472],[-94.261652,32.587251],[-94.262617,32.58642],[-94.268829,32.579097],[-94.278878,32.571906],[-94.283238,32.568488],[-94.28516,32.567321],[-94.291565,32.565257],[-94.29167,32.56565],[-94.291249,32.565798],[-94.291989,32.566908],[-94.292027,32.567573],[-94.292586,32.56776],[-94.293284,32.568513],[-94.294517,32.567686],[-94.294026,32.567309],[-94.294059,32.566766],[-94.296648,32.566217],[-94.295949,32.5645],[-94.302085,32.562503],[-94.303698,32.564074],[-94.306429,32.565968],[-94.309102,32.567264],[-94.311526,32.568119],[-94.313694,32.569694],[-94.319037,32.572393],[-94.319756,32.570917],[-94.320745,32.569901],[-94.32742,32.565458],[-94.326323,32.56398],[-94.326617,32.563008],[-94.327872,32.562818],[-94.329022,32.564448],[-94.327649,32.565299],[-94.327702,32.575341],[-94.328023,32.582691],[-94.3279,32.588949],[-94.32821,32.589332],[-94.331228,32.590208],[-94.333326,32.591875],[-94.331622,32.592665],[-94.328578,32.595654],[-94.319612,32.607391],[-94.319238,32.611337],[-94.319488,32.615262],[-94.319405,32.625219],[-94.318654,32.635578],[-94.318602,32.64076],[-94.31801,32.642918],[-94.318724,32.646404],[-94.318058,32.652289],[-94.317661,32.65306],[-94.314452,32.656295],[-94.312377,32.662203],[-94.311298,32.663564],[-94.309587,32.665079],[-94.307682,32.666333],[-94.303223,32.667364],[-94.297762,32.671849],[-94.296493,32.672572],[-94.295635,32.672584],[-94.292904,32.671706],[-94.292338,32.671232],[-94.285931,32.66865],[-94.285232,32.667728],[-94.283862,32.664672],[-94.28367,32.663612],[-94.28272,32.662186],[-94.282132,32.659896],[-94.280061,32.657459],[-94.278559,32.656532],[-94.273875,32.652803],[-94.27219,32.651787],[-94.267017,32.647317],[-94.26284,32.640205],[-94.2617,32.637154],[-94.257523,32.634356],[-94.253681,32.632879],[-94.250603,32.630189],[-94.247783,32.626595]]]}},{"type":"Feature","properties":{"PRECINCT":"9","VTD":"0009"},"geometry":{"type":"Polygon","coordinates":[[[-94.443264,32.661857],[-94.442438,32.662281],[-94.4419,32.661208],[-94.441392,32.660813],[-94.441659,32.659938],[-94.440937,32.660026],[-94.440541,32.659856],[-94.441126,32.659487],[-94.441093,32.65924],[-94.440489,32.659405],[-94.440359,32.660488],[-94.439787,32.660917],[-94.439858,32.659917],[-94.439507,32.659955],[-94.439209,32.660312],[-94.438636,32.65963],[-94.438597,32.660059],[-94.438318,32.660169],[-94.438072,32.659933],[-94.437727,32.660175],[-94.43709,32.658542],[-94.435361,32.658306],[-94.435225,32.657948],[-94.434042,32.657783],[-94.432872,32.6573],[-94.432508,32.656788],[-94.431714,32.656722],[-94.431175,32.655743],[-94.430649,32.655293],[-94.430572,32.654721],[-94.429961,32.653852],[-94.429492,32.653692],[-94.429525,32.653407],[-94.427998,32.652973],[-94.427653,32.651697],[-94.426932,32.65146],[-94.427055,32.651229],[-94.426776,32.65107],[-94.427003,32.650844],[-94.42779,32.650839],[-94.427413,32.650382],[-94.42701,32.650333],[-94.4274,32.649915],[-94.426899,32.649882],[-94.426893,32.649558],[-94.426257,32.649217],[-94.426204,32.648805],[-94.425619,32.648101],[-94.425652,32.646605],[-94.425191,32.646094],[-94.424515,32.645962],[-94.424333,32.645572],[-94.423696,32.645567],[-94.422897,32.644428],[-94.422625,32.643664],[-94.422956,32.643048],[-94.422885,32.642641],[-94.422021,32.642003],[-94.422255,32.64191],[-94.422527,32.642135],[-94.422547,32.641497],[-94.422001,32.640767],[-94.421501,32.64075],[-94.422034,32.639986],[-94.421612,32.639865],[-94.420747,32.64004],[-94.420832,32.639617],[-94.42035,32.639578],[-94.420546,32.639128],[-94.420156,32.638798],[-94.420013,32.638231],[-94.420669,32.638292],[-94.42076,32.638061],[-94.419889,32.637802],[-94.419728,32.636813],[-94.418831,32.636533],[-94.418987,32.636285],[-94.418279,32.635933],[-94.418292,32.63573],[-94.418961,32.635746],[-94.418994,32.635504],[-94.418617,32.635532],[-94.418507,32.635163],[-94.418974,32.635087],[-94.419098,32.634745],[-94.418746,32.634416],[-94.418487,32.634702],[-94.418363,32.634168],[-94.417837,32.634338],[-94.41759,32.634207],[-94.418124,32.633987],[-94.417285,32.633619],[-94.417746,32.633459],[-94.417701,32.633305],[-94.416817,32.633415],[-94.416928,32.632634],[-94.41659,32.632634],[-94.416188,32.631425],[-94.414758,32.631061],[-94.41598,32.630759],[-94.41585,32.630385],[-94.41561,32.63038],[-94.415942,32.629253],[-94.415246,32.629329],[-94.41574,32.628516],[-94.415363,32.628302],[-94.41563,32.626603],[-94.415506,32.625855],[-94.415078,32.625866],[-94.415292,32.625564],[-94.415043,32.624719],[-94.415315,32.624581],[-94.415757,32.624933],[-94.415601,32.624499],[-94.416212,32.62413],[-94.416258,32.623877],[-94.41577,32.623833],[-94.415361,32.623427],[-94.415673,32.622926],[-94.416069,32.622981],[-94.415849,32.622294],[-94.41631,32.621266],[-94.416752,32.62131],[-94.417226,32.620969],[-94.416849,32.62076],[-94.416882,32.620452],[-94.417246,32.620326],[-94.417395,32.62065],[-94.417934,32.620496],[-94.417701,32.619985],[-94.41733,32.620046],[-94.417213,32.619166],[-94.416226,32.618786],[-94.416226,32.6185],[-94.415683,32.617957],[-94.418881,32.619113],[-94.417484,32.613475],[-94.415885,32.611412],[-94.415271,32.609963],[-94.41528,32.605904],[-94.417109,32.603849],[-94.417324,32.603026],[-94.416538,32.594401],[-94.415973,32.572558],[-94.416219,32.572345],[-94.412122,32.568151],[-94.41004,32.565507],[-94.409138,32.564811],[-94.399574,32.560065],[-94.397907,32.559644],[-94.395574,32.559597],[-94.395527,32.55615],[-94.394887,32.552446],[-94.39516,32.548829],[-94.397503,32.548564],[-94.399203,32.54799],[-94.417099,32.54079],[-94.437667,32.527842],[-94.44086,32.52658],[-94.44088,32.526118],[-94.443275,32.522952],[-94.446246,32.520135],[-94.451256,32.512016],[-94.452722,32.508371],[-94.455848,32.506386],[-94.46207,32.499791],[-94.463904,32.498443],[-94.465269,32.497974],[-94.468391,32.497972],[-94.469147,32.488488],[-94.469098,32.486444],[-94.510174,32.484769],[-94.509062,32.486129],[-94.508165,32.486754],[-94.504328,32.488244],[-94.505574,32.489867],[-94.505816,32.490729],[-94.506041,32.494593],[-94.50576,32.496963],[-94.505921,32.501274],[-94.505665,32.502874],[-94.505853,32.505162],[-94.505608,32.506606],[-94.505991,32.508631],[-94.50709,32.510529],[-94.507255,32.515781],[-94.519746,32.513204],[-94.519765,32.520274],[-94.519486,32.52099],[-94.518259,32.521578],[-94.510768,32.521789],[-94.510438,32.522043],[-94.508537,32.527485],[-94.506115,32.531078],[-94.506933,32.533216],[-94.507801,32.534312],[-94.50757,32.535343],[-94.507816,32.536321],[-94.507424,32.537106],[-94.50824,32.538423],[-94.510848,32.539304],[-94.512186,32.540022],[-94.512964,32.540095],[-94.51691,32.539297],[-94.517281,32.53944],[-94.519151,32.541407],[-94.52161,32.541816],[-94.522812,32.544065],[-94.523026,32.54512],[-94.522284,32.548966],[-94.52244,32.550398],[-94.522674,32.550944],[-94.524036,32.552082],[-94.524054,32.553287],[-94.527004,32.552365],[-94.532822,32.552243],[-94.532546,32.554901],[-94.531841,32.556218],[-94.531975,32.557024],[-94.532462,32.557368],[-94.534355,32.557208],[-94.535734,32.557346],[-94.536573,32.558491],[-94.538974,32.559594],[-94.538966,32.560051],[-94.538369,32.560397],[-94.538284,32.560859],[-94.53894,32.562074],[-94.53914,32.565345],[-94.53955,32.565676],[-94.539556,32.566027],[-94.54001,32.566247],[-94.540017,32.566753],[-94.540855,32.567111],[-94.540075,32.568045],[-94.540626,32.56865],[-94.540646,32.568935],[-94.540159,32.569243],[-94.540619,32.570101],[-94.540594,32.570783],[-94.540963,32.571723],[-94.540911,32.571998],[-94.540048,32.572647],[-94.54017,32.572828],[-94.539645,32.573735],[-94.540547,32.574807],[-94.540417,32.57523],[-94.539326,32.575615],[-94.538969,32.576209],[-94.539105,32.578199],[-94.538624,32.579481],[-94.538845,32.579876],[-94.538909,32.581751],[-94.539033,32.582108],[-94.539799,32.582509],[-94.539578,32.582939],[-94.539643,32.583824],[-94.539117,32.583801],[-94.539026,32.584066],[-94.539851,32.585209],[-94.539616,32.585352],[-94.539453,32.58683],[-94.539629,32.58749],[-94.53994,32.587518],[-94.539895,32.588002],[-94.540233,32.58809],[-94.540012,32.588216],[-94.540045,32.588651],[-94.540628,32.58902],[-94.540837,32.589619],[-94.541589,32.589696],[-94.541551,32.589954],[-94.541232,32.590064],[-94.541693,32.590487],[-94.54144,32.590751],[-94.54196,32.591235],[-94.541712,32.591718],[-94.5432,32.592664],[-94.543492,32.59422],[-94.544089,32.595285],[-94.535315,32.593134],[-94.533467,32.59202],[-94.530621,32.591255],[-94.527672,32.590003],[-94.527493,32.591916],[-94.526863,32.592743],[-94.527137,32.59439],[-94.526771,32.596319],[-94.525649,32.597012],[-94.52523,32.597741],[-94.525189,32.59856],[-94.525744,32.600188],[-94.525741,32.601086],[-94.524425,32.601882],[-94.523277,32.60351],[-94.523137,32.607823],[-94.522997,32.608052],[-94.522249,32.608049],[-94.522351,32.613788],[-94.52074,32.613986],[-94.520779,32.615613],[-94.521369,32.616521],[-94.5207,32.617554],[-94.520588,32.619154],[-94.520295,32.619747],[-94.518892,32.620335],[-94.518619,32.620791],[-94.518677,32.622067],[-94.519132,32.622072],[-94.519918,32.622815],[-94.519833,32.623106],[-94.52008,32.623359],[-94.520145,32.624195],[-94.519545,32.625],[-94.520023,32.62622],[-94.519113,32.626352],[-94.518782,32.626852],[-94.517547,32.626417],[-94.516175,32.626628],[-94.51465,32.627935],[-94.514479,32.629116],[-94.513973,32.62905],[-94.513987,32.6279],[-94.513571,32.627658],[-94.512336,32.628901],[-94.511413,32.628884],[-94.510107,32.629416],[-94.509807,32.630621],[-94.508431,32.6304],[-94.508092,32.630603],[-94.508053,32.631186],[-94.507254,32.631059],[-94.507182,32.631796],[-94.506506,32.631427],[-94.506168,32.631504],[-94.506175,32.631751],[-94.506636,32.632076],[-94.506006,32.632675],[-94.506746,32.633165],[-94.506362,32.633583],[-94.506284,32.634379],[-94.504665,32.634824],[-94.504549,32.63511],[-94.504795,32.635633],[-94.504054,32.636187],[-94.501748,32.635784],[-94.500668,32.636972],[-94.498772,32.636672],[-94.497336,32.637251],[-94.494697,32.636856],[-94.493501,32.635438],[-94.492988,32.63529],[-94.49232,32.636439],[-94.491793,32.636737],[-94.491573,32.636582],[-94.491486,32.635109],[-94.490973,32.634895],[-94.489174,32.636039],[-94.488622,32.636985],[-94.487823,32.636419],[-94.486972,32.636238],[-94.485822,32.63648],[-94.485179,32.636047],[-94.484606,32.636173],[-94.483775,32.636932],[-94.482281,32.637334],[-94.482925,32.639527],[-94.482211,32.64017],[-94.482178,32.640929],[-94.481484,32.641133],[-94.480794,32.640458],[-94.479599,32.64121],[-94.479535,32.6417],[-94.478554,32.6423],[-94.477761,32.64197],[-94.478313,32.641481],[-94.478202,32.641239],[-94.477696,32.640986],[-94.477227,32.641145],[-94.476045,32.642218],[-94.475955,32.64307],[-94.475254,32.643675],[-94.475468,32.645154],[-94.475183,32.645737],[-94.474708,32.646226],[-94.472474,32.647481],[-94.471389,32.648916],[-94.470746,32.648773],[-94.470291,32.64973],[-94.469855,32.649746],[-94.469407,32.649048],[-94.468828,32.649658],[-94.467328,32.649428],[-94.466924,32.649599],[-94.466827,32.649972],[-94.46545,32.650242],[-94.465235,32.649582],[-94.463837,32.649434],[-94.463377,32.649814],[-94.462557,32.649929],[-94.461499,32.650463],[-94.460355,32.651595],[-94.459062,32.651854],[-94.456898,32.651487],[-94.455825,32.650816],[-94.455851,32.649683],[-94.456572,32.649221],[-94.457203,32.649365],[-94.457612,32.649215],[-94.458177,32.648094],[-94.457775,32.647622],[-94.456611,32.647116],[-94.454395,32.648221],[-94.453089,32.647897],[-94.452374,32.64881],[-94.452127,32.649899],[-94.45151,32.6503],[-94.450685,32.650321],[-94.450814,32.649568],[-94.450315,32.649255],[-94.449112,32.649261],[-94.448404,32.650514],[-94.447202,32.65046],[-94.446291,32.6508],[-94.445623,32.651834],[-94.445383,32.653423],[-94.445883,32.65488],[-94.445863,32.656139],[-94.446643,32.65649],[-94.446701,32.656986],[-94.447111,32.65681],[-94.448892,32.657486],[-94.447846,32.658596],[-94.447898,32.660185],[-94.446312,32.661153],[-94.444804,32.662539],[-94.444136,32.662533],[-94.443875,32.662918],[-94.443291,32.66283],[-94.443264,32.661857]]]}},{"type":"Feature","properties":{"PRECINCT":"26","VTD":"0026"},"geometry":{"type":"Polygon","coordinates":[[[-94.303698,32.564074],[-94.302085,32.562503],[-94.295949,32.5645],[-94.296648,32.566217],[-94.294059,32.566766],[-94.294026,32.567309],[-94.294517,32.567686],[-94.293744,32.568373],[-94.293113,32.568543],[-94.292644,32.567804],[-94.292027,32.567573],[-94.291989,32.566908],[-94.291249,32.565798],[-94.29167,32.56565],[-94.291565,32.565257],[-94.294443,32.564293],[-94.298608,32.562218],[-94.30477,32.560729],[-94.301037,32.555922],[-94.300385,32.554695],[-94.298836,32.54678],[-94.297772,32.543189],[-94.296198,32.541379],[-94.292936,32.539833],[-94.291668,32.538912],[-94.290732,32.537689],[-94.290214,32.536148],[-94.290705,32.5318],[-94.293854,32.532597],[-94.294636,32.531822],[-94.293491,32.529558],[-94.293384,32.528643],[-94.29079,32.522379],[-94.299616,32.519618],[-94.301479,32.52353],[-94.304446,32.531506],[-94.306385,32.535976],[-94.312234,32.537493],[-94.312455,32.536662],[-94.312346,32.535373],[-94.314101,32.535416],[-94.313975,32.537841],[-94.313563,32.537804],[-94.309158,32.54424],[-94.311268,32.55318],[-94.310796,32.559055],[-94.316179,32.557686],[-94.323428,32.556692],[-94.32362,32.566535],[-94.325025,32.567028],[-94.320177,32.570382],[-94.319037,32.572393],[-94.313694,32.569694],[-94.311526,32.568119],[-94.309102,32.567264],[-94.306429,32.565968],[-94.303698,32.564074]]]}},{"type":"Feature","properties":{"PRECINCT":"14","VTD":"0014"},"geometry":{"type":"Polygon","coordinates":[[[-94.28374,32.733192],[-94.269545,32.720208],[-94.268514,32.718881],[-94.266877,32.711724],[-94.266473,32.710959],[-94.26375,32.708161],[-94.259806,32.705222],[-94.257065,32.702801],[-94.256412,32.702567],[-94.258575,32.698839],[-94.260291,32.697036],[-94.261633,32.696194],[-94.26387,32.695639],[-94.26519,32.694701],[-94.270528,32.68986],[-94.274442,32.687042],[-94.280183,32.681618],[-94.290737,32.672269],[-94.291876,32.671801],[-94.292904,32.671706],[-94.295635,32.672584],[-94.296864,32.672459],[-94.303133,32.66742],[-94.307682,32.666333],[-94.309587,32.665079],[-94.311792,32.663018],[-94.312662,32.661523],[-94.314096,32.656898],[-94.314881,32.655744],[-94.317661,32.65306],[-94.318058,32.652289],[-94.318725,32.646128],[-94.31801,32.642918],[-94.318602,32.64076],[-94.318654,32.635578],[-94.319427,32.622822],[-94.338009,32.622762],[-94.336494,32.619333],[-94.336199,32.615471],[-94.35065,32.615733],[-94.354689,32.616033],[-94.35492,32.615792],[-94.354719,32.619636],[-94.356935,32.620628],[-94.366447,32.626985],[-94.366315,32.623061],[-94.366685,32.614746],[-94.366063,32.602744],[-94.366349,32.600655],[-94.367861,32.597039],[-94.370596,32.597388],[-94.373091,32.598009],[-94.377696,32.597785],[-94.380922,32.596855],[-94.386799,32.596791],[-94.38856,32.603148],[-94.389761,32.605367],[-94.390633,32.608171],[-94.391576,32.612556],[-94.394942,32.613276],[-94.403466,32.613332],[-94.409695,32.616406],[-94.415683,32.617957],[-94.416226,32.6185],[-94.416226,32.618786],[-94.417213,32.619166],[-94.41733,32.620046],[-94.417701,32.619985],[-94.417928,32.620573],[-94.417395,32.62065],[-94.417324,32.620359],[-94.417005,32.620375],[-94.416849,32.62076],[-94.417226,32.620969],[-94.416752,32.62131],[-94.41631,32.621266],[-94.415849,32.622294],[-94.416069,32.622981],[-94.415673,32.622926],[-94.415361,32.623427],[-94.41577,32.623833],[-94.416212,32.623811],[-94.416245,32.624081],[-94.415621,32.62446],[-94.415757,32.624933],[-94.415315,32.624581],[-94.415043,32.624719],[-94.415292,32.625564],[-94.415078,32.625866],[-94.415506,32.625855],[-94.41563,32.626603],[-94.415363,32.628302],[-94.41574,32.628516],[-94.415246,32.629329],[-94.415942,32.629253],[-94.41561,32.63038],[-94.415876,32.630418],[-94.415966,32.630836],[-94.415473,32.630759],[-94.415194,32.631034],[-94.414758,32.631061],[-94.416188,32.631425],[-94.41659,32.632634],[-94.416928,32.632634],[-94.416817,32.633415],[-94.417701,32.633305],[-94.417746,32.633459],[-94.417285,32.633619],[-94.418124,32.633987],[-94.41759,32.634207],[-94.417837,32.634338],[-94.418363,32.634168],[-94.418487,32.634702],[-94.418746,32.634416],[-94.419098,32.634745],[-94.418974,32.635087],[-94.418507,32.635163],[-94.418617,32.635532],[-94.418994,32.635504],[-94.418961,32.635746],[-94.418292,32.63573],[-94.418279,32.635933],[-94.418987,32.636285],[-94.418831,32.636533],[-94.419728,32.636813],[-94.419889,32.637802],[-94.42076,32.638061],[-94.420669,32.638292],[-94.420013,32.638231],[-94.420156,32.638798],[-94.420546,32.639128],[-94.42035,32.639578],[-94.420832,32.639617],[-94.420747,32.64004],[-94.421612,32.639865],[-94.422034,32.639986],[-94.421501,32.64075],[-94.422001,32.640767],[-94.422547,32.641497],[-94.422527,32.642135],[-94.422255,32.64191],[-94.422021,32.642003],[-94.422885,32.642641],[-94.422956,32.643048],[-94.422625,32.643664],[-94.422897,32.644428],[-94.423696,32.645567],[-94.424333,32.645572],[-94.424515,32.645962],[-94.425191,32.646094],[-94.425496,32.646374],[-94.425782,32.647034],[-94.425743,32.648359],[-94.426204,32.648805],[-94.426257,32.649217],[-94.426893,32.649558],[-94.426899,32.649882],[-94.42742,32.649959],[-94.42701,32.650333],[-94.427413,32.650382],[-94.42779,32.650839],[-94.426835,32.6509],[-94.427055,32.651229],[-94.426893,32.651427],[-94.427653,32.651697],[-94.427998,32.652973],[-94.429271,32.653264],[-94.429525,32.653407],[-94.429492,32.653692],[-94.429961,32.653852],[-94.430572,32.654721],[-94.430649,32.655293],[-94.431175,32.655743],[-94.431714,32.656722],[-94.432508,32.656788],[-94.432872,32.6573],[-94.434042,32.657783],[-94.435225,32.657948],[-94.435361,32.658306],[-94.43709,32.658542],[-94.437727,32.660175],[-94.438072,32.659933],[-94.438318,32.660169],[-94.438597,32.660059],[-94.438636,32.65963],[-94.439209,32.660312],[-94.439507,32.659955],[-94.439858,32.659917],[-94.439787,32.660917],[-94.440359,32.660488],[-94.440489,32.659405],[-94.441093,32.65924],[-94.441126,32.659487],[-94.440541,32.659856],[-94.440937,32.660026],[-94.441659,32.659938],[-94.441392,32.660813],[-94.4419,32.661208],[-94.442438,32.662281],[-94.443212,32.661835],[-94.443407,32.662902],[-94.443875,32.662918],[-94.444136,32.662533],[-94.444804,32.662539],[-94.445696,32.663325],[-94.446761,32.663677],[-94.446456,32.664716],[-94.445604,32.665188],[-94.44474,32.666657],[-94.444519,32.667723],[-94.443804,32.667536],[-94.443441,32.667784],[-94.443896,32.669103],[-94.443155,32.670038],[-94.442686,32.671423],[-94.442797,32.671736],[-94.443668,32.672149],[-94.443843,32.672666],[-94.443285,32.675267],[-94.44218,32.675613],[-94.440796,32.675403],[-94.440275,32.676245],[-94.439086,32.676652],[-94.43815,32.677598],[-94.436869,32.677774],[-94.434405,32.677378],[-94.433956,32.676652],[-94.432292,32.676685],[-94.431447,32.675459],[-94.432058,32.674678],[-94.431629,32.674304],[-94.431031,32.674662],[-94.430148,32.674508],[-94.425097,32.672352],[-94.424349,32.672341],[-94.42253,32.672852],[-94.422171,32.673138],[-94.422268,32.674001],[-94.421365,32.676085],[-94.421547,32.676502],[-94.422763,32.677393],[-94.422807,32.678141],[-94.422457,32.678713],[-94.421462,32.678927],[-94.419688,32.677987],[-94.419141,32.678289],[-94.418497,32.677773],[-94.417321,32.678366],[-94.416151,32.68073],[-94.41476,32.680707],[-94.414642,32.681115],[-94.414103,32.680922],[-94.414058,32.680284],[-94.412433,32.679014],[-94.411094,32.678574],[-94.409194,32.679063],[-94.409033,32.679437],[-94.409299,32.679937],[-94.408993,32.680652],[-94.407192,32.680525],[-94.406834,32.6818],[-94.405384,32.682547],[-94.405059,32.682103],[-94.403316,32.683987],[-94.402763,32.685687],[-94.40338,32.687545],[-94.403439,32.688754],[-94.403158,32.689788],[-94.401949,32.68987],[-94.401448,32.690684],[-94.400863,32.690909],[-94.400492,32.690832],[-94.400005,32.690189],[-94.399055,32.690474],[-94.398522,32.690754],[-94.398301,32.691452],[-94.396779,32.692282],[-94.394816,32.692661],[-94.392468,32.69442],[-94.390783,32.694377],[-94.387062,32.693334],[-94.384825,32.693133],[-94.383287,32.693591],[-94.382012,32.694574],[-94.380225,32.695121],[-94.379141,32.695166],[-94.378003,32.695621],[-94.377244,32.696468],[-94.376538,32.69688],[-94.376187,32.697612],[-94.3744,32.697974],[-94.374048,32.698226],[-94.372586,32.700286],[-94.371692,32.702735],[-94.37272,32.703079],[-94.372829,32.703744],[-94.372503,32.704155],[-94.370148,32.704063],[-94.368956,32.704451],[-94.36836,32.704428],[-94.367522,32.703535],[-94.367331,32.701382],[-94.367088,32.701038],[-94.366439,32.700741],[-94.364516,32.70051],[-94.363703,32.700624],[-94.362672,32.701151],[-94.361724,32.703532],[-94.358745,32.704607],[-94.357204,32.705581],[-94.354906,32.705869],[-94.353462,32.705131],[-94.352646,32.705155],[-94.352125,32.705434],[-94.351649,32.70589],[-94.351642,32.706382],[-94.348875,32.708571],[-94.347841,32.709125],[-94.348041,32.709679],[-94.347238,32.710132],[-94.347337,32.711085],[-94.346746,32.711726],[-94.346591,32.712417],[-94.345774,32.713052],[-94.34372,32.713698],[-94.341692,32.71504],[-94.340001,32.715432],[-94.339228,32.716545],[-94.336979,32.716444],[-94.336253,32.716092],[-94.334952,32.716075],[-94.332502,32.714805],[-94.329181,32.715739],[-94.328273,32.717373],[-94.327881,32.717417],[-94.327926,32.722902],[-94.326876,32.723289],[-94.326525,32.723173],[-94.325935,32.722127],[-94.324751,32.722057],[-94.324238,32.723215],[-94.322916,32.724491],[-94.321917,32.724763],[-94.321326,32.724374],[-94.320947,32.724398],[-94.320408,32.725923],[-94.31941,32.726309],[-94.319302,32.727606],[-94.317496,32.72815],[-94.316391,32.729265],[-94.317009,32.729835],[-94.316902,32.730153],[-94.316256,32.730381],[-94.314234,32.730061],[-94.313375,32.728329],[-94.311005,32.726983],[-94.309794,32.726595],[-94.308662,32.726821],[-94.307988,32.727229],[-94.307558,32.727185],[-94.306212,32.726113],[-94.304649,32.725748],[-94.303491,32.724948],[-94.300097,32.725582],[-94.29937,32.72549],[-94.298725,32.724942],[-94.29816,32.723759],[-94.297783,32.723531],[-94.296434,32.723506],[-94.295545,32.724256],[-94.296137,32.725875],[-94.295434,32.72683],[-94.294625,32.727238],[-94.291877,32.727349],[-94.288588,32.729007],[-94.286541,32.729642],[-94.286242,32.730098],[-94.286269,32.730666],[-94.287694,32.732967],[-94.288059,32.735785],[-94.28374,32.733192]]]}},{"type":"Feature","properties":{"PRECINCT":"5","VTD":"0005"},"geometry":{"type":"Polygon","coordinates":[[[-94.253942,32.750859],[-94.252314,32.750904],[-94.251383,32.750241],[-94.250218,32.750076],[-94.24915,32.750236],[-94.249346,32.749927],[-94.248528,32.749068],[-94.248164,32.746264],[-94.248412,32.745871],[-94.248862,32.745919],[-94.249384,32.746524],[-94.250107,32.746611],[-94.250662,32.74526],[-94.248255,32.744242],[-94.247154,32.743344],[-94.246565,32.743471],[-94.24598,32.744201],[-94.247128,32.746656],[-94.246865,32.748797],[-94.246072,32.750102],[-94.245547,32.750538],[-94.244397,32.750876],[-94.242809,32.75073],[-94.242299,32.750077],[-94.241467,32.748066],[-94.239623,32.74584],[-94.23771,32.744833],[-94.235718,32.744258],[-94.235011,32.743383],[-94.235062,32.743989],[-94.233823,32.742599],[-94.232451,32.739348],[-94.232282,32.738313],[-94.232484,32.736515],[-94.233351,32.734151],[-94.233059,32.732186],[-94.231412,32.730619],[-94.228352,32.728588],[-94.225799,32.727957],[-94.225175,32.727588],[-94.225278,32.726895],[-94.226018,32.72544],[-94.227976,32.724168],[-94.227911,32.723231],[-94.227202,32.722813],[-94.227276,32.722175],[-94.22906,32.721094],[-94.231803,32.721711],[-94.233157,32.721515],[-94.233658,32.721035],[-94.23353,32.720582],[-94.232792,32.720236],[-94.231185,32.720131],[-94.230874,32.719789],[-94.230233,32.718459],[-94.230169,32.717506],[-94.230652,32.716865],[-94.231331,32.716598],[-94.231863,32.716659],[-94.232391,32.717149],[-94.232879,32.718453],[-94.234006,32.718956],[-94.235567,32.718173],[-94.23609,32.717403],[-94.236062,32.716644],[-94.235722,32.715526],[-94.23294,32.713336],[-94.229948,32.71204],[-94.226458,32.71098],[-94.224298,32.709344],[-94.223818,32.708169],[-94.223464,32.705187],[-94.222628,32.70337],[-94.221257,32.702734],[-94.219422,32.702486],[-94.218042,32.702541],[-94.215547,32.701821],[-94.214046,32.701622],[-94.212541,32.702502],[-94.210648,32.703154],[-94.207722,32.703553],[-94.205846,32.703582],[-94.202485,32.702373],[-94.192255,32.697953],[-94.187781,32.696898],[-94.182425,32.696287],[-94.176401,32.694694],[-94.175259,32.694668],[-94.173328,32.695305],[-94.172136,32.6969],[-94.170661,32.702615],[-94.168344,32.707782],[-94.166835,32.710326],[-94.163763,32.712922],[-94.162907,32.714278],[-94.162381,32.715903],[-94.16251,32.7191],[-94.162177,32.7205],[-94.161631,32.721448],[-94.157551,32.724591],[-94.155902,32.725488],[-94.153799,32.726018],[-94.152704,32.726057],[-94.15067,32.725724],[-94.149636,32.726167],[-94.149357,32.727125],[-94.149843,32.729202],[-94.149445,32.729756],[-94.147904,32.731048],[-94.146282,32.731881],[-94.144941,32.732148],[-94.144249,32.73296],[-94.14429,32.734856],[-94.146208,32.738786],[-94.146139,32.739632],[-94.145501,32.740377],[-94.143428,32.74148],[-94.142218,32.74155],[-94.14125,32.741316],[-94.139802,32.739939],[-94.139146,32.739788],[-94.136276,32.740053],[-94.134318,32.739816],[-94.13315,32.738747],[-94.131574,32.738452],[-94.12796,32.73977],[-94.125175,32.73994],[-94.122749,32.739418],[-94.119595,32.737573],[-94.117716,32.737248],[-94.116399,32.737384],[-94.114484,32.738218],[-94.111969,32.738047],[-94.111374,32.737461],[-94.1106,32.73569],[-94.109777,32.734889],[-94.107342,32.73381],[-94.106707,32.734089],[-94.10616,32.73612],[-94.103007,32.738081],[-94.101706,32.738456],[-94.101032,32.738143],[-94.100652,32.737115],[-94.10044,32.73533],[-94.099888,32.734332],[-94.098611,32.733272],[-94.096673,32.732644],[-94.095811,32.732969],[-94.095194,32.732786],[-94.094344,32.732885],[-94.094207,32.733231],[-94.094465,32.734169],[-94.092738,32.734269],[-94.092528,32.732434],[-94.091604,32.73137],[-94.091802,32.730659],[-94.09099,32.72983],[-94.091501,32.729301],[-94.092269,32.728668],[-94.092901,32.728463],[-94.094048,32.729037],[-94.094981,32.729189],[-94.095814,32.728872],[-94.101649,32.725871],[-94.102263,32.725415],[-94.102411,32.724875],[-94.101811,32.723926],[-94.1006,32.723965],[-94.098773,32.723572],[-94.096228,32.725515],[-94.094262,32.725759],[-94.092205,32.725558],[-94.091313,32.725116],[-94.090579,32.72322],[-94.088467,32.722816],[-94.087789,32.722027],[-94.087786,32.721301],[-94.088479,32.720652],[-94.091947,32.718916],[-94.092632,32.718105],[-94.092092,32.716744],[-94.092349,32.71589],[-94.092875,32.715684],[-94.096046,32.715918],[-94.096446,32.715],[-94.095714,32.713864],[-94.095458,32.712779],[-94.095769,32.712193],[-94.102172,32.711425],[-94.104039,32.71164],[-94.10431,32.713088],[-94.104824,32.714134],[-94.106022,32.714434],[-94.107116,32.713691],[-94.108702,32.713274],[-94.109578,32.713443],[-94.110099,32.714747],[-94.11095,32.715367],[-94.113012,32.715051],[-94.11511,32.714009],[-94.116354,32.712515],[-94.117976,32.70933],[-94.117925,32.708675],[-94.117205,32.707248],[-94.113809,32.704654],[-94.112131,32.703705],[-94.109945,32.703075],[-94.107613,32.702848],[-94.10576,32.703181],[-94.103237,32.704899],[-94.101163,32.705489],[-94.09936,32.705572],[-94.098244,32.704684],[-94.097203,32.702988],[-94.096238,32.70231],[-94.095537,32.700948],[-94.094538,32.699825],[-94.093059,32.696171],[-94.0929,32.69197],[-94.092335,32.690374],[-94.090669,32.689232],[-94.08786,32.689025],[-94.08608,32.68977],[-94.083124,32.689998],[-94.074978,32.687093],[-94.071555,32.687349],[-94.068764,32.688216],[-94.067229,32.689238],[-94.060022,32.690337],[-94.055798,32.690627],[-94.047923,32.691889],[-94.044473,32.692896],[-94.043147,32.69303],[-94.042938,32.659726],[-94.043307,32.640446],[-94.043096,32.638909],[-94.042931,32.619442],[-94.043147,32.610783],[-94.042888,32.604474],[-94.049952,32.604367],[-94.053626,32.604027],[-94.079683,32.604225],[-94.08657,32.60505],[-94.104413,32.604355],[-94.104399,32.626099],[-94.146713,32.637102],[-94.14959,32.638362],[-94.151211,32.639727],[-94.1523,32.641209],[-94.166714,32.66474],[-94.168878,32.667459],[-94.168503,32.667621],[-94.168444,32.668072],[-94.169365,32.667939],[-94.171965,32.669942],[-94.171287,32.668965],[-94.17135,32.668515],[-94.172968,32.668902],[-94.182222,32.669028],[-94.182144,32.668364],[-94.184333,32.667168],[-94.184525,32.66418],[-94.184766,32.663577],[-94.182113,32.662137],[-94.180267,32.66345],[-94.178221,32.659946],[-94.177344,32.657156],[-94.177359,32.655505],[-94.177689,32.654417],[-94.178827,32.652188],[-94.187914,32.637524],[-94.195132,32.630134],[-94.195351,32.63024],[-94.198173,32.627808],[-94.202361,32.625456],[-94.237543,32.630118],[-94.24776,32.626504],[-94.250603,32.630189],[-94.253681,32.632879],[-94.257523,32.634356],[-94.2617,32.637154],[-94.26284,32.640205],[-94.267017,32.647317],[-94.27219,32.651787],[-94.277101,32.655206],[-94.278559,32.656532],[-94.280061,32.657459],[-94.281019,32.658451],[-94.282283,32.660114],[-94.28272,32.662186],[-94.28367,32.663612],[-94.283862,32.664672],[-94.285706,32.668465],[-94.288658,32.669882],[-94.292338,32.671232],[-94.292904,32.671706],[-94.291876,32.671801],[-94.290457,32.672489],[-94.280183,32.681618],[-94.274442,32.687042],[-94.270528,32.68986],[-94.264314,32.695383],[-94.261633,32.696194],[-94.260291,32.697036],[-94.258575,32.698839],[-94.256412,32.702567],[-94.257065,32.702801],[-94.259806,32.705222],[-94.26375,32.708161],[-94.266473,32.710959],[-94.26702,32.712282],[-94.268304,32.718446],[-94.269545,32.720208],[-94.28374,32.733192],[-94.288059,32.735785],[-94.287807,32.736564],[-94.286191,32.736078],[-94.285745,32.736661],[-94.285847,32.738933],[-94.285267,32.739772],[-94.285476,32.740505],[-94.284706,32.740916],[-94.284382,32.743379],[-94.284172,32.743813],[-94.282203,32.74504],[-94.283028,32.746729],[-94.28202,32.747536],[-94.28206,32.748647],[-94.280542,32.74958],[-94.279309,32.749698],[-94.277564,32.749496],[-94.275748,32.750479],[-94.275186,32.750533],[-94.272971,32.74908],[-94.272831,32.748628],[-94.27307,32.748285],[-94.27275,32.747371],[-94.27232,32.747051],[-94.271674,32.746911],[-94.270596,32.747292],[-94.268207,32.745825],[-94.266778,32.746046],[-94.264671,32.747468],[-94.263405,32.747621],[-94.261554,32.746247],[-94.260694,32.745902],[-94.260527,32.745375],[-94.259789,32.745267],[-94.259432,32.745565],[-94.259165,32.746689],[-94.259931,32.748043],[-94.259864,32.749618],[-94.258438,32.749297],[-94.257075,32.750592],[-94.256067,32.750467],[-94.25597,32.750741],[-94.256407,32.751357],[-94.256091,32.751792],[-94.253942,32.750859]]]}},{"type":"Feature","properties":{"PRECINCT":"17","VTD":"0017"},"geometry":{"type":"Polygon","coordinates":[[[-94.171965,32.669942],[-94.169365,32.667939],[-94.168444,32.668072],[-94.168503,32.667621],[-94.168878,32.667459],[-94.166714,32.66474],[-94.1523,32.641209],[-94.151211,32.639727],[-94.14959,32.638362],[-94.146713,32.637102],[-94.104399,32.626099],[-94.104638,32.593126],[-94.10441,32.578792],[-94.103714,32.577531],[-94.102845,32.576688],[-94.086775,32.563389],[-94.087366,32.562707],[-94.087502,32.562131],[-94.087473,32.548826],[-94.087744,32.545549],[-94.087951,32.525775],[-94.088511,32.525891],[-94.088365,32.525222],[-94.08796,32.52498],[-94.088083,32.516376],[-94.089345,32.516561],[-94.099234,32.516639],[-94.118279,32.516509],[-94.116829,32.514315],[-94.11096,32.509165],[-94.1107,32.508705],[-94.110589,32.502278],[-94.111391,32.497942],[-94.11116,32.494043],[-94.111396,32.484332],[-94.115822,32.484644],[-94.117685,32.484989],[-94.128609,32.487033],[-94.156753,32.492793],[-94.193082,32.507518],[-94.262956,32.521785],[-94.264769,32.522323],[-94.278479,32.528636],[-94.290705,32.5318],[-94.290169,32.535546],[-94.290615,32.53746],[-94.292214,32.539367],[-94.295977,32.541228],[-94.297643,32.542973],[-94.298836,32.54678],[-94.300385,32.554695],[-94.301037,32.555922],[-94.30477,32.560729],[-94.298608,32.562218],[-94.293592,32.564635],[-94.28648,32.566813],[-94.283947,32.567982],[-94.278878,32.571906],[-94.268829,32.579097],[-94.262617,32.58642],[-94.261652,32.587251],[-94.253294,32.590472],[-94.251781,32.591274],[-94.225435,32.610117],[-94.217504,32.614373],[-94.213223,32.619031],[-94.212049,32.619979],[-94.198173,32.627808],[-94.195351,32.63024],[-94.195132,32.630134],[-94.188792,32.636494],[-94.187402,32.638211],[-94.178827,32.652188],[-94.177861,32.653947],[-94.177359,32.655505],[-94.177344,32.657156],[-94.17771,32.658816],[-94.180267,32.66345],[-94.182113,32.662137],[-94.184766,32.663577],[-94.184525,32.66418],[-94.184333,32.667168],[-94.182144,32.668364],[-94.182222,32.669028],[-94.172968,32.668902],[-94.17135,32.668515],[-94.171287,32.668965],[-94.171965,32.669942]]]}}]}