{"type":"FeatureCollection","features":[{"type":"Feature","properties":{"PRECINCT":"108","VTD":"0108A+0108B+0108C+108A"},"geometry":{"type":"MultiPolygon","coordinates":[[[[-102.252749,31.956098],[-102.251269,31.951402],[-102.246607,31.952529],[-102.246068,31.950908],[-102.24873,31.950291],[-102.251954,31.948369],[-102.248298,31.94397],[-102.248559,31.943812],[-102.247641,31.94272],[-102.244165,31.944816],[-102.243001,31.941164],[-102.232143,31.934156],[-102.229915,31.935445],[-102.229374,31.935088],[-102.228966,31.935552],[-102.224211,31.932514],[-102.222897,31.931418],[-102.221227,31.928982],[-102.220072,31.924906],[-102.221124,31.923926],[-102.224004,31.923369],[-102.223664,31.922096],[-102.220783,31.922653],[-102.220565,31.921836],[-102.221382,31.920764],[-102.22216,31.920171],[-102.227714,31.91713],[-102.27606,31.89212],[-102.27728,31.894383],[-102.279441,31.896806],[-102.265564,31.903523],[-102.253181,31.912915],[-102.251609,31.913675],[-102.247996,31.914545],[-102.249282,31.918184],[-102.250493,31.920119],[-102.252692,31.922197],[-102.255344,31.923645],[-102.256628,31.927701],[-102.262971,31.926044],[-102.280734,31.930299],[-102.274366,31.938447],[-102.276924,31.93782],[-102.264653,31.953469],[-102.263563,31.950032],[-102.257484,31.957799],[-102.255862,31.958196],[-102.255023,31.955542],[-102.252749,31.956098]]],[[[-102.168816,31.991296],[-102.168391,31.988788],[-102.17112,31.988149],[-102.172037,31.991011],[-102.169985,31.991032],[-102.168989,31.991255],[-102.169079,31.991532],[-102.172503,31.991237],[-102.174655,31.990225],[-102.178565,31.989275],[-102.177683,31.98655],[-102.176661,31.986797],[-102.176216,31.98547],[-102.177265,31.985216],[-102.176908,31.984089],[-102.176551,31.984178],[-102.175863,31.982495],[-102.18316,31.980795],[-102.182172,31.977717],[-102.176448,31.979062],[-102.176622,31.979586],[-102.171294,31.980847],[-102.171111,31.980251],[-102.167959,31.980993],[-102.168646,31.982593],[-102.166338,31.983198],[-102.165605,31.980775],[-102.165509,31.978717],[-102.164162,31.974332],[-102.160308,31.975366],[-102.15445,31.97869],[-102.153512,31.977452],[-102.152815,31.975452],[-102.15142,31.975789],[-102.151132,31.975421],[-102.149246,31.969532],[-102.149904,31.969204],[-102.149836,31.96899],[-102.149299,31.969115],[-102.14879,31.968057],[-102.148815,31.966946],[-102.149546,31.965229],[-102.150332,31.965149],[-102.150348,31.96493],[-102.149711,31.964735],[-102.149391,31.963148],[-102.152649,31.962353],[-102.151857,31.959855],[-102.150214,31.96025],[-102.149754,31.958697],[-102.150381,31.958372],[-102.149925,31.956819],[-102.187189,31.937572],[-102.187387,31.938045],[-102.186245,31.938632],[-102.18632,31.938869],[-102.1877,31.939182],[-102.189184,31.94385],[-102.193281,31.941674],[-102.196598,31.946216],[-102.19666,31.947297],[-102.198382,31.947225],[-102.198339,31.946483],[-102.199984,31.946417],[-102.199964,31.945823],[-102.201641,31.945165],[-102.20365,31.964378],[-102.203458,31.967005],[-102.205626,31.966844],[-102.205766,31.968213],[-102.206247,31.968178],[-102.206359,31.969273],[-102.20668,31.969249],[-102.206569,31.968154],[-102.20705,31.968118],[-102.206911,31.966749],[-102.209079,31.966589],[-102.208359,31.96403],[-102.208574,31.964015],[-102.20741,31.952574],[-102.212386,31.950584],[-102.215781,31.952278],[-102.21712,31.950184],[-102.220899,31.951586],[-102.223226,31.952841],[-102.22616,31.953917],[-102.226321,31.953602],[-102.227989,31.954223],[-102.230291,31.955454],[-102.231161,31.953754],[-102.232639,31.954303],[-102.232832,31.953926],[-102.234014,31.954365],[-102.234143,31.954113],[-102.232961,31.953674],[-102.233154,31.953296],[-102.231677,31.952746],[-102.232548,31.951047],[-102.229923,31.950444],[-102.228255,31.949823],[-102.228416,31.949509],[-102.225456,31.948407],[-102.222835,31.947807],[-102.219374,31.946519],[-102.220308,31.944974],[-102.218667,31.941986],[-102.221211,31.940971],[-102.217886,31.936126],[-102.2242,31.932886],[-102.239599,31.942827],[-102.242617,31.945403],[-102.244354,31.947657],[-102.245695,31.950361],[-102.251024,31.967265],[-102.249508,31.967791],[-102.248953,31.969061],[-102.247769,31.967902],[-102.244242,31.970477],[-102.247804,31.97406],[-102.247393,31.974345],[-102.245816,31.97517],[-102.244332,31.975649],[-102.170229,31.993273],[-102.169776,31.993143],[-102.168816,31.991296]]],[[[-102.149082,31.963228],[-102.149328,31.964632],[-102.148582,31.964708],[-102.148542,31.964925],[-102.149085,31.964998],[-102.149165,31.965371],[-102.148431,31.967272],[-102.148762,31.969065],[-102.148546,31.969291],[-102.145307,31.970036],[-102.145416,31.970366],[-102.148709,31.969481],[-102.148979,31.969742],[-102.150842,31.975655],[-102.150648,31.97586],[-102.147032,31.976728],[-102.143147,31.964687],[-102.149082,31.963228]]],[[[-102.173982,31.986998],[-102.174543,31.986868],[-102.174998,31.987723],[-102.174311,31.987892],[-102.173982,31.986998]]]]}},{"type":"Feature","properties":{"PRECINCT":"101","VTD":"0101"},"geometry":{"type":"Polygon","coordinates":[[[-102.126053,31.968587],[-102.125465,31.966713],[-102.124526,31.966933],[-102.121099,31.963249],[-102.141584,31.952738],[-102.141853,31.95311],[-102.14154,31.953565],[-102.143056,31.954364],[-102.144222,31.95298],[-102.145559,31.952287],[-102.1455,31.952507],[-102.146164,31.952597],[-102.149993,31.950692],[-102.149634,31.950184],[-102.150472,31.949743],[-102.148303,31.946683],[-102.152555,31.944481],[-102.15317,31.945228],[-102.153045,31.945964],[-102.154628,31.948001],[-102.154995,31.94823],[-102.15582,31.94822],[-102.155682,31.947799],[-102.157258,31.946986],[-102.158652,31.948975],[-102.171595,31.942351],[-102.170891,31.940161],[-102.174482,31.938317],[-102.173665,31.936047],[-102.174212,31.935771],[-102.173493,31.93355],[-102.166287,31.937272],[-102.166976,31.939499],[-102.163527,31.941282],[-102.162737,31.939101],[-102.149953,31.945732],[-102.147827,31.942746],[-102.162467,31.935183],[-102.134676,31.941916],[-102.135065,31.941169],[-102.128367,31.912765],[-102.125904,31.904261],[-102.093365,31.800399],[-102.092359,31.800684],[-102.082649,31.77144],[-102.079338,31.762284],[-102.077956,31.759201],[-102.059531,31.70289],[-102.059142,31.700944],[-102.049277,31.672906],[-102.043052,31.653094],[-102.042823,31.651608],[-102.239013,31.651565],[-102.287345,31.651276],[-102.287433,31.873681],[-102.275459,31.879959],[-102.27477,31.87259],[-102.259573,31.881481],[-102.261121,31.886327],[-102.260518,31.886655],[-102.260979,31.887817],[-102.25723,31.889645],[-102.257337,31.890062],[-102.268487,31.884407],[-102.271576,31.888673],[-102.263247,31.892976],[-102.264805,31.897935],[-102.227714,31.91713],[-102.2214,31.92075],[-102.220631,31.919666],[-102.224766,31.917531],[-102.224571,31.917014],[-102.220847,31.917909],[-102.220001,31.915249],[-102.219134,31.915459],[-102.218949,31.91493],[-102.218772,31.914972],[-102.218945,31.915503],[-102.216946,31.916025],[-102.218933,31.922261],[-102.216148,31.923096],[-102.212006,31.925437],[-102.210548,31.920943],[-102.211761,31.920318],[-102.21115,31.91841],[-102.20968,31.919092],[-102.211818,31.925682],[-102.210986,31.926428],[-102.210531,31.925776],[-102.205322,31.928375],[-102.204776,31.927667],[-102.204925,31.925788],[-102.202758,31.925948],[-102.202618,31.924579],[-102.202137,31.924615],[-102.202025,31.923519],[-102.201704,31.923543],[-102.201816,31.924638],[-102.201334,31.924674],[-102.201474,31.926043],[-102.199306,31.926203],[-102.200352,31.92992],[-102.200887,31.930667],[-102.187381,31.937658],[-102.187151,31.936927],[-102.140533,31.961111],[-102.140536,31.959847],[-102.13975,31.95994],[-102.139812,31.961481],[-102.126053,31.968587]]]}},{"type":"Feature","properties":{"PRECINCT":"102","VTD":"0102"},"geometry":{"type":"Polygon","coordinates":[[[-102.148544,31.999123],[-102.146263,31.99205],[-102.145271,31.99228],[-102.144286,31.991009],[-102.1436,31.988951],[-102.141235,31.98597],[-102.144927,31.983792],[-102.146484,31.981823],[-102.147758,31.981809],[-102.148742,31.981574],[-102.148629,31.981219],[-102.149931,31.981078],[-102.160104,31.975462],[-102.164162,31.974332],[-102.165509,31.978717],[-102.165605,31.980775],[-102.166338,31.983198],[-102.168646,31.982593],[-102.167959,31.980993],[-102.171111,31.980251],[-102.171294,31.980847],[-102.176622,31.979586],[-102.176448,31.979062],[-102.182172,31.977717],[-102.18316,31.980795],[-102.175863,31.982495],[-102.176551,31.984178],[-102.176908,31.984089],[-102.177265,31.985216],[-102.176216,31.98547],[-102.176661,31.986797],[-102.177683,31.98655],[-102.178565,31.989275],[-102.174655,31.990225],[-102.172503,31.991237],[-102.169079,31.991532],[-102.168989,31.991255],[-102.169985,31.991032],[-102.172037,31.991011],[-102.17112,31.988149],[-102.168391,31.988788],[-102.168816,31.991296],[-102.169815,31.993211],[-102.170362,31.993373],[-102.153197,31.997469],[-102.153404,31.998105],[-102.148544,31.999123]],[[-102.174613,31.986988],[-102.173982,31.986998],[-102.174311,31.987892],[-102.174998,31.987723],[-102.174613,31.986988]]]}},{"type":"Feature","properties":{"PRECINCT":"103","VTD":"0103"},"geometry":{"type":"Polygon","coordinates":[[[-102.120392,32.005687],[-102.115844,31.991648],[-102.133262,31.987593],[-102.136688,31.987923],[-102.137687,31.987835],[-102.141235,31.98597],[-102.1436,31.988951],[-102.144286,31.991009],[-102.145271,31.99228],[-102.146263,31.99205],[-102.148544,31.999123],[-102.120392,32.005687]]]}},{"type":"Feature","properties":{"PRECINCT":"104","VTD":"0104"},"geometry":{"type":"Polygon","coordinates":[[[-102.100097,31.992565],[-102.111915,31.979909],[-102.115844,31.991648],[-102.099815,31.995398],[-102.098625,31.993424],[-102.100097,31.992565]]]}},{"type":"Feature","properties":{"PRECINCT":"105","VTD":"0105"},"geometry":{"type":"Polygon","coordinates":[[[-102.112777,31.982079],[-102.115631,31.981488],[-102.115928,31.979585],[-102.13031,31.980678],[-102.132416,31.987752],[-102.115844,31.991648],[-102.112777,31.982079]]]}},{"type":"Feature","properties":{"PRECINCT":"106","VTD":"0106"},"geometry":{"type":"Polygon","coordinates":[[[-102.170362,31.993373],[-102.169776,31.993143],[-102.170229,31.993273],[-102.177127,31.991768],[-102.244332,31.975649],[-102.246286,31.974963],[-102.247804,31.97406],[-102.244242,31.970477],[-102.247769,31.967902],[-102.248953,31.969061],[-102.249508,31.967791],[-102.251024,31.967265],[-102.245808,31.950679],[-102.244691,31.948219],[-102.242617,31.945403],[-102.240199,31.943249],[-102.2242,31.932886],[-102.217857,31.93616],[-102.221211,31.940971],[-102.218667,31.941986],[-102.220308,31.944974],[-102.219374,31.946519],[-102.222835,31.947807],[-102.225456,31.948407],[-102.228416,31.949509],[-102.228255,31.949823],[-102.229923,31.950444],[-102.232548,31.951047],[-102.231677,31.952746],[-102.233154,31.953296],[-102.232961,31.953674],[-102.234143,31.954113],[-102.234014,31.954365],[-102.232832,31.953926],[-102.232639,31.954303],[-102.231161,31.953754],[-102.230291,31.955454],[-102.227989,31.954223],[-102.226321,31.953602],[-102.22616,31.953917],[-102.223226,31.952841],[-102.220899,31.951586],[-102.21712,31.950184],[-102.215781,31.952278],[-102.212386,31.950584],[-102.20741,31.952574],[-102.208574,31.964015],[-102.208359,31.96403],[-102.209079,31.966589],[-102.206911,31.966749],[-102.20705,31.968118],[-102.206569,31.968154],[-102.20668,31.969249],[-102.206359,31.969273],[-102.206247,31.968178],[-102.205766,31.968213],[-102.205626,31.966844],[-102.203458,31.967005],[-102.20365,31.964378],[-102.201641,31.945165],[-102.199964,31.945823],[-102.199984,31.946417],[-102.198339,31.946483],[-102.198382,31.947225],[-102.19666,31.947297],[-102.196598,31.946216],[-102.193281,31.941674],[-102.189184,31.94385],[-102.1877,31.939182],[-102.18632,31.938869],[-102.186245,31.938632],[-102.187387,31.938045],[-102.187189,31.937572],[-102.149925,31.956819],[-102.150381,31.958372],[-102.149754,31.958697],[-102.150214,31.96025],[-102.151857,31.959855],[-102.152649,31.962353],[-102.149391,31.963148],[-102.149711,31.964735],[-102.150348,31.96493],[-102.150332,31.965149],[-102.149546,31.965229],[-102.148815,31.966946],[-102.14879,31.968057],[-102.149299,31.969115],[-102.149836,31.96899],[-102.149904,31.969204],[-102.149246,31.969532],[-102.151132,31.975421],[-102.15142,31.975789],[-102.152815,31.975452],[-102.153512,31.977452],[-102.15445,31.97869],[-102.149931,31.981078],[-102.148629,31.981219],[-102.148742,31.981574],[-102.147598,31.981837],[-102.146484,31.981823],[-102.145713,31.983036],[-102.14463,31.984011],[-102.13832,31.987631],[-102.136962,31.987925],[-102.133766,31.987559],[-102.132385,31.987808],[-102.132438,31.987349],[-102.128051,31.973596],[-102.128128,31.971878],[-102.127144,31.969051],[-102.126747,31.968765],[-102.12686,31.968167],[-102.139812,31.961481],[-102.13975,31.95994],[-102.140536,31.959847],[-102.140533,31.961111],[-102.187151,31.936927],[-102.187381,31.937658],[-102.200887,31.930667],[-102.200352,31.92992],[-102.199306,31.926203],[-102.201474,31.926043],[-102.201334,31.924674],[-102.201816,31.924638],[-102.201704,31.923543],[-102.202025,31.923519],[-102.202137,31.924615],[-102.202618,31.924579],[-102.202758,31.925948],[-102.204925,31.925788],[-102.204776,31.927667],[-102.205322,31.928375],[-102.210531,31.925776],[-102.210986,31.926428],[-102.211818,31.925682],[-102.20968,31.919092],[-102.21115,31.91841],[-102.211761,31.920318],[-102.210548,31.920943],[-102.212006,31.925437],[-102.216148,31.923096],[-102.218933,31.922261],[-102.216946,31.916025],[-102.218945,31.915503],[-102.218772,31.914972],[-102.218949,31.91493],[-102.219134,31.915459],[-102.220001,31.915249],[-102.220847,31.917909],[-102.224571,31.917014],[-102.224766,31.917531],[-102.220631,31.919666],[-102.2214,31.92075],[-102.220565,31.921836],[-102.220783,31.922653],[-102.223664,31.922096],[-102.224004,31.923369],[-102.221124,31.923926],[-102.220072,31.924906],[-102.221147,31.928789],[-102.2221,31.930489],[-102.224011,31.932374],[-102.228966,31.935552],[-102.229374,31.935088],[-102.229915,31.935445],[-102.232143,31.934156],[-102.243001,31.941164],[-102.244165,31.944816],[-102.247641,31.94272],[-102.248559,31.943812],[-102.248298,31.94397],[-102.251954,31.948369],[-102.24873,31.950291],[-102.246068,31.950908],[-102.246607,31.952529],[-102.251269,31.951402],[-102.252749,31.956098],[-102.255023,31.955542],[-102.255862,31.958196],[-102.257484,31.957799],[-102.263563,31.950032],[-102.264653,31.953469],[-102.249961,31.972112],[-102.248939,31.973264],[-102.247123,31.974652],[-102.245376,31.975452],[-102.242294,31.976253],[-102.177512,31.991798],[-102.170362,31.993373]],[[-102.146941,31.976503],[-102.147234,31.976689],[-102.150648,31.97586],[-102.150842,31.975655],[-102.148979,31.969742],[-102.148709,31.969481],[-102.145416,31.970366],[-102.145307,31.970036],[-102.148546,31.969291],[-102.148762,31.969065],[-102.148431,31.967272],[-102.149165,31.965371],[-102.149085,31.964998],[-102.148542,31.964925],[-102.148582,31.964708],[-102.149328,31.964632],[-102.149082,31.963228],[-102.143147,31.964687],[-102.146941,31.976503]]]}},{"type":"Feature","properties":{"PRECINCT":"107","VTD":"0107"},"geometry":{"type":"Polygon","coordinates":[[[-102.136917,32.001846],[-102.153404,31.998105],[-102.15789,32.012027],[-102.141433,32.015883],[-102.136917,32.001846]]]}},{"type":"Feature","properties":{"PRECINCT":"109","VTD":"0109"},"geometry":{"type":"Polygon","coordinates":[[[-102.112777,31.982079],[-102.112197,31.980283],[-102.111526,31.979467],[-102.111084,31.976556],[-102.112709,31.975711],[-102.112838,31.975931],[-102.119537,31.972637],[-102.126747,31.968765],[-102.127144,31.969051],[-102.128158,31.972025],[-102.128051,31.973596],[-102.13031,31.980678],[-102.115928,31.979585],[-102.115631,31.981488],[-102.112777,31.982079]]]}},{"type":"Feature","properties":{"PRECINCT":"110","VTD":"0110"},"geometry":{"type":"Polygon","coordinates":[[[-102.158958,32.015166],[-102.158179,32.015008],[-102.158005,32.01477],[-102.158172,32.013741],[-102.158005,32.012374],[-102.153197,31.997469],[-102.244979,31.975577],[-102.247123,31.974652],[-102.248565,31.973596],[-102.252036,31.969346],[-102.252486,31.970816],[-102.256045,31.96619],[-102.257605,31.967112],[-102.258144,31.968077],[-102.258473,31.968213],[-102.258664,31.970319],[-102.257461,31.972647],[-102.256925,31.973087],[-102.252781,31.974177],[-102.253559,31.976727],[-102.238013,31.980461],[-102.239521,31.985229],[-102.237948,31.980577],[-102.237313,31.980427],[-102.214404,31.985851],[-102.213851,31.984104],[-102.170641,31.994573],[-102.170933,31.995555],[-102.180873,32.000246],[-102.18028,32.001037],[-102.180733,32.00126],[-102.179901,32.002485],[-102.180519,32.002787],[-102.180111,32.003221],[-102.179864,32.003163],[-102.178194,32.005629],[-102.176804,32.00596],[-102.174028,32.004742],[-102.176143,32.001597],[-102.17227,31.999685],[-102.17496,32.008072],[-102.174091,32.008283],[-102.174951,32.010969],[-102.173251,32.011493],[-102.172745,32.012047],[-102.16947,32.014165],[-102.166964,32.014896],[-102.168615,32.019944],[-102.169327,32.02126],[-102.162777,32.026017],[-102.162567,32.026049],[-102.159365,32.016138],[-102.158874,32.015414],[-102.158958,32.015166]]]}},{"type":"Feature","properties":{"PRECINCT":"201","VTD":"0201"},"geometry":{"type":"Polygon","coordinates":[[[-101.874931,32.019588],[-101.865225,31.990052],[-101.847864,31.99475],[-101.843291,31.979502],[-101.839607,31.969461],[-101.833526,31.950974],[-101.824722,31.922778],[-101.842552,31.91864],[-101.838859,31.903163],[-101.837448,31.899199],[-101.834831,31.890337],[-101.852134,31.886376],[-101.84951,31.877171],[-101.848289,31.873753],[-101.847389,31.869457],[-101.843979,31.858229],[-101.830009,31.817156],[-101.813911,31.8208],[-101.795486,31.824443],[-101.775886,31.828852],[-101.775932,31.77423],[-101.777481,31.771963],[-101.778091,31.771649],[-101.777664,31.770935],[-101.777862,31.769719],[-101.77819,31.76936],[-101.779151,31.770128],[-101.780051,31.770417],[-101.781189,31.768496],[-101.78308,31.766812],[-101.786209,31.765447],[-101.822723,31.757598],[-101.860786,31.74908],[-101.941765,31.730029],[-101.943318,31.730393],[-101.955116,31.76768],[-102.001815,31.912223],[-102.051162,31.900851],[-102.071823,31.965771],[-102.06808,31.966678],[-102.068737,31.968711],[-102.066631,31.969206],[-102.067268,31.971194],[-102.035148,31.978707],[-102.033474,31.978238],[-102.03247,31.980842],[-102.033905,31.981251],[-102.034076,31.980471],[-102.034764,31.980311],[-102.036226,31.984956],[-102.038959,31.984339],[-102.038567,31.983314],[-102.039199,31.982898],[-102.042251,31.983758],[-102.045173,31.993075],[-102.026527,31.997418],[-102.021682,31.999301],[-102.015144,31.999916],[-101.995254,32.004486],[-101.986205,31.976364],[-101.98648,31.9763],[-101.981857,31.962393],[-101.977134,31.963478],[-101.973778,31.964554],[-101.973144,31.964379],[-101.967628,31.965624],[-101.967633,31.965888],[-101.956619,31.96782],[-101.942238,31.971265],[-101.932025,31.973462],[-101.93366,31.978151],[-101.935004,31.983224],[-101.936653,31.987776],[-101.88671,31.999516],[-101.892013,32.015843],[-101.874931,32.019588]]]}},{"type":"Feature","properties":{"PRECINCT":"202","VTD":"0202"},"geometry":{"type":"Polygon","coordinates":[[[-101.932473,32.086857],[-101.776085,32.086925],[-101.775886,31.828852],[-101.795486,31.824443],[-101.813911,31.8208],[-101.830009,31.817156],[-101.843979,31.858229],[-101.847389,31.869457],[-101.848289,31.873753],[-101.84951,31.877171],[-101.852134,31.886376],[-101.834831,31.890337],[-101.837448,31.899199],[-101.838859,31.903163],[-101.842552,31.91864],[-101.824722,31.922778],[-101.833526,31.950974],[-101.839607,31.969461],[-101.843291,31.979502],[-101.847864,31.99475],[-101.865225,31.990052],[-101.874931,32.019588],[-101.892013,32.015843],[-101.88671,31.999516],[-101.936653,31.987776],[-101.958206,32.054977],[-101.980018,32.043839],[-101.979789,32.044178],[-101.927024,32.071305],[-101.928168,32.073296],[-101.932473,32.086857]]]}},{"type":"Feature","properties":{"PRECINCT":"203","VTD":"0203"},"geometry":{"type":"Polygon","coordinates":[[[-102.037475,32.086786],[-101.969962,32.086784],[-101.993118,32.080601],[-102.018194,32.074596],[-102.013679,32.061466],[-101.999541,32.017551],[-101.99929,32.017333],[-101.995414,32.004447],[-102.015144,31.999916],[-102.021682,31.999301],[-102.026527,31.997418],[-102.045173,31.993075],[-102.050094,32.008029],[-102.05435,32.005978],[-102.050101,32.008164],[-102.050285,32.008793],[-102.017677,32.025562],[-102.020157,32.033284],[-102.022201,32.032805],[-102.026618,32.046365],[-102.041007,32.043048],[-102.041556,32.044758],[-102.045097,32.043933],[-102.044044,32.040723],[-102.050849,32.039142],[-102.054118,32.049364],[-102.051511,32.049945],[-102.051659,32.050415],[-102.043939,32.05221],[-102.052905,32.079962],[-102.0365,32.083766],[-102.037475,32.086786]]]}},{"type":"Feature","properties":{"PRECINCT":"204","VTD":"0204"},"geometry":{"type":"Polygon","coordinates":[[[-102.093207,32.086861],[-102.084303,32.059476],[-102.067623,32.063222],[-102.066447,32.058812],[-102.063156,32.049071],[-102.074569,32.046562],[-102.082756,32.043411],[-102.092933,32.04224],[-102.112754,32.037437],[-102.117378,32.051619],[-102.117824,32.051515],[-102.121719,32.065742],[-102.105437,32.06954],[-102.106006,32.071291],[-102.089578,32.075086],[-102.093392,32.086861],[-102.093207,32.086861]]]}},{"type":"Feature","properties":{"PRECINCT":"206","VTD":"0206"},"geometry":{"type":"Polygon","coordinates":[[[-102.085365,32.043072],[-102.086189,32.040194],[-102.086219,32.038089],[-102.083557,32.029404],[-102.124885,32.01979],[-102.127143,32.026741],[-102.110549,32.030581],[-102.112754,32.037437],[-102.092933,32.04224],[-102.085365,32.043072]]]}},{"type":"Feature","properties":{"PRECINCT":"207","VTD":"0207"},"geometry":{"type":"Polygon","coordinates":[[[-102.083724,32.018276],[-102.086906,32.018196],[-102.088135,32.017936],[-102.091003,32.016305],[-102.091987,32.015121],[-102.092849,32.014571],[-102.096069,32.012749],[-102.098274,32.0121],[-102.099494,32.010582],[-102.10382,32.009536],[-102.10836,32.023669],[-102.083557,32.029404],[-102.080642,32.020379],[-102.081573,32.019875],[-102.08271,32.018717],[-102.083724,32.018276]]]}},{"type":"Feature","properties":{"PRECINCT":"208","VTD":"0208"},"geometry":{"type":"Polygon","coordinates":[[[-102.096626,32.00333],[-102.096031,32.001461],[-102.095184,32.001658],[-102.095024,32.000667],[-102.100548,31.999367],[-102.099697,31.996817],[-102.101677,31.996358],[-102.099815,31.995398],[-102.115844,31.991648],[-102.118087,31.998662],[-102.10157,32.002548],[-102.101417,32.002098],[-102.096626,32.00333]]]}},{"type":"Feature","properties":{"PRECINCT":"210","VTD":"0210"},"geometry":{"type":"Polygon","coordinates":[[[-102.11293,32.037975],[-102.110549,32.030581],[-102.127143,32.026741],[-102.129455,32.033867],[-102.123779,32.035438],[-102.11293,32.037975]]]}},{"type":"Feature","properties":{"PRECINCT":"211","VTD":"0211"},"geometry":{"type":"Polygon","coordinates":[[[-102.052905,32.079962],[-102.043939,32.05221],[-102.051659,32.050415],[-102.051511,32.049945],[-102.054015,32.049352],[-102.054702,32.051174],[-102.063156,32.049071],[-102.066447,32.058812],[-102.067623,32.063222],[-102.084303,32.059476],[-102.093207,32.086861],[-102.067819,32.086993],[-102.037475,32.086786],[-102.0365,32.083766],[-102.052905,32.079962]]]}},{"type":"Feature","properties":{"PRECINCT":"302","VTD":"0302"},"geometry":{"type":"Polygon","coordinates":[[[-102.077688,31.968767],[-102.077279,31.967436],[-102.074155,31.968172],[-102.073245,31.965441],[-102.071823,31.965771],[-102.051162,31.900851],[-102.001815,31.912223],[-101.955116,31.76768],[-101.943318,31.730393],[-101.941765,31.730029],[-101.940851,31.730184],[-101.860786,31.74908],[-101.822723,31.757598],[-101.786209,31.765447],[-101.78308,31.766812],[-101.781189,31.768496],[-101.780051,31.770417],[-101.779151,31.770128],[-101.77819,31.76936],[-101.777862,31.769719],[-101.777664,31.770935],[-101.778091,31.771649],[-101.777481,31.771963],[-101.775932,31.77423],[-101.775802,31.651319],[-101.881286,31.651359],[-102.042823,31.651608],[-102.043052,31.653094],[-102.049277,31.672906],[-102.059142,31.700944],[-102.059531,31.70289],[-102.077956,31.759201],[-102.079338,31.762284],[-102.082649,31.77144],[-102.092359,31.800684],[-102.093365,31.800399],[-102.125904,31.904261],[-102.128367,31.912765],[-102.135065,31.941169],[-102.134676,31.941916],[-102.135345,31.941767],[-102.137647,31.948653],[-102.119376,31.958078],[-102.114123,31.960166],[-102.109592,31.961339],[-102.108874,31.959198],[-102.102363,31.960859],[-102.103013,31.962885],[-102.092421,31.965331],[-102.091937,31.963819],[-102.086784,31.965039],[-102.087271,31.966535],[-102.077688,31.968767]]]}},{"type":"Feature","properties":{"PRECINCT":"303","VTD":"0303"},"geometry":{"type":"Polygon","coordinates":[[[-102.111045,31.976578],[-102.11145,31.977973],[-102.11151,31.979413],[-102.111915,31.979909],[-102.100097,31.992565],[-102.098625,31.993424],[-102.096954,31.990468],[-102.093543,31.985607],[-102.111045,31.976578]]]}},{"type":"Feature","properties":{"PRECINCT":"304","VTD":"0304"},"geometry":{"type":"Polygon","coordinates":[[[-102.074317,31.995507],[-102.074127,31.989141],[-102.062828,31.989347],[-102.061569,31.989169],[-102.057456,31.976105],[-102.073944,31.972269],[-102.077194,31.982422],[-102.083969,31.98084],[-102.086563,31.988923],[-102.086456,31.989252],[-102.085631,31.989681],[-102.085815,31.989942],[-102.077964,31.994038],[-102.077949,31.993672],[-102.074317,31.995507]]]}},{"type":"Feature","properties":{"PRECINCT":"305","VTD":"0305"},"geometry":{"type":"Polygon","coordinates":[[[-102.050094,32.008029],[-102.042251,31.983758],[-102.039199,31.982898],[-102.038567,31.983314],[-102.038959,31.984339],[-102.036226,31.984956],[-102.034764,31.980311],[-102.034076,31.980471],[-102.033905,31.981251],[-102.03247,31.980842],[-102.033474,31.978238],[-102.035148,31.978707],[-102.067268,31.971194],[-102.066631,31.969206],[-102.068737,31.968711],[-102.06808,31.966678],[-102.071823,31.965771],[-102.073944,31.972269],[-102.057456,31.976105],[-102.061569,31.989169],[-102.062828,31.989347],[-102.074127,31.989141],[-102.074317,31.995507],[-102.050094,32.008029]]]}},{"type":"Feature","properties":{"PRECINCT":"306","VTD":"0306"},"geometry":{"type":"Polygon","coordinates":[[[-102.055321,32.02447],[-102.050101,32.008164],[-102.077949,31.993672],[-102.078307,32.004879],[-102.079147,32.007897],[-102.078514,32.012898],[-102.078719,32.014298],[-102.080558,32.020122],[-102.079483,32.020302],[-102.07743,32.020018],[-102.074302,32.020341],[-102.069671,32.021385],[-102.068588,32.021435],[-102.055321,32.02447]]]}},{"type":"Feature","properties":{"PRECINCT":"307","VTD":"0307"},"geometry":{"type":"Polygon","coordinates":[[[-102.085631,31.989681],[-102.093543,31.985607],[-102.096954,31.990468],[-102.099447,31.995011],[-102.100471,31.995853],[-102.101677,31.996358],[-102.099697,31.996817],[-102.100548,31.999367],[-102.095024,32.000667],[-102.095184,32.001658],[-102.087913,32.00343],[-102.085044,31.994573],[-102.082847,31.99147],[-102.085815,31.989942],[-102.085631,31.989681]]]}},{"type":"Feature","properties":{"PRECINCT":"308","VTD":"0308"},"geometry":{"type":"Polygon","coordinates":[[[-102.068588,32.021435],[-102.069671,32.021385],[-102.074302,32.020341],[-102.07743,32.020018],[-102.079483,32.020302],[-102.080558,32.020122],[-102.086052,32.037269],[-102.086288,32.038916],[-102.086135,32.04047],[-102.085365,32.043072],[-102.082443,32.043503],[-102.074195,32.046664],[-102.063156,32.049071],[-102.055321,32.02447],[-102.068588,32.021435]]]}},{"type":"Feature","properties":{"PRECINCT":"309","VTD":"0309"},"geometry":{"type":"Polygon","coordinates":[[[-102.086563,31.988923],[-102.083969,31.98084],[-102.077194,31.982422],[-102.071823,31.965771],[-102.073245,31.965441],[-102.074155,31.968172],[-102.077279,31.967436],[-102.077688,31.968767],[-102.087271,31.966535],[-102.086784,31.965039],[-102.091937,31.963819],[-102.092421,31.965331],[-102.103013,31.962885],[-102.102363,31.960859],[-102.105736,31.960093],[-102.105685,31.95994],[-102.108874,31.959198],[-102.109592,31.961339],[-102.11499,31.95988],[-102.119376,31.958078],[-102.137647,31.948653],[-102.135345,31.941767],[-102.162467,31.935183],[-102.147827,31.942746],[-102.149953,31.945732],[-102.147534,31.94714],[-102.149993,31.950692],[-102.146164,31.952597],[-102.1455,31.952507],[-102.145559,31.952287],[-102.144222,31.95298],[-102.143056,31.954364],[-102.14154,31.953565],[-102.141853,31.95311],[-102.141584,31.952738],[-102.121099,31.963249],[-102.124526,31.966933],[-102.125465,31.966713],[-102.126053,31.968587],[-102.124795,31.969235],[-102.124313,31.967791],[-102.122861,31.96813],[-102.122678,31.967828],[-102.122048,31.96798],[-102.121915,31.967542],[-102.117243,31.968634],[-102.11719,31.968471],[-102.119684,31.96789],[-102.119423,31.96709],[-102.118685,31.966319],[-102.116644,31.966801],[-102.117672,31.966308],[-102.117566,31.96582],[-102.117223,31.965894],[-102.117032,31.965511],[-102.11697,31.965262],[-102.117547,31.96513],[-102.117204,31.964781],[-102.110461,31.966547],[-102.112748,31.973682],[-102.11175,31.974181],[-102.112709,31.975711],[-102.086456,31.989252],[-102.086563,31.988923]],[[-102.108055,31.977846],[-102.104847,31.967862],[-102.095963,31.969945],[-102.097019,31.973231],[-102.094566,31.973933],[-102.096879,31.980951],[-102.096054,31.981139],[-102.096927,31.982361],[-102.097507,31.982077],[-102.098114,31.982968],[-102.108055,31.977846]]]}},{"type":"Feature","properties":{"PRECINCT":"310","VTD":"0310"},"geometry":{"type":"Polygon","coordinates":[[[-102.054702,32.051174],[-102.050849,32.039142],[-102.044044,32.040723],[-102.045097,32.043933],[-102.041556,32.044758],[-102.041007,32.043048],[-102.026618,32.046365],[-102.022201,32.032805],[-102.020157,32.033284],[-102.017677,32.025562],[-102.050285,32.008793],[-102.063156,32.049071],[-102.054702,32.051174]]]}},{"type":"Feature","properties":{"PRECINCT":"401","VTD":"0401"},"geometry":{"type":"Polygon","coordinates":[[[-102.200228,32.086798],[-102.093392,32.086861],[-102.089578,32.075086],[-102.106006,32.071291],[-102.105437,32.06954],[-102.13842,32.061817],[-102.142987,32.07583],[-102.15968,32.071917],[-102.157428,32.064913],[-102.174132,32.061013],[-102.171889,32.054004],[-102.183211,32.051387],[-102.182332,32.04887],[-102.182397,32.047004],[-102.181795,32.045059],[-102.18132,32.044385],[-102.179928,32.043374],[-102.181187,32.041608],[-102.180703,32.039392],[-102.179994,32.039423],[-102.179868,32.038547],[-102.177676,32.039117],[-102.177494,32.03876],[-102.176668,32.038954],[-102.176159,32.037896],[-102.173233,32.038588],[-102.172684,32.036887],[-102.169899,32.037331],[-102.170108,32.038236],[-102.168998,32.038414],[-102.168789,32.037509],[-102.166576,32.037861],[-102.167347,32.039986],[-102.167057,32.040054],[-102.163321,32.028591],[-102.167005,32.027709],[-102.16731,32.02864],[-102.170161,32.027413],[-102.169883,32.026552],[-102.170892,32.026311],[-102.170549,32.02526],[-102.171872,32.024952],[-102.171581,32.024046],[-102.172803,32.023756],[-102.177272,32.037616],[-102.180175,32.036962],[-102.180598,32.038078],[-102.181638,32.037774],[-102.181291,32.036686],[-102.183517,32.036148],[-102.185794,32.043174],[-102.18995,32.042191],[-102.187743,32.035351],[-102.187975,32.035296],[-102.187916,32.035122],[-102.202962,32.031594],[-102.201294,32.026561],[-102.203417,32.026061],[-102.203804,32.027326],[-102.207498,32.02671],[-102.207076,32.025147],[-102.212908,32.023775],[-102.213746,32.02644],[-102.216263,32.025849],[-102.213218,32.016052],[-102.210441,32.014686],[-102.195999,32.018123],[-102.195325,32.0161],[-102.192063,32.016881],[-102.191453,32.014921],[-102.190228,32.015211],[-102.190579,32.016312],[-102.188452,32.016832],[-102.189387,32.019709],[-102.187823,32.020083],[-102.185316,32.012259],[-102.18684,32.011901],[-102.186455,32.013053],[-102.187018,32.012509],[-102.187338,32.013519],[-102.189526,32.012991],[-102.189233,32.012062],[-102.186869,32.012411],[-102.187052,32.011873],[-102.187824,32.011718],[-102.187834,32.011496],[-102.18711,32.011378],[-102.189468,32.004374],[-102.18594,32.002644],[-102.184288,32.004614],[-102.182743,32.005401],[-102.185622,32.004715],[-102.187342,32.005016],[-102.174928,32.007973],[-102.17227,31.999685],[-102.176143,32.001597],[-102.174028,32.004742],[-102.176804,32.00596],[-102.178194,32.005629],[-102.179864,32.003163],[-102.180111,32.003221],[-102.18042,32.002931],[-102.180493,32.002711],[-102.179901,32.002485],[-102.180733,32.00126],[-102.18028,32.001037],[-102.180873,32.000246],[-102.170933,31.995555],[-102.170641,31.994573],[-102.213851,31.984104],[-102.214404,31.985851],[-102.237313,31.980427],[-102.237948,31.980577],[-102.239521,31.985229],[-102.238013,31.980461],[-102.253559,31.976727],[-102.252781,31.974177],[-102.256925,31.973087],[-102.257556,31.972545],[-102.258664,31.970319],[-102.258473,31.968213],[-102.258144,31.968077],[-102.257605,31.967112],[-102.256045,31.96619],[-102.252486,31.970816],[-102.252036,31.969346],[-102.276924,31.93782],[-102.277269,31.937735],[-102.278161,31.940548],[-102.28401,31.933463],[-102.287331,31.932892],[-102.287468,31.990271],[-102.287023,32.013801],[-102.287048,32.086991],[-102.200228,32.086798]]]}},{"type":"Feature","properties":{"PRECINCT":"402","VTD":"0402"},"geometry":{"type":"Polygon","coordinates":[[[-102.10157,32.002548],[-102.118087,31.998662],[-102.120392,32.005687],[-102.10382,32.009536],[-102.10157,32.002548]]]}},{"type":"Feature","properties":{"PRECINCT":"403","VTD":"0403"},"geometry":{"type":"Polygon","coordinates":[[[-102.10836,32.023669],[-102.10382,32.009536],[-102.115181,32.00693],[-102.117484,32.014083],[-102.118964,32.013564],[-102.130882,32.010814],[-102.133156,32.017838],[-102.10836,32.023669]]]}},{"type":"Feature","properties":{"PRECINCT":"404","VTD":"0404"},"geometry":{"type":"Polygon","coordinates":[[[-102.124885,32.01979],[-102.141433,32.015883],[-102.145637,32.028976],[-102.1446,32.029782],[-102.14344,32.030281],[-102.129356,32.033569],[-102.124885,32.01979]]]}},{"type":"Feature","properties":{"PRECINCT":"406","VTD":"0406"},"geometry":{"type":"Polygon","coordinates":[[[-102.278161,31.940548],[-102.277269,31.937735],[-102.274366,31.938447],[-102.280734,31.930299],[-102.262971,31.926044],[-102.256628,31.927701],[-102.255344,31.923645],[-102.252692,31.922197],[-102.250493,31.920119],[-102.249282,31.918184],[-102.247996,31.914545],[-102.251609,31.913675],[-102.253181,31.912915],[-102.265564,31.903523],[-102.279441,31.896806],[-102.27728,31.894383],[-102.27606,31.89212],[-102.264805,31.897935],[-102.263247,31.892976],[-102.271576,31.888673],[-102.268487,31.884407],[-102.258499,31.889554],[-102.257337,31.890062],[-102.25723,31.889645],[-102.260979,31.887817],[-102.260518,31.886655],[-102.261121,31.886327],[-102.259573,31.881481],[-102.27477,31.87259],[-102.275459,31.879959],[-102.287433,31.873681],[-102.287331,31.932892],[-102.28401,31.933463],[-102.278161,31.940548]]]}},{"type":"Feature","properties":{"PRECINCT":"407","VTD":"0407"},"geometry":{"type":"Polygon","coordinates":[[[-102.141433,32.015883],[-102.15789,32.012027],[-102.158157,32.013218],[-102.158005,32.01477],[-102.158555,32.015121],[-102.158993,32.01506],[-102.158874,32.015414],[-102.159365,32.016138],[-102.162567,32.026049],[-102.152679,32.028343],[-102.151794,32.028869],[-102.150863,32.030173],[-102.150123,32.03077],[-102.146553,32.031697],[-102.141433,32.015883]]]}},{"type":"Feature","properties":{"PRECINCT":"408","VTD":"0408"},"geometry":{"type":"Polygon","coordinates":[[[-102.142987,32.07583],[-102.13842,32.061817],[-102.121719,32.065742],[-102.117824,32.051515],[-102.117378,32.051619],[-102.115081,32.04459],[-102.148247,32.03689],[-102.154884,32.057461],[-102.160339,32.05619],[-102.162239,32.056063],[-102.164436,32.055581],[-102.16661,32.054791],[-102.171749,32.053577],[-102.174132,32.061013],[-102.157428,32.064913],[-102.15968,32.071917],[-102.142987,32.07583]]]}},{"type":"Feature","properties":{"PRECINCT":"409","VTD":"0409"},"geometry":{"type":"Polygon","coordinates":[[[-102.123779,32.035438],[-102.129455,32.033867],[-102.129356,32.033569],[-102.14344,32.030281],[-102.1446,32.029782],[-102.145637,32.028976],[-102.148247,32.03689],[-102.115081,32.04459],[-102.11293,32.037975],[-102.123779,32.035438]]]}},{"type":"Feature","properties":{"PRECINCT":"410","VTD":"0410"},"geometry":{"type":"Polygon","coordinates":[[[-102.185794,32.043174],[-102.183517,32.036148],[-102.181291,32.036686],[-102.181638,32.037774],[-102.180598,32.038078],[-102.180175,32.036962],[-102.177272,32.037616],[-102.172803,32.023756],[-102.171581,32.024046],[-102.171872,32.024952],[-102.170549,32.02526],[-102.170892,32.026311],[-102.169883,32.026552],[-102.170161,32.027413],[-102.16731,32.02864],[-102.167005,32.027709],[-102.163321,32.028591],[-102.162567,32.026049],[-102.169327,32.02126],[-102.168615,32.019944],[-102.166964,32.014896],[-102.16947,32.014165],[-102.172745,32.012047],[-102.173251,32.011493],[-102.174951,32.010969],[-102.174091,32.008283],[-102.187342,32.005016],[-102.185622,32.004715],[-102.182743,32.005401],[-102.184288,32.004614],[-102.18594,32.002644],[-102.189468,32.004374],[-102.18711,32.011378],[-102.187834,32.011496],[-102.187824,32.011718],[-102.187052,32.011873],[-102.186869,32.012411],[-102.189233,32.012062],[-102.189526,32.012991],[-102.187338,32.013519],[-102.187018,32.012509],[-102.186455,32.013053],[-102.18684,32.011901],[-102.185316,32.012259],[-102.187823,32.020083],[-102.189387,32.019709],[-102.188452,32.016832],[-102.190579,32.016312],[-102.190228,32.015211],[-102.191453,32.014921],[-102.192063,32.016881],[-102.195325,32.0161],[-102.195999,32.018123],[-102.210441,32.014686],[-102.213218,32.016052],[-102.216263,32.025849],[-102.213746,32.02644],[-102.212908,32.023775],[-102.207076,32.025147],[-102.207498,32.02671],[-102.203804,32.027326],[-102.203417,32.026061],[-102.201294,32.026561],[-102.202962,32.031594],[-102.187916,32.035122],[-102.187975,32.035296],[-102.187743,32.035351],[-102.18995,32.042191],[-102.185794,32.043174]]]}},{"type":"Feature","properties":{"PRECINCT":"411","VTD":"0411"},"geometry":{"type":"Polygon","coordinates":[[[-102.154884,32.057461],[-102.146553,32.031697],[-102.150123,32.03077],[-102.150863,32.030173],[-102.151794,32.028869],[-102.152679,32.028343],[-102.162567,32.026049],[-102.167057,32.040054],[-102.167347,32.039986],[-102.166576,32.037861],[-102.168789,32.037509],[-102.168998,32.038414],[-102.170108,32.038236],[-102.169899,32.037331],[-102.172684,32.036887],[-102.173233,32.038588],[-102.176159,32.037896],[-102.176668,32.038954],[-102.177494,32.03876],[-102.177676,32.039117],[-102.179868,32.038547],[-102.179994,32.039423],[-102.180703,32.039392],[-102.181187,32.041608],[-102.179928,32.043374],[-102.18132,32.044385],[-102.181795,32.045059],[-102.182397,32.047004],[-102.182332,32.04887],[-102.183211,32.051387],[-102.171916,32.054002],[-102.171749,32.053577],[-102.16661,32.054791],[-102.164436,32.055581],[-102.162239,32.056063],[-102.160339,32.05619],[-102.154884,32.057461]]]}},{"type":"Feature","properties":{"PRECINCT":"101A","VTD":"101A"},"geometry":{"type":"Polygon","coordinates":[[[-102.148811,31.946324],[-102.162737,31.939101],[-102.163527,31.941282],[-102.166976,31.939499],[-102.166287,31.937272],[-102.173493,31.93355],[-102.174212,31.935771],[-102.173665,31.936047],[-102.174482,31.938317],[-102.170891,31.940161],[-102.171595,31.942351],[-102.158652,31.948975],[-102.157258,31.946986],[-102.155682,31.947799],[-102.15582,31.94822],[-102.154995,31.94823],[-102.154628,31.948001],[-102.153045,31.945964],[-102.15317,31.945228],[-102.152555,31.944481],[-102.148303,31.946683],[-102.150472,31.949743],[-102.149634,31.950184],[-102.147534,31.94714],[-102.148811,31.946324]]]}},{"type":"Feature","properties":{"PRECINCT":"109A","VTD":"109A"},"geometry":{"type":"Polygon","coordinates":[[[-102.112748,31.973682],[-102.110461,31.966547],[-102.117204,31.964781],[-102.117547,31.96513],[-102.11697,31.965262],[-102.117032,31.965511],[-102.117223,31.965894],[-102.117566,31.96582],[-102.117672,31.966308],[-102.116644,31.966801],[-102.118685,31.966319],[-102.119423,31.96709],[-102.119684,31.96789],[-102.11719,31.968471],[-102.117243,31.968634],[-102.121915,31.967542],[-102.122048,31.96798],[-102.122678,31.967828],[-102.122861,31.96813],[-102.124313,31.967791],[-102.124795,31.969235],[-102.12686,31.968167],[-102.126747,31.968765],[-102.112838,31.975931],[-102.11175,31.974181],[-102.112748,31.973682]]]}},{"type":"Feature","properties":{"PRECINCT":"202A","VTD":"202A"},"geometry":{"type":"Polygon","coordinates":[[[-101.969962,32.086784],[-101.932473,32.086857],[-101.928168,32.073296],[-101.927024,32.071305],[-101.979789,32.044178],[-101.980018,32.043839],[-101.958206,32.054977],[-101.932025,31.973462],[-101.942238,31.971265],[-101.956619,31.96782],[-101.967633,31.965888],[-101.967628,31.965624],[-101.973144,31.964379],[-101.973778,31.964554],[-101.977134,31.963478],[-101.981857,31.962393],[-101.98648,31.9763],[-101.986205,31.976364],[-101.995254,32.004486],[-101.995414,32.004447],[-101.996154,32.006732],[-101.99929,32.017333],[-101.999541,32.017551],[-102.013679,32.061466],[-102.018194,32.074596],[-101.993118,32.080601],[-101.969962,32.086784]]]}},{"type":"Feature","properties":{"PRECINCT":"307A","VTD":"307A"},"geometry":{"type":"Polygon","coordinates":[[[-102.080642,32.020379],[-102.078643,32.014023],[-102.078514,32.012898],[-102.079147,32.007897],[-102.078307,32.004879],[-102.077964,31.994038],[-102.082847,31.99147],[-102.085044,31.994573],[-102.087913,32.00343],[-102.08451,32.004226],[-102.088531,32.017731],[-102.087341,32.018157],[-102.084457,32.018149],[-102.083381,32.01837],[-102.082649,32.018763],[-102.081466,32.019958],[-102.080642,32.020379]]]}},{"type":"Feature","properties":{"PRECINCT":"309A","VTD":"309A"},"geometry":{"type":"Polygon","coordinates":[[[-102.098114,31.982968],[-102.097507,31.982077],[-102.096927,31.982361],[-102.096054,31.981139],[-102.096879,31.980951],[-102.094566,31.973933],[-102.097019,31.973231],[-102.095963,31.969945],[-102.104847,31.967862],[-102.108055,31.977846],[-102.098114,31.982968]]]}},{"type":"Feature","properties":{"PRECINCT":"205","VTD":"0205"},"geometry":{"type":"Polygon","coordinates":[[[-102.08451,32.004226],[-102.096031,32.001461],[-102.096626,32.00333],[-102.101417,32.002098],[-102.10382,32.009536],[-102.099494,32.010582],[-102.098274,32.0121],[-102.096069,32.012749],[-102.092849,32.014571],[-102.091987,32.015121],[-102.091079,32.01625],[-102.088531,32.017731],[-102.08451,32.004226]]]}},{"type":"Feature","properties":{"PRECINCT":"405","VTD":"0405"},"geometry":{"type":"Polygon","coordinates":[[[-102.130912,32.010891],[-102.118964,32.013564],[-102.117484,32.014083],[-102.115181,32.00693],[-102.136917,32.001846],[-102.141433,32.015883],[-102.133156,32.017838],[-102.130912,32.010891]]]}}]}