{"type":"FeatureCollection","features":[{"type":"Feature","properties":{"PRECINCT":"1","VTD":"0001"},"geometry":{"type":"Polygon","coordinates":[[[-97.94252,31.12158],[-97.9071,31.069374],[-97.913847,31.065882],[-97.913846,31.063758],[-97.912654,31.050886],[-97.913851,31.050477],[-97.915475,31.050533],[-97.917395,31.049687],[-97.917639,31.049791],[-97.917668,31.05076],[-97.918429,31.051808],[-97.918329,31.05303],[-97.920655,31.056098],[-97.920343,31.059044],[-97.921418,31.059774],[-97.922834,31.060262],[-97.923894,31.058576],[-97.924633,31.059106],[-97.926596,31.058754],[-97.927181,31.061386],[-97.929898,31.060788],[-97.93267,31.067174],[-97.934768,31.06609],[-97.939848,31.064526],[-97.941661,31.064532],[-97.944528,31.065392],[-97.945947,31.065504],[-97.952203,31.063743],[-97.953733,31.063607],[-97.955826,31.064213],[-97.959649,31.066221],[-97.968572,31.067926],[-97.969119,31.070626],[-97.969831,31.077492],[-97.969623,31.083191],[-97.969255,31.085209],[-97.969613,31.086015],[-97.981399,31.079955],[-97.984502,31.079119],[-97.989534,31.079271],[-97.988851,31.080639],[-97.987995,31.081222],[-97.987625,31.081998],[-97.988615,31.082625],[-97.989095,31.082487],[-97.990347,31.082827],[-97.990705,31.083163],[-97.990782,31.083768],[-97.989352,31.086331],[-97.9884,31.087014],[-97.988298,31.087679],[-97.988976,31.08824],[-97.977524,31.100527],[-97.970425,31.10553],[-97.959504,31.117158],[-97.957354,31.118474],[-97.95302,31.120029],[-97.951338,31.12141],[-97.950541,31.122734],[-97.950216,31.123954],[-97.950349,31.130449],[-97.950099,31.132284],[-97.94252,31.12158]]]}},{"type":"Feature","properties":{"PRECINCT":"2","VTD":"0002"},"geometry":{"type":"Polygon","coordinates":[[[-98.323569,31.196541],[-98.317718,31.18404],[-98.315413,31.182079],[-98.314637,31.180514],[-98.313065,31.178773],[-98.310366,31.177604],[-98.305494,31.176594],[-98.304564,31.176066],[-98.302124,31.171045],[-98.30127,31.170165],[-98.284064,31.161364],[-98.283606,31.160955],[-98.281515,31.157127],[-98.280589,31.155978],[-98.276142,31.153082],[-98.264912,31.146964],[-98.262912,31.145085],[-98.253593,31.138851],[-98.245758,31.134772],[-98.238998,31.127433],[-98.235628,31.125284],[-98.233277,31.121525],[-98.224395,31.109752],[-98.218803,31.105044],[-98.213099,31.092215],[-98.21043,31.090385],[-98.208066,31.091003],[-98.207344,31.090872],[-98.20581,31.088661],[-98.200806,31.08411],[-98.1995,31.082252],[-98.196883,31.080557],[-98.189355,31.072528],[-98.188568,31.070786],[-98.195869,31.06863],[-98.193315,31.062435],[-98.182797,31.065489],[-98.178572,31.055468],[-98.170386,31.058169],[-98.16786,31.059567],[-98.162473,31.063268],[-98.161582,31.062209],[-98.161349,31.062545],[-98.16174,31.063666],[-98.160467,31.064366],[-98.15861,31.06493],[-98.154256,31.065122],[-98.151247,31.064265],[-98.14863,31.062834],[-98.13666,31.057755],[-98.128305,31.053714],[-98.126947,31.053333],[-98.106512,31.050919],[-98.102599,31.050575],[-98.100039,31.050669],[-98.098285,31.046459],[-98.097162,31.042032],[-98.097867,31.039987],[-98.098045,31.038089],[-98.098601,31.036822],[-98.098944,31.036574],[-98.100226,31.036566],[-98.101738,31.035249],[-98.100728,31.032906],[-98.121317,31.032449],[-98.281555,31.030929],[-98.280834,31.031725],[-98.278165,31.036236],[-98.273842,31.037704],[-98.273399,31.038036],[-98.265324,31.046505],[-98.263938,31.047483],[-98.25732,31.050802],[-98.251779,31.057122],[-98.24561,31.060821],[-98.243224,31.061385],[-98.239396,31.061768],[-98.236066,31.062705],[-98.232154,31.064342],[-98.230879,31.06511],[-98.229018,31.067093],[-98.228478,31.067848],[-98.228385,31.068885],[-98.229386,31.071643],[-98.232712,31.071798],[-98.239261,31.073434],[-98.251846,31.07801],[-98.25884,31.07939],[-98.265346,31.082391],[-98.278852,31.087574],[-98.286323,31.089466],[-98.289712,31.090621],[-98.294608,31.093472],[-98.302794,31.093778],[-98.304819,31.094037],[-98.318704,31.097554],[-98.318607,31.103013],[-98.314848,31.111852],[-98.313278,31.117231],[-98.313877,31.119959],[-98.316455,31.126153],[-98.316461,31.126758],[-98.317107,31.127384],[-98.318352,31.127796],[-98.319119,31.131915],[-98.317331,31.135641],[-98.315395,31.137823],[-98.313708,31.140521],[-98.316431,31.142601],[-98.318555,31.144787],[-98.331235,31.160255],[-98.335614,31.16423],[-98.370973,31.186923],[-98.370578,31.188061],[-98.369699,31.18923],[-98.366181,31.190629],[-98.365248,31.190698],[-98.364448,31.190424],[-98.363008,31.189462],[-98.362155,31.189302],[-98.357011,31.19297],[-98.353198,31.190794],[-98.352532,31.19084],[-98.346828,31.192607],[-98.345895,31.193386],[-98.344882,31.193203],[-98.342376,31.193685],[-98.335259,31.196093],[-98.334326,31.196139],[-98.324453,31.199252],[-98.323569,31.196541]]]}},{"type":"Feature","properties":{"PRECINCT":"3","VTD":"0003"},"geometry":{"type":"Polygon","coordinates":[[[-98.199891,31.166896],[-98.199721,31.164639],[-98.202256,31.161792],[-98.203698,31.159665],[-98.203793,31.15889],[-98.202689,31.153923],[-98.201416,31.145197],[-98.196369,31.132949],[-98.19628,31.132226],[-98.196662,31.13055],[-98.194328,31.12449],[-98.19445,31.124131],[-98.196208,31.123438],[-98.196304,31.123222],[-98.193269,31.116292],[-98.193904,31.115451],[-98.188653,31.106422],[-98.178829,31.09188],[-98.173405,31.082318],[-98.167747,31.083986],[-98.159806,31.064686],[-98.161428,31.063983],[-98.16786,31.059567],[-98.170386,31.058169],[-98.178572,31.055468],[-98.182797,31.065489],[-98.193315,31.062435],[-98.195869,31.06863],[-98.188568,31.070786],[-98.189355,31.072528],[-98.196883,31.080557],[-98.1995,31.082252],[-98.200806,31.08411],[-98.20581,31.088661],[-98.207344,31.090872],[-98.208066,31.091003],[-98.21043,31.090385],[-98.213099,31.092215],[-98.218803,31.105044],[-98.224395,31.109752],[-98.233277,31.121525],[-98.235628,31.125284],[-98.238998,31.127433],[-98.245758,31.134772],[-98.253593,31.138851],[-98.262912,31.145085],[-98.264912,31.146964],[-98.276142,31.153082],[-98.280589,31.155978],[-98.281515,31.157127],[-98.283606,31.160955],[-98.284064,31.161364],[-98.30127,31.170165],[-98.302124,31.171045],[-98.304564,31.176066],[-98.292698,31.179845],[-98.29188,31.179759],[-98.273929,31.185468],[-98.259854,31.176098],[-98.25912,31.175334],[-98.254676,31.167402],[-98.254176,31.166976],[-98.253241,31.166768],[-98.251564,31.167284],[-98.248496,31.169027],[-98.246312,31.169542],[-98.234449,31.173437],[-98.231332,31.176968],[-98.216402,31.18153],[-98.204894,31.185381],[-98.203612,31.182401],[-98.202318,31.176538],[-98.199704,31.170476],[-98.199143,31.168461],[-98.19919,31.167893],[-98.199891,31.166896]]]}},{"type":"Feature","properties":{"PRECINCT":"4","VTD":"0004"},"geometry":{"type":"Polygon","coordinates":[[[-98.188447,31.16661],[-98.186151,31.16628],[-98.184571,31.165191],[-98.183464,31.165224],[-98.182729,31.164613],[-98.182275,31.16452],[-98.180772,31.164938],[-98.179652,31.164635],[-98.177989,31.16475],[-98.174561,31.16403],[-98.171587,31.164733],[-98.170167,31.164299],[-98.168197,31.164837],[-98.167103,31.164859],[-98.166681,31.164408],[-98.165608,31.160481],[-98.163772,31.158913],[-98.16266,31.158605],[-98.161592,31.158566],[-98.161022,31.158808],[-98.160527,31.159781],[-98.158968,31.161263],[-98.157628,31.161838],[-98.156042,31.162023],[-98.154635,31.161476],[-98.154,31.159301],[-98.152874,31.158668],[-98.148961,31.157727],[-98.147982,31.157275],[-98.146089,31.157187],[-98.144644,31.156774],[-98.137836,31.155748],[-98.135865,31.154619],[-98.134635,31.154754],[-98.134189,31.154449],[-98.133863,31.15369],[-98.132968,31.152738],[-98.132348,31.152353],[-98.131942,31.151324],[-98.131637,31.151247],[-98.128836,31.152991],[-98.124285,31.152716],[-98.122949,31.15314],[-98.120741,31.152548],[-98.119398,31.152503],[-98.114911,31.153275],[-98.113778,31.153285],[-98.111076,31.15397],[-98.108982,31.153459],[-98.107396,31.153638],[-98.101349,31.155396],[-98.10074,31.155234],[-98.100077,31.153948],[-98.094029,31.155961],[-98.088792,31.157294],[-98.082099,31.159397],[-98.082137,31.158739],[-98.080643,31.154803],[-98.074699,31.140697],[-98.074441,31.136651],[-98.073797,31.134841],[-98.070772,31.130699],[-98.067543,31.123883],[-98.065779,31.119247],[-98.059695,31.119563],[-98.0564,31.118972],[-98.056795,31.118071],[-98.055155,31.117221],[-98.053775,31.11447],[-98.052292,31.113351],[-98.05177,31.111479],[-98.050691,31.110866],[-98.048385,31.111233],[-98.047883,31.110849],[-98.046724,31.109026],[-98.046489,31.107687],[-98.046783,31.106263],[-98.047033,31.106002],[-98.047463,31.106206],[-98.049313,31.10452],[-98.060002,31.101103],[-98.060172,31.100767],[-98.058918,31.100312],[-98.057944,31.099386],[-98.054393,31.090848],[-98.051705,31.089231],[-98.051021,31.088496],[-98.050715,31.087169],[-98.051138,31.083683],[-98.047161,31.074269],[-98.048823,31.073587],[-98.054485,31.070452],[-98.055754,31.069369],[-98.057281,31.067558],[-98.059846,31.06256],[-98.061668,31.060271],[-98.063696,31.058647],[-98.068696,31.055995],[-98.070241,31.055449],[-98.072877,31.054978],[-98.084586,31.054811],[-98.096606,31.051271],[-98.09947,31.050718],[-98.10392,31.050671],[-98.126947,31.053333],[-98.128305,31.053714],[-98.13666,31.057755],[-98.14863,31.062834],[-98.151247,31.064265],[-98.153669,31.065033],[-98.155044,31.065168],[-98.159294,31.064809],[-98.16174,31.063666],[-98.161349,31.062545],[-98.161582,31.062209],[-98.162473,31.063268],[-98.160932,31.064268],[-98.159806,31.064686],[-98.167747,31.083986],[-98.173405,31.082318],[-98.178829,31.09188],[-98.188653,31.106422],[-98.193904,31.115451],[-98.193269,31.116292],[-98.196304,31.123222],[-98.196208,31.123438],[-98.19445,31.124131],[-98.194328,31.12449],[-98.196662,31.13055],[-98.19628,31.132226],[-98.196369,31.132949],[-98.201416,31.145197],[-98.203746,31.15951],[-98.202256,31.161792],[-98.201359,31.162607],[-98.200513,31.163908],[-98.19964,31.163683],[-98.198361,31.163859],[-98.197964,31.163584],[-98.197983,31.162611],[-98.197536,31.162837],[-98.196774,31.162743],[-98.195809,31.161951],[-98.19506,31.161885],[-98.19451,31.162204],[-98.194728,31.163414],[-98.193653,31.163981],[-98.192783,31.164789],[-98.19254,31.166285],[-98.192202,31.166769],[-98.19153,31.166918],[-98.190532,31.166632],[-98.189675,31.166923],[-98.188748,31.166841],[-98.188447,31.16661]]]}},{"type":"Feature","properties":{"PRECINCT":"5","VTD":"0005"},"geometry":{"type":"Polygon","coordinates":[[[-98.180006,31.463717],[-98.100643,31.349822],[-98.071766,31.307225],[-98.071638,31.30441],[-98.071142,31.302539],[-98.071377,31.301061],[-98.071896,31.299576],[-98.074699,31.294895],[-98.077243,31.2932],[-98.082567,31.288041],[-98.084832,31.285288],[-98.088652,31.282382],[-98.090066,31.280687],[-98.092644,31.275936],[-98.095678,31.273816],[-98.10305,31.261604],[-98.106556,31.254286],[-98.116966,31.251031],[-98.117106,31.250245],[-98.116908,31.248917],[-98.115105,31.24464],[-98.114814,31.244596],[-98.114403,31.244018],[-98.109672,31.24561],[-98.108425,31.245394],[-98.104681,31.245937],[-98.103215,31.245475],[-98.101322,31.243567],[-98.096243,31.236621],[-98.096332,31.23169],[-98.096134,31.229276],[-98.095131,31.227672],[-98.09,31.222944],[-98.089374,31.218574],[-98.088833,31.217685],[-98.087316,31.217069],[-98.086736,31.214061],[-98.088152,31.21094],[-98.090144,31.207932],[-98.089991,31.205224],[-98.091078,31.203571],[-98.089319,31.200915],[-98.08832,31.200006],[-98.087004,31.199266],[-98.086396,31.197024],[-98.086515,31.195617],[-98.087676,31.194913],[-98.087812,31.192721],[-98.089056,31.190032],[-98.087988,31.188662],[-98.086373,31.185259],[-98.083049,31.182718],[-98.080583,31.181681],[-98.077251,31.182225],[-98.075026,31.181126],[-98.07341,31.181151],[-98.072247,31.180926],[-98.071471,31.179766],[-98.069714,31.175972],[-98.069631,31.174493],[-98.069031,31.172846],[-98.078759,31.167385],[-98.079273,31.166315],[-98.079012,31.163967],[-98.079275,31.162796],[-98.082099,31.159397],[-98.088792,31.157294],[-98.094029,31.155961],[-98.100077,31.153948],[-98.10074,31.155234],[-98.101349,31.155396],[-98.107396,31.153638],[-98.108982,31.153459],[-98.111076,31.15397],[-98.113778,31.153285],[-98.114911,31.153275],[-98.119398,31.152503],[-98.120741,31.152548],[-98.122949,31.15314],[-98.124285,31.152716],[-98.128836,31.152991],[-98.131637,31.151247],[-98.131942,31.151324],[-98.132348,31.152353],[-98.132968,31.152738],[-98.133863,31.15369],[-98.134189,31.154449],[-98.134635,31.154754],[-98.135865,31.154619],[-98.137836,31.155748],[-98.144644,31.156774],[-98.146089,31.157187],[-98.147982,31.157275],[-98.148961,31.157727],[-98.152874,31.158668],[-98.154,31.159301],[-98.154635,31.161476],[-98.156042,31.162023],[-98.157628,31.161838],[-98.158968,31.161263],[-98.160527,31.159781],[-98.16085,31.158967],[-98.161201,31.158687],[-98.162071,31.158561],[-98.163376,31.158748],[-98.164559,31.159474],[-98.165608,31.160481],[-98.166681,31.164408],[-98.167103,31.164859],[-98.168197,31.164837],[-98.170167,31.164299],[-98.171587,31.164733],[-98.174561,31.16403],[-98.177989,31.16475],[-98.179652,31.164635],[-98.180772,31.164938],[-98.182275,31.16452],[-98.182729,31.164613],[-98.183464,31.165224],[-98.184571,31.165191],[-98.186151,31.16628],[-98.188313,31.166549],[-98.189087,31.166896],[-98.190826,31.166626],[-98.191683,31.166918],[-98.1924,31.166599],[-98.192841,31.164701],[-98.194728,31.163414],[-98.19451,31.162204],[-98.194888,31.161929],[-98.195809,31.161951],[-98.196774,31.162743],[-98.197536,31.162837],[-98.197983,31.162611],[-98.197964,31.163584],[-98.198361,31.163859],[-98.19964,31.163683],[-98.200513,31.163908],[-98.199721,31.164639],[-98.199945,31.166715],[-98.19919,31.167893],[-98.199143,31.168461],[-98.199704,31.170476],[-98.202318,31.176538],[-98.203612,31.182401],[-98.209985,31.197229],[-98.208501,31.197698],[-98.208374,31.197904],[-98.21273,31.209263],[-98.211984,31.209385],[-98.211117,31.21003],[-98.20913,31.210423],[-98.208483,31.211195],[-98.209857,31.215201],[-98.210379,31.215538],[-98.210627,31.217272],[-98.211791,31.217396],[-98.212953,31.217845],[-98.216527,31.221052],[-98.218547,31.225684],[-98.235049,31.220821],[-98.243347,31.242731],[-98.244786,31.246692],[-98.245292,31.248986],[-98.249451,31.259473],[-98.248714,31.259861],[-98.254707,31.275062],[-98.255141,31.275976],[-98.257376,31.277631],[-98.260271,31.285019],[-98.263084,31.288004],[-98.263823,31.289102],[-98.270478,31.306037],[-98.271058,31.307096],[-98.273952,31.310721],[-98.274258,31.311923],[-98.272167,31.31183],[-98.2693,31.310271],[-98.266885,31.309959],[-98.262528,31.310872],[-98.25232,31.311337],[-98.246715,31.313081],[-98.232982,31.31493],[-98.225493,31.313704],[-98.221112,31.313497],[-98.217242,31.312482],[-98.215067,31.311625],[-98.214375,31.311101],[-98.213855,31.310367],[-98.210605,31.301884],[-98.209344,31.300694],[-98.202927,31.298463],[-98.197578,31.299115],[-98.191602,31.298789],[-98.188942,31.296561],[-98.182563,31.29311],[-98.182711,31.294194],[-98.188723,31.308587],[-98.189137,31.317946],[-98.19405,31.335877],[-98.196281,31.339265],[-98.198866,31.345561],[-98.198843,31.347067],[-98.200308,31.34788],[-98.201963,31.353538],[-98.20299,31.35515],[-98.203879,31.358187],[-98.205539,31.35965],[-98.211803,31.36752],[-98.21326,31.368043],[-98.21628,31.372907],[-98.219835,31.377891],[-98.226072,31.391796],[-98.226347,31.392961],[-98.228735,31.395502],[-98.229697,31.396166],[-98.231741,31.39958],[-98.233724,31.400224],[-98.236289,31.400383],[-98.23771,31.401538],[-98.237976,31.402477],[-98.237926,31.403542],[-98.239245,31.40696],[-98.239281,31.40761],[-98.239836,31.407929],[-98.240268,31.407877],[-98.240466,31.408131],[-98.239958,31.409842],[-98.240315,31.411252],[-98.242167,31.413771],[-98.244078,31.41814],[-98.247749,31.422213],[-98.249922,31.424147],[-98.250521,31.424259],[-98.252449,31.423873],[-98.253255,31.425789],[-98.250312,31.427401],[-98.249659,31.428109],[-98.180006,31.463717]]]}},{"type":"Feature","properties":{"PRECINCT":"6","VTD":"0006"},"geometry":{"type":"Polygon","coordinates":[[[-98.46421,31.290443],[-98.439696,31.263055],[-98.438669,31.230759],[-98.441483,31.230698],[-98.440972,31.208572],[-98.434665,31.208319],[-98.430161,31.208443],[-98.420359,31.209726],[-98.413149,31.211029],[-98.408351,31.21273],[-98.407625,31.186046],[-98.401727,31.186082],[-98.401413,31.185918],[-98.400331,31.18613],[-98.386959,31.186347],[-98.386317,31.186569],[-98.385429,31.187612],[-98.385476,31.199702],[-98.385796,31.200624],[-98.383604,31.19714],[-98.381824,31.194849],[-98.377733,31.191292],[-98.337211,31.165375],[-98.33382,31.162696],[-98.331235,31.160255],[-98.318555,31.144787],[-98.316431,31.142601],[-98.313708,31.140521],[-98.315395,31.137823],[-98.317331,31.135641],[-98.319119,31.131915],[-98.318352,31.127796],[-98.317107,31.127384],[-98.316461,31.126758],[-98.316455,31.126153],[-98.313877,31.119959],[-98.313278,31.117231],[-98.314848,31.111852],[-98.318607,31.103013],[-98.318704,31.097554],[-98.304819,31.094037],[-98.302794,31.093778],[-98.294608,31.093472],[-98.289712,31.090621],[-98.286323,31.089466],[-98.278852,31.087574],[-98.265346,31.082391],[-98.25884,31.07939],[-98.251846,31.07801],[-98.239261,31.073434],[-98.232712,31.071798],[-98.229386,31.071643],[-98.228385,31.068885],[-98.228381,31.068145],[-98.229018,31.067093],[-98.230879,31.06511],[-98.233942,31.063495],[-98.236066,31.062705],[-98.239396,31.061768],[-98.243224,31.061385],[-98.24561,31.060821],[-98.251779,31.057122],[-98.25732,31.050802],[-98.263938,31.047483],[-98.265324,31.046505],[-98.273399,31.038036],[-98.273842,31.037704],[-98.278165,31.036236],[-98.280834,31.031725],[-98.281555,31.030929],[-98.372892,31.029988],[-98.439711,31.029647],[-98.440443,31.031082],[-98.443284,31.034903],[-98.44486,31.03855],[-98.44591,31.03987],[-98.44759,31.0414],[-98.44945,31.04263],[-98.45308,31.04435],[-98.46449,31.04758],[-98.46915,31.05008],[-98.47494,31.0528],[-98.47667,31.05413],[-98.479323,31.056664],[-98.48022,31.05803],[-98.48268,31.05969],[-98.48346,31.06091],[-98.48404,31.06301],[-98.4842,31.06556],[-98.483926,31.067266],[-98.482839,31.068411],[-98.481962,31.068941],[-98.478332,31.069565],[-98.47667,31.070177],[-98.474527,31.072441],[-98.472994,31.075926],[-98.472466,31.076255],[-98.470992,31.076706],[-98.462732,31.075961],[-98.460219,31.07651],[-98.457541,31.077713],[-98.456419,31.078699],[-98.456028,31.079609],[-98.45591,31.082739],[-98.45664,31.0866],[-98.45706,31.0877],[-98.45784,31.08872],[-98.45866,31.08933],[-98.46148,31.09039],[-98.46862,31.09211],[-98.470151,31.09319],[-98.470531,31.094441],[-98.47046,31.0952],[-98.469146,31.096645],[-98.464933,31.098912],[-98.461456,31.101174],[-98.457076,31.105936],[-98.455731,31.106955],[-98.455261,31.108151],[-98.455358,31.110118],[-98.455598,31.110905],[-98.45644,31.11177],[-98.45818,31.11222],[-98.45974,31.11198],[-98.462318,31.110495],[-98.465811,31.107566],[-98.467615,31.10681],[-98.469098,31.106736],[-98.470984,31.107187],[-98.47206,31.107866],[-98.473608,31.109459],[-98.475747,31.112056],[-98.479328,31.118071],[-98.479936,31.118751],[-98.480771,31.119217],[-98.482,31.11918],[-98.482881,31.118757],[-98.484071,31.1177],[-98.485781,31.115342],[-98.487414,31.114211],[-98.488249,31.11416],[-98.489203,31.114385],[-98.490289,31.115016],[-98.493612,31.118601],[-98.495547,31.118937],[-98.49893,31.11854],[-98.500327,31.117874],[-98.50083,31.11741],[-98.50418,31.11008],[-98.50535,31.10868],[-98.5067,31.10783],[-98.50872,31.10753],[-98.510899,31.106818],[-98.512212,31.105875],[-98.5131,31.103205],[-98.516,31.096379],[-98.517022,31.094319],[-98.51829,31.0927],[-98.523459,31.088886],[-98.523945,31.088802],[-98.52541,31.08935],[-98.527504,31.091171],[-98.529466,31.094769],[-98.531014,31.102702],[-98.536569,31.109733],[-98.536949,31.110343],[-98.5376,31.11289],[-98.538013,31.113533],[-98.542498,31.118142],[-98.54465,31.11943],[-98.548327,31.124206],[-98.548402,31.125169],[-98.547715,31.128363],[-98.547196,31.129205],[-98.545742,31.129937],[-98.544966,31.129814],[-98.544261,31.130183],[-98.542014,31.130471],[-98.539129,31.131437],[-98.531502,31.134729],[-98.52905,31.13629],[-98.52782,31.13748],[-98.5271,31.139115],[-98.526959,31.14039],[-98.527467,31.14368],[-98.528424,31.145542],[-98.529394,31.152416],[-98.52856,31.154451],[-98.527641,31.155313],[-98.526728,31.155819],[-98.525336,31.15603],[-98.521513,31.155088],[-98.517255,31.15457],[-98.51344,31.15459],[-98.51127,31.15515],[-98.510341,31.155666],[-98.50753,31.158409],[-98.50486,31.16165],[-98.503851,31.163451],[-98.50393,31.16538],[-98.50479,31.16693],[-98.50595,31.16733],[-98.507342,31.167004],[-98.508277,31.166475],[-98.511669,31.165365],[-98.51398,31.164871],[-98.51749,31.164633],[-98.519688,31.164958],[-98.52043,31.16526],[-98.52172,31.16628],[-98.52796,31.17234],[-98.53015,31.17363],[-98.532064,31.173922],[-98.542016,31.174496],[-98.542981,31.174904],[-98.5438,31.17574],[-98.54454,31.17712],[-98.544691,31.178647],[-98.54438,31.17946],[-98.54293,31.18082],[-98.53643,31.18485],[-98.53547,31.18603],[-98.535363,31.186768],[-98.53564,31.18757],[-98.537987,31.189505],[-98.538386,31.191303],[-98.53942,31.19252],[-98.54177,31.19431],[-98.54392,31.19467],[-98.54535,31.19444],[-98.547992,31.193451],[-98.552429,31.192284],[-98.556339,31.191988],[-98.559558,31.192975],[-98.568217,31.197825],[-98.56881,31.1984],[-98.56915,31.199054],[-98.5691,31.20079],[-98.569645,31.203269],[-98.5695,31.204394],[-98.568511,31.207057],[-98.567398,31.211892],[-98.5655,31.21545],[-98.56363,31.2208],[-98.563025,31.224696],[-98.562732,31.230443],[-98.46421,31.290443]]]}},{"type":"Feature","properties":{"PRECINCT":"7","VTD":"0007"},"geometry":{"type":"Polygon","coordinates":[[[-98.252449,31.423873],[-98.250521,31.424259],[-98.249922,31.424147],[-98.247749,31.422213],[-98.244078,31.41814],[-98.242167,31.413771],[-98.240315,31.411252],[-98.239958,31.409842],[-98.240466,31.408131],[-98.240268,31.407877],[-98.239836,31.407929],[-98.239281,31.40761],[-98.239245,31.40696],[-98.237926,31.403542],[-98.237976,31.402477],[-98.23771,31.401538],[-98.236289,31.400383],[-98.233724,31.400224],[-98.231741,31.39958],[-98.229697,31.396166],[-98.228735,31.395502],[-98.226347,31.392961],[-98.226072,31.391796],[-98.219835,31.377891],[-98.21628,31.372907],[-98.21326,31.368043],[-98.211803,31.36752],[-98.205539,31.35965],[-98.203879,31.358187],[-98.20299,31.35515],[-98.201963,31.353538],[-98.200308,31.34788],[-98.198843,31.347067],[-98.198866,31.345561],[-98.196281,31.339265],[-98.19405,31.335877],[-98.189137,31.317946],[-98.188723,31.308587],[-98.182711,31.294194],[-98.182563,31.29311],[-98.188942,31.296561],[-98.191602,31.298789],[-98.197578,31.299115],[-98.202927,31.298463],[-98.209344,31.300694],[-98.210605,31.301884],[-98.213855,31.310367],[-98.214375,31.311101],[-98.215067,31.311625],[-98.217242,31.312482],[-98.221112,31.313497],[-98.225493,31.313704],[-98.232982,31.31493],[-98.246715,31.313081],[-98.25232,31.311337],[-98.262528,31.310872],[-98.266885,31.309959],[-98.2693,31.310271],[-98.272167,31.31183],[-98.274258,31.311923],[-98.273952,31.310721],[-98.271058,31.307096],[-98.270478,31.306037],[-98.263823,31.289102],[-98.263084,31.288004],[-98.260271,31.285019],[-98.257376,31.277631],[-98.255141,31.275976],[-98.254707,31.275062],[-98.248714,31.259861],[-98.249451,31.259473],[-98.245292,31.248986],[-98.244786,31.246692],[-98.243347,31.242731],[-98.235049,31.220821],[-98.218547,31.225684],[-98.216527,31.221052],[-98.212953,31.217845],[-98.211791,31.217396],[-98.210627,31.217272],[-98.210379,31.215538],[-98.209857,31.215201],[-98.208483,31.211195],[-98.20913,31.210423],[-98.211117,31.21003],[-98.211984,31.209385],[-98.21273,31.209263],[-98.208374,31.197904],[-98.208501,31.197698],[-98.209985,31.197229],[-98.204894,31.185381],[-98.216402,31.18153],[-98.231332,31.176968],[-98.234449,31.173437],[-98.246312,31.169542],[-98.248496,31.169027],[-98.251564,31.167284],[-98.253241,31.166768],[-98.254176,31.166976],[-98.254676,31.167402],[-98.25912,31.175334],[-98.259854,31.176098],[-98.273929,31.185468],[-98.29188,31.179759],[-98.292698,31.179845],[-98.304564,31.176066],[-98.305494,31.176594],[-98.310366,31.177604],[-98.312145,31.178317],[-98.313712,31.1793],[-98.314637,31.180514],[-98.315413,31.182079],[-98.317718,31.18404],[-98.323569,31.196541],[-98.324453,31.199252],[-98.334326,31.196139],[-98.335259,31.196093],[-98.342376,31.193685],[-98.344882,31.193203],[-98.345895,31.193386],[-98.346828,31.192607],[-98.352532,31.19084],[-98.353198,31.190794],[-98.357011,31.19297],[-98.362155,31.189302],[-98.363008,31.189462],[-98.364448,31.190424],[-98.365248,31.190698],[-98.366181,31.190629],[-98.369699,31.18923],[-98.370578,31.188061],[-98.370973,31.186923],[-98.377733,31.191292],[-98.381084,31.194069],[-98.382939,31.196213],[-98.385796,31.200624],[-98.385476,31.199702],[-98.385429,31.187612],[-98.386317,31.186569],[-98.386959,31.186347],[-98.400331,31.18613],[-98.401413,31.185918],[-98.401727,31.186082],[-98.407625,31.186046],[-98.408351,31.21273],[-98.413149,31.211029],[-98.420359,31.209726],[-98.430161,31.208443],[-98.434665,31.208319],[-98.440972,31.208572],[-98.441483,31.230698],[-98.438669,31.230759],[-98.439696,31.263055],[-98.46421,31.290443],[-98.37523,31.34471],[-98.324369,31.375163],[-98.266794,31.410521],[-98.27107,31.416398],[-98.253255,31.425789],[-98.252449,31.423873]]]}},{"type":"Feature","properties":{"PRECINCT":"8","VTD":"0008"},"geometry":{"type":"Polygon","coordinates":[[[-97.969804,31.078853],[-97.969533,31.074167],[-97.968572,31.067926],[-97.959649,31.066221],[-97.955826,31.064213],[-97.953733,31.063607],[-97.952203,31.063743],[-97.945947,31.065504],[-97.944528,31.065392],[-97.941661,31.064532],[-97.939848,31.064526],[-97.934768,31.06609],[-97.93267,31.067174],[-97.929898,31.060788],[-97.927181,31.061386],[-97.926596,31.058754],[-97.924633,31.059106],[-97.923894,31.058576],[-97.922834,31.060262],[-97.920642,31.059283],[-97.920324,31.058953],[-97.920655,31.056098],[-97.918329,31.05303],[-97.91852,31.052153],[-97.918299,31.05143],[-97.917668,31.05076],[-97.917639,31.049791],[-97.917213,31.049745],[-97.915285,31.050575],[-97.913851,31.050477],[-97.912654,31.050886],[-97.911689,31.035009],[-98.06403,31.0331],[-98.100728,31.032906],[-98.101738,31.035249],[-98.100226,31.036566],[-98.098944,31.036574],[-98.098601,31.036822],[-98.098045,31.038089],[-98.097867,31.039987],[-98.097162,31.042032],[-98.098285,31.046459],[-98.100039,31.050669],[-98.096643,31.051261],[-98.084586,31.054811],[-98.072877,31.054978],[-98.070241,31.055449],[-98.068696,31.055995],[-98.063696,31.058647],[-98.061668,31.060271],[-98.059846,31.06256],[-98.057281,31.067558],[-98.055754,31.069369],[-98.053726,31.070952],[-98.047368,31.074205],[-98.035803,31.077457],[-98.033017,31.077854],[-98.019717,31.078646],[-98.018187,31.078931],[-98.008813,31.081775],[-98.006638,31.081992],[-98.004942,31.081733],[-98.001269,31.079929],[-98.003059,31.077147],[-98.002666,31.075422],[-97.995158,31.07537],[-97.994852,31.07805],[-97.991266,31.078302],[-97.989534,31.079271],[-97.984758,31.079093],[-97.982441,31.079549],[-97.969613,31.086015],[-97.969255,31.085209],[-97.969623,31.083191],[-97.969804,31.078853]]]}},{"type":"Feature","properties":{"PRECINCT":"9","VTD":"0009"},"geometry":{"type":"Polygon","coordinates":[[[-98.029738,31.24689],[-98.005373,31.212279],[-97.968012,31.157796],[-97.950099,31.132284],[-97.950349,31.130449],[-97.950216,31.123954],[-97.950541,31.122734],[-97.951338,31.12141],[-97.95302,31.120029],[-97.957354,31.118474],[-97.959504,31.117158],[-97.970425,31.10553],[-97.977524,31.100527],[-97.988976,31.08824],[-97.988298,31.087679],[-97.9884,31.087014],[-97.989352,31.086331],[-97.990157,31.085181],[-97.990335,31.084521],[-97.99077,31.084032],[-97.990744,31.083322],[-97.99006,31.082701],[-97.989095,31.082487],[-97.98852,31.082592],[-97.987625,31.081998],[-97.987829,31.081442],[-97.988851,31.080639],[-97.989655,31.079099],[-97.990837,31.078488],[-97.991266,31.078302],[-97.994852,31.07805],[-97.995158,31.07537],[-98.002666,31.075422],[-98.003059,31.077147],[-98.001269,31.079929],[-98.004942,31.081733],[-98.006638,31.081992],[-98.008813,31.081775],[-98.018187,31.078931],[-98.019717,31.078646],[-98.033017,31.077854],[-98.035803,31.077457],[-98.047161,31.074269],[-98.051138,31.083683],[-98.050715,31.087169],[-98.051021,31.088496],[-98.051705,31.089231],[-98.054393,31.090848],[-98.057944,31.099386],[-98.058918,31.100312],[-98.060172,31.100767],[-98.060002,31.101103],[-98.049313,31.10452],[-98.047463,31.106206],[-98.047033,31.106002],[-98.046783,31.106263],[-98.046489,31.107687],[-98.046724,31.109026],[-98.047883,31.110849],[-98.048385,31.111233],[-98.050691,31.110866],[-98.05177,31.111479],[-98.052292,31.113351],[-98.053775,31.11447],[-98.055155,31.117221],[-98.056795,31.118071],[-98.0564,31.118972],[-98.059695,31.119563],[-98.065779,31.119247],[-98.067543,31.123883],[-98.070772,31.130699],[-98.073797,31.134841],[-98.074441,31.136651],[-98.074699,31.140697],[-98.082137,31.158739],[-98.082014,31.159541],[-98.0792,31.162976],[-98.079012,31.163967],[-98.079273,31.166315],[-98.078759,31.167385],[-98.069031,31.172846],[-98.069631,31.174493],[-98.069714,31.175972],[-98.071471,31.179766],[-98.072247,31.180926],[-98.07341,31.181151],[-98.075026,31.181126],[-98.077251,31.182225],[-98.080583,31.181681],[-98.083049,31.182718],[-98.086373,31.185259],[-98.087988,31.188662],[-98.089056,31.190032],[-98.087812,31.192721],[-98.087676,31.194913],[-98.086515,31.195617],[-98.086396,31.197024],[-98.087004,31.199266],[-98.08832,31.200006],[-98.089319,31.200915],[-98.091078,31.203571],[-98.089991,31.205224],[-98.090144,31.207932],[-98.088152,31.21094],[-98.086736,31.214061],[-98.087316,31.217069],[-98.088833,31.217685],[-98.089374,31.218574],[-98.09,31.222944],[-98.095131,31.227672],[-98.096134,31.229276],[-98.096332,31.23169],[-98.096243,31.236621],[-98.101322,31.243567],[-98.103215,31.245475],[-98.104681,31.245937],[-98.108425,31.245394],[-98.109672,31.24561],[-98.114403,31.244018],[-98.114814,31.244596],[-98.115105,31.24464],[-98.116908,31.248917],[-98.117106,31.250245],[-98.116966,31.251031],[-98.106556,31.254286],[-98.10305,31.261604],[-98.095678,31.273816],[-98.092644,31.275936],[-98.090066,31.280687],[-98.088652,31.282382],[-98.084832,31.285288],[-98.082567,31.288041],[-98.077243,31.2932],[-98.074699,31.294895],[-98.071896,31.299576],[-98.071377,31.301061],[-98.071142,31.302539],[-98.071638,31.30441],[-98.071766,31.307225],[-98.056082,31.28502],[-98.029738,31.24689]]]}}]}