{"type":"FeatureCollection","features":[{"type":"Feature","properties":{"PRECINCT":"101","VTD":"0101"},"geometry":{"type":"Polygon","coordinates":[[[-98.232836,29.296845],[-98.226895,29.275503],[-98.222225,29.274438],[-98.22242,29.271832],[-98.22198,29.27165],[-98.221998,29.267139],[-98.221457,29.265114],[-98.222071,29.262771],[-98.221213,29.259921],[-98.216157,29.255473],[-98.227931,29.246619],[-98.227216,29.244498],[-98.228905,29.244072],[-98.227317,29.239288],[-98.226271,29.238152],[-98.207385,29.252323],[-98.205687,29.253068],[-98.190704,29.25796],[-98.18799,29.259329],[-98.186656,29.260513],[-98.185433,29.262294],[-98.183611,29.268116],[-98.182578,29.267918],[-98.178602,29.263411],[-98.175892,29.260912],[-98.1752,29.260964],[-98.170163,29.255879],[-98.186836,29.243218],[-98.187422,29.242519],[-98.200088,29.233079],[-98.224975,29.213154],[-98.247357,29.2313],[-98.272227,29.249812],[-98.276018,29.252028],[-98.28702,29.257626],[-98.255615,29.296176],[-98.254888,29.293971],[-98.246212,29.296099],[-98.245921,29.295962],[-98.245039,29.293906],[-98.234213,29.296663],[-98.232836,29.296845]]]}},{"type":"Feature","properties":{"PRECINCT":"102","VTD":"0102"},"geometry":{"type":"Polygon","coordinates":[[[-98.182247,29.158273],[-98.18084,29.156923],[-98.176575,29.154563],[-98.174187,29.156424],[-98.176395,29.158621],[-98.173958,29.160583],[-98.168728,29.155547],[-98.16896,29.155386],[-98.164617,29.151708],[-98.16014,29.155204],[-98.157911,29.153065],[-98.152948,29.156439],[-98.148336,29.152122],[-98.156928,29.14544],[-98.151735,29.140317],[-98.154735,29.13806],[-98.155743,29.139008],[-98.161366,29.134527],[-98.159306,29.132578],[-98.162359,29.130091],[-98.16363,29.131326],[-98.164089,29.130525],[-98.164231,29.129678],[-98.16864,29.134177],[-98.170356,29.134411],[-98.171582,29.134006],[-98.17522,29.131264],[-98.177628,29.130377],[-98.177543,29.132079],[-98.178508,29.133328],[-98.178709,29.134528],[-98.179335,29.134973],[-98.18119,29.135557],[-98.182099,29.136679],[-98.182196,29.138351],[-98.171681,29.146242],[-98.174826,29.14935],[-98.174044,29.149971],[-98.177066,29.152986],[-98.177882,29.152307],[-98.178549,29.152691],[-98.182972,29.149384],[-98.181029,29.145601],[-98.185163,29.143105],[-98.185031,29.143452],[-98.185351,29.144013],[-98.185927,29.14469],[-98.186717,29.144965],[-98.18819,29.144327],[-98.189775,29.143996],[-98.190421,29.145069],[-98.191229,29.145504],[-98.194382,29.144271],[-98.195334,29.144332],[-98.19551,29.144915],[-98.195165,29.14574],[-98.19524,29.146505],[-98.196193,29.147],[-98.196306,29.147501],[-98.195604,29.148744],[-98.195429,29.149735],[-98.194739,29.150626],[-98.194733,29.151121],[-98.195372,29.151638],[-98.196525,29.151594],[-98.196311,29.151884],[-98.190509,29.155847],[-98.190469,29.156116],[-98.189245,29.157248],[-98.188627,29.1572],[-98.183902,29.160898],[-98.182247,29.158273]]]}},{"type":"Feature","properties":{"PRECINCT":"103","VTD":"0103"},"geometry":{"type":"Polygon","coordinates":[[[-98.205107,29.196696],[-98.199235,29.189053],[-98.196603,29.183601],[-98.195237,29.181506],[-98.173958,29.160583],[-98.176395,29.158621],[-98.174187,29.156424],[-98.176575,29.154563],[-98.18084,29.156923],[-98.182568,29.158623],[-98.183902,29.160898],[-98.188627,29.1572],[-98.189245,29.157248],[-98.190469,29.156116],[-98.190509,29.155847],[-98.196657,29.151638],[-98.197497,29.153762],[-98.196833,29.155539],[-98.196156,29.156039],[-98.194107,29.156705],[-98.192891,29.157839],[-98.192734,29.15857],[-98.195053,29.160281],[-98.196921,29.160859],[-98.197611,29.162317],[-98.197323,29.164237],[-98.197843,29.164716],[-98.198702,29.16466],[-98.199617,29.164028],[-98.201635,29.163301],[-98.203804,29.163268],[-98.203854,29.163961],[-98.202651,29.165826],[-98.202989,29.167015],[-98.202237,29.16778],[-98.202758,29.168473],[-98.204156,29.168731],[-98.206344,29.169666],[-98.206469,29.170134],[-98.206005,29.171724],[-98.205002,29.172692],[-98.204896,29.173193],[-98.205441,29.173705],[-98.20672,29.173715],[-98.207372,29.174282],[-98.207849,29.175459],[-98.207173,29.179278],[-98.203619,29.183608],[-98.203989,29.185275],[-98.204842,29.185858],[-98.205023,29.186248],[-98.204817,29.186887],[-98.204114,29.187514],[-98.203889,29.188295],[-98.205732,29.189038],[-98.206773,29.190017],[-98.208303,29.189571],[-98.209544,29.188366],[-98.211833,29.188179],[-98.213275,29.188299],[-98.21429,29.189003],[-98.217996,29.189965],[-98.218642,29.190416],[-98.219414,29.191968],[-98.219389,29.193112],[-98.218675,29.19479],[-98.218781,29.195439],[-98.220004,29.195945],[-98.221099,29.191064],[-98.226896,29.178165],[-98.231786,29.181316],[-98.233673,29.181833],[-98.235314,29.18167],[-98.239838,29.179851],[-98.243362,29.179046],[-98.253355,29.179097],[-98.256319,29.179487],[-98.260681,29.181052],[-98.261581,29.181696],[-98.262315,29.182774],[-98.263975,29.187813],[-98.26514,29.188943],[-98.267203,29.189834],[-98.286136,29.160492],[-98.287744,29.157834],[-98.287933,29.156644],[-98.288536,29.155331],[-98.295529,29.144147],[-98.322276,29.158054],[-98.324473,29.154175],[-98.324909,29.1498],[-98.326651,29.140927],[-98.327088,29.137218],[-98.327111,29.133646],[-98.327328,29.132975],[-98.372654,29.1555],[-98.295955,29.247319],[-98.28702,29.257626],[-98.276018,29.252028],[-98.272227,29.249812],[-98.247357,29.2313],[-98.208992,29.200231],[-98.205107,29.196696]]]}},{"type":"Feature","properties":{"PRECINCT":"104","VTD":"0104"},"geometry":{"type":"Polygon","coordinates":[[[-98.213275,29.188299],[-98.209695,29.188316],[-98.208303,29.189571],[-98.206773,29.190017],[-98.205732,29.189038],[-98.203889,29.188295],[-98.204114,29.187514],[-98.204817,29.186887],[-98.205023,29.186248],[-98.204842,29.185858],[-98.203989,29.185275],[-98.203619,29.183608],[-98.207173,29.179278],[-98.207849,29.175459],[-98.207372,29.174282],[-98.20672,29.173715],[-98.205441,29.173705],[-98.204896,29.173193],[-98.205002,29.172692],[-98.206005,29.171724],[-98.206469,29.170134],[-98.206344,29.169666],[-98.204156,29.168731],[-98.202758,29.168473],[-98.202237,29.16778],[-98.202989,29.167015],[-98.202651,29.165826],[-98.203854,29.163961],[-98.203804,29.163268],[-98.201635,29.163301],[-98.199617,29.164028],[-98.198702,29.16466],[-98.197843,29.164716],[-98.197323,29.164237],[-98.197611,29.162317],[-98.196921,29.160859],[-98.195053,29.160281],[-98.192734,29.15857],[-98.192891,29.157839],[-98.194107,29.156705],[-98.196701,29.155709],[-98.197497,29.153822],[-98.196657,29.151638],[-98.195372,29.151638],[-98.194733,29.151121],[-98.194739,29.150626],[-98.195429,29.149735],[-98.195604,29.148744],[-98.196306,29.147501],[-98.196193,29.147],[-98.19524,29.146505],[-98.195165,29.14574],[-98.19551,29.144915],[-98.195334,29.144332],[-98.194382,29.144271],[-98.191229,29.145504],[-98.190421,29.145069],[-98.189775,29.143996],[-98.18819,29.144327],[-98.186717,29.144965],[-98.185927,29.14469],[-98.185351,29.144013],[-98.185031,29.143452],[-98.185163,29.143105],[-98.181029,29.145601],[-98.182972,29.149384],[-98.178549,29.152691],[-98.177882,29.152307],[-98.177066,29.152986],[-98.174044,29.149971],[-98.174826,29.14935],[-98.171681,29.146242],[-98.182196,29.138351],[-98.182143,29.136762],[-98.18119,29.135557],[-98.179335,29.134973],[-98.178709,29.134528],[-98.178508,29.133328],[-98.177543,29.132079],[-98.177628,29.130377],[-98.17522,29.131264],[-98.171582,29.134006],[-98.170758,29.134361],[-98.16864,29.134177],[-98.167607,29.133105],[-98.169075,29.131681],[-98.171735,29.130197],[-98.171929,29.129757],[-98.173421,29.128784],[-98.17359,29.128398],[-98.173195,29.127832],[-98.17317,29.127249],[-98.173772,29.126423],[-98.17589,29.126198],[-98.177456,29.126671],[-98.178365,29.1266],[-98.182887,29.1231],[-98.183558,29.122098],[-98.183583,29.12102],[-98.183313,29.120453],[-98.182204,29.11948],[-98.182023,29.11822],[-98.182718,29.117664],[-98.183633,29.117994],[-98.18409,29.117917],[-98.184491,29.116734],[-98.183307,29.114792],[-98.181115,29.113136],[-98.18015,29.112789],[-98.179448,29.113174],[-98.178427,29.114885],[-98.178088,29.116327],[-98.177355,29.116772],[-98.175974,29.116572],[-98.174249,29.114115],[-98.174601,29.111942],[-98.174091,29.110135],[-98.182462,29.102557],[-98.197723,29.090874],[-98.202524,29.088038],[-98.311308,29.041444],[-98.321369,29.037193],[-98.330822,29.033529],[-98.407336,29.114435],[-98.397585,29.125244],[-98.372654,29.1555],[-98.327328,29.132975],[-98.327111,29.133646],[-98.327088,29.137218],[-98.326651,29.140927],[-98.324909,29.1498],[-98.324473,29.154175],[-98.322276,29.158054],[-98.295529,29.144147],[-98.288536,29.155331],[-98.287933,29.156644],[-98.287744,29.157834],[-98.286136,29.160492],[-98.267203,29.189834],[-98.26514,29.188943],[-98.263975,29.187813],[-98.262315,29.182774],[-98.261581,29.181696],[-98.260681,29.181052],[-98.256319,29.179487],[-98.253355,29.179097],[-98.243362,29.179046],[-98.239838,29.179851],[-98.235314,29.18167],[-98.233673,29.181833],[-98.231786,29.181316],[-98.226896,29.178165],[-98.221099,29.191064],[-98.220004,29.195945],[-98.218756,29.195357],[-98.2187,29.194669],[-98.219207,29.193734],[-98.219452,29.192628],[-98.219257,29.191533],[-98.218642,29.190416],[-98.217833,29.189888],[-98.21429,29.189003],[-98.213275,29.188299]]]}},{"type":"Feature","properties":{"PRECINCT":"205","VTD":"0205"},"geometry":{"type":"Polygon","coordinates":[[[-97.976635,29.171303],[-97.971291,29.17411],[-97.958955,29.155248],[-97.945986,29.162005],[-97.919445,29.175226],[-97.910823,29.162078],[-97.909687,29.160886],[-97.908073,29.159829],[-97.905559,29.158927],[-97.868358,29.150346],[-97.866127,29.150296],[-97.837865,29.154474],[-97.824354,29.157286],[-97.82184,29.157134],[-97.818151,29.155992],[-98.0553,28.98178],[-98.067735,28.972817],[-98.068391,28.972078],[-98.073314,28.968783],[-98.075008,28.967224],[-98.08616,28.959213],[-98.115763,28.936717],[-98.125284,28.928957],[-98.190991,28.882333],[-98.250287,28.945871],[-98.252431,28.947742],[-98.270161,28.968873],[-98.299873,29.000249],[-98.303278,29.004187],[-98.330822,29.033529],[-98.321369,29.037193],[-98.311308,29.041444],[-98.202524,29.088038],[-98.197723,29.090874],[-98.182462,29.102557],[-98.174091,29.110135],[-98.172583,29.107909],[-98.171286,29.107122],[-98.170735,29.107199],[-98.170002,29.107985],[-98.169594,29.1099],[-98.169888,29.110043],[-98.170966,29.10952],[-98.171323,29.109751],[-98.171185,29.111688],[-98.170514,29.112183],[-98.169211,29.111578],[-98.168285,29.109135],[-98.167621,29.108557],[-98.166737,29.109245],[-98.165923,29.110955],[-98.165809,29.11276],[-98.165126,29.113145],[-98.164387,29.113233],[-98.163078,29.112947],[-98.162145,29.110784],[-98.162433,29.110174],[-98.163523,29.109503],[-98.163042,29.107659],[-98.162653,29.107549],[-98.161901,29.107764],[-98.160103,29.108869],[-98.160359,29.110008],[-98.160077,29.111653],[-98.159764,29.112462],[-98.159043,29.113298],[-98.157884,29.113622],[-98.157364,29.113539],[-98.156117,29.112626],[-98.155729,29.111894],[-98.155191,29.109583],[-98.156069,29.108186],[-98.156752,29.105155],[-98.157492,29.104737],[-98.158074,29.104676],[-98.162597,29.106284],[-98.163167,29.106086],[-98.1638,29.104287],[-98.162855,29.102928],[-98.160869,29.102746],[-98.160111,29.103521],[-98.159509,29.103747],[-98.158357,29.103582],[-98.157862,29.103026],[-98.158213,29.102195],[-98.158783,29.101711],[-98.161922,29.101486],[-98.162479,29.101272],[-98.162498,29.100799],[-98.161985,29.100204],[-98.161515,29.099863],[-98.160131,29.099456],[-98.160006,29.098669],[-98.160388,29.098245],[-98.164466,29.09626],[-98.164817,29.095661],[-98.164661,29.094549],[-98.16411,29.093729],[-98.162964,29.092827],[-98.162983,29.091396],[-98.162394,29.090879],[-98.160565,29.09095],[-98.155579,29.092638],[-98.154871,29.09272],[-98.154251,29.092489],[-98.153994,29.092049],[-98.154145,29.09069],[-98.155186,29.086894],[-98.154705,29.084479],[-98.155858,29.083225],[-98.156246,29.082289],[-98.15506,29.082197],[-98.149674,29.083248],[-98.145349,29.078497],[-98.147413,29.077628],[-98.145618,29.075642],[-98.145685,29.075309],[-98.1448,29.074087],[-98.141855,29.071027],[-98.139722,29.074643],[-98.128599,29.073112],[-98.127775,29.074008],[-98.12764,29.074878],[-98.121805,29.080804],[-98.116454,29.07528],[-98.115106,29.076273],[-98.114703,29.07615],[-98.111054,29.078659],[-98.117257,29.085572],[-98.109344,29.094244],[-98.118985,29.099339],[-98.112187,29.105275],[-98.109843,29.107777],[-98.127077,29.115711],[-98.108149,29.130145],[-98.107043,29.130422],[-98.102629,29.12845],[-98.101364,29.128459],[-98.074,29.13757],[-98.065555,29.141766],[-98.064833,29.141703],[-98.064253,29.14132],[-98.06072,29.135866],[-98.033071,29.149949],[-98.029173,29.153265],[-97.999243,29.168374],[-97.992084,29.171672],[-97.987048,29.175045],[-97.981269,29.177819],[-97.98089,29.177694],[-97.976635,29.171303]]]}},{"type":"Feature","properties":{"PRECINCT":"206","VTD":"0206"},"geometry":{"type":"Polygon","coordinates":[[[-98.144363,29.147656],[-98.140684,29.143453],[-98.137682,29.145764],[-98.132917,29.140859],[-98.129925,29.138161],[-98.128531,29.138348],[-98.124573,29.141416],[-98.119351,29.136262],[-98.107603,29.13076],[-98.107319,29.130465],[-98.108149,29.130145],[-98.127077,29.115711],[-98.109843,29.107777],[-98.112187,29.105275],[-98.118985,29.099339],[-98.109344,29.094244],[-98.117257,29.085572],[-98.111054,29.078659],[-98.114703,29.07615],[-98.115106,29.076273],[-98.116556,29.075283],[-98.121805,29.080804],[-98.12764,29.074878],[-98.127775,29.074008],[-98.128599,29.073112],[-98.139722,29.074643],[-98.141855,29.071027],[-98.1448,29.074087],[-98.145685,29.075309],[-98.145618,29.075642],[-98.147413,29.077628],[-98.145349,29.078497],[-98.149674,29.083248],[-98.15506,29.082197],[-98.156246,29.082289],[-98.155858,29.083225],[-98.154705,29.084479],[-98.155186,29.086894],[-98.154145,29.09069],[-98.153994,29.092049],[-98.154251,29.092489],[-98.154871,29.09272],[-98.155579,29.092638],[-98.160565,29.09095],[-98.162394,29.090879],[-98.162983,29.091396],[-98.162964,29.092827],[-98.16411,29.093729],[-98.164661,29.094549],[-98.164817,29.095661],[-98.164466,29.09626],[-98.160388,29.098245],[-98.160006,29.098669],[-98.160131,29.099456],[-98.161515,29.099863],[-98.161985,29.100204],[-98.162498,29.100799],[-98.162479,29.101272],[-98.161922,29.101486],[-98.158783,29.101711],[-98.158213,29.102195],[-98.157862,29.103026],[-98.158357,29.103582],[-98.159509,29.103747],[-98.160111,29.103521],[-98.160869,29.102746],[-98.162855,29.102928],[-98.1638,29.104287],[-98.163167,29.106086],[-98.162597,29.106284],[-98.158074,29.104676],[-98.157492,29.104737],[-98.156752,29.105155],[-98.156069,29.108186],[-98.155191,29.109583],[-98.155729,29.111894],[-98.15623,29.112769],[-98.157119,29.113457],[-98.157671,29.1136],[-98.159043,29.113298],[-98.159764,29.112462],[-98.160077,29.111653],[-98.160359,29.110008],[-98.160103,29.108869],[-98.161901,29.107764],[-98.162653,29.107549],[-98.163042,29.107659],[-98.163523,29.109503],[-98.162433,29.110174],[-98.162145,29.110784],[-98.163078,29.112947],[-98.164387,29.113233],[-98.165126,29.113145],[-98.165809,29.11276],[-98.165923,29.110955],[-98.166737,29.109245],[-98.167621,29.108557],[-98.168285,29.109135],[-98.169211,29.111578],[-98.170126,29.112133],[-98.170596,29.112161],[-98.171185,29.111688],[-98.171323,29.109751],[-98.170859,29.109542],[-98.169788,29.11007],[-98.169606,29.109773],[-98.170064,29.107853],[-98.170735,29.107199],[-98.171192,29.1071],[-98.172583,29.107909],[-98.174254,29.110456],[-98.174603,29.112325],[-98.174249,29.114115],[-98.175974,29.116572],[-98.177355,29.116772],[-98.178088,29.116327],[-98.178427,29.114885],[-98.179448,29.113174],[-98.18015,29.112789],[-98.181115,29.113136],[-98.183307,29.114792],[-98.184491,29.116652],[-98.18409,29.117917],[-98.183733,29.118011],[-98.182612,29.117691],[-98.18196,29.118473],[-98.182204,29.11948],[-98.183313,29.120453],[-98.183583,29.12102],[-98.183413,29.122412],[-98.182198,29.12371],[-98.180176,29.12507],[-98.178691,29.126407],[-98.177901,29.126699],[-98.17589,29.126198],[-98.173772,29.126423],[-98.17317,29.127249],[-98.173195,29.127832],[-98.17359,29.128398],[-98.173421,29.128784],[-98.171929,29.129757],[-98.171735,29.130197],[-98.169075,29.131681],[-98.167607,29.133105],[-98.164231,29.129678],[-98.164089,29.130525],[-98.16363,29.131326],[-98.162359,29.130091],[-98.159306,29.132578],[-98.161366,29.134527],[-98.155743,29.139008],[-98.154735,29.13806],[-98.151735,29.140317],[-98.156928,29.14544],[-98.148336,29.152122],[-98.14951,29.153191],[-98.144592,29.157003],[-98.143808,29.156164],[-98.143973,29.1554],[-98.146191,29.153362],[-98.144505,29.151672],[-98.141782,29.149638],[-98.144363,29.147656]]]}},{"type":"Feature","properties":{"PRECINCT":"207","VTD":"0207"},"geometry":{"type":"Polygon","coordinates":[[[-98.129233,29.202727],[-98.111206,29.184638],[-98.068583,29.217936],[-98.065325,29.212613],[-98.062912,29.21108],[-98.06211,29.210304],[-98.047747,29.188585],[-98.047222,29.187404],[-98.046896,29.184522],[-98.04455,29.180848],[-98.039674,29.169639],[-98.028898,29.153407],[-98.030415,29.152389],[-98.031743,29.150956],[-98.033071,29.149949],[-98.06072,29.135866],[-98.064253,29.14132],[-98.064833,29.141703],[-98.065555,29.141766],[-98.074,29.13757],[-98.100082,29.128858],[-98.101781,29.128369],[-98.102629,29.12845],[-98.107319,29.130465],[-98.107603,29.13076],[-98.119351,29.136262],[-98.124573,29.141416],[-98.128531,29.138348],[-98.129789,29.138138],[-98.130299,29.138371],[-98.132917,29.140859],[-98.137682,29.145764],[-98.140684,29.143453],[-98.144363,29.147656],[-98.141782,29.149638],[-98.144505,29.151672],[-98.146191,29.153362],[-98.143973,29.1554],[-98.143808,29.156164],[-98.144592,29.157003],[-98.14951,29.153191],[-98.152948,29.156439],[-98.157911,29.153065],[-98.16014,29.155204],[-98.164617,29.151708],[-98.16896,29.155386],[-98.168728,29.155547],[-98.195237,29.181506],[-98.196603,29.183601],[-98.199235,29.189053],[-98.205773,29.197454],[-98.224975,29.213154],[-98.200088,29.233079],[-98.187422,29.242519],[-98.186836,29.243218],[-98.170349,29.255757],[-98.164535,29.25024],[-98.155652,29.241053],[-98.151152,29.236968],[-98.14388,29.229837],[-98.136512,29.222206],[-98.136287,29.221374],[-98.14276,29.216366],[-98.129893,29.203756],[-98.129233,29.202727]]]}},{"type":"Feature","properties":{"PRECINCT":"311","VTD":"0311"},"geometry":{"type":"Polygon","coordinates":[[[-98.134089,29.44136],[-98.132725,29.440688],[-98.132764,29.440012],[-98.13443,29.438901],[-98.135153,29.438808],[-98.135241,29.438544],[-98.13465,29.437768],[-98.133633,29.437003],[-98.132653,29.435214],[-98.13166,29.434713],[-98.131718,29.433019],[-98.132045,29.432645],[-98.133723,29.432679],[-98.135678,29.431953],[-98.136584,29.429748],[-98.136389,29.42901],[-98.135529,29.428152],[-98.134706,29.427766],[-98.13409,29.427794],[-98.133556,29.427106],[-98.133286,29.426286],[-98.133695,29.425417],[-98.132791,29.423716],[-98.132654,29.422831],[-98.131799,29.422759],[-98.131749,29.422308],[-98.131165,29.422104],[-98.131077,29.420877],[-98.130325,29.418241],[-98.13153,29.415902],[-98.131944,29.415609],[-98.133418,29.415355],[-98.133664,29.414232],[-98.133142,29.41404],[-98.132998,29.413286],[-98.131901,29.412034],[-98.130814,29.411919],[-98.129851,29.412487],[-98.128582,29.412068],[-98.12828,29.411705],[-98.128174,29.410924],[-98.128564,29.409923],[-98.129096,29.409414],[-98.129005,29.408784],[-98.129515,29.407079],[-98.130294,29.405478],[-98.130138,29.405204],[-98.129052,29.405094],[-98.128145,29.404437],[-98.127795,29.403403],[-98.128022,29.402875],[-98.127903,29.401868],[-98.12703,29.401015],[-98.127533,29.400295],[-98.127638,29.399075],[-98.12805,29.397922],[-98.128557,29.397767],[-98.128977,29.398275],[-98.129741,29.398574],[-98.130214,29.398367],[-98.130483,29.39784],[-98.129571,29.397094],[-98.12861,29.396675],[-98.127743,29.395514],[-98.126569,29.394826],[-98.126645,29.392895],[-98.126024,29.391756],[-98.12627,29.390755],[-98.124917,29.390068],[-98.123132,29.388132],[-98.121767,29.387837],[-98.121384,29.385767],[-98.119951,29.384189],[-98.119542,29.38337],[-98.119843,29.382066],[-98.120565,29.380657],[-98.122511,29.378841],[-98.122523,29.3784],[-98.121555,29.37718],[-98.120249,29.376922],[-98.119495,29.376498],[-98.119356,29.376058],[-98.119626,29.375646],[-98.119557,29.375282],[-98.118681,29.374659],[-98.118216,29.373801],[-98.115407,29.371019],[-98.11508,29.37092],[-98.115017,29.370293],[-98.11557,29.369544],[-98.115632,29.368939],[-98.112968,29.366734],[-98.113219,29.365909],[-98.11307,29.36533],[-98.099713,29.37206],[-98.099304,29.36654],[-98.099883,29.364834],[-98.10117,29.36375],[-98.106481,29.361062],[-98.107971,29.359712],[-98.106748,29.359221],[-98.1047,29.359568],[-98.103155,29.358056],[-98.102144,29.358315],[-98.101817,29.356626],[-98.101339,29.356169],[-98.099619,29.3565],[-98.099186,29.357347],[-98.098665,29.357644],[-98.097804,29.357644],[-98.097358,29.356764],[-98.097301,29.355037],[-98.096826,29.354547],[-98.10664,29.349936],[-98.103046,29.344148],[-98.103482,29.343964],[-98.102973,29.343256],[-98.104061,29.342866],[-98.105817,29.34592],[-98.108812,29.344038],[-98.113483,29.350091],[-98.124027,29.344616],[-98.12422,29.344933],[-98.125069,29.344486],[-98.124929,29.344181],[-98.132668,29.34044],[-98.134792,29.34378],[-98.135643,29.341793],[-98.137037,29.34063],[-98.159557,29.329897],[-98.160353,29.329231],[-98.161203,29.32773],[-98.167564,29.305751],[-98.168753,29.30429],[-98.171201,29.302895],[-98.191687,29.307229],[-98.237988,29.317737],[-98.190599,29.375249],[-98.180295,29.388413],[-98.166186,29.405334],[-98.160486,29.412534],[-98.137187,29.440428],[-98.134171,29.441751],[-98.134089,29.44136]]]}},{"type":"Feature","properties":{"PRECINCT":"312","VTD":"0312"},"geometry":{"type":"Polygon","coordinates":[[[-98.010222,29.378931],[-98.082385,29.339049],[-98.081603,29.32515],[-98.133453,29.303313],[-98.144435,29.298921],[-98.142851,29.295475],[-98.158925,29.298701],[-98.163509,29.301227],[-98.170922,29.30302],[-98.168753,29.30429],[-98.167564,29.305751],[-98.161203,29.32773],[-98.160353,29.329231],[-98.159557,29.329897],[-98.137037,29.34063],[-98.135643,29.341793],[-98.134792,29.34378],[-98.132668,29.34044],[-98.124929,29.344181],[-98.125069,29.344486],[-98.12422,29.344933],[-98.124027,29.344616],[-98.113483,29.350091],[-98.108812,29.344038],[-98.105817,29.34592],[-98.104061,29.342866],[-98.102973,29.343256],[-98.103482,29.343964],[-98.103046,29.344148],[-98.10664,29.349936],[-98.096826,29.354547],[-98.097301,29.355037],[-98.097358,29.356764],[-98.097804,29.357644],[-98.098665,29.357644],[-98.099186,29.357347],[-98.099619,29.3565],[-98.101339,29.356169],[-98.101817,29.356626],[-98.102144,29.358315],[-98.103155,29.358056],[-98.1047,29.359568],[-98.106748,29.359221],[-98.107971,29.359712],[-98.106481,29.361062],[-98.10117,29.36375],[-98.099883,29.364834],[-98.099304,29.36654],[-98.099713,29.37206],[-98.094024,29.375236],[-98.086035,29.379012],[-98.084684,29.379594],[-98.044579,29.378819],[-98.010222,29.378931]]]}},{"type":"Feature","properties":{"PRECINCT":"313","VTD":"0313"},"geometry":{"type":"Polygon","coordinates":[[[-98.010222,29.378931],[-97.956081,29.378436],[-97.9635,29.307704],[-97.964996,29.309937],[-98.004437,29.289907],[-97.997226,29.279105],[-97.99897,29.279213],[-98.000303,29.278199],[-98.00028,29.275415],[-98.001184,29.274766],[-98.001931,29.274535],[-98.002384,29.272726],[-98.003338,29.272341],[-98.005108,29.27101],[-98.006206,29.27056],[-98.008553,29.270115],[-98.010078,29.26929],[-98.010255,29.266771],[-98.010726,29.26621],[-98.010864,29.265423],[-98.011279,29.264835],[-98.013325,29.263438],[-98.015759,29.262284],[-98.017773,29.262796],[-98.019216,29.262588],[-98.019267,29.261834],[-98.020598,29.259403],[-98.021715,29.258985],[-98.023973,29.258661],[-98.025436,29.25629],[-98.02676,29.255432],[-98.026848,29.255036],[-98.026585,29.254602],[-98.025882,29.254112],[-98.023354,29.254265],[-98.023925,29.253748],[-98.023963,29.253215],[-98.022633,29.252725],[-98.022019,29.251778],[-98.021975,29.250551],[-98.024207,29.249048],[-98.024772,29.24808],[-98.023356,29.246816],[-98.03917,29.240451],[-98.041197,29.23929],[-98.054419,29.229031],[-98.05803,29.234688],[-98.060393,29.233592],[-98.064423,29.239857],[-98.064627,29.241178],[-98.070253,29.250179],[-98.068401,29.251378],[-98.0693,29.25311],[-98.068307,29.256497],[-98.064112,29.258771],[-98.068436,29.265336],[-98.094442,29.252193],[-98.112649,29.279663],[-98.112594,29.280198],[-98.110607,29.281202],[-98.116463,29.290099],[-98.117036,29.290362],[-98.142851,29.295475],[-98.144435,29.298921],[-98.133453,29.303313],[-98.081603,29.32515],[-98.082385,29.339049],[-98.010222,29.378931]]]}},{"type":"Feature","properties":{"PRECINCT":"414","VTD":"0414"},"geometry":{"type":"Polygon","coordinates":[[[-97.840383,29.376791],[-97.858782,29.35289],[-97.793337,29.287301],[-97.771334,29.264411],[-97.771082,29.26384],[-97.768831,29.261872],[-97.757701,29.250234],[-97.728443,29.221748],[-97.818151,29.155992],[-97.82184,29.157134],[-97.824354,29.157286],[-97.837865,29.154474],[-97.866127,29.150296],[-97.868358,29.150346],[-97.905559,29.158927],[-97.908073,29.159829],[-97.909687,29.160886],[-97.910823,29.162078],[-97.919445,29.175226],[-97.945986,29.162005],[-97.958955,29.155248],[-97.971291,29.17411],[-97.976676,29.171315],[-97.98115,29.177854],[-97.987048,29.175045],[-97.992084,29.171672],[-97.999243,29.168374],[-98.028898,29.153407],[-98.039674,29.169639],[-98.04455,29.180848],[-98.046896,29.184522],[-98.047222,29.187404],[-98.047747,29.188585],[-98.06211,29.210304],[-98.065574,29.212921],[-98.079698,29.236265],[-98.09108,29.253895],[-98.068436,29.265336],[-98.064112,29.258771],[-98.068307,29.256497],[-98.0693,29.25311],[-98.068401,29.251378],[-98.070253,29.250179],[-98.064627,29.241178],[-98.064423,29.239857],[-98.060393,29.233592],[-98.05803,29.234688],[-98.054419,29.229031],[-98.041197,29.23929],[-98.03917,29.240451],[-98.023356,29.246816],[-98.024772,29.24808],[-98.024207,29.249048],[-98.021975,29.250551],[-98.022019,29.251778],[-98.022633,29.252725],[-98.023963,29.253215],[-98.023925,29.253748],[-98.023354,29.254265],[-98.025882,29.254112],[-98.026585,29.254602],[-98.026848,29.255036],[-98.02676,29.255432],[-98.025436,29.25629],[-98.023973,29.258661],[-98.021715,29.258985],[-98.020598,29.259403],[-98.019267,29.261834],[-98.019216,29.262588],[-98.017773,29.262796],[-98.015759,29.262284],[-98.013325,29.263438],[-98.011279,29.264835],[-98.010864,29.265423],[-98.010726,29.26621],[-98.010255,29.266771],[-98.010078,29.26929],[-98.008553,29.270115],[-98.006206,29.27056],[-98.005108,29.27101],[-98.003338,29.272341],[-98.002384,29.272726],[-98.001931,29.274535],[-98.001184,29.274766],[-98.00028,29.275415],[-98.000303,29.278199],[-97.99897,29.279213],[-97.997226,29.279105],[-98.004437,29.289907],[-97.964996,29.309937],[-97.9635,29.307704],[-97.956081,29.378436],[-97.897832,29.377345],[-97.840383,29.376791]]]}},{"type":"Feature","properties":{"PRECINCT":"415","VTD":"0415"},"geometry":{"type":"Polygon","coordinates":[[[-98.186554,29.306141],[-98.171326,29.302879],[-98.170922,29.30302],[-98.163509,29.301227],[-98.159781,29.299031],[-98.158664,29.298634],[-98.116574,29.290197],[-98.110607,29.281202],[-98.112594,29.280198],[-98.112649,29.279663],[-98.098782,29.25858],[-98.094442,29.252193],[-98.09108,29.253895],[-98.079698,29.236265],[-98.068583,29.217936],[-98.111206,29.184638],[-98.129233,29.202727],[-98.129893,29.203756],[-98.14276,29.216366],[-98.136287,29.221374],[-98.136512,29.222206],[-98.14388,29.229837],[-98.151152,29.236968],[-98.155652,29.241053],[-98.164535,29.25024],[-98.170349,29.255757],[-98.170163,29.255879],[-98.1752,29.260964],[-98.175892,29.260912],[-98.178602,29.263411],[-98.182578,29.267918],[-98.183611,29.268116],[-98.185634,29.261917],[-98.186962,29.260195],[-98.188692,29.258844],[-98.190704,29.25796],[-98.206978,29.252539],[-98.208436,29.251633],[-98.226271,29.238152],[-98.227317,29.239288],[-98.228905,29.244072],[-98.227216,29.244498],[-98.227931,29.246619],[-98.198981,29.26845],[-98.198964,29.269137],[-98.198267,29.26898],[-98.197796,29.269312],[-98.196651,29.26914],[-98.196344,29.270356],[-98.189845,29.275147],[-98.187599,29.284565],[-98.190098,29.285085],[-98.187134,29.296834],[-98.188358,29.297129],[-98.186377,29.304869],[-98.18674,29.30491],[-98.186554,29.306141]]]}},{"type":"Feature","properties":{"PRECINCT":"416","VTD":"0416"},"geometry":{"type":"Polygon","coordinates":[[[-98.187134,29.296834],[-98.190098,29.285085],[-98.187599,29.284565],[-98.189845,29.275147],[-98.196344,29.270356],[-98.196651,29.26914],[-98.197796,29.269312],[-98.198267,29.26898],[-98.198964,29.269137],[-98.198981,29.26845],[-98.216157,29.255473],[-98.221213,29.259921],[-98.222071,29.262771],[-98.221457,29.265114],[-98.221998,29.267139],[-98.22198,29.27165],[-98.22242,29.271832],[-98.222225,29.274438],[-98.226895,29.275503],[-98.232836,29.296845],[-98.234353,29.296634],[-98.245039,29.293906],[-98.245921,29.295962],[-98.246212,29.296099],[-98.254888,29.293971],[-98.255615,29.296176],[-98.237988,29.317737],[-98.186554,29.306141],[-98.18674,29.30491],[-98.186377,29.304869],[-98.188358,29.297129],[-98.187134,29.296834]]]}}]}