{"type":"FeatureCollection","features":[{"type":"Feature","properties":{"PRECINCT":"bell:101","COUNTY":"Bell"},"geometry":{"type":"Polygon","coordinates":[[[-97.52118,31.14056],[-97.51319,31.13148],[-97.51167,31.13027],[-97.51033,31.12818],[-97.50841,31.12617],[-97.50554,31.12457],[-97.50535,31.12379],[-97.49581,31.11844],[-97.49873,31.1168],[-97.47883,31.10664],[-97.47433,31.10546],[-97.47196,31.11171],[-97.47407,31.11342],[-97.47464,31.11336],[-97.47567,31.11367],[-97.47597,31.1145],[-97.47584,31.11493],[-97.47644,31.11588],[-97.47613,31.11593],[-97.4762,31.11607],[-97.46589,31.11341],[-97.46726,31.10949],[-97.46083,31.10447],[-97.46007,31.1041],[-97.45903,31.10223],[-97.45331,31.09641],[-97.45679,31.08729],[-97.45754,31.08379],[-97.46633,31.08663],[-97.46787,31.0875],[-97.46852,31.08673],[-97.47015,31.08273],[-97.47174,31.08004],[-97.46744,31.07581],[-97.4635,31.0699],[-97.46525,31.06913],[-97.46658,31.06574],[-97.46773,31.06605],[-97.46779,31.06695],[-97.46868,31.06717],[-97.46906,31.06635],[-97.47181,31.06774],[-97.4706,31.0684],[-97.46931,31.06977],[-97.46866,31.07151],[-97.46868,31.07251],[-97.47037,31.07251],[-97.4716,31.07192],[-97.47387,31.07182],[-97.47649,31.07116],[-97.47859,31.07113],[-97.4797,31.07025],[-97.48028,31.0704],[-97.48075,31.07107],[-97.48072,31.07187],[-97.47941,31.07326],[-97.47935,31.07386],[-97.48089,31.07675],[-97.48272,31.07914],[-97.4827,31.0808],[-97.48323,31.08148],[-97.4858,31.08122],[-97.48734,31.08175],[-97.48846,31.08172],[-97.49084,31.08303],[-97.49264,31.08312],[-97.49384,31.08224],[-97.49511,31.08219],[-97.49576,31.08175],[-97.49573,31.07869],[-97.4967,31.07708],[-97.49736,31.07679],[-97.49781,31.07683],[-97.49952,31.07748],[-97.50152,31.0777],[-97.50393,31.07623],[-97.50515,31.07491],[-97.50568,31.07472],[-97.50659,31.07485],[-97.50769,31.07583],[-97.50985,31.07668],[-97.51305,31.07881],[-97.51513,31.0793],[-97.51907,31.0775],[-97.52047,31.07732],[-97.52293,31.07649],[-97.52762,31.07671],[-97.52745,31.07552],[-97.52992,31.07519],[-97.53097,31.07529],[-97.53268,31.07608],[-97.53991,31.08237],[-97.5434,31.08356],[-97.54444,31.08411],[-97.54979,31.09164],[-97.55924,31.09119],[-97.56,31.09255],[-97.56168,31.09432],[-97.56239,31.09736],[-97.56343,31.09999],[-97.56124,31.10594],[-97.55516,31.10455],[-97.54521,31.10175],[-97.53859,31.11877],[-97.53337,31.13588],[-97.53264,31.13719],[-97.53171,31.13785],[-97.53158,31.13828],[-97.53124,31.13817],[-97.53106,31.13843],[-97.53083,31.13837],[-97.53047,31.13871],[-97.52732,31.14007],[-97.52647,31.13999],[-97.52475,31.14286],[-97.52256,31.14177],[-97.52118,31.14056]]]}},{"type":"Feature","properties":{"PRECINCT":"bell:102","COUNTY":"Bell"},"geometry":{"type":"Polygon","coordinates":[[[-97.4166,31.08675],[-97.41827,31.08204],[-97.41452,31.08391],[-97.41411,31.08477],[-97.41296,31.08522],[-97.41375,31.08239],[-97.41349,31.08156],[-97.41273,31.08075],[-97.41668,31.07707],[-97.42662,31.06873],[-97.42775,31.068],[-97.4336,31.06289],[-97.43595,31.06117],[-97.43843,31.05988],[-97.44441,31.05793],[-97.44433,31.05759],[-97.44477,31.05744],[-97.44493,31.0583],[-97.44395,31.06026],[-97.44337,31.06248],[-97.44937,31.06285],[-97.45246,31.06348],[-97.45644,31.06506],[-97.4597,31.06707],[-97.46436,31.05483],[-97.46504,31.0563],[-97.465,31.06024],[-97.46534,31.06145],[-97.46597,31.06235],[-97.46719,31.06319],[-97.46839,31.06331],[-97.47032,31.06274],[-97.47147,31.06178],[-97.47192,31.0617],[-97.47287,31.06211],[-97.47384,31.06313],[-97.47428,31.06543],[-97.47303,31.06718],[-97.47191,31.0678],[-97.46906,31.06635],[-97.46868,31.06717],[-97.46779,31.06695],[-97.46773,31.06605],[-97.46658,31.06574],[-97.46525,31.06913],[-97.4635,31.0699],[-97.46744,31.07581],[-97.47174,31.08004],[-97.47015,31.08273],[-97.46841,31.08692],[-97.46787,31.0875],[-97.46633,31.08663],[-97.45754,31.08379],[-97.45679,31.08729],[-97.45185,31.10025],[-97.4391,31.09645],[-97.43963,31.09471],[-97.43945,31.09452],[-97.43171,31.09228],[-97.43195,31.09166],[-97.42697,31.09032],[-97.42718,31.08977],[-97.4166,31.08675]]]}},{"type":"Feature","properties":{"PRECINCT":"bell:103","COUNTY":"Bell"},"geometry":{"type":"Polygon","coordinates":[[[-97.48999,31.08272],[-97.48846,31.08172],[-97.48734,31.08175],[-97.4858,31.08122],[-97.48323,31.08148],[-97.48284,31.0811],[-97.48272,31.07914],[-97.48089,31.07675],[-97.47935,31.07386],[-97.47941,31.07326],[-97.4806,31.07211],[-97.48075,31.0717],[-97.4806,31.07078],[-97.47999,31.0702],[-97.47859,31.07113],[-97.47649,31.07116],[-97.47387,31.07182],[-97.47172,31.07189],[-97.47004,31.07256],[-97.46863,31.07248],[-97.46866,31.07151],[-97.46943,31.06958],[-97.4708,31.06826],[-97.47303,31.06718],[-97.47416,31.06577],[-97.47428,31.06482],[-97.47384,31.06313],[-97.47287,31.06211],[-97.47192,31.0617],[-97.47147,31.06178],[-97.47032,31.06274],[-97.4688,31.06325],[-97.46772,31.06328],[-97.46674,31.063],[-97.46572,31.06205],[-97.46515,31.06094],[-97.46496,31.05966],[-97.46504,31.0563],[-97.46456,31.05501],[-97.46286,31.05411],[-97.45962,31.05417],[-97.45876,31.05391],[-97.45788,31.05328],[-97.45745,31.05219],[-97.45747,31.05199],[-97.45906,31.05109],[-97.46461,31.04816],[-97.46583,31.04723],[-97.46702,31.04587],[-97.47027,31.0396],[-97.47378,31.03061],[-97.47614,31.02577],[-97.48007,31.01938],[-97.49188,31.00171],[-97.49625,31.00697],[-97.49891,31.00876],[-97.50148,31.00998],[-97.50314,31.01171],[-97.5078,31.01452],[-97.50825,31.01549],[-97.50857,31.01721],[-97.51086,31.01932],[-97.5112,31.01996],[-97.51292,31.02134],[-97.51356,31.02166],[-97.51513,31.02125],[-97.51503,31.02144],[-97.51922,31.01972],[-97.52278,31.01936],[-97.52316,31.01861],[-97.52344,31.01855],[-97.52538,31.01902],[-97.5265,31.01892],[-97.52833,31.02062],[-97.5312,31.02219],[-97.52851,31.02756],[-97.52847,31.02853],[-97.52913,31.03156],[-97.52905,31.03278],[-97.52649,31.03734],[-97.52534,31.0384],[-97.51668,31.04246],[-97.51304,31.04444],[-97.51099,31.04748],[-97.5084,31.0501],[-97.50652,31.05462],[-97.51133,31.05544],[-97.51785,31.05577],[-97.53364,31.05544],[-97.52589,31.07563],[-97.52745,31.07552],[-97.52762,31.07671],[-97.52293,31.07649],[-97.52047,31.07732],[-97.51907,31.0775],[-97.51544,31.07926],[-97.51497,31.07929],[-97.51305,31.07881],[-97.50985,31.07668],[-97.50769,31.07583],[-97.50659,31.07485],[-97.50568,31.07472],[-97.50515,31.07491],[-97.50393,31.07623],[-97.50152,31.0777],[-97.49952,31.07748],[-97.49781,31.07683],[-97.49697,31.07691],[-97.49631,31.07754],[-97.49573,31.07869],[-97.49586,31.08158],[-97.49541,31.08205],[-97.49384,31.08224],[-97.49264,31.08312],[-97.49139,31.08315],[-97.48999,31.08272]]]}},{"type":"Feature","properties":{"PRECINCT":"bell:111","COUNTY":"Bell"},"geometry":{"type":"Polygon","coordinates":[[[-97.63683,31.08375],[-97.63431,31.08356],[-97.62547,31.08209],[-97.61818,31.08037],[-97.5833,31.06893],[-97.56228,31.0601],[-97.56091,31.05932],[-97.55736,31.05668],[-97.55469,31.05561],[-97.55291,31.05533],[-97.54856,31.05531],[-97.53353,31.05573],[-97.53364,31.05544],[-97.51785,31.05577],[-97.51013,31.0553],[-97.50652,31.05462],[-97.50664,31.05419],[-97.5084,31.0501],[-97.51099,31.04748],[-97.51304,31.04444],[-97.51668,31.04246],[-97.52534,31.0384],[-97.52649,31.03734],[-97.52911,31.03258],[-97.52913,31.03156],[-97.52847,31.02853],[-97.52858,31.02732],[-97.53274,31.01927],[-97.5334,31.01954],[-97.53174,31.02261],[-97.53485,31.0252],[-97.53657,31.02556],[-97.54064,31.02551],[-97.54315,31.02469],[-97.54662,31.0227],[-97.54828,31.02052],[-97.54976,31.0181],[-97.55015,31.01692],[-97.5534,31.01791],[-97.56181,31.02221],[-97.56349,31.02219],[-97.56526,31.02146],[-97.56808,31.01972],[-97.57099,31.01759],[-97.57286,31.01564],[-97.57894,31.01282],[-97.58242,31.01315],[-97.58479,31.01535],[-97.59052,31.02232],[-97.59314,31.02429],[-97.59456,31.02504],[-97.59503,31.02504],[-97.59705,31.0242],[-97.60239,31.0202],[-97.6041,31.01671],[-97.60494,31.01393],[-97.60615,31.01212],[-97.60771,31.01117],[-97.60772,31.0155],[-97.60825,31.01656],[-97.60805,31.01794],[-97.60696,31.02157],[-97.60407,31.02488],[-97.60439,31.02555],[-97.60438,31.02762],[-97.60459,31.02812],[-97.60777,31.02972],[-97.60836,31.03068],[-97.60844,31.03184],[-97.61279,31.03097],[-97.61616,31.03083],[-97.6185,31.03151],[-97.61993,31.03268],[-97.62198,31.0336],[-97.62955,31.04122],[-97.63257,31.04312],[-97.63449,31.04606],[-97.63485,31.04781],[-97.63352,31.05197],[-97.63188,31.0519],[-97.62574,31.06842],[-97.62537,31.07057],[-97.62353,31.0754],[-97.63572,31.07887],[-97.63647,31.08005],[-97.63783,31.08113],[-97.64291,31.0827],[-97.63977,31.08355],[-97.63683,31.08375]]]}},{"type":"Feature","properties":{"PRECINCT":"bell:113","COUNTY":"Bell"},"geometry":{"type":"Polygon","coordinates":[[[-97.41187,31.06389],[-97.41621,31.05661],[-97.41508,31.05557],[-97.41469,31.05457],[-97.4145,31.05302],[-97.41475,31.05175],[-97.41597,31.0511],[-97.41661,31.05136],[-97.41819,31.05123],[-97.42013,31.05007],[-97.42174,31.04992],[-97.42381,31.05014],[-97.42597,31.04942],[-97.42715,31.04857],[-97.42853,31.04632],[-97.42915,31.04571],[-97.43105,31.04612],[-97.4321,31.04609],[-97.43355,31.04438],[-97.4168,31.04007],[-97.41556,31.03992],[-97.41219,31.04019],[-97.40945,31.03949],[-97.40924,31.03967],[-97.4071,31.03887],[-97.40698,31.03922],[-97.40168,31.03809],[-97.39636,31.03653],[-97.39597,31.03739],[-97.39432,31.037],[-97.39409,31.03759],[-97.38938,31.03661],[-97.3851,31.03504],[-97.3812,31.03517],[-97.37643,31.03402],[-97.38027,31.02465],[-97.38038,31.02367],[-97.38007,31.02128],[-97.38036,31.01976],[-97.38113,31.0182],[-97.38121,31.01721],[-97.3827,31.01665],[-97.38244,31.01338],[-97.38271,31.01046],[-97.38443,31.00612],[-97.38552,31.00402],[-97.38816,31.00017],[-97.39235,30.99564],[-97.39272,30.99454],[-97.39346,30.9934],[-97.3969,30.99112],[-97.39817,30.98989],[-97.39945,30.98742],[-97.4023,30.98425],[-97.40527,30.98372],[-97.40526,30.98288],[-97.4065,30.98058],[-97.40767,30.97911],[-97.40762,30.97801],[-97.40659,30.97384],[-97.40995,30.96538],[-97.41979,30.96801],[-97.41821,30.97237],[-97.41897,30.97208],[-97.42033,30.97193],[-97.42095,30.97111],[-97.42157,30.97129],[-97.42211,30.97186],[-97.42167,30.97314],[-97.42166,30.97398],[-97.42215,30.9743],[-97.42446,30.97488],[-97.42595,30.97606],[-97.42631,30.97568],[-97.42674,30.97378],[-97.42575,30.971],[-97.42624,30.97049],[-97.42699,30.97017],[-97.43195,30.97026],[-97.43321,30.97011],[-97.4357,30.97059],[-97.43775,30.97065],[-97.43991,30.97022],[-97.44199,30.96897],[-97.44367,30.96864],[-97.44797,30.96924],[-97.45056,30.97089],[-97.45242,30.97092],[-97.45364,30.97015],[-97.45438,30.96929],[-97.45497,30.96744],[-97.45506,30.96589],[-97.45597,30.96527],[-97.45736,30.96481],[-97.45822,30.96392],[-97.45913,30.96384],[-97.4599,30.96408],[-97.46166,30.96588],[-97.46386,30.96634],[-97.46488,30.96712],[-97.46611,30.9689],[-97.46676,30.96945],[-97.4669,30.97062],[-97.46741,30.97098],[-97.46905,30.97063],[-97.47089,30.96968],[-97.47264,30.96763],[-97.47551,30.96589],[-97.47133,30.97613],[-97.47654,30.97764],[-97.47305,30.9864],[-97.47438,30.98693],[-97.47471,30.98734],[-97.47592,30.98989],[-97.47575,30.99042],[-97.47589,30.9909],[-97.47718,30.99245],[-97.47763,30.99259],[-97.47825,30.99228],[-97.47874,30.99231],[-97.47894,30.99261],[-97.4789,30.99338],[-97.47943,30.99387],[-97.4818,30.99515],[-97.48392,30.99669],[-97.48581,30.99755],[-97.48748,30.99794],[-97.48995,30.99966],[-97.49188,31.00171],[-97.48007,31.01938],[-97.47614,31.02577],[-97.47378,31.03061],[-97.47027,31.0396],[-97.46702,31.04587],[-97.46583,31.04723],[-97.46461,31.04816],[-97.45747,31.05199],[-97.45788,31.05328],[-97.45876,31.05391],[-97.45962,31.05417],[-97.46286,31.05411],[-97.46436,31.05483],[-97.4597,31.06707],[-97.45644,31.06506],[-97.45246,31.06348],[-97.44937,31.06285],[-97.44337,31.06248],[-97.44395,31.06026],[-97.44493,31.0583],[-97.44477,31.05744],[-97.44433,31.05759],[-97.44441,31.05793],[-97.43772,31.06019],[-97.43524,31.06162],[-97.41668,31.07707],[-97.41273,31.08075],[-97.41153,31.07968],[-97.41227,31.07876],[-97.41427,31.07735],[-97.41507,31.0755],[-97.41478,31.0739],[-97.41521,31.0721],[-97.41519,31.07041],[-97.41703,31.06571],[-97.41685,31.06544],[-97.41207,31.06415],[-97.41187,31.06389]]]}},{"type":"Feature","properties":{"PRECINCT":"bell:114","COUNTY":"Bell"},"geometry":{"type":"Polygon","coordinates":[[[-97.61774,31.11884],[-97.60859,31.11415],[-97.608,31.11443],[-97.60046,31.1151],[-97.59853,31.11438],[-97.59629,31.11588],[-97.58719,31.11316],[-97.56124,31.10594],[-97.56343,31.09999],[-97.56239,31.09736],[-97.56181,31.09454],[-97.56,31.09255],[-97.55924,31.09119],[-97.54979,31.09164],[-97.54444,31.08411],[-97.5397,31.08223],[-97.53234,31.07583],[-97.53137,31.07538],[-97.52992,31.07519],[-97.52586,31.07573],[-97.53353,31.05573],[-97.54856,31.05531],[-97.55291,31.05533],[-97.555,31.05568],[-97.55736,31.05668],[-97.56091,31.05932],[-97.56228,31.0601],[-97.58207,31.06848],[-97.61672,31.07994],[-97.62491,31.08198],[-97.63431,31.08356],[-97.63857,31.08369],[-97.64111,31.08328],[-97.64291,31.0827],[-97.64498,31.08358],[-97.64479,31.08529],[-97.64174,31.08476],[-97.64257,31.08922],[-97.64206,31.08941],[-97.62697,31.08418],[-97.62582,31.08742],[-97.62515,31.0917],[-97.62319,31.09938],[-97.62483,31.09973],[-97.62354,31.11183],[-97.62075,31.1185],[-97.62006,31.11839],[-97.61967,31.11939],[-97.61774,31.11884]]]}},{"type":"Feature","properties":{"PRECINCT":"bell:116","COUNTY":"Bell"},"geometry":{"type":"Polygon","coordinates":[[[-97.6551,31.12034],[-97.65561,31.11897],[-97.65591,31.11904],[-97.65641,31.11776],[-97.65604,31.11747],[-97.65755,31.11319],[-97.66625,31.11552],[-97.67137,31.11579],[-97.67144,31.11619],[-97.6725,31.11726],[-97.67263,31.11766],[-97.67267,31.1193],[-97.67165,31.12204],[-97.67321,31.12247],[-97.67263,31.12396],[-97.67276,31.12601],[-97.67257,31.12634],[-97.67285,31.12653],[-97.67286,31.12714],[-97.67321,31.12739],[-97.67294,31.12779],[-97.67313,31.12793],[-97.67299,31.12856],[-97.67348,31.12973],[-97.67335,31.13182],[-97.67383,31.13272],[-97.67351,31.13375],[-97.67174,31.13321],[-97.66898,31.13099],[-97.66764,31.13053],[-97.66511,31.12783],[-97.66393,31.12742],[-97.66356,31.12698],[-97.6539,31.12423],[-97.65549,31.12045],[-97.6551,31.12034]]]}},{"type":"Feature","properties":{"PRECINCT":"bell:201","COUNTY":"Bell"},"geometry":{"type":"Polygon","coordinates":[[[-97.62354,31.11183],[-97.62483,31.09973],[-97.62319,31.09938],[-97.62515,31.0917],[-97.62582,31.08742],[-97.62697,31.08418],[-97.64206,31.08941],[-97.64257,31.08922],[-97.64174,31.08476],[-97.64479,31.08529],[-97.64498,31.08358],[-97.6502,31.08598],[-97.65368,31.08676],[-97.65405,31.08577],[-97.65432,31.08379],[-97.65553,31.08383],[-97.65713,31.08333],[-97.65799,31.08077],[-97.66379,31.0825],[-97.66564,31.07826],[-97.66711,31.07568],[-97.66755,31.07559],[-97.66935,31.07605],[-97.66979,31.07595],[-97.67027,31.0754],[-97.67136,31.07272],[-97.66957,31.07068],[-97.67195,31.07103],[-97.68451,31.07481],[-97.68539,31.07707],[-97.68507,31.07698],[-97.68436,31.07928],[-97.68378,31.07993],[-97.68204,31.08079],[-97.6805,31.08105],[-97.67816,31.08124],[-97.67804,31.08021],[-97.67604,31.08056],[-97.67653,31.08155],[-97.67576,31.08205],[-97.67514,31.08281],[-97.67335,31.08757],[-97.67342,31.0887],[-97.67436,31.09148],[-97.67418,31.09304],[-97.67016,31.10334],[-97.66898,31.10287],[-97.66653,31.10281],[-97.66522,31.11241],[-97.66487,31.11343],[-97.66464,31.11368],[-97.66439,31.11362],[-97.66384,31.11495],[-97.65755,31.11319],[-97.65604,31.11747],[-97.65641,31.11776],[-97.65591,31.11904],[-97.65561,31.11897],[-97.6551,31.12034],[-97.63818,31.11528],[-97.63888,31.11278],[-97.63357,31.11119],[-97.62986,31.12089],[-97.62075,31.1185],[-97.62354,31.11183]]]}},{"type":"Feature","properties":{"PRECINCT":"bell:202","COUNTY":"Bell"},"geometry":{"type":"Polygon","coordinates":[[[-97.62558,31.06963],[-97.62574,31.06842],[-97.63188,31.0519],[-97.6454,31.05247],[-97.6467,31.05299],[-97.64818,31.05428],[-97.64921,31.05483],[-97.65828,31.05747],[-97.65609,31.06329],[-97.65186,31.06211],[-97.65069,31.06409],[-97.65034,31.0655],[-97.64906,31.06783],[-97.64195,31.06584],[-97.64227,31.065],[-97.6404,31.06452],[-97.63722,31.06485],[-97.63793,31.06777],[-97.63941,31.06829],[-97.63836,31.06939],[-97.63802,31.07015],[-97.63687,31.06982],[-97.63642,31.07059],[-97.63973,31.07163],[-97.63965,31.07215],[-97.64057,31.07285],[-97.64112,31.07413],[-97.64011,31.07642],[-97.64175,31.07683],[-97.63986,31.08172],[-97.63783,31.08113],[-97.63647,31.08005],[-97.63572,31.07887],[-97.62353,31.0754],[-97.62558,31.06963]]]}},{"type":"Feature","properties":{"PRECINCT":"bell:208","COUNTY":"Bell"},"geometry":{"type":"Polygon","coordinates":[[[-97.69257,31.05636],[-97.7018,31.05371],[-97.70358,31.05471],[-97.70652,31.05532],[-97.7075,31.05528],[-97.70914,31.05476],[-97.71492,31.06871],[-97.71001,31.07099],[-97.70092,31.07882],[-97.69827,31.07643],[-97.69742,31.07161],[-97.6977,31.07017],[-97.69717,31.07006],[-97.69325,31.06051],[-97.69415,31.06024],[-97.69257,31.05636]]]}},{"type":"Feature","properties":{"PRECINCT":"bell:209","COUNTY":"Bell"},"geometry":{"type":"Polygon","coordinates":[[[-97.66957,31.07068],[-97.66035,31.05876],[-97.65932,31.0579],[-97.64921,31.05483],[-97.64606,31.05269],[-97.64734,31.05007],[-97.64816,31.04895],[-97.65292,31.04584],[-97.65797,31.0415],[-97.65887,31.04008],[-97.65917,31.03887],[-97.65961,31.03862],[-97.66072,31.03662],[-97.66387,31.03543],[-97.66617,31.03488],[-97.66808,31.03585],[-97.66882,31.03582],[-97.67151,31.04184],[-97.67122,31.04298],[-97.67066,31.04365],[-97.67061,31.04444],[-97.67146,31.04614],[-97.66913,31.04686],[-97.66974,31.04849],[-97.66985,31.05053],[-97.66836,31.05055],[-97.6684,31.05147],[-97.66716,31.05149],[-97.66704,31.05266],[-97.66748,31.05584],[-97.66836,31.0565],[-97.67081,31.0616],[-97.67184,31.06199],[-97.67437,31.06126],[-97.67534,31.06342],[-97.67632,31.0646],[-97.67693,31.06615],[-97.67494,31.0716],[-97.67766,31.07245],[-97.67755,31.07271],[-97.67195,31.07103],[-97.66957,31.07068]]]}},{"type":"Feature","properties":{"PRECINCT":"bell:210","COUNTY":"Bell"},"geometry":{"type":"Polygon","coordinates":[[[-97.67429,31.04855],[-97.67338,31.04865],[-97.67266,31.04811],[-97.6715,31.04629],[-97.67133,31.04561],[-97.67076,31.045],[-97.67062,31.04382],[-97.67122,31.04298],[-97.67151,31.04184],[-97.66882,31.03582],[-97.6684,31.03591],[-97.66752,31.03369],[-97.66818,31.0335],[-97.66905,31.03575],[-97.67183,31.03492],[-97.67128,31.03349],[-97.67222,31.03322],[-97.67277,31.03464],[-97.68852,31.02983],[-97.68825,31.02918],[-97.68856,31.02909],[-97.68881,31.02974],[-97.69133,31.02894],[-97.7018,31.05371],[-97.68585,31.05829],[-97.6853,31.05701],[-97.68433,31.05572],[-97.68232,31.05409],[-97.67767,31.05295],[-97.67698,31.05098],[-97.67603,31.05023],[-97.67596,31.04986],[-97.67483,31.04873],[-97.67429,31.04855]]]}},{"type":"Feature","properties":{"PRECINCT":"bell:211","COUNTY":"Bell"},"geometry":{"type":"Polygon","coordinates":[[[-97.6682,31.11575],[-97.66384,31.11495],[-97.66439,31.11362],[-97.66464,31.11368],[-97.66487,31.11343],[-97.66522,31.11241],[-97.66653,31.10281],[-97.66898,31.10287],[-97.67016,31.10334],[-97.67431,31.09265],[-97.67436,31.09148],[-97.67342,31.0887],[-97.67335,31.08757],[-97.67514,31.08281],[-97.67576,31.08205],[-97.67653,31.08155],[-97.67604,31.08056],[-97.67804,31.08021],[-97.67816,31.08124],[-97.68227,31.0807],[-97.68424,31.0795],[-97.68507,31.07698],[-97.69121,31.07847],[-97.69475,31.08019],[-97.69578,31.0809],[-97.69652,31.08187],[-97.69712,31.08308],[-97.69737,31.08467],[-97.69706,31.08725],[-97.69439,31.09401],[-97.69479,31.0965],[-97.69471,31.09737],[-97.69343,31.09933],[-97.69224,31.10059],[-97.68702,31.10382],[-97.68542,31.10451],[-97.68488,31.10518],[-97.68339,31.10932],[-97.68349,31.11095],[-97.68433,31.11394],[-97.68435,31.11598],[-97.6682,31.11575]]]}},{"type":"Feature","properties":{"PRECINCT":"bell:212","COUNTY":"Bell"},"geometry":{"type":"Polygon","coordinates":[[[-97.62955,31.04122],[-97.62223,31.03378],[-97.61993,31.03268],[-97.6185,31.03151],[-97.61643,31.03087],[-97.61431,31.03086],[-97.61231,31.03105],[-97.60844,31.03184],[-97.60836,31.03068],[-97.60777,31.02972],[-97.60459,31.02812],[-97.60438,31.02762],[-97.60439,31.02555],[-97.60407,31.02488],[-97.60696,31.02157],[-97.60805,31.01794],[-97.60825,31.01656],[-97.60772,31.0155],[-97.60771,31.01117],[-97.60984,31.00996],[-97.61093,31.01034],[-97.6125,31.0122],[-97.61408,31.01667],[-97.61497,31.01772],[-97.62118,31.01973],[-97.62532,31.02391],[-97.62686,31.02323],[-97.62867,31.02169],[-97.62802,31.0165],[-97.6282,31.01443],[-97.62908,31.0124],[-97.63157,31.01074],[-97.63329,31.01045],[-97.63564,31.01163],[-97.63796,31.01318],[-97.63988,31.01367],[-97.64206,31.01496],[-97.64439,31.01543],[-97.64592,31.01523],[-97.64835,31.01429],[-97.64972,31.0125],[-97.65028,31.01018],[-97.65378,31.01184],[-97.65488,31.01261],[-97.65596,31.0145],[-97.65603,31.0173],[-97.65559,31.01844],[-97.65354,31.02162],[-97.65327,31.0229],[-97.65335,31.02388],[-97.65189,31.02441],[-97.65035,31.02591],[-97.64774,31.0266],[-97.64873,31.03413],[-97.64749,31.03468],[-97.64722,31.03414],[-97.64371,31.03516],[-97.64321,31.03389],[-97.64504,31.03333],[-97.6438,31.0303],[-97.64358,31.03017],[-97.64195,31.03032],[-97.64116,31.02995],[-97.64047,31.03108],[-97.64127,31.03403],[-97.64063,31.03557],[-97.63996,31.03617],[-97.63683,31.03772],[-97.63637,31.03787],[-97.63589,31.03772],[-97.63146,31.04126],[-97.63112,31.04227],[-97.62955,31.04122]]]}},{"type":"Feature","properties":{"PRECINCT":"bell:214","COUNTY":"Bell"},"geometry":{"type":"Polygon","coordinates":[[[-97.70168,31.05356],[-97.69133,31.02894],[-97.68881,31.02974],[-97.68856,31.02909],[-97.68825,31.02918],[-97.68852,31.02983],[-97.67277,31.03464],[-97.67222,31.03322],[-97.67128,31.03349],[-97.67183,31.03492],[-97.66905,31.03575],[-97.66818,31.0335],[-97.66752,31.03369],[-97.6684,31.03591],[-97.66645,31.03494],[-97.66584,31.03489],[-97.66108,31.03639],[-97.6605,31.03686],[-97.65961,31.03862],[-97.65917,31.03887],[-97.65887,31.04008],[-97.65797,31.0415],[-97.65292,31.04584],[-97.64816,31.04895],[-97.64734,31.05007],[-97.64606,31.05269],[-97.64493,31.05239],[-97.63352,31.05197],[-97.63477,31.04819],[-97.63487,31.04722],[-97.63352,31.04432],[-97.63238,31.04294],[-97.63112,31.04227],[-97.63146,31.04126],[-97.63589,31.03772],[-97.63637,31.03787],[-97.63683,31.03772],[-97.63996,31.03617],[-97.64063,31.03557],[-97.64127,31.03403],[-97.64047,31.03108],[-97.64116,31.02995],[-97.64195,31.03032],[-97.64358,31.03017],[-97.6438,31.0303],[-97.64504,31.03333],[-97.64321,31.03389],[-97.64371,31.03516],[-97.64722,31.03414],[-97.64749,31.03468],[-97.64873,31.03413],[-97.64774,31.0266],[-97.65035,31.02591],[-97.65189,31.02441],[-97.65335,31.02388],[-97.65327,31.0229],[-97.65354,31.02162],[-97.65598,31.01751],[-97.65596,31.0145],[-97.65537,31.01317],[-97.65378,31.01184],[-97.65028,31.01018],[-97.65009,31.00833],[-97.6492,31.00642],[-97.64838,31.00491],[-97.64706,31.00352],[-97.64543,31.00086],[-97.64526,30.9995],[-97.64571,30.99692],[-97.64622,30.99589],[-97.64729,30.99504],[-97.64922,30.99463],[-97.65153,30.99507],[-97.65305,30.99664],[-97.65505,30.99925],[-97.65594,30.99965],[-97.65747,30.99988],[-97.65919,30.9998],[-97.66125,30.9979],[-97.66227,30.99733],[-97.66185,30.99693],[-97.66185,30.99643],[-97.66256,30.99574],[-97.66268,30.99508],[-97.66262,30.99444],[-97.66205,30.99368],[-97.66179,30.99271],[-97.66209,30.98928],[-97.66301,30.98816],[-97.66523,30.98694],[-97.66623,30.98668],[-97.66694,30.9869],[-97.6684,30.98813],[-97.66998,30.98858],[-97.67299,30.9878],[-97.67514,30.98807],[-97.67618,30.98876],[-97.67638,30.98919],[-97.67639,30.98969],[-97.67502,30.991],[-97.67552,30.99235],[-97.67723,30.99316],[-97.67894,30.9943],[-97.68104,30.99516],[-97.68233,30.99527],[-97.68314,30.99498],[-97.68452,30.99329],[-97.68572,30.99279],[-97.68668,30.99286],[-97.68751,30.99362],[-97.68807,30.99376],[-97.68942,30.99327],[-97.69018,30.99224],[-97.69213,30.99199],[-97.69248,30.9922],[-97.69284,30.99153],[-97.69352,30.99164],[-97.69383,30.99246],[-97.69271,30.99316],[-97.69203,30.99434],[-97.69206,30.99575],[-97.69257,30.99699],[-97.69432,30.99718],[-97.69522,30.99664],[-97.69587,30.99658],[-97.69627,30.9969],[-97.69636,30.99744],[-97.69899,30.99827],[-97.70007,30.99836],[-97.70036,30.99871],[-97.70073,30.99848],[-97.70118,30.99859],[-97.70274,30.99932],[-97.70408,31.0006],[-97.70523,31.0007],[-97.70723,31.00139],[-97.70823,31.00255],[-97.70938,31.00329],[-97.71146,31.00411],[-97.70875,31.00723],[-97.71321,31.01643],[-97.71532,31.02012],[-97.71656,31.0232],[-97.71169,31.02465],[-97.71564,31.03421],[-97.71668,31.03462],[-97.71957,31.03375],[-97.72695,31.05202],[-97.72671,31.05213],[-97.72173,31.05079],[-97.70699,31.05535],[-97.70428,31.05489],[-97.70245,31.0542],[-97.70168,31.05356]]]}},{"type":"Feature","properties":{"PRECINCT":"bell:215","COUNTY":"Bell"},"geometry":{"type":"Polygon","coordinates":[[[-97.67503,31.06273],[-97.67437,31.06126],[-97.67184,31.06199],[-97.67081,31.0616],[-97.66836,31.0565],[-97.66748,31.05584],[-97.66704,31.05266],[-97.66716,31.05149],[-97.6684,31.05147],[-97.66836,31.05055],[-97.66981,31.0506],[-97.66975,31.04854],[-97.66913,31.04686],[-97.67146,31.04614],[-97.67266,31.04811],[-97.67338,31.04865],[-97.67466,31.04862],[-97.67596,31.04986],[-97.67603,31.05023],[-97.67715,31.05121],[-97.67767,31.05295],[-97.68232,31.05409],[-97.68433,31.05572],[-97.6853,31.05701],[-97.68585,31.05829],[-97.69257,31.05636],[-97.69415,31.06024],[-97.69325,31.06051],[-97.69717,31.07006],[-97.6977,31.07017],[-97.69742,31.07161],[-97.69827,31.07643],[-97.70092,31.07882],[-97.69887,31.08038],[-97.69635,31.08161],[-97.69504,31.08035],[-97.69144,31.07855],[-97.68539,31.07707],[-97.68451,31.07481],[-97.67755,31.07271],[-97.67766,31.07245],[-97.67494,31.0716],[-97.67693,31.06629],[-97.67632,31.0646],[-97.67503,31.06273]]]}},{"type":"Feature","properties":{"PRECINCT":"bell:216","COUNTY":"Bell"},"geometry":{"type":"Polygon","coordinates":[[[-97.6502,31.08598],[-97.64272,31.08264],[-97.63982,31.08184],[-97.64175,31.07683],[-97.64011,31.07642],[-97.64112,31.07413],[-97.64057,31.07285],[-97.63965,31.07215],[-97.63973,31.07163],[-97.63642,31.07059],[-97.63687,31.06982],[-97.63802,31.07015],[-97.63836,31.06939],[-97.63941,31.06829],[-97.63793,31.06777],[-97.63722,31.06485],[-97.6404,31.06452],[-97.64227,31.065],[-97.64195,31.06584],[-97.64906,31.06783],[-97.65034,31.0655],[-97.65069,31.06409],[-97.65186,31.06211],[-97.65609,31.06329],[-97.65828,31.05747],[-97.65864,31.05759],[-97.65958,31.05806],[-97.66035,31.05876],[-97.66978,31.07097],[-97.67136,31.07272],[-97.67027,31.0754],[-97.66979,31.07595],[-97.66935,31.07605],[-97.66755,31.07559],[-97.66711,31.07568],[-97.66564,31.07826],[-97.66379,31.0825],[-97.65799,31.08077],[-97.65713,31.08333],[-97.65553,31.08383],[-97.65432,31.08379],[-97.65405,31.08577],[-97.65368,31.08676],[-97.6502,31.08598]]]}},{"type":"Feature","properties":{"PRECINCT":"bell:302","COUNTY":"Bell"},"geometry":{"type":"Polygon","coordinates":[[[-97.36938,31.16104],[-97.36508,31.15968],[-97.36348,31.16071],[-97.36128,31.16162],[-97.35441,31.15954],[-97.3575,31.15066],[-97.36438,31.13283],[-97.37202,31.13487],[-97.37738,31.12059],[-97.36971,31.11835],[-97.3711,31.11522],[-97.37197,31.11546],[-97.37274,31.11313],[-97.37155,31.11298],[-97.37125,31.11178],[-97.3706,31.11175],[-97.36142,31.10908],[-97.36024,31.11021],[-97.35991,31.11178],[-97.36009,31.11379],[-97.35975,31.11472],[-97.35895,31.11536],[-97.35499,31.11422],[-97.35835,31.10544],[-97.35914,31.10278],[-97.36097,31.09961],[-97.36164,31.099],[-97.36291,31.09828],[-97.36821,31.0961],[-97.38725,31.09047],[-97.38796,31.09209],[-97.39225,31.09727],[-97.39325,31.10003],[-97.39324,31.10203],[-97.39301,31.10299],[-97.39014,31.11055],[-97.40439,31.11428],[-97.40468,31.11626],[-97.40491,31.11654],[-97.40475,31.11685],[-97.40527,31.11778],[-97.40477,31.11837],[-97.40496,31.11945],[-97.40411,31.11997],[-97.40366,31.12102],[-97.40478,31.12231],[-97.40586,31.12246],[-97.40653,31.12349],[-97.40696,31.1236],[-97.40662,31.12408],[-97.40594,31.12423],[-97.40552,31.125],[-97.40265,31.12624],[-97.40253,31.12686],[-97.4013,31.12828],[-97.40166,31.12905],[-97.40082,31.13002],[-97.405,31.13283],[-97.40385,31.13554],[-97.403,31.13566],[-97.40273,31.13617],[-97.39798,31.14815],[-97.39811,31.14853],[-97.40359,31.15101],[-97.40183,31.15573],[-97.39745,31.16262],[-97.39773,31.16322],[-97.39956,31.16381],[-97.39967,31.16409],[-97.39942,31.16472],[-97.39659,31.16739],[-97.39503,31.17271],[-97.36803,31.16532],[-97.36798,31.16493],[-97.36938,31.16104]]]}},{"type":"Feature","properties":{"PRECINCT":"bell:303","COUNTY":"Bell"},"geometry":{"type":"Polygon","coordinates":[[[-97.31611,31.16626],[-97.3198,31.15676],[-97.32024,31.15406],[-97.31484,31.15256],[-97.31952,31.14018],[-97.31316,31.13845],[-97.31441,31.13505],[-97.30892,31.1335],[-97.31189,31.12557],[-97.31207,31.1249],[-97.31189,31.123],[-97.3117,31.12267],[-97.31025,31.12205],[-97.31004,31.12146],[-97.30899,31.12072],[-97.30844,31.11947],[-97.30847,31.1185],[-97.30762,31.11772],[-97.30699,31.1168],[-97.30674,31.11584],[-97.306,31.11502],[-97.30644,31.11472],[-97.30629,31.11398],[-97.30863,31.11375],[-97.31846,31.11642],[-97.31942,31.11639],[-97.32009,31.11699],[-97.32504,31.11838],[-97.32806,31.10875],[-97.32892,31.10667],[-97.33007,31.10703],[-97.33043,31.10612],[-97.33129,31.1064],[-97.33157,31.10604],[-97.33221,31.1061],[-97.33289,31.10564],[-97.33379,31.1059],[-97.33467,31.10658],[-97.33911,31.1078],[-97.34091,31.10287],[-97.34882,31.1051],[-97.34905,31.09994],[-97.35919,31.10268],[-97.35835,31.10544],[-97.35499,31.11422],[-97.35895,31.11536],[-97.35975,31.11472],[-97.36009,31.11379],[-97.35991,31.11178],[-97.36024,31.11021],[-97.36142,31.10908],[-97.3706,31.11175],[-97.37125,31.11178],[-97.37155,31.11298],[-97.37274,31.11313],[-97.37197,31.11546],[-97.3711,31.11522],[-97.36971,31.11835],[-97.37738,31.12059],[-97.37202,31.13487],[-97.36438,31.13283],[-97.3575,31.15066],[-97.35441,31.15954],[-97.36128,31.16162],[-97.36348,31.16071],[-97.36508,31.15968],[-97.36705,31.16028],[-97.36424,31.16203],[-97.36162,31.16321],[-97.36071,31.16295],[-97.36022,31.16412],[-97.34314,31.1592],[-97.34262,31.15885],[-97.33888,31.15774],[-97.33533,31.16064],[-97.33423,31.16024],[-97.33416,31.16042],[-97.32769,31.15922],[-97.32413,31.16883],[-97.32241,31.16804],[-97.31611,31.16626]]]}},{"type":"Feature","properties":{"PRECINCT":"bell:305","COUNTY":"Bell"},"geometry":{"type":"Polygon","coordinates":[[[-97.38245,31.07991],[-97.38419,31.07733],[-97.38892,31.07845],[-97.3894,31.07819],[-97.39032,31.0763],[-97.39141,31.07592],[-97.39308,31.07584],[-97.39545,31.07641],[-97.3971,31.07635],[-97.39905,31.07674],[-97.40084,31.07673],[-97.41063,31.07919],[-97.41153,31.07968],[-97.41368,31.08187],[-97.4137,31.08294],[-97.41296,31.08522],[-97.41005,31.08774],[-97.40388,31.10403],[-97.40368,31.10514],[-97.40292,31.10633],[-97.40029,31.11324],[-97.39014,31.11055],[-97.39301,31.10299],[-97.39329,31.10136],[-97.39322,31.09985],[-97.39225,31.09727],[-97.38781,31.09184],[-97.38245,31.07991]]]}},{"type":"Feature","properties":{"PRECINCT":"bell:306","COUNTY":"Bell"},"geometry":{"type":"Polygon","coordinates":[[[-97.34639,31.09564],[-97.34236,31.09355],[-97.33975,31.09065],[-97.33892,31.08935],[-97.33326,31.07778],[-97.32643,31.06043],[-97.32066,31.04826],[-97.32624,31.05006],[-97.3289,31.05353],[-97.33277,31.05734],[-97.34697,31.0683],[-97.34887,31.06884],[-97.35134,31.06896],[-97.35775,31.07099],[-97.36793,31.07354],[-97.36228,31.08857],[-97.35567,31.08672],[-97.35318,31.09337],[-97.35415,31.09364],[-97.35387,31.09447],[-97.35671,31.09452],[-97.35856,31.09483],[-97.36474,31.09752],[-97.36258,31.09843],[-97.36121,31.09937],[-97.35919,31.10268],[-97.34905,31.09994],[-97.34885,31.09827],[-97.34826,31.09719],[-97.34639,31.09564]]]}},{"type":"Feature","properties":{"PRECINCT":"bell:307","COUNTY":"Bell"},"geometry":{"type":"Polygon","coordinates":[[[-97.32009,31.11699],[-97.31942,31.11639],[-97.31846,31.11642],[-97.30863,31.11375],[-97.30629,31.11398],[-97.30666,31.11363],[-97.30685,31.11156],[-97.30616,31.11065],[-97.30606,31.10973],[-97.30554,31.10899],[-97.30547,31.10737],[-97.30487,31.10684],[-97.30495,31.10592],[-97.30533,31.10526],[-97.30486,31.10479],[-97.30412,31.10449],[-97.30371,31.10393],[-97.30297,31.10364],[-97.30282,31.10178],[-97.30148,31.10055],[-97.30108,31.09987],[-97.30039,31.09969],[-97.29968,31.09871],[-97.29968,31.09744],[-97.29883,31.09619],[-97.29884,31.09506],[-97.29937,31.09393],[-97.29935,31.09331],[-97.29882,31.09287],[-97.29896,31.09252],[-97.29875,31.09229],[-97.29831,31.09217],[-97.29834,31.09147],[-97.29869,31.09122],[-97.29832,31.09074],[-97.29767,31.09059],[-97.29745,31.09031],[-97.29727,31.08967],[-97.29742,31.08874],[-97.29709,31.08762],[-97.2966,31.08725],[-97.29914,31.08789],[-97.29987,31.08607],[-97.30254,31.08701],[-97.30537,31.07959],[-97.30454,31.07951],[-97.30261,31.0801],[-97.30071,31.07947],[-97.29815,31.07904],[-97.30074,31.0724],[-97.30169,31.07269],[-97.3042,31.06635],[-97.30585,31.06681],[-97.30813,31.06083],[-97.30644,31.06035],[-97.30998,31.05101],[-97.30937,31.05084],[-97.31123,31.04584],[-97.32066,31.04826],[-97.32643,31.06043],[-97.33326,31.07778],[-97.33914,31.08974],[-97.34011,31.09109],[-97.34282,31.09393],[-97.34616,31.0955],[-97.34785,31.09676],[-97.3487,31.09792],[-97.34903,31.09937],[-97.34882,31.1051],[-97.34091,31.10287],[-97.33911,31.1078],[-97.33467,31.10658],[-97.33379,31.1059],[-97.33289,31.10564],[-97.33221,31.1061],[-97.33157,31.10604],[-97.33129,31.1064],[-97.33043,31.10612],[-97.33007,31.10703],[-97.32892,31.10667],[-97.32806,31.10875],[-97.32504,31.11838],[-97.32009,31.11699]]]}},{"type":"Feature","properties":{"PRECINCT":"bell:308","COUNTY":"Bell"},"geometry":{"type":"Polygon","coordinates":[[[-97.3507,31.06884],[-97.34887,31.06884],[-97.34697,31.0683],[-97.34096,31.06375],[-97.33277,31.05734],[-97.3289,31.05353],[-97.32624,31.05006],[-97.33994,31.05379],[-97.3409,31.05228],[-97.34394,31.04374],[-97.34626,31.04406],[-97.35492,31.04651],[-97.35509,31.04676],[-97.35461,31.04787],[-97.35897,31.04908],[-97.36158,31.04845],[-97.38087,31.04845],[-97.38017,31.04898],[-97.38013,31.04972],[-97.37908,31.05018],[-97.37893,31.05047],[-97.38114,31.05101],[-97.3801,31.05361],[-97.38114,31.05444],[-97.38047,31.05536],[-97.38537,31.05675],[-97.38503,31.05722],[-97.38184,31.05946],[-97.38016,31.0615],[-97.37945,31.06158],[-97.37616,31.06065],[-97.37559,31.06218],[-97.37256,31.0614],[-97.36793,31.07354],[-97.35911,31.07136],[-97.3507,31.06884]]]}},{"type":"Feature","properties":{"PRECINCT":"bell:313","COUNTY":"Bell"},"geometry":{"type":"Polygon","coordinates":[[[-97.38096,31.07754],[-97.37949,31.07639],[-97.37782,31.07565],[-97.36798,31.07342],[-97.37256,31.0614],[-97.37559,31.06218],[-97.37616,31.06065],[-97.37945,31.06158],[-97.38016,31.0615],[-97.38184,31.05946],[-97.38503,31.05722],[-97.38537,31.05675],[-97.39008,31.0581],[-97.39327,31.05763],[-97.39432,31.05776],[-97.39608,31.05822],[-97.39706,31.05898],[-97.39696,31.05939],[-97.39755,31.05776],[-97.40181,31.05894],[-97.4061,31.06016],[-97.40659,31.06052],[-97.40694,31.06274],[-97.40783,31.06284],[-97.41702,31.06558],[-97.41519,31.07041],[-97.41521,31.0721],[-97.41478,31.0739],[-97.41507,31.0755],[-97.41427,31.07735],[-97.41227,31.07876],[-97.41153,31.07968],[-97.41063,31.07919],[-97.40641,31.07801],[-97.40084,31.07673],[-97.39905,31.07674],[-97.3971,31.07635],[-97.39545,31.07641],[-97.39273,31.07581],[-97.39112,31.07597],[-97.39032,31.0763],[-97.3894,31.07819],[-97.38892,31.07845],[-97.38419,31.07733],[-97.38245,31.07991],[-97.38096,31.07754]]]}},{"type":"Feature","properties":{"PRECINCT":"bell:314","COUNTY":"Bell"},"geometry":{"type":"Polygon","coordinates":[[[-97.35671,31.09452],[-97.35387,31.09447],[-97.35415,31.09364],[-97.35318,31.09337],[-97.35567,31.08672],[-97.36228,31.08857],[-97.36798,31.07342],[-97.37782,31.07565],[-97.37949,31.07639],[-97.38096,31.07754],[-97.38169,31.07845],[-97.38366,31.08238],[-97.38725,31.09047],[-97.36821,31.0961],[-97.36474,31.09752],[-97.36305,31.09692],[-97.35946,31.09511],[-97.35671,31.09452]]]}},{"type":"Feature","properties":{"PRECINCT":"bell:315","COUNTY":"Bell"},"geometry":{"type":"Polygon","coordinates":[[[-97.403,31.13566],[-97.40383,31.13557],[-97.405,31.13283],[-97.40082,31.13002],[-97.40166,31.12905],[-97.4013,31.12828],[-97.40253,31.12686],[-97.40265,31.12624],[-97.40552,31.125],[-97.40594,31.12423],[-97.40662,31.12408],[-97.40696,31.12369],[-97.40653,31.12349],[-97.40586,31.12246],[-97.40478,31.12231],[-97.40366,31.12102],[-97.40411,31.11997],[-97.40496,31.11945],[-97.40477,31.11837],[-97.40527,31.11778],[-97.40475,31.11685],[-97.40491,31.11654],[-97.40468,31.11626],[-97.40439,31.11428],[-97.41377,31.11674],[-97.42365,31.11969],[-97.4266,31.12027],[-97.42934,31.11989],[-97.4295,31.1186],[-97.43072,31.11681],[-97.43283,31.11175],[-97.44578,31.1155],[-97.43327,31.14696],[-97.4314,31.15013],[-97.42889,31.15354],[-97.42093,31.16331],[-97.41685,31.16875],[-97.41398,31.17448],[-97.4127,31.17772],[-97.39503,31.17271],[-97.39659,31.16739],[-97.39942,31.16472],[-97.39967,31.16409],[-97.39956,31.16381],[-97.39773,31.16322],[-97.39745,31.16262],[-97.40183,31.15573],[-97.40361,31.15117],[-97.40335,31.15075],[-97.39811,31.14853],[-97.39798,31.14815],[-97.403,31.13566]]]}},{"type":"Feature","properties":{"PRECINCT":"bell:317","COUNTY":"Bell"},"geometry":{"type":"Polygon","coordinates":[[[-97.41187,31.06404],[-97.40694,31.06274],[-97.40659,31.06052],[-97.4061,31.06016],[-97.39755,31.05776],[-97.39696,31.05939],[-97.39706,31.05898],[-97.39608,31.05822],[-97.3954,31.05801],[-97.39327,31.05763],[-97.39008,31.0581],[-97.38047,31.05536],[-97.38114,31.05444],[-97.3801,31.05361],[-97.38114,31.05101],[-97.37893,31.05047],[-97.37908,31.05018],[-97.38013,31.04972],[-97.38017,31.04898],[-97.38087,31.04845],[-97.36158,31.04845],[-97.35897,31.04908],[-97.35461,31.04787],[-97.35509,31.04676],[-97.35492,31.04651],[-97.34626,31.04406],[-97.34394,31.04374],[-97.34819,31.03284],[-97.34977,31.03319],[-97.35164,31.03322],[-97.36199,31.03116],[-97.36213,31.03033],[-97.3638,31.03027],[-97.3654,31.03057],[-97.36549,31.03036],[-97.37679,31.03309],[-97.37643,31.03402],[-97.38084,31.03511],[-97.3851,31.03504],[-97.38938,31.03661],[-97.39409,31.03759],[-97.39432,31.037],[-97.39597,31.03739],[-97.39636,31.03653],[-97.40168,31.03809],[-97.40698,31.03922],[-97.4071,31.03887],[-97.40924,31.03967],[-97.40945,31.03949],[-97.41219,31.04019],[-97.41556,31.03992],[-97.4168,31.04007],[-97.43355,31.04438],[-97.4321,31.04609],[-97.43105,31.04612],[-97.42915,31.04571],[-97.42853,31.04632],[-97.42715,31.04857],[-97.42597,31.04942],[-97.42381,31.05014],[-97.42174,31.04992],[-97.42013,31.05007],[-97.41819,31.05123],[-97.41661,31.05136],[-97.41597,31.0511],[-97.41475,31.05175],[-97.4145,31.05302],[-97.41469,31.05457],[-97.41508,31.05557],[-97.41621,31.05661],[-97.41187,31.06404]]]}},{"type":"Feature","properties":{"PRECINCT":"bell:318","COUNTY":"Bell"},"geometry":{"type":"Polygon","coordinates":[[[-97.40029,31.11324],[-97.40292,31.10633],[-97.40368,31.10514],[-97.40388,31.10403],[-97.41005,31.08774],[-97.41296,31.08522],[-97.41411,31.08477],[-97.41452,31.08391],[-97.41827,31.08204],[-97.4166,31.08675],[-97.42718,31.08977],[-97.42697,31.09032],[-97.43195,31.09166],[-97.43171,31.09228],[-97.43945,31.09452],[-97.43963,31.09471],[-97.4391,31.09645],[-97.45185,31.10025],[-97.44578,31.1155],[-97.43283,31.11175],[-97.43072,31.11681],[-97.4295,31.1186],[-97.42934,31.11989],[-97.42893,31.12],[-97.4266,31.12027],[-97.42365,31.11969],[-97.41377,31.11674],[-97.40029,31.11324]]]}},{"type":"Feature","properties":{"PRECINCT":"bell:409","COUNTY":"Bell"},"geometry":{"type":"Polygon","coordinates":[[[-97.76557,31.05856],[-97.74799,31.05368],[-97.73389,31.05337],[-97.72691,31.05216],[-97.72673,31.05121],[-97.71957,31.03375],[-97.71668,31.03462],[-97.71564,31.03421],[-97.71169,31.02465],[-97.71656,31.0232],[-97.71532,31.02012],[-97.71321,31.01643],[-97.70875,31.00723],[-97.71146,31.00411],[-97.71465,31.00312],[-97.71735,31.00436],[-97.71939,31.0037],[-97.7202,31.00367],[-97.72083,31.00402],[-97.72152,31.00542],[-97.72256,31.00625],[-97.72476,31.00566],[-97.7262,31.00485],[-97.72807,31.00522],[-97.74479,31.0001],[-97.75207,31.00551],[-97.75318,31.0061],[-97.7523,31.00868],[-97.75218,31.01152],[-97.75445,31.02106],[-97.75411,31.02115],[-97.75568,31.02606],[-97.75963,31.03629],[-97.75944,31.04144],[-97.75966,31.04293],[-97.76541,31.05713],[-97.76557,31.05856]]]}}]}