{"type":"FeatureCollection","features":[{"type":"Feature","properties":{"PRECINCT":"1","VTD":"0001"},"geometry":{"type":"Polygon","coordinates":[[[-96.159413,33.682841],[-96.154662,33.682699],[-96.155623,33.677959],[-96.155608,33.671537],[-96.154903,33.669068],[-96.155086,33.663171],[-96.155559,33.661473],[-96.156982,33.659941],[-96.160561,33.658091],[-96.162386,33.656238],[-96.165104,33.651886],[-96.165517,33.650433],[-96.165638,33.647786],[-96.165806,33.648399],[-96.167619,33.648822],[-96.168105,33.648235],[-96.169957,33.647559],[-96.171915,33.645895],[-96.172598,33.645681],[-96.173484,33.645922],[-96.174218,33.645767],[-96.173627,33.645225],[-96.172835,33.644901],[-96.173098,33.643972],[-96.173525,33.643599],[-96.173334,33.642945],[-96.173492,33.64228],[-96.173945,33.641879],[-96.173814,33.640534],[-96.172632,33.638808],[-96.172146,33.639204],[-96.171962,33.640281],[-96.171804,33.640132],[-96.171798,33.637484],[-96.172258,33.636968],[-96.173112,33.636897],[-96.173368,33.63604],[-96.174301,33.635573],[-96.174413,33.634392],[-96.178865,33.634093],[-96.178226,33.629657],[-96.178427,33.629358],[-96.179363,33.628855],[-96.187247,33.626364],[-96.188674,33.625582],[-96.189866,33.624642],[-96.190967,33.623354],[-96.191834,33.621636],[-96.192176,33.62022],[-96.191878,33.610398],[-96.192184,33.598696],[-96.189755,33.598839],[-96.188588,33.598374],[-96.186994,33.597187],[-96.186069,33.597073],[-96.18695,33.582853],[-96.185652,33.582807],[-96.185828,33.576261],[-96.183876,33.57612],[-96.183919,33.574556],[-96.183239,33.574315],[-96.18163,33.57444],[-96.181464,33.573984],[-96.179378,33.573894],[-96.179287,33.569848],[-96.185627,33.56984],[-96.18563,33.570755],[-96.19387,33.570849],[-96.193773,33.572596],[-96.192224,33.572637],[-96.192186,33.574135],[-96.190391,33.575163],[-96.191642,33.575315],[-96.193778,33.575229],[-96.197117,33.57395],[-96.197347,33.572601],[-96.198041,33.571554],[-96.199055,33.570785],[-96.200551,33.570324],[-96.221553,33.570132],[-96.221784,33.561102],[-96.222196,33.555876],[-96.231051,33.556109],[-96.232648,33.554967],[-96.236098,33.553146],[-96.239307,33.551106],[-96.242644,33.54869],[-96.245103,33.546136],[-96.247293,33.546129],[-96.247415,33.546765],[-96.252556,33.546788],[-96.252719,33.547492],[-96.252149,33.554141],[-96.255983,33.554549],[-96.255623,33.563295],[-96.25476,33.563344],[-96.254354,33.564012],[-96.253982,33.564135],[-96.249729,33.564068],[-96.249415,33.571124],[-96.23927,33.569782],[-96.233616,33.569794],[-96.233667,33.582029],[-96.233111,33.588328],[-96.232924,33.593798],[-96.233177,33.594049],[-96.23309,33.596756],[-96.23275,33.596994],[-96.230406,33.597072],[-96.229677,33.597709],[-96.229337,33.598709],[-96.228542,33.59883],[-96.228372,33.599611],[-96.227833,33.599583],[-96.227735,33.599902],[-96.22677,33.599787],[-96.226606,33.600111],[-96.224945,33.601051],[-96.224906,33.601787],[-96.224302,33.602386],[-96.223545,33.602234],[-96.223571,33.604734],[-96.224815,33.618262],[-96.226158,33.618823],[-96.230168,33.621402],[-96.23246,33.622116],[-96.244861,33.621524],[-96.247366,33.62175],[-96.24786,33.629225],[-96.222101,33.630819],[-96.222764,33.638297],[-96.21914,33.638252],[-96.21872,33.6465],[-96.214511,33.646487],[-96.215654,33.648921],[-96.209412,33.648875],[-96.211139,33.652694],[-96.211131,33.653987],[-96.208996,33.654948],[-96.208293,33.655602],[-96.208313,33.656053],[-96.206415,33.657036],[-96.205626,33.656987],[-96.205699,33.657278],[-96.205324,33.657514],[-96.204273,33.657416],[-96.204148,33.657135],[-96.203748,33.657333],[-96.203774,33.656531],[-96.20338,33.65702],[-96.20315,33.656817],[-96.202808,33.657114],[-96.202401,33.656762],[-96.200864,33.656927],[-96.200798,33.657306],[-96.200476,33.657372],[-96.200332,33.657707],[-96.20001,33.657411],[-96.198657,33.658861],[-96.198138,33.658949],[-96.198834,33.660185],[-96.198663,33.660679],[-96.198177,33.661014],[-96.198374,33.661471],[-96.197947,33.661306],[-96.197533,33.661421],[-96.196778,33.660619],[-96.195326,33.660861],[-96.195109,33.661042],[-96.195247,33.662031],[-96.194551,33.662295],[-96.193598,33.663899],[-96.193211,33.6638],[-96.193073,33.66419],[-96.192265,33.664355],[-96.191982,33.6643],[-96.191916,33.663904],[-96.191594,33.663943],[-96.191167,33.664201],[-96.191286,33.664459],[-96.190714,33.664608],[-96.190451,33.664295],[-96.190648,33.663954],[-96.190097,33.664146],[-96.189669,33.663833],[-96.188789,33.664602],[-96.188566,33.664525],[-96.188553,33.664185],[-96.188309,33.664393],[-96.18781,33.664201],[-96.187383,33.664338],[-96.186371,33.663756],[-96.182916,33.66386],[-96.181181,33.663403],[-96.183286,33.685319],[-96.159987,33.684858],[-96.15968,33.684513],[-96.159763,33.683049],[-96.159413,33.682841]]]}},{"type":"Feature","properties":{"PRECINCT":"2","VTD":"0002"},"geometry":{"type":"Polygon","coordinates":[[[-96.356777,33.687927],[-96.353228,33.686862],[-96.351933,33.687028],[-96.350566,33.686572],[-96.346859,33.686216],[-96.342568,33.686755],[-96.338756,33.688316],[-96.336058,33.690755],[-96.336388,33.690247],[-96.336697,33.687919],[-96.33637,33.687151],[-96.33639,33.686387],[-96.335401,33.685348],[-96.335338,33.685002],[-96.335464,33.684252],[-96.336402,33.683451],[-96.336275,33.682191],[-96.333149,33.682462],[-96.329753,33.682117],[-96.320297,33.682616],[-96.318262,33.682183],[-96.317293,33.68122],[-96.31705,33.678393],[-96.316474,33.67748],[-96.31688,33.676729],[-96.315677,33.65783],[-96.314201,33.642374],[-96.31381,33.640952],[-96.314046,33.640884],[-96.314113,33.639145],[-96.315677,33.637442],[-96.314733,33.627691],[-96.315356,33.626712],[-96.316539,33.626345],[-96.315677,33.616609],[-96.300504,33.617578],[-96.300055,33.613629],[-96.297083,33.613587],[-96.296047,33.603325],[-96.316518,33.601736],[-96.316357,33.599582],[-96.315837,33.598782],[-96.315843,33.597561],[-96.314408,33.596862],[-96.314126,33.595267],[-96.3124,33.594215],[-96.312163,33.593201],[-96.311603,33.592475],[-96.312236,33.591338],[-96.311468,33.590904],[-96.311022,33.591069],[-96.309879,33.59042],[-96.309682,33.590525],[-96.309833,33.590761],[-96.309531,33.590832],[-96.309433,33.590558],[-96.308632,33.590459],[-96.308251,33.590854],[-96.308369,33.591283],[-96.30768,33.591953],[-96.307568,33.59142],[-96.307037,33.591349],[-96.306407,33.589299],[-96.306794,33.588898],[-96.307332,33.589014],[-96.307969,33.58881],[-96.30789,33.588382],[-96.307116,33.588376],[-96.306683,33.588646],[-96.306361,33.588387],[-96.306335,33.588156],[-96.306814,33.587898],[-96.306755,33.587431],[-96.30774,33.587398],[-96.307398,33.586643],[-96.312433,33.58772],[-96.313769,33.587603],[-96.313843,33.585157],[-96.308316,33.584076],[-96.308127,33.583624],[-96.307622,33.583443],[-96.308265,33.582729],[-96.308036,33.582443],[-96.308843,33.581992],[-96.308699,33.581773],[-96.308206,33.581459],[-96.307819,33.581707],[-96.30478,33.581085],[-96.304655,33.580327],[-96.304248,33.580525],[-96.304019,33.580371],[-96.304117,33.580014],[-96.303618,33.580283],[-96.302739,33.579695],[-96.302325,33.580058],[-96.302089,33.579706],[-96.302096,33.580019],[-96.30159,33.580168],[-96.301603,33.579778],[-96.30119,33.579772],[-96.299792,33.578398],[-96.299326,33.577398],[-96.299517,33.576728],[-96.298827,33.576525],[-96.298959,33.576283],[-96.29928,33.576294],[-96.299077,33.575931],[-96.299438,33.575953],[-96.299845,33.575569],[-96.299491,33.575558],[-96.299379,33.575245],[-96.299051,33.575514],[-96.298762,33.574821],[-96.298368,33.574909],[-96.298729,33.574646],[-96.298723,33.574283],[-96.298237,33.574091],[-96.297469,33.574299],[-96.297804,33.573854],[-96.297003,33.573794],[-96.297279,33.573272],[-96.297562,33.573217],[-96.297181,33.572832],[-96.297667,33.572712],[-96.297365,33.572354],[-96.297673,33.572157],[-96.297089,33.571997],[-96.297477,33.571618],[-96.297083,33.571651],[-96.296827,33.571376],[-96.296965,33.571058],[-96.296164,33.570607],[-96.296427,33.570398],[-96.29623,33.569926],[-96.296578,33.569745],[-96.295948,33.569706],[-96.295882,33.56919],[-96.295429,33.568717],[-96.295456,33.567717],[-96.29604,33.567404],[-96.295752,33.567041],[-96.296447,33.566844],[-96.296211,33.566509],[-96.296657,33.566492],[-96.296749,33.566223],[-96.296113,33.566234],[-96.296106,33.565976],[-96.296395,33.565998],[-96.296533,33.565772],[-96.296224,33.565564],[-96.29589,33.565789],[-96.29564,33.56541],[-96.296093,33.564745],[-96.295864,33.564426],[-96.296084,33.564155],[-96.297185,33.564325],[-96.306923,33.563855],[-96.31375,33.563382],[-96.316504,33.562924],[-96.31918,33.561793],[-96.32457,33.558623],[-96.325103,33.546462],[-96.328043,33.546439],[-96.328436,33.546225],[-96.328667,33.539698],[-96.328452,33.538734],[-96.328946,33.533997],[-96.329558,33.520782],[-96.329792,33.52048],[-96.330784,33.520407],[-96.330877,33.520092],[-96.331204,33.51095],[-96.330912,33.510155],[-96.33148,33.498082],[-96.334125,33.498205],[-96.339716,33.497397],[-96.346815,33.497097],[-96.355,33.497997],[-96.372939,33.498005],[-96.379096,33.498195],[-96.380983,33.497829],[-96.382927,33.496781],[-96.382837,33.500108],[-96.383174,33.507675],[-96.382798,33.524108],[-96.382993,33.533999],[-96.382366,33.596532],[-96.380628,33.652325],[-96.38015,33.675866],[-96.380245,33.687603],[-96.379452,33.725764],[-96.378438,33.723975],[-96.375485,33.720876],[-96.370847,33.717996],[-96.369589,33.716809],[-96.368447,33.714926],[-96.366944,33.711223],[-96.366918,33.710045],[-96.366015,33.705493],[-96.363252,33.70105],[-96.363239,33.695193],[-96.362562,33.692326],[-96.359374,33.689432],[-96.356777,33.687927]]]}},{"type":"Feature","properties":{"PRECINCT":"3","VTD":"0003"},"geometry":{"type":"Polygon","coordinates":[[[-96.014364,33.505942],[-96.005189,33.505468],[-96.004703,33.505132],[-96.004814,33.500383],[-96.005176,33.497714],[-96.005019,33.497418],[-96.00443,33.497293],[-96.004221,33.496679],[-96.004018,33.492829],[-96.001392,33.492504],[-96.001486,33.488568],[-95.98426,33.488097],[-95.983677,33.493132],[-95.975628,33.492753],[-95.974573,33.49216],[-95.970995,33.491933],[-95.969737,33.490653],[-95.969376,33.490598],[-95.969188,33.490196],[-95.962844,33.490394],[-95.962307,33.488495],[-95.958465,33.487319],[-95.958152,33.486953],[-95.956834,33.486884],[-95.948314,33.484542],[-95.943415,33.483871],[-95.943489,33.479021],[-95.943205,33.475813],[-95.943482,33.465013],[-95.94243,33.458565],[-95.941827,33.456267],[-95.936609,33.457139],[-95.933958,33.457905],[-95.929991,33.458444],[-95.915187,33.4616],[-95.909902,33.462449],[-95.895161,33.462373],[-95.881288,33.463313],[-95.876985,33.463337],[-95.873318,33.463831],[-95.870737,33.463757],[-95.865418,33.464056],[-95.861995,33.463092],[-95.85772,33.462718],[-95.858723,33.40953],[-96.068764,33.382019],[-96.068132,33.385664],[-96.067398,33.387169],[-96.054962,33.405036],[-96.047391,33.414761],[-96.046795,33.415404],[-96.045541,33.416074],[-96.053926,33.423086],[-96.054946,33.424296],[-96.055534,33.425828],[-96.056119,33.430337],[-96.056262,33.437432],[-96.057031,33.439438],[-96.059155,33.44218],[-96.04554,33.445145],[-96.040921,33.446748],[-96.038671,33.447225],[-96.034787,33.448571],[-96.029359,33.450002],[-96.026851,33.450971],[-96.023883,33.451619],[-96.02187,33.45243],[-96.015579,33.454076],[-96.015505,33.454904],[-96.015808,33.455702],[-96.01538,33.46817],[-96.024951,33.468207],[-96.025262,33.468374],[-96.024651,33.488935],[-96.02717,33.489008],[-96.027101,33.492651],[-96.028837,33.496525],[-96.028891,33.500404],[-96.029223,33.501611],[-96.028889,33.501744],[-96.028842,33.502429],[-96.028474,33.502559],[-96.014723,33.502225],[-96.014522,33.502408],[-96.014364,33.505942]]]}},{"type":"Feature","properties":{"PRECINCT":"4","VTD":"0004"},"geometry":{"type":"Polygon","coordinates":[[[-96.120219,33.651012],[-96.112376,33.650889],[-96.111404,33.650686],[-96.110662,33.650423],[-96.100511,33.64407],[-96.099591,33.643664],[-96.098303,33.643456],[-96.11452,33.637418],[-96.117331,33.636583],[-96.120549,33.634518],[-96.122322,33.633061],[-96.123991,33.631264],[-96.132279,33.616973],[-96.132794,33.615605],[-96.137599,33.606738],[-96.139752,33.603514],[-96.140104,33.602307],[-96.144031,33.595818],[-96.145925,33.591468],[-96.148316,33.587812],[-96.149358,33.585574],[-96.150427,33.585775],[-96.153508,33.587066],[-96.172997,33.587622],[-96.173122,33.584354],[-96.177686,33.584674],[-96.177855,33.581737],[-96.175074,33.581684],[-96.175104,33.580427],[-96.174417,33.580408],[-96.174411,33.580779],[-96.170079,33.580631],[-96.169986,33.578248],[-96.170616,33.576672],[-96.163101,33.576282],[-96.163134,33.575473],[-96.164907,33.575514],[-96.164889,33.573406],[-96.171161,33.573174],[-96.174742,33.573284],[-96.174677,33.574503],[-96.172586,33.574473],[-96.172475,33.576825],[-96.178029,33.577027],[-96.177935,33.579932],[-96.18244,33.580044],[-96.182258,33.584907],[-96.183548,33.584771],[-96.184263,33.585683],[-96.184583,33.585765],[-96.184446,33.588591],[-96.1808,33.588489],[-96.180811,33.587932],[-96.178878,33.587853],[-96.17891,33.587165],[-96.17659,33.587178],[-96.1755,33.588615],[-96.175049,33.588554],[-96.174464,33.58987],[-96.174156,33.593196],[-96.174038,33.599594],[-96.174526,33.602648],[-96.174928,33.603062],[-96.174502,33.60507],[-96.173962,33.615672],[-96.174103,33.617248],[-96.172111,33.617256],[-96.171051,33.617478],[-96.169732,33.61813],[-96.168691,33.619114],[-96.163461,33.618753],[-96.163161,33.620384],[-96.162911,33.620547],[-96.159025,33.620461],[-96.158731,33.620894],[-96.15849,33.623961],[-96.154133,33.626638],[-96.148389,33.626488],[-96.147189,33.626791],[-96.142202,33.626851],[-96.141643,33.630894],[-96.141305,33.631071],[-96.139296,33.630938],[-96.138766,33.631113],[-96.138279,33.633247],[-96.136076,33.636347],[-96.135976,33.642343],[-96.135626,33.644034],[-96.134428,33.644517],[-96.129122,33.64451],[-96.127572,33.644664],[-96.12647,33.645057],[-96.123078,33.645049],[-96.122792,33.645523],[-96.122641,33.651253],[-96.121665,33.651616],[-96.120219,33.651012]]]}},{"type":"Feature","properties":{"PRECINCT":"5","VTD":"0005"},"geometry":{"type":"Polygon","coordinates":[[[-96.100095,33.847971],[-96.099112,33.847586],[-96.098296,33.847848],[-96.097526,33.847544],[-96.092762,33.847195],[-96.091683,33.846873],[-96.084626,33.846656],[-96.077442,33.844973],[-96.072658,33.842937],[-96.06829,33.84269],[-96.063934,33.841528],[-96.062365,33.840818],[-96.059739,33.840109],[-96.055358,33.838262],[-96.05356,33.838203],[-96.051608,33.837285],[-96.050622,33.83728],[-96.049408,33.836727],[-96.049584,33.836256],[-96.050255,33.835729],[-96.0525,33.835218],[-96.053113,33.834207],[-96.053494,33.833993],[-96.054107,33.833938],[-96.054607,33.834147],[-96.054646,33.834526],[-96.055179,33.834999],[-96.056371,33.835114],[-96.056489,33.834785],[-96.056029,33.83412],[-96.056516,33.833779],[-96.056568,33.833186],[-96.058056,33.832631],[-96.058668,33.832934],[-96.059491,33.831961],[-96.061288,33.832005],[-96.06194,33.832225],[-96.069746,33.830133],[-96.071174,33.830122],[-96.073761,33.829067],[-96.081343,33.827407],[-96.083752,33.825874],[-96.084424,33.826122],[-96.08601,33.826116],[-96.086602,33.8265],[-96.087057,33.8275],[-96.087491,33.827681],[-96.087939,33.827654],[-96.088419,33.827082],[-96.089209,33.827714],[-96.089387,33.82817],[-96.090387,33.827999],[-96.091012,33.827373],[-96.090696,33.825764],[-96.088872,33.82366],[-96.089188,33.823396],[-96.089636,33.823561],[-96.090557,33.823341],[-96.091156,33.823484],[-96.091176,33.822825],[-96.092044,33.821638],[-96.093617,33.820923],[-96.094005,33.82105],[-96.094347,33.820846],[-96.094353,33.818792],[-96.095005,33.817809],[-96.094958,33.817193],[-96.094451,33.816457],[-96.093523,33.81582],[-96.093648,33.814315],[-96.094937,33.813329],[-96.095752,33.811793],[-96.098147,33.813418],[-96.10043,33.814101],[-96.101807,33.815099],[-96.103431,33.815799],[-96.104036,33.815803],[-96.106952,33.81441],[-96.107695,33.813776],[-96.108688,33.811942],[-96.108806,33.809198],[-96.111364,33.809366],[-96.111909,33.812909],[-96.111666,33.813695],[-96.111877,33.814074],[-96.111634,33.814508],[-96.111733,33.815963],[-96.111503,33.816947],[-96.114366,33.815984],[-96.117122,33.813923],[-96.12486,33.811618],[-96.1267,33.810192],[-96.126866,33.809706],[-96.128487,33.809479],[-96.129792,33.808916],[-96.130724,33.808199],[-96.131538,33.806958],[-96.132075,33.803088],[-96.132482,33.802176],[-96.133165,33.80142],[-96.136524,33.799296],[-96.137542,33.797896],[-96.139403,33.786046],[-96.13948,33.777957],[-96.144162,33.778339],[-96.153081,33.778548],[-96.151746,33.776511],[-96.150994,33.774295],[-96.151465,33.772727],[-96.152624,33.771528],[-96.152897,33.770786],[-96.152722,33.769808],[-96.152014,33.768295],[-96.148277,33.765434],[-96.144647,33.763977],[-96.144137,33.763246],[-96.143198,33.760118],[-96.142747,33.759672],[-96.137143,33.760587],[-96.136314,33.760123],[-96.136959,33.758792],[-96.137193,33.7524],[-96.138876,33.748683],[-96.139907,33.747129],[-96.135668,33.747103],[-96.134709,33.747754],[-96.126482,33.747593],[-96.127145,33.740223],[-96.130585,33.740235],[-96.131025,33.738292],[-96.131242,33.734484],[-96.131906,33.734332],[-96.132503,33.732985],[-96.132985,33.730681],[-96.133113,33.728019],[-96.134124,33.725816],[-96.127679,33.725439],[-96.127799,33.720811],[-96.118359,33.720452],[-96.118484,33.715619],[-96.111601,33.715343],[-96.11219,33.696552],[-96.112399,33.696478],[-96.11337,33.671747],[-96.117523,33.672377],[-96.118748,33.672767],[-96.123292,33.67303],[-96.12965,33.673922],[-96.142094,33.674281],[-96.142536,33.673985],[-96.142704,33.670558],[-96.154153,33.670867],[-96.155297,33.67052],[-96.155608,33.671537],[-96.155623,33.677959],[-96.154662,33.682699],[-96.15962,33.68289],[-96.159711,33.684695],[-96.159987,33.684858],[-96.183286,33.685319],[-96.18814,33.736256],[-96.189099,33.739439],[-96.196388,33.753264],[-96.190376,33.755504],[-96.188015,33.75602],[-96.186627,33.755021],[-96.187732,33.756097],[-96.179846,33.759618],[-96.178603,33.760426],[-96.173525,33.7646],[-96.169794,33.769154],[-96.168597,33.771533],[-96.168112,33.774475],[-96.167538,33.774485],[-96.166595,33.77768],[-96.165929,33.779176],[-96.165199,33.78013],[-96.165114,33.781638],[-96.164296,33.783205],[-96.1641,33.784261],[-96.162896,33.785897],[-96.162849,33.786639],[-96.163597,33.786936],[-96.163713,33.787728],[-96.162757,33.788769],[-96.162483,33.789904],[-96.162902,33.791974],[-96.162745,33.792613],[-96.160756,33.79591],[-96.161954,33.799713],[-96.161121,33.802692],[-96.161385,33.803154],[-96.161114,33.805767],[-96.159822,33.81155],[-96.159273,33.812328],[-96.156355,33.813349],[-96.156125,33.813802],[-96.155538,33.81404],[-96.158772,33.813941],[-96.163766,33.813051],[-96.164979,33.81094],[-96.165862,33.810091],[-96.166896,33.809602],[-96.168041,33.808289],[-96.169121,33.806048],[-96.16995,33.805131],[-96.170721,33.803192],[-96.17028,33.803708],[-96.170023,33.803252],[-96.169457,33.804109],[-96.169592,33.800944],[-96.172857,33.801102],[-96.175726,33.802321],[-96.177339,33.805114],[-96.179122,33.810224],[-96.17691,33.813935],[-96.176307,33.814375],[-96.175349,33.814736],[-96.17363,33.81448],[-96.171353,33.814725],[-96.170497,33.815132],[-96.170432,33.815841],[-96.166503,33.817867],[-96.161455,33.81764],[-96.159295,33.818599],[-96.157294,33.818364],[-96.150765,33.816987],[-96.148792,33.819197],[-96.15163,33.831946],[-96.150147,33.835855],[-96.149227,33.837091],[-96.14807,33.837799],[-96.146535,33.838303],[-96.138905,33.839159],[-96.135189,33.838602],[-96.131058,33.837438],[-96.130349,33.837824],[-96.130282,33.838307],[-96.129807,33.838872],[-96.127818,33.839896],[-96.122949,33.839964],[-96.118167,33.837883],[-96.114437,33.835056],[-96.109994,33.832396],[-96.105529,33.831288],[-96.104078,33.83073],[-96.101927,33.830453],[-96.09936,33.83047],[-96.097449,33.832729],[-96.097638,33.837936],[-96.099153,33.842409],[-96.100785,33.844229],[-96.101349,33.845721],[-96.101473,33.84671],[-96.100746,33.847683],[-96.100095,33.847971]]]}},{"type":"Feature","properties":{"PRECINCT":"6","VTD":"0006"},"geometry":{"type":"Polygon","coordinates":[[[-96.033906,33.662672],[-96.033151,33.660864],[-96.032744,33.660634],[-96.032054,33.661023],[-96.031272,33.661023],[-96.030976,33.661578],[-96.029518,33.66122],[-96.030136,33.660018],[-96.029946,33.659534],[-96.032107,33.659216],[-96.03302,33.658881],[-96.035012,33.65669],[-96.036036,33.656344],[-96.037482,33.654213],[-96.038868,33.653258],[-96.04168,33.6506],[-96.04193,33.649792],[-96.042096,33.643969],[-96.042976,33.642311],[-96.042504,33.641234],[-96.04324,33.640454],[-96.042583,33.640179],[-96.042097,33.639058],[-96.042366,33.638718],[-96.041657,33.637976],[-96.041158,33.636932],[-96.041172,33.635982],[-96.041744,33.634362],[-96.04158,33.633681],[-96.042053,33.63301],[-96.04204,33.63217],[-96.041613,33.631291],[-96.040983,33.630742],[-96.040898,33.628495],[-96.040635,33.62811],[-96.04078,33.627704],[-96.040235,33.626704],[-96.041877,33.62526],[-96.041989,33.624801],[-96.041811,33.624416],[-96.040991,33.62418],[-96.040814,33.623389],[-96.039586,33.623433],[-96.039678,33.622609],[-96.039337,33.620966],[-96.040126,33.619955],[-96.039384,33.619357],[-96.039995,33.618637],[-96.039765,33.618351],[-96.040087,33.617972],[-96.039234,33.616972],[-96.039431,33.616577],[-96.039195,33.615599],[-96.039506,33.608222],[-96.041175,33.604448],[-96.041169,33.603383],[-96.041681,33.603119],[-96.041222,33.602284],[-96.041852,33.600878],[-96.042398,33.597692],[-96.043371,33.594276],[-96.043285,33.593847],[-96.043607,33.593638],[-96.043588,33.590667],[-96.04305,33.59026],[-96.043096,33.589908],[-96.04263,33.590051],[-96.042302,33.589771],[-96.042696,33.589205],[-96.042171,33.589233],[-96.041554,33.587958],[-96.040859,33.587408],[-96.038168,33.586633],[-96.037105,33.586595],[-96.035268,33.585303],[-96.035434,33.580689],[-96.035119,33.579733],[-96.036938,33.577146],[-96.037096,33.575872],[-96.039663,33.573043],[-96.039742,33.56989],[-96.04055,33.56766],[-96.040538,33.564952],[-96.0421,33.562415],[-96.042842,33.56225],[-96.043105,33.56141],[-96.04422,33.560668],[-96.044529,33.55969],[-96.044195,33.558471],[-96.045785,33.55724],[-96.046479,33.557232],[-96.04646,33.556765],[-96.047,33.556547],[-96.046618,33.555796],[-96.046093,33.555902],[-96.045918,33.555608],[-96.046029,33.555334],[-96.047027,33.554744],[-96.047021,33.553937],[-96.047822,33.553957],[-96.048036,33.553774],[-96.047747,33.552981],[-96.048196,33.552429],[-96.047608,33.552194],[-96.047566,33.551982],[-96.048306,33.55188],[-96.04893,33.552077],[-96.048987,33.551603],[-96.049435,33.551332],[-96.049507,33.550972],[-96.049309,33.550705],[-96.048842,33.550704],[-96.048612,33.550181],[-96.049327,33.549832],[-96.049132,33.549042],[-96.049454,33.548787],[-96.050211,33.548688],[-96.050037,33.54784],[-96.050819,33.547857],[-96.050977,33.54749],[-96.051726,33.547484],[-96.052339,33.546942],[-96.052129,33.546226],[-96.051494,33.545668],[-96.051747,33.544592],[-96.052037,33.544182],[-96.052482,33.544475],[-96.053049,33.544252],[-96.053199,33.543742],[-96.052902,33.543315],[-96.052263,33.543148],[-96.0523,33.542873],[-96.053575,33.542066],[-96.053564,33.541054],[-96.054166,33.539876],[-96.055928,33.539575],[-96.055809,33.53887],[-96.056432,33.53837],[-96.056922,33.537329],[-96.057386,33.526893],[-96.057612,33.526628],[-96.058854,33.526631],[-96.059167,33.526379],[-96.059754,33.512251],[-96.059636,33.51186],[-96.059206,33.511752],[-96.042464,33.511297],[-96.042113,33.511724],[-96.041997,33.517167],[-96.033698,33.517162],[-96.033695,33.511851],[-96.031303,33.507159],[-96.030821,33.504053],[-96.029001,33.500985],[-96.028837,33.496525],[-96.027101,33.492651],[-96.02717,33.489008],[-96.039566,33.489335],[-96.045685,33.489915],[-96.050639,33.49012],[-96.051412,33.490599],[-96.051809,33.49119],[-96.052554,33.49814],[-96.052939,33.498968],[-96.053851,33.499888],[-96.054973,33.500375],[-96.055983,33.500505],[-96.071033,33.501145],[-96.075243,33.50274],[-96.07972,33.505658],[-96.082461,33.506167],[-96.082067,33.507598],[-96.081451,33.52193],[-96.081307,33.522562],[-96.07882,33.527126],[-96.083461,33.527541],[-96.084792,33.527352],[-96.088708,33.527437],[-96.091436,33.528787],[-96.093003,33.529937],[-96.095203,33.530433],[-96.096152,33.530313],[-96.096851,33.531067],[-96.101828,33.53126],[-96.101746,33.537832],[-96.102885,33.538088],[-96.103406,33.539395],[-96.104768,33.540578],[-96.106039,33.545413],[-96.105465,33.556019],[-96.109239,33.556962],[-96.108201,33.557703],[-96.107801,33.559911],[-96.109883,33.56247],[-96.109799,33.566036],[-96.111592,33.567656],[-96.113416,33.568517],[-96.113758,33.568973],[-96.113765,33.569605],[-96.114303,33.56983],[-96.114343,33.570495],[-96.114881,33.57122],[-96.11605,33.572159],[-96.116713,33.572219],[-96.117313,33.572726],[-96.117862,33.574652],[-96.11936,33.577068],[-96.128486,33.577288],[-96.130381,33.577019],[-96.130248,33.582449],[-96.128474,33.584042],[-96.128647,33.58454],[-96.137352,33.584814],[-96.140386,33.58533],[-96.149358,33.585574],[-96.148316,33.587812],[-96.145925,33.591468],[-96.144031,33.595818],[-96.140104,33.602307],[-96.139752,33.603514],[-96.137599,33.606738],[-96.132794,33.615605],[-96.132279,33.616973],[-96.128516,33.623174],[-96.127919,33.624637],[-96.125071,33.629579],[-96.122976,33.632402],[-96.120549,33.634518],[-96.117331,33.636583],[-96.11452,33.637418],[-96.07468,33.652139],[-96.069497,33.652162],[-96.067737,33.651689],[-96.066653,33.651678],[-96.064525,33.652184],[-96.063093,33.653255],[-96.062351,33.653535],[-96.059448,33.652574],[-96.056689,33.652854],[-96.056189,33.653364],[-96.056137,33.654375],[-96.055684,33.654529],[-96.053424,33.654573],[-96.052938,33.653946],[-96.052124,33.65343],[-96.05048,33.65401],[-96.047512,33.654627],[-96.046566,33.654495],[-96.045811,33.655171],[-96.04631,33.656396],[-96.045909,33.656566],[-96.045062,33.656148],[-96.044129,33.656505],[-96.044004,33.656758],[-96.044602,33.657368],[-96.044333,33.658191],[-96.043994,33.658233],[-96.04295,33.657556],[-96.042386,33.657654],[-96.041963,33.657979],[-96.042348,33.659224],[-96.041553,33.659306],[-96.040811,33.659685],[-96.04062,33.660635],[-96.039641,33.660745],[-96.039089,33.661492],[-96.0384,33.661541],[-96.038137,33.661904],[-96.037499,33.661717],[-96.037158,33.662035],[-96.035903,33.661436],[-96.035653,33.661749],[-96.035693,33.662233],[-96.035345,33.662491],[-96.034662,33.661793],[-96.033906,33.662672]]]}},{"type":"Feature","properties":{"PRECINCT":"7","VTD":"0007"},"geometry":{"type":"Polygon","coordinates":[[[-96.117647,33.505782],[-96.114591,33.501189],[-96.107521,33.501024],[-96.107477,33.499123],[-96.107152,33.498911],[-96.090935,33.498509],[-96.088067,33.498269],[-96.087492,33.498887],[-96.08701,33.500419],[-96.082277,33.500336],[-96.081955,33.506015],[-96.07972,33.505658],[-96.075243,33.50274],[-96.071033,33.501145],[-96.056512,33.50054],[-96.054755,33.500308],[-96.053411,33.499513],[-96.052614,33.498329],[-96.05186,33.491356],[-96.051412,33.490599],[-96.050639,33.49012],[-96.045685,33.489915],[-96.039566,33.489335],[-96.024676,33.489048],[-96.025235,33.468281],[-96.01538,33.46817],[-96.015808,33.455702],[-96.015505,33.454904],[-96.015579,33.454076],[-96.02187,33.45243],[-96.023883,33.451619],[-96.026851,33.450971],[-96.029359,33.450002],[-96.034787,33.448571],[-96.038671,33.447225],[-96.040921,33.446748],[-96.04554,33.445145],[-96.059155,33.44218],[-96.057031,33.439438],[-96.056262,33.437432],[-96.056119,33.430337],[-96.055534,33.425828],[-96.054946,33.424296],[-96.053926,33.423086],[-96.045541,33.416074],[-96.046795,33.415404],[-96.047391,33.414761],[-96.054962,33.405036],[-96.067398,33.387169],[-96.068132,33.385664],[-96.068764,33.382019],[-96.082432,33.380199],[-96.131702,33.420611],[-96.133096,33.421495],[-96.161441,33.430686],[-96.16185,33.426931],[-96.169327,33.427302],[-96.168494,33.440314],[-96.163167,33.440004],[-96.16276,33.450535],[-96.162964,33.45129],[-96.164374,33.4536],[-96.16451,33.455384],[-96.163846,33.473227],[-96.162928,33.475989],[-96.16195,33.483828],[-96.161993,33.484573],[-96.163035,33.487576],[-96.163335,33.489535],[-96.16343,33.491829],[-96.162984,33.492945],[-96.157131,33.49278],[-96.155811,33.492398],[-96.154371,33.492303],[-96.146721,33.492089],[-96.146755,33.488394],[-96.136761,33.488081],[-96.137037,33.48933],[-96.137924,33.489819],[-96.139079,33.490068],[-96.139548,33.490923],[-96.140062,33.491314],[-96.140819,33.491557],[-96.141187,33.491365],[-96.141704,33.492107],[-96.142307,33.492503],[-96.142005,33.493409],[-96.14268,33.493646],[-96.143093,33.494409],[-96.142574,33.495173],[-96.142987,33.495849],[-96.142672,33.496085],[-96.142685,33.496404],[-96.143176,33.496953],[-96.144205,33.497272],[-96.14429,33.497811],[-96.143364,33.49823],[-96.14314,33.49995],[-96.142494,33.513911],[-96.139483,33.518584],[-96.138851,33.519906],[-96.138764,33.521024],[-96.138255,33.520622],[-96.133006,33.519329],[-96.130978,33.518684],[-96.130179,33.518208],[-96.129164,33.516658],[-96.129,33.51406],[-96.12293,33.511056],[-96.121342,33.509987],[-96.117647,33.505782]]]}},{"type":"Feature","properties":{"PRECINCT":"9","VTD":"0009"},"geometry":{"type":"Polygon","coordinates":[[[-96.268928,33.767958],[-96.263797,33.767522],[-96.262133,33.766922],[-96.256893,33.763728],[-96.255092,33.761634],[-96.248243,33.759106],[-96.238724,33.753693],[-96.236926,33.753259],[-96.236633,33.75287],[-96.23568,33.752588],[-96.234818,33.751639],[-96.230352,33.748524],[-96.229023,33.748021],[-96.224599,33.748327],[-96.221997,33.74757],[-96.220522,33.74739],[-96.215851,33.749179],[-96.208994,33.750096],[-96.204076,33.751123],[-96.202996,33.751449],[-96.202142,33.752015],[-96.201319,33.751795],[-96.199564,33.752378],[-96.197985,33.752554],[-96.196388,33.753264],[-96.189099,33.739439],[-96.18814,33.736256],[-96.181181,33.663403],[-96.182916,33.66386],[-96.186371,33.663756],[-96.187383,33.664338],[-96.18781,33.664201],[-96.188309,33.664393],[-96.188553,33.664185],[-96.188566,33.664525],[-96.188789,33.664602],[-96.189669,33.663833],[-96.190097,33.664146],[-96.190648,33.663954],[-96.190451,33.664295],[-96.190714,33.664608],[-96.191286,33.664459],[-96.191167,33.664201],[-96.191594,33.663943],[-96.191916,33.663904],[-96.191982,33.6643],[-96.192265,33.664355],[-96.193073,33.66419],[-96.193211,33.6638],[-96.193598,33.663899],[-96.194551,33.662295],[-96.195247,33.662031],[-96.195109,33.661042],[-96.195326,33.660861],[-96.196778,33.660619],[-96.197533,33.661421],[-96.197947,33.661306],[-96.198374,33.661471],[-96.198177,33.661014],[-96.198663,33.660679],[-96.198834,33.660185],[-96.198138,33.658949],[-96.198657,33.658861],[-96.20001,33.657411],[-96.200332,33.657707],[-96.200476,33.657372],[-96.200798,33.657306],[-96.200864,33.656927],[-96.202401,33.656762],[-96.202808,33.657114],[-96.20315,33.656817],[-96.20338,33.65702],[-96.203774,33.656531],[-96.203748,33.657333],[-96.204148,33.657135],[-96.204273,33.657416],[-96.205232,33.657525],[-96.205699,33.657278],[-96.205626,33.656987],[-96.206415,33.657036],[-96.208313,33.656053],[-96.208293,33.655602],[-96.208996,33.654948],[-96.211131,33.653987],[-96.211139,33.652694],[-96.209457,33.648821],[-96.215654,33.648921],[-96.214511,33.646487],[-96.218409,33.646551],[-96.218807,33.646396],[-96.21914,33.638252],[-96.222782,33.638252],[-96.222101,33.630819],[-96.24786,33.629225],[-96.247366,33.62175],[-96.256962,33.623836],[-96.256701,33.625],[-96.256824,33.626338],[-96.25591,33.627409],[-96.255227,33.627502],[-96.255063,33.627771],[-96.255549,33.62825],[-96.25637,33.628113],[-96.256159,33.628882],[-96.256276,33.629876],[-96.256782,33.630206],[-96.256893,33.630656],[-96.25642,33.631134],[-96.255671,33.631436],[-96.2555,33.631766],[-96.255966,33.632029],[-96.257096,33.631623],[-96.257687,33.631679],[-96.257589,33.632151],[-96.258015,33.633272],[-96.25764,33.634091],[-96.258684,33.63425],[-96.258677,33.634684],[-96.259058,33.634948],[-96.258795,33.635525],[-96.25932,33.636042],[-96.260095,33.636179],[-96.259694,33.636684],[-96.259983,33.637174],[-96.25993,33.637855],[-96.260829,33.63802],[-96.261244,33.637196],[-96.261808,33.637647],[-96.261394,33.638982],[-96.261426,33.639493],[-96.261892,33.640158],[-96.261754,33.641081],[-96.260919,33.64152],[-96.261155,33.641981],[-96.261602,33.642185],[-96.261608,33.642481],[-96.261155,33.642965],[-96.260977,33.643635],[-96.261515,33.644003],[-96.26166,33.644388],[-96.261127,33.645278],[-96.26181,33.645624],[-96.262138,33.64608],[-96.261777,33.646168],[-96.261685,33.646701],[-96.261073,33.647398],[-96.261487,33.647937],[-96.262991,33.648003],[-96.263372,33.648377],[-96.262741,33.648767],[-96.262097,33.648827],[-96.261361,33.649442],[-96.261676,33.650063],[-96.261229,33.650469],[-96.261781,33.650953],[-96.26111,33.651535],[-96.26197,33.652145],[-96.260735,33.652551],[-96.260872,33.653815],[-96.260392,33.654265],[-96.260871,33.655139],[-96.259991,33.655386],[-96.259347,33.65599],[-96.259695,33.656281],[-96.260621,33.65632],[-96.260943,33.656551],[-96.260461,33.657147],[-96.260625,33.657995],[-96.267514,33.657462],[-96.269074,33.657691],[-96.271428,33.657394],[-96.270113,33.659042],[-96.268306,33.660094],[-96.268332,33.661581],[-96.271699,33.663071],[-96.272684,33.663895],[-96.274025,33.664399],[-96.274326,33.664857],[-96.274703,33.667033],[-96.275307,33.667663],[-96.275802,33.666823],[-96.275802,33.665322],[-96.277947,33.663853],[-96.278335,33.663166],[-96.27893,33.660444],[-96.279455,33.659964],[-96.281079,33.659782],[-96.282703,33.659989],[-96.284687,33.65912],[-96.288927,33.659604],[-96.292975,33.658439],[-96.29427,33.657731],[-96.295867,33.657251],[-96.294554,33.66222],[-96.294082,33.663177],[-96.293737,33.665067],[-96.300763,33.664759],[-96.303049,33.66426],[-96.304367,33.66347],[-96.310931,33.663092],[-96.314702,33.663427],[-96.31602,33.663174],[-96.31688,33.676729],[-96.316474,33.67748],[-96.31705,33.678393],[-96.317293,33.68122],[-96.317694,33.681799],[-96.318539,33.682282],[-96.320297,33.682616],[-96.329872,33.682114],[-96.332906,33.682457],[-96.336368,33.682294],[-96.336402,33.683451],[-96.335464,33.684252],[-96.335338,33.685002],[-96.335401,33.685348],[-96.33639,33.686387],[-96.33637,33.687151],[-96.336697,33.687919],[-96.336388,33.690247],[-96.334932,33.69208],[-96.332917,33.693158],[-96.331192,33.693639],[-96.328076,33.694158],[-96.322152,33.694705],[-96.321098,33.695102],[-96.319641,33.696394],[-96.318759,33.696753],[-96.317259,33.698565],[-96.317094,33.699196],[-96.316338,33.700015],[-96.314886,33.702696],[-96.31223,33.706304],[-96.309964,33.710491],[-96.308389,33.715142],[-96.308183,33.716851],[-96.308525,33.717414],[-96.308368,33.718212],[-96.307298,33.71954],[-96.306364,33.723062],[-96.306515,33.725353],[-96.30631,33.729347],[-96.307874,33.735022],[-96.30765,33.737451],[-96.30692,33.738956],[-96.306163,33.744032],[-96.303657,33.748328],[-96.300147,33.755681],[-96.299637,33.75615],[-96.29961,33.756924],[-96.29811,33.759125],[-96.297794,33.761213],[-96.298202,33.761015],[-96.298255,33.7594],[-96.298827,33.758548],[-96.298761,33.760905],[-96.297031,33.763234],[-96.296412,33.766833],[-96.295898,33.767662],[-96.293708,33.769409],[-96.292161,33.76981],[-96.290359,33.770831],[-96.287083,33.771243],[-96.278301,33.770598],[-96.275058,33.769701],[-96.274696,33.769404],[-96.271033,33.768705],[-96.268928,33.767958]]]}},{"type":"Feature","properties":{"PRECINCT":"10","VTD":"0010"},"geometry":{"type":"Polygon","coordinates":[[[-96.330598,33.497898],[-96.324299,33.495344],[-96.322389,33.494834],[-96.283801,33.489514],[-96.278907,33.488677],[-96.279376,33.474648],[-96.274182,33.474332],[-96.274061,33.469705],[-96.280725,33.464377],[-96.279703,33.462361],[-96.279827,33.457204],[-96.279378,33.456003],[-96.278088,33.454789],[-96.27786,33.454003],[-96.273036,33.453643],[-96.273109,33.449696],[-96.269347,33.449483],[-96.269008,33.449295],[-96.26931,33.440708],[-96.269437,33.440384],[-96.270505,33.440352],[-96.270645,33.440119],[-96.271329,33.424419],[-96.271657,33.424203],[-96.274556,33.424335],[-96.27483,33.424076],[-96.275069,33.418867],[-96.274886,33.418612],[-96.273877,33.41848],[-96.274253,33.411286],[-96.274735,33.411132],[-96.293155,33.411687],[-96.293794,33.396694],[-96.325014,33.397602],[-96.325216,33.397413],[-96.324973,33.397089],[-96.325124,33.39638],[-96.324672,33.395765],[-96.325392,33.395452],[-96.32553,33.394985],[-96.326145,33.394441],[-96.325202,33.393875],[-96.325058,33.393292],[-96.326296,33.390682],[-96.325254,33.389979],[-96.3253,33.389331],[-96.324887,33.38915],[-96.325057,33.388628],[-96.324664,33.388452],[-96.324913,33.388117],[-96.324704,33.387606],[-96.325339,33.387386],[-96.324985,33.386672],[-96.325928,33.386276],[-96.325673,33.385507],[-96.325954,33.384655],[-96.327218,33.383897],[-96.327119,33.381699],[-96.32835,33.376386],[-96.328288,33.375186],[-96.330781,33.37528],[-96.331481,33.36029],[-96.331688,33.359692],[-96.331717,33.354113],[-96.331147,33.353726],[-96.331549,33.352377],[-96.331281,33.3523],[-96.331097,33.352536],[-96.330888,33.352388],[-96.331254,33.35208],[-96.331451,33.351355],[-96.331189,33.350739],[-96.331385,33.350239],[-96.330684,33.349871],[-96.331064,33.349531],[-96.331634,33.349613],[-96.331889,33.349168],[-96.332105,33.348575],[-96.331915,33.347406],[-96.384495,33.341119],[-96.384533,33.383732],[-96.384756,33.396788],[-96.384354,33.426204],[-96.384082,33.429625],[-96.383828,33.459048],[-96.382927,33.496781],[-96.380983,33.497829],[-96.379096,33.498195],[-96.372939,33.498005],[-96.355,33.497997],[-96.346815,33.497097],[-96.339716,33.497397],[-96.333412,33.498234],[-96.330598,33.497898]]]}},{"type":"Feature","properties":{"PRECINCT":"11","VTD":"0011"},"geometry":{"type":"Polygon","coordinates":[[[-96.205886,33.468301],[-96.202703,33.460222],[-96.183696,33.459792],[-96.181119,33.459261],[-96.164465,33.458642],[-96.16449,33.454032],[-96.162964,33.45129],[-96.162735,33.450243],[-96.163167,33.440004],[-96.168494,33.440314],[-96.169327,33.427302],[-96.16185,33.426931],[-96.161441,33.430686],[-96.132664,33.421277],[-96.082432,33.380199],[-96.241686,33.359116],[-96.250256,33.357776],[-96.331915,33.347406],[-96.332105,33.348575],[-96.331889,33.349168],[-96.331634,33.349613],[-96.331064,33.349531],[-96.330684,33.349871],[-96.331385,33.350239],[-96.331189,33.350739],[-96.331451,33.351355],[-96.331254,33.35208],[-96.330888,33.352388],[-96.331097,33.352536],[-96.331281,33.3523],[-96.331549,33.352377],[-96.331147,33.353726],[-96.331717,33.354113],[-96.331688,33.359692],[-96.331481,33.36029],[-96.330781,33.37528],[-96.328288,33.375186],[-96.32835,33.376386],[-96.327119,33.381699],[-96.327218,33.383897],[-96.325954,33.384655],[-96.325673,33.385507],[-96.325928,33.386276],[-96.324985,33.386672],[-96.325339,33.387386],[-96.324704,33.387606],[-96.324913,33.388117],[-96.324664,33.388452],[-96.325057,33.388628],[-96.324887,33.38915],[-96.3253,33.389331],[-96.325254,33.389979],[-96.326296,33.390682],[-96.325058,33.393292],[-96.325202,33.393875],[-96.326145,33.394441],[-96.32553,33.394985],[-96.325392,33.395452],[-96.324672,33.395765],[-96.325124,33.39638],[-96.324973,33.397089],[-96.325216,33.397413],[-96.325014,33.397602],[-96.293794,33.396694],[-96.293155,33.411687],[-96.274304,33.411204],[-96.273877,33.41848],[-96.274886,33.418612],[-96.275069,33.418867],[-96.27483,33.424076],[-96.274556,33.424335],[-96.271348,33.424337],[-96.27084,33.435195],[-96.263347,33.434953],[-96.261724,33.434346],[-96.26059,33.433291],[-96.259414,33.431721],[-96.259324,33.433533],[-96.250426,33.433317],[-96.250137,33.441165],[-96.249885,33.441735],[-96.248621,33.442639],[-96.248393,33.443924],[-96.248706,33.44849],[-96.248396,33.462557],[-96.242329,33.462262],[-96.240644,33.461911],[-96.237248,33.46237],[-96.234941,33.463321],[-96.228559,33.467019],[-96.22774,33.467722],[-96.214638,33.475529],[-96.208496,33.471655],[-96.207048,33.470415],[-96.205886,33.468301]]]}},{"type":"Feature","properties":{"PRECINCT":"12","VTD":"0012"},"geometry":{"type":"Polygon","coordinates":[[[-95.991919,33.868801],[-95.989191,33.86859],[-95.987836,33.867949],[-95.984927,33.865805],[-95.984059,33.860118],[-95.98604,33.856931],[-95.984856,33.852492],[-95.979527,33.853957],[-95.976236,33.855167],[-95.974629,33.855464],[-95.973833,33.855525],[-95.974115,33.854909],[-95.973779,33.854415],[-95.973964,33.853899],[-95.974668,33.853662],[-95.975544,33.853942],[-95.975643,33.854563],[-95.976005,33.854546],[-95.976327,33.8542],[-95.976583,33.853052],[-95.975424,33.852508],[-95.97543,33.851201],[-95.977721,33.84997],[-95.978234,33.849942],[-95.978524,33.849503],[-95.979603,33.848953],[-95.980722,33.848854],[-95.98134,33.847848],[-95.982051,33.847458],[-95.982775,33.847408],[-95.983157,33.846815],[-95.9839,33.846562],[-95.984137,33.846259],[-95.986086,33.846215],[-95.986961,33.845874],[-95.986868,33.845077],[-95.986453,33.84466],[-95.986894,33.84438],[-95.987269,33.843105],[-95.986689,33.84221],[-95.986649,33.841529],[-95.986089,33.840991],[-95.987122,33.839969],[-95.986621,33.839584],[-95.987141,33.839469],[-95.986996,33.83898],[-95.987634,33.838337],[-95.98922,33.83832],[-95.989582,33.837243],[-95.990279,33.837149],[-95.990141,33.836644],[-95.990555,33.836468],[-95.990206,33.836172],[-95.990298,33.835908],[-95.990561,33.835622],[-95.991042,33.835688],[-95.991509,33.835452],[-95.992423,33.834638],[-95.991929,33.834166],[-95.991751,33.833567],[-95.991073,33.833205],[-95.991251,33.832875],[-95.990908,33.832914],[-95.990566,33.832656],[-95.9899,33.831668],[-95.991045,33.830772],[-95.990749,33.830321],[-95.991005,33.829355],[-95.99053,33.828987],[-95.990853,33.828597],[-95.989924,33.827795],[-95.99014,33.827472],[-95.989295,33.827181],[-95.985432,33.824562],[-95.968241,33.824153],[-95.967988,33.824346],[-95.967708,33.826234],[-95.966888,33.826833],[-95.966636,33.827619],[-95.957218,33.826597],[-95.95655,33.828353],[-95.950028,33.828322],[-95.95029,33.824404],[-95.951578,33.822534],[-95.95344,33.820842],[-95.957078,33.819255],[-95.957207,33.813783],[-95.957606,33.812023],[-95.958489,33.794634],[-95.960589,33.794449],[-95.963624,33.793384],[-95.971075,33.793538],[-95.973672,33.794012],[-95.973854,33.791585],[-95.973249,33.791026],[-95.973575,33.78551],[-95.979565,33.785496],[-95.979666,33.780345],[-95.976453,33.780157],[-95.976153,33.779963],[-95.976332,33.771494],[-95.97927,33.771232],[-95.986969,33.771322],[-95.987297,33.76425],[-95.992085,33.764331],[-95.992326,33.764186],[-95.992689,33.757153],[-95.9894,33.756983],[-95.988763,33.756716],[-95.988398,33.756265],[-95.988629,33.744827],[-95.987937,33.742982],[-95.986098,33.741221],[-95.984543,33.740538],[-95.983138,33.74026],[-95.973582,33.739791],[-95.971445,33.740352],[-95.964648,33.744101],[-95.960805,33.744223],[-95.960998,33.743295],[-95.961642,33.742795],[-95.961792,33.741246],[-95.964806,33.731385],[-95.965404,33.730089],[-95.966199,33.729308],[-95.965633,33.727968],[-95.966468,33.726584],[-95.966651,33.725425],[-95.968818,33.719277],[-95.976773,33.69783],[-95.977029,33.696182],[-95.976929,33.694583],[-95.977179,33.693864],[-95.979103,33.691232],[-95.979299,33.690084],[-95.98039,33.690155],[-95.979745,33.689285],[-95.979943,33.688792],[-95.980831,33.688566],[-95.981833,33.688749],[-95.981904,33.688411],[-95.981226,33.68731],[-95.980549,33.687042],[-95.980634,33.686718],[-95.981212,33.686365],[-95.981137,33.685436],[-95.981597,33.685276],[-95.982017,33.685847],[-95.9832,33.686089],[-95.983837,33.685231],[-95.983692,33.684803],[-95.982569,33.684705],[-95.982654,33.68393],[-95.982174,33.683491],[-95.982141,33.683029],[-95.982988,33.683315],[-95.983271,33.682754],[-95.984348,33.68271],[-95.985773,33.681462],[-95.98821,33.680425],[-95.988478,33.679988],[-95.98821,33.679043],[-95.988497,33.678737],[-95.990086,33.679071],[-95.991836,33.677745],[-95.99233,33.677604],[-95.995123,33.678196],[-95.995576,33.677605],[-95.996719,33.676894],[-95.998022,33.674892],[-96.002525,33.672591],[-96.003162,33.671971],[-96.010417,33.669886],[-96.01012,33.668758],[-96.010473,33.668236],[-96.010854,33.668179],[-96.011263,33.668673],[-96.011658,33.668264],[-96.012095,33.66825],[-96.012392,33.668673],[-96.012335,33.669054],[-96.01273,33.669209],[-96.013732,33.668066],[-96.014184,33.667925],[-96.014466,33.668095],[-96.014367,33.66911],[-96.015002,33.669618],[-96.015524,33.669562],[-96.016448,33.668719],[-96.017164,33.668753],[-96.017605,33.6685],[-96.017855,33.667863],[-96.017908,33.666049],[-96.019453,33.66509],[-96.020038,33.664328],[-96.021308,33.663778],[-96.021252,33.663072],[-96.020786,33.662508],[-96.021083,33.661873],[-96.021647,33.661915],[-96.022296,33.662762],[-96.023855,33.662433],[-96.024532,33.661752],[-96.026119,33.661802],[-96.027375,33.660942],[-96.028377,33.660956],[-96.028278,33.660603],[-96.027728,33.660462],[-96.027798,33.66025],[-96.028391,33.65994],[-96.028546,33.659503],[-96.029519,33.659375],[-96.029946,33.659534],[-96.030136,33.660018],[-96.029518,33.66122],[-96.030976,33.661578],[-96.031272,33.661023],[-96.031995,33.661034],[-96.032514,33.660661],[-96.03302,33.660705],[-96.033591,33.662282],[-96.033972,33.662694],[-96.034662,33.661793],[-96.035134,33.662458],[-96.035548,33.662392],[-96.035653,33.661749],[-96.036002,33.661414],[-96.037158,33.662035],[-96.037499,33.661717],[-96.038137,33.661904],[-96.0384,33.661541],[-96.039089,33.661492],[-96.039641,33.660745],[-96.040705,33.66058],[-96.040811,33.659685],[-96.041553,33.659306],[-96.042348,33.659224],[-96.041963,33.657979],[-96.042612,33.657513],[-96.043994,33.658233],[-96.044333,33.658191],[-96.044602,33.657368],[-96.043991,33.656697],[-96.044819,33.65617],[-96.045364,33.656187],[-96.045909,33.656566],[-96.04631,33.656396],[-96.045811,33.655171],[-96.046566,33.654495],[-96.047512,33.654627],[-96.05048,33.65401],[-96.052124,33.65343],[-96.052938,33.653946],[-96.053424,33.654573],[-96.055684,33.654529],[-96.056137,33.654375],[-96.056189,33.653364],[-96.056689,33.652854],[-96.059448,33.652574],[-96.062351,33.653535],[-96.063093,33.653255],[-96.064525,33.652184],[-96.066653,33.651678],[-96.067737,33.651689],[-96.069497,33.652162],[-96.07468,33.652139],[-96.098303,33.643456],[-96.099591,33.643664],[-96.100511,33.64407],[-96.110662,33.650423],[-96.111404,33.650686],[-96.112376,33.650889],[-96.120219,33.651012],[-96.121665,33.651616],[-96.122641,33.651253],[-96.122444,33.656915],[-96.117552,33.656862],[-96.117289,33.657178],[-96.117081,33.659198],[-96.114431,33.659294],[-96.114009,33.659585],[-96.113877,33.660057],[-96.112399,33.696478],[-96.11219,33.696552],[-96.111601,33.715343],[-96.118484,33.715619],[-96.118359,33.720452],[-96.127799,33.720811],[-96.127679,33.725439],[-96.134124,33.725816],[-96.133113,33.728019],[-96.132985,33.730681],[-96.132503,33.732985],[-96.131906,33.734332],[-96.131242,33.734484],[-96.131025,33.738292],[-96.130585,33.740235],[-96.127145,33.740223],[-96.126482,33.747593],[-96.134709,33.747754],[-96.135668,33.747103],[-96.139907,33.747129],[-96.138876,33.748683],[-96.137193,33.7524],[-96.136959,33.758792],[-96.136314,33.760123],[-96.137143,33.760587],[-96.142747,33.759672],[-96.143198,33.760118],[-96.144137,33.763246],[-96.144647,33.763977],[-96.148277,33.765434],[-96.152014,33.768295],[-96.152722,33.769808],[-96.152897,33.770786],[-96.152624,33.771528],[-96.151465,33.772727],[-96.150994,33.774295],[-96.151746,33.776511],[-96.153081,33.778548],[-96.144162,33.778339],[-96.13948,33.777957],[-96.139403,33.786046],[-96.137542,33.797896],[-96.136524,33.799296],[-96.133165,33.80142],[-96.132482,33.802176],[-96.132075,33.803088],[-96.131538,33.806958],[-96.130724,33.808199],[-96.129792,33.808916],[-96.128487,33.809479],[-96.126866,33.809706],[-96.1267,33.810192],[-96.12486,33.811618],[-96.117122,33.813923],[-96.114366,33.815984],[-96.111503,33.816947],[-96.111733,33.815963],[-96.111634,33.814508],[-96.111877,33.814074],[-96.111666,33.813695],[-96.111909,33.812909],[-96.111364,33.809366],[-96.108806,33.809198],[-96.108688,33.811942],[-96.107695,33.813776],[-96.106952,33.81441],[-96.104036,33.815803],[-96.103431,33.815799],[-96.101807,33.815099],[-96.10043,33.814101],[-96.098147,33.813418],[-96.095752,33.811793],[-96.094937,33.813329],[-96.093648,33.814315],[-96.093523,33.81582],[-96.094451,33.816457],[-96.094958,33.817193],[-96.095005,33.817809],[-96.094353,33.818792],[-96.094347,33.820846],[-96.094005,33.82105],[-96.093617,33.820923],[-96.092044,33.821638],[-96.091176,33.822825],[-96.091156,33.823484],[-96.090557,33.823341],[-96.089636,33.823561],[-96.089188,33.823396],[-96.088872,33.82366],[-96.090696,33.825764],[-96.091012,33.827373],[-96.090387,33.827999],[-96.089387,33.82817],[-96.089209,33.827714],[-96.088419,33.827082],[-96.087939,33.827654],[-96.087491,33.827681],[-96.087057,33.8275],[-96.086602,33.8265],[-96.08601,33.826116],[-96.084424,33.826122],[-96.083752,33.825874],[-96.081343,33.827407],[-96.073761,33.829067],[-96.071174,33.830122],[-96.069746,33.830133],[-96.06194,33.832225],[-96.061288,33.832005],[-96.059491,33.831961],[-96.058668,33.832934],[-96.058056,33.832631],[-96.056568,33.833186],[-96.056516,33.833779],[-96.056029,33.83412],[-96.056489,33.834785],[-96.056371,33.835114],[-96.055179,33.834999],[-96.054646,33.834526],[-96.054607,33.834147],[-96.054107,33.833938],[-96.053494,33.833993],[-96.053113,33.834207],[-96.0525,33.835218],[-96.050255,33.835729],[-96.049584,33.836256],[-96.049408,33.836727],[-96.048834,33.836468],[-96.047752,33.837081],[-96.045023,33.838083],[-96.044627,33.838469],[-96.038274,33.840598],[-96.03508,33.842564],[-96.032545,33.845266],[-96.030799,33.848611],[-96.030488,33.85106],[-96.030809,33.85423],[-96.030611,33.855054],[-96.029438,33.856348],[-96.026968,33.857474],[-96.025226,33.857488],[-96.023907,33.857067],[-96.022408,33.857042],[-96.020083,33.855046],[-96.019542,33.853497],[-96.020326,33.849579],[-96.021783,33.846927],[-96.022508,33.84613],[-96.023095,33.844128],[-96.023241,33.842479],[-96.022736,33.841092],[-96.020624,33.840627],[-96.019517,33.841048],[-96.017055,33.841454],[-96.016782,33.841738],[-96.016178,33.841787],[-96.013594,33.842853],[-96.010907,33.844296],[-96.005704,33.845435],[-96.00405,33.845237],[-96.004237,33.845544],[-96.003595,33.846028],[-96.004998,33.845987],[-96.00355,33.847888],[-96.002747,33.848532],[-96.001141,33.849283],[-96.000257,33.849403],[-95.998351,33.85105],[-95.997708,33.852183],[-95.996833,33.853898],[-95.99559,33.857907],[-95.994869,33.861824],[-95.999694,33.862552],[-96.000255,33.862957],[-96.000957,33.864405],[-96.002875,33.86667],[-96.003982,33.868405],[-96.004573,33.870712],[-96.003669,33.872526],[-96.002925,33.87359],[-96.001873,33.873744],[-96.000255,33.87254],[-95.998617,33.87223],[-95.996377,33.871231],[-95.993373,33.869394],[-95.991919,33.868801]]]}},{"type":"Feature","properties":{"PRECINCT":"13","VTD":"0013"},"geometry":{"type":"Polygon","coordinates":[[[-96.204204,33.563564],[-96.21023,33.551537],[-96.209918,33.551176],[-96.209926,33.548395],[-96.204734,33.547935],[-96.204485,33.547702],[-96.20434,33.54616],[-96.198397,33.546061],[-96.197862,33.545655],[-96.196209,33.546279],[-96.192152,33.546386],[-96.192467,33.54068],[-96.191582,33.540349],[-96.190683,33.540343],[-96.190073,33.541101],[-96.189693,33.5412],[-96.189233,33.54103],[-96.179771,33.540822],[-96.175279,33.535733],[-96.174596,33.532326],[-96.172737,33.527105],[-96.171452,33.520031],[-96.171075,33.519003],[-96.16752,33.51075],[-96.166865,33.510006],[-96.163986,33.508076],[-96.163333,33.506737],[-96.163745,33.501682],[-96.16374,33.497375],[-96.162938,33.495155],[-96.162836,33.494193],[-96.162916,33.49316],[-96.16343,33.491829],[-96.163448,33.490804],[-96.163035,33.487576],[-96.161937,33.484226],[-96.162928,33.475989],[-96.163846,33.473227],[-96.164465,33.458642],[-96.181119,33.459261],[-96.183696,33.459792],[-96.202703,33.460222],[-96.205886,33.468301],[-96.207048,33.470415],[-96.208496,33.471655],[-96.214638,33.475529],[-96.22774,33.467722],[-96.228559,33.467019],[-96.234941,33.463321],[-96.237248,33.46237],[-96.240644,33.461911],[-96.242329,33.462262],[-96.248396,33.462557],[-96.248706,33.44849],[-96.248393,33.443924],[-96.248621,33.442639],[-96.249885,33.441735],[-96.250137,33.441165],[-96.250426,33.433317],[-96.259324,33.433533],[-96.259414,33.431721],[-96.26059,33.433291],[-96.261724,33.434346],[-96.263347,33.434953],[-96.27084,33.435195],[-96.270624,33.440262],[-96.26953,33.440344],[-96.26931,33.440708],[-96.269008,33.449295],[-96.269347,33.449483],[-96.273109,33.449696],[-96.273036,33.453643],[-96.27786,33.454003],[-96.278088,33.454789],[-96.279378,33.456003],[-96.279827,33.457204],[-96.279703,33.462361],[-96.280725,33.464377],[-96.274061,33.469705],[-96.274182,33.474332],[-96.279376,33.474648],[-96.278907,33.488677],[-96.309865,33.493111],[-96.309632,33.496427],[-96.309231,33.498016],[-96.309849,33.500693],[-96.310316,33.500906],[-96.314122,33.500968],[-96.31459,33.50117],[-96.314398,33.508599],[-96.314189,33.508757],[-96.310714,33.508716],[-96.310431,33.512167],[-96.310161,33.5124],[-96.297448,33.512191],[-96.294437,33.512238],[-96.293583,33.512491],[-96.288761,33.512407],[-96.288262,33.522677],[-96.285166,33.522628],[-96.28443,33.522882],[-96.284175,33.523362],[-96.284077,33.526173],[-96.283702,33.526648],[-96.283043,33.526824],[-96.279386,33.526771],[-96.27874,33.526975],[-96.278335,33.527513],[-96.277658,33.532346],[-96.272418,33.535503],[-96.270419,33.536381],[-96.268442,33.53699],[-96.260283,33.538609],[-96.259461,33.539271],[-96.256119,33.540031],[-96.254507,33.540093],[-96.247418,33.542275],[-96.247293,33.546129],[-96.244823,33.546256],[-96.242835,33.548525],[-96.239307,33.551106],[-96.236098,33.553146],[-96.232648,33.554967],[-96.231051,33.556109],[-96.222196,33.555876],[-96.221784,33.561102],[-96.221553,33.570132],[-96.202045,33.570275],[-96.203836,33.565014],[-96.203459,33.564611],[-96.204204,33.563564]]]}},{"type":"Feature","properties":{"PRECINCT":"15","VTD":"0015"},"geometry":{"type":"Polygon","coordinates":[[[-96.268717,33.659751],[-96.270113,33.659042],[-96.271428,33.657394],[-96.269074,33.657691],[-96.267514,33.657462],[-96.260625,33.657995],[-96.260461,33.657147],[-96.260943,33.656551],[-96.260621,33.65632],[-96.259695,33.656281],[-96.259347,33.65599],[-96.259991,33.655386],[-96.260871,33.655139],[-96.260392,33.654265],[-96.260872,33.653815],[-96.260735,33.652551],[-96.26197,33.652145],[-96.26111,33.651535],[-96.261781,33.650953],[-96.261229,33.650469],[-96.261676,33.650063],[-96.261361,33.649442],[-96.262097,33.648827],[-96.262741,33.648767],[-96.263372,33.648377],[-96.262991,33.648003],[-96.261487,33.647937],[-96.261073,33.647398],[-96.261685,33.646701],[-96.261777,33.646168],[-96.262138,33.64608],[-96.26181,33.645624],[-96.261127,33.645278],[-96.26166,33.644388],[-96.261515,33.644003],[-96.260977,33.643635],[-96.261155,33.642965],[-96.261608,33.642481],[-96.261602,33.642185],[-96.261155,33.641981],[-96.260919,33.64152],[-96.261754,33.641081],[-96.261892,33.640158],[-96.261426,33.639493],[-96.261394,33.638982],[-96.261808,33.637647],[-96.261244,33.637196],[-96.260829,33.63802],[-96.25993,33.637855],[-96.259983,33.637174],[-96.259694,33.636684],[-96.260095,33.636179],[-96.25932,33.636042],[-96.258795,33.635525],[-96.259058,33.634948],[-96.258677,33.634684],[-96.258684,33.63425],[-96.25764,33.634091],[-96.258015,33.633272],[-96.257589,33.632151],[-96.257687,33.631679],[-96.257096,33.631623],[-96.255966,33.632029],[-96.2555,33.631766],[-96.255671,33.631436],[-96.25642,33.631134],[-96.256893,33.630656],[-96.256782,33.630206],[-96.256276,33.629876],[-96.256159,33.628882],[-96.25637,33.628113],[-96.255549,33.62825],[-96.255063,33.627771],[-96.255227,33.627502],[-96.25591,33.627409],[-96.256824,33.626338],[-96.256701,33.625],[-96.256962,33.623836],[-96.246262,33.621578],[-96.233591,33.622166],[-96.232118,33.622061],[-96.230168,33.621402],[-96.226158,33.618823],[-96.224815,33.618262],[-96.223571,33.604734],[-96.223545,33.602234],[-96.224302,33.602386],[-96.224906,33.601787],[-96.224945,33.601051],[-96.226606,33.600111],[-96.22677,33.599787],[-96.227735,33.599902],[-96.227833,33.599583],[-96.228372,33.599611],[-96.228542,33.59883],[-96.229337,33.598709],[-96.229677,33.597709],[-96.230406,33.597072],[-96.23275,33.596994],[-96.23309,33.596756],[-96.233177,33.594049],[-96.232924,33.593798],[-96.233111,33.588328],[-96.233667,33.582029],[-96.233616,33.569794],[-96.23927,33.569782],[-96.249415,33.571124],[-96.249729,33.564068],[-96.253982,33.564135],[-96.254354,33.564012],[-96.25476,33.563344],[-96.255623,33.563295],[-96.255969,33.554498],[-96.252149,33.554141],[-96.252728,33.546954],[-96.252556,33.546788],[-96.247353,33.546738],[-96.247418,33.542275],[-96.254507,33.540093],[-96.256119,33.540031],[-96.259461,33.539271],[-96.260283,33.538609],[-96.268442,33.53699],[-96.270419,33.536381],[-96.272418,33.535503],[-96.277658,33.532346],[-96.278335,33.527513],[-96.27874,33.526975],[-96.279386,33.526771],[-96.283043,33.526824],[-96.283702,33.526648],[-96.284077,33.526173],[-96.284175,33.523362],[-96.28443,33.522882],[-96.285166,33.522628],[-96.288262,33.522677],[-96.288761,33.512407],[-96.293583,33.512491],[-96.294437,33.512238],[-96.297448,33.512191],[-96.310355,33.512316],[-96.310714,33.508716],[-96.314189,33.508757],[-96.314398,33.508599],[-96.3146,33.501259],[-96.31435,33.500987],[-96.310316,33.500906],[-96.309849,33.500693],[-96.309231,33.498016],[-96.309632,33.496427],[-96.309865,33.493111],[-96.322774,33.494909],[-96.324937,33.495593],[-96.329529,33.497552],[-96.33148,33.498082],[-96.330912,33.510155],[-96.331204,33.51095],[-96.330877,33.520092],[-96.330784,33.520407],[-96.329792,33.52048],[-96.329558,33.520782],[-96.328946,33.533997],[-96.328452,33.538734],[-96.328667,33.539698],[-96.328436,33.546225],[-96.328043,33.546439],[-96.325103,33.546462],[-96.32457,33.558623],[-96.31918,33.561793],[-96.316332,33.56296],[-96.31375,33.563382],[-96.306923,33.563855],[-96.297185,33.564325],[-96.296084,33.564155],[-96.295864,33.564426],[-96.296093,33.564745],[-96.295647,33.565465],[-96.29589,33.565789],[-96.296224,33.565564],[-96.296533,33.565772],[-96.296395,33.565998],[-96.296106,33.565976],[-96.296113,33.566234],[-96.296749,33.566256],[-96.296657,33.566492],[-96.296211,33.566509],[-96.296447,33.566844],[-96.295752,33.567041],[-96.296014,33.567475],[-96.295449,33.56775],[-96.295548,33.569025],[-96.295882,33.56919],[-96.295948,33.569706],[-96.296578,33.569745],[-96.29623,33.569926],[-96.296427,33.570398],[-96.296164,33.570607],[-96.296965,33.571058],[-96.296827,33.571376],[-96.297083,33.571651],[-96.297477,33.571618],[-96.297089,33.571997],[-96.297673,33.572157],[-96.297365,33.572354],[-96.297667,33.572712],[-96.297181,33.572832],[-96.297562,33.573217],[-96.297279,33.573272],[-96.29703,33.573865],[-96.297758,33.573805],[-96.297469,33.574299],[-96.298237,33.574091],[-96.298723,33.574283],[-96.298729,33.574646],[-96.298368,33.574909],[-96.298762,33.574821],[-96.299051,33.575514],[-96.299379,33.575245],[-96.299491,33.575558],[-96.299845,33.575569],[-96.299438,33.575953],[-96.299077,33.575931],[-96.29928,33.576294],[-96.298959,33.576283],[-96.298827,33.576525],[-96.299477,33.576662],[-96.299326,33.577398],[-96.299772,33.578365],[-96.30119,33.579772],[-96.301603,33.579778],[-96.301524,33.580107],[-96.30205,33.580052],[-96.302148,33.57969],[-96.302391,33.580041],[-96.302739,33.579695],[-96.303618,33.580283],[-96.304117,33.580014],[-96.304019,33.580371],[-96.304248,33.580525],[-96.304655,33.580327],[-96.30478,33.581085],[-96.307819,33.581707],[-96.308206,33.581459],[-96.308843,33.581992],[-96.308036,33.582443],[-96.308265,33.582729],[-96.307622,33.583443],[-96.308127,33.583624],[-96.308316,33.584076],[-96.313843,33.585157],[-96.313769,33.587603],[-96.312433,33.58772],[-96.307398,33.586643],[-96.30774,33.587398],[-96.306755,33.587431],[-96.306814,33.587898],[-96.306335,33.588156],[-96.306361,33.588387],[-96.306683,33.588646],[-96.307116,33.588376],[-96.30789,33.588382],[-96.307969,33.58881],[-96.307332,33.589014],[-96.306794,33.588898],[-96.306407,33.589299],[-96.307037,33.591349],[-96.307568,33.59142],[-96.30768,33.591953],[-96.308369,33.591283],[-96.308251,33.590854],[-96.308632,33.590459],[-96.309433,33.590558],[-96.309531,33.590832],[-96.309833,33.590761],[-96.309682,33.590525],[-96.309879,33.59042],[-96.311022,33.591069],[-96.311468,33.590904],[-96.312236,33.591338],[-96.311603,33.592475],[-96.312163,33.593201],[-96.3124,33.594215],[-96.314126,33.595267],[-96.314408,33.596862],[-96.315843,33.597561],[-96.315837,33.598782],[-96.316357,33.599582],[-96.316518,33.601736],[-96.296047,33.603325],[-96.297083,33.613587],[-96.300055,33.613629],[-96.300504,33.617578],[-96.315677,33.616609],[-96.316539,33.626345],[-96.315356,33.626712],[-96.314733,33.627691],[-96.315677,33.637442],[-96.314113,33.639145],[-96.314046,33.640884],[-96.31381,33.640952],[-96.314227,33.642621],[-96.31602,33.663174],[-96.314702,33.663427],[-96.310931,33.663092],[-96.304367,33.66347],[-96.303049,33.66426],[-96.300763,33.664759],[-96.293737,33.665067],[-96.294082,33.663177],[-96.294554,33.66222],[-96.295867,33.657251],[-96.29427,33.657731],[-96.292975,33.658439],[-96.288927,33.659604],[-96.284687,33.65912],[-96.282703,33.659989],[-96.281079,33.659782],[-96.279455,33.659964],[-96.27893,33.660444],[-96.278335,33.663166],[-96.277947,33.663853],[-96.275802,33.665322],[-96.275802,33.666823],[-96.275307,33.667663],[-96.274703,33.667033],[-96.274326,33.664857],[-96.274025,33.664399],[-96.272684,33.663895],[-96.271699,33.663071],[-96.268332,33.661581],[-96.268169,33.660506],[-96.268717,33.659751]]]}},{"type":"Feature","properties":{"PRECINCT":"16","VTD":"0016"},"geometry":{"type":"Polygon","coordinates":[[[-95.992658,33.671012],[-95.990313,33.670282],[-95.986771,33.66868],[-95.984955,33.665401],[-95.983944,33.664929],[-95.983503,33.664308],[-95.982741,33.664078],[-95.982603,33.663512],[-95.982005,33.662936],[-95.981879,33.662013],[-95.98042,33.661387],[-95.980401,33.660915],[-95.979895,33.660668],[-95.98019,33.659696],[-95.980472,33.659635],[-95.981011,33.660096],[-95.981609,33.659772],[-95.982061,33.658377],[-95.981811,33.657597],[-95.982179,33.65769],[-95.983118,33.656926],[-95.983013,33.656552],[-95.982395,33.656152],[-95.983045,33.655712],[-95.982736,33.655449],[-95.983196,33.654877],[-95.983044,33.654229],[-95.983859,33.654393],[-95.98374,33.653905],[-95.9833,33.653734],[-95.983549,33.653267],[-95.983424,33.653037],[-95.98391,33.652663],[-95.983667,33.652125],[-95.984008,33.651812],[-95.984429,33.651927],[-95.985125,33.651586],[-95.985322,33.65124],[-95.985098,33.650987],[-95.984363,33.651174],[-95.984691,33.650669],[-95.984297,33.650394],[-95.984355,33.649828],[-95.985222,33.649954],[-95.985406,33.649784],[-95.985163,33.649449],[-95.985241,33.648993],[-95.984696,33.648515],[-95.985609,33.648394],[-95.986056,33.648641],[-95.986108,33.647977],[-95.986614,33.648108],[-95.9862,33.647559],[-95.987014,33.647652],[-95.987604,33.646279],[-95.987099,33.646158],[-95.987039,33.645949],[-95.987492,33.645581],[-95.987518,33.645059],[-95.988037,33.644779],[-95.988562,33.643988],[-95.988049,33.643532],[-95.988082,33.643059],[-95.988581,33.642905],[-95.988443,33.64251],[-95.988843,33.642301],[-95.988324,33.642115],[-95.988265,33.641845],[-95.988468,33.641126],[-95.98806,33.639621],[-95.988223,33.638319],[-95.987698,33.637391],[-95.986903,33.636974],[-95.987349,33.636452],[-95.98658,33.635831],[-95.986173,33.635156],[-95.986395,33.633607],[-95.985482,33.632767],[-95.985468,33.631959],[-95.98577,33.631844],[-95.985527,33.631152],[-95.98617,33.630673],[-95.986459,33.630915],[-95.986728,33.630723],[-95.986642,33.62886],[-95.987803,33.626223],[-95.987927,33.624142],[-95.986895,33.623648],[-95.98681,33.623247],[-95.985975,33.622638],[-95.985653,33.62211],[-95.984412,33.621216],[-95.984075,33.619019],[-95.982249,33.617278],[-95.981849,33.617223],[-95.981402,33.616768],[-95.981388,33.61585],[-95.980942,33.615708],[-95.980633,33.615219],[-95.980303,33.613313],[-95.979883,33.612879],[-95.979541,33.612896],[-95.979462,33.612495],[-95.9796,33.612253],[-95.980513,33.612049],[-95.981069,33.609797],[-95.982486,33.608308],[-95.982643,33.606143],[-95.983521,33.604704],[-95.983421,33.601869],[-95.98371,33.601018],[-95.98489,33.599292],[-95.984568,33.598535],[-95.984547,33.59609],[-95.984191,33.594322],[-95.98442,33.593239],[-95.983967,33.592069],[-95.983966,33.591108],[-95.986511,33.58869],[-95.986267,33.587504],[-95.986477,33.586916],[-95.985715,33.585724],[-95.986128,33.584834],[-95.98595,33.583384],[-95.985694,33.582873],[-95.984858,33.582546],[-95.985312,33.582359],[-95.985358,33.580843],[-95.985049,33.580322],[-95.985582,33.574054],[-95.985671,33.567851],[-95.984516,33.568031],[-95.983754,33.567176],[-95.983566,33.566085],[-95.984093,33.548371],[-95.978748,33.54827],[-95.978884,33.538045],[-95.975078,33.537866],[-95.974197,33.529734],[-95.978592,33.529958],[-95.987799,33.529834],[-96.013822,33.530296],[-96.013826,33.531512],[-96.014061,33.53189],[-96.015319,33.531189],[-96.020179,33.531269],[-96.021112,33.531119],[-96.022282,33.530574],[-96.024194,33.52855],[-96.025202,33.528035],[-96.026236,33.527786],[-96.030407,33.527721],[-96.031316,33.527385],[-96.032295,33.526676],[-96.033114,33.525075],[-96.033338,33.519585],[-96.033698,33.517162],[-96.041997,33.517167],[-96.042113,33.511724],[-96.042343,33.511333],[-96.059551,33.511805],[-96.059746,33.512716],[-96.059167,33.526379],[-96.058854,33.526631],[-96.057612,33.526628],[-96.057386,33.526893],[-96.056922,33.537329],[-96.056432,33.53837],[-96.055809,33.53887],[-96.055928,33.539575],[-96.054166,33.539876],[-96.053564,33.541054],[-96.053575,33.542066],[-96.0523,33.542873],[-96.052263,33.543148],[-96.052902,33.543315],[-96.053199,33.543742],[-96.053049,33.544252],[-96.052482,33.544475],[-96.052037,33.544182],[-96.051747,33.544592],[-96.051494,33.545668],[-96.052129,33.546226],[-96.052339,33.546942],[-96.051726,33.547484],[-96.050977,33.54749],[-96.050819,33.547857],[-96.050037,33.54784],[-96.050211,33.548688],[-96.049454,33.548787],[-96.049132,33.549042],[-96.049327,33.549832],[-96.048612,33.550181],[-96.048842,33.550704],[-96.049309,33.550705],[-96.049507,33.550972],[-96.049435,33.551332],[-96.048987,33.551603],[-96.04893,33.552077],[-96.048306,33.55188],[-96.047566,33.551982],[-96.047608,33.552194],[-96.048196,33.552429],[-96.047747,33.552981],[-96.048036,33.553774],[-96.047822,33.553957],[-96.047021,33.553937],[-96.047027,33.554744],[-96.046029,33.555334],[-96.045918,33.555608],[-96.046093,33.555902],[-96.046618,33.555796],[-96.047,33.556547],[-96.04646,33.556765],[-96.046479,33.557232],[-96.045785,33.55724],[-96.044195,33.558471],[-96.044529,33.55969],[-96.04422,33.560668],[-96.043105,33.56141],[-96.042842,33.56225],[-96.0421,33.562415],[-96.040538,33.564952],[-96.04055,33.56766],[-96.039742,33.56989],[-96.039663,33.573043],[-96.037096,33.575872],[-96.036938,33.577146],[-96.035119,33.579733],[-96.035434,33.580689],[-96.035268,33.585303],[-96.037105,33.586595],[-96.038168,33.586633],[-96.040859,33.587408],[-96.041554,33.587958],[-96.042171,33.589233],[-96.042696,33.589205],[-96.042302,33.589771],[-96.04263,33.590051],[-96.043096,33.589908],[-96.04305,33.59026],[-96.043588,33.590667],[-96.043607,33.593638],[-96.043285,33.593847],[-96.043371,33.594276],[-96.042398,33.597692],[-96.041852,33.600878],[-96.041222,33.602284],[-96.041681,33.603119],[-96.041169,33.603383],[-96.041175,33.604448],[-96.039506,33.608222],[-96.039195,33.615599],[-96.039431,33.616577],[-96.039234,33.616972],[-96.040087,33.617972],[-96.039765,33.618351],[-96.039995,33.618637],[-96.039384,33.619357],[-96.040126,33.619955],[-96.039337,33.620966],[-96.039678,33.622609],[-96.039586,33.623433],[-96.040814,33.623389],[-96.040991,33.62418],[-96.041811,33.624416],[-96.041989,33.624801],[-96.041877,33.62526],[-96.040235,33.626704],[-96.04078,33.627704],[-96.040635,33.62811],[-96.040898,33.628495],[-96.040983,33.630742],[-96.041613,33.631291],[-96.04204,33.63217],[-96.042053,33.63301],[-96.04158,33.633681],[-96.041744,33.634362],[-96.041172,33.635982],[-96.041158,33.636932],[-96.041657,33.637976],[-96.042366,33.638718],[-96.042097,33.639058],[-96.042583,33.640179],[-96.04324,33.640454],[-96.042504,33.641234],[-96.042976,33.642311],[-96.042096,33.643969],[-96.041733,33.650512],[-96.038868,33.653258],[-96.037482,33.654213],[-96.036036,33.656344],[-96.035012,33.65669],[-96.032922,33.658953],[-96.030215,33.659534],[-96.029519,33.659375],[-96.028546,33.659503],[-96.028391,33.65994],[-96.027728,33.660462],[-96.028278,33.660603],[-96.028239,33.661043],[-96.027375,33.660942],[-96.026119,33.661802],[-96.024388,33.661795],[-96.023855,33.662433],[-96.022296,33.662762],[-96.021647,33.661915],[-96.020885,33.662014],[-96.020786,33.662508],[-96.021252,33.663072],[-96.021308,33.663778],[-96.020038,33.664328],[-96.019453,33.66509],[-96.017908,33.666049],[-96.017855,33.667863],[-96.017572,33.668522],[-96.017072,33.668775],[-96.016448,33.668719],[-96.015524,33.669562],[-96.015002,33.669618],[-96.014367,33.66911],[-96.014466,33.668095],[-96.014184,33.667925],[-96.013732,33.668066],[-96.01273,33.669209],[-96.012335,33.669054],[-96.012392,33.668673],[-96.012095,33.66825],[-96.011658,33.668264],[-96.011263,33.668673],[-96.010854,33.668179],[-96.010473,33.668236],[-96.01012,33.668758],[-96.010417,33.669886],[-96.003162,33.671971],[-96.002525,33.672591],[-95.998022,33.674892],[-95.996719,33.676894],[-95.995576,33.677605],[-95.995123,33.678196],[-95.993303,33.677801],[-95.993884,33.676526],[-95.993476,33.675993],[-95.994133,33.675422],[-95.994159,33.674878],[-95.994618,33.67418],[-95.994118,33.672664],[-95.993427,33.671582],[-95.992658,33.671012]]]}},{"type":"Feature","properties":{"PRECINCT":"18","VTD":"0018"},"geometry":{"type":"Polygon","coordinates":[[[-96.130772,33.67398],[-96.122752,33.672973],[-96.118748,33.672767],[-96.117523,33.672377],[-96.11337,33.671747],[-96.114009,33.659585],[-96.1146,33.659264],[-96.117081,33.659198],[-96.117289,33.657178],[-96.117552,33.656862],[-96.122444,33.656915],[-96.122786,33.64564],[-96.123044,33.64507],[-96.12647,33.645057],[-96.127572,33.644664],[-96.129122,33.64451],[-96.134428,33.644517],[-96.135626,33.644034],[-96.135976,33.642343],[-96.136076,33.636347],[-96.138279,33.633247],[-96.138766,33.631113],[-96.139296,33.630938],[-96.141305,33.631071],[-96.141643,33.630894],[-96.142202,33.626851],[-96.147189,33.626791],[-96.148389,33.626488],[-96.154133,33.626638],[-96.15849,33.623961],[-96.158731,33.620894],[-96.159025,33.620461],[-96.162911,33.620547],[-96.163161,33.620384],[-96.163461,33.618753],[-96.168691,33.619114],[-96.169732,33.61813],[-96.171051,33.617478],[-96.172111,33.617256],[-96.174103,33.617248],[-96.173962,33.615672],[-96.174502,33.60507],[-96.174928,33.603062],[-96.174526,33.602648],[-96.174038,33.599594],[-96.174156,33.593196],[-96.174464,33.58987],[-96.175049,33.588554],[-96.1755,33.588615],[-96.17659,33.587178],[-96.17891,33.587165],[-96.178878,33.587853],[-96.180811,33.587932],[-96.1808,33.588489],[-96.184446,33.588591],[-96.184583,33.585765],[-96.184263,33.585683],[-96.183548,33.584771],[-96.182258,33.584907],[-96.18244,33.580044],[-96.177935,33.579932],[-96.178029,33.577027],[-96.172475,33.576825],[-96.172586,33.574473],[-96.174677,33.574503],[-96.174742,33.573284],[-96.171161,33.573174],[-96.164889,33.573406],[-96.164907,33.575514],[-96.163134,33.575473],[-96.163101,33.576282],[-96.170616,33.576672],[-96.169986,33.578248],[-96.170079,33.580631],[-96.174411,33.580779],[-96.174417,33.580408],[-96.175104,33.580427],[-96.175074,33.581684],[-96.177855,33.581737],[-96.177686,33.584674],[-96.173122,33.584354],[-96.172997,33.587622],[-96.153508,33.587066],[-96.149691,33.585591],[-96.140386,33.58533],[-96.137352,33.584814],[-96.128523,33.584475],[-96.128474,33.584042],[-96.130248,33.582449],[-96.130381,33.577019],[-96.128486,33.577288],[-96.11936,33.577068],[-96.117862,33.574652],[-96.117313,33.572726],[-96.116713,33.572219],[-96.11605,33.572159],[-96.114881,33.57122],[-96.114343,33.570495],[-96.114303,33.56983],[-96.113765,33.569605],[-96.113758,33.568973],[-96.113416,33.568517],[-96.111592,33.567656],[-96.109799,33.566036],[-96.109883,33.56247],[-96.107801,33.559911],[-96.108201,33.557703],[-96.109239,33.556962],[-96.105465,33.556019],[-96.106039,33.545413],[-96.104768,33.540578],[-96.103406,33.539395],[-96.102885,33.538088],[-96.101746,33.537832],[-96.101828,33.53126],[-96.096851,33.531067],[-96.096152,33.530313],[-96.095203,33.530433],[-96.093003,33.529937],[-96.091436,33.528787],[-96.088708,33.527437],[-96.084792,33.527352],[-96.083461,33.527541],[-96.07882,33.527126],[-96.081307,33.522562],[-96.081451,33.52193],[-96.082067,33.507598],[-96.082461,33.506167],[-96.081955,33.506015],[-96.082261,33.50036],[-96.08701,33.500419],[-96.087634,33.498622],[-96.08817,33.498257],[-96.090935,33.498509],[-96.107152,33.498911],[-96.107477,33.499123],[-96.107521,33.501024],[-96.114591,33.501189],[-96.117647,33.505782],[-96.121342,33.509987],[-96.12293,33.511056],[-96.129,33.51406],[-96.129164,33.516658],[-96.130179,33.518208],[-96.130978,33.518684],[-96.133006,33.519329],[-96.138255,33.520622],[-96.138764,33.521024],[-96.138851,33.519906],[-96.139483,33.518584],[-96.142494,33.513911],[-96.14314,33.49995],[-96.143364,33.49823],[-96.14429,33.497811],[-96.144205,33.497272],[-96.143176,33.496953],[-96.142685,33.496404],[-96.142672,33.496085],[-96.142987,33.495849],[-96.142574,33.495173],[-96.143093,33.494409],[-96.14268,33.493646],[-96.142005,33.493409],[-96.142307,33.492503],[-96.141704,33.492107],[-96.141187,33.491365],[-96.140819,33.491557],[-96.140062,33.491314],[-96.139548,33.490923],[-96.139079,33.490068],[-96.137924,33.489819],[-96.137037,33.48933],[-96.136761,33.488081],[-96.146518,33.488333],[-96.146755,33.488394],[-96.146721,33.492089],[-96.154371,33.492303],[-96.155811,33.492398],[-96.157131,33.49278],[-96.162984,33.492945],[-96.162888,33.494959],[-96.16374,33.497375],[-96.163745,33.501682],[-96.163336,33.506102],[-96.163522,33.507402],[-96.164226,33.50829],[-96.166963,33.510081],[-96.167824,33.511369],[-96.171361,33.519706],[-96.172737,33.527105],[-96.174596,33.532326],[-96.175279,33.535733],[-96.179771,33.540822],[-96.189233,33.54103],[-96.189693,33.5412],[-96.190073,33.541101],[-96.190572,33.540371],[-96.191739,33.540387],[-96.192467,33.54068],[-96.192152,33.546386],[-96.196209,33.546279],[-96.197862,33.545655],[-96.198397,33.546061],[-96.20434,33.54616],[-96.204485,33.547702],[-96.204734,33.547935],[-96.209949,33.548413],[-96.209918,33.551176],[-96.21023,33.551537],[-96.204204,33.563564],[-96.203459,33.564611],[-96.203836,33.565014],[-96.202045,33.570275],[-96.200269,33.570376],[-96.198538,33.571064],[-96.197458,33.572366],[-96.197117,33.57395],[-96.193778,33.575229],[-96.190391,33.575163],[-96.192186,33.574135],[-96.192224,33.572637],[-96.193773,33.572596],[-96.19387,33.570849],[-96.18563,33.570755],[-96.185627,33.56984],[-96.179287,33.569848],[-96.179378,33.573894],[-96.181464,33.573984],[-96.18163,33.57444],[-96.183239,33.574315],[-96.183919,33.574556],[-96.183876,33.57612],[-96.185828,33.576261],[-96.185652,33.582807],[-96.18695,33.582853],[-96.186069,33.597073],[-96.186994,33.597187],[-96.188588,33.598374],[-96.189755,33.598839],[-96.192184,33.598696],[-96.191878,33.610398],[-96.192234,33.619832],[-96.191834,33.621636],[-96.190967,33.623354],[-96.189179,33.625213],[-96.187296,33.626341],[-96.178608,33.629177],[-96.178226,33.629657],[-96.178865,33.634093],[-96.174413,33.634392],[-96.174301,33.635573],[-96.173368,33.63604],[-96.173112,33.636897],[-96.172258,33.636968],[-96.17193,33.637226],[-96.171804,33.640132],[-96.171962,33.640281],[-96.172146,33.639204],[-96.172632,33.638808],[-96.173814,33.640534],[-96.173945,33.641879],[-96.173492,33.64228],[-96.173334,33.642945],[-96.173525,33.643599],[-96.173098,33.643972],[-96.172835,33.644901],[-96.173627,33.645225],[-96.174218,33.645767],[-96.173484,33.645922],[-96.172598,33.645681],[-96.171915,33.645895],[-96.169957,33.647559],[-96.168105,33.648235],[-96.167619,33.648822],[-96.165806,33.648399],[-96.165638,33.647786],[-96.165517,33.650433],[-96.165104,33.651886],[-96.162386,33.656238],[-96.160561,33.658091],[-96.15682,33.66006],[-96.155385,33.66185],[-96.155074,33.663331],[-96.154903,33.669068],[-96.155297,33.67052],[-96.154153,33.670867],[-96.142704,33.670558],[-96.142536,33.673985],[-96.142238,33.674274],[-96.130772,33.67398]]]}},{"type":"Feature","properties":{"PRECINCT":"19","VTD":"0019"},"geometry":{"type":"Polygon","coordinates":[[[-95.928053,33.885195],[-95.925985,33.885112],[-95.9242,33.884585],[-95.918583,33.880838],[-95.91232,33.878019],[-95.908067,33.875507],[-95.901865,33.871366],[-95.900126,33.870311],[-95.898816,33.8698],[-95.895215,33.86758],[-95.890409,33.865563],[-95.887952,33.865408],[-95.886833,33.864935],[-95.8853,33.863699],[-95.883542,33.862715],[-95.88293,33.862033],[-95.885418,33.863353],[-95.885188,33.863012],[-95.881153,33.860555],[-95.879435,33.858961],[-95.877302,33.857873],[-95.87236,33.854369],[-95.867189,33.85129],[-95.865951,33.850818],[-95.861046,33.849799],[-95.860381,33.849805],[-95.860025,33.85025],[-95.85863,33.85069],[-95.856832,33.850141],[-95.855521,33.849258],[-95.85454,33.848225],[-95.848921,33.841784],[-95.846536,33.839855],[-95.847907,33.839137],[-95.849943,33.83763],[-95.851222,33.836299],[-95.852217,33.834457],[-95.853075,33.830279],[-95.854905,33.828223],[-95.855119,33.827358],[-95.854943,33.826227],[-95.854114,33.825613],[-95.853994,33.825112],[-95.85448,33.824085],[-95.855109,33.76423],[-95.854987,33.747854],[-95.855284,33.734261],[-95.855252,33.709927],[-95.855874,33.625103],[-95.856892,33.625103],[-95.856384,33.576634],[-95.85727,33.500332],[-95.857124,33.4959],[-95.85772,33.462718],[-95.861995,33.463092],[-95.865418,33.464056],[-95.870737,33.463757],[-95.873318,33.463831],[-95.876985,33.463337],[-95.881288,33.463313],[-95.895161,33.462373],[-95.909902,33.462449],[-95.915187,33.4616],[-95.929991,33.458444],[-95.933958,33.457905],[-95.936609,33.457139],[-95.941827,33.456267],[-95.94243,33.458565],[-95.943482,33.465013],[-95.943205,33.475813],[-95.943489,33.479021],[-95.943415,33.483871],[-95.948314,33.484542],[-95.956834,33.486884],[-95.958152,33.486953],[-95.958465,33.487319],[-95.962307,33.488495],[-95.962844,33.490394],[-95.969188,33.490196],[-95.969376,33.490598],[-95.969737,33.490653],[-95.970995,33.491933],[-95.974573,33.49216],[-95.975628,33.492753],[-95.983677,33.493132],[-95.98426,33.488097],[-96.001486,33.488568],[-96.001392,33.492504],[-96.004018,33.492829],[-96.004221,33.496679],[-96.00443,33.497293],[-96.005019,33.497418],[-96.005176,33.497714],[-96.004647,33.504432],[-96.004902,33.505366],[-96.014288,33.505962],[-96.014614,33.502253],[-96.028474,33.502559],[-96.028842,33.502429],[-96.028889,33.501744],[-96.029223,33.501611],[-96.030993,33.504487],[-96.031206,33.506849],[-96.033526,33.511325],[-96.033823,33.513676],[-96.033114,33.525075],[-96.032661,33.526224],[-96.031824,33.527076],[-96.030762,33.527642],[-96.029261,33.527836],[-96.026236,33.527786],[-96.025084,33.528083],[-96.024194,33.52855],[-96.022282,33.530574],[-96.021112,33.531119],[-96.020179,33.531269],[-96.015319,33.531189],[-96.014061,33.53189],[-96.013826,33.531512],[-96.013822,33.530296],[-95.987799,33.529834],[-95.978592,33.529958],[-95.974197,33.529734],[-95.975078,33.537866],[-95.978884,33.538045],[-95.978748,33.54827],[-95.984093,33.548371],[-95.983566,33.566085],[-95.983754,33.567176],[-95.984516,33.568031],[-95.985671,33.567851],[-95.985582,33.574054],[-95.985049,33.580322],[-95.985358,33.580843],[-95.985312,33.582359],[-95.984858,33.582546],[-95.985694,33.582873],[-95.98595,33.583384],[-95.986128,33.584834],[-95.985715,33.585724],[-95.986477,33.586916],[-95.986267,33.587504],[-95.986511,33.58869],[-95.983966,33.591108],[-95.983967,33.592069],[-95.98442,33.593239],[-95.984191,33.594322],[-95.984547,33.59609],[-95.984568,33.598535],[-95.98489,33.599292],[-95.98371,33.601018],[-95.983421,33.601869],[-95.983521,33.604704],[-95.982643,33.606143],[-95.982486,33.608308],[-95.981069,33.609797],[-95.980513,33.612049],[-95.9796,33.612253],[-95.979462,33.612495],[-95.979541,33.612896],[-95.979883,33.612879],[-95.980303,33.613313],[-95.980633,33.615219],[-95.980942,33.615708],[-95.981388,33.61585],[-95.981402,33.616768],[-95.981849,33.617223],[-95.982249,33.617278],[-95.984075,33.619019],[-95.984412,33.621216],[-95.985653,33.62211],[-95.985975,33.622638],[-95.98681,33.623247],[-95.986895,33.623648],[-95.987927,33.624142],[-95.987803,33.626223],[-95.986642,33.62886],[-95.986728,33.630723],[-95.986459,33.630915],[-95.98617,33.630673],[-95.985527,33.631152],[-95.98577,33.631844],[-95.985468,33.631959],[-95.985482,33.632767],[-95.986395,33.633607],[-95.986173,33.635156],[-95.98658,33.635831],[-95.987349,33.636452],[-95.986903,33.636974],[-95.987698,33.637391],[-95.988223,33.638319],[-95.98806,33.639621],[-95.988468,33.641126],[-95.988265,33.641845],[-95.988324,33.642115],[-95.988843,33.642301],[-95.988443,33.64251],[-95.988581,33.642905],[-95.988082,33.643059],[-95.988049,33.643532],[-95.988562,33.643988],[-95.988037,33.644779],[-95.987518,33.645059],[-95.987492,33.645581],[-95.987039,33.645949],[-95.987099,33.646158],[-95.987604,33.646279],[-95.987014,33.647652],[-95.9862,33.647559],[-95.986614,33.648108],[-95.986108,33.647977],[-95.986056,33.648641],[-95.985609,33.648394],[-95.984696,33.648515],[-95.985241,33.648993],[-95.985163,33.649449],[-95.985406,33.649784],[-95.985222,33.649954],[-95.984355,33.649828],[-95.984297,33.650394],[-95.984691,33.650669],[-95.984363,33.651174],[-95.985098,33.650987],[-95.985322,33.65124],[-95.985125,33.651586],[-95.984429,33.651927],[-95.984008,33.651812],[-95.983667,33.652125],[-95.98391,33.652663],[-95.983424,33.653037],[-95.983549,33.653267],[-95.9833,33.653734],[-95.98374,33.653905],[-95.983859,33.654393],[-95.983044,33.654229],[-95.983196,33.654877],[-95.982736,33.655449],[-95.983045,33.655712],[-95.982395,33.656152],[-95.983013,33.656552],[-95.983118,33.656926],[-95.982179,33.65769],[-95.981811,33.657597],[-95.982061,33.658377],[-95.981609,33.659772],[-95.981011,33.660096],[-95.980472,33.659635],[-95.98019,33.659696],[-95.979895,33.660668],[-95.980401,33.660915],[-95.98042,33.661387],[-95.981879,33.662013],[-95.982005,33.662936],[-95.982603,33.663512],[-95.982741,33.664078],[-95.983503,33.664308],[-95.983944,33.664929],[-95.984955,33.665401],[-95.986771,33.66868],[-95.990313,33.670282],[-95.992658,33.671012],[-95.993427,33.671582],[-95.994223,33.672862],[-95.994632,33.674339],[-95.994159,33.674878],[-95.994133,33.675422],[-95.993503,33.675922],[-95.993884,33.676526],[-95.993303,33.677801],[-95.99233,33.677604],[-95.991836,33.677745],[-95.990086,33.679071],[-95.988497,33.678737],[-95.98821,33.679043],[-95.988478,33.679988],[-95.98821,33.680425],[-95.985773,33.681462],[-95.984348,33.68271],[-95.983271,33.682754],[-95.982988,33.683315],[-95.982141,33.683029],[-95.982174,33.683491],[-95.982654,33.68393],[-95.982569,33.684705],[-95.983692,33.684803],[-95.983837,33.685231],[-95.9832,33.686089],[-95.982017,33.685847],[-95.981597,33.685276],[-95.981137,33.685436],[-95.981212,33.686365],[-95.980634,33.686718],[-95.980549,33.687042],[-95.981226,33.68731],[-95.981904,33.688411],[-95.981833,33.688749],[-95.980831,33.688566],[-95.979943,33.688792],[-95.979745,33.689285],[-95.98039,33.690155],[-95.979299,33.690084],[-95.979103,33.691232],[-95.977179,33.693864],[-95.976929,33.694583],[-95.977029,33.696182],[-95.976773,33.69783],[-95.968818,33.719277],[-95.966651,33.725425],[-95.966468,33.726584],[-95.965633,33.727968],[-95.966199,33.729308],[-95.965404,33.730089],[-95.964806,33.731385],[-95.961792,33.741246],[-95.961642,33.742795],[-95.960998,33.743295],[-95.960805,33.744223],[-95.964648,33.744101],[-95.971445,33.740352],[-95.973582,33.739791],[-95.983138,33.74026],[-95.984543,33.740538],[-95.986098,33.741221],[-95.987937,33.742982],[-95.988629,33.744827],[-95.988398,33.756265],[-95.988763,33.756716],[-95.9894,33.756983],[-95.992689,33.757153],[-95.992346,33.764095],[-95.992085,33.764331],[-95.987297,33.76425],[-95.986969,33.771322],[-95.97927,33.771232],[-95.976332,33.771494],[-95.976153,33.779963],[-95.976453,33.780157],[-95.979666,33.780345],[-95.979565,33.785496],[-95.973575,33.78551],[-95.973249,33.791026],[-95.973854,33.791585],[-95.973672,33.794012],[-95.971075,33.793538],[-95.963624,33.793384],[-95.960589,33.794449],[-95.958489,33.794634],[-95.957606,33.812023],[-95.957207,33.813783],[-95.957078,33.819255],[-95.95344,33.820842],[-95.951578,33.822534],[-95.95029,33.824404],[-95.950028,33.828322],[-95.95655,33.828353],[-95.957218,33.826597],[-95.966636,33.827619],[-95.966888,33.826833],[-95.967708,33.826234],[-95.968137,33.824161],[-95.985432,33.824562],[-95.989295,33.827181],[-95.99014,33.827472],[-95.989924,33.827795],[-95.990853,33.828597],[-95.99053,33.828987],[-95.991005,33.829355],[-95.990749,33.830321],[-95.991045,33.830772],[-95.9899,33.831668],[-95.990566,33.832656],[-95.990908,33.832914],[-95.991251,33.832875],[-95.991073,33.833205],[-95.991751,33.833567],[-95.991929,33.834166],[-95.992423,33.834638],[-95.991509,33.835452],[-95.991042,33.835688],[-95.990561,33.835622],[-95.990298,33.835908],[-95.990206,33.836172],[-95.990555,33.836468],[-95.990141,33.836644],[-95.990279,33.837149],[-95.989582,33.837243],[-95.98922,33.83832],[-95.987634,33.838337],[-95.986996,33.83898],[-95.987141,33.839469],[-95.986621,33.839584],[-95.987122,33.839969],[-95.986089,33.840991],[-95.986649,33.841529],[-95.986689,33.84221],[-95.987269,33.843105],[-95.986894,33.84438],[-95.986453,33.84466],[-95.986914,33.845198],[-95.986895,33.845978],[-95.986086,33.846215],[-95.984137,33.846259],[-95.9839,33.846562],[-95.983157,33.846815],[-95.982775,33.847408],[-95.982051,33.847458],[-95.98134,33.847848],[-95.980722,33.848854],[-95.979603,33.848953],[-95.978524,33.849503],[-95.978234,33.849942],[-95.977721,33.84997],[-95.97543,33.851201],[-95.975424,33.852508],[-95.976583,33.853052],[-95.976617,33.85359],[-95.976005,33.854546],[-95.975551,33.854486],[-95.975451,33.85386],[-95.974477,33.853684],[-95.973792,33.854108],[-95.974115,33.854909],[-95.973833,33.855525],[-95.967295,33.856395],[-95.964543,33.856994],[-95.962305,33.857099],[-95.957729,33.858166],[-95.954609,33.858381],[-95.951962,33.858832],[-95.947327,33.858915],[-95.948025,33.85864],[-95.9484,33.858745],[-95.94834,33.858547],[-95.94892,33.858475],[-95.949275,33.858091],[-95.94996,33.858025],[-95.950046,33.857783],[-95.951264,33.857755],[-95.952172,33.857552],[-95.952383,33.85731],[-95.951382,33.857332],[-95.948676,33.858041],[-95.94603,33.859338],[-95.94414,33.859998],[-95.942494,33.860965],[-95.941296,33.862475],[-95.941224,33.864151],[-95.939143,33.866453],[-95.936404,33.871424],[-95.935634,33.875],[-95.933474,33.878614],[-95.9335,33.880031],[-95.93298,33.88096],[-95.932584,33.883349],[-95.931484,33.884541],[-95.92825,33.885354],[-95.928053,33.885195]]]}}]}