{"type":"FeatureCollection","features":[{"type":"Feature","properties":{"PRECINCT":"1","VTD":"0001"},"geometry":{"type":"Polygon","coordinates":[[[-97.004006,28.316917],[-97.004473,28.31656],[-97.004336,28.316175],[-97.004921,28.315487],[-97.004784,28.315102],[-97.005804,28.314102],[-97.005948,28.313425],[-97.006407,28.313579],[-97.006712,28.313376],[-97.006594,28.313073],[-97.007241,28.312892],[-97.006607,28.312347],[-97.00731,28.311902],[-97.006396,28.311489],[-97.006035,28.311918],[-97.00598,28.311577],[-97.005439,28.311236],[-97.004973,28.312011],[-97.004817,28.311736],[-97.004351,28.311719],[-97.004426,28.311268],[-97.003817,28.311312],[-97.003587,28.310844],[-97.002208,28.31042],[-97.001294,28.310612],[-97.001014,28.310475],[-97.001189,28.310112],[-97.000108,28.30982],[-96.99989,28.308217],[-97.000221,28.307752],[-97.000153,28.307086],[-96.997248,28.306316],[-96.996918,28.305969],[-96.996514,28.305364],[-96.996545,28.304567],[-96.99675,28.304429],[-96.996538,28.304017],[-96.994972,28.302637],[-96.993492,28.300883],[-96.993255,28.299937],[-96.993378,28.297891],[-96.992402,28.296005],[-96.990878,28.294042],[-96.990815,28.292342],[-96.988883,28.291132],[-97.123072,28.272817],[-97.12396,28.27231],[-97.12424,28.271716],[-97.12409,28.271182],[-97.123226,28.270539],[-97.120871,28.269858],[-97.12079,28.269187],[-97.121473,28.267619],[-97.121112,28.266558],[-97.12103,28.265298],[-97.121204,28.26493],[-97.120657,28.264],[-97.118985,28.263071],[-97.117847,28.26124],[-97.117474,28.260041],[-97.117815,28.258589],[-97.119354,28.256322],[-97.120739,28.255837],[-97.122622,28.25631],[-97.123802,28.256232],[-97.125,28.255249],[-97.125622,28.253973],[-97.125486,28.25344],[-97.124633,28.253036],[-97.123316,28.252888],[-97.121669,28.252344],[-97.119861,28.251157],[-97.118421,28.24965],[-97.11824,28.248968],[-97.118376,28.247604],[-97.117941,28.246828],[-97.117401,28.246587],[-97.116047,28.246686],[-97.112754,28.246341],[-97.112344,28.246137],[-97.112046,28.245406],[-97.112672,28.243579],[-97.112492,28.242523],[-97.112169,28.242166],[-97.108758,28.240434],[-97.108447,28.239653],[-97.108589,28.237255],[-97.108086,28.236589],[-97.105968,28.236546],[-97.104465,28.236205],[-97.10398,28.234049],[-97.103309,28.233037],[-97.102644,28.233038],[-97.102278,28.234006],[-97.101824,28.234198],[-97.100141,28.233181],[-97.099973,28.232739],[-97.099024,28.23278],[-97.097964,28.23224],[-97.097781,28.231083],[-97.09896,28.22962],[-97.100427,28.228698],[-97.101825,28.228256],[-97.102379,28.227795],[-97.102545,28.22703],[-97.102162,28.22649],[-97.098045,28.225659],[-97.09258,28.223809],[-97.089139,28.221578],[-97.088276,28.220732],[-97.084335,28.220924],[-97.080003,28.219878],[-97.076052,28.219781],[-97.075032,28.219444],[-97.073834,28.218596],[-97.07315,28.216811],[-97.071879,28.216562],[-97.071552,28.216245],[-97.070638,28.214315],[-97.069181,28.214085],[-97.067344,28.214332],[-97.06622,28.214723],[-97.064917,28.214449],[-97.064921,28.213599],[-97.064564,28.212759],[-97.065148,28.211064],[-97.064369,28.210033],[-97.063789,28.207945],[-97.062602,28.207338],[-97.062281,28.206478],[-97.060182,28.205721],[-97.058448,28.205795],[-97.056301,28.205246],[-97.055598,28.204336],[-97.054698,28.203809],[-97.054242,28.203845],[-97.053678,28.204883],[-97.052769,28.204968],[-97.051887,28.205537],[-97.050767,28.205491],[-97.050129,28.20632],[-97.049332,28.206832],[-97.048479,28.206642],[-97.047501,28.206004],[-97.047,28.206043],[-97.046815,28.206333],[-97.046944,28.206957],[-97.048154,28.207704],[-97.048083,28.208136],[-97.047501,28.208166],[-97.046876,28.207793],[-97.04567,28.208043],[-97.044247,28.207426],[-97.043789,28.207771],[-97.043982,28.208819],[-97.0432,28.209],[-97.042091,28.208377],[-97.039147,28.207275],[-97.038761,28.206783],[-97.038603,28.20557],[-97.039209,28.20456],[-97.03912,28.204129],[-97.037422,28.201296],[-97.028507,28.203225],[-97.017539,28.202876],[-97.023586,28.187657],[-97.144916,28.102622],[-97.221141,28.074412],[-97.222365,28.077035],[-97.220388,28.078535],[-97.216646,28.086119],[-97.214684,28.088887],[-97.213247,28.09043],[-97.211473,28.093147],[-97.210828,28.093527],[-97.209569,28.094842],[-97.208285,28.096492],[-97.207479,28.096558],[-97.206778,28.097714],[-97.203398,28.100745],[-97.202939,28.100805],[-97.202505,28.101416],[-97.200296,28.102946],[-97.199949,28.103457],[-97.198491,28.103958],[-97.198466,28.104189],[-97.196996,28.105427],[-97.195668,28.105982],[-97.19534,28.106466],[-97.193379,28.107742],[-97.191754,28.109343],[-97.191133,28.109602],[-97.191065,28.109904],[-97.190228,28.110141],[-97.187839,28.112066],[-97.185469,28.113556],[-97.184495,28.114536],[-97.183868,28.114734],[-97.183688,28.115487],[-97.183465,28.115377],[-97.182441,28.115779],[-97.18197,28.116092],[-97.182038,28.1164],[-97.181721,28.116252],[-97.181033,28.116675],[-97.18115,28.117033],[-97.180567,28.116818],[-97.178248,28.11856],[-97.177302,28.118737],[-97.174916,28.120383],[-97.173529,28.120727],[-97.171888,28.121891],[-97.170244,28.122396],[-97.169373,28.123536],[-97.169912,28.123535],[-97.171041,28.122987],[-97.172991,28.121593],[-97.173223,28.121638],[-97.17312,28.121889],[-97.17248,28.122643],[-97.173146,28.122595],[-97.173993,28.121842],[-97.174377,28.121067],[-97.174737,28.121044],[-97.175611,28.121543],[-97.175587,28.122545],[-97.174743,28.123935],[-97.173565,28.125263],[-97.172181,28.126187],[-97.171876,28.12737],[-97.169004,28.130429],[-97.168337,28.130591],[-97.167768,28.129134],[-97.168305,28.128062],[-97.167227,28.128543],[-97.166816,28.128429],[-97.167306,28.129202],[-97.167357,28.129498],[-97.167127,28.129544],[-97.165789,28.12843],[-97.165864,28.127611],[-97.165555,28.127338],[-97.165043,28.127748],[-97.164656,28.127453],[-97.164655,28.126998],[-97.165297,28.126405],[-97.165888,28.126518],[-97.166196,28.126426],[-97.166272,28.126061],[-97.167017,28.125946],[-97.167678,28.124655],[-97.167062,28.124542],[-97.166163,28.124856],[-97.165655,28.125658],[-97.16473,28.125837],[-97.164191,28.126292],[-97.163011,28.126704],[-97.162318,28.127413],[-97.16255,28.127913],[-97.16091,28.130217],[-97.158577,28.132682],[-97.15642,28.13412],[-97.156294,28.13469],[-97.15542,28.135399],[-97.153804,28.136175],[-97.152558,28.137986],[-97.150955,28.139521],[-97.148545,28.139993],[-97.145607,28.141032],[-97.149026,28.142105],[-97.14941,28.142579],[-97.148281,28.142303],[-97.147791,28.141847],[-97.147028,28.141956],[-97.144817,28.144557],[-97.144482,28.14442],[-97.144346,28.144035],[-97.145656,28.142825],[-97.146041,28.141461],[-97.145463,28.142797],[-97.144117,28.143655],[-97.143806,28.144244],[-97.143322,28.143732],[-97.142739,28.143506],[-97.143316,28.142995],[-97.144017,28.143077],[-97.143577,28.142879],[-97.14277,28.143215],[-97.142466,28.14294],[-97.139903,28.143962],[-97.139021,28.144621],[-97.138636,28.145122],[-97.137803,28.147509],[-97.136642,28.149208],[-97.136722,28.15016],[-97.137962,28.153142],[-97.137633,28.154104],[-97.137743,28.156876],[-97.138971,28.159704],[-97.140689,28.162252],[-97.141264,28.167659],[-97.142138,28.169717],[-97.143155,28.170988],[-97.144111,28.171665],[-97.148058,28.173217],[-97.149045,28.173371],[-97.149523,28.173707],[-97.153396,28.173329],[-97.15411,28.172889],[-97.155979,28.172664],[-97.159127,28.171394],[-97.160263,28.171185],[-97.160629,28.170844],[-97.162417,28.170272],[-97.162783,28.169898],[-97.164012,28.169585],[-97.165148,28.168898],[-97.167607,28.167979],[-97.169295,28.166511],[-97.169947,28.166544],[-97.171983,28.165681],[-97.172523,28.166589],[-97.173255,28.167194],[-97.176818,28.167992],[-97.178947,28.169252],[-97.180747,28.169901],[-97.182361,28.171139],[-97.184701,28.172371],[-97.185533,28.173119],[-97.186135,28.174797],[-97.186551,28.17813],[-97.187631,28.180485],[-97.188357,28.181227],[-97.190784,28.181827],[-97.191455,28.18219],[-97.192231,28.184341],[-97.19436,28.185353],[-97.195217,28.186073],[-97.196043,28.187294],[-97.195776,28.18906],[-97.195925,28.190127],[-97.19662,28.191101],[-97.197389,28.191449],[-97.198526,28.190655],[-97.199191,28.188878],[-97.199631,28.188642],[-97.201922,28.188378],[-97.204989,28.186282],[-97.20579,28.186282],[-97.207739,28.186925],[-97.209006,28.187013],[-97.210068,28.186578],[-97.212104,28.184823],[-97.213599,28.184469],[-97.213518,28.184191],[-97.215829,28.184103],[-97.220728,28.18415],[-97.221981,28.18441],[-97.223999,28.185835],[-97.229224,28.18837],[-97.229685,28.189192],[-97.229627,28.189941],[-97.228664,28.192154],[-97.22882,28.19264],[-97.229206,28.192888],[-97.229708,28.19292],[-97.230873,28.192396],[-97.233322,28.190114],[-97.234549,28.189697],[-97.237362,28.190527],[-97.23887,28.190734],[-97.241672,28.190467],[-97.245222,28.190606],[-97.246318,28.190961],[-97.24816,28.192665],[-97.248556,28.193502],[-97.248489,28.194275],[-97.246547,28.195539],[-97.243747,28.196299],[-97.240052,28.197835],[-97.2383,28.199133],[-97.237114,28.200423],[-97.236763,28.201395],[-97.236906,28.202067],[-97.237444,28.202679],[-97.241234,28.204936],[-97.243594,28.20664],[-97.247297,28.208693],[-97.247574,28.209059],[-97.247593,28.209544],[-97.247175,28.210119],[-97.243485,28.212407],[-97.24287,28.213342],[-97.242636,28.214299],[-97.242702,28.217584],[-97.242349,28.220321],[-97.243589,28.222097],[-97.244195,28.222357],[-97.245396,28.221881],[-97.253777,28.214291],[-97.255866,28.213001],[-97.256809,28.211696],[-97.257611,28.208637],[-97.259941,28.204922],[-97.261927,28.203],[-97.264201,28.2019],[-97.266194,28.201546],[-97.26962,28.204094],[-97.270022,28.205463],[-97.269805,28.206697],[-97.268957,28.207584],[-97.266985,28.20832],[-97.266825,28.208642],[-97.266983,28.209155],[-97.267651,28.209612],[-97.270684,28.210682],[-97.27151,28.210427],[-97.273103,28.209225],[-97.273823,28.209213],[-97.27419,28.209432],[-97.274473,28.210164],[-97.274289,28.211993],[-97.274487,28.213204],[-97.277409,28.217611],[-97.277863,28.219034],[-97.278622,28.223576],[-97.280344,28.228308],[-97.283026,28.230331],[-97.285877,28.231419],[-97.286234,28.232162],[-97.289622,28.233445],[-97.289901,28.234683],[-97.289056,28.235909],[-97.289428,28.236382],[-97.290366,28.236828],[-97.291267,28.237791],[-97.292253,28.237245],[-97.2939,28.256781],[-97.289293,28.254875],[-97.287456,28.254324],[-97.2836,28.253829],[-97.2828,28.25343],[-97.282128,28.253799],[-97.281699,28.2548],[-97.284146,28.25655],[-97.286557,28.257112],[-97.287408,28.257557],[-97.288663,28.258955],[-97.28865,28.259362],[-97.289066,28.259714],[-97.289016,28.26071],[-97.287698,28.26281],[-97.293431,28.263663],[-97.294255,28.263004],[-97.301923,28.26401],[-97.301019,28.265299],[-97.302877,28.264958],[-97.306791,28.263138],[-97.308059,28.263671],[-97.309873,28.263341],[-97.31042,28.264211],[-97.310209,28.264749],[-97.304417,28.271498],[-97.302871,28.273701],[-97.295497,28.281983],[-97.292679,28.283964],[-97.287394,28.286675],[-97.278971,28.29213],[-97.277745,28.293022],[-97.277327,28.293916],[-97.275012,28.293579],[-97.274724,28.293708],[-97.274551,28.294672],[-97.275824,28.294846],[-97.275602,28.296006],[-97.276264,28.296116],[-97.276076,28.29722],[-97.276678,28.297311],[-97.276027,28.300695],[-97.278562,28.301097],[-97.278365,28.302223],[-97.277094,28.302023],[-97.276647,28.304297],[-97.279941,28.304773],[-97.27975,28.305936],[-97.278414,28.305858],[-97.278152,28.30714],[-97.279255,28.307307],[-97.278467,28.31167],[-97.281678,28.312204],[-97.281355,28.313808],[-97.279115,28.313483],[-97.278863,28.31473],[-97.276897,28.314441],[-97.277209,28.312661],[-97.276169,28.312502],[-97.276366,28.311388],[-97.27401,28.311058],[-97.275145,28.305247],[-97.273876,28.305046],[-97.273938,28.304699],[-97.274099,28.303897],[-97.275366,28.304093],[-97.275582,28.302948],[-97.27431,28.302764],[-97.274761,28.300503],[-97.273459,28.300306],[-97.273028,28.302583],[-97.271829,28.302393],[-97.272047,28.301271],[-97.267641,28.300581],[-97.268624,28.295123],[-97.232453,28.290067],[-97.22303,28.288013],[-97.219347,28.288241],[-97.214495,28.289367],[-97.030112,28.315306],[-97.011486,28.316622],[-97.004169,28.317759],[-97.004006,28.316917]]]}},{"type":"Feature","properties":{"PRECINCT":"2","VTD":"0002"},"geometry":{"type":"Polygon","coordinates":[[[-97.371068,28.234898],[-97.372627,28.232246],[-97.372127,28.232013],[-97.371239,28.232085],[-97.369922,28.231177],[-97.369095,28.230886],[-97.366611,28.230436],[-97.36553,28.230497],[-97.36379,28.228913],[-97.362256,28.22843],[-97.361833,28.227968],[-97.361839,28.2269],[-97.362659,28.226223],[-97.363037,28.225156],[-97.362465,28.224364],[-97.362359,28.223341],[-97.361433,28.222236],[-97.360843,28.220552],[-97.359358,28.220668],[-97.358066,28.219789],[-97.356153,28.219828],[-97.355141,28.219514],[-97.353421,28.219806],[-97.352687,28.21891],[-97.352426,28.218189],[-97.351306,28.217178],[-97.335588,28.235389],[-97.333212,28.238493],[-97.332134,28.237775],[-97.331035,28.237558],[-97.331452,28.235481],[-97.330532,28.235328],[-97.330979,28.233265],[-97.330047,28.2331],[-97.329829,28.234137],[-97.328893,28.233991],[-97.329131,28.232943],[-97.325338,28.232322],[-97.324738,28.235431],[-97.326593,28.235736],[-97.326799,28.234702],[-97.325888,28.234551],[-97.326123,28.23352],[-97.327914,28.233822],[-97.327699,28.234866],[-97.328683,28.235023],[-97.328469,28.236058],[-97.330306,28.23637],[-97.330092,28.237396],[-97.328892,28.237208],[-97.328706,28.238035],[-97.327325,28.2378],[-97.327511,28.236972],[-97.326304,28.236669],[-97.325787,28.238441],[-97.32003,28.237471],[-97.319834,28.238375],[-97.318495,28.238154],[-97.318279,28.239201],[-97.316897,28.238987],[-97.316503,28.240781],[-97.317873,28.241006],[-97.317668,28.241931],[-97.325301,28.243372],[-97.327572,28.243454],[-97.327631,28.243803],[-97.32166,28.250285],[-97.321028,28.250911],[-97.32064,28.251003],[-97.312146,28.247144],[-97.311965,28.247259],[-97.306089,28.258652],[-97.301923,28.26401],[-97.294255,28.263004],[-97.293431,28.263663],[-97.287698,28.26281],[-97.289016,28.26071],[-97.289066,28.259714],[-97.28865,28.259362],[-97.288663,28.258955],[-97.287408,28.257557],[-97.286557,28.257112],[-97.284146,28.25655],[-97.281699,28.2548],[-97.282128,28.253799],[-97.2828,28.25343],[-97.2836,28.253829],[-97.287456,28.254324],[-97.289293,28.254875],[-97.2939,28.256781],[-97.292253,28.237245],[-97.291267,28.237791],[-97.290366,28.236828],[-97.289428,28.236382],[-97.289056,28.235909],[-97.289901,28.234683],[-97.289622,28.233445],[-97.286234,28.232162],[-97.285877,28.231419],[-97.283026,28.230331],[-97.280344,28.228308],[-97.278622,28.223576],[-97.277863,28.219034],[-97.277409,28.217611],[-97.274487,28.213204],[-97.274289,28.211993],[-97.274473,28.210164],[-97.27419,28.209432],[-97.273823,28.209213],[-97.273103,28.209225],[-97.27151,28.210427],[-97.270684,28.210682],[-97.267651,28.209612],[-97.266983,28.209155],[-97.266825,28.208642],[-97.266985,28.20832],[-97.268957,28.207584],[-97.269805,28.206697],[-97.270022,28.205463],[-97.26962,28.204094],[-97.271798,28.20533],[-97.278887,28.206683],[-97.282048,28.20799],[-97.282503,28.208674],[-97.282183,28.209383],[-97.279734,28.21121],[-97.278445,28.211826],[-97.278353,28.212505],[-97.278721,28.213167],[-97.279261,28.213368],[-97.281906,28.212559],[-97.282805,28.212641],[-97.283096,28.212995],[-97.283212,28.214669],[-97.28377,28.215218],[-97.284614,28.215522],[-97.286889,28.215218],[-97.287399,28.214958],[-97.287397,28.214552],[-97.286532,28.213914],[-97.286522,28.213493],[-97.28703,28.2123],[-97.288453,28.210565],[-97.289322,28.210454],[-97.289553,28.21176],[-97.290484,28.2122],[-97.293801,28.210336],[-97.294702,28.20961],[-97.295882,28.209297],[-97.29672,28.20944],[-97.296981,28.209688],[-97.29698,28.2112],[-97.297558,28.212499],[-97.298626,28.213258],[-97.300402,28.213698],[-97.301134,28.214947],[-97.301408,28.21492],[-97.30178,28.214276],[-97.303706,28.212775],[-97.304315,28.212596],[-97.304618,28.212978],[-97.304004,28.214139],[-97.304627,28.214922],[-97.306066,28.214754],[-97.30681,28.215613],[-97.307469,28.215954],[-97.309498,28.215531],[-97.310015,28.216147],[-97.311621,28.216636],[-97.315461,28.214161],[-97.316983,28.214233],[-97.316877,28.212825],[-97.317126,28.21228],[-97.317523,28.212088],[-97.318535,28.212258],[-97.319007,28.212577],[-97.319541,28.213144],[-97.319951,28.214233],[-97.320715,28.214651],[-97.324721,28.213347],[-97.326832,28.211911],[-97.328223,28.212478],[-97.329745,28.213649],[-97.331093,28.2141],[-97.332049,28.213897],[-97.333769,28.212598],[-97.334694,28.212345],[-97.334179,28.210645],[-97.336253,28.209099],[-97.337631,28.208818],[-97.338668,28.209528],[-97.341115,28.210122],[-97.342189,28.209566],[-97.343245,28.20961],[-97.344468,28.209059],[-97.344822,28.208647],[-97.344623,28.207343],[-97.345765,28.207234],[-97.345241,28.206685],[-97.343026,28.207356],[-97.342499,28.208115],[-97.342169,28.208208],[-97.340463,28.208006],[-97.336234,28.208292],[-97.335546,28.208064],[-97.335068,28.207472],[-97.325262,28.205616],[-97.334906,28.160223],[-97.334491,28.159381],[-97.333773,28.158939],[-97.328484,28.157991],[-97.322283,28.155521],[-97.31943,28.15538],[-97.322269,28.142078],[-97.328587,28.143041],[-97.330282,28.135357],[-97.329342,28.132219],[-97.328867,28.131525],[-97.324555,28.129974],[-97.32273,28.12902],[-97.322213,28.126738],[-97.322745,28.125183],[-97.324041,28.123467],[-97.325699,28.121866],[-97.329938,28.11898],[-97.330681,28.119898],[-97.330351,28.120853],[-97.329777,28.121507],[-97.327915,28.122717],[-97.326015,28.123334],[-97.324918,28.124181],[-97.324609,28.124689],[-97.324477,28.125506],[-97.324708,28.126003],[-97.326159,28.127012],[-97.336073,28.129314],[-97.338242,28.130196],[-97.340108,28.131973],[-97.340831,28.132202],[-97.341932,28.132023],[-97.342916,28.131185],[-97.34326,28.13019],[-97.34321,28.128524],[-97.343902,28.120633],[-97.344787,28.118786],[-97.345717,28.118375],[-97.346432,28.118778],[-97.348689,28.121599],[-97.350204,28.123055],[-97.350802,28.123356],[-97.351825,28.123502],[-97.355238,28.123121],[-97.356898,28.123398],[-97.361655,28.126375],[-97.364253,28.127231],[-97.367109,28.128597],[-97.369617,28.130257],[-97.374728,28.13429],[-97.375627,28.135621],[-97.376731,28.138185],[-97.37763,28.138829],[-97.378614,28.139002],[-97.379276,28.13863],[-97.379803,28.137386],[-97.38065,28.130949],[-97.381994,28.126115],[-97.382777,28.125165],[-97.384833,28.123951],[-97.385943,28.124015],[-97.386931,28.124906],[-97.387745,28.128556],[-97.388305,28.129117],[-97.390018,28.129809],[-97.39254,28.130306],[-97.395879,28.130004],[-97.397734,28.130073],[-97.40181,28.131064],[-97.403073,28.130856],[-97.403842,28.130129],[-97.404311,28.126926],[-97.405625,28.124614],[-97.405447,28.123483],[-97.403814,28.121996],[-97.401984,28.121009],[-97.400477,28.120994],[-97.397488,28.120032],[-97.396433,28.119301],[-97.396197,28.118553],[-97.396312,28.118312],[-97.397281,28.118156],[-97.398648,28.119498],[-97.399799,28.119953],[-97.400919,28.119506],[-97.401218,28.118693],[-97.400476,28.11435],[-97.400646,28.112525],[-97.401852,28.110699],[-97.403683,28.109064],[-97.404841,28.109127],[-97.405532,28.109788],[-97.405163,28.113098],[-97.405244,28.116212],[-97.404795,28.117973],[-97.404997,28.118815],[-97.405842,28.119557],[-97.407384,28.119382],[-97.411738,28.120834],[-97.41524,28.121406],[-97.416418,28.122025],[-97.418142,28.122136],[-97.420136,28.121569],[-97.420796,28.121099],[-97.421275,28.120476],[-97.421818,28.118851],[-97.42249,28.117922],[-97.424877,28.117704],[-97.425994,28.117198],[-97.426733,28.117259],[-97.427171,28.117668],[-97.427282,28.118126],[-97.426935,28.123082],[-97.427998,28.128111],[-97.428839,28.128501],[-97.432292,28.128424],[-97.433458,28.12867],[-97.435071,28.129312],[-97.435277,28.129908],[-97.435142,28.130204],[-97.434419,28.130577],[-97.429712,28.131356],[-97.428979,28.132463],[-97.427915,28.133337],[-97.426223,28.134207],[-97.423419,28.135096],[-97.423315,28.13565],[-97.423853,28.137024],[-97.423888,28.137847],[-97.423346,28.139501],[-97.422695,28.140308],[-97.422141,28.141749],[-97.42249,28.142755],[-97.422986,28.142954],[-97.424062,28.14272],[-97.42506,28.141434],[-97.427739,28.13952],[-97.428691,28.139282],[-97.430683,28.139227],[-97.43411,28.137971],[-97.434943,28.137948],[-97.438119,28.139084],[-97.438847,28.13897],[-97.439738,28.138124],[-97.440521,28.136916],[-97.440449,28.133695],[-97.441175,28.131841],[-97.442795,28.131907],[-97.44429,28.132457],[-97.444644,28.132809],[-97.446301,28.132749],[-97.447468,28.133348],[-97.447672,28.133645],[-97.447604,28.135516],[-97.447027,28.137172],[-97.445786,28.139169],[-97.444502,28.140643],[-97.442665,28.141936],[-97.4421,28.142673],[-97.442392,28.144896],[-97.442212,28.145644],[-97.442491,28.145869],[-97.442839,28.147382],[-97.442379,28.148741],[-97.441486,28.149731],[-97.440946,28.151074],[-97.442125,28.153857],[-97.443112,28.154473],[-97.44436,28.153929],[-97.445371,28.152823],[-97.445793,28.149973],[-97.446563,28.14901],[-97.447941,28.148108],[-97.450243,28.147767],[-97.450783,28.147915],[-97.451776,28.148812],[-97.452534,28.151843],[-97.453211,28.152602],[-97.453397,28.153983],[-97.454688,28.154572],[-97.457264,28.154835],[-97.458208,28.155831],[-97.455918,28.159726],[-97.455949,28.160155],[-97.456402,28.160584],[-97.457638,28.160667],[-97.459549,28.160045],[-97.462814,28.157921],[-97.466383,28.156715],[-97.467891,28.155994],[-97.469058,28.154619],[-97.470076,28.154387],[-97.471882,28.155003],[-97.472584,28.155553],[-97.472559,28.155883],[-97.473006,28.15596],[-97.473553,28.156642],[-97.474223,28.158298],[-97.475386,28.164404],[-97.474947,28.16842],[-97.473744,28.172987],[-97.47349,28.175099],[-97.473553,28.177988],[-97.474137,28.178758],[-97.4759,28.179406],[-97.476366,28.179461],[-97.477421,28.178779],[-97.47842,28.177453],[-97.479654,28.172749],[-97.481174,28.169827],[-97.482061,28.168809],[-97.484215,28.168099],[-97.486456,28.168257],[-97.489039,28.167959],[-97.495091,28.1659],[-97.499838,28.162877],[-97.508464,28.159093],[-97.509724,28.158175],[-97.512389,28.154947],[-97.514332,28.153577],[-97.517902,28.152605],[-97.521211,28.151341],[-97.522576,28.151688],[-97.523879,28.153129],[-97.524834,28.156574],[-97.526447,28.159539],[-97.527415,28.160568],[-97.529674,28.161895],[-97.530797,28.162258],[-97.533324,28.162374],[-97.538153,28.163278],[-97.539662,28.163734],[-97.541071,28.164669],[-97.500271,28.220079],[-97.498197,28.221965],[-97.486423,28.238702],[-97.480515,28.246418],[-97.47809,28.250285],[-97.412293,28.33895],[-97.409421,28.339049],[-97.414711,28.310257],[-97.414641,28.309168],[-97.414021,28.308024],[-97.412993,28.307209],[-97.411603,28.306783],[-97.384585,28.30291],[-97.383029,28.302349],[-97.381595,28.301058],[-97.361729,28.277703],[-97.362067,28.277239],[-97.361368,28.276254],[-97.364286,28.258396],[-97.363043,28.257847],[-97.362836,28.257503],[-97.363895,28.254918],[-97.367683,28.240197],[-97.37138,28.235468],[-97.371068,28.234898]]]}},{"type":"Feature","properties":{"PRECINCT":"3","VTD":"0003"},"geometry":{"type":"Polygon","coordinates":[[[-97.103884,28.554594],[-97.103174,28.553792],[-97.103059,28.553009],[-97.103353,28.552277],[-97.104107,28.551409],[-97.10355,28.550414],[-97.102732,28.549959],[-97.101978,28.549833],[-97.100691,28.549927],[-97.099347,28.550351],[-97.098912,28.549874],[-97.099328,28.549276],[-97.099821,28.549027],[-97.101383,28.548993],[-97.10235,28.548724],[-97.102911,28.548322],[-97.102868,28.547705],[-97.102309,28.547246],[-97.101355,28.546972],[-97.098015,28.547306],[-97.096887,28.54793],[-97.09652,28.547666],[-97.096377,28.547299],[-97.096563,28.546576],[-97.098388,28.544828],[-97.098419,28.544441],[-97.098081,28.543836],[-97.097327,28.543668],[-97.095589,28.544641],[-97.094924,28.544788],[-97.09412,28.544574],[-97.094206,28.544099],[-97.095707,28.543277],[-97.096098,28.542701],[-97.095081,28.539641],[-97.094925,28.538431],[-97.093906,28.537641],[-97.092608,28.537865],[-97.092028,28.538316],[-97.092606,28.539411],[-97.092584,28.539797],[-97.092025,28.540111],[-97.0911,28.539905],[-97.090542,28.537651],[-97.091222,28.536211],[-97.091011,28.534818],[-97.089909,28.533867],[-97.089041,28.533661],[-97.088787,28.534391],[-97.089543,28.536378],[-97.088756,28.536837],[-97.08771,28.536647],[-97.086482,28.535722],[-97.086285,28.535331],[-97.086575,28.534268],[-97.08717,28.533693],[-97.087326,28.533213],[-97.087171,28.532672],[-97.086552,28.532438],[-97.085182,28.533228],[-97.084746,28.534195],[-97.083704,28.534867],[-97.083269,28.534923],[-97.082887,28.534542],[-97.082797,28.532691],[-97.082319,28.532271],[-97.081856,28.532297],[-97.08045,28.535228],[-97.08009,28.535538],[-97.079707,28.535217],[-97.079413,28.533665],[-97.079057,28.533328],[-97.078237,28.533366],[-97.077434,28.533831],[-97.077424,28.53597],[-97.077048,28.53764],[-97.078326,28.537515],[-97.079211,28.536876],[-97.079914,28.537041],[-97.079771,28.539207],[-97.081346,28.540298],[-97.082447,28.541611],[-97.082771,28.542346],[-97.082533,28.542958],[-97.080471,28.543411],[-97.079671,28.545473],[-97.079059,28.545582],[-97.078504,28.545383],[-97.075922,28.543638],[-97.077792,28.542152],[-97.078166,28.540717],[-97.077425,28.540277],[-97.076085,28.540299],[-97.074684,28.540937],[-97.073893,28.542631],[-97.075612,28.54322],[-97.075773,28.543686],[-97.075599,28.544463],[-97.074299,28.545595],[-97.072855,28.5463],[-97.072504,28.546984],[-97.072124,28.547133],[-97.069929,28.545092],[-97.06974,28.544521],[-97.070123,28.543796],[-97.071736,28.543191],[-97.071898,28.542832],[-97.071734,28.542594],[-97.070825,28.542478],[-97.069764,28.542705],[-97.067857,28.544501],[-97.067383,28.544463],[-97.066305,28.543662],[-97.066003,28.542635],[-97.065616,28.542373],[-97.064387,28.542774],[-97.064035,28.543576],[-97.062073,28.544011],[-97.061901,28.543561],[-97.06307,28.542566],[-97.063539,28.541371],[-97.063228,28.540923],[-97.062239,28.540774],[-97.058881,28.542382],[-97.059032,28.542875],[-97.060292,28.543724],[-97.05923,28.544443],[-97.059073,28.54502],[-97.059843,28.545557],[-97.061238,28.545615],[-97.062761,28.546994],[-97.062847,28.547336],[-97.060975,28.547532],[-97.058751,28.54696],[-97.057301,28.547358],[-97.056352,28.548922],[-97.056655,28.550026],[-97.055867,28.550177],[-97.054817,28.549599],[-97.053708,28.548407],[-97.053275,28.548412],[-97.052581,28.548953],[-97.052087,28.548877],[-97.051794,28.5482],[-97.052392,28.546999],[-97.052421,28.54626],[-97.051537,28.54568],[-97.050777,28.545687],[-97.049957,28.546158],[-97.049691,28.547633],[-97.048822,28.548647],[-97.048812,28.549107],[-97.049397,28.549592],[-97.049343,28.54986],[-97.048691,28.549986],[-97.048042,28.549811],[-97.047003,28.548963],[-97.046543,28.548863],[-97.046237,28.549014],[-97.045873,28.549724],[-97.045049,28.550065],[-97.044762,28.549826],[-97.04495,28.548924],[-97.046582,28.548162],[-97.048016,28.547801],[-97.048194,28.547371],[-97.047766,28.546109],[-97.047122,28.54529],[-97.045555,28.544923],[-97.044944,28.544428],[-97.044826,28.543395],[-97.044057,28.54273],[-97.044066,28.542232],[-97.044346,28.541755],[-97.044863,28.541489],[-97.045893,28.541742],[-97.046279,28.54156],[-97.046508,28.541143],[-97.046557,28.539833],[-97.046865,28.539517],[-97.047518,28.539668],[-97.048162,28.540563],[-97.048819,28.540057],[-97.048624,28.539163],[-97.048037,28.53844],[-97.047255,28.537944],[-97.047263,28.5372],[-97.047708,28.536835],[-97.048728,28.536525],[-97.051385,28.537033],[-97.051643,28.536693],[-97.051467,28.535124],[-97.050918,28.534793],[-97.04915,28.535193],[-97.047738,28.535122],[-97.046056,28.535426],[-97.045719,28.535227],[-97.045179,28.534515],[-97.045219,28.532701],[-97.044986,28.532058],[-97.043173,28.531593],[-97.043913,28.524056],[-97.080147,28.490787],[-97.092101,28.479389],[-97.092267,28.478355],[-97.095157,28.475658],[-97.10065,28.471028],[-97.23389,28.346712],[-97.235237,28.345202],[-97.236831,28.34266],[-97.24022,28.334895],[-97.24112,28.333618],[-97.242636,28.332419],[-97.245945,28.331206],[-97.247424,28.331241],[-97.252231,28.332089],[-97.254215,28.331849],[-97.25573,28.331256],[-97.257018,28.33035],[-97.265236,28.322685],[-97.26943,28.319182],[-97.275452,28.320197],[-97.276765,28.320597],[-97.277407,28.317495],[-97.283769,28.3184],[-97.283163,28.321682],[-97.285171,28.321962],[-97.283871,28.329321],[-97.292218,28.330625],[-97.290971,28.33748],[-97.328389,28.342852],[-97.332075,28.3441],[-97.336782,28.34668],[-97.339262,28.348325],[-97.358737,28.364908],[-97.38065,28.381777],[-97.375268,28.389116],[-97.322687,28.429222],[-97.160751,28.553475],[-97.160578,28.552391],[-97.160927,28.551125],[-97.160765,28.550723],[-97.160167,28.5502],[-97.159811,28.550191],[-97.15757,28.551513],[-97.156811,28.551333],[-97.156456,28.551042],[-97.156165,28.55028],[-97.156589,28.549522],[-97.156689,28.548487],[-97.156321,28.547988],[-97.155654,28.547857],[-97.155036,28.548114],[-97.151871,28.550573],[-97.150609,28.551887],[-97.150115,28.55278],[-97.149331,28.553282],[-97.148783,28.553278],[-97.148043,28.551946],[-97.148222,28.549854],[-97.148629,28.549565],[-97.149112,28.549586],[-97.151366,28.550483],[-97.151776,28.550141],[-97.151774,28.549641],[-97.1511,28.548947],[-97.150419,28.548726],[-97.149819,28.547493],[-97.148555,28.546547],[-97.147817,28.54637],[-97.146972,28.546902],[-97.146774,28.549362],[-97.146409,28.549809],[-97.145834,28.549724],[-97.143919,28.548358],[-97.143095,28.548355],[-97.142551,28.549144],[-97.142031,28.551041],[-97.140915,28.552358],[-97.140263,28.553828],[-97.139462,28.554166],[-97.138216,28.553331],[-97.137322,28.551236],[-97.136124,28.550437],[-97.135463,28.549414],[-97.134721,28.549678],[-97.133734,28.55109],[-97.132233,28.55131],[-97.131638,28.550949],[-97.130608,28.550009],[-97.131375,28.548254],[-97.130336,28.547377],[-97.128988,28.546784],[-97.128562,28.545689],[-97.128229,28.5454],[-97.12758,28.545398],[-97.127232,28.545745],[-97.126616,28.547408],[-97.126465,28.548671],[-97.125904,28.548915],[-97.125223,28.548529],[-97.12493,28.547557],[-97.125595,28.546344],[-97.125465,28.545686],[-97.125049,28.545307],[-97.123372,28.545252],[-97.122715,28.545651],[-97.122394,28.546182],[-97.122637,28.546826],[-97.123447,28.547407],[-97.123549,28.547752],[-97.123502,28.548593],[-97.122847,28.549206],[-97.121379,28.548957],[-97.120176,28.548325],[-97.119892,28.547854],[-97.119954,28.54647],[-97.119555,28.546238],[-97.119122,28.546292],[-97.11884,28.546587],[-97.118214,28.548754],[-97.115165,28.54894],[-97.114803,28.549273],[-97.114062,28.550953],[-97.112852,28.552002],[-97.110016,28.553811],[-97.105167,28.554807],[-97.103884,28.554594]]]}},{"type":"Feature","properties":{"PRECINCT":"4","VTD":"0004"},"geometry":{"type":"Polygon","coordinates":[[[-97.140886,28.379448],[-97.139245,28.378655],[-97.138418,28.378732],[-97.137106,28.377928],[-97.135949,28.377834],[-97.134171,28.376514],[-97.133002,28.376634],[-97.131516,28.376001],[-97.128751,28.373561],[-97.12828,28.371938],[-97.127901,28.371416],[-97.127474,28.368181],[-97.12715,28.367911],[-97.125285,28.367652],[-97.126412,28.365183],[-97.126014,28.365205],[-97.125703,28.36554],[-97.125597,28.36527],[-97.124955,28.365422],[-97.122381,28.364373],[-97.122132,28.364021],[-97.120241,28.363048],[-97.118742,28.363065],[-97.115073,28.362148],[-97.114258,28.361779],[-97.113629,28.360404],[-97.111814,28.360251],[-97.111092,28.359773],[-97.108412,28.359801],[-97.107635,28.359631],[-97.107386,28.359328],[-97.107641,28.359048],[-97.107342,28.358751],[-97.107112,28.356622],[-97.106844,28.356221],[-97.10708,28.35539],[-97.106725,28.354114],[-97.106799,28.352953],[-97.106295,28.352249],[-97.106469,28.351705],[-97.106152,28.35116],[-97.105959,28.349774],[-97.10548,28.349488],[-97.10543,28.34907],[-97.104715,28.348779],[-97.104329,28.348312],[-97.104074,28.348356],[-97.103023,28.347674],[-97.102271,28.347834],[-97.101997,28.347069],[-97.101624,28.346756],[-97.100629,28.346684],[-97.100331,28.346349],[-97.09767,28.345404],[-97.097545,28.344925],[-97.09604,28.343594],[-97.096133,28.342725],[-97.095903,28.342274],[-97.096127,28.341075],[-97.096605,28.340503],[-97.096859,28.33849],[-97.097748,28.337637],[-97.098196,28.337593],[-97.098935,28.336955],[-97.10085,28.336657],[-97.103151,28.337784],[-97.103866,28.337927],[-97.104823,28.337663],[-97.10527,28.336771],[-97.105431,28.334065],[-97.106028,28.333493],[-97.106158,28.332921],[-97.105704,28.332393],[-97.105654,28.331513],[-97.105324,28.331156],[-97.105678,28.329687],[-97.106331,28.329351],[-97.106455,28.328526],[-97.109046,28.325951],[-97.109841,28.324609],[-97.110015,28.323817],[-97.110089,28.322485],[-97.109331,28.322568],[-97.109386,28.322084],[-97.108907,28.321358],[-97.109143,28.321039],[-97.108702,28.320407],[-97.108857,28.320016],[-97.108528,28.319648],[-97.10849,28.319032],[-97.107924,28.31846],[-97.108956,28.317315],[-97.109545,28.314845],[-97.110023,28.314306],[-97.109886,28.313553],[-97.110216,28.312893],[-97.109849,28.312799],[-97.109612,28.311556],[-97.1083,28.310654],[-97.108344,28.310247],[-97.108791,28.309901],[-97.108517,28.309395],[-97.108504,28.307987],[-97.109362,28.307629],[-97.111481,28.307348],[-97.111512,28.306979],[-97.11081,28.306627],[-97.110642,28.305962],[-97.111642,28.30562],[-97.111884,28.304069],[-97.112561,28.304042],[-97.112651,28.303738],[-97.116338,28.303206],[-97.214495,28.289367],[-97.219347,28.288241],[-97.22303,28.288013],[-97.232453,28.290067],[-97.268624,28.295123],[-97.267641,28.300581],[-97.272047,28.301271],[-97.271829,28.302393],[-97.273028,28.302583],[-97.273459,28.300306],[-97.274761,28.300503],[-97.27431,28.302764],[-97.275582,28.302948],[-97.275366,28.304093],[-97.274099,28.303897],[-97.273938,28.304699],[-97.273876,28.305046],[-97.275145,28.305247],[-97.27401,28.311058],[-97.276366,28.311388],[-97.276169,28.312502],[-97.277209,28.312661],[-97.276897,28.314441],[-97.277933,28.314598],[-97.276765,28.320597],[-97.275452,28.320197],[-97.26943,28.319182],[-97.265236,28.322685],[-97.257018,28.33035],[-97.25573,28.331256],[-97.254215,28.331849],[-97.252231,28.332089],[-97.247424,28.331241],[-97.245725,28.331227],[-97.243091,28.332172],[-97.241618,28.333169],[-97.24022,28.334895],[-97.236292,28.343633],[-97.23389,28.346712],[-97.099207,28.472333],[-97.100404,28.470809],[-97.132907,28.440545],[-97.131468,28.439526],[-97.131077,28.438299],[-97.131796,28.432348],[-97.133325,28.425055],[-97.132269,28.420918],[-97.132346,28.41759],[-97.130719,28.412089],[-97.130783,28.407205],[-97.12898,28.40573],[-97.128922,28.399448],[-97.13026,28.39715],[-97.132481,28.395579],[-97.13518,28.390494],[-97.135452,28.384818],[-97.138106,28.384852],[-97.140886,28.379448]]]}},{"type":"Feature","properties":{"PRECINCT":"1A","VTD":"001A"},"geometry":{"type":"Polygon","coordinates":[[[-97.300913,28.265278],[-97.306089,28.258652],[-97.311965,28.247259],[-97.312146,28.247144],[-97.32064,28.251003],[-97.321028,28.250911],[-97.32166,28.250285],[-97.327631,28.243803],[-97.327572,28.243454],[-97.325301,28.243372],[-97.317668,28.241931],[-97.317873,28.241006],[-97.316503,28.240781],[-97.316897,28.238987],[-97.318279,28.239201],[-97.318495,28.238154],[-97.319834,28.238375],[-97.32003,28.237471],[-97.325787,28.238441],[-97.326304,28.236669],[-97.327511,28.236972],[-97.327325,28.2378],[-97.328706,28.238035],[-97.328892,28.237208],[-97.330092,28.237396],[-97.330306,28.23637],[-97.328469,28.236058],[-97.328683,28.235023],[-97.327699,28.234866],[-97.327914,28.233822],[-97.327735,28.233791],[-97.326123,28.23352],[-97.325888,28.234551],[-97.326799,28.234702],[-97.326593,28.235736],[-97.324738,28.235431],[-97.325338,28.232322],[-97.329131,28.232943],[-97.328893,28.233991],[-97.329829,28.234137],[-97.330047,28.2331],[-97.330979,28.233265],[-97.330532,28.235328],[-97.331452,28.235481],[-97.331035,28.237558],[-97.332134,28.237775],[-97.333212,28.238493],[-97.32827,28.244216],[-97.326063,28.246388],[-97.310209,28.264749],[-97.31042,28.264211],[-97.310084,28.263424],[-97.309506,28.263281],[-97.308661,28.263655],[-97.308059,28.263671],[-97.306791,28.263138],[-97.302877,28.264958],[-97.300913,28.265278]]]}},{"type":"Feature","properties":{"PRECINCT":"2A","VTD":"002A"},"geometry":{"type":"Polygon","coordinates":[[[-97.236763,28.201395],[-97.237114,28.200423],[-97.2383,28.199133],[-97.240052,28.197835],[-97.243747,28.196299],[-97.246547,28.195539],[-97.247723,28.194935],[-97.248489,28.194275],[-97.248556,28.193502],[-97.24816,28.192665],[-97.247049,28.191471],[-97.246318,28.190961],[-97.245222,28.190606],[-97.241672,28.190467],[-97.23887,28.190734],[-97.237362,28.190527],[-97.234549,28.189697],[-97.233322,28.190114],[-97.230873,28.192396],[-97.229708,28.19292],[-97.229206,28.192888],[-97.22882,28.19264],[-97.228664,28.192154],[-97.229627,28.189941],[-97.229685,28.189192],[-97.229224,28.18837],[-97.227978,28.187643],[-97.223999,28.185835],[-97.221981,28.18441],[-97.220728,28.18415],[-97.213518,28.184191],[-97.209151,28.16905],[-97.208815,28.167261],[-97.248649,28.17398],[-97.251738,28.159714],[-97.235649,28.156969],[-97.238764,28.142722],[-97.254829,28.14548],[-97.256856,28.136139],[-97.262864,28.132151],[-97.273964,28.133952],[-97.276138,28.123481],[-97.275973,28.121633],[-97.275322,28.120872],[-97.275155,28.120325],[-97.273731,28.108007],[-97.274344,28.107243],[-97.273283,28.097922],[-97.26038,28.089499],[-97.26041,28.089341],[-97.262853,28.087394],[-97.26317,28.08836],[-97.264272,28.088884],[-97.269686,28.089566],[-97.272634,28.090258],[-97.278141,28.090426],[-97.281134,28.089997],[-97.282414,28.090129],[-97.283702,28.090935],[-97.284166,28.091887],[-97.284449,28.096755],[-97.284299,28.099354],[-97.285334,28.101633],[-97.287259,28.110734],[-97.287641,28.111801],[-97.288863,28.113675],[-97.290286,28.114796],[-97.292312,28.115544],[-97.29387,28.11533],[-97.294912,28.114541],[-97.295433,28.11369],[-97.295608,28.112873],[-97.294845,28.109],[-97.294807,28.10817],[-97.295267,28.106609],[-97.296308,28.105561],[-97.297206,28.105069],[-97.298869,28.104401],[-97.30134,28.103829],[-97.303271,28.103863],[-97.30449,28.104252],[-97.307294,28.105764],[-97.311122,28.108392],[-97.312742,28.108947],[-97.314641,28.108907],[-97.315464,28.109095],[-97.316886,28.110067],[-97.317902,28.111672],[-97.318153,28.112909],[-97.317733,28.114488],[-97.316954,28.11575],[-97.316275,28.116201],[-97.315556,28.116349],[-97.311774,28.115313],[-97.310924,28.115488],[-97.310275,28.11603],[-97.309205,28.117557],[-97.308926,28.119447],[-97.309325,28.120693],[-97.310407,28.122369],[-97.311629,28.125068],[-97.313066,28.130265],[-97.314213,28.132934],[-97.315819,28.135807],[-97.316632,28.136798],[-97.317505,28.137383],[-97.318406,28.137554],[-97.319515,28.137333],[-97.324503,28.1356],[-97.32719,28.133885],[-97.327503,28.133117],[-97.327408,28.132622],[-97.326707,28.131886],[-97.325808,28.131567],[-97.324047,28.131989],[-97.320971,28.13352],[-97.319812,28.133663],[-97.318829,28.133482],[-97.317779,28.132368],[-97.317575,28.129092],[-97.318059,28.127748],[-97.319199,28.125958],[-97.321638,28.123113],[-97.324958,28.119746],[-97.327183,28.11874],[-97.329024,28.118666],[-97.329938,28.11898],[-97.325699,28.121866],[-97.324041,28.123467],[-97.322745,28.125183],[-97.322213,28.126738],[-97.32273,28.12902],[-97.324555,28.129974],[-97.328867,28.131525],[-97.329342,28.132219],[-97.330282,28.135357],[-97.328587,28.143041],[-97.322269,28.142078],[-97.31943,28.15538],[-97.322283,28.155521],[-97.328484,28.157991],[-97.333773,28.158939],[-97.334491,28.159381],[-97.334906,28.160223],[-97.325262,28.205616],[-97.335068,28.207472],[-97.335546,28.208064],[-97.336234,28.208292],[-97.340463,28.208006],[-97.342169,28.208208],[-97.342499,28.208115],[-97.343026,28.207356],[-97.345241,28.206685],[-97.345765,28.207234],[-97.344623,28.207343],[-97.344822,28.208647],[-97.344468,28.209059],[-97.343245,28.20961],[-97.342189,28.209566],[-97.341115,28.210122],[-97.338668,28.209528],[-97.337631,28.208818],[-97.336253,28.209099],[-97.334179,28.210645],[-97.334694,28.212345],[-97.333769,28.212598],[-97.332049,28.213897],[-97.331093,28.2141],[-97.329745,28.213649],[-97.328223,28.212478],[-97.326832,28.211911],[-97.324721,28.213347],[-97.320715,28.214651],[-97.319951,28.214233],[-97.319541,28.213144],[-97.319007,28.212577],[-97.318535,28.212258],[-97.317523,28.212088],[-97.317126,28.21228],[-97.316877,28.212825],[-97.316983,28.214233],[-97.315461,28.214161],[-97.311621,28.216636],[-97.310015,28.216147],[-97.309498,28.215531],[-97.307469,28.215954],[-97.30681,28.215613],[-97.306066,28.214754],[-97.304627,28.214922],[-97.304004,28.214139],[-97.304618,28.212978],[-97.304315,28.212596],[-97.303706,28.212775],[-97.30178,28.214276],[-97.301408,28.21492],[-97.301134,28.214947],[-97.300402,28.213698],[-97.298626,28.213258],[-97.297558,28.212499],[-97.29698,28.2112],[-97.296981,28.209688],[-97.29672,28.20944],[-97.295882,28.209297],[-97.294702,28.20961],[-97.293801,28.210336],[-97.290484,28.2122],[-97.289553,28.21176],[-97.289322,28.210454],[-97.288453,28.210565],[-97.28703,28.2123],[-97.286522,28.213493],[-97.286532,28.213914],[-97.287397,28.214552],[-97.287399,28.214958],[-97.286889,28.215218],[-97.284614,28.215522],[-97.28377,28.215218],[-97.283212,28.214669],[-97.283096,28.212995],[-97.282805,28.212641],[-97.281906,28.212559],[-97.279261,28.213368],[-97.278721,28.213167],[-97.278353,28.212505],[-97.278445,28.211826],[-97.279734,28.21121],[-97.282183,28.209383],[-97.282503,28.208674],[-97.282048,28.20799],[-97.278887,28.206683],[-97.271798,28.20533],[-97.26962,28.204094],[-97.266194,28.201546],[-97.265418,28.201643],[-97.264201,28.2019],[-97.261927,28.203],[-97.259941,28.204922],[-97.257611,28.208637],[-97.256809,28.211696],[-97.255866,28.213001],[-97.253777,28.214291],[-97.245396,28.221881],[-97.244195,28.222357],[-97.243589,28.222097],[-97.242349,28.220321],[-97.242702,28.217584],[-97.242636,28.214299],[-97.24287,28.213342],[-97.243485,28.212407],[-97.247175,28.210119],[-97.247593,28.209544],[-97.247574,28.209059],[-97.247297,28.208693],[-97.243594,28.20664],[-97.241234,28.204936],[-97.237444,28.202679],[-97.236906,28.202067],[-97.236763,28.201395]]]}},{"type":"Feature","properties":{"PRECINCT":"2B","VTD":"002B"},"geometry":{"type":"Polygon","coordinates":[[[-97.195217,28.186073],[-97.19436,28.185353],[-97.192231,28.184341],[-97.191722,28.182536],[-97.191287,28.182069],[-97.188574,28.181321],[-97.18786,28.180798],[-97.186551,28.17813],[-97.186011,28.174285],[-97.185533,28.173119],[-97.184999,28.172596],[-97.182361,28.171139],[-97.180747,28.169901],[-97.17845,28.169009],[-97.177048,28.168085],[-97.173255,28.167194],[-97.172523,28.166589],[-97.172051,28.165697],[-97.169674,28.166627],[-97.169295,28.166511],[-97.167607,28.167979],[-97.165148,28.168898],[-97.164012,28.169585],[-97.162783,28.169898],[-97.162417,28.170272],[-97.160629,28.170844],[-97.160263,28.171185],[-97.159127,28.171394],[-97.156308,28.172565],[-97.15421,28.172861],[-97.153626,28.173268],[-97.152807,28.173455],[-97.149523,28.173707],[-97.149045,28.173371],[-97.148058,28.173217],[-97.143925,28.171549],[-97.143155,28.170988],[-97.142218,28.169827],[-97.141611,28.168655],[-97.141264,28.167659],[-97.140689,28.162252],[-97.138971,28.159704],[-97.137786,28.157009],[-97.137633,28.154104],[-97.137962,28.153142],[-97.136722,28.15016],[-97.136642,28.149208],[-97.137803,28.147509],[-97.138636,28.145122],[-97.139903,28.143962],[-97.142404,28.142956],[-97.142832,28.143215],[-97.14326,28.142978],[-97.14367,28.142879],[-97.144005,28.143127],[-97.143316,28.142995],[-97.142776,28.143319],[-97.142733,28.1436],[-97.143186,28.143644],[-97.143806,28.144244],[-97.144117,28.143655],[-97.145463,28.142797],[-97.146041,28.141461],[-97.145656,28.142825],[-97.144346,28.144035],[-97.144482,28.14442],[-97.144817,28.144557],[-97.147028,28.141956],[-97.147791,28.141847],[-97.148281,28.142303],[-97.14941,28.142579],[-97.149026,28.142105],[-97.145607,28.141032],[-97.148545,28.139993],[-97.150955,28.139521],[-97.152558,28.137986],[-97.153804,28.136175],[-97.15542,28.135399],[-97.156294,28.13469],[-97.15642,28.13412],[-97.158577,28.132682],[-97.16091,28.130217],[-97.16255,28.127913],[-97.162318,28.127413],[-97.163011,28.126704],[-97.164191,28.126292],[-97.16473,28.125837],[-97.165655,28.125658],[-97.166163,28.124856],[-97.167062,28.124542],[-97.167678,28.124655],[-97.167017,28.125946],[-97.166272,28.126061],[-97.166196,28.126426],[-97.165888,28.126518],[-97.165297,28.126405],[-97.164655,28.126998],[-97.164656,28.127453],[-97.165043,28.127748],[-97.165555,28.127338],[-97.165864,28.127611],[-97.165789,28.12843],[-97.167127,28.129544],[-97.167357,28.129498],[-97.167306,28.129202],[-97.166816,28.128429],[-97.167227,28.128543],[-97.168305,28.128062],[-97.167768,28.129134],[-97.168337,28.130591],[-97.169004,28.130429],[-97.171876,28.12737],[-97.172181,28.126187],[-97.173565,28.125263],[-97.174743,28.123935],[-97.175587,28.122545],[-97.175611,28.121543],[-97.174737,28.121044],[-97.174377,28.121067],[-97.173993,28.121842],[-97.173146,28.122595],[-97.17248,28.122643],[-97.17312,28.121889],[-97.173223,28.121638],[-97.172991,28.121593],[-97.171041,28.122987],[-97.169912,28.123535],[-97.169373,28.123536],[-97.170244,28.122396],[-97.171888,28.121891],[-97.173529,28.120727],[-97.174916,28.120383],[-97.177302,28.118737],[-97.178248,28.11856],[-97.180567,28.116818],[-97.18115,28.117033],[-97.181033,28.116675],[-97.181721,28.116252],[-97.182038,28.1164],[-97.18197,28.116092],[-97.182441,28.115779],[-97.183465,28.115377],[-97.183688,28.115487],[-97.183868,28.114734],[-97.184495,28.114536],[-97.185469,28.113556],[-97.187839,28.112066],[-97.190228,28.110141],[-97.191065,28.109904],[-97.191133,28.109602],[-97.191754,28.109343],[-97.193379,28.107742],[-97.19534,28.106466],[-97.195668,28.105982],[-97.196996,28.105427],[-97.198466,28.104189],[-97.198491,28.103958],[-97.199949,28.103457],[-97.200296,28.102946],[-97.202505,28.101416],[-97.202939,28.100805],[-97.203354,28.100772],[-97.20421,28.100068],[-97.206778,28.097714],[-97.207479,28.096558],[-97.208285,28.096492],[-97.209569,28.094842],[-97.210828,28.093527],[-97.211473,28.093147],[-97.213247,28.09043],[-97.215768,28.087502],[-97.218922,28.081842],[-97.220388,28.078535],[-97.222365,28.077035],[-97.221141,28.074412],[-97.234426,28.062458],[-97.237828,28.061515],[-97.240219,28.061538],[-97.24898,28.067699],[-97.257204,28.072391],[-97.257525,28.073279],[-97.260818,28.075759],[-97.2617,28.077301],[-97.262323,28.079656],[-97.263185,28.080947],[-97.263176,28.081631],[-97.261341,28.082846],[-97.260676,28.083559],[-97.260657,28.085067],[-97.261115,28.086709],[-97.261521,28.08722],[-97.262228,28.087135],[-97.262853,28.087394],[-97.26038,28.089499],[-97.273283,28.097922],[-97.274344,28.107243],[-97.273731,28.108007],[-97.275155,28.120325],[-97.275322,28.120872],[-97.275973,28.121633],[-97.276138,28.123481],[-97.273964,28.133952],[-97.262864,28.132151],[-97.256856,28.136139],[-97.254829,28.14548],[-97.238764,28.142722],[-97.235649,28.156969],[-97.251738,28.159714],[-97.248649,28.17398],[-97.208815,28.167261],[-97.209151,28.16905],[-97.213599,28.184469],[-97.212104,28.184823],[-97.210068,28.186578],[-97.209006,28.187013],[-97.207739,28.186925],[-97.205629,28.186254],[-97.204759,28.186375],[-97.201922,28.188378],[-97.199631,28.188642],[-97.199191,28.188878],[-97.198526,28.190655],[-97.197389,28.191449],[-97.19662,28.191101],[-97.195925,28.190127],[-97.195776,28.18906],[-97.196043,28.187294],[-97.195217,28.186073]]]}},{"type":"Feature","properties":{"PRECINCT":"3A","VTD":"003A"},"geometry":{"type":"Polygon","coordinates":[[[-97.290971,28.33748],[-97.292218,28.330625],[-97.283871,28.329321],[-97.285171,28.321962],[-97.283163,28.321682],[-97.283769,28.3184],[-97.277407,28.317495],[-97.277933,28.314598],[-97.278863,28.31473],[-97.279115,28.313483],[-97.281355,28.313808],[-97.281678,28.312204],[-97.278467,28.31167],[-97.279255,28.307307],[-97.278152,28.30714],[-97.278414,28.305858],[-97.27975,28.305936],[-97.279941,28.304773],[-97.276647,28.304297],[-97.277094,28.302023],[-97.278365,28.302223],[-97.278562,28.301097],[-97.276027,28.300695],[-97.276678,28.297311],[-97.276076,28.29722],[-97.276264,28.296116],[-97.275602,28.296006],[-97.275824,28.294846],[-97.274551,28.294672],[-97.274724,28.293708],[-97.275012,28.293579],[-97.277327,28.293916],[-97.277745,28.293022],[-97.278971,28.29213],[-97.287394,28.286675],[-97.293444,28.283492],[-97.29603,28.281511],[-97.302871,28.273701],[-97.304417,28.271498],[-97.308567,28.26663],[-97.326063,28.246388],[-97.330269,28.241932],[-97.335588,28.235389],[-97.351306,28.217178],[-97.352426,28.218189],[-97.352687,28.21891],[-97.353421,28.219806],[-97.355371,28.219525],[-97.356153,28.219828],[-97.358321,28.21986],[-97.359358,28.220668],[-97.360781,28.220497],[-97.361433,28.222236],[-97.361974,28.222664],[-97.36193,28.223006],[-97.362428,28.223479],[-97.362465,28.224364],[-97.363037,28.225156],[-97.362659,28.226223],[-97.361969,28.226735],[-97.361734,28.227203],[-97.362032,28.228215],[-97.36379,28.228913],[-97.36553,28.230497],[-97.366611,28.230436],[-97.369095,28.230886],[-97.369922,28.231177],[-97.371239,28.232085],[-97.372127,28.232013],[-97.372627,28.232246],[-97.371068,28.234898],[-97.37138,28.235468],[-97.367683,28.240197],[-97.363895,28.254918],[-97.362836,28.257503],[-97.363043,28.257847],[-97.364286,28.258396],[-97.361368,28.276254],[-97.362067,28.277239],[-97.361729,28.277703],[-97.381595,28.301058],[-97.383029,28.302349],[-97.384585,28.30291],[-97.411603,28.306783],[-97.412993,28.307209],[-97.414021,28.308024],[-97.414641,28.309168],[-97.414711,28.310257],[-97.409421,28.339049],[-97.412293,28.33895],[-97.38065,28.381777],[-97.358737,28.364908],[-97.339262,28.348325],[-97.336782,28.34668],[-97.332075,28.3441],[-97.328389,28.342852],[-97.290971,28.33748]]]}},{"type":"Feature","properties":{"PRECINCT":"4A","VTD":"004A"},"geometry":{"type":"Polygon","coordinates":[[[-97.024725,28.539001],[-97.023162,28.537268],[-97.023237,28.536789],[-97.023599,28.536691],[-97.023786,28.536245],[-97.025069,28.536009],[-97.02666,28.53662],[-97.027297,28.536278],[-97.027453,28.53591],[-97.027124,28.534314],[-97.027131,28.532412],[-97.025188,28.530458],[-97.024535,28.529402],[-97.023925,28.527664],[-97.022638,28.525888],[-97.022731,28.525162],[-97.024382,28.523744],[-97.0232,28.521301],[-97.022777,28.51848],[-97.022902,28.517556],[-97.022681,28.517125],[-97.022296,28.516761],[-97.021678,28.516675],[-97.020837,28.517371],[-97.020374,28.518193],[-97.02056,28.519722],[-97.020205,28.520145],[-97.019738,28.520261],[-97.018026,28.518709],[-97.016725,28.518208],[-97.01538,28.517152],[-97.014602,28.517046],[-97.012864,28.517382],[-97.012491,28.516683],[-97.011041,28.515555],[-97.009609,28.51512],[-97.009162,28.514215],[-97.008486,28.513779],[-97.007562,28.5118],[-97.004635,28.508909],[-97.003861,28.509038],[-97.000853,28.508582],[-96.99796,28.508892],[-96.996119,28.508777],[-96.994862,28.509146],[-96.994659,28.50839],[-96.995473,28.50725],[-96.994769,28.506583],[-96.994798,28.505239],[-96.993421,28.50352],[-96.992754,28.503067],[-96.991187,28.502899],[-96.990271,28.50214],[-96.987806,28.500926],[-96.986651,28.5006],[-96.985914,28.499955],[-96.984034,28.50029],[-96.983171,28.499818],[-96.982147,28.499639],[-96.981332,28.500543],[-96.979806,28.501156],[-96.979398,28.501817],[-96.979608,28.502394],[-96.979386,28.502923],[-96.977293,28.503046],[-96.975498,28.503837],[-96.969091,28.505206],[-96.967694,28.50484],[-96.966689,28.504884],[-96.965509,28.504524],[-96.964177,28.504489],[-96.963633,28.504019],[-96.963303,28.503026],[-96.962783,28.502878],[-96.959536,28.503769],[-96.957121,28.503725],[-96.956539,28.504347],[-96.95595,28.504518],[-96.954432,28.503287],[-96.953425,28.5038],[-96.952682,28.503528],[-96.952229,28.502363],[-96.951162,28.502511],[-96.950923,28.501485],[-96.950555,28.500981],[-96.946649,28.501104],[-96.94579,28.500179],[-96.944145,28.499295],[-96.942077,28.499675],[-96.939164,28.498112],[-96.937255,28.497855],[-96.935821,28.497384],[-96.935304,28.496995],[-96.934556,28.495655],[-96.933265,28.494695],[-96.933066,28.494158],[-96.931884,28.494151],[-96.931225,28.493921],[-96.931089,28.492938],[-96.929963,28.492711],[-96.929121,28.492219],[-96.928844,28.491306],[-96.927995,28.490817],[-96.927146,28.489805],[-96.925144,28.48835],[-96.921376,28.488369],[-96.920867,28.487676],[-96.919925,28.487219],[-96.918889,28.487403],[-96.917931,28.487039],[-96.916614,28.487883],[-96.916462,28.487583],[-96.916629,28.486761],[-96.9155,28.485712],[-96.914738,28.486955],[-96.91379,28.487061],[-96.912391,28.487906],[-96.912046,28.488493],[-96.912263,28.489113],[-96.911936,28.489489],[-96.910609,28.488616],[-96.910241,28.48865],[-96.909904,28.490081],[-96.910025,28.490745],[-96.911414,28.492189],[-96.911601,28.4927],[-96.911531,28.494158],[-96.912208,28.494567],[-96.913093,28.494386],[-96.913791,28.495547],[-96.915978,28.496824],[-96.916144,28.497519],[-96.915844,28.498915],[-96.913687,28.499945],[-96.911955,28.501447],[-96.910952,28.502712],[-96.909946,28.503195],[-96.906204,28.506149],[-96.905277,28.506464],[-96.903691,28.506306],[-96.902871,28.506661],[-96.902834,28.507351],[-96.902205,28.507632],[-96.901772,28.508376],[-96.902058,28.508814],[-96.902918,28.508793],[-96.902831,28.509018],[-96.901722,28.509639],[-96.901067,28.509208],[-96.898326,28.508739],[-96.896742,28.50887],[-96.896118,28.508208],[-96.895182,28.507806],[-96.894189,28.506576],[-96.892519,28.505791],[-96.891905,28.505752],[-96.891457,28.505972],[-96.890951,28.507178],[-96.886466,28.506229],[-96.885893,28.506318],[-96.883034,28.5055],[-96.880662,28.503873],[-96.88022,28.50319],[-96.879991,28.501697],[-96.880699,28.498173],[-96.880511,28.497625],[-96.87918,28.496097],[-96.876843,28.494911],[-96.873263,28.49372],[-96.86992,28.491782],[-96.867233,28.491252],[-96.865485,28.490647],[-96.864821,28.490235],[-96.864075,28.489339],[-96.863143,28.486963],[-96.862546,28.48262],[-96.86306,28.479181],[-96.86256,28.477512],[-96.861322,28.476012],[-96.860338,28.475324],[-96.85881,28.474746],[-96.855359,28.474209],[-96.853906,28.474349],[-96.852331,28.474927],[-96.850076,28.476948],[-96.849555,28.476976],[-96.848653,28.476396],[-96.848381,28.475748],[-96.848798,28.47307],[-96.848458,28.472205],[-96.847301,28.471661],[-96.844447,28.471274],[-96.843664,28.47083],[-96.842233,28.468966],[-96.840605,28.466002],[-96.839718,28.4622],[-96.839969,28.459166],[-96.839305,28.457752],[-96.833657,28.453831],[-96.83235,28.452243],[-96.830971,28.449547],[-96.82999,28.448383],[-96.827847,28.447014],[-96.825315,28.446611],[-96.823485,28.445582],[-96.822755,28.44483],[-96.821377,28.443234],[-96.820309,28.44106],[-96.81989,28.438923],[-96.81913,28.436868],[-96.815736,28.431864],[-96.814396,28.430483],[-96.813135,28.430297],[-96.811455,28.430966],[-96.809428,28.430748],[-96.808248,28.431703],[-96.807334,28.432053],[-96.804054,28.435351],[-96.802945,28.43559],[-96.801986,28.437029],[-96.800841,28.437804],[-96.800252,28.438648],[-96.799151,28.438792],[-96.798475,28.441224],[-96.798035,28.441776],[-96.793519,28.444199],[-96.791527,28.445538],[-96.789883,28.446996],[-96.787533,28.447446],[-96.786647,28.447283],[-96.785726,28.44742],[-96.785128,28.447009],[-96.784194,28.446816],[-96.781955,28.444775],[-96.782092,28.444154],[-96.781402,28.442767],[-96.781452,28.442218],[-96.780867,28.441315],[-96.780569,28.440259],[-96.780128,28.439627],[-96.779705,28.439445],[-96.779157,28.438461],[-96.778853,28.437746],[-96.779033,28.437322],[-96.778536,28.436503],[-96.776235,28.434082],[-96.775339,28.433703],[-96.77468,28.432894],[-96.774263,28.432921],[-96.773753,28.43192],[-96.772876,28.43159],[-96.77241,28.43093],[-96.772472,28.430413],[-96.772143,28.430253],[-96.771409,28.42917],[-96.77172,28.428532],[-96.770675,28.428768],[-96.770408,28.428647],[-96.770333,28.428042],[-96.769655,28.427756],[-96.76782,28.427673],[-96.766389,28.427914],[-96.765083,28.42688],[-96.764125,28.426555],[-96.764381,28.426352],[-96.764263,28.425857],[-96.76468,28.425384],[-96.764742,28.42463],[-96.765421,28.424009],[-96.765489,28.423575],[-96.765272,28.423371],[-96.765558,28.42303],[-96.765135,28.422431],[-96.765739,28.422233],[-96.766461,28.421601],[-96.766212,28.421139],[-96.766455,28.421128],[-96.766872,28.42049],[-96.768477,28.420205],[-96.769583,28.421635],[-96.769477,28.421921],[-96.768046,28.422454],[-96.767816,28.4228],[-96.768419,28.423741],[-96.76939,28.423763],[-96.769744,28.423505],[-96.770528,28.423599],[-96.770709,28.422823],[-96.771194,28.422724],[-96.771617,28.42295],[-96.771505,28.422301],[-96.772184,28.421916],[-96.771537,28.421311],[-96.770504,28.421597],[-96.769832,28.421503],[-96.768987,28.420342],[-96.769603,28.420084],[-96.769454,28.41954],[-96.767537,28.420237],[-96.76643,28.420154],[-96.766405,28.419549],[-96.765809,28.419027],[-96.765517,28.418394],[-96.765648,28.417558],[-96.76599,28.417284],[-96.765026,28.416376],[-96.764908,28.415826],[-96.764175,28.414984],[-96.764735,28.414269],[-96.764405,28.413802],[-96.764244,28.412696],[-96.765257,28.411672],[-96.772886,28.407843],[-96.77408,28.406953],[-96.77474,28.406832],[-96.774895,28.40648],[-96.775586,28.406447],[-96.776444,28.405656],[-96.77706,28.405403],[-96.777042,28.405117],[-96.777851,28.404584],[-96.778062,28.404732],[-96.778267,28.404336],[-96.778634,28.404259],[-96.778933,28.402917],[-96.779381,28.402918],[-96.779848,28.402307],[-96.779668,28.401878],[-96.77996,28.401224],[-96.779506,28.400448],[-96.779909,28.400587],[-96.790025,28.375888],[-96.795001,28.364682],[-96.79548,28.364402],[-96.796201,28.364754],[-96.797115,28.364831],[-96.79949,28.364705],[-96.803687,28.366449],[-96.809699,28.369397],[-96.81167,28.370618],[-96.812111,28.371185],[-96.814623,28.371878],[-96.820045,28.374859],[-96.821649,28.37588],[-96.823408,28.377568],[-96.823769,28.378261],[-96.823701,28.378674],[-96.823918,28.378608],[-96.823763,28.37891],[-96.824304,28.378894],[-96.82505,28.378498],[-96.825684,28.37863],[-96.828489,28.380329],[-96.83061,28.382369],[-96.831717,28.38293],[-96.832768,28.384029],[-96.833272,28.385157],[-96.834902,28.386163],[-96.835617,28.387818],[-96.837402,28.388527],[-96.837757,28.390095],[-96.837565,28.390914],[-96.837179,28.391349],[-96.83828,28.390898],[-96.838448,28.391211],[-96.838261,28.391701],[-96.839984,28.391871],[-96.841881,28.394175],[-96.841875,28.394598],[-96.842448,28.395313],[-96.842473,28.395676],[-96.84279,28.395758],[-96.844775,28.398222],[-96.845222,28.398337],[-96.846174,28.399261],[-96.84661,28.400058],[-96.848078,28.400685],[-96.848277,28.401075],[-96.849067,28.401609],[-96.850673,28.404012],[-96.85402,28.405952],[-96.854636,28.405897],[-96.855028,28.4061],[-96.857025,28.407788],[-96.857666,28.408915],[-96.857754,28.410514],[-96.858566,28.410673],[-96.859283,28.41023],[-96.859671,28.410767],[-96.860131,28.410456],[-96.862153,28.402025],[-96.865958,28.405498],[-96.900207,28.412864],[-96.936193,28.322469],[-96.948385,28.321167],[-96.980324,28.320904],[-96.987353,28.320463],[-97.00971,28.316821],[-97.030112,28.315306],[-97.112651,28.303738],[-97.112648,28.304003],[-97.11184,28.304135],[-97.111642,28.30562],[-97.110654,28.305907],[-97.11081,28.306627],[-97.111512,28.306979],[-97.111481,28.307348],[-97.109362,28.307629],[-97.108504,28.307987],[-97.108517,28.309395],[-97.108791,28.309901],[-97.108344,28.310247],[-97.1083,28.310654],[-97.109612,28.311556],[-97.109849,28.312799],[-97.110216,28.312893],[-97.109886,28.313553],[-97.110023,28.314306],[-97.109545,28.314845],[-97.108956,28.317315],[-97.107924,28.31846],[-97.10849,28.319032],[-97.108528,28.319648],[-97.108857,28.320016],[-97.108702,28.320407],[-97.109143,28.321039],[-97.108907,28.321358],[-97.109386,28.322084],[-97.109331,28.322568],[-97.110089,28.322485],[-97.110015,28.323817],[-97.109841,28.324609],[-97.109046,28.325951],[-97.106455,28.328526],[-97.106331,28.329351],[-97.105678,28.329687],[-97.105324,28.331156],[-97.105654,28.331513],[-97.105704,28.332393],[-97.106158,28.332921],[-97.106028,28.333493],[-97.105431,28.334065],[-97.105152,28.337063],[-97.104724,28.337729],[-97.103673,28.337944],[-97.10085,28.336657],[-97.098935,28.336955],[-97.098196,28.337593],[-97.097748,28.337637],[-97.096859,28.33849],[-97.096605,28.340503],[-97.096071,28.341246],[-97.095972,28.343363],[-97.097545,28.344925],[-97.09767,28.345404],[-97.100331,28.346349],[-97.100629,28.346684],[-97.101624,28.346756],[-97.101997,28.347069],[-97.102271,28.347834],[-97.103023,28.347674],[-97.104074,28.348356],[-97.104329,28.348312],[-97.104715,28.348779],[-97.10543,28.34907],[-97.10548,28.349488],[-97.105959,28.349774],[-97.106152,28.35116],[-97.106469,28.351705],[-97.106295,28.352249],[-97.106799,28.352953],[-97.106725,28.354114],[-97.10708,28.35539],[-97.106844,28.356221],[-97.107112,28.356622],[-97.107342,28.358751],[-97.107641,28.359048],[-97.107386,28.359328],[-97.107635,28.359631],[-97.108412,28.359801],[-97.111092,28.359773],[-97.111814,28.360251],[-97.113629,28.360404],[-97.114258,28.361779],[-97.115073,28.362148],[-97.118742,28.363065],[-97.120241,28.363048],[-97.122132,28.364021],[-97.122381,28.364373],[-97.124955,28.365422],[-97.125597,28.36527],[-97.125703,28.36554],[-97.126014,28.365205],[-97.126412,28.365183],[-97.125285,28.367652],[-97.12715,28.367911],[-97.127474,28.368181],[-97.127901,28.371416],[-97.12828,28.371938],[-97.128751,28.373561],[-97.131516,28.376001],[-97.133002,28.376634],[-97.134171,28.376514],[-97.135949,28.377834],[-97.137106,28.377928],[-97.138418,28.378732],[-97.139245,28.378655],[-97.140886,28.379448],[-97.138106,28.384852],[-97.135452,28.384818],[-97.13518,28.390494],[-97.132481,28.395579],[-97.13026,28.39715],[-97.128922,28.399448],[-97.12898,28.40573],[-97.130783,28.407205],[-97.130719,28.412089],[-97.132346,28.41759],[-97.132269,28.420918],[-97.133325,28.425055],[-97.131796,28.432348],[-97.131077,28.438299],[-97.131468,28.439526],[-97.132907,28.440545],[-97.100404,28.470809],[-97.099207,28.472333],[-97.092267,28.478355],[-97.092101,28.479389],[-97.080147,28.490787],[-97.044313,28.5236],[-97.043913,28.524056],[-97.043173,28.531593],[-97.041268,28.531536],[-97.039863,28.532074],[-97.039797,28.532633],[-97.039177,28.533514],[-97.037207,28.534977],[-97.036859,28.535973],[-97.035177,28.538003],[-97.03441,28.538481],[-97.032642,28.538756],[-97.031776,28.539201],[-97.031489,28.54002],[-97.03203,28.541159],[-97.031644,28.541538],[-97.030616,28.541527],[-97.026578,28.540085],[-97.024725,28.539001]]]}},{"type":"Feature","properties":{"PRECINCT":"4B","VTD":"004B"},"geometry":{"type":"Polygon","coordinates":[[[-96.865958,28.405498],[-96.862153,28.402025],[-96.860131,28.410456],[-96.859671,28.410767],[-96.859283,28.41023],[-96.858566,28.410673],[-96.857754,28.410514],[-96.857666,28.408915],[-96.857025,28.407788],[-96.855028,28.4061],[-96.854636,28.405897],[-96.85402,28.405952],[-96.850673,28.404012],[-96.849067,28.401609],[-96.848277,28.401075],[-96.848078,28.400685],[-96.84661,28.400058],[-96.846174,28.399261],[-96.845222,28.398337],[-96.844775,28.398222],[-96.84279,28.395758],[-96.842473,28.395676],[-96.842448,28.395313],[-96.841875,28.394598],[-96.841881,28.394175],[-96.839984,28.391871],[-96.838261,28.391701],[-96.838448,28.391211],[-96.83828,28.390898],[-96.837179,28.391349],[-96.837565,28.390914],[-96.837757,28.390095],[-96.837402,28.388527],[-96.835617,28.387818],[-96.834902,28.386163],[-96.833272,28.385157],[-96.832768,28.384029],[-96.831717,28.38293],[-96.83061,28.382369],[-96.828489,28.380329],[-96.825684,28.37863],[-96.82505,28.378498],[-96.824304,28.378894],[-96.823763,28.37891],[-96.823918,28.378608],[-96.823701,28.378674],[-96.823769,28.378261],[-96.823408,28.377568],[-96.821649,28.37588],[-96.820045,28.374859],[-96.814623,28.371878],[-96.812111,28.371185],[-96.81167,28.370618],[-96.809699,28.369397],[-96.803687,28.366449],[-96.79949,28.364705],[-96.797115,28.364831],[-96.796201,28.364754],[-96.795542,28.364407],[-96.79492,28.364699],[-96.794553,28.364473],[-96.794753,28.363472],[-96.794367,28.36235],[-96.793416,28.361574],[-96.793087,28.360881],[-96.791943,28.359787],[-96.791938,28.358032],[-96.791552,28.357284],[-96.79442,28.350653],[-96.794676,28.347732],[-96.794265,28.347259],[-96.793756,28.347221],[-96.793227,28.346396],[-96.793613,28.346203],[-96.794197,28.346918],[-96.79462,28.347039],[-96.795167,28.346819],[-96.794725,28.346759],[-96.794303,28.346104],[-96.793029,28.345653],[-96.793159,28.345378],[-96.794061,28.345444],[-96.794309,28.345202],[-96.794813,28.344015],[-96.794764,28.34275],[-96.794403,28.341919],[-96.794111,28.341936],[-96.794111,28.340902],[-96.793459,28.340511],[-96.793359,28.340198],[-96.792975,28.33769],[-96.792099,28.335996],[-96.792186,28.335165],[-96.79159,28.330947],[-96.790894,28.330435],[-96.791031,28.329693],[-96.790559,28.328939],[-96.790851,28.327114],[-96.790784,28.32537],[-96.790709,28.324567],[-96.790305,28.324281],[-96.790554,28.32295],[-96.790144,28.321729],[-96.790343,28.321597],[-96.790499,28.320519],[-96.790226,28.319804],[-96.790512,28.319238],[-96.830903,28.31359],[-96.851837,28.310341],[-96.86882,28.308234],[-96.922067,28.300455],[-96.988883,28.291132],[-96.990766,28.292282],[-96.990878,28.294042],[-96.992402,28.296005],[-96.993378,28.297891],[-96.993255,28.299937],[-96.993492,28.300883],[-96.994972,28.302637],[-96.996538,28.304017],[-96.99675,28.304429],[-96.996545,28.304567],[-96.996514,28.305364],[-96.997186,28.306283],[-97.000153,28.307086],[-97.000221,28.307752],[-96.99989,28.308217],[-97.000108,28.30982],[-97.001189,28.310112],[-97.001014,28.310475],[-97.001294,28.310612],[-97.002208,28.31042],[-97.003587,28.310844],[-97.003817,28.311312],[-97.004426,28.311268],[-97.004351,28.311719],[-97.004817,28.311736],[-97.004973,28.312011],[-97.005439,28.311236],[-97.00598,28.311577],[-97.006035,28.311918],[-97.006396,28.311489],[-97.00731,28.311902],[-97.006607,28.312347],[-97.007241,28.312892],[-97.006594,28.313073],[-97.006712,28.313376],[-97.006407,28.313579],[-97.005948,28.313425],[-97.005804,28.314102],[-97.004784,28.315102],[-97.004921,28.315487],[-97.004336,28.316175],[-97.004498,28.31651],[-97.003988,28.316961],[-97.004169,28.317759],[-96.990278,28.320115],[-96.985167,28.320666],[-96.980324,28.320904],[-96.948385,28.321167],[-96.936193,28.322469],[-96.900207,28.412864],[-96.865958,28.405498]]]}}]}