{"type":"FeatureCollection","features":[{"type":"Feature","properties":{"PRECINCT":"fort-bend:1007","COUNTY":"Fort Bend"},"geometry":{"type":"Polygon","coordinates":[[[-95.68056,29.4925],[-95.69447,29.46477],[-95.70501,29.47357],[-95.7273,29.45314],[-95.72886,29.45457],[-95.72893,29.45609],[-95.7294,29.45654],[-95.7332,29.45704],[-95.73409,29.4567],[-95.73568,29.45547],[-95.736,29.45551],[-95.7365,29.459],[-95.73777,29.4609],[-95.73813,29.46257],[-95.73876,29.46319],[-95.74128,29.46364],[-95.74213,29.46354],[-95.74408,29.46204],[-95.74491,29.46198],[-95.74893,29.46401],[-95.74916,29.4651],[-95.75017,29.46602],[-95.75116,29.46623],[-95.75192,29.46612],[-95.75239,29.46515],[-95.75297,29.46459],[-95.75508,29.46399],[-95.75548,29.46435],[-95.75502,29.4656],[-95.75537,29.46628],[-95.75566,29.46639],[-95.75756,29.46591],[-95.75787,29.46612],[-95.7581,29.46684],[-95.75861,29.4671],[-95.75904,29.46698],[-95.75938,29.46611],[-95.75931,29.46533],[-95.75973,29.46492],[-95.7615,29.46426],[-95.76198,29.46551],[-95.76247,29.46608],[-95.76303,29.46627],[-95.76347,29.46589],[-95.76296,29.4652],[-95.76296,29.46485],[-95.76327,29.46452],[-95.76419,29.46438],[-95.76489,29.46495],[-95.76537,29.46667],[-95.76583,29.46672],[-95.76658,29.46615],[-95.76786,29.46633],[-95.76815,29.4668],[-95.76815,29.4684],[-95.76836,29.46865],[-95.77081,29.46859],[-95.7717,29.46909],[-95.76092,29.47889],[-95.75889,29.48101],[-95.75854,29.4824],[-95.755,29.5187],[-95.74226,29.54368],[-95.7395,29.54267],[-95.73659,29.54206],[-95.70266,29.5376],[-95.70269,29.53722],[-95.69522,29.51856],[-95.68229,29.50314],[-95.68206,29.50236],[-95.68056,29.4925]]]}},{"type":"Feature","properties":{"PRECINCT":"fort-bend:1008","COUNTY":"Fort Bend"},"geometry":{"type":"Polygon","coordinates":[[[-95.90054,29.63627],[-95.898,29.6348],[-95.89582,29.63318],[-95.89299,29.63045],[-95.89121,29.62816],[-95.89029,29.62666],[-95.88927,29.624],[-95.88924,29.62156],[-95.88996,29.62022],[-95.89185,29.61807],[-95.8949,29.61976],[-95.89477,29.62052],[-95.89509,29.62082],[-95.89669,29.62012],[-95.89664,29.6211],[-95.89763,29.6205],[-95.8979,29.6211],[-95.89924,29.62109],[-95.89916,29.62154],[-95.90019,29.62172],[-95.89994,29.62209],[-95.90084,29.62259],[-95.90208,29.62236],[-95.90203,29.62285],[-95.90229,29.62309],[-95.90254,29.62268],[-95.9028,29.62283],[-95.90265,29.62355],[-95.90349,29.62347],[-95.90399,29.62396],[-95.90557,29.62452],[-95.90577,29.62435],[-95.90569,29.62404],[-95.9052,29.62368],[-95.90547,29.62342],[-95.90674,29.62342],[-95.90712,29.62413],[-95.90889,29.62402],[-95.90923,29.62343],[-95.91022,29.62284],[-95.91117,29.62263],[-95.91171,29.62217],[-95.91184,29.62159],[-95.91307,29.62047],[-95.91356,29.61932],[-95.91395,29.6192],[-95.91422,29.61953],[-95.91458,29.61943],[-95.91525,29.61713],[-95.91594,29.61704],[-95.91629,29.61628],[-95.91711,29.61633],[-95.9168,29.61542],[-95.91802,29.61579],[-95.91856,29.61554],[-95.91869,29.61514],[-95.91809,29.61471],[-95.91856,29.61448],[-95.91916,29.61454],[-95.91902,29.61302],[-95.92012,29.61278],[-95.92001,29.61235],[-95.91939,29.61187],[-95.91985,29.6116],[-95.91949,29.61022],[-95.91999,29.60959],[-95.91955,29.60921],[-95.91895,29.60935],[-95.9188,29.60921],[-95.91893,29.6083],[-95.91941,29.6081],[-95.91892,29.60783],[-95.91929,29.60718],[-95.9189,29.60697],[-95.91878,29.60648],[-95.91852,29.60646],[-95.91824,29.6068],[-95.91775,29.6065],[-95.91836,29.60629],[-95.91805,29.60605],[-95.91823,29.60534],[-95.91779,29.60503],[-95.91789,29.60447],[-95.91745,29.60442],[-95.9173,29.60387],[-95.91689,29.60346],[-95.91703,29.60302],[-95.91683,29.60195],[-95.91727,29.60182],[-95.91752,29.60121],[-95.91732,29.60055],[-95.91705,29.60043],[-95.91715,29.59932],[-95.91769,29.5982],[-95.91877,29.59788],[-95.91937,29.59731],[-95.9199,29.59667],[-95.91958,29.59599],[-95.92028,29.59564],[-95.92115,29.59438],[-95.92214,29.59352],[-95.92735,29.59255],[-95.93209,29.5934],[-95.93318,29.59097],[-95.92249,29.58786],[-95.9228,29.58699],[-95.92279,29.58472],[-95.89708,29.57773],[-95.89688,29.56588],[-95.89113,29.56653],[-95.88884,29.55162],[-95.94405,29.54526],[-96.05531,29.5329],[-96.05546,29.5336],[-96.05505,29.53509],[-96.05447,29.53524],[-96.05448,29.53547],[-96.05469,29.53663],[-96.05496,29.53692],[-96.05552,29.53686],[-96.05558,29.53743],[-96.05611,29.53783],[-96.05607,29.53843],[-96.05642,29.53926],[-96.05583,29.53996],[-96.05515,29.53986],[-96.05409,29.5392],[-96.05285,29.53886],[-96.05284,29.53833],[-96.0524,29.5381],[-96.0514,29.53839],[-96.05107,29.54024],[-96.05053,29.54075],[-96.05009,29.54079],[-96.04947,29.54041],[-96.04889,29.54068],[-96.0487,29.54015],[-96.0492,29.53912],[-96.048,29.53827],[-96.04674,29.53937],[-96.04712,29.53996],[-96.0468,29.54027],[-96.04601,29.54008],[-96.04544,29.54043],[-96.04362,29.54058],[-96.04195,29.54024],[-96.04099,29.54068],[-96.04094,29.54192],[-96.04219,29.54273],[-96.04225,29.54352],[-96.04267,29.5437],[-96.04341,29.54347],[-96.04353,29.54364],[-96.04304,29.54531],[-96.04134,29.54674],[-96.04116,29.54745],[-96.04163,29.54796],[-96.04154,29.54979],[-96.0421,29.54994],[-96.04295,29.55056],[-96.04237,29.5514],[-96.04237,29.55192],[-96.04187,29.55233],[-96.04179,29.55323],[-96.04252,29.55379],[-96.04274,29.55437],[-96.04359,29.55529],[-96.0436,29.5559],[-96.04412,29.55613],[-96.04372,29.55675],[-96.04418,29.55695],[-96.0442,29.55752],[-96.04472,29.55764],[-96.04491,29.5579],[-96.04454,29.56213],[-96.04582,29.56296],[-96.04691,29.56321],[-96.04736,29.56376],[-96.04942,29.56422],[-96.05001,29.56462],[-96.05071,29.56457],[-96.05175,29.56487],[-96.05232,29.56526],[-96.05339,29.5652],[-96.05369,29.56545],[-96.05415,29.56546],[-96.05569,29.56676],[-96.05701,29.56747],[-96.05729,29.56723],[-96.05794,29.56727],[-96.058,29.56796],[-96.05885,29.56779],[-96.05929,29.56848],[-96.06,29.56866],[-96.06016,29.56999],[-96.06104,29.57224],[-96.06318,29.57607],[-96.06307,29.57659],[-96.06212,29.57737],[-96.06196,29.57782],[-96.06258,29.57901],[-96.06245,29.57982],[-96.0619,29.58065],[-96.06282,29.5822],[-96.06276,29.58372],[-96.06127,29.58474],[-96.06112,29.58532],[-96.06128,29.586],[-96.0601,29.5864],[-96.05952,29.58803],[-96.05983,29.58899],[-96.06154,29.59042],[-96.06213,29.59136],[-96.06273,29.59164],[-96.06454,29.59147],[-96.0656,29.59171],[-96.0672,29.59102],[-96.06989,29.59186],[-96.07135,29.59246],[-96.07286,29.5942],[-96.07442,29.59526],[-96.07582,29.59674],[-96.08082,29.59944],[-96.08208,29.59981],[-96.08418,29.60102],[-96.08732,29.60122],[-96.08891,29.60166],[-96.0545,29.60246],[-96.02485,29.60288],[-96.02476,29.61791],[-96.02346,29.62026],[-96.02417,29.62203],[-96.02387,29.62237],[-96.02372,29.62317],[-96.02278,29.6244],[-96.02142,29.62443],[-96.02022,29.62498],[-96.0193,29.62455],[-96.01885,29.62459],[-96.01802,29.62548],[-96.0181,29.62566],[-96.0185,29.62565],[-96.01845,29.62596],[-96.01796,29.62586],[-96.01766,29.62628],[-96.01705,29.62624],[-96.01684,29.62698],[-96.01644,29.6271],[-96.01514,29.62652],[-96.01453,29.62648],[-96.01104,29.62832],[-96.0088,29.62892],[-96.00435,29.62903],[-95.99997,29.62832],[-95.99755,29.62886],[-95.99569,29.62992],[-95.99098,29.63345],[-95.98911,29.63423],[-95.98462,29.63536],[-95.98227,29.63623],[-95.96909,29.6432],[-95.96719,29.64485],[-95.96511,29.64717],[-95.96101,29.65322],[-95.96003,29.654],[-95.95927,29.65428],[-95.95749,29.65413],[-95.95623,29.65351],[-95.95555,29.65284],[-95.95516,29.65164],[-95.95571,29.64968],[-95.95592,29.64775],[-95.95544,29.64656],[-95.95476,29.6458],[-95.95177,29.64494],[-95.94674,29.64305],[-95.945,29.64216],[-95.94041,29.63918],[-95.93517,29.63764],[-95.9314,29.63704],[-95.92968,29.63738],[-95.92912,29.638],[-95.92875,29.63895],[-95.92887,29.64135],[-95.92789,29.64363],[-95.92775,29.64459],[-95.92813,29.64875],[-95.9279,29.65098],[-95.92709,29.65496],[-95.92593,29.65731],[-95.92423,29.65892],[-95.92213,29.65963],[-95.91891,29.65966],[-95.91428,29.65896],[-95.91223,29.65811],[-95.91078,29.6571],[-95.90942,29.65508],[-95.90825,29.652],[-95.90438,29.64857],[-95.90351,29.6473],[-95.90275,29.6454],[-95.90258,29.6435],[-95.90285,29.6406],[-95.90256,29.63926],[-95.9016,29.63747],[-95.90054,29.63627]]]}},{"type":"Feature","properties":{"PRECINCT":"fort-bend:1012","COUNTY":"Fort Bend"},"geometry":{"type":"Polygon","coordinates":[[[-95.81022,29.56624],[-95.80987,29.55718],[-95.80878,29.55722],[-95.80837,29.53915],[-95.81923,29.53926],[-95.81905,29.53219],[-95.8203,29.53202],[-95.82076,29.53443],[-95.82135,29.53546],[-95.82096,29.53587],[-95.82116,29.53633],[-95.83113,29.53622],[-95.8311,29.54357],[-95.83341,29.54357],[-95.83345,29.54646],[-95.83501,29.54564],[-95.83503,29.5485],[-95.83129,29.5508],[-95.83145,29.55106],[-95.83042,29.55176],[-95.82382,29.55577],[-95.82389,29.55903],[-95.84284,29.55692],[-95.84283,29.55715],[-95.82385,29.55934],[-95.82382,29.56192],[-95.82408,29.56242],[-95.82385,29.56292],[-95.82259,29.56253],[-95.82244,29.5629],[-95.81929,29.56232],[-95.81929,29.56422],[-95.81594,29.56398],[-95.81585,29.56475],[-95.81513,29.56482],[-95.81529,29.56515],[-95.81438,29.56524],[-95.81437,29.56634],[-95.81368,29.56601],[-95.81172,29.56618],[-95.81042,29.567],[-95.81022,29.56624]]]}},{"type":"Feature","properties":{"PRECINCT":"fort-bend:1013","COUNTY":"Fort Bend"},"geometry":{"type":"Polygon","coordinates":[[[-95.78476,29.55217],[-95.78053,29.54869],[-95.78051,29.54283],[-95.77211,29.54299],[-95.77422,29.53874],[-95.7732,29.53816],[-95.77289,29.53776],[-95.77219,29.53502],[-95.76936,29.53048],[-95.77379,29.52665],[-95.76808,29.52171],[-95.77735,29.51373],[-95.78002,29.51528],[-95.77374,29.52054],[-95.78095,29.52677],[-95.78233,29.52844],[-95.78468,29.52604],[-95.78736,29.52009],[-95.792,29.52009],[-95.79202,29.51942],[-95.80061,29.51971],[-95.80474,29.52366],[-95.80799,29.52431],[-95.80789,29.51994],[-95.81234,29.52355],[-95.81856,29.51811],[-95.81894,29.51785],[-95.8191,29.51802],[-95.81928,29.51788],[-95.82213,29.52069],[-95.82694,29.52478],[-95.82702,29.52642],[-95.83507,29.51936],[-95.83863,29.51659],[-95.84139,29.51663],[-95.84268,29.5177],[-95.83084,29.52854],[-95.83185,29.52935],[-95.84563,29.53137],[-95.84571,29.53468],[-95.82508,29.53214],[-95.81925,29.53204],[-95.81905,29.53219],[-95.81923,29.53926],[-95.80837,29.53915],[-95.80839,29.5396],[-95.79346,29.53984],[-95.79358,29.55206],[-95.78476,29.55217]]]}},{"type":"Feature","properties":{"PRECINCT":"fort-bend:1015","COUNTY":"Fort Bend"},"geometry":{"type":"Polygon","coordinates":[[[-95.87487,29.50441],[-95.86284,29.49439],[-95.8657,29.49177],[-95.86192,29.48859],[-95.86076,29.48785],[-95.85934,29.48777],[-95.85835,29.48818],[-95.85695,29.48947],[-95.85085,29.4844],[-95.85691,29.47882],[-95.83847,29.46353],[-95.85202,29.45106],[-95.83916,29.44036],[-95.86195,29.41927],[-95.88607,29.43929],[-95.90844,29.41858],[-95.91082,29.41977],[-95.91037,29.42055],[-95.91032,29.42123],[-95.91095,29.42271],[-95.9131,29.42332],[-95.91311,29.42577],[-95.91442,29.42747],[-95.91517,29.42928],[-95.91539,29.4305],[-95.91589,29.43113],[-95.91586,29.43162],[-95.91527,29.43269],[-95.91561,29.43355],[-95.9153,29.43451],[-95.91604,29.43578],[-95.91501,29.43756],[-95.91657,29.44153],[-95.91641,29.44313],[-95.9166,29.44413],[-95.91654,29.44462],[-95.90953,29.43875],[-95.8981,29.44931],[-95.91013,29.45932],[-95.90694,29.46228],[-95.91276,29.46746],[-95.90454,29.47478],[-95.91073,29.47995],[-95.90268,29.48742],[-95.90575,29.48994],[-95.91312,29.48337],[-95.92047,29.48888],[-95.91962,29.48978],[-95.92052,29.49072],[-95.92029,29.49097],[-95.92075,29.49144],[-95.9213,29.49091],[-95.92188,29.49173],[-95.92304,29.4909],[-95.92501,29.49309],[-95.922,29.49493],[-95.92364,29.49706],[-95.92413,29.49659],[-95.92699,29.49937],[-95.92487,29.50087],[-95.92371,29.49939],[-95.92247,29.50005],[-95.91957,29.50295],[-95.91863,29.50213],[-95.91705,29.50313],[-95.91619,29.50252],[-95.91419,29.49979],[-95.91286,29.50059],[-95.91187,29.49924],[-95.9114,29.49965],[-95.91221,29.50045],[-95.90833,29.50315],[-95.9081,29.50296],[-95.90793,29.50308],[-95.90876,29.50399],[-95.93283,29.52426],[-95.93956,29.53131],[-95.88612,29.53739],[-95.88578,29.53561],[-95.88469,29.53354],[-95.8831,29.5317],[-95.87664,29.52588],[-95.86339,29.51492],[-95.87487,29.50441]]]}},{"type":"Feature","properties":{"PRECINCT":"fort-bend:1018","COUNTY":"Fort Bend"},"geometry":{"type":"Polygon","coordinates":[[[-95.70501,29.47357],[-95.67452,29.44798],[-95.67392,29.44701],[-95.67395,29.44609],[-95.69029,29.43103],[-95.69039,29.43015],[-95.69009,29.42938],[-95.68716,29.42684],[-95.66737,29.41022],[-95.66553,29.40922],[-95.66226,29.41209],[-95.66216,29.41276],[-95.66284,29.41487],[-95.66271,29.41642],[-95.66254,29.41734],[-95.66062,29.42093],[-95.66078,29.42203],[-95.66057,29.42274],[-95.65904,29.42382],[-95.658,29.42415],[-95.65633,29.42512],[-95.65518,29.42537],[-95.6529,29.42718],[-95.65057,29.42758],[-95.64874,29.43013],[-95.64753,29.43023],[-95.64673,29.43066],[-95.64575,29.43078],[-95.64557,29.43223],[-95.64532,29.43261],[-95.6449,29.43305],[-95.64353,29.43379],[-95.64385,29.43543],[-95.64497,29.43731],[-95.64484,29.4377],[-95.64237,29.43827],[-95.64114,29.43901],[-95.6406,29.43821],[-95.64013,29.43799],[-95.63847,29.43787],[-95.63616,29.43901],[-95.63463,29.43833],[-95.63332,29.43808],[-95.63114,29.43583],[-95.63168,29.43354],[-95.63093,29.43205],[-95.63107,29.43047],[-95.63066,29.42954],[-95.63177,29.42836],[-95.63192,29.42785],[-95.63071,29.42704],[-95.63054,29.42671],[-95.63112,29.42611],[-95.63337,29.42537],[-95.63373,29.425],[-95.63379,29.4245],[-95.63326,29.42269],[-95.63358,29.42062],[-95.63111,29.41566],[-95.6299,29.41479],[-95.62951,29.41347],[-95.62977,29.41292],[-95.6309,29.4122],[-95.6327,29.41052],[-95.63323,29.40954],[-95.63206,29.40815],[-95.63161,29.40805],[-95.63083,29.40851],[-95.62988,29.40981],[-95.62899,29.41015],[-95.62768,29.40957],[-95.62745,29.4086],[-95.62757,29.40753],[-95.62849,29.40669],[-95.62931,29.40441],[-95.6304,29.40397],[-95.63132,29.40315],[-95.63294,29.40265],[-95.63325,29.40219],[-95.63324,29.40146],[-95.63249,29.40052],[-95.6305,29.40015],[-95.62781,29.40139],[-95.62737,29.40267],[-95.62659,29.40355],[-95.62381,29.40378],[-95.62047,29.40578],[-95.61961,29.40596],[-95.6173,29.405],[-95.61678,29.40456],[-95.6168,29.40411],[-95.61776,29.40283],[-95.61791,29.40191],[-95.61665,29.39948],[-95.61652,29.39883],[-95.61701,29.39839],[-95.61934,29.39827],[-95.62023,29.3975],[-95.65274,29.39722],[-95.65284,29.38957],[-95.65225,29.38851],[-95.65138,29.38808],[-95.64308,29.38802],[-95.64245,29.38758],[-95.64189,29.38674],[-95.64174,29.37742],[-95.64134,29.37146],[-95.64126,29.3518],[-95.67352,29.35161],[-95.67447,29.35157],[-95.67557,29.35122],[-95.7095,29.32],[-95.74988,29.35357],[-95.75019,29.35355],[-95.75419,29.34995],[-95.76624,29.35986],[-95.75481,29.37044],[-95.83134,29.43383],[-95.81903,29.46245],[-95.81632,29.46136],[-95.79739,29.44568],[-95.7717,29.46909],[-95.77081,29.46859],[-95.76836,29.46865],[-95.76815,29.4684],[-95.76815,29.4668],[-95.76786,29.46633],[-95.76658,29.46615],[-95.76583,29.46672],[-95.76537,29.46667],[-95.76489,29.46495],[-95.76419,29.46438],[-95.76327,29.46452],[-95.76296,29.46485],[-95.76296,29.4652],[-95.76347,29.46589],[-95.76303,29.46627],[-95.76247,29.46608],[-95.76198,29.46551],[-95.7615,29.46426],[-95.75973,29.46492],[-95.75931,29.46533],[-95.75938,29.46611],[-95.75904,29.46698],[-95.75861,29.4671],[-95.7581,29.46684],[-95.75787,29.46612],[-95.75756,29.46591],[-95.75566,29.46639],[-95.75537,29.46628],[-95.75502,29.4656],[-95.75548,29.46435],[-95.75508,29.46399],[-95.75297,29.46459],[-95.75239,29.46515],[-95.75192,29.46612],[-95.75116,29.46623],[-95.75017,29.46602],[-95.74916,29.4651],[-95.74893,29.46401],[-95.74491,29.46198],[-95.74408,29.46204],[-95.74213,29.46354],[-95.74128,29.46364],[-95.73876,29.46319],[-95.73813,29.46257],[-95.73777,29.4609],[-95.7365,29.459],[-95.736,29.45551],[-95.73568,29.45547],[-95.73409,29.4567],[-95.7332,29.45704],[-95.7294,29.45654],[-95.72893,29.45609],[-95.72886,29.45457],[-95.7273,29.45314],[-95.70501,29.47357]]]}},{"type":"Feature","properties":{"PRECINCT":"fort-bend:1025","COUNTY":"Fort Bend"},"geometry":{"type":"Polygon","coordinates":[[[-95.84563,29.53137],[-95.83185,29.52935],[-95.83084,29.52854],[-95.84268,29.5177],[-95.84139,29.51663],[-95.83863,29.51659],[-95.83507,29.51936],[-95.82702,29.52642],[-95.82694,29.52478],[-95.82213,29.52069],[-95.81928,29.51788],[-95.8191,29.51802],[-95.81894,29.51785],[-95.81856,29.51811],[-95.81234,29.52355],[-95.80789,29.51994],[-95.80799,29.52431],[-95.80474,29.52366],[-95.80061,29.51971],[-95.79202,29.51942],[-95.792,29.52009],[-95.78736,29.52009],[-95.79129,29.51056],[-95.79225,29.509],[-95.77542,29.495],[-95.77496,29.49483],[-95.77434,29.49533],[-95.77401,29.49529],[-95.75854,29.4824],[-95.75889,29.48101],[-95.75952,29.4802],[-95.79739,29.44568],[-95.81632,29.46136],[-95.81903,29.46245],[-95.83134,29.43383],[-95.85202,29.45106],[-95.83847,29.46353],[-95.85691,29.47882],[-95.85085,29.4844],[-95.85695,29.48947],[-95.85835,29.48818],[-95.85934,29.48777],[-95.86076,29.48785],[-95.86192,29.48859],[-95.8657,29.49177],[-95.86284,29.49439],[-95.87487,29.50441],[-95.85218,29.52523],[-95.85197,29.52541],[-95.85164,29.52527],[-95.84686,29.52966],[-95.84574,29.53074],[-95.84563,29.53137]]]}},{"type":"Feature","properties":{"PRECINCT":"fort-bend:1037","COUNTY":"Fort Bend"},"geometry":{"type":"Polygon","coordinates":[[[-95.78476,29.55217],[-95.79358,29.55206],[-95.79346,29.53984],[-95.80839,29.5396],[-95.80878,29.55722],[-95.79298,29.55741],[-95.79186,29.55774],[-95.78396,29.55795],[-95.78476,29.55217]]]}},{"type":"Feature","properties":{"PRECINCT":"fort-bend:1054","COUNTY":"Fort Bend"},"geometry":{"type":"Polygon","coordinates":[[[-95.90567,29.6245],[-95.90371,29.6238],[-95.90349,29.62347],[-95.90265,29.62355],[-95.9028,29.62283],[-95.90254,29.62268],[-95.90229,29.62309],[-95.90202,29.62281],[-95.90212,29.62238],[-95.90088,29.6226],[-95.89994,29.62209],[-95.90019,29.62172],[-95.89916,29.62154],[-95.89924,29.62109],[-95.8979,29.6211],[-95.89763,29.6205],[-95.89664,29.6211],[-95.89669,29.62012],[-95.89509,29.62082],[-95.89477,29.62052],[-95.8949,29.61976],[-95.89185,29.61807],[-95.89303,29.61691],[-95.89375,29.61555],[-95.89293,29.61223],[-95.89108,29.60875],[-95.89054,29.60683],[-95.8905,29.60373],[-95.89145,29.59842],[-95.89144,29.5966],[-95.89033,29.59501],[-95.88816,29.59353],[-95.88622,29.59273],[-95.88263,29.59208],[-95.88119,29.5921],[-95.88026,29.5924],[-95.87946,29.59296],[-95.87889,29.59391],[-95.87803,29.60081],[-95.87814,29.60344],[-95.87878,29.60782],[-95.87869,29.61088],[-95.87821,29.61254],[-95.8774,29.61388],[-95.87657,29.61478],[-95.87472,29.61613],[-95.87275,29.61651],[-95.87153,29.61636],[-95.87009,29.61547],[-95.86941,29.61421],[-95.86915,29.61275],[-95.86918,29.6103],[-95.87064,29.60655],[-95.87105,29.60416],[-95.87066,29.60141],[-95.87009,29.60038],[-95.86947,29.59975],[-95.86513,29.59787],[-95.8569,29.59516],[-95.85665,29.59562],[-95.85731,29.59628],[-95.85686,29.59661],[-95.85799,29.59706],[-95.85806,29.59743],[-95.85859,29.59776],[-95.85905,29.59768],[-95.85927,29.5982],[-95.85914,29.59858],[-95.85948,29.59929],[-95.85914,29.60124],[-95.85882,29.60134],[-95.85853,29.60272],[-95.85746,29.60401],[-95.85519,29.60625],[-95.8539,29.60672],[-95.85256,29.6076],[-95.85148,29.60885],[-95.85106,29.60983],[-95.85986,29.60975],[-95.86,29.62094],[-95.81162,29.6214],[-95.81092,29.57211],[-95.81042,29.567],[-95.81172,29.56618],[-95.81368,29.56601],[-95.81437,29.56634],[-95.81438,29.56524],[-95.81529,29.56515],[-95.81513,29.56482],[-95.81585,29.56475],[-95.81594,29.56398],[-95.81929,29.56422],[-95.81929,29.56232],[-95.82244,29.5629],[-95.82259,29.56253],[-95.82385,29.56292],[-95.82408,29.56242],[-95.82382,29.56192],[-95.82385,29.55934],[-95.84283,29.55715],[-95.84284,29.55692],[-95.82389,29.55903],[-95.82382,29.55577],[-95.83042,29.55176],[-95.83145,29.55106],[-95.83129,29.5508],[-95.83503,29.5485],[-95.83501,29.54564],[-95.83345,29.54646],[-95.83341,29.54357],[-95.8311,29.54357],[-95.83113,29.53622],[-95.82116,29.53633],[-95.82096,29.53587],[-95.82135,29.53546],[-95.82076,29.53443],[-95.8203,29.53202],[-95.82508,29.53214],[-95.84571,29.53468],[-95.84579,29.53067],[-95.85164,29.52527],[-95.85197,29.52541],[-95.85218,29.52523],[-95.86339,29.51492],[-95.87664,29.52588],[-95.8831,29.5317],[-95.88469,29.53354],[-95.88578,29.53561],[-95.88612,29.53739],[-95.88668,29.53734],[-95.88793,29.54585],[-95.90656,29.54382],[-95.90734,29.54945],[-95.88884,29.55162],[-95.89113,29.56653],[-95.89688,29.56588],[-95.89708,29.57773],[-95.92279,29.58472],[-95.9228,29.58699],[-95.92249,29.58786],[-95.93318,29.59097],[-95.93209,29.5934],[-95.92735,29.59255],[-95.92466,29.59294],[-95.92202,29.59358],[-95.92028,29.59564],[-95.91958,29.59599],[-95.9199,29.59661],[-95.91948,29.59718],[-95.91877,29.59788],[-95.91782,29.59808],[-95.91754,29.59842],[-95.91715,29.59932],[-95.91705,29.60043],[-95.91734,29.6006],[-95.91751,29.60137],[-95.91727,29.60182],[-95.91683,29.60197],[-95.91695,29.60365],[-95.9173,29.60387],[-95.91745,29.60442],[-95.91789,29.60447],[-95.91779,29.60503],[-95.91823,29.60534],[-95.91805,29.60605],[-95.91836,29.60629],[-95.91775,29.6065],[-95.91824,29.6068],[-95.91852,29.60646],[-95.91878,29.60648],[-95.9189,29.60697],[-95.91929,29.60718],[-95.91892,29.60783],[-95.91941,29.6081],[-95.91893,29.6083],[-95.9188,29.60921],[-95.91895,29.60935],[-95.91955,29.60921],[-95.91999,29.60959],[-95.91949,29.61022],[-95.91985,29.6116],[-95.91939,29.61187],[-95.92001,29.61235],[-95.92012,29.61278],[-95.91902,29.61302],[-95.91916,29.61454],[-95.91856,29.61448],[-95.91809,29.61471],[-95.91869,29.61514],[-95.91856,29.61554],[-95.91802,29.61579],[-95.9168,29.61542],[-95.91711,29.61633],[-95.91629,29.61628],[-95.91594,29.61704],[-95.91525,29.61713],[-95.91458,29.61943],[-95.91422,29.61953],[-95.91395,29.6192],[-95.91356,29.61932],[-95.91307,29.62047],[-95.91184,29.62159],[-95.91171,29.62217],[-95.91117,29.62263],[-95.91022,29.62284],[-95.90923,29.62343],[-95.90889,29.62402],[-95.90712,29.62413],[-95.90674,29.62342],[-95.90609,29.62332],[-95.90521,29.62364],[-95.90569,29.62404],[-95.90567,29.6245]]]}},{"type":"Feature","properties":{"PRECINCT":"fort-bend:1067","COUNTY":"Fort Bend"},"geometry":{"type":"Polygon","coordinates":[[[-95.69036,29.56159],[-95.70266,29.5376],[-95.73765,29.54223],[-95.74226,29.54368],[-95.74245,29.5434],[-95.74536,29.54508],[-95.74721,29.54665],[-95.73522,29.55174],[-95.72976,29.55353],[-95.69036,29.56159]]]}},{"type":"Feature","properties":{"PRECINCT":"fort-bend:1074","COUNTY":"Fort Bend"},"geometry":{"type":"Polygon","coordinates":[[[-95.7588,29.55215],[-95.75809,29.55221],[-95.75595,29.5571],[-95.74692,29.54633],[-95.74502,29.54485],[-95.74245,29.5434],[-95.74495,29.53829],[-95.7452,29.53811],[-95.75435,29.54173],[-95.75452,29.54153],[-95.75675,29.54254],[-95.77237,29.53589],[-95.773,29.53795],[-95.77422,29.53874],[-95.77211,29.54299],[-95.78051,29.54283],[-95.78053,29.54869],[-95.78476,29.55217],[-95.78396,29.55795],[-95.76618,29.55837],[-95.7656,29.55772],[-95.76578,29.55512],[-95.76219,29.55372],[-95.76173,29.55322],[-95.7588,29.55215]]]}},{"type":"Feature","properties":{"PRECINCT":"fort-bend:1085","COUNTY":"Fort Bend"},"geometry":{"type":"Polygon","coordinates":[[[-95.69403,29.54915],[-95.69065,29.5482],[-95.68873,29.54697],[-95.68765,29.54573],[-95.68555,29.54533],[-95.6841,29.54412],[-95.68072,29.54263],[-95.67943,29.54259],[-95.67719,29.54294],[-95.67414,29.54126],[-95.67089,29.5405],[-95.66875,29.54089],[-95.66479,29.5411],[-95.66876,29.53319],[-95.70266,29.5376],[-95.697,29.54868],[-95.69403,29.54915]]]}},{"type":"Feature","properties":{"PRECINCT":"fort-bend:1087","COUNTY":"Fort Bend"},"geometry":{"type":"Polygon","coordinates":[[[-95.6521,29.55405],[-95.65801,29.54258],[-95.65957,29.54209],[-95.66022,29.5428],[-95.66068,29.54292],[-95.66139,29.54235],[-95.66285,29.54227],[-95.66445,29.54111],[-95.66875,29.54089],[-95.67028,29.5405],[-95.67401,29.54121],[-95.67383,29.54211],[-95.67313,29.54322],[-95.67282,29.54347],[-95.67219,29.54291],[-95.67117,29.54384],[-95.67056,29.54504],[-95.6719,29.54593],[-95.66934,29.54827],[-95.66963,29.54848],[-95.6689,29.54932],[-95.6648,29.5477],[-95.66365,29.54981],[-95.66258,29.55116],[-95.66092,29.55207],[-95.65999,29.55285],[-95.65859,29.55518],[-95.65741,29.55632],[-95.65639,29.55689],[-95.65578,29.55706],[-95.65491,29.55695],[-95.65326,29.55619],[-95.6528,29.55538],[-95.65195,29.55471],[-95.65178,29.5542],[-95.6521,29.55405]]]}},{"type":"Feature","properties":{"PRECINCT":"fort-bend:1120","COUNTY":"Fort Bend"},"geometry":{"type":"Polygon","coordinates":[[[-95.68687,29.55462],[-95.6737,29.54995],[-95.67313,29.55063],[-95.67243,29.55061],[-95.6689,29.54932],[-95.66963,29.54848],[-95.66934,29.54827],[-95.6719,29.54593],[-95.67056,29.54504],[-95.67117,29.54384],[-95.67219,29.54291],[-95.67282,29.54347],[-95.67313,29.54322],[-95.67383,29.54211],[-95.67401,29.54121],[-95.67719,29.54294],[-95.67972,29.54257],[-95.68137,29.54286],[-95.6841,29.54412],[-95.68555,29.54533],[-95.68765,29.54573],[-95.68867,29.54692],[-95.69051,29.54813],[-95.69317,29.54909],[-95.69481,29.5491],[-95.697,29.54868],[-95.69036,29.56159],[-95.68596,29.56249],[-95.6854,29.55978],[-95.68687,29.55462]]]}},{"type":"Feature","properties":{"PRECINCT":"fort-bend:1128","COUNTY":"Fort Bend"},"geometry":{"type":"Polygon","coordinates":[[[-95.66066,29.56431],[-95.65805,29.56443],[-95.65718,29.5639],[-95.6522,29.56218],[-95.64744,29.56118],[-95.6455,29.56017],[-95.64451,29.55933],[-95.64403,29.55748],[-95.64505,29.55252],[-95.64498,29.55206],[-95.64436,29.55135],[-95.64364,29.55098],[-95.63816,29.55002],[-95.63816,29.5495],[-95.63971,29.54894],[-95.64061,29.54923],[-95.64396,29.5473],[-95.64602,29.54826],[-95.64602,29.54864],[-95.64693,29.54936],[-95.64699,29.55],[-95.64852,29.55065],[-95.65103,29.55346],[-95.65158,29.5537],[-95.65195,29.55471],[-95.6528,29.55538],[-95.65326,29.55619],[-95.65478,29.55691],[-95.65556,29.55705],[-95.65623,29.55697],[-95.65741,29.55632],[-95.65859,29.55518],[-95.65999,29.55285],[-95.66092,29.55207],[-95.66258,29.55116],[-95.66365,29.54981],[-95.6648,29.5477],[-95.67243,29.55061],[-95.67313,29.55063],[-95.6737,29.54995],[-95.68687,29.55462],[-95.6854,29.55978],[-95.68596,29.56249],[-95.67386,29.56513],[-95.66829,29.56828],[-95.66747,29.56692],[-95.66553,29.56535],[-95.66402,29.56469],[-95.66066,29.56431]]]}},{"type":"Feature","properties":{"PRECINCT":"fort-bend:1154","COUNTY":"Fort Bend"},"geometry":{"type":"Polygon","coordinates":[[[-95.75459,29.54163],[-95.75435,29.54173],[-95.7452,29.53811],[-95.755,29.5187],[-95.75854,29.4824],[-95.77401,29.49529],[-95.77434,29.49533],[-95.77496,29.49483],[-95.77542,29.495],[-95.79225,29.509],[-95.79129,29.51056],[-95.78468,29.52604],[-95.78233,29.52844],[-95.78095,29.52677],[-95.77374,29.52054],[-95.78002,29.51528],[-95.77735,29.51373],[-95.76808,29.52171],[-95.77379,29.52665],[-95.76936,29.53048],[-95.77207,29.53478],[-95.77237,29.53589],[-95.75675,29.54254],[-95.75459,29.54163]]]}},{"type":"Feature","properties":{"PRECINCT":"fort-bend:3005","COUNTY":"Fort Bend"},"geometry":{"type":"Polygon","coordinates":[[[-95.77881,29.66314],[-95.7779,29.66315],[-95.77732,29.66342],[-95.77603,29.66511],[-95.77581,29.66707],[-95.77633,29.67007],[-95.77615,29.67042],[-95.77502,29.67079],[-95.77397,29.67007],[-95.76982,29.6659],[-95.76902,29.66356],[-95.76922,29.66087],[-95.76884,29.65907],[-95.7651,29.65529],[-95.76361,29.65337],[-95.76283,29.65314],[-95.76183,29.65354],[-95.75815,29.65577],[-95.75701,29.65702],[-95.75671,29.65794],[-95.75672,29.65883],[-95.75725,29.66034],[-95.75826,29.66118],[-95.76026,29.66179],[-95.76262,29.66178],[-95.76364,29.66235],[-95.76395,29.66309],[-95.76371,29.6641],[-95.76304,29.66468],[-95.76214,29.66486],[-95.75965,29.66394],[-95.75657,29.66163],[-95.75467,29.65888],[-95.75262,29.65495],[-95.75159,29.65419],[-95.74893,29.65358],[-95.74752,29.65406],[-95.74593,29.65522],[-95.74505,29.65554],[-95.74409,29.65525],[-95.74359,29.65485],[-95.74256,29.65327],[-95.74272,29.6514],[-95.74438,29.64947],[-95.7456,29.64747],[-95.74585,29.64576],[-95.74547,29.64442],[-95.74511,29.64405],[-95.74377,29.64352],[-95.74356,29.64081],[-95.74375,29.63935],[-95.74373,29.62517],[-95.74484,29.62616],[-95.74649,29.62664],[-95.781,29.62708],[-95.78212,29.62737],[-95.78439,29.62922],[-95.78557,29.62965],[-95.78873,29.62983],[-95.80447,29.6296],[-95.80567,29.62971],[-95.8092,29.63063],[-95.81176,29.63168],[-95.81246,29.6729],[-95.81056,29.67295],[-95.81007,29.67273],[-95.80897,29.67272],[-95.80881,29.67083],[-95.80809,29.67083],[-95.80133,29.66537],[-95.79811,29.6664],[-95.79622,29.66634],[-95.79442,29.6655],[-95.79333,29.66434],[-95.79262,29.66316],[-95.79171,29.66253],[-95.79084,29.66288],[-95.79036,29.66354],[-95.78987,29.6662],[-95.78853,29.66937],[-95.78797,29.67161],[-95.78755,29.6722],[-95.78677,29.67255],[-95.78499,29.6724],[-95.78424,29.67196],[-95.78375,29.67122],[-95.78365,29.66878],[-95.7833,29.66772],[-95.78009,29.66411],[-95.77881,29.66314]]]}},{"type":"Feature","properties":{"PRECINCT":"fort-bend:3006","COUNTY":"Fort Bend"},"geometry":{"type":"Polygon","coordinates":[[[-95.88494,29.76583],[-95.8846,29.73281],[-95.88482,29.73274],[-95.88467,29.7304],[-95.88185,29.73005],[-95.87981,29.72871],[-95.87606,29.72851],[-95.87519,29.72802],[-95.87457,29.72691],[-95.87199,29.72653],[-95.87101,29.72612],[-95.86974,29.72507],[-95.86974,29.72461],[-95.86947,29.72484],[-95.86935,29.72465],[-95.86313,29.72817],[-95.86136,29.7292],[-95.86141,29.72935],[-95.85286,29.73418],[-95.85197,29.73439],[-95.85126,29.73422],[-95.84771,29.73421],[-95.84669,29.7337],[-95.8463,29.73288],[-95.84592,29.6947],[-95.87782,29.69208],[-95.87779,29.69176],[-95.89871,29.68998],[-95.91795,29.68605],[-95.94419,29.68319],[-95.94453,29.70693],[-95.95388,29.70673],[-95.95426,29.7047],[-95.96059,29.70459],[-95.96407,29.70425],[-95.96598,29.70428],[-95.9662,29.70605],[-95.97123,29.70597],[-95.97224,29.70553],[-95.97237,29.70288],[-95.97974,29.7035],[-95.98536,29.70115],[-95.98877,29.7055],[-95.98937,29.70659],[-95.98978,29.71032],[-95.98861,29.71742],[-95.98874,29.72838],[-95.97094,29.72855],[-95.97129,29.74045],[-95.95093,29.74077],[-95.90767,29.75761],[-95.88494,29.76583]]]}},{"type":"Feature","properties":{"PRECINCT":"fort-bend:3019","COUNTY":"Fort Bend"},"geometry":{"type":"Polygon","coordinates":[[[-95.98874,29.72827],[-95.98861,29.71742],[-95.98977,29.71066],[-95.98965,29.70793],[-95.98937,29.70659],[-95.98877,29.7055],[-95.98536,29.70115],[-95.97974,29.7035],[-95.97237,29.70288],[-95.97224,29.70553],[-95.97123,29.70597],[-95.9662,29.70605],[-95.96598,29.70428],[-95.96407,29.70425],[-95.96059,29.70459],[-95.95426,29.7047],[-95.95388,29.70673],[-95.94453,29.70693],[-95.94422,29.69393],[-95.94414,29.68377],[-95.94431,29.68338],[-95.94408,29.6821],[-95.94369,29.66174],[-95.9407,29.65237],[-95.94048,29.63989],[-95.94065,29.63931],[-95.945,29.64216],[-95.94674,29.64305],[-95.95488,29.64589],[-95.95544,29.64656],[-95.95593,29.64782],[-95.95571,29.64968],[-95.95516,29.65164],[-95.95555,29.65284],[-95.95623,29.65351],[-95.95749,29.65413],[-95.95927,29.65428],[-95.96003,29.654],[-95.96101,29.65322],[-95.96511,29.64717],[-95.96719,29.64485],[-95.96906,29.64322],[-95.98079,29.63696],[-95.98462,29.63536],[-95.98911,29.63423],[-95.99098,29.63345],[-95.99569,29.62992],[-95.9982,29.62861],[-95.99997,29.62832],[-96.00435,29.62903],[-96.0088,29.62892],[-96.01104,29.62832],[-96.01441,29.62651],[-96.01502,29.62649],[-96.01644,29.6271],[-96.01743,29.62901],[-96.01803,29.63267],[-96.01931,29.63554],[-96.01932,29.63619],[-96.01878,29.63744],[-96.01508,29.63934],[-96.01465,29.64099],[-96.01522,29.64268],[-96.0163,29.64421],[-96.01754,29.64546],[-96.02171,29.64764],[-96.02344,29.64879],[-96.02941,29.65428],[-96.03194,29.65563],[-96.03266,29.65654],[-96.03315,29.65789],[-96.03301,29.65881],[-96.03254,29.65956],[-96.03169,29.6601],[-96.03068,29.66038],[-96.02926,29.66013],[-96.02711,29.65911],[-96.02395,29.65834],[-96.02255,29.65838],[-96.02086,29.65874],[-96.01818,29.66034],[-96.01682,29.66197],[-96.01604,29.66372],[-96.01628,29.66624],[-96.01677,29.66749],[-96.01842,29.66974],[-96.0208,29.67116],[-96.02371,29.67171],[-96.02505,29.6724],[-96.02652,29.67404],[-96.02751,29.67454],[-96.02966,29.67522],[-96.03091,29.67519],[-96.03369,29.67421],[-96.03616,29.67258],[-96.03889,29.66971],[-96.04384,29.66579],[-96.04527,29.66543],[-96.04608,29.66551],[-96.04866,29.66656],[-96.05029,29.66781],[-96.05117,29.66867],[-96.05245,29.67056],[-96.05397,29.67193],[-96.05696,29.67245],[-96.05849,29.67357],[-96.05947,29.67472],[-96.06,29.67596],[-96.05979,29.67867],[-96.05939,29.67965],[-96.05825,29.68106],[-96.05608,29.68258],[-96.05376,29.68333],[-96.05217,29.68345],[-96.04785,29.68458],[-96.0411,29.68739],[-96.0359,29.68836],[-96.03096,29.68843],[-96.02903,29.68791],[-96.02721,29.68699],[-96.02586,29.6861],[-96.02401,29.6844],[-96.02354,29.68345],[-96.02274,29.68021],[-96.0224,29.67965],[-96.02144,29.6789],[-96.01965,29.6787],[-96.01806,29.6792],[-96.01664,29.68006],[-96.01556,29.68142],[-96.01503,29.68267],[-96.01476,29.68595],[-96.01407,29.68874],[-96.014,29.69111],[-96.01452,29.69359],[-96.01621,29.69664],[-96.01823,29.69887],[-96.02127,29.70095],[-96.02236,29.70208],[-96.02287,29.70364],[-96.02284,29.70445],[-96.02222,29.70545],[-96.02157,29.70563],[-96.01985,29.70529],[-96.01419,29.70294],[-96.01168,29.70258],[-96.00758,29.70294],[-96.00599,29.70386],[-96.00499,29.70573],[-96.00453,29.70823],[-96.00583,29.71186],[-96.00711,29.71668],[-96.00766,29.71768],[-96.00973,29.71916],[-96.01161,29.71984],[-96.01284,29.71993],[-96.01597,29.71961],[-96.02252,29.71772],[-96.02601,29.71698],[-96.03093,29.71704],[-96.03207,29.71732],[-96.033,29.71818],[-96.03343,29.71961],[-96.03232,29.72619],[-96.03271,29.72794],[-95.98874,29.72827]]]}},{"type":"Feature","properties":{"PRECINCT":"fort-bend:3057","COUNTY":"Fort Bend"},"geometry":{"type":"Polygon","coordinates":[[[-95.81302,29.69736],[-95.81162,29.6214],[-95.86,29.62094],[-95.85986,29.60975],[-95.85106,29.60983],[-95.85148,29.60885],[-95.85256,29.6076],[-95.8539,29.60672],[-95.85519,29.60625],[-95.85746,29.60401],[-95.85853,29.60272],[-95.85882,29.60134],[-95.85914,29.60124],[-95.85948,29.59929],[-95.85914,29.59858],[-95.85927,29.5982],[-95.85905,29.59768],[-95.85859,29.59776],[-95.85806,29.59743],[-95.85799,29.59706],[-95.85686,29.59661],[-95.85731,29.59628],[-95.85665,29.59562],[-95.8569,29.59516],[-95.86513,29.59787],[-95.86947,29.59975],[-95.87009,29.60038],[-95.87066,29.60141],[-95.87105,29.60416],[-95.87064,29.60655],[-95.86918,29.6103],[-95.86915,29.61275],[-95.86941,29.61421],[-95.87009,29.61547],[-95.87153,29.61636],[-95.87275,29.61651],[-95.87472,29.61613],[-95.87657,29.61478],[-95.8774,29.61388],[-95.87821,29.61254],[-95.87869,29.61088],[-95.87878,29.60782],[-95.87814,29.60344],[-95.87803,29.60081],[-95.87882,29.59419],[-95.87916,29.59335],[-95.88037,29.59234],[-95.88119,29.5921],[-95.88263,29.59208],[-95.88622,29.59273],[-95.88923,29.59413],[-95.89096,29.59567],[-95.89145,29.59663],[-95.89145,29.59842],[-95.8905,29.60373],[-95.89054,29.60683],[-95.89108,29.60875],[-95.89293,29.61223],[-95.89375,29.61555],[-95.89303,29.61691],[-95.89096,29.61895],[-95.88955,29.62081],[-95.88919,29.62191],[-95.8893,29.62418],[-95.89051,29.62705],[-95.89299,29.63045],[-95.89606,29.63338],[-95.90054,29.63627],[-95.90189,29.6379],[-95.90282,29.64032],[-95.90258,29.6435],[-95.90273,29.64516],[-95.90146,29.6446],[-95.89583,29.64296],[-95.89117,29.64026],[-95.88896,29.63959],[-95.88734,29.63991],[-95.88488,29.64184],[-95.88219,29.64193],[-95.8822,29.65436],[-95.879,29.65352],[-95.87946,29.65532],[-95.87955,29.65855],[-95.86987,29.65916],[-95.87067,29.67155],[-95.87027,29.67476],[-95.87318,29.67482],[-95.87367,29.68173],[-95.87721,29.68181],[-95.87782,29.69208],[-95.81302,29.69736]]]}},{"type":"Feature","properties":{"PRECINCT":"fort-bend:3148","COUNTY":"Fort Bend"},"geometry":{"type":"Polygon","coordinates":[[[-95.86849,29.77073],[-95.86517,29.77029],[-95.86266,29.76869],[-95.8613,29.76712],[-95.86059,29.7659],[-95.85896,29.7645],[-95.85865,29.76309],[-95.85813,29.76307],[-95.85756,29.76268],[-95.85709,29.7628],[-95.85663,29.76338],[-95.85674,29.76402],[-95.85518,29.76439],[-95.85482,29.76557],[-95.85412,29.7667],[-95.85145,29.7667],[-95.85142,29.7643],[-95.85116,29.76399],[-95.85173,29.76285],[-95.8516,29.74652],[-95.83794,29.74663],[-95.83785,29.73463],[-95.8379,29.73431],[-95.85126,29.73422],[-95.85197,29.73439],[-95.85286,29.73418],[-95.86141,29.72935],[-95.86136,29.7292],[-95.86313,29.72817],[-95.86935,29.72465],[-95.86947,29.72484],[-95.86974,29.72461],[-95.86974,29.72507],[-95.87101,29.72612],[-95.87199,29.72653],[-95.87457,29.72691],[-95.87519,29.72802],[-95.87606,29.72851],[-95.87981,29.72871],[-95.88185,29.73005],[-95.88469,29.73044],[-95.88502,29.76562],[-95.88494,29.76583],[-95.87066,29.77126],[-95.86849,29.77073]]]}},{"type":"Feature","properties":{"PRECINCT":"fort-bend:3149","COUNTY":"Fort Bend"},"geometry":{"type":"Polygon","coordinates":[[[-95.87779,29.69176],[-95.87721,29.68181],[-95.87367,29.68173],[-95.87318,29.67482],[-95.87027,29.67476],[-95.87067,29.67155],[-95.86987,29.65916],[-95.87955,29.65855],[-95.87946,29.65532],[-95.879,29.65352],[-95.8822,29.65436],[-95.88219,29.64193],[-95.88488,29.64184],[-95.88734,29.63991],[-95.88896,29.63959],[-95.89117,29.64026],[-95.89583,29.64296],[-95.90146,29.6446],[-95.90273,29.64516],[-95.90313,29.64665],[-95.90428,29.64845],[-95.90838,29.65218],[-95.90942,29.65508],[-95.91107,29.65735],[-95.91287,29.65843],[-95.91491,29.65912],[-95.91792,29.65956],[-95.92081,29.65971],[-95.92297,29.65946],[-95.92423,29.65892],[-95.92593,29.65731],[-95.92684,29.65561],[-95.9279,29.65098],[-95.92812,29.64897],[-95.92781,29.64412],[-95.92885,29.64146],[-95.92875,29.63895],[-95.92933,29.63768],[-95.92995,29.63729],[-95.93215,29.63706],[-95.93724,29.63815],[-95.94065,29.63931],[-95.94045,29.64105],[-95.94068,29.65223],[-95.94369,29.66174],[-95.94419,29.68319],[-95.91795,29.68605],[-95.89871,29.68998],[-95.87779,29.69176]]]}},{"type":"Feature","properties":{"PRECINCT":"fort-bend:4011","COUNTY":"Fort Bend"},"geometry":{"type":"Polygon","coordinates":[[[-95.6072,29.57441],[-95.60896,29.57308],[-95.6094,29.57327],[-95.61181,29.5748],[-95.61314,29.57609],[-95.61467,29.57828],[-95.61277,29.57908],[-95.61172,29.57988],[-95.61005,29.58178],[-95.60724,29.58402],[-95.60629,29.58521],[-95.6057,29.58675],[-95.60548,29.59037],[-95.6048,29.59204],[-95.6012,29.59073],[-95.60187,29.58899],[-95.60153,29.58633],[-95.6018,29.58433],[-95.60151,29.58396],[-95.60123,29.58038],[-95.60286,29.57908],[-95.60385,29.57768],[-95.60621,29.57584],[-95.6072,29.57441]]]}},{"type":"Feature","properties":{"PRECINCT":"fort-bend:4026","COUNTY":"Fort Bend"},"geometry":{"type":"Polygon","coordinates":[[[-95.66313,29.59149],[-95.66304,29.59068],[-95.665,29.59046],[-95.66659,29.59068],[-95.66944,29.59151],[-95.67175,29.59163],[-95.67515,29.59101],[-95.67784,29.59011],[-95.681,29.59554],[-95.68334,29.60031],[-95.68342,29.60161],[-95.67555,29.60283],[-95.66538,29.60645],[-95.66468,29.60484],[-95.66439,29.60336],[-95.66451,29.60189],[-95.66505,29.60043],[-95.66299,29.59913],[-95.6611,29.59854],[-95.66054,29.59769],[-95.66061,29.59425],[-95.66114,29.59352],[-95.66273,29.59235],[-95.66313,29.59149]]]}},{"type":"Feature","properties":{"PRECINCT":"fort-bend:4042","COUNTY":"Fort Bend"},"geometry":{"type":"Polygon","coordinates":[[[-95.63076,29.60207],[-95.63096,29.60149],[-95.63392,29.6028],[-95.64943,29.61343],[-95.63834,29.61882],[-95.63544,29.61986],[-95.63382,29.62014],[-95.63185,29.61648],[-95.6289,29.61307],[-95.62801,29.6112],[-95.62801,29.61088],[-95.6293,29.61033],[-95.62999,29.60857],[-95.62985,29.60477],[-95.62895,29.60376],[-95.63076,29.60207]]]}},{"type":"Feature","properties":{"PRECINCT":"fort-bend:4047","COUNTY":"Fort Bend"},"geometry":{"type":"Polygon","coordinates":[[[-95.63736,29.57637],[-95.63889,29.57492],[-95.63975,29.57701],[-95.64026,29.57742],[-95.64037,29.57785],[-95.64036,29.58595],[-95.63481,29.58944],[-95.63147,29.58531],[-95.63094,29.5835],[-95.63042,29.57876],[-95.63123,29.57818],[-95.63232,29.57781],[-95.6347,29.57778],[-95.63556,29.57754],[-95.63736,29.57637]]]}},{"type":"Feature","properties":{"PRECINCT":"fort-bend:4064","COUNTY":"Fort Bend"},"geometry":{"type":"Polygon","coordinates":[[[-95.58931,29.5722],[-95.59292,29.57228],[-95.59614,29.57349],[-95.5983,29.57379],[-95.59804,29.57483],[-95.59628,29.57843],[-95.59598,29.57962],[-95.59604,29.58114],[-95.59744,29.58616],[-95.59737,29.58771],[-95.5969,29.58916],[-95.59348,29.58778],[-95.58955,29.58523],[-95.58931,29.5722]]]}},{"type":"Feature","properties":{"PRECINCT":"fort-bend:4079","COUNTY":"Fort Bend"},"geometry":{"type":"Polygon","coordinates":[[[-95.62049,29.58497],[-95.63042,29.57876],[-95.63108,29.58403],[-95.62822,29.58491],[-95.62721,29.58556],[-95.62548,29.58718],[-95.62413,29.58644],[-95.62115,29.58551],[-95.62049,29.58497]]]}},{"type":"Feature","properties":{"PRECINCT":"fort-bend:4080","COUNTY":"Fort Bend"},"geometry":{"type":"Polygon","coordinates":[[[-95.6265,29.60913],[-95.62362,29.60834],[-95.62281,29.60861],[-95.62036,29.61041],[-95.61954,29.61058],[-95.61822,29.61039],[-95.61744,29.60975],[-95.61729,29.60877],[-95.61769,29.60726],[-95.61925,29.60436],[-95.61939,29.60301],[-95.61901,29.60207],[-95.62347,29.59757],[-95.62636,29.59508],[-95.62862,29.59336],[-95.63989,29.58625],[-95.63988,29.60691],[-95.63392,29.6028],[-95.63096,29.60149],[-95.6304,29.60259],[-95.62895,29.60376],[-95.62968,29.60444],[-95.62989,29.60508],[-95.62999,29.60857],[-95.6293,29.61033],[-95.62801,29.61088],[-95.6265,29.60913]]]}},{"type":"Feature","properties":{"PRECINCT":"fort-bend:4084","COUNTY":"Fort Bend"},"geometry":{"type":"Polygon","coordinates":[[[-95.62236,29.57437],[-95.62652,29.57452],[-95.62814,29.57533],[-95.62972,29.57679],[-95.63042,29.57876],[-95.62049,29.58497],[-95.61984,29.58531],[-95.61886,29.5852],[-95.61789,29.58469],[-95.61721,29.58384],[-95.61467,29.57828],[-95.61621,29.57759],[-95.62053,29.57496],[-95.62236,29.57437]]]}},{"type":"Feature","properties":{"PRECINCT":"fort-bend:4110","COUNTY":"Fort Bend"},"geometry":{"type":"Polygon","coordinates":[[[-95.6057,29.58675],[-95.60629,29.58521],[-95.60724,29.58402],[-95.6098,29.58203],[-95.61217,29.57951],[-95.61467,29.57828],[-95.61721,29.58384],[-95.61826,29.58494],[-95.61967,29.58531],[-95.62051,29.58497],[-95.62115,29.58551],[-95.62413,29.58644],[-95.62548,29.58718],[-95.62721,29.58556],[-95.62822,29.58491],[-95.63108,29.58403],[-95.63177,29.58575],[-95.63481,29.58944],[-95.62862,29.59336],[-95.62636,29.59508],[-95.62255,29.59852],[-95.6048,29.59204],[-95.60555,29.59007],[-95.6057,29.58675]]]}},{"type":"Feature","properties":{"PRECINCT":"fort-bend:4111","COUNTY":"Fort Bend"},"geometry":{"type":"Polygon","coordinates":[[[-95.59628,29.57843],[-95.5983,29.57379],[-95.60011,29.57403],[-95.60366,29.57377],[-95.60519,29.57428],[-95.60656,29.57535],[-95.60586,29.57618],[-95.6035,29.57801],[-95.60286,29.57908],[-95.60123,29.58038],[-95.60151,29.58396],[-95.6018,29.58433],[-95.60153,29.58633],[-95.60187,29.58899],[-95.6012,29.59073],[-95.5969,29.58916],[-95.59737,29.58771],[-95.59744,29.58616],[-95.59604,29.58114],[-95.59598,29.57962],[-95.59628,29.57843]]]}},{"type":"Feature","properties":{"PRECINCT":"fort-bend:4119","COUNTY":"Fort Bend"},"geometry":{"type":"Polygon","coordinates":[[[-95.61048,29.57383],[-95.60641,29.57162],[-95.60393,29.5714],[-95.60066,29.57051],[-95.59943,29.57053],[-95.59771,29.57012],[-95.5933,29.56806],[-95.59305,29.56423],[-95.63841,29.56345],[-95.63861,29.57214],[-95.63889,29.57492],[-95.63736,29.57637],[-95.63556,29.57754],[-95.6347,29.57778],[-95.63232,29.57781],[-95.63123,29.57818],[-95.63042,29.57876],[-95.62972,29.57679],[-95.62901,29.576],[-95.62756,29.57496],[-95.62565,29.57434],[-95.62292,29.57431],[-95.62053,29.57496],[-95.61621,29.57759],[-95.61467,29.57828],[-95.61267,29.57555],[-95.61048,29.57383]]]}},{"type":"Feature","properties":{"PRECINCT":"fort-bend:4131","COUNTY":"Fort Bend"},"geometry":{"type":"Polygon","coordinates":[[[-95.58182,29.57466],[-95.58123,29.57142],[-95.58111,29.56883],[-95.58506,29.56574],[-95.58977,29.56735],[-95.59342,29.56809],[-95.59771,29.57012],[-95.59943,29.57053],[-95.60066,29.57051],[-95.60393,29.5714],[-95.60641,29.57162],[-95.60896,29.57308],[-95.6072,29.57441],[-95.60656,29.57535],[-95.60519,29.57428],[-95.60366,29.57377],[-95.59959,29.57399],[-95.59614,29.57349],[-95.59292,29.57228],[-95.58931,29.5722],[-95.58955,29.58523],[-95.58283,29.58058],[-95.58425,29.57869],[-95.5847,29.577],[-95.58416,29.57681],[-95.58182,29.57466]]]}},{"type":"Feature","properties":{"PRECINCT":"fort-bend:4135","COUNTY":"Fort Bend"},"geometry":{"type":"Polygon","coordinates":[[[-95.64903,29.59995],[-95.64754,29.5753],[-95.64714,29.57402],[-95.64364,29.56784],[-95.64266,29.56662],[-95.64075,29.56517],[-95.63992,29.56392],[-95.63961,29.56274],[-95.63965,29.55658],[-95.63907,29.55515],[-95.63763,29.55415],[-95.63768,29.54988],[-95.64364,29.55098],[-95.64436,29.55135],[-95.64498,29.55206],[-95.64505,29.55252],[-95.64403,29.55748],[-95.64451,29.55933],[-95.64644,29.56078],[-95.64829,29.56139],[-95.6522,29.56218],[-95.65718,29.5639],[-95.65805,29.56443],[-95.66024,29.56426],[-95.66402,29.56469],[-95.66553,29.56535],[-95.66662,29.56618],[-95.66747,29.56692],[-95.66838,29.56842],[-95.66768,29.57137],[-95.66781,29.57233],[-95.6673,29.57366],[-95.66772,29.57621],[-95.66829,29.57728],[-95.66937,29.57831],[-95.67162,29.57948],[-95.67536,29.58048],[-95.67815,29.58227],[-95.67713,29.58713],[-95.67735,29.58896],[-95.67784,29.59011],[-95.67432,29.59122],[-95.67139,29.59165],[-95.66944,29.59151],[-95.66558,29.5905],[-95.66304,29.59068],[-95.66315,29.59137],[-95.66291,29.59213],[-95.66068,29.5941],[-95.66045,29.59506],[-95.66073,29.59817],[-95.66142,29.59871],[-95.66299,29.59913],[-95.66505,29.60043],[-95.66451,29.60189],[-95.66439,29.60336],[-95.66468,29.60484],[-95.66538,29.60645],[-95.65896,29.60876],[-95.64943,29.61343],[-95.643,29.60904],[-95.64724,29.60455],[-95.64854,29.60235],[-95.64903,29.59995]]]}},{"type":"Feature","properties":{"PRECINCT":"fort-bend:4158","COUNTY":"Fort Bend"},"geometry":{"type":"Polygon","coordinates":[[[-95.63988,29.60691],[-95.63989,29.58625],[-95.64036,29.58595],[-95.64026,29.57945],[-95.64043,29.5783],[-95.64026,29.57742],[-95.63975,29.57701],[-95.63891,29.57506],[-95.63872,29.57355],[-95.63837,29.56271],[-95.63755,29.55934],[-95.63763,29.55415],[-95.63879,29.55486],[-95.63955,29.55602],[-95.63961,29.56274],[-95.63992,29.56392],[-95.64075,29.56517],[-95.64266,29.56662],[-95.64364,29.56784],[-95.64714,29.57402],[-95.64768,29.5761],[-95.64898,29.60073],[-95.64854,29.60235],[-95.64773,29.60393],[-95.643,29.60904],[-95.63988,29.60691]]]}}]}