{"type":"FeatureCollection","features":[{"type":"Feature","properties":{"PRECINCT":"1","VTD":"0001"},"geometry":{"type":"Polygon","coordinates":[[[-98.235497,28.057966],[-98.234491,27.759883],[-98.234166,27.743745],[-98.247263,27.743674],[-98.246716,27.747006],[-98.247036,27.747007],[-98.24678,27.748442],[-98.246268,27.749471],[-98.24645,27.74966],[-98.246368,27.750205],[-98.245785,27.75031],[-98.250146,27.751617],[-98.249819,27.752976],[-98.247953,27.752322],[-98.246876,27.755948],[-98.244825,27.755304],[-98.244725,27.756216],[-98.246053,27.7566],[-98.244776,27.760513],[-98.247049,27.761089],[-98.24642,27.762961],[-98.24766,27.763338],[-98.247071,27.765176],[-98.239189,27.763154],[-98.236936,27.770101],[-98.235907,27.769814],[-98.235424,27.771325],[-98.245519,27.773721],[-98.244963,27.771909],[-98.246758,27.766163],[-98.274618,27.773345],[-98.274017,27.778396],[-98.274623,27.778886],[-98.275783,27.779147],[-98.27572,27.779932],[-98.275581,27.780895],[-98.27508,27.781812],[-98.275095,27.785269],[-98.274012,27.785097],[-98.273919,27.78523],[-98.27249,27.792466],[-98.267198,27.791769],[-98.26677,27.793403],[-98.264093,27.793077],[-98.262789,27.795161],[-98.263462,27.796251],[-98.278077,27.813781],[-98.292347,27.827259],[-98.301896,27.844685],[-98.316322,27.862625],[-98.320298,27.866978],[-98.327623,27.876083],[-98.331596,27.880498],[-98.334865,27.884804],[-98.3423,27.895467],[-98.364299,27.924585],[-98.378655,27.936523],[-98.388599,27.945969],[-98.390985,27.947475],[-98.410187,27.966046],[-98.423947,27.978842],[-98.449053,27.997866],[-98.46019,28.00148],[-98.443832,28.012441],[-98.37778,28.057695],[-98.235497,28.057966]]]}},{"type":"Feature","properties":{"PRECINCT":"2","VTD":"0002"},"geometry":{"type":"Polygon","coordinates":[[[-98.617812,27.831121],[-98.617205,27.828533],[-98.616461,27.826821],[-98.61552,27.824899],[-98.613915,27.82263],[-98.504167,27.703578],[-98.503773,27.703925],[-98.503174,27.705786],[-98.500997,27.704334],[-98.500397,27.704147],[-98.498266,27.704275],[-98.496565,27.703555],[-98.467299,27.67895],[-98.454842,27.687718],[-98.446133,27.691711],[-98.438012,27.696649],[-98.438117,27.696889],[-98.437679,27.697886],[-98.438255,27.704397],[-98.43948,27.707673],[-98.439249,27.708125],[-98.439961,27.711295],[-98.441373,27.7108],[-98.441581,27.710491],[-98.445395,27.70813],[-98.446431,27.707976],[-98.449913,27.711581],[-98.449724,27.713263],[-98.445359,27.716967],[-98.435694,27.721111],[-98.431114,27.711168],[-98.429925,27.710165],[-98.428188,27.709889],[-98.425653,27.708123],[-98.42083,27.706862],[-98.420101,27.706224],[-98.418326,27.705365],[-98.418104,27.704853],[-98.417405,27.704501],[-98.414004,27.704506],[-98.413164,27.70423],[-98.411884,27.704285],[-98.410956,27.704577],[-98.410294,27.705121],[-98.408925,27.705333],[-98.409407,27.714819],[-98.409915,27.717188],[-98.410698,27.718645],[-98.415532,27.723842],[-98.413505,27.723827],[-98.411817,27.723265],[-98.410111,27.722236],[-98.408929,27.72207],[-98.40768,27.721509],[-98.406908,27.721558],[-98.404181,27.720281],[-98.40279,27.719383],[-98.399761,27.715332],[-98.397783,27.714215],[-98.396781,27.713169],[-98.393988,27.709585],[-98.393519,27.708446],[-98.390675,27.706222],[-98.389686,27.705677],[-98.388437,27.705374],[-98.386948,27.703898],[-98.385638,27.70349],[-98.382997,27.704612],[-98.381872,27.704177],[-98.380932,27.704088],[-98.38011,27.704143],[-98.37933,27.704528],[-98.378576,27.704528],[-98.377624,27.704214],[-98.375708,27.703085],[-98.373042,27.70269],[-98.371867,27.701964],[-98.370636,27.701645],[-98.369455,27.700177],[-98.36946,27.699604],[-98.369213,27.69934],[-98.368026,27.698713],[-98.366585,27.698587],[-98.3658,27.698142],[-98.336602,27.695841],[-98.330336,27.697265],[-98.32727,27.698674],[-98.324989,27.698388],[-98.32293,27.698713],[-98.321577,27.698528],[-98.31463,27.699228],[-98.31356,27.699682],[-98.31161,27.69933],[-98.311515,27.698402],[-98.311072,27.698069],[-98.296956,27.697781],[-98.366912,27.626595],[-98.351381,27.626635],[-98.351326,27.622047],[-98.330939,27.622334],[-98.330637,27.598269],[-98.323509,27.598326],[-98.323291,27.587728],[-98.32614,27.587804],[-98.33056,27.588412],[-98.35756,27.587756],[-98.380812,27.594647],[-98.38191,27.594778],[-98.385294,27.594601],[-98.385368,27.594301],[-98.38761,27.593928],[-98.389321,27.593015],[-98.390513,27.592746],[-98.391749,27.592779],[-98.393015,27.593308],[-98.394205,27.593226],[-98.394299,27.591339],[-98.398447,27.591196],[-98.39973,27.590399],[-98.4012,27.590548],[-98.402683,27.589624],[-98.402782,27.588886],[-98.403548,27.588154],[-98.403628,27.58767],[-98.404264,27.587935],[-98.405722,27.587258],[-98.406914,27.58739],[-98.407526,27.586972],[-98.407769,27.5863],[-98.408326,27.586283],[-98.408294,27.560289],[-98.448858,27.559836],[-98.449024,27.563036],[-98.448632,27.563604],[-98.448911,27.564327],[-98.448964,27.567164],[-98.450037,27.567006],[-98.450347,27.567577],[-98.451274,27.567998],[-98.45156,27.568631],[-98.462305,27.559642],[-98.463676,27.55796],[-98.484017,27.503975],[-98.495617,27.503926],[-98.496233,27.503957],[-98.496694,27.504251],[-98.498921,27.50901],[-98.499399,27.509473],[-98.498602,27.510735],[-98.497382,27.511746],[-98.496987,27.512887],[-98.495889,27.514537],[-98.495896,27.538559],[-98.495704,27.538873],[-98.495934,27.538977],[-98.495997,27.574008],[-98.493748,27.574186],[-98.494273,27.574737],[-98.494045,27.575073],[-98.494311,27.576124],[-98.494064,27.576839],[-98.494355,27.577532],[-98.495628,27.57811],[-98.495979,27.577521],[-98.49643,27.577493],[-98.497042,27.578175],[-98.49848,27.577371],[-98.498653,27.577454],[-98.498511,27.577822],[-98.500061,27.577744],[-98.500579,27.578625],[-98.50321,27.579721],[-98.503073,27.580321],[-98.504184,27.581581],[-98.505277,27.581829],[-98.50595,27.582292],[-98.507203,27.583712],[-98.507815,27.583982],[-98.508228,27.585083],[-98.510254,27.585794],[-98.509734,27.586476],[-98.509994,27.586867],[-98.512081,27.587522],[-98.513884,27.587809],[-98.51475,27.588657],[-98.566811,27.5878],[-98.627266,27.587215],[-98.629284,27.58713],[-98.63076,27.58682],[-98.655618,27.575909],[-98.655739,27.560826],[-98.655137,27.51745],[-98.656911,27.509119],[-98.670749,27.472221],[-98.671028,27.470423],[-98.671098,27.457207],[-98.798895,27.457234],[-98.799179,27.500304],[-98.800822,27.616923],[-98.787669,27.617058],[-98.772613,27.616782],[-98.748735,27.616962],[-98.747669,27.61714],[-98.722087,27.617568],[-98.656634,27.618245],[-98.65714,27.65041],[-98.656799,27.652338],[-98.655516,27.654813],[-98.626372,27.701457],[-98.625642,27.703773],[-98.625162,27.752708],[-98.624766,27.754317],[-98.619055,27.769914],[-98.618785,27.771332],[-98.618058,27.830385],[-98.618041,27.831126],[-98.617812,27.831121]]]}},{"type":"Feature","properties":{"PRECINCT":"3","VTD":"0003"},"geometry":{"type":"Polygon","coordinates":[[[-98.381617,27.594781],[-98.35756,27.587756],[-98.330576,27.588412],[-98.325511,27.58776],[-98.314225,27.587771],[-98.31261,27.587248],[-98.306765,27.583901],[-98.304845,27.583489],[-98.297093,27.583118],[-98.266455,27.58317],[-98.246187,27.583457],[-98.243569,27.582818],[-98.243557,27.583736],[-98.235396,27.584262],[-98.23521,27.584008],[-98.234627,27.584013],[-98.234429,27.583716],[-98.23401,27.585248],[-98.233656,27.585356],[-98.233141,27.487317],[-98.232464,27.262487],[-98.385503,27.263824],[-98.376518,27.426415],[-98.382494,27.426626],[-98.385447,27.429518],[-98.40639,27.428786],[-98.407516,27.432641],[-98.407797,27.43468],[-98.407844,27.43845],[-98.408326,27.586283],[-98.407769,27.5863],[-98.407526,27.586972],[-98.406914,27.58739],[-98.405722,27.587258],[-98.404264,27.587935],[-98.403628,27.58767],[-98.403548,27.588154],[-98.402782,27.588886],[-98.402683,27.589624],[-98.4012,27.590548],[-98.39973,27.590399],[-98.398447,27.591196],[-98.394299,27.591339],[-98.394102,27.593248],[-98.393015,27.593308],[-98.391749,27.592779],[-98.390513,27.592746],[-98.389321,27.593015],[-98.38761,27.593928],[-98.385368,27.594301],[-98.385294,27.594601],[-98.381617,27.594781]]]}},{"type":"Feature","properties":{"PRECINCT":"4","VTD":"0004"},"geometry":{"type":"Polygon","coordinates":[[[-98.449872,27.566947],[-98.448964,27.567164],[-98.448911,27.564327],[-98.448632,27.563604],[-98.449024,27.563036],[-98.448858,27.559836],[-98.408294,27.560289],[-98.407825,27.435307],[-98.407516,27.432641],[-98.40639,27.428786],[-98.385447,27.429518],[-98.382494,27.426626],[-98.376518,27.426415],[-98.385503,27.263824],[-98.523284,27.26515],[-98.522619,27.3034],[-98.523,27.318177],[-98.522293,27.343284],[-98.552448,27.343764],[-98.552617,27.359101],[-98.589537,27.358695],[-98.589478,27.338236],[-98.624893,27.338067],[-98.624915,27.341262],[-98.620904,27.343947],[-98.602025,27.359483],[-98.598535,27.363493],[-98.598307,27.363303],[-98.585164,27.378835],[-98.574528,27.399985],[-98.571313,27.411216],[-98.534992,27.440376],[-98.532643,27.440237],[-98.529959,27.442615],[-98.528021,27.441241],[-98.527747,27.440249],[-98.527022,27.440457],[-98.527306,27.443051],[-98.52837,27.444333],[-98.527728,27.444786],[-98.522939,27.444813],[-98.522875,27.450471],[-98.500804,27.465896],[-98.499406,27.467019],[-98.497337,27.469312],[-98.49606,27.47129],[-98.49509,27.473598],[-98.492426,27.484424],[-98.487602,27.494489],[-98.463676,27.55796],[-98.462305,27.559642],[-98.45156,27.568631],[-98.451274,27.567998],[-98.450347,27.567577],[-98.449872,27.566947]]]}},{"type":"Feature","properties":{"PRECINCT":"5","VTD":"0005"},"geometry":{"type":"Polygon","coordinates":[[[-98.423947,27.978842],[-98.390623,27.947146],[-98.388599,27.945969],[-98.378655,27.936523],[-98.364299,27.924585],[-98.3423,27.895467],[-98.334865,27.884804],[-98.331596,27.880498],[-98.327623,27.876083],[-98.320298,27.866978],[-98.316322,27.862625],[-98.301896,27.844685],[-98.292347,27.827259],[-98.278077,27.813781],[-98.263462,27.796251],[-98.262789,27.795161],[-98.264049,27.793107],[-98.266714,27.793434],[-98.267198,27.791769],[-98.27249,27.792466],[-98.273919,27.78523],[-98.274012,27.785097],[-98.275095,27.785269],[-98.27508,27.781812],[-98.275581,27.780895],[-98.27572,27.779932],[-98.275783,27.779147],[-98.274623,27.778886],[-98.274017,27.778396],[-98.274618,27.773345],[-98.252016,27.767514],[-98.252319,27.767113],[-98.252326,27.76642],[-98.251652,27.764835],[-98.250743,27.764163],[-98.249207,27.763889],[-98.248068,27.762998],[-98.247665,27.761336],[-98.24782,27.760627],[-98.248599,27.759762],[-98.248852,27.75903],[-98.248932,27.758177],[-98.24848,27.757666],[-98.249591,27.755155],[-98.250294,27.754133],[-98.260104,27.745628],[-98.261217,27.744109],[-98.255554,27.739958],[-98.296956,27.697781],[-98.311072,27.698069],[-98.311515,27.698402],[-98.31161,27.69933],[-98.31356,27.699682],[-98.31463,27.699228],[-98.321577,27.698528],[-98.32293,27.698713],[-98.324989,27.698388],[-98.32727,27.698674],[-98.330336,27.697265],[-98.336602,27.695841],[-98.3658,27.698142],[-98.366585,27.698587],[-98.368026,27.698713],[-98.369213,27.69934],[-98.36946,27.699604],[-98.369455,27.700177],[-98.370636,27.701645],[-98.371867,27.701964],[-98.373042,27.70269],[-98.375708,27.703085],[-98.377624,27.704214],[-98.378576,27.704528],[-98.37933,27.704528],[-98.38011,27.704143],[-98.380932,27.704088],[-98.381872,27.704177],[-98.382997,27.704612],[-98.385638,27.70349],[-98.386948,27.703898],[-98.388437,27.705374],[-98.389686,27.705677],[-98.390675,27.706222],[-98.393519,27.708446],[-98.393988,27.709585],[-98.396781,27.713169],[-98.397783,27.714215],[-98.399761,27.715332],[-98.40279,27.719383],[-98.404181,27.720281],[-98.406908,27.721558],[-98.40768,27.721509],[-98.408929,27.72207],[-98.410111,27.722236],[-98.411817,27.723265],[-98.413505,27.723827],[-98.415532,27.723842],[-98.410698,27.718645],[-98.409915,27.717188],[-98.409407,27.714819],[-98.408925,27.705333],[-98.410294,27.705121],[-98.410956,27.704577],[-98.411884,27.704285],[-98.413164,27.70423],[-98.414004,27.704506],[-98.417405,27.704501],[-98.418104,27.704853],[-98.418326,27.705365],[-98.420101,27.706224],[-98.42083,27.706862],[-98.425653,27.708123],[-98.428188,27.709889],[-98.429925,27.710165],[-98.431114,27.711168],[-98.435694,27.721111],[-98.445359,27.716967],[-98.449724,27.713263],[-98.449913,27.711581],[-98.446431,27.707976],[-98.445395,27.70813],[-98.441581,27.710491],[-98.441373,27.7108],[-98.439961,27.711295],[-98.439249,27.708125],[-98.43948,27.707673],[-98.438255,27.704397],[-98.437679,27.697886],[-98.438117,27.696889],[-98.438012,27.696649],[-98.446133,27.691711],[-98.454842,27.687718],[-98.467299,27.67895],[-98.496565,27.703555],[-98.498266,27.704275],[-98.500397,27.704147],[-98.500997,27.704334],[-98.503174,27.705786],[-98.503773,27.703925],[-98.504167,27.703578],[-98.571564,27.776774],[-98.56912,27.777069],[-98.56911,27.777624],[-98.567611,27.779633],[-98.567135,27.780971],[-98.566193,27.781596],[-98.565897,27.783139],[-98.565285,27.784118],[-98.564431,27.784729],[-98.562581,27.785423],[-98.562147,27.786],[-98.560248,27.787473],[-98.560391,27.809065],[-98.552265,27.80934],[-98.552327,27.816632],[-98.560705,27.816165],[-98.561011,27.860113],[-98.558423,27.860204],[-98.558727,27.865404],[-98.562357,27.865391],[-98.562537,27.871782],[-98.569294,27.876289],[-98.571697,27.877627],[-98.582495,27.882029],[-98.58478,27.882713],[-98.58721,27.882967],[-98.595435,27.882908],[-98.594501,27.884605],[-98.568159,27.91788],[-98.541667,27.945018],[-98.531013,27.9563],[-98.529085,27.957783],[-98.46019,28.00148],[-98.449483,27.998062],[-98.448782,27.99768],[-98.423947,27.978842]]]}},{"type":"Feature","properties":{"PRECINCT":"6","VTD":"0006"},"geometry":{"type":"Polygon","coordinates":[[[-98.513952,27.587848],[-98.509994,27.586867],[-98.509734,27.586476],[-98.510254,27.585794],[-98.508228,27.585083],[-98.507815,27.583982],[-98.507203,27.583712],[-98.50595,27.582292],[-98.505277,27.581829],[-98.504184,27.581581],[-98.503073,27.580321],[-98.50321,27.579721],[-98.500579,27.578625],[-98.500061,27.577744],[-98.498511,27.577822],[-98.498653,27.577454],[-98.49848,27.577371],[-98.497042,27.578175],[-98.496795,27.578098],[-98.496603,27.577553],[-98.496084,27.577477],[-98.49556,27.578104],[-98.494269,27.577477],[-98.494071,27.576922],[-98.494311,27.576124],[-98.494045,27.575073],[-98.494273,27.574737],[-98.493748,27.574186],[-98.495997,27.574008],[-98.495934,27.538977],[-98.495704,27.538873],[-98.495896,27.538559],[-98.495889,27.514537],[-98.496987,27.512887],[-98.497382,27.511746],[-98.498602,27.510735],[-98.499399,27.509473],[-98.498921,27.50901],[-98.496991,27.504736],[-98.496333,27.503989],[-98.484017,27.503975],[-98.487602,27.494489],[-98.492426,27.484424],[-98.49475,27.474781],[-98.495595,27.472239],[-98.497337,27.469312],[-98.498557,27.46786],[-98.500382,27.466213],[-98.522875,27.450471],[-98.522939,27.444813],[-98.527728,27.444786],[-98.52837,27.444333],[-98.527306,27.443051],[-98.527022,27.440457],[-98.527747,27.440249],[-98.528021,27.441241],[-98.529959,27.442615],[-98.532643,27.440237],[-98.534992,27.440376],[-98.571313,27.411216],[-98.574528,27.399985],[-98.585164,27.378835],[-98.598307,27.363303],[-98.598535,27.363493],[-98.602025,27.359483],[-98.620904,27.343947],[-98.624915,27.341262],[-98.624893,27.338067],[-98.624929,27.338067],[-98.625027,27.357727],[-98.749377,27.35667],[-98.749467,27.354471],[-98.750298,27.354378],[-98.798323,27.354029],[-98.798895,27.457234],[-98.671098,27.457207],[-98.671028,27.470423],[-98.670749,27.472221],[-98.656911,27.509119],[-98.655137,27.51745],[-98.655739,27.560826],[-98.655618,27.575909],[-98.631917,27.586406],[-98.628874,27.587173],[-98.566811,27.5878],[-98.51475,27.588657],[-98.513952,27.587848]]]}},{"type":"Feature","properties":{"PRECINCT":"7","VTD":"0007"},"geometry":{"type":"Polygon","coordinates":[[[-98.562537,27.871782],[-98.562357,27.865391],[-98.558727,27.865404],[-98.558423,27.860204],[-98.561011,27.860113],[-98.560705,27.816165],[-98.552327,27.816632],[-98.552265,27.80934],[-98.560391,27.809065],[-98.560248,27.787473],[-98.562147,27.786],[-98.562581,27.785423],[-98.564431,27.784729],[-98.565285,27.784118],[-98.565897,27.783139],[-98.566193,27.781596],[-98.567135,27.780971],[-98.567611,27.779633],[-98.56911,27.777624],[-98.56912,27.777069],[-98.571564,27.776774],[-98.613915,27.82263],[-98.615878,27.825563],[-98.617205,27.828533],[-98.617812,27.831121],[-98.618041,27.831126],[-98.618785,27.771332],[-98.619055,27.769914],[-98.624766,27.754317],[-98.625162,27.752708],[-98.625642,27.703773],[-98.626372,27.701457],[-98.655516,27.654813],[-98.656799,27.652338],[-98.65714,27.65041],[-98.656634,27.618245],[-98.722087,27.617568],[-98.747669,27.61714],[-98.748735,27.616962],[-98.772613,27.616782],[-98.787669,27.617058],[-98.800822,27.616923],[-98.801059,27.653092],[-98.802335,27.750014],[-98.801947,27.7503],[-98.802282,27.792957],[-98.798394,27.794651],[-98.796825,27.795709],[-98.75154,27.84084],[-98.749872,27.842233],[-98.747836,27.843519],[-98.744443,27.844966],[-98.643345,27.88127],[-98.640344,27.882148],[-98.63836,27.882452],[-98.629557,27.882588],[-98.629283,27.879732],[-98.628748,27.878196],[-98.627407,27.870916],[-98.627353,27.869072],[-98.626702,27.868742],[-98.626674,27.868148],[-98.613745,27.868284],[-98.600807,27.868118],[-98.601161,27.882868],[-98.58721,27.882967],[-98.585084,27.882775],[-98.583473,27.882382],[-98.571039,27.87731],[-98.562537,27.871782]]]}},{"type":"Feature","properties":{"PRECINCT":"8","VTD":"0008"},"geometry":{"type":"Polygon","coordinates":[[[-98.37778,28.057695],[-98.456713,28.003672],[-98.514147,27.967314],[-98.529085,27.957783],[-98.531013,27.9563],[-98.541667,27.945018],[-98.568159,27.91788],[-98.594501,27.884605],[-98.595435,27.882908],[-98.601161,27.882868],[-98.600807,27.868118],[-98.613745,27.868284],[-98.626674,27.868148],[-98.626702,27.868742],[-98.627353,27.869072],[-98.627407,27.870916],[-98.628748,27.878196],[-98.629283,27.879732],[-98.629557,27.882588],[-98.637397,27.88252],[-98.639574,27.882283],[-98.643345,27.88127],[-98.744443,27.844966],[-98.747836,27.843519],[-98.750991,27.841339],[-98.796292,27.79621],[-98.79806,27.794827],[-98.802282,27.792957],[-98.802871,27.945529],[-98.80255,27.954164],[-98.803325,28.05748],[-98.566106,28.057127],[-98.499167,28.05754],[-98.37778,28.057695]]]}},{"type":"Feature","properties":{"PRECINCT":"9","VTD":"0009"},"geometry":{"type":"Polygon","coordinates":[[[-98.235424,27.771325],[-98.235907,27.769814],[-98.236936,27.770101],[-98.239189,27.763154],[-98.247071,27.765176],[-98.24766,27.763338],[-98.24642,27.762961],[-98.247049,27.761089],[-98.244776,27.760513],[-98.246053,27.7566],[-98.244725,27.756216],[-98.244825,27.755304],[-98.246876,27.755948],[-98.247953,27.752322],[-98.249819,27.752976],[-98.250146,27.751617],[-98.245785,27.75031],[-98.246368,27.750205],[-98.24645,27.74966],[-98.246268,27.749471],[-98.24678,27.748442],[-98.247036,27.747007],[-98.246716,27.747006],[-98.247263,27.743674],[-98.234166,27.743745],[-98.234443,27.728054],[-98.234133,27.711332],[-98.233716,27.704918],[-98.233656,27.585356],[-98.23401,27.585248],[-98.234429,27.583716],[-98.234627,27.584013],[-98.23521,27.584008],[-98.235396,27.584262],[-98.243557,27.583736],[-98.243569,27.582818],[-98.245437,27.583366],[-98.247073,27.583466],[-98.266455,27.58317],[-98.297093,27.583118],[-98.304845,27.583489],[-98.30634,27.583737],[-98.31261,27.587248],[-98.313885,27.58772],[-98.323291,27.587728],[-98.323509,27.598326],[-98.330637,27.598269],[-98.330939,27.622334],[-98.351326,27.622047],[-98.351381,27.626635],[-98.366912,27.626595],[-98.255554,27.739958],[-98.261217,27.744109],[-98.260104,27.745628],[-98.250294,27.754133],[-98.249591,27.755155],[-98.24848,27.757666],[-98.248932,27.758177],[-98.248852,27.75903],[-98.248599,27.759762],[-98.24782,27.760627],[-98.247665,27.761336],[-98.248068,27.762998],[-98.249207,27.763889],[-98.250743,27.764163],[-98.251652,27.764835],[-98.252326,27.76642],[-98.252319,27.767113],[-98.252016,27.767514],[-98.246758,27.766163],[-98.244963,27.771909],[-98.245519,27.773721],[-98.235424,27.771325]]]}}]}