{"type":"FeatureCollection","features":[{"type":"Feature","properties":{"PRECINCT":"1","VTD":"0001"},"geometry":{"type":"Polygon","coordinates":[[[-97.843105,28.24249],[-97.829839,28.219159],[-97.808774,28.183415],[-97.821055,28.174227],[-97.821443,28.174159],[-97.836046,28.163538],[-97.838292,28.162189],[-97.873616,28.136146],[-97.904081,28.114228],[-97.907624,28.115165],[-97.909326,28.116131],[-97.911405,28.118602],[-97.912978,28.119998],[-97.915293,28.122682],[-97.915779,28.124402],[-97.915412,28.126875],[-97.915529,28.126768],[-97.914919,28.12795],[-97.913701,28.129458],[-97.91054,28.131612],[-97.909322,28.133011],[-97.908955,28.135054],[-97.910167,28.136343],[-97.911631,28.138814],[-97.913095,28.139995],[-97.914668,28.142358],[-97.919896,28.146545],[-97.920745,28.147834],[-97.921357,28.150306],[-97.921355,28.151597],[-97.92209,28.155788],[-97.921597,28.157402],[-97.917581,28.16117],[-97.915871,28.163106],[-97.913928,28.164722],[-97.911965,28.166874],[-97.91069,28.169198],[-97.910432,28.170835],[-97.910447,28.173295],[-97.909323,28.177028],[-97.910414,28.180565],[-97.91761,28.192577],[-97.920344,28.195265],[-97.922687,28.1982],[-97.919124,28.204051],[-97.91925,28.204804],[-97.919003,28.206202],[-97.917221,28.206969],[-97.919953,28.20748],[-97.921574,28.208421],[-97.921878,28.2089],[-97.922114,28.208818],[-97.922332,28.209093],[-97.922562,28.208884],[-97.923065,28.209538],[-97.878529,28.228204],[-97.87368,28.228769],[-97.872374,28.229285],[-97.870982,28.230165],[-97.866367,28.227733],[-97.865608,28.227708],[-97.853477,28.244798],[-97.856762,28.256732],[-97.853076,28.258682],[-97.847904,28.249727],[-97.846153,28.246954],[-97.845225,28.246223],[-97.84347,28.242771],[-97.843105,28.24249]]]}},{"type":"Feature","properties":{"PRECINCT":"2","VTD":"0002"},"geometry":{"type":"Polygon","coordinates":[[[-97.95438,28.151513],[-97.952809,28.150644],[-97.950971,28.150154],[-97.950357,28.150605],[-97.949625,28.150776],[-97.947733,28.150471],[-97.946498,28.149654],[-97.945291,28.149407],[-97.944209,28.148817],[-97.943182,28.149274],[-97.941845,28.148845],[-97.941149,28.148117],[-97.940198,28.148302],[-97.939812,28.147938],[-97.939449,28.146822],[-97.939552,28.146344],[-97.940346,28.145271],[-97.940419,28.143789],[-97.940007,28.143154],[-97.938078,28.142703],[-97.938693,28.141539],[-97.939232,28.141241],[-97.940745,28.139622],[-97.941535,28.136749],[-97.942381,28.13554],[-97.942354,28.13513],[-97.941531,28.134835],[-97.939187,28.132198],[-97.937536,28.129148],[-97.937713,28.127827],[-97.938661,28.126754],[-97.939405,28.12641],[-97.941087,28.12642],[-97.941652,28.125986],[-97.939853,28.125582],[-97.938934,28.125516],[-97.93755,28.126099],[-97.937602,28.125288],[-97.937234,28.125285],[-97.937035,28.12611],[-97.937283,28.126517],[-97.937507,28.126506],[-97.936595,28.127623],[-97.936284,28.12868],[-97.936483,28.130226],[-97.937861,28.132454],[-97.936495,28.132548],[-97.936737,28.132779],[-97.937352,28.1329],[-97.937556,28.132757],[-97.938605,28.133186],[-97.93873,28.13405],[-97.939369,28.134077],[-97.939518,28.134429],[-97.939909,28.134583],[-97.939803,28.134848],[-97.940325,28.13575],[-97.939561,28.13641],[-97.939537,28.13668],[-97.939145,28.136801],[-97.938723,28.13679],[-97.938543,28.136311],[-97.938196,28.136619],[-97.938159,28.136157],[-97.937836,28.136333],[-97.937445,28.136196],[-97.937439,28.135986],[-97.937023,28.135915],[-97.93693,28.13613],[-97.93672,28.135828],[-97.936452,28.135871],[-97.936781,28.136168],[-97.936545,28.136141],[-97.936607,28.136278],[-97.93706,28.136449],[-97.936557,28.136509],[-97.936874,28.136757],[-97.936663,28.136801],[-97.936657,28.137114],[-97.937314,28.136916],[-97.936954,28.137164],[-97.936948,28.137483],[-97.937234,28.137203],[-97.937314,28.137489],[-97.938376,28.137687],[-97.938332,28.137984],[-97.938668,28.138143],[-97.938736,28.138457],[-97.938363,28.139679],[-97.937575,28.139998],[-97.937184,28.140592],[-97.937389,28.14096],[-97.93693,28.141065],[-97.937029,28.141313],[-97.936433,28.141835],[-97.936284,28.142435],[-97.93562,28.14265],[-97.936005,28.142875],[-97.935688,28.145384],[-97.935229,28.145984],[-97.9348,28.14589],[-97.935291,28.146474],[-97.934105,28.147855],[-97.933248,28.147337],[-97.933031,28.146639],[-97.932683,28.146441],[-97.932323,28.146479],[-97.932193,28.14676],[-97.931634,28.146595],[-97.931957,28.147277],[-97.931833,28.147458],[-97.931591,28.147453],[-97.93143,28.14704],[-97.930548,28.146919],[-97.930132,28.146347],[-97.930076,28.146919],[-97.930511,28.147469],[-97.930219,28.147761],[-97.928357,28.147794],[-97.927717,28.147568],[-97.928003,28.145439],[-97.927078,28.144421],[-97.927004,28.143948],[-97.9276,28.141642],[-97.927135,28.13986],[-97.927166,28.139684],[-97.927575,28.139706],[-97.927197,28.13937],[-97.92765,28.139062],[-97.927116,28.138919],[-97.927296,28.138611],[-97.926222,28.136663],[-97.925695,28.136718],[-97.926353,28.13795],[-97.925273,28.137273],[-97.925416,28.136663],[-97.925242,28.136206],[-97.92549,28.136052],[-97.925068,28.13554],[-97.925087,28.134825],[-97.924758,28.133978],[-97.924044,28.133048],[-97.920954,28.131248],[-97.919868,28.129751],[-97.919886,28.129267],[-97.920184,28.129075],[-97.920706,28.129124],[-97.921035,28.129564],[-97.921711,28.12973],[-97.922276,28.129383],[-97.922295,28.129146],[-97.921922,28.129482],[-97.921481,28.129454],[-97.921004,28.129229],[-97.920073,28.128095],[-97.919216,28.128095],[-97.919018,28.127231],[-97.918298,28.126197],[-97.917727,28.125955],[-97.917615,28.125294],[-97.917191,28.124721],[-97.91739,28.124407],[-97.917241,28.123301],[-97.917582,28.122778],[-97.918576,28.122399],[-97.919146,28.12279],[-97.919929,28.121794],[-97.919103,28.1223],[-97.918265,28.121673],[-97.917986,28.121942],[-97.917552,28.121937],[-97.91731,28.120913],[-97.917446,28.120495],[-97.919072,28.120561],[-97.919786,28.119742],[-97.920481,28.119538],[-97.920922,28.118405],[-97.921599,28.117728],[-97.9215,28.117458],[-97.921829,28.117381],[-97.921717,28.117205],[-97.921915,28.117315],[-97.921909,28.117062],[-97.922244,28.116903],[-97.924081,28.1166],[-97.921934,28.11671],[-97.921841,28.116325],[-97.922344,28.11561],[-97.922431,28.11474],[-97.921245,28.116941],[-97.921016,28.116842],[-97.920569,28.117227],[-97.920116,28.116935],[-97.92024,28.117337],[-97.919402,28.11808],[-97.919334,28.11869],[-97.917887,28.118982],[-97.917652,28.117815],[-97.916411,28.116748],[-97.916318,28.11644],[-97.916057,28.11655],[-97.913569,28.11546],[-97.913992,28.112995],[-97.913613,28.11398],[-97.913302,28.114128],[-97.913036,28.113913],[-97.913234,28.114535],[-97.912942,28.114909],[-97.91262,28.114942],[-97.910156,28.113957],[-97.91043,28.113165],[-97.909809,28.112603],[-97.90935,28.112845],[-97.909164,28.113346],[-97.908766,28.113263],[-97.908543,28.112823],[-97.908214,28.11279],[-97.907984,28.113043],[-97.907079,28.112801],[-97.90701,28.112531],[-97.905416,28.112355],[-97.904286,28.112525],[-97.903498,28.112051],[-97.903852,28.110858],[-97.905783,28.108465],[-97.906404,28.108217],[-97.906931,28.107552],[-97.908216,28.107678],[-97.907465,28.107568],[-97.907322,28.107277],[-97.908564,28.10479],[-97.909272,28.103943],[-97.909272,28.103525],[-97.910302,28.102765],[-97.91047,28.101891],[-97.910241,28.101027],[-97.910756,28.101093],[-97.911575,28.101616],[-97.911556,28.101148],[-97.911023,28.100669],[-97.91052,28.099618],[-97.910917,28.099167],[-97.911544,28.099096],[-97.911662,28.098656],[-97.91304,28.098645],[-97.912488,28.098309],[-97.912972,28.097803],[-97.912533,28.097605],[-97.912258,28.096972],[-97.91178,28.097753],[-97.911023,28.097748],[-97.910893,28.097555],[-97.91085,28.095376],[-97.911266,28.094336],[-97.910621,28.094094],[-97.909741,28.091915],[-97.910113,28.090683],[-97.909301,28.090253],[-97.909375,28.089791],[-97.910815,28.089137],[-97.911156,28.088581],[-97.910654,28.088817],[-97.909959,28.088619],[-97.909227,28.088707],[-97.909065,28.088443],[-97.909205,28.087948],[-97.908203,28.087992],[-97.907699,28.086785],[-97.907116,28.086436],[-97.905813,28.087316],[-97.904974,28.087382],[-97.903918,28.08662],[-97.901666,28.082891],[-97.90018,28.082597],[-97.899518,28.082141],[-97.89755,28.078336],[-97.895441,28.075869],[-97.895515,28.075451],[-97.896827,28.074595],[-97.897411,28.074517],[-97.899658,28.076067],[-97.901118,28.075883],[-97.901328,28.075467],[-97.901174,28.074254],[-97.902101,28.07193],[-97.90204,28.071412],[-97.900211,28.069466],[-97.90033,28.069048],[-97.901238,28.068742],[-97.901222,28.067837],[-97.900252,28.066512],[-97.899825,28.065302],[-97.898757,28.065072],[-97.897807,28.064482],[-97.895336,28.061176],[-97.894844,28.060837],[-97.893671,28.060823],[-97.893128,28.061088],[-97.891698,28.063112],[-97.8911,28.063392],[-97.88964,28.063196],[-97.889084,28.062871],[-97.888947,28.062489],[-97.889055,28.06216],[-97.889876,28.061667],[-97.889822,28.061262],[-97.889308,28.060655],[-97.888254,28.060217],[-97.884037,28.060035],[-97.883599,28.059712],[-97.883586,28.059123],[-97.884428,28.058097],[-97.884567,28.057583],[-97.884248,28.05723],[-97.883148,28.0569],[-97.90876,28.056681],[-98.097168,28.057527],[-98.097549,28.063828],[-98.098751,28.070846],[-98.098325,28.078514],[-98.099947,28.107938],[-98.087033,28.119034],[-98.086714,28.119121],[-98.084479,28.117262],[-98.075552,28.108975],[-98.073522,28.11043],[-98.073388,28.110755],[-98.059637,28.1226],[-98.043925,28.108288],[-98.042685,28.107648],[-98.041116,28.107508],[-98.039217,28.108241],[-98.019769,28.12532],[-98.018411,28.126332],[-98.017846,28.126385],[-98.016771,28.125323],[-98.01528,28.124403],[-98.002688,28.113038],[-98.001402,28.112499],[-97.999922,28.112447],[-97.990754,28.115361],[-97.973819,28.121185],[-97.971446,28.122725],[-97.970635,28.123914],[-97.970316,28.125929],[-97.969703,28.127018],[-97.96066,28.134566],[-97.959972,28.135474],[-97.95967,28.13679],[-97.959079,28.150736],[-97.958359,28.150439],[-97.955845,28.15154],[-97.95438,28.151513]]]}},{"type":"Feature","properties":{"PRECINCT":"3","VTD":"0003"},"geometry":{"type":"Polygon","coordinates":[[[-98.174891,28.417101],[-98.168449,28.401521],[-98.161893,28.38973],[-98.154181,28.379604],[-98.135624,28.358211],[-98.130264,28.362834],[-98.121265,28.348974],[-98.119179,28.346277],[-98.116657,28.341931],[-98.115443,28.34263],[-98.115387,28.342883],[-98.115742,28.343367],[-98.116644,28.343119],[-98.117185,28.343466],[-98.11764,28.344604],[-98.117572,28.345397],[-98.117255,28.345903],[-98.116732,28.346189],[-98.116689,28.346542],[-98.118214,28.349309],[-98.118333,28.350095],[-98.118035,28.351152],[-98.11745,28.351196],[-98.117426,28.351735],[-98.117183,28.351912],[-98.115062,28.351401],[-98.112475,28.352684],[-98.111809,28.351512],[-98.110446,28.350665],[-98.110017,28.349796],[-98.108673,28.34978],[-98.107914,28.348602],[-98.105066,28.349792],[-98.104245,28.349858],[-98.103648,28.349704],[-98.10101,28.348087],[-98.096846,28.346507],[-98.097872,28.345296],[-98.098722,28.342536],[-98.098262,28.341868],[-98.098961,28.341292],[-98.099914,28.340804],[-98.101675,28.340729],[-98.102561,28.340409],[-98.111095,28.335015],[-98.107667,28.330844],[-98.111387,28.328259],[-98.108275,28.324414],[-98.110911,28.322728],[-98.107738,28.318827],[-98.113758,28.313713],[-98.114043,28.32207],[-98.115956,28.321336],[-98.117105,28.319905],[-98.117497,28.319701],[-98.11912,28.319745],[-98.11941,28.320019],[-98.116189,28.324461],[-98.119678,28.328812],[-98.118069,28.329831],[-98.118729,28.330668],[-98.116915,28.331837],[-98.120214,28.335872],[-98.121068,28.335315],[-98.120402,28.333593],[-98.121079,28.332806],[-98.122876,28.332387],[-98.124399,28.333293],[-98.12341,28.333987],[-98.126801,28.338285],[-98.123865,28.340214],[-98.133717,28.355223],[-98.167912,28.325854],[-98.194136,28.349625],[-98.21731,28.329195],[-98.217626,28.328726],[-98.217525,28.328317],[-98.218729,28.327877],[-98.221721,28.325329],[-98.222931,28.324662],[-98.223935,28.324478],[-98.230616,28.324466],[-98.234365,28.324072],[-98.238672,28.324507],[-98.273506,28.324518],[-98.275229,28.325408],[-98.275836,28.326361],[-98.275971,28.327274],[-98.275693,28.397584],[-98.26767,28.397694],[-98.267596,28.406067],[-98.260312,28.406661],[-98.255431,28.406639],[-98.250891,28.406197],[-98.246072,28.406687],[-98.229126,28.406726],[-98.183983,28.40998],[-98.182622,28.410509],[-98.174891,28.417101]]]}},{"type":"Feature","properties":{"PRECINCT":"4","VTD":"0004"},"geometry":{"type":"Polygon","coordinates":[[[-98.275693,28.397584],[-98.275971,28.327274],[-98.275601,28.32589],[-98.274268,28.324778],[-98.273506,28.324518],[-98.238672,28.324507],[-98.234818,28.324072],[-98.230616,28.324466],[-98.223935,28.324478],[-98.222931,28.324662],[-98.221721,28.325329],[-98.218729,28.327877],[-98.217525,28.328317],[-98.217626,28.328726],[-98.21731,28.329195],[-98.194136,28.349625],[-98.167912,28.325854],[-98.133717,28.355223],[-98.123865,28.340214],[-98.126801,28.338285],[-98.12341,28.333987],[-98.124399,28.333293],[-98.122876,28.332387],[-98.121079,28.332806],[-98.120402,28.333593],[-98.121068,28.335315],[-98.120214,28.335872],[-98.116915,28.331837],[-98.120335,28.329629],[-98.120991,28.330436],[-98.12898,28.325354],[-98.120733,28.318185],[-98.113824,28.311523],[-98.11357,28.299654],[-98.113929,28.283013],[-98.107545,28.246617],[-98.102659,28.157128],[-98.102977,28.150443],[-98.106127,28.150283],[-98.110616,28.152479],[-98.111705,28.153968],[-98.12657,28.167344],[-98.127696,28.16898],[-98.129832,28.170151],[-98.13001,28.170493],[-98.12934,28.171268],[-98.130514,28.174848],[-98.143726,28.186673],[-98.159748,28.172769],[-98.159317,28.170799],[-98.158919,28.16994],[-98.158119,28.169364],[-98.158247,28.168939],[-98.158606,28.168744],[-98.159764,28.168839],[-98.162233,28.167758],[-98.163054,28.166872],[-98.163698,28.166727],[-98.168298,28.170516],[-98.180653,28.159279],[-98.189789,28.153468],[-98.190785,28.153416],[-98.190965,28.15472],[-98.190549,28.154962],[-98.190934,28.155292],[-98.191002,28.156244],[-98.192697,28.157504],[-98.193188,28.15867],[-98.194274,28.159028],[-98.195814,28.159017],[-98.197248,28.160018],[-98.197565,28.161113],[-98.197385,28.161443],[-98.198186,28.162302],[-98.198093,28.16349],[-98.198714,28.164085],[-98.199769,28.164464],[-98.199763,28.165601],[-98.200939,28.166574],[-98.201064,28.167],[-98.202587,28.167751],[-98.202715,28.168383],[-98.199668,28.171127],[-98.199689,28.17141],[-98.198971,28.172223],[-98.199073,28.173667],[-98.201539,28.176923],[-98.202598,28.17732],[-98.204062,28.17976],[-98.204022,28.181172],[-98.204996,28.182098],[-98.205208,28.182191],[-98.217153,28.171765],[-98.247383,28.198768],[-98.235497,28.209278],[-98.241672,28.21521],[-98.244366,28.219037],[-98.245275,28.219706],[-98.252465,28.213542],[-98.260975,28.221202],[-98.257496,28.224533],[-98.257756,28.228082],[-98.257607,28.228618],[-98.270411,28.240071],[-98.272278,28.236966],[-98.291876,28.21964],[-98.29352,28.218688],[-98.296528,28.216209],[-98.330449,28.208462],[-98.3343,28.208435],[-98.334257,28.295357],[-98.334462,28.295378],[-98.334252,28.383108],[-98.329047,28.38294],[-98.292946,28.382998],[-98.292717,28.383344],[-98.292713,28.397614],[-98.275693,28.397584]]]}},{"type":"Feature","properties":{"PRECINCT":"5","VTD":"0005"},"geometry":{"type":"Polygon","coordinates":[[[-97.999991,28.511583],[-97.950699,28.425966],[-97.900086,28.339444],[-97.919871,28.342531],[-97.928425,28.344252],[-97.95022,28.346737],[-97.952193,28.346641],[-97.969773,28.34348],[-97.96967,28.344655],[-97.96913,28.345679],[-97.964569,28.350633],[-97.959834,28.356903],[-97.956515,28.362981],[-97.954251,28.367718],[-97.954128,28.369454],[-97.954643,28.370477],[-97.958494,28.373444],[-97.959769,28.375529],[-97.960475,28.376232],[-97.967127,28.381051],[-97.968946,28.381735],[-97.970939,28.381663],[-97.972499,28.380968],[-97.977285,28.375869],[-97.978503,28.37501],[-97.980116,28.374594],[-97.982308,28.374923],[-97.99595,28.384718],[-97.997245,28.38519],[-97.999801,28.385183],[-98.001224,28.38564],[-98.014015,28.394862],[-98.014467,28.395356],[-98.013868,28.398051],[-98.014226,28.39894],[-98.02621,28.407771],[-98.016674,28.417892],[-98.015322,28.418443],[-98.015505,28.419491],[-98.020856,28.42639],[-98.022216,28.427804],[-98.032358,28.433854],[-98.037931,28.437952],[-98.039943,28.44079],[-98.044323,28.443918],[-98.0456,28.44414],[-98.046939,28.443824],[-98.047522,28.443476],[-98.050024,28.440833],[-98.051649,28.440317],[-98.063353,28.440115],[-98.064858,28.440543],[-98.069181,28.442438],[-98.07034,28.442615],[-98.07171,28.442465],[-98.073582,28.441668],[-98.090475,28.432837],[-98.091876,28.434701],[-98.092197,28.434556],[-98.095849,28.439543],[-98.10137,28.446295],[-98.101766,28.445661],[-98.096122,28.438964],[-98.090757,28.431593],[-98.086411,28.424859],[-98.081963,28.419382],[-98.09377,28.406612],[-98.094539,28.406239],[-98.097426,28.408568],[-98.102495,28.408081],[-98.103859,28.408085],[-98.104246,28.408463],[-98.105904,28.4079],[-98.106331,28.408086],[-98.107259,28.410054],[-98.105482,28.410642],[-98.104686,28.411799],[-98.104034,28.41436],[-98.104168,28.41584],[-98.106531,28.418153],[-98.108023,28.42028],[-98.109675,28.422095],[-98.112303,28.423929],[-98.113132,28.424844],[-98.113359,28.425493],[-98.113111,28.427373],[-98.113238,28.42826],[-98.114565,28.43238],[-98.113201,28.435589],[-98.11386,28.436847],[-98.114909,28.437828],[-98.115557,28.439517],[-98.116478,28.440464],[-98.11682,28.441512],[-98.118139,28.442165],[-98.119585,28.44156],[-98.120237,28.440883],[-98.120072,28.439281],[-98.121358,28.438536],[-98.122401,28.436444],[-98.122961,28.436104],[-98.123435,28.43609],[-98.124183,28.436673],[-98.124692,28.438024],[-98.124504,28.438707],[-98.123576,28.439536],[-98.123723,28.439988],[-98.124202,28.440242],[-98.1256,28.44013],[-98.126775,28.440659],[-98.127066,28.441086],[-98.12724,28.44259],[-98.127484,28.442959],[-98.130906,28.444638],[-98.13476,28.447596],[-98.133979,28.449158],[-98.134533,28.449575],[-98.135803,28.449868],[-98.135753,28.450841],[-98.136406,28.451089],[-98.136599,28.451397],[-98.136131,28.452751],[-98.136772,28.453224],[-98.136305,28.453582],[-98.136299,28.453972],[-98.136486,28.454149],[-98.137245,28.454116],[-98.137469,28.45454],[-98.137139,28.454947],[-98.136833,28.456206],[-98.136354,28.456338],[-98.136217,28.456668],[-98.136677,28.457582],[-98.136073,28.458214],[-98.135101,28.458704],[-98.134926,28.459331],[-98.135132,28.459518],[-98.135051,28.45992],[-98.13571,28.460129],[-98.136009,28.460635],[-98.135996,28.461598],[-98.137123,28.46187],[-98.135952,28.468878],[-98.123744,28.46717],[-98.11055,28.473959],[-98.110452,28.495534],[-98.10524,28.495683],[-98.088758,28.495578],[-98.088424,28.508095],[-98.087971,28.507114],[-98.08723,28.506369],[-98.078383,28.500756],[-98.077276,28.500285],[-98.07264,28.499149],[-98.070954,28.498985],[-98.041935,28.498797],[-98.041974,28.493036],[-98.040193,28.493013],[-98.038813,28.492681],[-98.038496,28.49393],[-98.038689,28.495636],[-98.038028,28.496252],[-98.037262,28.496643],[-98.035593,28.495751],[-98.034129,28.496405],[-98.032828,28.496025],[-98.031968,28.496196],[-98.029894,28.49762],[-98.028679,28.498995],[-98.027279,28.500001],[-98.027191,28.500352],[-98.014703,28.500198],[-98.013986,28.49985],[-98.013586,28.499362],[-98.013394,28.498077],[-98.006539,28.498078],[-98.0059,28.498297],[-98.004177,28.499811],[-98.001342,28.500178],[-98.000678,28.500716],[-98.000416,28.501339],[-98.000328,28.504326],[-97.999823,28.508123],[-97.999991,28.511583]]]}},{"type":"Feature","properties":{"PRECINCT":"6","VTD":"0006"},"geometry":{"type":"Polygon","coordinates":[[[-98.075851,28.639468],[-97.999991,28.511583],[-97.999823,28.508123],[-98.000328,28.504326],[-98.00043,28.501257],[-98.000678,28.500716],[-98.001342,28.500178],[-98.004177,28.499811],[-98.0059,28.498297],[-98.006824,28.498059],[-98.013394,28.498077],[-98.013429,28.498984],[-98.013724,28.499571],[-98.014906,28.500227],[-98.027191,28.500352],[-98.027279,28.500001],[-98.028679,28.498995],[-98.029894,28.49762],[-98.031968,28.496196],[-98.032828,28.496025],[-98.034129,28.496405],[-98.035593,28.495751],[-98.037262,28.496643],[-98.038028,28.496252],[-98.038689,28.495636],[-98.038496,28.49393],[-98.038813,28.492681],[-98.040193,28.493013],[-98.041974,28.493036],[-98.041935,28.498797],[-98.070954,28.498985],[-98.07264,28.499149],[-98.077276,28.500285],[-98.078383,28.500756],[-98.08723,28.506369],[-98.087971,28.507114],[-98.088424,28.508095],[-98.088758,28.495578],[-98.10524,28.495683],[-98.110452,28.495534],[-98.110497,28.474047],[-98.11843,28.469887],[-98.120574,28.47209],[-98.13613,28.484622],[-98.142941,28.489262],[-98.135657,28.497908],[-98.129674,28.50425],[-98.127888,28.505791],[-98.128391,28.506815],[-98.131087,28.515608],[-98.141118,28.550624],[-98.140955,28.550918],[-98.137429,28.5509],[-98.137419,28.578975],[-98.140934,28.57938],[-98.168245,28.579767],[-98.170024,28.58014],[-98.172574,28.581314],[-98.174106,28.581713],[-98.182781,28.582411],[-98.182952,28.602785],[-98.182593,28.603098],[-98.180379,28.603758],[-98.179382,28.604276],[-98.175672,28.604396],[-98.173565,28.605007],[-98.172124,28.605672],[-98.171738,28.606206],[-98.172554,28.608049],[-98.17251,28.608528],[-98.171375,28.611934],[-98.170508,28.612583],[-98.169105,28.612803],[-98.167821,28.613556],[-98.167284,28.614409],[-98.165906,28.615267],[-98.165794,28.616098],[-98.165475,28.616395],[-98.165052,28.616323],[-98.165332,28.615289],[-98.164821,28.61503],[-98.164378,28.616219],[-98.163337,28.616917],[-98.162782,28.616609],[-98.162146,28.61695],[-98.162651,28.618067],[-98.162288,28.62062],[-98.161334,28.621373],[-98.161234,28.622056],[-98.160355,28.621995],[-98.159594,28.622347],[-98.159812,28.623464],[-98.160229,28.624086],[-98.160154,28.624883],[-98.161023,28.625702],[-98.160112,28.628166],[-98.16018,28.628909],[-98.159893,28.629393],[-98.160036,28.630257],[-98.159194,28.630884],[-98.158271,28.630752],[-98.15809,28.630933],[-98.157816,28.632083],[-98.158289,28.633613],[-98.157478,28.634812],[-98.157176,28.634767],[-98.153685,28.630965],[-98.149723,28.631398],[-98.148184,28.631059],[-98.145661,28.630892],[-98.145608,28.636446],[-98.145008,28.636722],[-98.143378,28.636673],[-98.141338,28.636935],[-98.137286,28.636416],[-98.136551,28.630658],[-98.086821,28.630473],[-98.07591,28.630207],[-98.075851,28.639468]]]}},{"type":"Feature","properties":{"PRECINCT":"7","VTD":"0007"},"geometry":{"type":"Polygon","coordinates":[[[-98.005252,28.690239],[-98.089764,28.662979],[-98.075851,28.639468],[-98.07591,28.630207],[-98.086821,28.630473],[-98.136551,28.630658],[-98.137286,28.636416],[-98.141338,28.636935],[-98.143378,28.636673],[-98.145008,28.636722],[-98.145608,28.636446],[-98.145661,28.630892],[-98.148184,28.631059],[-98.149723,28.631398],[-98.153685,28.630965],[-98.157176,28.634767],[-98.157478,28.634812],[-98.158289,28.633613],[-98.157816,28.632083],[-98.15809,28.630933],[-98.158271,28.630752],[-98.159194,28.630884],[-98.160036,28.630257],[-98.159893,28.629393],[-98.16018,28.628909],[-98.160112,28.628166],[-98.161023,28.625702],[-98.160154,28.624883],[-98.160229,28.624086],[-98.159812,28.623464],[-98.159594,28.622347],[-98.160355,28.621995],[-98.161234,28.622056],[-98.161334,28.621373],[-98.162288,28.62062],[-98.162651,28.618067],[-98.162146,28.61695],[-98.162782,28.616609],[-98.163337,28.616917],[-98.164378,28.616219],[-98.164821,28.61503],[-98.165332,28.615289],[-98.165052,28.616323],[-98.165475,28.616395],[-98.165794,28.616098],[-98.165906,28.615267],[-98.167284,28.614409],[-98.167821,28.613556],[-98.169105,28.612803],[-98.170508,28.612583],[-98.171375,28.611934],[-98.17251,28.608528],[-98.172554,28.608049],[-98.171738,28.606206],[-98.172124,28.605672],[-98.173565,28.605007],[-98.175672,28.604396],[-98.179382,28.604276],[-98.180379,28.603758],[-98.182593,28.603098],[-98.182952,28.602785],[-98.183024,28.632476],[-98.182686,28.670708],[-98.214391,28.670923],[-98.214374,28.676035],[-98.214051,28.677228],[-98.206599,28.685267],[-98.205591,28.685594],[-98.197176,28.685517],[-98.196443,28.685744],[-98.196044,28.686223],[-98.195776,28.709629],[-98.196403,28.711094],[-98.198477,28.713222],[-98.148889,28.749648],[-98.14773,28.75026],[-98.123754,28.767478],[-98.112076,28.77692],[-98.098315,28.786949],[-98.093906,28.782531],[-98.057311,28.743841],[-98.005252,28.690239]]]}},{"type":"Feature","properties":{"PRECINCT":"8","VTD":"0008"},"geometry":{"type":"Polygon","coordinates":[[[-98.196958,28.685538],[-98.205591,28.685594],[-98.206599,28.685267],[-98.214051,28.677228],[-98.214374,28.676035],[-98.214391,28.670923],[-98.182686,28.670708],[-98.182984,28.621747],[-98.194407,28.62179],[-98.195587,28.622038],[-98.197581,28.621819],[-98.212754,28.621725],[-98.212863,28.610767],[-98.2128,28.610375],[-98.212469,28.610164],[-98.213648,28.604971],[-98.214922,28.604271],[-98.215671,28.60342],[-98.216045,28.601844],[-98.215878,28.600216],[-98.216642,28.599007],[-98.203627,28.58332],[-98.201848,28.580861],[-98.200287,28.577488],[-98.186863,28.527682],[-98.18613,28.526013],[-98.186548,28.52474],[-98.186561,28.523259],[-98.181094,28.497156],[-98.182404,28.496829],[-98.182927,28.496328],[-98.183242,28.496382],[-98.18393,28.498534],[-98.185412,28.496889],[-98.187443,28.496191],[-98.187642,28.495904],[-98.187636,28.493632],[-98.18667,28.492344],[-98.186901,28.491723],[-98.186689,28.490842],[-98.188228,28.487965],[-98.189761,28.487688],[-98.190301,28.487233],[-98.191927,28.486919],[-98.192462,28.486507],[-98.192687,28.485874],[-98.193615,28.485533],[-98.194381,28.485351],[-98.197189,28.485659],[-98.198734,28.484702],[-98.199207,28.484845],[-98.19983,28.485455],[-98.200745,28.486759],[-98.200434,28.488157],[-98.199214,28.489417],[-98.199401,28.4906],[-98.200104,28.491755],[-98.201032,28.491876],[-98.201923,28.491519],[-98.203997,28.492206],[-98.205118,28.491793],[-98.206152,28.492024],[-98.208008,28.491573],[-98.208413,28.49192],[-98.208475,28.492629],[-98.20992,28.493168],[-98.209241,28.494197],[-98.209385,28.495078],[-98.210562,28.495512],[-98.210873,28.495413],[-98.211502,28.494747],[-98.211396,28.493884],[-98.212007,28.493762],[-98.214044,28.495435],[-98.215819,28.495517],[-98.217756,28.496309],[-98.221424,28.49496],[-98.223859,28.494624],[-98.224046,28.494041],[-98.22374,28.492632],[-98.224537,28.490557],[-98.224331,28.489941],[-98.224605,28.489732],[-98.229737,28.489588],[-98.230653,28.490385],[-98.231039,28.490418],[-98.23328,28.489592],[-98.234869,28.489713],[-98.235535,28.489294],[-98.237072,28.487473],[-98.238044,28.4869],[-98.239501,28.486591],[-98.245313,28.48633],[-98.244313,28.483612],[-98.334373,28.48324],[-98.335031,28.612658],[-98.198477,28.713222],[-98.196272,28.710912],[-98.19576,28.709445],[-98.195983,28.686502],[-98.196269,28.685892],[-98.196958,28.685538]]]}},{"type":"Feature","properties":{"PRECINCT":"9","VTD":"0009"},"geometry":{"type":"Polygon","coordinates":[[[-98.194711,28.6218],[-98.182984,28.621747],[-98.182781,28.582411],[-98.174106,28.581713],[-98.172574,28.581314],[-98.170024,28.58014],[-98.168245,28.579767],[-98.140934,28.57938],[-98.137419,28.578975],[-98.137429,28.5509],[-98.140955,28.550918],[-98.141118,28.550624],[-98.131087,28.515608],[-98.128391,28.506815],[-98.127888,28.505791],[-98.129674,28.50425],[-98.135657,28.497908],[-98.142941,28.489262],[-98.13613,28.484622],[-98.120574,28.47209],[-98.11843,28.469887],[-98.123744,28.46717],[-98.135952,28.468878],[-98.137123,28.46187],[-98.135996,28.461598],[-98.136009,28.460635],[-98.13571,28.460129],[-98.135051,28.45992],[-98.134945,28.458995],[-98.136677,28.457582],[-98.136217,28.456668],[-98.136354,28.456338],[-98.136833,28.456206],[-98.137481,28.454424],[-98.137133,28.454072],[-98.136486,28.454149],[-98.136299,28.453972],[-98.136305,28.453582],[-98.136772,28.453125],[-98.136144,28.452872],[-98.136599,28.451397],[-98.136406,28.451089],[-98.135753,28.450841],[-98.135921,28.45],[-98.134533,28.449575],[-98.133979,28.449158],[-98.134584,28.447776],[-98.13476,28.447596],[-98.135516,28.447726],[-98.136207,28.447546],[-98.137032,28.446027],[-98.137904,28.444988],[-98.140248,28.443873],[-98.142937,28.441897],[-98.144101,28.439621],[-98.145265,28.438292],[-98.149794,28.436502],[-98.151092,28.436218],[-98.156907,28.437353],[-98.15733,28.436851],[-98.157175,28.436021],[-98.155767,28.435317],[-98.154503,28.435755],[-98.153917,28.435707],[-98.153724,28.435203],[-98.153998,28.43485],[-98.156197,28.43372],[-98.15744,28.434449],[-98.159297,28.434425],[-98.159831,28.433809],[-98.159812,28.432984],[-98.160173,28.432208],[-98.160693,28.431937],[-98.162043,28.431759],[-98.164366,28.430327],[-98.156147,28.423633],[-98.168989,28.411684],[-98.166346,28.402892],[-98.165763,28.399191],[-98.166728,28.398366],[-98.168927,28.402583],[-98.176733,28.421827],[-98.18334,28.451735],[-98.183617,28.454508],[-98.183253,28.457744],[-98.186591,28.458438],[-98.185926,28.461464],[-98.182413,28.460714],[-98.180985,28.465365],[-98.183066,28.465785],[-98.183577,28.46611],[-98.183788,28.466566],[-98.18288,28.468825],[-98.180743,28.469691],[-98.180413,28.472377],[-98.180886,28.473279],[-98.182486,28.473782],[-98.182118,28.475124],[-98.180864,28.475419],[-98.179229,28.475474],[-98.176031,28.47434],[-98.175488,28.47965],[-98.177763,28.479802],[-98.178071,28.482823],[-98.186561,28.523259],[-98.186548,28.52474],[-98.18613,28.526013],[-98.186863,28.527682],[-98.199478,28.574774],[-98.200659,28.578529],[-98.201848,28.580861],[-98.203627,28.58332],[-98.216642,28.599007],[-98.215878,28.600216],[-98.216045,28.601844],[-98.215671,28.60342],[-98.214922,28.604271],[-98.213648,28.604971],[-98.212469,28.610164],[-98.2128,28.610375],[-98.212863,28.610767],[-98.212754,28.621725],[-98.197581,28.621819],[-98.195587,28.622038],[-98.194711,28.6218]]]}},{"type":"Feature","properties":{"PRECINCT":"10","VTD":"0010"},"geometry":{"type":"Polygon","coordinates":[[[-98.183097,28.496328],[-98.182223,28.496906],[-98.181094,28.497156],[-98.178071,28.482823],[-98.177763,28.479802],[-98.175488,28.47965],[-98.175755,28.476734],[-98.176031,28.47434],[-98.179229,28.475474],[-98.180864,28.475419],[-98.182118,28.475124],[-98.182486,28.473782],[-98.180886,28.473279],[-98.180413,28.472377],[-98.180743,28.469691],[-98.18288,28.468825],[-98.183788,28.466566],[-98.183577,28.46611],[-98.183066,28.465785],[-98.180985,28.465365],[-98.182413,28.460714],[-98.185926,28.461464],[-98.186591,28.458438],[-98.183253,28.457744],[-98.183617,28.454508],[-98.18334,28.451735],[-98.176912,28.422494],[-98.174891,28.417101],[-98.182622,28.410509],[-98.183983,28.40998],[-98.229126,28.406726],[-98.246072,28.406687],[-98.250891,28.406197],[-98.255431,28.406639],[-98.260312,28.406661],[-98.267596,28.406067],[-98.267622,28.412398],[-98.265892,28.413147],[-98.265001,28.414919],[-98.264963,28.416217],[-98.265324,28.416498],[-98.26543,28.416993],[-98.264913,28.417824],[-98.265218,28.418193],[-98.264794,28.419337],[-98.264806,28.420856],[-98.265061,28.421395],[-98.264824,28.421984],[-98.264805,28.423447],[-98.264537,28.423843],[-98.262881,28.424052],[-98.262619,28.424387],[-98.261922,28.424445],[-98.262583,28.425081],[-98.263031,28.42617],[-98.263758,28.42665],[-98.268682,28.425567],[-98.270014,28.424815],[-98.270681,28.423861],[-98.271171,28.423991],[-98.271767,28.424692],[-98.272468,28.424733],[-98.275542,28.424419],[-98.277677,28.423409],[-98.278324,28.423319],[-98.279141,28.423498],[-98.2796,28.423838],[-98.280507,28.425166],[-98.28232,28.425459],[-98.282681,28.425334],[-98.282398,28.424395],[-98.28271,28.424067],[-98.284837,28.423883],[-98.285176,28.425792],[-98.285735,28.426849],[-98.283143,28.427475],[-98.282448,28.428148],[-98.281888,28.428241],[-98.284103,28.435524],[-98.277738,28.437041],[-98.280222,28.440383],[-98.280637,28.44147],[-98.282756,28.442685],[-98.284799,28.443376],[-98.289629,28.453864],[-98.296524,28.483418],[-98.244313,28.483612],[-98.245313,28.48633],[-98.239501,28.486591],[-98.238044,28.4869],[-98.237072,28.487473],[-98.235535,28.489294],[-98.234869,28.489713],[-98.23328,28.489592],[-98.231039,28.490418],[-98.230653,28.490385],[-98.229737,28.489588],[-98.224605,28.489732],[-98.224331,28.489941],[-98.224537,28.490557],[-98.22374,28.492632],[-98.224046,28.494041],[-98.223859,28.494624],[-98.221424,28.49496],[-98.217756,28.496309],[-98.215819,28.495517],[-98.214044,28.495435],[-98.212007,28.493762],[-98.211396,28.493884],[-98.211502,28.494747],[-98.210873,28.495413],[-98.210562,28.495512],[-98.209385,28.495078],[-98.209241,28.494197],[-98.20992,28.493168],[-98.208475,28.492629],[-98.208413,28.49192],[-98.208008,28.491573],[-98.206152,28.492024],[-98.205118,28.491793],[-98.203997,28.492206],[-98.201923,28.491519],[-98.201032,28.491876],[-98.200104,28.491755],[-98.199401,28.4906],[-98.199214,28.489417],[-98.200434,28.488157],[-98.200745,28.486759],[-98.19983,28.485455],[-98.199207,28.484845],[-98.198734,28.484702],[-98.197189,28.485659],[-98.194381,28.485351],[-98.193615,28.485533],[-98.192687,28.485874],[-98.192462,28.486507],[-98.191927,28.486919],[-98.190301,28.487233],[-98.189761,28.487688],[-98.188228,28.487965],[-98.186689,28.490842],[-98.186901,28.491723],[-98.18667,28.492344],[-98.187623,28.493555],[-98.187642,28.495904],[-98.187443,28.496191],[-98.185412,28.496889],[-98.18393,28.498534],[-98.183506,28.49673],[-98.183097,28.496328]]]}},{"type":"Feature","properties":{"PRECINCT":"11","VTD":"0011"},"geometry":{"type":"Polygon","coordinates":[[[-98.281899,28.428278],[-98.282448,28.428148],[-98.283143,28.427475],[-98.285735,28.426849],[-98.285176,28.425792],[-98.284837,28.423883],[-98.28271,28.424067],[-98.282398,28.424395],[-98.282681,28.425334],[-98.28232,28.425459],[-98.280507,28.425166],[-98.2796,28.423838],[-98.279141,28.423498],[-98.278324,28.423319],[-98.277677,28.423409],[-98.275542,28.424419],[-98.272468,28.424733],[-98.271767,28.424692],[-98.271171,28.423991],[-98.270681,28.423861],[-98.270014,28.424815],[-98.268682,28.425567],[-98.263758,28.42665],[-98.263031,28.42617],[-98.262583,28.425081],[-98.261922,28.424445],[-98.264692,28.4237],[-98.265061,28.421466],[-98.264806,28.420856],[-98.264794,28.419337],[-98.265218,28.418193],[-98.264913,28.417824],[-98.26543,28.416993],[-98.265324,28.416498],[-98.264963,28.416217],[-98.265089,28.414495],[-98.265892,28.413147],[-98.267622,28.412398],[-98.26772,28.397645],[-98.292713,28.397614],[-98.292717,28.383344],[-98.292946,28.382998],[-98.329047,28.38294],[-98.334252,28.383108],[-98.334373,28.48324],[-98.296524,28.483418],[-98.289629,28.453864],[-98.284799,28.443376],[-98.282756,28.442685],[-98.280637,28.44147],[-98.280222,28.440383],[-98.277738,28.437041],[-98.284103,28.435524],[-98.281899,28.428278]]]}},{"type":"Feature","properties":{"PRECINCT":"12","VTD":"0012"},"geometry":{"type":"Polygon","coordinates":[[[-98.252465,28.213542],[-98.245275,28.219706],[-98.244366,28.219037],[-98.241672,28.21521],[-98.235497,28.209278],[-98.247383,28.198768],[-98.217153,28.171765],[-98.205208,28.182191],[-98.204062,28.181235],[-98.204062,28.17976],[-98.202598,28.17732],[-98.201539,28.176923],[-98.199073,28.173667],[-98.198971,28.172223],[-98.199689,28.17141],[-98.199668,28.171127],[-98.202715,28.168383],[-98.202587,28.167751],[-98.201064,28.167],[-98.200939,28.166574],[-98.199763,28.165601],[-98.199769,28.164464],[-98.198714,28.164085],[-98.198093,28.16349],[-98.198186,28.162302],[-98.197385,28.161443],[-98.197565,28.161113],[-98.197248,28.160018],[-98.195814,28.159017],[-98.194274,28.159028],[-98.193188,28.15867],[-98.192697,28.157504],[-98.191002,28.156244],[-98.190934,28.155292],[-98.190549,28.154962],[-98.190965,28.15472],[-98.190785,28.153416],[-98.189789,28.153468],[-98.180653,28.159279],[-98.168298,28.170516],[-98.163698,28.166727],[-98.163054,28.166872],[-98.162233,28.167758],[-98.159764,28.168839],[-98.158606,28.168744],[-98.158247,28.168939],[-98.158119,28.169364],[-98.158919,28.16994],[-98.159317,28.170799],[-98.159748,28.172769],[-98.143726,28.186673],[-98.130514,28.174848],[-98.12934,28.171268],[-98.13001,28.170493],[-98.129832,28.170151],[-98.127696,28.16898],[-98.12657,28.167344],[-98.111705,28.153968],[-98.110616,28.152479],[-98.106127,28.150283],[-98.102977,28.150443],[-98.104023,28.133026],[-98.100468,28.117387],[-98.098325,28.078514],[-98.098751,28.070846],[-98.097549,28.063828],[-98.097168,28.057527],[-98.24739,28.057995],[-98.334323,28.0578],[-98.3343,28.208435],[-98.330449,28.208462],[-98.296528,28.216209],[-98.29352,28.218688],[-98.291876,28.21964],[-98.272278,28.236966],[-98.270411,28.240071],[-98.257607,28.228618],[-98.257756,28.228082],[-98.257496,28.224533],[-98.260975,28.221202],[-98.252465,28.213542]]]}},{"type":"Feature","properties":{"PRECINCT":"13","VTD":"0013"},"geometry":{"type":"Polygon","coordinates":[[[-97.940547,28.343937],[-97.937161,28.342614],[-97.936105,28.34174],[-97.931914,28.339139],[-97.927033,28.336746],[-97.926399,28.335842],[-97.925336,28.335133],[-97.922905,28.334203],[-97.92163,28.33193],[-97.918963,28.331649],[-97.918478,28.330637],[-97.918752,28.3293],[-97.918597,28.327655],[-97.917497,28.325685],[-97.916322,28.324991],[-97.916583,28.324122],[-97.914898,28.325315],[-97.914157,28.326883],[-97.912074,28.328231],[-97.911116,28.329469],[-97.910351,28.329865],[-97.909457,28.329745],[-97.909055,28.329939],[-97.90896,28.333135],[-97.908376,28.334816],[-97.909079,28.335535],[-97.908965,28.337044],[-97.908701,28.338283],[-97.907349,28.340588],[-97.900086,28.339444],[-97.853076,28.258682],[-97.856762,28.256732],[-97.853477,28.244798],[-97.865608,28.227708],[-97.866367,28.227733],[-97.870982,28.230165],[-97.872374,28.229285],[-97.87368,28.228769],[-97.878529,28.228204],[-97.923065,28.209538],[-97.922562,28.208884],[-97.922332,28.209093],[-97.922114,28.208818],[-97.921878,28.2089],[-97.921574,28.208421],[-97.919953,28.20748],[-97.917221,28.206969],[-97.919003,28.206202],[-97.91925,28.204804],[-97.919124,28.204051],[-97.922687,28.1982],[-97.920344,28.195265],[-97.91761,28.192577],[-97.910414,28.180565],[-97.909323,28.177028],[-97.910447,28.173295],[-97.910432,28.170835],[-97.91069,28.169198],[-97.911965,28.166874],[-97.913928,28.164722],[-97.915871,28.163106],[-97.917581,28.16117],[-97.921597,28.157402],[-97.92209,28.155788],[-97.921355,28.151597],[-97.921357,28.150306],[-97.920745,28.147834],[-97.919896,28.146545],[-97.914668,28.142358],[-97.913095,28.139995],[-97.911631,28.138814],[-97.910167,28.136343],[-97.908955,28.135054],[-97.909322,28.133011],[-97.91054,28.131612],[-97.913701,28.129458],[-97.914919,28.12795],[-97.915529,28.126768],[-97.915412,28.126875],[-97.915779,28.124402],[-97.915293,28.122682],[-97.909326,28.116131],[-97.907624,28.115165],[-97.904081,28.114228],[-97.903804,28.113981],[-97.902095,28.114297],[-97.900481,28.113639],[-97.899245,28.113947],[-97.898563,28.113943],[-97.898032,28.113667],[-97.897668,28.112894],[-97.898284,28.111855],[-97.897974,28.108322],[-97.898265,28.106778],[-97.899267,28.10435],[-97.89929,28.10339],[-97.898783,28.102089],[-97.897279,28.102183],[-97.896632,28.101832],[-97.896561,28.100209],[-97.897071,28.099758],[-97.898116,28.099446],[-97.903424,28.099316],[-97.90536,28.098246],[-97.907304,28.097586],[-97.907557,28.097292],[-97.906881,28.095416],[-97.907248,28.09451],[-97.908677,28.092518],[-97.908774,28.091866],[-97.908203,28.087992],[-97.909205,28.087948],[-97.909065,28.088443],[-97.909227,28.088707],[-97.909959,28.088619],[-97.910654,28.088817],[-97.911156,28.088581],[-97.910815,28.089137],[-97.909375,28.089791],[-97.909301,28.090253],[-97.910113,28.090683],[-97.909741,28.091915],[-97.910621,28.094094],[-97.911266,28.094336],[-97.91085,28.095376],[-97.910893,28.097555],[-97.911023,28.097748],[-97.91178,28.097753],[-97.912258,28.096972],[-97.912533,28.097605],[-97.912972,28.097803],[-97.912488,28.098309],[-97.91304,28.098645],[-97.911662,28.098656],[-97.911544,28.099096],[-97.910917,28.099167],[-97.91052,28.099618],[-97.911023,28.100669],[-97.911556,28.101148],[-97.911575,28.101616],[-97.910756,28.101093],[-97.910241,28.101027],[-97.91047,28.101891],[-97.910302,28.102765],[-97.909272,28.103525],[-97.909272,28.103943],[-97.908564,28.10479],[-97.907322,28.107277],[-97.907465,28.107568],[-97.908216,28.107678],[-97.906931,28.107552],[-97.906404,28.108217],[-97.905783,28.108465],[-97.903852,28.110858],[-97.903498,28.112051],[-97.904286,28.112525],[-97.905416,28.112355],[-97.90701,28.112531],[-97.907079,28.112801],[-97.907984,28.113043],[-97.908214,28.11279],[-97.908543,28.112823],[-97.908766,28.113263],[-97.909164,28.113346],[-97.90935,28.112845],[-97.909809,28.112603],[-97.91043,28.113165],[-97.910156,28.113957],[-97.91262,28.114942],[-97.912942,28.114909],[-97.913234,28.114535],[-97.913036,28.113913],[-97.913302,28.114128],[-97.913613,28.11398],[-97.913992,28.112995],[-97.913569,28.11546],[-97.916057,28.11655],[-97.916318,28.11644],[-97.916411,28.116748],[-97.917652,28.117815],[-97.917887,28.118982],[-97.919334,28.11869],[-97.919402,28.11808],[-97.92024,28.117337],[-97.920116,28.116935],[-97.920569,28.117227],[-97.921016,28.116842],[-97.921245,28.116941],[-97.922431,28.11474],[-97.922344,28.11561],[-97.921841,28.116325],[-97.921934,28.11671],[-97.924081,28.1166],[-97.922244,28.116903],[-97.921909,28.117062],[-97.921915,28.117315],[-97.921717,28.117205],[-97.921829,28.117381],[-97.9215,28.117458],[-97.921599,28.117728],[-97.920922,28.118405],[-97.920481,28.119538],[-97.919786,28.119742],[-97.919072,28.120561],[-97.917446,28.120495],[-97.91731,28.120913],[-97.917552,28.121937],[-97.917986,28.121942],[-97.918265,28.121673],[-97.919103,28.1223],[-97.919929,28.121794],[-97.919146,28.12279],[-97.918576,28.122399],[-97.917582,28.122778],[-97.917241,28.123301],[-97.91739,28.124407],[-97.917191,28.124721],[-97.917615,28.125294],[-97.917727,28.125955],[-97.918298,28.126197],[-97.919018,28.127231],[-97.919216,28.128095],[-97.920073,28.128095],[-97.921004,28.129229],[-97.921481,28.129454],[-97.921922,28.129482],[-97.922295,28.129146],[-97.922276,28.129383],[-97.921711,28.12973],[-97.921035,28.129564],[-97.920706,28.129124],[-97.920184,28.129075],[-97.919886,28.129267],[-97.919868,28.129751],[-97.920954,28.131248],[-97.924044,28.133048],[-97.924758,28.133978],[-97.925087,28.134825],[-97.925068,28.13554],[-97.92549,28.136052],[-97.925242,28.136206],[-97.925416,28.136663],[-97.925273,28.137273],[-97.926353,28.13795],[-97.925695,28.136718],[-97.926222,28.136663],[-97.927296,28.138611],[-97.927116,28.138919],[-97.92765,28.139062],[-97.927197,28.13937],[-97.927575,28.139706],[-97.927166,28.139684],[-97.927135,28.13986],[-97.9276,28.141642],[-97.927004,28.143948],[-97.927078,28.144421],[-97.928003,28.145439],[-97.927717,28.147568],[-97.928357,28.147794],[-97.930219,28.147761],[-97.930511,28.147469],[-97.930076,28.146919],[-97.930132,28.146347],[-97.930548,28.146919],[-97.93143,28.14704],[-97.931591,28.147453],[-97.931833,28.147458],[-97.931957,28.147277],[-97.931634,28.146595],[-97.932193,28.14676],[-97.932323,28.146479],[-97.932683,28.146441],[-97.933031,28.146639],[-97.933248,28.147337],[-97.934105,28.147855],[-97.935291,28.146474],[-97.9348,28.14589],[-97.935229,28.145984],[-97.935688,28.145384],[-97.936005,28.142875],[-97.93562,28.14265],[-97.936284,28.142435],[-97.936433,28.141835],[-97.937029,28.141313],[-97.93693,28.141065],[-97.937389,28.14096],[-97.937184,28.140592],[-97.937575,28.139998],[-97.938363,28.139679],[-97.938736,28.138457],[-97.938668,28.138143],[-97.938332,28.137984],[-97.938376,28.137687],[-97.937314,28.137489],[-97.937234,28.137203],[-97.936948,28.137483],[-97.936954,28.137164],[-97.937314,28.136916],[-97.936657,28.137114],[-97.936663,28.136801],[-97.936874,28.136757],[-97.936557,28.136509],[-97.93706,28.136449],[-97.936607,28.136278],[-97.936545,28.136141],[-97.936781,28.136168],[-97.936452,28.135871],[-97.93672,28.135828],[-97.93693,28.13613],[-97.937023,28.135915],[-97.937439,28.135986],[-97.937445,28.136196],[-97.937836,28.136333],[-97.938159,28.136157],[-97.938196,28.136619],[-97.938543,28.136311],[-97.938723,28.13679],[-97.939145,28.136801],[-97.939537,28.13668],[-97.939561,28.13641],[-97.940325,28.13575],[-97.939803,28.134848],[-97.939909,28.134583],[-97.939518,28.134429],[-97.939369,28.134077],[-97.93873,28.13405],[-97.938605,28.133186],[-97.937556,28.132757],[-97.937352,28.1329],[-97.936737,28.132779],[-97.936495,28.132548],[-97.937861,28.132454],[-97.936483,28.130226],[-97.936284,28.12868],[-97.936595,28.127623],[-97.937507,28.126506],[-97.937283,28.126517],[-97.937035,28.12611],[-97.937234,28.125285],[-97.937602,28.125288],[-97.93755,28.126099],[-97.938934,28.125516],[-97.939853,28.125582],[-97.941652,28.125986],[-97.941087,28.12642],[-97.939405,28.12641],[-97.938661,28.126754],[-97.937713,28.127827],[-97.937536,28.129148],[-97.939187,28.132198],[-97.941531,28.134835],[-97.942354,28.13513],[-97.942381,28.13554],[-97.941535,28.136749],[-97.940745,28.139622],[-97.939232,28.141241],[-97.938693,28.141539],[-97.938078,28.142703],[-97.940007,28.143154],[-97.940419,28.143789],[-97.940346,28.145271],[-97.939552,28.146344],[-97.939449,28.146822],[-97.939812,28.147938],[-97.940198,28.148302],[-97.941149,28.148117],[-97.941845,28.148845],[-97.943182,28.149274],[-97.944209,28.148817],[-97.945291,28.149407],[-97.946498,28.149654],[-97.947733,28.150471],[-97.949625,28.150776],[-97.950357,28.150605],[-97.950971,28.150154],[-97.952809,28.150644],[-97.95438,28.151513],[-97.955094,28.151623],[-97.955845,28.15154],[-97.958359,28.150439],[-97.959079,28.150736],[-97.95967,28.13679],[-97.959972,28.135474],[-97.96066,28.134566],[-97.969703,28.127018],[-97.970316,28.125929],[-97.970635,28.123914],[-97.971446,28.122725],[-97.973819,28.121185],[-97.999364,28.112588],[-98.001054,28.112437],[-98.002688,28.113038],[-98.01528,28.124403],[-98.016771,28.125323],[-98.017846,28.126385],[-98.018411,28.126332],[-98.019769,28.12532],[-98.039217,28.108241],[-98.040593,28.107594],[-98.04229,28.107551],[-98.043925,28.108288],[-98.059637,28.1226],[-98.073388,28.110755],[-98.073522,28.11043],[-98.075514,28.108983],[-98.086714,28.119121],[-98.088885,28.117581],[-98.088922,28.117311],[-98.099947,28.107938],[-98.100627,28.118461],[-98.10389,28.131994],[-98.104046,28.13344],[-98.102645,28.156806],[-98.106218,28.222051],[-98.105879,28.222114],[-98.091208,28.235613],[-98.09012,28.236133],[-98.089579,28.236711],[-98.088599,28.238878],[-98.084143,28.243932],[-98.081586,28.246358],[-98.086885,28.252759],[-98.086924,28.253163],[-98.049674,28.285811],[-98.050114,28.286444],[-98.049773,28.287366],[-98.051471,28.288926],[-98.049826,28.288483],[-98.048018,28.287278],[-98.045884,28.289153],[-98.045189,28.293779],[-98.044335,28.297182],[-98.043989,28.297542],[-98.043197,28.297715],[-98.04218,28.299283],[-98.040595,28.300788],[-98.037731,28.304302],[-98.033779,28.303189],[-98.027228,28.300206],[-98.025592,28.300078],[-98.024436,28.300458],[-98.02346,28.301161],[-98.015422,28.309391],[-98.004516,28.321114],[-97.977663,28.301352],[-97.974993,28.298833],[-97.97268,28.295958],[-97.970783,28.296984],[-97.97013,28.297633],[-97.969925,28.298404],[-97.971076,28.300005],[-97.971094,28.300439],[-97.970635,28.301474],[-97.969709,28.302085],[-97.968901,28.303466],[-97.969335,28.304621],[-97.968891,28.311392],[-97.968502,28.3129],[-97.967394,28.315156],[-97.965578,28.316833],[-97.965346,28.317589],[-97.961966,28.317123],[-97.959186,28.315963],[-97.958596,28.316403],[-97.958639,28.317234],[-97.95826,28.317174],[-97.958192,28.317438],[-97.957234,28.316843],[-97.956731,28.318489],[-97.955102,28.318126],[-97.954008,28.31949],[-97.950613,28.319595],[-97.950047,28.319419],[-97.948971,28.319738],[-97.948822,28.320135],[-97.946627,28.321301],[-97.945204,28.321554],[-97.941821,28.321626],[-97.939738,28.322677],[-97.937495,28.322974],[-97.938224,28.327937],[-97.940634,28.3336],[-97.940745,28.334572],[-97.941936,28.335877],[-97.942836,28.339435],[-97.94272,28.342737],[-97.943175,28.34353],[-97.942665,28.343367],[-97.940547,28.343937]]]}},{"type":"Feature","properties":{"PRECINCT":"14","VTD":"0014"},"geometry":{"type":"Polygon","coordinates":[[[-98.1256,28.44013],[-98.124202,28.440242],[-98.123551,28.439746],[-98.124504,28.438707],[-98.124692,28.438024],[-98.123934,28.436392],[-98.123435,28.43609],[-98.122961,28.436104],[-98.122118,28.436741],[-98.121358,28.438536],[-98.120072,28.439281],[-98.120257,28.440631],[-98.119995,28.441216],[-98.119081,28.441861],[-98.117866,28.442111],[-98.11682,28.441512],[-98.116478,28.440464],[-98.115557,28.439517],[-98.114909,28.437828],[-98.113516,28.436363],[-98.113267,28.43517],[-98.114565,28.43238],[-98.113238,28.42826],[-98.113111,28.427373],[-98.113359,28.425493],[-98.113132,28.424844],[-98.112303,28.423929],[-98.109675,28.422095],[-98.108023,28.42028],[-98.106531,28.418153],[-98.104731,28.416581],[-98.104168,28.41584],[-98.103966,28.41511],[-98.104686,28.411799],[-98.105482,28.410642],[-98.107259,28.410054],[-98.106331,28.408086],[-98.105904,28.4079],[-98.104246,28.408463],[-98.103859,28.408085],[-98.102495,28.408081],[-98.097426,28.408568],[-98.094789,28.406344],[-98.09442,28.40624],[-98.09377,28.406612],[-98.081963,28.419382],[-98.086411,28.424859],[-98.090757,28.431593],[-98.096122,28.438964],[-98.101766,28.445661],[-98.10137,28.446295],[-98.095849,28.439543],[-98.092197,28.434556],[-98.091876,28.434701],[-98.090475,28.432837],[-98.073582,28.441668],[-98.07171,28.442465],[-98.07034,28.442615],[-98.069181,28.442438],[-98.064858,28.440543],[-98.063353,28.440115],[-98.051649,28.440317],[-98.050024,28.440833],[-98.047522,28.443476],[-98.046939,28.443824],[-98.0456,28.44414],[-98.04415,28.443834],[-98.039943,28.44079],[-98.037931,28.437952],[-98.032358,28.433854],[-98.022216,28.427804],[-98.020856,28.42639],[-98.015505,28.419491],[-98.015322,28.418443],[-98.016674,28.417892],[-98.02621,28.407771],[-98.014226,28.39894],[-98.013868,28.398051],[-98.014467,28.395356],[-98.014015,28.394862],[-98.001224,28.38564],[-97.999801,28.385183],[-97.997245,28.38519],[-97.99595,28.384718],[-97.982308,28.374923],[-97.980116,28.374594],[-97.978503,28.37501],[-97.977285,28.375869],[-97.972499,28.380968],[-97.970939,28.381663],[-97.968946,28.381735],[-97.967127,28.381051],[-97.960475,28.376232],[-97.959769,28.375529],[-97.958494,28.373444],[-97.954643,28.370477],[-97.954128,28.369454],[-97.954251,28.367718],[-97.956515,28.362981],[-97.959834,28.356903],[-97.964569,28.350633],[-97.96913,28.345679],[-97.96967,28.344655],[-97.969773,28.34348],[-97.952193,28.346641],[-97.95022,28.346737],[-97.928425,28.344252],[-97.919871,28.342531],[-97.907349,28.340588],[-97.908701,28.338283],[-97.908965,28.337044],[-97.909079,28.335535],[-97.908376,28.334816],[-97.90896,28.333135],[-97.909055,28.329939],[-97.909457,28.329745],[-97.910351,28.329865],[-97.911116,28.329469],[-97.912074,28.328231],[-97.914157,28.326883],[-97.914898,28.325315],[-97.916583,28.324122],[-97.916322,28.324991],[-97.917497,28.325685],[-97.918597,28.327655],[-97.918752,28.3293],[-97.918478,28.330637],[-97.918963,28.331649],[-97.92163,28.33193],[-97.922905,28.334203],[-97.925336,28.335133],[-97.926399,28.335842],[-97.927033,28.336746],[-97.931914,28.339139],[-97.937321,28.342695],[-97.940547,28.343937],[-97.941703,28.343497],[-97.942665,28.343367],[-97.943175,28.34353],[-97.94272,28.342737],[-97.942918,28.340194],[-97.942384,28.337216],[-97.941936,28.335877],[-97.940745,28.334572],[-97.940634,28.3336],[-97.938224,28.327937],[-97.937495,28.322974],[-97.939738,28.322677],[-97.941821,28.321626],[-97.945204,28.321554],[-97.946627,28.321301],[-97.948822,28.320135],[-97.948971,28.319738],[-97.950047,28.319419],[-97.950613,28.319595],[-97.954008,28.31949],[-97.955102,28.318126],[-97.956731,28.318489],[-97.957234,28.316843],[-97.958192,28.317438],[-97.95826,28.317174],[-97.958639,28.317234],[-97.958596,28.316403],[-97.959186,28.315963],[-97.961966,28.317123],[-97.965346,28.317589],[-97.965578,28.316833],[-97.967394,28.315156],[-97.967821,28.314494],[-97.968891,28.311392],[-97.969335,28.304621],[-97.968901,28.303466],[-97.969709,28.302085],[-97.970635,28.301474],[-97.971094,28.300439],[-97.971076,28.300005],[-97.969925,28.298404],[-97.97013,28.297633],[-97.970783,28.296984],[-97.97268,28.295958],[-97.974993,28.298833],[-97.977663,28.301352],[-98.004516,28.321114],[-98.015422,28.309391],[-98.02346,28.301161],[-98.024436,28.300458],[-98.025592,28.300078],[-98.027228,28.300206],[-98.033779,28.303189],[-98.037731,28.304302],[-98.040595,28.300788],[-98.04218,28.299283],[-98.043197,28.297715],[-98.043989,28.297542],[-98.044335,28.297182],[-98.045189,28.293779],[-98.045884,28.289153],[-98.048018,28.287278],[-98.049826,28.288483],[-98.051471,28.288926],[-98.049773,28.287366],[-98.050114,28.286444],[-98.049674,28.285811],[-98.086924,28.253163],[-98.086885,28.252759],[-98.081586,28.246358],[-98.084143,28.243932],[-98.088599,28.238878],[-98.089579,28.236711],[-98.09012,28.236133],[-98.091208,28.235613],[-98.105879,28.222114],[-98.106218,28.222051],[-98.107622,28.247237],[-98.113929,28.283013],[-98.11357,28.299654],[-98.113824,28.311523],[-98.120733,28.318185],[-98.12898,28.325354],[-98.120991,28.330436],[-98.120335,28.329629],[-98.118729,28.330668],[-98.118069,28.329831],[-98.119678,28.328812],[-98.116189,28.324461],[-98.11941,28.320019],[-98.11912,28.319745],[-98.117497,28.319701],[-98.117105,28.319905],[-98.115956,28.321336],[-98.114043,28.32207],[-98.113856,28.31364],[-98.107738,28.318827],[-98.110911,28.322728],[-98.108275,28.324414],[-98.111387,28.328259],[-98.107667,28.330844],[-98.111095,28.335015],[-98.102561,28.340409],[-98.101675,28.340729],[-98.099914,28.340804],[-98.098961,28.341292],[-98.098262,28.341868],[-98.098722,28.342536],[-98.097872,28.345296],[-98.096846,28.346507],[-98.10101,28.348087],[-98.103648,28.349704],[-98.104245,28.349858],[-98.105066,28.349792],[-98.107914,28.348602],[-98.108673,28.34978],[-98.110017,28.349796],[-98.110446,28.350665],[-98.111809,28.351512],[-98.112475,28.352684],[-98.115062,28.351401],[-98.117183,28.351912],[-98.117426,28.351735],[-98.11745,28.351196],[-98.118035,28.351152],[-98.118333,28.350095],[-98.118214,28.349309],[-98.116689,28.346542],[-98.116732,28.346189],[-98.117255,28.345903],[-98.117572,28.345397],[-98.11764,28.344604],[-98.117185,28.343466],[-98.116644,28.343119],[-98.115742,28.343367],[-98.115387,28.342883],[-98.115443,28.34263],[-98.116657,28.341931],[-98.119179,28.346277],[-98.121265,28.348974],[-98.130264,28.362834],[-98.135624,28.358211],[-98.154181,28.379604],[-98.161893,28.38973],[-98.166728,28.398366],[-98.165763,28.399191],[-98.166346,28.402892],[-98.168989,28.411684],[-98.156147,28.423633],[-98.164366,28.430327],[-98.162043,28.431759],[-98.160693,28.431937],[-98.160173,28.432208],[-98.159812,28.432984],[-98.159831,28.433809],[-98.159297,28.434425],[-98.15744,28.434449],[-98.156197,28.43372],[-98.153998,28.43485],[-98.15372,28.435482],[-98.154064,28.43576],[-98.155767,28.435317],[-98.156765,28.43568],[-98.157308,28.436242],[-98.15733,28.436851],[-98.157005,28.43729],[-98.156349,28.437378],[-98.154226,28.436712],[-98.151092,28.436218],[-98.149794,28.436502],[-98.145265,28.438292],[-98.144101,28.439621],[-98.142937,28.441897],[-98.140248,28.443873],[-98.137904,28.444988],[-98.137032,28.446027],[-98.136207,28.447546],[-98.135516,28.447726],[-98.13476,28.447596],[-98.13417,28.447232],[-98.130906,28.444638],[-98.127484,28.442959],[-98.126975,28.440885],[-98.1256,28.44013]]]}}]}