{"type":"FeatureCollection","features":[{"type":"Feature","properties":{"PRECINCT":"3-3","VTD":"03-3"},"geometry":{"type":"Polygon","coordinates":[[[-104.574248,32.000168],[-104.329638,32.000188],[-104.283342,31.999947],[-104.024521,32.00001],[-104.036252,31.869494],[-104.070813,31.468865],[-104.07468,31.468148],[-104.077486,31.467178],[-104.081155,31.465309],[-104.085519,31.464392],[-104.095315,31.465677],[-104.113973,31.466074],[-104.116759,31.465917],[-104.119587,31.467599],[-104.123005,31.470609],[-104.125307,31.473611],[-104.128551,31.476227],[-104.130277,31.477069],[-104.130934,31.477144],[-104.131896,31.476854],[-104.134465,31.475602],[-104.136151,31.474358],[-104.137992,31.474206],[-104.139604,31.474452],[-104.139982,31.475148],[-104.140696,31.481317],[-104.139464,31.484156],[-104.139456,31.486348],[-104.138427,31.488619],[-104.139832,31.492196],[-104.142278,31.495661],[-104.144335,31.497499],[-104.146047,31.498319],[-104.147068,31.499132],[-104.148003,31.500217],[-104.149375,31.502479],[-104.154026,31.507041],[-104.156398,31.509818],[-104.158202,31.508616],[-104.160755,31.505168],[-104.164267,31.502803],[-104.165672,31.501964],[-104.166604,31.501962],[-104.167989,31.502316],[-104.168678,31.502215],[-104.171232,31.500334],[-104.172212,31.499039],[-104.172215,31.498367],[-104.17265,31.497752],[-104.173405,31.497397],[-104.173641,31.496912],[-104.174636,31.496247],[-104.174771,31.495834],[-104.174335,31.495152],[-104.174328,31.493931],[-104.176742,31.49138],[-104.177833,31.489642],[-104.181222,31.486683],[-104.182551,31.486249],[-104.185689,31.485704],[-104.187518,31.484714],[-104.19092,31.481585],[-104.191638,31.480304],[-104.193551,31.478428],[-104.194404,31.47801],[-104.196676,31.477482],[-104.201097,31.477311],[-104.2048,31.476684],[-104.206462,31.476249],[-104.207752,31.475567],[-104.209484,31.47527],[-104.212565,31.475539],[-104.214599,31.476352],[-104.215883,31.477216],[-104.217583,31.47749],[-104.218103,31.477771],[-104.218976,31.477892],[-104.220542,31.477457],[-104.222653,31.477451],[-104.224591,31.478556],[-104.226401,31.478984],[-104.229944,31.479016],[-104.233826,31.478327],[-104.241534,31.479798],[-104.24353,31.480358],[-104.245815,31.480341],[-104.24851,31.4799],[-104.249486,31.480064],[-104.250961,31.480393],[-104.252738,31.481296],[-104.256172,31.481716],[-104.260239,31.484385],[-104.260874,31.485425],[-104.261977,31.486129],[-104.263998,31.486493],[-104.267066,31.486648],[-104.268273,31.48699],[-104.268806,31.484518],[-104.268627,31.481988],[-104.375491,31.489965],[-104.377272,31.491543],[-104.37859,31.493557],[-104.379297,31.495494],[-104.379123,31.496098],[-104.379361,31.497326],[-104.378774,31.499954],[-104.379008,31.501334],[-104.380298,31.503411],[-104.382188,31.50782],[-104.383441,31.508711],[-104.383944,31.509411],[-104.38354,31.511208],[-104.382623,31.512627],[-104.382402,31.513892],[-104.382627,31.514632],[-104.383376,31.515956],[-104.385669,31.51734],[-104.389801,31.522028],[-104.391881,31.523505],[-104.392609,31.520792],[-104.393945,31.520948],[-104.398944,31.520885],[-104.404074,31.519456],[-104.405162,31.519864],[-104.408508,31.518856],[-104.419402,31.517692],[-104.424049,31.516833],[-104.424892,31.517025],[-104.425776,31.516923],[-104.432311,31.515751],[-104.44041,31.52292],[-104.440476,31.523572],[-104.449973,31.520897],[-104.456934,31.523325],[-104.458433,31.522896],[-104.459298,31.522403],[-104.46118,31.522061],[-104.463037,31.522848],[-104.466447,31.52357],[-104.468316,31.523869],[-104.470786,31.523778],[-104.471947,31.523269],[-104.47499,31.522751],[-104.475836,31.52184],[-104.47821,31.520492],[-104.479322,31.519582],[-104.484877,31.517241],[-104.48804,31.516289],[-104.491518,31.515626],[-104.499056,31.515365],[-104.50146,31.515053],[-104.506613,31.51379],[-104.507933,31.512979],[-104.511731,31.509005],[-104.512961,31.507935],[-104.513326,31.507894],[-104.517788,31.510177],[-104.524358,31.513947],[-104.526306,31.514309],[-104.529184,31.515225],[-104.535654,31.518817],[-104.537198,31.518869],[-104.538434,31.51838],[-104.540282,31.518191],[-104.543043,31.518567],[-104.544692,31.519348],[-104.545268,31.52019],[-104.545818,31.522001],[-104.545271,31.526249],[-104.546564,31.526832],[-104.547629,31.527682],[-104.548291,31.528913],[-104.55166,31.533511],[-104.55889,31.549496],[-104.559157,31.552648],[-104.561093,31.551718],[-104.562021,31.551005],[-104.564158,31.5488],[-104.566389,31.545225],[-104.569869,31.542341],[-104.571333,31.540723],[-104.574818,31.540328],[-104.576219,31.541024],[-104.578766,31.542856],[-104.581777,31.543881],[-104.582957,31.543988],[-104.586541,31.543493],[-104.588709,31.542688],[-104.593344,31.541695],[-104.596571,31.540684],[-104.599625,31.539262],[-104.600468,31.539234],[-104.6016,31.538773],[-104.603565,31.539332],[-104.606684,31.539568],[-104.603613,31.538969],[-104.601923,31.53831],[-104.603637,31.535768],[-104.607617,31.533523],[-104.60917,31.531889],[-104.609767,31.53157],[-104.610762,31.530216],[-104.610967,31.529397],[-104.610805,31.526966],[-104.61135,31.524584],[-104.610829,31.523198],[-104.610713,31.522269],[-104.611047,31.521614],[-104.610783,31.520938],[-104.611444,31.519942],[-104.611116,31.519848],[-104.611103,31.519546],[-104.611937,31.518611],[-104.612027,31.517989],[-104.612662,31.517378],[-104.613345,31.517245],[-104.625977,31.519888],[-104.627001,31.519859],[-104.629949,31.519158],[-104.630504,31.518559],[-104.631153,31.516298],[-104.633874,31.513834],[-104.635881,31.513046],[-104.637415,31.511709],[-104.639106,31.511108],[-104.639981,31.511533],[-104.640706,31.512232],[-104.651239,31.515474],[-104.654821,31.515519],[-104.660203,31.518887],[-104.665876,31.521524],[-104.675499,31.524931],[-104.688469,31.531542],[-104.705521,31.53434],[-104.734218,31.541125],[-104.735428,31.540292],[-104.736067,31.540277],[-104.736085,31.539174],[-104.739367,31.535634],[-104.741132,31.535295],[-104.741671,31.533099],[-104.74235,31.531984],[-104.743164,31.531445],[-104.743035,31.53066],[-104.743301,31.529562],[-104.744643,31.526957],[-104.744945,31.52536],[-104.749822,31.522505],[-104.750389,31.520812],[-104.759711,31.510115],[-104.759619,31.508501],[-104.76078,31.509513],[-104.760933,31.510471],[-104.76258,31.513762],[-104.766977,31.521507],[-104.767629,31.521979],[-104.767988,31.521974],[-104.769534,31.520471],[-104.771372,31.51781],[-104.779593,31.507476],[-104.779935,31.506954],[-104.780057,31.505834],[-104.780953,31.505023],[-104.781592,31.50381],[-104.78303,31.502294],[-104.788335,31.495349],[-104.790683,31.492947],[-104.791586,31.49245],[-104.795518,31.491853],[-104.80256,31.493007],[-104.80424,31.49294],[-104.804748,31.493641],[-104.805877,31.493869],[-104.809992,31.496575],[-104.813782,31.498495],[-104.815501,31.499692],[-104.816198,31.500888],[-104.817825,31.501552],[-104.819077,31.50258],[-104.820253,31.502764],[-104.823014,31.503918],[-104.827236,31.50506],[-104.829509,31.506422],[-104.830033,31.50645],[-104.833088,31.50565],[-104.834321,31.505825],[-104.836336,31.50688],[-104.837455,31.506788],[-104.838559,31.507176],[-104.844035,31.506157],[-104.842485,31.502602],[-104.841922,31.501811],[-104.841229,31.488317],[-104.841839,31.48644],[-104.841166,31.485897],[-104.840945,31.484698],[-104.84005,31.462627],[-104.841657,31.462215],[-104.841862,31.471292],[-104.843089,31.482749],[-104.844206,31.482608],[-104.848934,31.48078],[-104.85201,31.480719],[-104.852982,31.480449],[-104.853201,31.480459],[-104.852984,31.48063],[-104.853799,31.481081],[-104.854307,31.481807],[-104.85561,31.482632],[-104.858274,31.483362],[-104.861431,31.4828],[-104.861489,31.482619],[-104.86265,31.482695],[-104.86335,31.482343],[-104.864756,31.482804],[-104.865968,31.482232],[-104.866263,31.481841],[-104.867759,31.481698],[-104.868099,31.481477],[-104.870043,31.481493],[-104.870434,31.480618],[-104.871827,31.47987],[-104.872436,31.47988],[-104.873335,31.48043],[-104.874555,31.480803],[-104.875984,31.480902],[-104.877248,31.480628],[-104.879122,31.481041],[-104.880155,31.480981],[-104.881516,31.480305],[-104.883365,31.480026],[-104.885476,31.480956],[-104.88604,31.481523],[-104.888338,31.481788],[-104.889179,31.481062],[-104.890122,31.480903],[-104.891438,31.48015],[-104.893685,31.479843],[-104.895219,31.479926],[-104.895995,31.479756],[-104.896765,31.480135],[-104.897433,31.480053],[-104.897978,31.480394],[-104.898659,31.480174],[-104.899185,31.480582],[-104.899801,31.48023],[-104.900456,31.479372],[-104.900078,31.478552],[-104.900912,31.478255],[-104.90079,31.477645],[-104.902376,31.477607],[-104.902877,31.476694],[-104.902139,31.476325],[-104.902299,31.475874],[-104.903551,31.475561],[-104.903724,31.474703],[-104.904135,31.474577],[-104.904315,31.474076],[-104.905156,31.473999],[-104.905092,31.473548],[-104.90463,31.473169],[-104.904964,31.472377],[-104.906132,31.472201],[-104.906742,31.471244],[-104.907935,31.471564],[-104.908397,31.471333],[-104.910008,31.471493],[-104.912367,31.468884],[-104.912729,31.500122],[-104.913093,31.586898],[-104.91289,31.62512],[-104.915356,31.719423],[-104.9164,31.727656],[-104.917153,31.754539],[-104.917443,31.755715],[-104.917164,31.758715],[-104.918276,31.813306],[-104.918244,31.869948],[-104.918495,31.885206],[-104.917661,31.885192],[-104.918691,32.000113],[-104.918272,32.000496],[-104.854274,32.000457],[-104.833441,32.000664],[-104.776185,32.00042],[-104.768177,32.000578],[-104.731473,32.000361],[-104.607583,32.000398],[-104.574248,32.000168]]]}},{"type":"Feature","properties":{"PRECINCT":"4","VTD":"0004"},"geometry":{"type":"Polygon","coordinates":[[[-104.471184,31.523709],[-104.468042,31.523841],[-104.46486,31.523244],[-104.463037,31.522848],[-104.46118,31.522061],[-104.459298,31.522403],[-104.458433,31.522896],[-104.456934,31.523325],[-104.449973,31.520897],[-104.440476,31.523572],[-104.44041,31.52292],[-104.432311,31.515751],[-104.425776,31.516923],[-104.424892,31.517025],[-104.424049,31.516833],[-104.419402,31.517692],[-104.408508,31.518856],[-104.405162,31.519864],[-104.404074,31.519456],[-104.398944,31.520885],[-104.393945,31.520948],[-104.392609,31.520792],[-104.391881,31.523505],[-104.389801,31.522028],[-104.385669,31.51734],[-104.383376,31.515956],[-104.382627,31.514632],[-104.382402,31.513892],[-104.382623,31.512627],[-104.38354,31.511208],[-104.383944,31.509411],[-104.383441,31.508711],[-104.382188,31.50782],[-104.380298,31.503411],[-104.379008,31.501334],[-104.378774,31.499954],[-104.379361,31.497326],[-104.379123,31.496098],[-104.379297,31.495494],[-104.37859,31.493557],[-104.377272,31.491543],[-104.375491,31.489965],[-104.268627,31.481988],[-104.268806,31.484518],[-104.268273,31.48699],[-104.267066,31.486648],[-104.263998,31.486493],[-104.261977,31.486129],[-104.260874,31.485425],[-104.260239,31.484385],[-104.256172,31.481716],[-104.252738,31.481296],[-104.250961,31.480393],[-104.249486,31.480064],[-104.24851,31.4799],[-104.245815,31.480341],[-104.24353,31.480358],[-104.241534,31.479798],[-104.233826,31.478327],[-104.229944,31.479016],[-104.226401,31.478984],[-104.224591,31.478556],[-104.222653,31.477451],[-104.220542,31.477457],[-104.218976,31.477892],[-104.218103,31.477771],[-104.217583,31.47749],[-104.215883,31.477216],[-104.214599,31.476352],[-104.212565,31.475539],[-104.21012,31.475275],[-104.207752,31.475567],[-104.206462,31.476249],[-104.2048,31.476684],[-104.201097,31.477311],[-104.196676,31.477482],[-104.194404,31.47801],[-104.193551,31.478428],[-104.191638,31.480304],[-104.19092,31.481585],[-104.187518,31.484714],[-104.185689,31.485704],[-104.182551,31.486249],[-104.181222,31.486683],[-104.177833,31.489642],[-104.176742,31.49138],[-104.174328,31.493931],[-104.174335,31.495152],[-104.174771,31.495834],[-104.174636,31.496247],[-104.173641,31.496912],[-104.173405,31.497397],[-104.17265,31.497752],[-104.172215,31.498367],[-104.172212,31.499039],[-104.171232,31.500334],[-104.168678,31.502215],[-104.167989,31.502316],[-104.166604,31.501962],[-104.165672,31.501964],[-104.164267,31.502803],[-104.160755,31.505168],[-104.158202,31.508616],[-104.156398,31.509818],[-104.154026,31.507041],[-104.149375,31.502479],[-104.148003,31.500217],[-104.147068,31.499132],[-104.146047,31.498319],[-104.144335,31.497499],[-104.142278,31.495661],[-104.139832,31.492196],[-104.138427,31.488619],[-104.139456,31.486348],[-104.139464,31.484156],[-104.140696,31.481317],[-104.139982,31.475148],[-104.139604,31.474452],[-104.137992,31.474206],[-104.136151,31.474358],[-104.134465,31.475602],[-104.131896,31.476854],[-104.130934,31.477144],[-104.130277,31.477069],[-104.128551,31.476227],[-104.125307,31.473611],[-104.123005,31.470609],[-104.119587,31.467599],[-104.116759,31.465917],[-104.113973,31.466074],[-104.095315,31.465677],[-104.085519,31.464392],[-104.081155,31.465309],[-104.077486,31.467178],[-104.07468,31.468148],[-104.070813,31.468865],[-104.077294,31.394061],[-104.079236,31.375139],[-104.089818,31.250134],[-104.091043,31.240314],[-104.095834,31.182484],[-104.100216,31.133361],[-104.100333,31.125136],[-104.101034,31.12474],[-104.102354,31.105163],[-104.217855,31.042882],[-104.250473,31.026534],[-104.293588,31.004227],[-104.30039,31.000135],[-104.493736,30.895317],[-104.494966,30.89712],[-104.495912,30.899376],[-104.494628,30.904248],[-104.494579,30.923922],[-104.494247,30.925015],[-104.491039,30.928656],[-104.488471,30.932369],[-104.483773,30.938048],[-104.482634,30.940501],[-104.482685,30.942003],[-104.483093,30.943172],[-104.483104,30.95087],[-104.481435,30.954237],[-104.482389,30.958953],[-104.491065,30.984829],[-104.497437,30.99439],[-104.498441,30.996826],[-104.4982,30.998969],[-104.496276,31.005376],[-104.498485,31.014233],[-104.49827,31.060097],[-104.4986,31.060536],[-104.501093,31.06119],[-104.50148,31.06259],[-104.507925,31.061742],[-104.740711,31.042811],[-104.748384,31.04288],[-104.767213,31.044896],[-104.770745,31.045062],[-104.810501,31.041772],[-104.81197,31.041609],[-104.815221,31.04079],[-104.822136,31.038229],[-104.822401,31.031113],[-104.828483,31.031143],[-104.82907,31.030568],[-104.830173,31.030559],[-104.830918,31.037245],[-104.840467,31.036521],[-104.840491,31.039042],[-104.839753,31.039107],[-104.839762,31.039591],[-104.838525,31.039687],[-104.838601,31.040351],[-104.837988,31.040403],[-104.838103,31.041431],[-104.836885,31.041525],[-104.837002,31.042566],[-104.822053,31.043806],[-104.821904,31.046128],[-104.791408,31.046222],[-104.780894,31.048751],[-104.780051,31.047588],[-104.779752,31.0448],[-104.735381,31.048787],[-104.700418,31.051502],[-104.682431,31.05312],[-104.6718,31.053682],[-104.661402,31.054912],[-104.608594,31.05921],[-104.608675,31.063091],[-104.588105,31.063125],[-104.587145,31.063292],[-104.574897,31.063488],[-104.574833,31.077796],[-104.55676,31.077939],[-104.557001,31.127613],[-104.557333,31.135536],[-104.564918,31.135658],[-104.589041,31.135418],[-104.594395,31.13903],[-104.59288,31.140374],[-104.590602,31.143374],[-104.584762,31.153571],[-104.584009,31.155772],[-104.583125,31.161756],[-104.582033,31.166267],[-104.581718,31.172643],[-104.583511,31.178191],[-104.583321,31.181014],[-104.58422,31.183339],[-104.585485,31.190115],[-104.586198,31.191669],[-104.588419,31.194859],[-104.588385,31.196271],[-104.588981,31.199916],[-104.590848,31.20611],[-104.595225,31.213563],[-104.598614,31.220735],[-104.599228,31.223783],[-104.6007,31.235517],[-104.601257,31.236673],[-104.602713,31.244184],[-104.604831,31.246183],[-104.604003,31.246192],[-104.60346,31.246858],[-104.603224,31.249644],[-104.60234,31.251749],[-104.601799,31.253906],[-104.601942,31.25611],[-104.602335,31.256501],[-104.600938,31.265467],[-104.599527,31.268079],[-104.587978,31.28218],[-104.585642,31.285715],[-104.582232,31.288721],[-104.57953,31.292576],[-104.578387,31.293634],[-104.553495,31.306203],[-104.550672,31.307376],[-104.548616,31.307841],[-104.543551,31.307974],[-104.541372,31.308649],[-104.535263,31.313477],[-104.534195,31.313857],[-104.531448,31.314225],[-104.528645,31.315103],[-104.524161,31.31828],[-104.515789,31.322266],[-104.51246,31.324963],[-104.505705,31.327942],[-104.503327,31.329484],[-104.5046,31.331416],[-104.505926,31.332499],[-104.510044,31.334674],[-104.512427,31.336832],[-104.516269,31.33897],[-104.520215,31.339863],[-104.522858,31.33993],[-104.524107,31.33929],[-104.527301,31.339368],[-104.529559,31.338666],[-104.530513,31.337905],[-104.531487,31.337828],[-104.533046,31.33806],[-104.535222,31.33932],[-104.536819,31.339147],[-104.538139,31.339535],[-104.539956,31.339441],[-104.541494,31.340541],[-104.542264,31.341896],[-104.543332,31.342366],[-104.545639,31.342809],[-104.548777,31.343836],[-104.549922,31.345214],[-104.552491,31.346153],[-104.556606,31.348382],[-104.559136,31.34919],[-104.56107,31.349288],[-104.564364,31.350276],[-104.566876,31.350716],[-104.568313,31.350696],[-104.568663,31.351296],[-104.569865,31.351665],[-104.571075,31.352974],[-104.571213,31.353882],[-104.570592,31.354771],[-104.569472,31.355473],[-104.569259,31.3559],[-104.569595,31.358299],[-104.569291,31.36075],[-104.569327,31.364408],[-104.566987,31.371372],[-104.567261,31.372791],[-104.567212,31.374967],[-104.565864,31.378999],[-104.564801,31.380402],[-104.564363,31.381689],[-104.564272,31.383604],[-104.563528,31.386338],[-104.563762,31.386695],[-104.564705,31.386737],[-104.563404,31.39049],[-104.560692,31.394092],[-104.560435,31.396837],[-104.559929,31.398388],[-104.559775,31.399961],[-104.560012,31.400736],[-104.561198,31.402342],[-104.561295,31.403904],[-104.560487,31.406033],[-104.560948,31.407413],[-104.56082,31.409234],[-104.561647,31.409789],[-104.562288,31.410879],[-104.562276,31.412138],[-104.562975,31.414828],[-104.564052,31.416098],[-104.565162,31.41672],[-104.56554,31.418133],[-104.567432,31.419734],[-104.568125,31.421241],[-104.5686,31.423452],[-104.569607,31.424139],[-104.572275,31.427346],[-104.572981,31.427697],[-104.574514,31.429534],[-104.574302,31.430211],[-104.575688,31.431679],[-104.575836,31.432196],[-104.575599,31.432785],[-104.575797,31.43312],[-104.575695,31.434435],[-104.57708,31.436241],[-104.577331,31.43807],[-104.57779,31.438963],[-104.578097,31.438213],[-104.578502,31.438676],[-104.578535,31.439741],[-104.579267,31.441638],[-104.578958,31.443669],[-104.579282,31.445177],[-104.579196,31.447451],[-104.579679,31.449351],[-104.580174,31.450346],[-104.580741,31.450489],[-104.580976,31.451599],[-104.580444,31.453077],[-104.579679,31.453146],[-104.579656,31.45357],[-104.579184,31.454066],[-104.579294,31.454473],[-104.579867,31.454475],[-104.580033,31.454995],[-104.579094,31.455741],[-104.579375,31.456661],[-104.578647,31.457539],[-104.57904,31.458169],[-104.577943,31.458805],[-104.577295,31.460649],[-104.578112,31.464888],[-104.578395,31.464904],[-104.578425,31.465313],[-104.579063,31.465808],[-104.579254,31.466351],[-104.578388,31.467154],[-104.578574,31.469761],[-104.578132,31.47106],[-104.577381,31.471846],[-104.573704,31.473183],[-104.572292,31.473233],[-104.570804,31.474811],[-104.56927,31.4759],[-104.567242,31.476269],[-104.566286,31.476214],[-104.56574,31.476703],[-104.564765,31.476753],[-104.564566,31.477319],[-104.564008,31.477726],[-104.562919,31.478184],[-104.561539,31.478332],[-104.559174,31.479656],[-104.557223,31.480201],[-104.554911,31.480504],[-104.555823,31.482234],[-104.555821,31.48501],[-104.55812,31.486602],[-104.558778,31.487853],[-104.557985,31.488978],[-104.557939,31.489981],[-104.562639,31.495209],[-104.564647,31.498138],[-104.564663,31.498425],[-104.56409,31.498429],[-104.563754,31.49874],[-104.563866,31.499437],[-104.564489,31.499894],[-104.565688,31.500172],[-104.566401,31.50118],[-104.56559,31.502364],[-104.565504,31.502934],[-104.565761,31.503705],[-104.566657,31.504086],[-104.566526,31.505413],[-104.567779,31.506224],[-104.570015,31.506469],[-104.571405,31.508213],[-104.575117,31.51029],[-104.569096,31.510465],[-104.543458,31.508545],[-104.525445,31.507581],[-104.518221,31.505585],[-104.515344,31.506681],[-104.512961,31.507935],[-104.507933,31.512979],[-104.506613,31.51379],[-104.501705,31.515011],[-104.499396,31.515329],[-104.493362,31.515485],[-104.489325,31.515937],[-104.484877,31.517241],[-104.479322,31.519582],[-104.47821,31.520492],[-104.475836,31.52184],[-104.47499,31.522751],[-104.471947,31.523269],[-104.471184,31.523709]]]}},{"type":"Feature","properties":{"PRECINCT":"3-5","VTD":"03-5"},"geometry":{"type":"Polygon","coordinates":[[[-104.858537,31.483335],[-104.855815,31.482731],[-104.855116,31.48234],[-104.852982,31.480449],[-104.85201,31.480719],[-104.848934,31.48078],[-104.844206,31.482608],[-104.843089,31.482749],[-104.841862,31.471292],[-104.841627,31.457352],[-104.842001,31.455805],[-104.848177,31.439437],[-104.848421,31.437737],[-104.843257,31.392361],[-104.842398,31.389044],[-104.840803,31.386068],[-104.823629,31.364313],[-104.822285,31.362105],[-104.821428,31.35998],[-104.820966,31.357972],[-104.820121,31.3468],[-104.82033,31.343087],[-104.82125,31.338726],[-104.839233,31.278153],[-104.840617,31.274414],[-104.855768,31.238572],[-104.855904,31.237318],[-104.855693,31.236171],[-104.850887,31.22585],[-104.850454,31.224185],[-104.851095,31.218538],[-104.851546,31.199572],[-104.852318,31.194571],[-104.852293,31.192747],[-104.845538,31.170382],[-104.843283,31.164996],[-104.842003,31.163115],[-104.840121,31.16156],[-104.818126,31.149208],[-104.807748,31.144568],[-104.806371,31.143108],[-104.805935,31.14129],[-104.809547,31.121356],[-104.831754,31.053471],[-104.831877,31.052633],[-104.826327,31.0528],[-104.826176,31.050625],[-104.828303,31.049675],[-104.835307,31.049004],[-104.834836,31.044858],[-104.836023,31.044762],[-104.835906,31.043708],[-104.839542,31.043409],[-104.839315,31.041314],[-104.83964,31.041285],[-104.839642,31.040278],[-104.858204,31.038738],[-104.860539,31.039523],[-104.867585,31.038906],[-104.868213,31.039044],[-104.869191,31.038773],[-104.870171,31.03889],[-104.872617,31.04038],[-104.874082,31.040568],[-104.874669,31.040412],[-104.876062,31.040942],[-104.878928,31.042804],[-104.88189,31.043654],[-104.884342,31.044906],[-104.887293,31.045877],[-104.890864,31.047571],[-104.891432,31.046816],[-104.891545,31.044445],[-104.890968,31.042549],[-104.890273,31.041253],[-104.890563,31.039604],[-104.890007,31.038815],[-104.889694,31.037704],[-104.89715,31.038953],[-104.899347,31.040259],[-104.901576,31.039627],[-104.902066,31.039194],[-104.908864,31.04237],[-104.909167,31.147758],[-104.909124,31.246609],[-104.911152,31.35373],[-104.912367,31.468884],[-104.910008,31.471493],[-104.908397,31.471333],[-104.907935,31.471564],[-104.906742,31.471244],[-104.906132,31.472201],[-104.904964,31.472377],[-104.90463,31.473169],[-104.905092,31.473548],[-104.905156,31.473999],[-104.904315,31.474076],[-104.904135,31.474577],[-104.903724,31.474703],[-104.903551,31.475561],[-104.902299,31.475874],[-104.902139,31.476325],[-104.902877,31.476694],[-104.902376,31.477607],[-104.90079,31.477645],[-104.900912,31.478255],[-104.900078,31.478552],[-104.900456,31.479372],[-104.899801,31.48023],[-104.899185,31.480582],[-104.898659,31.480174],[-104.897978,31.480394],[-104.897433,31.480053],[-104.896765,31.480135],[-104.895995,31.479756],[-104.895219,31.479926],[-104.893685,31.479843],[-104.891438,31.48015],[-104.890122,31.480903],[-104.889179,31.481062],[-104.888338,31.481788],[-104.88604,31.481523],[-104.885476,31.480956],[-104.883365,31.480026],[-104.881516,31.480305],[-104.880155,31.480981],[-104.879122,31.481041],[-104.877248,31.480628],[-104.875984,31.480902],[-104.874555,31.480803],[-104.873335,31.48043],[-104.872436,31.47988],[-104.871827,31.47987],[-104.870434,31.480618],[-104.87014,31.481465],[-104.868099,31.481477],[-104.867759,31.481698],[-104.866263,31.481841],[-104.865968,31.482232],[-104.864756,31.482804],[-104.86335,31.482343],[-104.86265,31.482695],[-104.861489,31.482619],[-104.861431,31.4828],[-104.859769,31.48296],[-104.858537,31.483335]]]}},{"type":"Feature","properties":{"PRECINCT":"1","VTD":"0001"},"geometry":{"type":"Polygon","coordinates":[[[-104.498288,31.060212],[-104.498485,31.014233],[-104.496276,31.005376],[-104.4982,30.998969],[-104.498441,30.996826],[-104.497437,30.99439],[-104.491065,30.984829],[-104.482389,30.958953],[-104.481435,30.954237],[-104.483104,30.95087],[-104.483093,30.943172],[-104.482685,30.942003],[-104.482634,30.940501],[-104.483773,30.938048],[-104.488471,30.932369],[-104.491039,30.928656],[-104.494247,30.925015],[-104.494579,30.923922],[-104.494628,30.904248],[-104.495912,30.899376],[-104.494966,30.89712],[-104.493736,30.895317],[-104.532183,30.873935],[-104.617067,30.82759],[-104.625482,30.822798],[-104.77907,30.739294],[-104.917163,30.663626],[-104.916396,30.835979],[-104.907592,30.835919],[-104.907506,30.900312],[-104.907122,30.900342],[-104.907816,30.984772],[-104.907992,30.98487],[-104.908893,31.000134],[-104.908864,31.04237],[-104.902066,31.039194],[-104.901576,31.039627],[-104.899347,31.040259],[-104.89715,31.038953],[-104.889694,31.037704],[-104.890007,31.038815],[-104.890563,31.039604],[-104.890273,31.041253],[-104.890968,31.042549],[-104.891545,31.044445],[-104.891432,31.046816],[-104.890864,31.047571],[-104.887293,31.045877],[-104.884342,31.044906],[-104.88189,31.043654],[-104.878928,31.042804],[-104.876062,31.040942],[-104.874669,31.040412],[-104.874082,31.040568],[-104.872798,31.040441],[-104.870496,31.039037],[-104.869433,31.03878],[-104.868213,31.039044],[-104.867585,31.038906],[-104.860539,31.039523],[-104.858204,31.038738],[-104.839642,31.040278],[-104.83964,31.041285],[-104.839315,31.041314],[-104.839542,31.043409],[-104.835906,31.043708],[-104.835785,31.042674],[-104.837002,31.042566],[-104.836885,31.041525],[-104.838103,31.041431],[-104.837988,31.040403],[-104.838601,31.040351],[-104.838525,31.039687],[-104.839762,31.039591],[-104.839753,31.039107],[-104.840491,31.039042],[-104.840467,31.036521],[-104.830918,31.037245],[-104.830173,31.030559],[-104.82907,31.030568],[-104.828483,31.031143],[-104.822401,31.031113],[-104.822136,31.038229],[-104.815221,31.04079],[-104.81197,31.041609],[-104.810501,31.041772],[-104.770745,31.045062],[-104.767213,31.044896],[-104.748384,31.04288],[-104.740711,31.042811],[-104.507925,31.061742],[-104.50148,31.06259],[-104.501093,31.06119],[-104.498673,31.060562],[-104.498288,31.060212]]]}},{"type":"Feature","properties":{"PRECINCT":"2","VTD":"0002"},"geometry":{"type":"Polygon","coordinates":[[[-104.55889,31.549496],[-104.55166,31.533511],[-104.550965,31.532426],[-104.548291,31.528913],[-104.547629,31.527682],[-104.546564,31.526832],[-104.545271,31.526249],[-104.545818,31.522001],[-104.545268,31.52019],[-104.544692,31.519348],[-104.543043,31.518567],[-104.540282,31.518191],[-104.538434,31.51838],[-104.537198,31.518869],[-104.535654,31.518817],[-104.529184,31.515225],[-104.526306,31.514309],[-104.524358,31.513947],[-104.517788,31.510177],[-104.513283,31.507887],[-104.515344,31.506681],[-104.518221,31.505585],[-104.525445,31.507581],[-104.543458,31.508545],[-104.569096,31.510465],[-104.575117,31.51029],[-104.571405,31.508213],[-104.570015,31.506469],[-104.567779,31.506224],[-104.566526,31.505413],[-104.566657,31.504086],[-104.565761,31.503705],[-104.565504,31.502934],[-104.56559,31.502364],[-104.566401,31.50118],[-104.565688,31.500172],[-104.564489,31.499894],[-104.563866,31.499437],[-104.563754,31.49874],[-104.56409,31.498429],[-104.564663,31.498425],[-104.564647,31.498138],[-104.562639,31.495209],[-104.557939,31.489981],[-104.557985,31.488978],[-104.558778,31.487853],[-104.55812,31.486602],[-104.555821,31.48501],[-104.555823,31.482234],[-104.554911,31.480504],[-104.557223,31.480201],[-104.559174,31.479656],[-104.561539,31.478332],[-104.562919,31.478184],[-104.564008,31.477726],[-104.564566,31.477319],[-104.564765,31.476753],[-104.56574,31.476703],[-104.566286,31.476214],[-104.567242,31.476269],[-104.56927,31.4759],[-104.570804,31.474811],[-104.572292,31.473233],[-104.573704,31.473183],[-104.577381,31.471846],[-104.578132,31.47106],[-104.578574,31.469761],[-104.578388,31.467154],[-104.579254,31.466351],[-104.579063,31.465808],[-104.578425,31.465313],[-104.578395,31.464904],[-104.578112,31.464888],[-104.577295,31.460649],[-104.577943,31.458805],[-104.57904,31.458169],[-104.578647,31.457539],[-104.579375,31.456661],[-104.579094,31.455741],[-104.580033,31.454995],[-104.579867,31.454475],[-104.579294,31.454473],[-104.579184,31.454066],[-104.579656,31.45357],[-104.579679,31.453146],[-104.580444,31.453077],[-104.580976,31.451599],[-104.580741,31.450489],[-104.580174,31.450346],[-104.579679,31.449351],[-104.579196,31.447451],[-104.579282,31.445177],[-104.578958,31.443669],[-104.579267,31.441638],[-104.578535,31.439741],[-104.578502,31.438676],[-104.578097,31.438213],[-104.57779,31.438963],[-104.577331,31.43807],[-104.57708,31.436241],[-104.575695,31.434435],[-104.575797,31.43312],[-104.575599,31.432785],[-104.575836,31.432196],[-104.575688,31.431679],[-104.574302,31.430211],[-104.574514,31.429534],[-104.572981,31.427697],[-104.572275,31.427346],[-104.569607,31.424139],[-104.5686,31.423452],[-104.568125,31.421241],[-104.567432,31.419734],[-104.56554,31.418133],[-104.565162,31.41672],[-104.564052,31.416098],[-104.562975,31.414828],[-104.562276,31.412138],[-104.562288,31.410879],[-104.561647,31.409789],[-104.56082,31.409234],[-104.560948,31.407413],[-104.560487,31.406033],[-104.561295,31.403904],[-104.561198,31.402342],[-104.560012,31.400736],[-104.559775,31.399961],[-104.559929,31.398388],[-104.560435,31.396837],[-104.560692,31.394092],[-104.563404,31.39049],[-104.564705,31.386737],[-104.563762,31.386695],[-104.563528,31.386338],[-104.564272,31.383604],[-104.564363,31.381689],[-104.564801,31.380402],[-104.565864,31.378999],[-104.567212,31.374967],[-104.567261,31.372791],[-104.566987,31.371372],[-104.569327,31.364408],[-104.569291,31.36075],[-104.569595,31.358299],[-104.569259,31.3559],[-104.569472,31.355473],[-104.570592,31.354771],[-104.571213,31.353882],[-104.571075,31.352974],[-104.569865,31.351665],[-104.568663,31.351296],[-104.568313,31.350696],[-104.566876,31.350716],[-104.564364,31.350276],[-104.56107,31.349288],[-104.559136,31.34919],[-104.556606,31.348382],[-104.552491,31.346153],[-104.549922,31.345214],[-104.548777,31.343836],[-104.545639,31.342809],[-104.543332,31.342366],[-104.542264,31.341896],[-104.541494,31.340541],[-104.539956,31.339441],[-104.538139,31.339535],[-104.536819,31.339147],[-104.535222,31.33932],[-104.533046,31.33806],[-104.531487,31.337828],[-104.530513,31.337905],[-104.529559,31.338666],[-104.527301,31.339368],[-104.524107,31.33929],[-104.522858,31.33993],[-104.520215,31.339863],[-104.516269,31.33897],[-104.512427,31.336832],[-104.510044,31.334674],[-104.505926,31.332499],[-104.5046,31.331416],[-104.503327,31.329484],[-104.505705,31.327942],[-104.51246,31.324963],[-104.515789,31.322266],[-104.524161,31.31828],[-104.528645,31.315103],[-104.531448,31.314225],[-104.534195,31.313857],[-104.535263,31.313477],[-104.541372,31.308649],[-104.543551,31.307974],[-104.548616,31.307841],[-104.550672,31.307376],[-104.553495,31.306203],[-104.578387,31.293634],[-104.57953,31.292576],[-104.582232,31.288721],[-104.585642,31.285715],[-104.587978,31.28218],[-104.599527,31.268079],[-104.600938,31.265467],[-104.602335,31.256501],[-104.601942,31.25611],[-104.601799,31.253906],[-104.60234,31.251749],[-104.603224,31.249644],[-104.60346,31.246858],[-104.604003,31.246192],[-104.604831,31.246183],[-104.602713,31.244184],[-104.601257,31.236673],[-104.6007,31.235517],[-104.599228,31.223783],[-104.598614,31.220735],[-104.595225,31.213563],[-104.590848,31.20611],[-104.588981,31.199916],[-104.588385,31.196271],[-104.588419,31.194859],[-104.586198,31.191669],[-104.585485,31.190115],[-104.58422,31.183339],[-104.583321,31.181014],[-104.583511,31.178191],[-104.581718,31.172643],[-104.582033,31.166267],[-104.583125,31.161756],[-104.584009,31.155772],[-104.584762,31.153571],[-104.590602,31.143374],[-104.59288,31.140374],[-104.594395,31.13903],[-104.589041,31.135418],[-104.564918,31.135658],[-104.557333,31.135536],[-104.557001,31.127613],[-104.55676,31.077939],[-104.574833,31.077796],[-104.574897,31.063488],[-104.587145,31.063292],[-104.588105,31.063125],[-104.608675,31.063091],[-104.608594,31.05921],[-104.661402,31.054912],[-104.6718,31.053682],[-104.682431,31.05312],[-104.700418,31.051502],[-104.735381,31.048787],[-104.779814,31.044796],[-104.780051,31.047588],[-104.780894,31.048751],[-104.791408,31.046222],[-104.821904,31.046128],[-104.822053,31.043806],[-104.835785,31.042674],[-104.836023,31.044762],[-104.834836,31.044858],[-104.835307,31.049004],[-104.828303,31.049675],[-104.826176,31.050625],[-104.826327,31.0528],[-104.831877,31.052633],[-104.831754,31.053471],[-104.809547,31.121356],[-104.805935,31.14129],[-104.806371,31.143108],[-104.807748,31.144568],[-104.818126,31.149208],[-104.840121,31.16156],[-104.842003,31.163115],[-104.843283,31.164996],[-104.845538,31.170382],[-104.852347,31.193199],[-104.851546,31.199572],[-104.851095,31.218538],[-104.850454,31.224185],[-104.850887,31.22585],[-104.855693,31.236171],[-104.855904,31.237318],[-104.855768,31.238572],[-104.83947,31.277438],[-104.82125,31.338726],[-104.820442,31.342352],[-104.820119,31.346041],[-104.820966,31.357972],[-104.821428,31.35998],[-104.822285,31.362105],[-104.823629,31.364313],[-104.840803,31.386068],[-104.842398,31.389044],[-104.843257,31.392361],[-104.848418,31.43721],[-104.848177,31.439437],[-104.841772,31.456606],[-104.841562,31.458231],[-104.841657,31.462215],[-104.84005,31.462627],[-104.840945,31.484698],[-104.841166,31.485897],[-104.841839,31.48644],[-104.841229,31.488317],[-104.841922,31.501811],[-104.842485,31.502602],[-104.844035,31.506157],[-104.838559,31.507176],[-104.837455,31.506788],[-104.836336,31.50688],[-104.834321,31.505825],[-104.833088,31.50565],[-104.830033,31.50645],[-104.829509,31.506422],[-104.827236,31.50506],[-104.823014,31.503918],[-104.820253,31.502764],[-104.819077,31.50258],[-104.817825,31.501552],[-104.816198,31.500888],[-104.815501,31.499692],[-104.813782,31.498495],[-104.809992,31.496575],[-104.805877,31.493869],[-104.804748,31.493641],[-104.80424,31.49294],[-104.80256,31.493007],[-104.795518,31.491853],[-104.791586,31.49245],[-104.790683,31.492947],[-104.788335,31.495349],[-104.78303,31.502294],[-104.781592,31.50381],[-104.780953,31.505023],[-104.780057,31.505834],[-104.779935,31.506954],[-104.779593,31.507476],[-104.771372,31.51781],[-104.769534,31.520471],[-104.767988,31.521974],[-104.767629,31.521979],[-104.766977,31.521507],[-104.76258,31.513762],[-104.760933,31.510471],[-104.76078,31.509513],[-104.759619,31.508501],[-104.759711,31.510115],[-104.750389,31.520812],[-104.749822,31.522505],[-104.744945,31.52536],[-104.744643,31.526957],[-104.743301,31.529562],[-104.743035,31.53066],[-104.743164,31.531445],[-104.74235,31.531984],[-104.741671,31.533099],[-104.741132,31.535295],[-104.739367,31.535634],[-104.736085,31.539174],[-104.736067,31.540277],[-104.735428,31.540292],[-104.734218,31.541125],[-104.705521,31.53434],[-104.688469,31.531542],[-104.675499,31.524931],[-104.665876,31.521524],[-104.660203,31.518887],[-104.654821,31.515519],[-104.651239,31.515474],[-104.640706,31.512232],[-104.639981,31.511533],[-104.639106,31.511108],[-104.637415,31.511709],[-104.635881,31.513046],[-104.633874,31.513834],[-104.631153,31.516298],[-104.630504,31.518559],[-104.629949,31.519158],[-104.627001,31.519859],[-104.625977,31.519888],[-104.613345,31.517245],[-104.612662,31.517378],[-104.612027,31.517989],[-104.611937,31.518611],[-104.611103,31.519546],[-104.611116,31.519848],[-104.611444,31.519942],[-104.610783,31.520938],[-104.611047,31.521614],[-104.610713,31.522269],[-104.610829,31.523198],[-104.61135,31.524584],[-104.610805,31.526966],[-104.610967,31.529397],[-104.610762,31.530216],[-104.609767,31.53157],[-104.60917,31.531889],[-104.607617,31.533523],[-104.603637,31.535768],[-104.601923,31.53831],[-104.603613,31.538969],[-104.606766,31.539496],[-104.606572,31.539624],[-104.603565,31.539332],[-104.6016,31.538773],[-104.600468,31.539234],[-104.599625,31.539262],[-104.596571,31.540684],[-104.593344,31.541695],[-104.588709,31.542688],[-104.586541,31.543493],[-104.582957,31.543988],[-104.581777,31.543881],[-104.578766,31.542856],[-104.576219,31.541024],[-104.574818,31.540328],[-104.571333,31.540723],[-104.569869,31.542341],[-104.566389,31.545225],[-104.564158,31.5488],[-104.562021,31.551005],[-104.561093,31.551718],[-104.559157,31.552648],[-104.55889,31.549496]]]}}]}