{"type":"FeatureCollection","features":[{"type":"Feature","properties":{"PRECINCT":"1","VTD":"0001"},"geometry":{"type":"Polygon","coordinates":[[[-97.096505,33.608684],[-97.096151,33.607308],[-97.096276,33.598511],[-97.096444,33.59708],[-97.096916,33.595794],[-97.099004,33.597279],[-97.101081,33.597676],[-97.113605,33.597405],[-97.118268,33.595968],[-97.116458,33.592418],[-97.118906,33.593347],[-97.11997,33.593068],[-97.121262,33.593416],[-97.121074,33.593035],[-97.121796,33.592958],[-97.122459,33.592375],[-97.122275,33.59132],[-97.120915,33.590991],[-97.120291,33.590271],[-97.119895,33.587463],[-97.120092,33.586929],[-97.119737,33.586831],[-97.119435,33.587309],[-97.119094,33.587304],[-97.119047,33.586946],[-97.119408,33.586424],[-97.118666,33.586128],[-97.118186,33.585347],[-97.118389,33.584479],[-97.11923,33.585199],[-97.120064,33.585006],[-97.120668,33.58378],[-97.119945,33.583428],[-97.119157,33.583451],[-97.118894,33.583066],[-97.117824,33.583116],[-97.117876,33.582522],[-97.11735,33.581995],[-97.117126,33.580572],[-97.117329,33.580258],[-97.118111,33.581126],[-97.119333,33.581439],[-97.12014,33.581054],[-97.120672,33.580229],[-97.121138,33.580114],[-97.121368,33.58035],[-97.121151,33.58063],[-97.121329,33.581284],[-97.122518,33.581328],[-97.123227,33.58174],[-97.124278,33.581888],[-97.124659,33.581728],[-97.125228,33.580604],[-97.125996,33.581209],[-97.12698,33.581544],[-97.127938,33.582836],[-97.12889,33.582864],[-97.1305,33.582327],[-97.130513,33.568364],[-97.138901,33.56833],[-97.139258,33.568885],[-97.139249,33.571274],[-97.139723,33.571903],[-97.139323,33.575409],[-97.148269,33.575513],[-97.148114,33.58709],[-97.161055,33.587313],[-97.160125,33.590436],[-97.162384,33.590766],[-97.159237,33.600211],[-97.15772,33.60297],[-97.155758,33.605661],[-97.153113,33.607698],[-97.152238,33.606076],[-97.150301,33.60605],[-97.149284,33.603042],[-97.148818,33.602294],[-97.148055,33.602303],[-97.148007,33.601529],[-97.141886,33.601496],[-97.141827,33.602355],[-97.13091,33.602287],[-97.130855,33.605412],[-97.128336,33.605097],[-97.128126,33.604794],[-97.127488,33.605036],[-97.127075,33.604914],[-97.124015,33.602036],[-97.123345,33.603618],[-97.124021,33.604381],[-97.123805,33.611726],[-97.119096,33.611306],[-97.116267,33.609752],[-97.113067,33.608935],[-97.112089,33.608916],[-97.109423,33.609451],[-97.105806,33.611196],[-97.105012,33.613387],[-97.097905,33.610042],[-97.096505,33.608684]]]}},{"type":"Feature","properties":{"PRECINCT":"2","VTD":"0002"},"geometry":{"type":"Polygon","coordinates":[[[-97.147818,33.647661],[-97.145301,33.643177],[-97.144401,33.640647],[-97.138846,33.640944],[-97.133382,33.641594],[-97.133372,33.634574],[-97.12705,33.634588],[-97.12707,33.624178],[-97.156165,33.624386],[-97.156292,33.628174],[-97.157297,33.629119],[-97.158262,33.630834],[-97.159662,33.63178],[-97.160266,33.63255],[-97.161186,33.6325],[-97.161856,33.632039],[-97.162428,33.630978],[-97.162369,33.630187],[-97.162928,33.629324],[-97.163933,33.629461],[-97.164748,33.63038],[-97.16591,33.630852],[-97.168145,33.629556],[-97.168419,33.637672],[-97.207064,33.637217],[-97.207002,33.640914],[-97.208654,33.640956],[-97.208771,33.651793],[-97.210917,33.651797],[-97.21074,33.659382],[-97.20514,33.659307],[-97.205135,33.659712],[-97.20444,33.6597],[-97.20448,33.664921],[-97.194423,33.664833],[-97.193355,33.663106],[-97.189397,33.664835],[-97.188277,33.662487],[-97.18518,33.657588],[-97.181153,33.650661],[-97.180819,33.649721],[-97.171988,33.649795],[-97.171171,33.650174],[-97.163202,33.650075],[-97.163141,33.647898],[-97.159268,33.647871],[-97.158842,33.665849],[-97.154236,33.65773],[-97.147818,33.647661]]]}},{"type":"Feature","properties":{"PRECINCT":"3","VTD":"0003"},"geometry":{"type":"Polygon","coordinates":[[[-97.168419,33.637672],[-97.168145,33.629556],[-97.16591,33.630852],[-97.164748,33.63038],[-97.163933,33.629461],[-97.162928,33.629324],[-97.162369,33.630187],[-97.162428,33.630978],[-97.161856,33.632039],[-97.161186,33.6325],[-97.160345,33.632583],[-97.159662,33.63178],[-97.158262,33.630834],[-97.157297,33.629119],[-97.156292,33.628174],[-97.156194,33.627585],[-97.156249,33.624739],[-97.157924,33.624692],[-97.159109,33.624279],[-97.160904,33.622842],[-97.166703,33.624935],[-97.167294,33.621845],[-97.167173,33.621174],[-97.174222,33.621319],[-97.174169,33.618619],[-97.173846,33.617908],[-97.17385,33.613902],[-97.167713,33.613793],[-97.166683,33.612994],[-97.165655,33.613917],[-97.164616,33.615337],[-97.164454,33.615203],[-97.164997,33.614345],[-97.164795,33.614391],[-97.16526,33.60686],[-97.165343,33.58966],[-97.174073,33.589767],[-97.17413,33.587538],[-97.177513,33.587593],[-97.178095,33.588431],[-97.178219,33.589195],[-97.179139,33.589717],[-97.179375,33.590366],[-97.179966,33.590542],[-97.181024,33.589464],[-97.182081,33.589558],[-97.182219,33.589019],[-97.183243,33.589003],[-97.184734,33.587755],[-97.185365,33.588195],[-97.185916,33.587871],[-97.186192,33.5883],[-97.186678,33.588272],[-97.186698,33.587981],[-97.187171,33.587882],[-97.187611,33.58808],[-97.188156,33.588014],[-97.188517,33.588393],[-97.189456,33.588217],[-97.189785,33.587887],[-97.189377,33.587739],[-97.188859,33.586376],[-97.189653,33.585942],[-97.189982,33.586195],[-97.190284,33.585909],[-97.190697,33.586052],[-97.191,33.586354],[-97.190599,33.586832],[-97.190789,33.587014],[-97.191853,33.587063],[-97.192044,33.586634],[-97.192385,33.586898],[-97.192681,33.58637],[-97.193423,33.586733],[-97.19408,33.586563],[-97.195417,33.587824],[-97.197212,33.586075],[-97.197561,33.564773],[-97.202874,33.564838],[-97.203275,33.564667],[-97.20353,33.550538],[-97.266294,33.551808],[-97.267465,33.550949],[-97.268405,33.550931],[-97.268424,33.551673],[-97.268096,33.552201],[-97.268555,33.552542],[-97.268809,33.552198],[-97.269094,33.552284],[-97.269179,33.552691],[-97.268844,33.552822],[-97.26864,33.55346],[-97.269159,33.553509],[-97.269244,33.554015],[-97.268896,33.554389],[-97.269395,33.554351],[-97.269617,33.554917],[-97.270215,33.554895],[-97.270274,33.55517],[-97.270786,33.555044],[-97.270681,33.555324],[-97.270969,33.555742],[-97.270549,33.556099],[-97.271258,33.556077],[-97.271501,33.55627],[-97.271192,33.55655],[-97.271573,33.557138],[-97.27152,33.558369],[-97.272242,33.558419],[-97.272288,33.558738],[-97.271972,33.558969],[-97.272327,33.559057],[-97.2723,33.559639],[-97.272917,33.55959],[-97.273167,33.559854],[-97.27293,33.559997],[-97.273331,33.560772],[-97.273225,33.561171],[-97.2713,33.561267],[-97.27066,33.581049],[-97.270618,33.582939],[-97.272755,33.582848],[-97.296482,33.5731],[-97.297839,33.572982],[-97.29882,33.546524],[-97.299355,33.54504],[-97.300419,33.537814],[-97.330256,33.538653],[-97.330732,33.537183],[-97.330933,33.525446],[-97.338176,33.525639],[-97.339087,33.524685],[-97.339494,33.52468],[-97.340288,33.523871],[-97.340596,33.523882],[-97.340537,33.523404],[-97.34097,33.523217],[-97.34097,33.522959],[-97.341495,33.522975],[-97.341685,33.5227],[-97.34139,33.522057],[-97.341685,33.52143],[-97.341501,33.520414],[-97.340963,33.520331],[-97.340707,33.519683],[-97.341048,33.519408],[-97.341159,33.518902],[-97.341809,33.519023],[-97.342163,33.518688],[-97.341874,33.51822],[-97.341303,33.517957],[-97.341415,33.517275],[-97.340869,33.515401],[-97.341736,33.51551],[-97.341913,33.514966],[-97.341591,33.514604],[-97.341787,33.513927],[-97.342214,33.513565],[-97.342188,33.513751],[-97.342627,33.513773],[-97.342877,33.51407],[-97.34312,33.513647],[-97.345482,33.514465],[-97.349576,33.512023],[-97.353326,33.512534],[-97.353562,33.502558],[-97.361978,33.502678],[-97.366391,33.502957],[-97.374072,33.502847],[-97.382438,33.505096],[-97.381397,33.514266],[-97.380338,33.518581],[-97.380177,33.545631],[-97.380601,33.549992],[-97.379497,33.553114],[-97.379679,33.555762],[-97.380093,33.556702],[-97.383946,33.562389],[-97.392962,33.572555],[-97.393378,33.573994],[-97.393443,33.578498],[-97.351861,33.578569],[-97.35133,33.579281],[-97.350903,33.579144],[-97.350838,33.579298],[-97.352487,33.58076],[-97.353124,33.581881],[-97.352743,33.582101],[-97.353341,33.582865],[-97.352967,33.583898],[-97.353243,33.584354],[-97.352941,33.584519],[-97.353428,33.585794],[-97.353973,33.585767],[-97.354091,33.585954],[-97.353908,33.586289],[-97.353415,33.586487],[-97.353409,33.587394],[-97.35381,33.587498],[-97.354013,33.587976],[-97.353653,33.590115],[-97.354067,33.590296],[-97.353712,33.590538],[-97.354205,33.591098],[-97.353601,33.591297],[-97.353772,33.592242],[-97.353365,33.592693],[-97.353385,33.59388],[-97.353714,33.594638],[-97.353064,33.595925],[-97.353544,33.596222],[-97.352231,33.597277],[-97.352527,33.597766],[-97.351522,33.598069],[-97.351042,33.59786],[-97.349847,33.598245],[-97.348303,33.597894],[-97.345899,33.5984],[-97.344724,33.599264],[-97.344264,33.599989],[-97.343476,33.600605],[-97.343253,33.602166],[-97.342339,33.602309],[-97.34343,33.603176],[-97.342343,33.604309],[-97.342631,33.604848],[-97.332632,33.604108],[-97.32926,33.603488],[-97.324949,33.603121],[-97.324123,33.604729],[-97.32378,33.609331],[-97.322981,33.611436],[-97.320437,33.614154],[-97.315608,33.618443],[-97.315221,33.618155],[-97.314924,33.618346],[-97.309761,33.622623],[-97.309232,33.622615],[-97.309928,33.623247],[-97.310039,33.623852],[-97.304767,33.623713],[-97.301341,33.623246],[-97.298526,33.623487],[-97.294886,33.622319],[-97.293016,33.621996],[-97.286937,33.622596],[-97.283194,33.622684],[-97.278669,33.621443],[-97.262338,33.616066],[-97.262024,33.614793],[-97.261702,33.615057],[-97.261262,33.615024],[-97.260303,33.614188],[-97.259271,33.614501],[-97.258877,33.614138],[-97.258181,33.614203],[-97.257544,33.613994],[-97.257294,33.613675],[-97.256598,33.613977],[-97.256027,33.613719],[-97.25652,33.613213],[-97.256185,33.612971],[-97.255679,33.612916],[-97.255521,33.613476],[-97.254969,33.613047],[-97.254437,33.613025],[-97.254378,33.613256],[-97.254076,33.613261],[-97.253787,33.612805],[-97.253209,33.612739],[-97.252703,33.612997],[-97.25261,33.613766],[-97.252262,33.614123],[-97.251132,33.614084],[-97.250534,33.613831],[-97.249959,33.614004],[-97.24994,33.61534],[-97.250717,33.615755],[-97.25186,33.615816],[-97.251886,33.616267],[-97.251196,33.616794],[-97.250046,33.617079],[-97.249994,33.618576],[-97.24939,33.618866],[-97.248228,33.618825],[-97.247269,33.61937],[-97.247257,33.620403],[-97.246659,33.62103],[-97.24714,33.622108],[-97.245903,33.625741],[-97.24551,33.625914],[-97.244036,33.625531],[-97.242486,33.625572],[-97.239484,33.627233],[-97.238231,33.627692],[-97.234754,33.628034],[-97.233052,33.628441],[-97.230304,33.629626],[-97.230283,33.628799],[-97.221767,33.628686],[-97.220032,33.629762],[-97.218008,33.630614],[-97.217332,33.630389],[-97.216676,33.629495],[-97.216222,33.629241],[-97.214285,33.62922],[-97.214274,33.636574],[-97.2137,33.636732],[-97.210619,33.637186],[-97.168419,33.637672]]]}},{"type":"Feature","properties":{"PRECINCT":"4","VTD":"0004"},"geometry":{"type":"Polygon","coordinates":[[[-97.079832,33.743712],[-97.076941,33.743323],[-97.075621,33.742748],[-97.075131,33.742056],[-97.074461,33.741778],[-97.072667,33.739969],[-97.070305,33.739566],[-97.069248,33.740016],[-97.067121,33.739788],[-97.067223,33.737717],[-97.06686,33.736004],[-97.067282,33.72901],[-97.067108,33.723779],[-97.066636,33.719415],[-97.066798,33.712067],[-97.067242,33.710599],[-97.065718,33.710451],[-97.055694,33.710629],[-97.054374,33.710335],[-97.054844,33.681324],[-97.056867,33.681505],[-97.057716,33.681329],[-97.071807,33.681397],[-97.073062,33.681632],[-97.074331,33.681431],[-97.079975,33.681377],[-97.080792,33.681162],[-97.081281,33.680714],[-97.081507,33.679919],[-97.081516,33.673424],[-97.090556,33.673464],[-97.091278,33.673289],[-97.092102,33.672029],[-97.093578,33.668808],[-97.095339,33.666776],[-97.095806,33.666582],[-97.098659,33.666422],[-97.098645,33.660454],[-97.102725,33.659787],[-97.106399,33.656184],[-97.106678,33.655755],[-97.10665,33.647433],[-97.106859,33.645398],[-97.108786,33.645465],[-97.108849,33.645227],[-97.109546,33.645721],[-97.114529,33.645754],[-97.114746,33.652149],[-97.120776,33.652217],[-97.121166,33.652074],[-97.121257,33.651479],[-97.133361,33.651346],[-97.143693,33.666405],[-97.143681,33.676558],[-97.14714,33.676948],[-97.147155,33.676439],[-97.1515,33.680988],[-97.152348,33.681319],[-97.159294,33.689997],[-97.15991,33.691229],[-97.160899,33.695457],[-97.158469,33.695443],[-97.158767,33.703903],[-97.157594,33.714696],[-97.165172,33.714634],[-97.164792,33.721085],[-97.165335,33.725233],[-97.16495,33.726561],[-97.162804,33.729125],[-97.157373,33.725535],[-97.154367,33.724094],[-97.142227,33.719918],[-97.138361,33.718921],[-97.12987,33.717576],[-97.123578,33.717044],[-97.119521,33.717359],[-97.111057,33.719374],[-97.105836,33.721855],[-97.103344,33.723356],[-97.09857,33.726688],[-97.095644,33.729222],[-97.090488,33.735912],[-97.087365,33.741139],[-97.086385,33.740997],[-97.085983,33.740733],[-97.085569,33.740925],[-97.084056,33.740233],[-97.081984,33.741492],[-97.081669,33.742299],[-97.081253,33.742399],[-97.081201,33.742728],[-97.079885,33.743267],[-97.079832,33.743712]]]}},{"type":"Feature","properties":{"PRECINCT":"6","VTD":"0006"},"geometry":{"type":"Polygon","coordinates":[[[-96.979927,33.956347],[-96.97929,33.955969],[-96.979347,33.95513],[-96.980676,33.951814],[-96.981031,33.94916],[-96.980537,33.946693],[-96.980254,33.943241],[-96.979818,33.941588],[-96.978754,33.939541],[-96.976955,33.937453],[-96.974869,33.93606],[-96.973807,33.935697],[-96.97287,33.935698],[-96.972235,33.935947],[-96.970703,33.937286],[-96.966378,33.939539],[-96.963216,33.940545],[-96.960017,33.941265],[-96.953606,33.94417],[-96.951782,33.944744],[-96.949041,33.946858],[-96.944611,33.949217],[-96.945126,33.846993],[-96.944873,33.839183],[-96.943567,33.654266],[-96.981775,33.648832],[-96.985329,33.64863],[-97.009945,33.650397],[-97.009553,33.65224],[-97.008639,33.653849],[-97.008188,33.655213],[-97.008379,33.656882],[-97.009573,33.655923],[-97.013247,33.655676],[-97.014378,33.655144],[-97.015862,33.655689],[-97.026978,33.655727],[-97.02848,33.655209],[-97.032703,33.654372],[-97.037468,33.654095],[-97.038,33.653098],[-97.041363,33.65242],[-97.046564,33.653523],[-97.05242,33.654279],[-97.062506,33.657784],[-97.064175,33.657741],[-97.067609,33.657149],[-97.067592,33.658499],[-97.075892,33.658452],[-97.07619,33.657938],[-97.076715,33.657679],[-97.081477,33.657679],[-97.081518,33.679686],[-97.081076,33.680961],[-97.079975,33.681377],[-97.074331,33.681431],[-97.073062,33.681632],[-97.071807,33.681397],[-97.057716,33.681329],[-97.056867,33.681505],[-97.054844,33.681324],[-97.054354,33.710186],[-97.054464,33.710459],[-97.055694,33.710629],[-97.065718,33.710451],[-97.067242,33.710599],[-97.066798,33.712067],[-97.066636,33.719415],[-97.067108,33.723779],[-97.067282,33.72901],[-97.06686,33.736004],[-97.067223,33.737717],[-97.067121,33.739788],[-97.069248,33.740016],[-97.070305,33.739566],[-97.072667,33.739969],[-97.074461,33.741778],[-97.075131,33.742056],[-97.075621,33.742748],[-97.076941,33.743323],[-97.079201,33.743527],[-97.079621,33.743731],[-97.079872,33.743668],[-97.079885,33.743267],[-97.081201,33.742728],[-97.081253,33.742399],[-97.081669,33.742299],[-97.081984,33.741492],[-97.084056,33.740233],[-97.085569,33.740925],[-97.085983,33.740733],[-97.086385,33.740997],[-97.087365,33.741139],[-97.086201,33.744162],[-97.085616,33.749142],[-97.084944,33.752328],[-97.084735,33.75961],[-97.085191,33.764738],[-97.086107,33.769244],[-97.08693,33.771651],[-97.090038,33.778515],[-97.090822,33.78078],[-97.091981,33.782796],[-97.094274,33.787962],[-97.095098,33.792172],[-97.095238,33.798404],[-97.094745,33.800295],[-97.093765,33.802488],[-97.092646,33.804198],[-97.089721,33.806754],[-97.087335,33.808464],[-97.082476,33.811102],[-97.079105,33.812317],[-97.072067,33.814049],[-97.057957,33.816193],[-97.050852,33.816604],[-97.048324,33.817269],[-97.047783,33.819473],[-97.047539,33.822297],[-97.048315,33.82787],[-97.049316,33.829794],[-97.051949,33.832993],[-97.054675,33.835049],[-97.058343,33.836764],[-97.062282,33.83799],[-97.066174,33.838853],[-97.071041,33.839638],[-97.08345,33.840456],[-97.086196,33.840934],[-97.087514,33.841588],[-97.088713,33.842951],[-97.090115,33.843961],[-97.090538,33.845215],[-97.090334,33.847523],[-97.089248,33.85048],[-97.087964,33.852591],[-97.086772,33.853849],[-97.084579,33.855169],[-97.082708,33.85607],[-97.075647,33.858654],[-97.069536,33.860365],[-97.06704,33.860514],[-97.063786,33.859965],[-97.062047,33.859354],[-97.057373,33.857214],[-97.056546,33.856476],[-97.054692,33.853922],[-97.053836,33.852229],[-97.05356,33.850998],[-97.051143,33.84681],[-97.046126,33.83956],[-97.041832,33.837756],[-97.040818,33.837619],[-97.039428,33.837893],[-97.037926,33.838728],[-97.031333,33.841238],[-97.026234,33.843896],[-97.024804,33.844435],[-97.021438,33.846379],[-97.01865,33.849615],[-97.014392,33.853889],[-97.011992,33.857004],[-97.010951,33.857976],[-97.010456,33.859114],[-97.009856,33.859762],[-97.003514,33.865397],[-97.001577,33.866545],[-96.999998,33.867894],[-96.997088,33.871017],[-96.993933,33.875656],[-96.9919,33.87985],[-96.989576,33.882846],[-96.98907,33.884424],[-96.988043,33.886013],[-96.986034,33.888256],[-96.98552,33.888569],[-96.984683,33.888651],[-96.983835,33.890949],[-96.98374,33.89209],[-96.984939,33.904866],[-96.98584,33.90851],[-96.987746,33.914057],[-96.987998,33.915323],[-96.987875,33.917046],[-96.989451,33.919716],[-96.993997,33.928979],[-96.995023,33.932035],[-96.996251,33.942664],[-96.995791,33.946076],[-96.994674,33.948681],[-96.990835,33.952701],[-96.987892,33.954671],[-96.981598,33.95633],[-96.979927,33.956347]]]}},{"type":"Feature","properties":{"PRECINCT":"7","VTD":"0007"},"geometry":{"type":"Polygon","coordinates":[[[-97.081516,33.673424],[-97.081477,33.657679],[-97.076715,33.657679],[-97.07619,33.657938],[-97.075892,33.658452],[-97.067592,33.658499],[-97.067609,33.657149],[-97.064175,33.657741],[-97.062506,33.657784],[-97.05242,33.654279],[-97.046564,33.653523],[-97.041363,33.65242],[-97.038,33.653098],[-97.037468,33.654095],[-97.032703,33.654372],[-97.02848,33.655209],[-97.026978,33.655727],[-97.015862,33.655689],[-97.014378,33.655144],[-97.013247,33.655676],[-97.009573,33.655923],[-97.008379,33.656882],[-97.008188,33.655213],[-97.008639,33.653849],[-97.009553,33.65224],[-97.009945,33.650397],[-96.985329,33.64863],[-96.981775,33.648832],[-96.943567,33.654266],[-96.943346,33.606011],[-96.949014,33.606647],[-96.957357,33.608577],[-96.957305,33.612284],[-96.974656,33.612215],[-96.974725,33.610835],[-96.974934,33.610578],[-96.980354,33.610605],[-96.982708,33.610059],[-96.986552,33.610051],[-96.991615,33.610537],[-97.004208,33.610713],[-97.005892,33.609805],[-97.006021,33.608566],[-97.012419,33.60892],[-97.0155,33.609899],[-97.015767,33.6126],[-97.01639,33.61167],[-97.017681,33.610902],[-97.02157,33.610692],[-97.023254,33.610801],[-97.02608,33.611552],[-97.048023,33.612303],[-97.050236,33.612729],[-97.052636,33.61364],[-97.060574,33.618372],[-97.061825,33.618853],[-97.071788,33.619321],[-97.078276,33.620058],[-97.079391,33.620424],[-97.083532,33.62265],[-97.084987,33.623054],[-97.09446,33.623063],[-97.094542,33.627822],[-97.104957,33.627837],[-97.104765,33.640906],[-97.099278,33.641099],[-97.098767,33.643421],[-97.091501,33.644022],[-97.091389,33.642154],[-97.080352,33.643176],[-97.080544,33.646247],[-97.091633,33.645368],[-97.091726,33.646362],[-97.099184,33.645768],[-97.099288,33.646148],[-97.106715,33.645951],[-97.106678,33.655755],[-97.102725,33.659787],[-97.098839,33.660337],[-97.098572,33.660541],[-97.098659,33.666422],[-97.095806,33.666582],[-97.095339,33.666776],[-97.093578,33.668808],[-97.092102,33.672029],[-97.091147,33.673369],[-97.081516,33.673424]]]}},{"type":"Feature","properties":{"PRECINCT":"8","VTD":"0008"},"geometry":{"type":"Polygon","coordinates":[[[-97.071788,33.619321],[-97.062335,33.618952],[-97.060924,33.618551],[-97.052636,33.61364],[-97.050236,33.612729],[-97.048023,33.612303],[-97.02608,33.611552],[-97.023254,33.610801],[-97.02157,33.610692],[-97.017681,33.610902],[-97.01639,33.61167],[-97.015767,33.6126],[-97.0155,33.609899],[-97.012419,33.60892],[-97.006021,33.608566],[-97.005892,33.609805],[-97.004208,33.610713],[-96.991615,33.610537],[-96.986552,33.610051],[-96.982708,33.610059],[-96.980354,33.610605],[-96.974934,33.610578],[-96.974725,33.610835],[-96.974656,33.612215],[-96.957305,33.612284],[-96.957357,33.608577],[-96.949014,33.606647],[-96.943346,33.606011],[-96.943367,33.555027],[-96.945653,33.555042],[-96.949181,33.55384],[-96.954331,33.553202],[-96.962679,33.553871],[-96.976031,33.55383],[-96.97757,33.553301],[-96.982279,33.550064],[-96.988593,33.54799],[-96.990142,33.547874],[-96.999264,33.548896],[-96.998434,33.550808],[-96.997519,33.552065],[-96.996386,33.555424],[-96.995869,33.558004],[-96.99588,33.559773],[-96.99733,33.562814],[-96.999006,33.5647],[-97.001367,33.569351],[-97.003453,33.571723],[-97.0035,33.576372],[-97.006246,33.576328],[-97.006563,33.576503],[-97.006655,33.579454],[-97.006027,33.58258],[-97.007066,33.586464],[-97.007136,33.593991],[-97.009655,33.594169],[-97.012014,33.595827],[-97.015737,33.595936],[-97.017027,33.595299],[-97.017848,33.593427],[-97.022139,33.593387],[-97.022686,33.593179],[-97.022919,33.590767],[-97.024068,33.589601],[-97.024516,33.587416],[-97.024279,33.586355],[-97.023276,33.584956],[-97.02328,33.582514],[-97.022601,33.582453],[-97.022276,33.581894],[-97.022344,33.575902],[-97.023729,33.574712],[-97.022538,33.571525],[-97.023729,33.570675],[-97.023977,33.568991],[-97.02709,33.569004],[-97.030754,33.568294],[-97.032364,33.568804],[-97.036342,33.568883],[-97.036382,33.568183],[-97.058691,33.582698],[-97.060153,33.583452],[-97.072311,33.588288],[-97.082157,33.593362],[-97.093518,33.59382],[-97.094839,33.594306],[-97.096916,33.595794],[-97.096444,33.59708],[-97.096276,33.598511],[-97.096126,33.605662],[-97.096312,33.60826],[-97.096745,33.60904],[-97.097601,33.609852],[-97.102625,33.612218],[-97.088644,33.617818],[-97.088647,33.618799],[-97.094369,33.6188],[-97.09446,33.623063],[-97.084987,33.623054],[-97.083532,33.62265],[-97.079391,33.620424],[-97.078276,33.620058],[-97.071788,33.619321]]]}},{"type":"Feature","properties":{"PRECINCT":"10","VTD":"0010"},"geometry":{"type":"Polygon","coordinates":[[[-97.093808,33.593888],[-97.082157,33.593362],[-97.072311,33.588288],[-97.059464,33.583131],[-97.030738,33.564609],[-97.026016,33.560551],[-97.013143,33.551771],[-97.010211,33.550131],[-96.989177,33.547877],[-96.982279,33.550064],[-96.97757,33.553301],[-96.976031,33.55383],[-96.962679,33.553871],[-96.954331,33.553202],[-96.949181,33.55384],[-96.945653,33.555042],[-96.943367,33.555027],[-96.943366,33.499969],[-96.94386,33.41641],[-97.051253,33.41995],[-97.050675,33.422631],[-97.050885,33.42337],[-97.051738,33.423771],[-97.054717,33.424059],[-97.055339,33.424594],[-97.0557,33.426922],[-97.056395,33.428791],[-97.055461,33.431516],[-97.056084,33.433895],[-97.062117,33.434867],[-97.068873,33.434915],[-97.07041,33.43474],[-97.071628,33.434139],[-97.074449,33.431931],[-97.076063,33.431582],[-97.095519,33.431567],[-97.095349,33.438747],[-97.095085,33.439529],[-97.09306,33.442145],[-97.092859,33.442749],[-97.093085,33.44652],[-97.092011,33.448983],[-97.091722,33.453826],[-97.090685,33.45552],[-97.090446,33.457553],[-97.089905,33.458977],[-97.089815,33.462336],[-97.089199,33.465564],[-97.08954,33.466941],[-97.090333,33.467899],[-97.091358,33.468496],[-97.094701,33.469469],[-97.095567,33.470456],[-97.095534,33.471291],[-97.094612,33.472995],[-97.094353,33.479877],[-97.093624,33.480146],[-97.092546,33.479043],[-97.086208,33.474777],[-97.074748,33.469586],[-97.072687,33.469163],[-97.067362,33.469035],[-97.066124,33.469127],[-97.064487,33.469604],[-97.060812,33.471899],[-97.059648,33.472886],[-97.054016,33.478927],[-97.052456,33.480012],[-97.05249,33.487665],[-97.05289,33.487826],[-97.056853,33.487862],[-97.056868,33.494122],[-97.059192,33.494508],[-97.058927,33.513701],[-97.059979,33.516211],[-97.060149,33.518991],[-97.060742,33.520791],[-97.063628,33.52074],[-97.063719,33.521311],[-97.064005,33.521434],[-97.078135,33.521341],[-97.078077,33.528896],[-97.07954,33.52907],[-97.079759,33.529315],[-97.079578,33.545225],[-97.079919,33.549525],[-97.080488,33.550887],[-97.082174,33.552431],[-97.084194,33.554969],[-97.085639,33.556156],[-97.087226,33.559284],[-97.088475,33.560705],[-97.099161,33.568263],[-97.105248,33.579041],[-97.106678,33.582032],[-97.108502,33.581486],[-97.109064,33.580344],[-97.109877,33.579478],[-97.110643,33.579518],[-97.110826,33.580648],[-97.111215,33.580922],[-97.113,33.577034],[-97.113361,33.576632],[-97.113926,33.576451],[-97.115561,33.576912],[-97.116494,33.577417],[-97.116626,33.578032],[-97.115333,33.579215],[-97.115556,33.579588],[-97.116449,33.579714],[-97.117329,33.580258],[-97.117133,33.580967],[-97.11735,33.581995],[-97.117876,33.582522],[-97.117824,33.583116],[-97.118894,33.583066],[-97.119157,33.583451],[-97.119945,33.583428],[-97.120668,33.58378],[-97.120064,33.585006],[-97.11923,33.585199],[-97.118389,33.584479],[-97.118186,33.585347],[-97.118666,33.586128],[-97.119408,33.586424],[-97.119047,33.586946],[-97.119094,33.587304],[-97.119435,33.587309],[-97.119737,33.586831],[-97.120092,33.586929],[-97.119895,33.587463],[-97.120291,33.590271],[-97.120915,33.590991],[-97.122275,33.59132],[-97.122492,33.592276],[-97.121973,33.59287],[-97.121074,33.593035],[-97.121262,33.593416],[-97.11997,33.593068],[-97.118906,33.593347],[-97.116458,33.592418],[-97.118268,33.595968],[-97.113214,33.597447],[-97.101081,33.597676],[-97.099004,33.597279],[-97.094839,33.594306],[-97.093808,33.593888]]]}},{"type":"Feature","properties":{"PRECINCT":"11","VTD":"0011"},"geometry":{"type":"Polygon","coordinates":[[[-97.17841,33.589371],[-97.177513,33.587593],[-97.17413,33.587538],[-97.174114,33.589754],[-97.167723,33.589691],[-97.169076,33.583582],[-97.169225,33.577841],[-97.162528,33.577831],[-97.162056,33.583463],[-97.161055,33.587313],[-97.148114,33.58709],[-97.148269,33.575513],[-97.139276,33.575378],[-97.139723,33.571903],[-97.139249,33.571274],[-97.139258,33.568885],[-97.138901,33.56833],[-97.130513,33.568364],[-97.1305,33.582327],[-97.12889,33.582864],[-97.127938,33.582836],[-97.12698,33.581544],[-97.125996,33.581209],[-97.125228,33.580604],[-97.124475,33.581871],[-97.123227,33.58174],[-97.122518,33.581328],[-97.12148,33.581356],[-97.121191,33.581059],[-97.121368,33.58035],[-97.121138,33.580114],[-97.120672,33.580229],[-97.119891,33.581252],[-97.118657,33.581395],[-97.116843,33.579907],[-97.115444,33.579473],[-97.11547,33.57889],[-97.116626,33.578032],[-97.116494,33.577417],[-97.115561,33.576912],[-97.113926,33.576451],[-97.113361,33.576632],[-97.113,33.577034],[-97.111215,33.580922],[-97.110826,33.580648],[-97.110643,33.579518],[-97.109877,33.579478],[-97.109064,33.580344],[-97.108502,33.581486],[-97.106678,33.582032],[-97.105248,33.579041],[-97.099161,33.568263],[-97.088475,33.560705],[-97.087226,33.559284],[-97.085639,33.556156],[-97.084194,33.554969],[-97.082174,33.552431],[-97.080721,33.55121],[-97.079919,33.549525],[-97.079578,33.545225],[-97.079759,33.529315],[-97.07954,33.52907],[-97.078077,33.528896],[-97.078135,33.521341],[-97.064005,33.521434],[-97.063719,33.521311],[-97.063628,33.52074],[-97.060742,33.520791],[-97.060149,33.518991],[-97.059979,33.516211],[-97.058927,33.513701],[-97.059192,33.494508],[-97.056868,33.494122],[-97.056853,33.487862],[-97.05289,33.487826],[-97.05249,33.487665],[-97.052456,33.480012],[-97.054016,33.478927],[-97.059648,33.472886],[-97.060812,33.471899],[-97.064487,33.469604],[-97.066124,33.469127],[-97.067362,33.469035],[-97.072687,33.469163],[-97.074748,33.469586],[-97.086208,33.474777],[-97.092546,33.479043],[-97.093624,33.480146],[-97.094353,33.479877],[-97.094612,33.472995],[-97.095534,33.471291],[-97.095567,33.470456],[-97.094701,33.469469],[-97.091358,33.468496],[-97.090333,33.467899],[-97.08954,33.466941],[-97.089199,33.465564],[-97.089815,33.462336],[-97.089905,33.458977],[-97.090446,33.457553],[-97.090685,33.45552],[-97.091722,33.453826],[-97.092011,33.448983],[-97.093085,33.44652],[-97.092859,33.442749],[-97.09306,33.442145],[-97.095085,33.439529],[-97.095349,33.438747],[-97.095519,33.431567],[-97.076063,33.431582],[-97.074449,33.431931],[-97.071628,33.434139],[-97.07041,33.43474],[-97.068873,33.434915],[-97.062117,33.434867],[-97.056084,33.433895],[-97.055461,33.431516],[-97.056395,33.428791],[-97.0557,33.426922],[-97.055339,33.424594],[-97.054717,33.424059],[-97.051738,33.423771],[-97.050885,33.42337],[-97.050675,33.422631],[-97.051253,33.41995],[-97.129344,33.422679],[-97.233406,33.425483],[-97.233478,33.426092],[-97.234633,33.427763],[-97.235472,33.428488],[-97.235571,33.42901],[-97.234746,33.430368],[-97.234497,33.431357],[-97.234628,33.431715],[-97.235625,33.432258],[-97.23638,33.433594],[-97.236931,33.434072],[-97.236276,33.435149],[-97.23608,33.436535],[-97.236545,33.436815],[-97.237312,33.436666],[-97.237496,33.436848],[-97.236987,33.442069],[-97.237539,33.443015],[-97.237553,33.446472],[-97.236728,33.446852],[-97.237233,33.447181],[-97.236649,33.447462],[-97.236794,33.447978],[-97.236204,33.448506],[-97.236696,33.448841],[-97.236532,33.449166],[-97.235758,33.448968],[-97.235758,33.44938],[-97.235286,33.449348],[-97.235182,33.449611],[-97.234558,33.449035],[-97.234073,33.449689],[-97.234205,33.449909],[-97.233903,33.44992],[-97.23387,33.450162],[-97.233497,33.450079],[-97.233097,33.450563],[-97.232861,33.451415],[-97.230914,33.452554],[-97.231203,33.453873],[-97.230522,33.454357],[-97.230535,33.455011],[-97.229424,33.456099],[-97.220323,33.456104],[-97.220191,33.469053],[-97.215367,33.469058],[-97.214803,33.469217],[-97.214463,33.474242],[-97.202359,33.474222],[-97.201715,33.474598],[-97.193718,33.474639],[-97.191813,33.475194],[-97.191045,33.475795],[-97.190356,33.476943],[-97.190094,33.487514],[-97.201637,33.494643],[-97.203049,33.49507],[-97.207075,33.495103],[-97.207208,33.509352],[-97.20126,33.50941],[-97.201191,33.549805],[-97.20138,33.550112],[-97.203086,33.550159],[-97.20353,33.550538],[-97.203308,33.564536],[-97.20298,33.564834],[-97.197561,33.564773],[-97.197212,33.586075],[-97.197032,33.586256],[-97.195417,33.587824],[-97.19408,33.586563],[-97.193423,33.586733],[-97.192681,33.58637],[-97.192385,33.586898],[-97.192044,33.586634],[-97.191853,33.587063],[-97.190789,33.587014],[-97.190599,33.586832],[-97.191,33.586354],[-97.190697,33.586052],[-97.190284,33.585909],[-97.189982,33.586195],[-97.189653,33.585942],[-97.188859,33.586376],[-97.189377,33.587739],[-97.189785,33.587887],[-97.189456,33.588217],[-97.188517,33.588393],[-97.188156,33.588014],[-97.187611,33.58808],[-97.187171,33.587882],[-97.186698,33.587981],[-97.186678,33.588272],[-97.186192,33.5883],[-97.185916,33.587871],[-97.185365,33.588195],[-97.184734,33.587755],[-97.183243,33.589003],[-97.182219,33.589019],[-97.182081,33.589558],[-97.181024,33.589464],[-97.179966,33.590542],[-97.179375,33.590366],[-97.179139,33.589717],[-97.17841,33.589371]]]}},{"type":"Feature","properties":{"PRECINCT":"12","VTD":"0012"},"geometry":{"type":"Polygon","coordinates":[[[-97.271343,33.561154],[-97.273225,33.561171],[-97.273291,33.560585],[-97.27293,33.559997],[-97.273167,33.559854],[-97.272917,33.55959],[-97.272281,33.559612],[-97.272327,33.559057],[-97.271966,33.558947],[-97.272288,33.558738],[-97.272229,33.558403],[-97.27152,33.558369],[-97.271573,33.557138],[-97.271192,33.55655],[-97.271501,33.55627],[-97.271258,33.556077],[-97.270549,33.556099],[-97.270969,33.555742],[-97.270681,33.555324],[-97.270786,33.555044],[-97.270274,33.55517],[-97.270215,33.554895],[-97.269617,33.554917],[-97.269395,33.554351],[-97.268896,33.554389],[-97.269244,33.554015],[-97.269159,33.553509],[-97.26864,33.55346],[-97.268844,33.552822],[-97.269179,33.552691],[-97.269094,33.552284],[-97.268809,33.552198],[-97.268555,33.552542],[-97.268096,33.552201],[-97.268484,33.551085],[-97.268031,33.550827],[-97.267465,33.550949],[-97.266294,33.551808],[-97.233571,33.551052],[-97.203898,33.550622],[-97.203086,33.550159],[-97.201458,33.550124],[-97.201203,33.549909],[-97.20126,33.50941],[-97.207208,33.509352],[-97.207075,33.495103],[-97.203049,33.49507],[-97.201637,33.494643],[-97.190094,33.487514],[-97.190356,33.476943],[-97.191045,33.475795],[-97.191813,33.475194],[-97.193718,33.474639],[-97.201715,33.474598],[-97.202359,33.474222],[-97.214463,33.474242],[-97.214803,33.469217],[-97.215367,33.469058],[-97.220191,33.469053],[-97.220323,33.456104],[-97.229424,33.456099],[-97.230535,33.455011],[-97.230522,33.454357],[-97.231203,33.453873],[-97.230914,33.452554],[-97.232861,33.451415],[-97.233097,33.450563],[-97.233497,33.450079],[-97.23387,33.450162],[-97.233903,33.44992],[-97.234205,33.449909],[-97.234073,33.449689],[-97.234558,33.449035],[-97.235182,33.449611],[-97.235286,33.449348],[-97.235758,33.44938],[-97.235758,33.448968],[-97.236532,33.449166],[-97.236696,33.448841],[-97.236204,33.448506],[-97.236794,33.447978],[-97.236649,33.447462],[-97.237233,33.447181],[-97.236728,33.446852],[-97.237553,33.446472],[-97.237539,33.443015],[-97.236987,33.442069],[-97.237496,33.436848],[-97.237312,33.436666],[-97.236545,33.436815],[-97.23608,33.436535],[-97.236276,33.435149],[-97.236931,33.434072],[-97.23638,33.433594],[-97.235625,33.432258],[-97.234628,33.431715],[-97.234497,33.431357],[-97.234746,33.430368],[-97.235571,33.42901],[-97.235472,33.428488],[-97.234633,33.427763],[-97.233478,33.426092],[-97.233406,33.425483],[-97.383095,33.43045],[-97.383015,33.43289],[-97.487065,33.433681],[-97.486624,33.526242],[-97.485833,33.526854],[-97.485137,33.526623],[-97.485406,33.526216],[-97.484776,33.526118],[-97.484842,33.525892],[-97.484008,33.525579],[-97.483627,33.524771],[-97.483765,33.524497],[-97.4832,33.524689],[-97.483233,33.525079],[-97.48284,33.525503],[-97.481067,33.524789],[-97.480509,33.525025],[-97.480031,33.525773],[-97.479585,33.52723],[-97.478575,33.527934],[-97.476165,33.525978],[-97.475482,33.525791],[-97.47499,33.525995],[-97.474714,33.525824],[-97.474537,33.525187],[-97.473979,33.524835],[-97.47371,33.525071],[-97.473519,33.524698],[-97.472988,33.524516],[-97.472403,33.523862],[-97.470191,33.52234],[-97.468715,33.523215],[-97.468419,33.523143],[-97.468157,33.522561],[-97.467651,33.522385],[-97.467382,33.522555],[-97.466142,33.521918],[-97.465505,33.52244],[-97.464888,33.522061],[-97.464868,33.521314],[-97.464087,33.520594],[-97.464002,33.519973],[-97.463641,33.52005],[-97.463122,33.519687],[-97.462755,33.519824],[-97.462531,33.519495],[-97.462085,33.519632],[-97.461763,33.519445],[-97.460576,33.519478],[-97.46051,33.519171],[-97.460169,33.519704],[-97.458784,33.518423],[-97.458351,33.518292],[-97.457891,33.518451],[-97.457825,33.517989],[-97.457583,33.518099],[-97.457655,33.518418],[-97.457071,33.518567],[-97.457045,33.518077],[-97.456519,33.517709],[-97.455306,33.518605],[-97.454366,33.517444],[-97.44986,33.520484],[-97.449916,33.523546],[-97.446968,33.525833],[-97.445569,33.525506],[-97.443818,33.525845],[-97.441806,33.527155],[-97.440899,33.528979],[-97.439652,33.532356],[-97.441015,33.535639],[-97.441274,33.537224],[-97.442617,33.540567],[-97.442727,33.542247],[-97.442154,33.543468],[-97.441526,33.544136],[-97.439811,33.544569],[-97.43757,33.54348],[-97.436334,33.544242],[-97.433359,33.542861],[-97.432079,33.542628],[-97.430852,33.541571],[-97.426388,33.541037],[-97.425098,33.541056],[-97.423467,33.541603],[-97.420055,33.541501],[-97.419241,33.542446],[-97.41413,33.542635],[-97.410644,33.542531],[-97.410257,33.542442],[-97.4109,33.541621],[-97.411748,33.537287],[-97.412339,33.536217],[-97.40882,33.53366],[-97.404247,33.532602],[-97.40193,33.533072],[-97.400598,33.532795],[-97.399048,33.533024],[-97.397892,33.532769],[-97.396709,33.532787],[-97.389918,33.530481],[-97.387926,33.530117],[-97.383917,33.528008],[-97.380187,33.526416],[-97.380346,33.518471],[-97.381397,33.514266],[-97.382438,33.505096],[-97.374072,33.502847],[-97.366391,33.502957],[-97.361978,33.502678],[-97.353562,33.502558],[-97.353326,33.512534],[-97.349576,33.512023],[-97.345482,33.514465],[-97.34312,33.513647],[-97.342877,33.51407],[-97.342627,33.513773],[-97.342188,33.513751],[-97.342214,33.513565],[-97.341787,33.513927],[-97.341591,33.514604],[-97.341913,33.514966],[-97.341736,33.51551],[-97.340869,33.515401],[-97.341415,33.517275],[-97.341303,33.517957],[-97.341874,33.51822],[-97.342163,33.518688],[-97.341809,33.519023],[-97.341159,33.518902],[-97.341048,33.519408],[-97.340707,33.519683],[-97.340963,33.520331],[-97.341501,33.520414],[-97.341685,33.52143],[-97.34139,33.522057],[-97.341685,33.5227],[-97.341495,33.522975],[-97.34097,33.522959],[-97.34097,33.523217],[-97.340537,33.523404],[-97.340596,33.523882],[-97.340288,33.523871],[-97.339494,33.52468],[-97.339087,33.524685],[-97.338176,33.525639],[-97.330933,33.525446],[-97.330732,33.537183],[-97.330256,33.538653],[-97.300419,33.537814],[-97.299355,33.54504],[-97.29882,33.546524],[-97.297839,33.572982],[-97.296482,33.5731],[-97.273341,33.582661],[-97.272376,33.582908],[-97.270618,33.582939],[-97.271343,33.561154]]]}},{"type":"Feature","properties":{"PRECINCT":"17","VTD":"0017"},"geometry":{"type":"Polygon","coordinates":[[[-97.443981,33.692378],[-97.442873,33.690076],[-97.440974,33.688203],[-97.438695,33.687171],[-97.433317,33.68598],[-97.423953,33.685705],[-97.421165,33.684259],[-97.409888,33.672418],[-97.410737,33.671896],[-97.411046,33.671973],[-97.411256,33.671418],[-97.411684,33.67116],[-97.411316,33.670203],[-97.410567,33.669692],[-97.410093,33.670544],[-97.409679,33.670505],[-97.408996,33.669241],[-97.408266,33.669059],[-97.408154,33.668581],[-97.407346,33.668504],[-97.407405,33.667976],[-97.407747,33.667822],[-97.407721,33.66708],[-97.406952,33.66675],[-97.406808,33.666245],[-97.406453,33.666008],[-97.405624,33.666195],[-97.405053,33.665672],[-97.405105,33.66542],[-97.406151,33.664788],[-97.405796,33.664386],[-97.404889,33.664232],[-97.404981,33.66354],[-97.404035,33.66327],[-97.404679,33.662864],[-97.404686,33.66244],[-97.404397,33.662297],[-97.403483,33.662429],[-97.403364,33.662797],[-97.402976,33.663],[-97.402333,33.662434],[-97.401406,33.662428],[-97.401268,33.662124],[-97.396692,33.662145],[-97.396932,33.648363],[-97.387712,33.648409],[-97.387259,33.648595],[-97.38506,33.648343],[-97.385088,33.644852],[-97.376676,33.644833],[-97.376867,33.644417],[-97.37638,33.644219],[-97.37454,33.644182],[-97.373087,33.643304],[-97.372896,33.642906],[-97.371299,33.64292],[-97.370478,33.64314],[-97.369781,33.642942],[-97.368566,33.643223],[-97.368296,33.642926],[-97.368375,33.642316],[-97.367861,33.641129],[-97.365751,33.639685],[-97.36535,33.639564],[-97.364443,33.639845],[-97.363871,33.639377],[-97.363254,33.639625],[-97.362458,33.639614],[-97.362071,33.639884],[-97.360684,33.639731],[-97.359297,33.638907],[-97.359027,33.638374],[-97.358685,33.63822],[-97.358199,33.638242],[-97.357601,33.638715],[-97.357549,33.639534],[-97.356281,33.639996],[-97.35538,33.639282],[-97.354513,33.638111],[-97.354545,33.637688],[-97.355051,33.637023],[-97.354538,33.636132],[-97.354491,33.635039],[-97.353354,33.634385],[-97.352592,33.634314],[-97.352066,33.634506],[-97.351876,33.635204],[-97.351403,33.635194],[-97.350805,33.63454],[-97.350902,33.632759],[-97.350607,33.632495],[-97.34949,33.632391],[-97.348464,33.632012],[-97.347124,33.632408],[-97.346473,33.632155],[-97.345286,33.631204],[-97.334512,33.631294],[-97.334684,33.63058],[-97.334514,33.630234],[-97.33473,33.629998],[-97.334467,33.629734],[-97.334579,33.628898],[-97.333948,33.628124],[-97.333862,33.627409],[-97.3345,33.627024],[-97.334401,33.626469],[-97.334848,33.62609],[-97.334009,33.62471],[-97.333332,33.624297],[-97.332517,33.62432],[-97.330769,33.62316],[-97.329547,33.623028],[-97.328456,33.622017],[-97.326761,33.62128],[-97.32458,33.618725],[-97.323673,33.618247],[-97.323397,33.61646],[-97.322963,33.616301],[-97.321991,33.616784],[-97.321321,33.616719],[-97.321111,33.616493],[-97.32119,33.615592],[-97.320506,33.614954],[-97.319665,33.614835],[-97.322238,33.612347],[-97.32336,33.610773],[-97.32378,33.609331],[-97.323988,33.60532],[-97.324949,33.603121],[-97.32926,33.603488],[-97.332632,33.604108],[-97.342631,33.604848],[-97.342343,33.604309],[-97.34343,33.603176],[-97.342339,33.602309],[-97.343253,33.602166],[-97.343476,33.600605],[-97.344264,33.599989],[-97.344724,33.599264],[-97.345899,33.5984],[-97.348303,33.597894],[-97.349847,33.598245],[-97.351042,33.59786],[-97.351522,33.598069],[-97.352527,33.597766],[-97.352231,33.597277],[-97.353544,33.596222],[-97.353064,33.595925],[-97.353714,33.594638],[-97.353385,33.59388],[-97.353365,33.592693],[-97.353772,33.592242],[-97.353601,33.591297],[-97.354205,33.591098],[-97.353712,33.590538],[-97.354067,33.590296],[-97.353653,33.590115],[-97.354013,33.587976],[-97.35381,33.587498],[-97.353409,33.587394],[-97.353415,33.586487],[-97.353908,33.586289],[-97.354091,33.585954],[-97.353973,33.585767],[-97.353428,33.585794],[-97.352941,33.584519],[-97.353243,33.584354],[-97.352967,33.583898],[-97.353341,33.582865],[-97.352743,33.582101],[-97.353124,33.581881],[-97.352487,33.58076],[-97.350838,33.579298],[-97.350903,33.579144],[-97.35133,33.579281],[-97.351861,33.578569],[-97.393443,33.578498],[-97.393378,33.573994],[-97.392962,33.572555],[-97.383946,33.562389],[-97.380093,33.556702],[-97.379679,33.555762],[-97.379497,33.553114],[-97.380601,33.549992],[-97.380177,33.545631],[-97.380187,33.526416],[-97.383917,33.528008],[-97.387926,33.530117],[-97.389918,33.530481],[-97.396709,33.532787],[-97.397892,33.532769],[-97.399048,33.533024],[-97.400598,33.532795],[-97.40193,33.533072],[-97.404247,33.532602],[-97.40882,33.53366],[-97.411533,33.535518],[-97.412368,33.536394],[-97.411748,33.537287],[-97.4109,33.541621],[-97.410257,33.542442],[-97.41413,33.542635],[-97.419241,33.542446],[-97.420055,33.541501],[-97.423467,33.541603],[-97.425098,33.541056],[-97.426388,33.541037],[-97.430852,33.541571],[-97.432079,33.542628],[-97.433359,33.542861],[-97.436334,33.544242],[-97.437697,33.54348],[-97.439811,33.544569],[-97.440198,33.544569],[-97.441526,33.544136],[-97.442154,33.543468],[-97.442727,33.542247],[-97.442617,33.540567],[-97.441274,33.537224],[-97.441015,33.535639],[-97.439652,33.532356],[-97.441806,33.527155],[-97.443818,33.525845],[-97.444815,33.525537],[-97.446968,33.525833],[-97.447318,33.525669],[-97.449916,33.523546],[-97.450039,33.522827],[-97.449757,33.520808],[-97.450073,33.520204],[-97.450747,33.520036],[-97.454366,33.517444],[-97.455306,33.518605],[-97.456519,33.517709],[-97.457045,33.518077],[-97.457071,33.518567],[-97.457655,33.518418],[-97.457583,33.518099],[-97.457825,33.517989],[-97.457891,33.518451],[-97.458351,33.518292],[-97.458784,33.518423],[-97.460169,33.519704],[-97.46051,33.519171],[-97.460576,33.519478],[-97.461763,33.519445],[-97.462085,33.519632],[-97.462531,33.519495],[-97.462755,33.519824],[-97.463122,33.519687],[-97.463641,33.52005],[-97.464002,33.519973],[-97.464087,33.520594],[-97.464868,33.521314],[-97.464888,33.522061],[-97.465505,33.52244],[-97.466142,33.521918],[-97.467382,33.522555],[-97.467651,33.522385],[-97.468157,33.522561],[-97.468419,33.523143],[-97.468715,33.523215],[-97.470191,33.52234],[-97.472403,33.523862],[-97.472988,33.524516],[-97.473519,33.524698],[-97.47371,33.525071],[-97.473979,33.524835],[-97.474537,33.525187],[-97.474714,33.525824],[-97.47499,33.525995],[-97.475482,33.525791],[-97.476165,33.525978],[-97.478575,33.527934],[-97.479585,33.52723],[-97.480031,33.525773],[-97.480509,33.525025],[-97.481067,33.524789],[-97.48284,33.525503],[-97.483233,33.525079],[-97.4832,33.524689],[-97.483765,33.524497],[-97.483627,33.524771],[-97.484008,33.525579],[-97.484842,33.525892],[-97.484776,33.526118],[-97.485406,33.526216],[-97.485177,33.526662],[-97.485735,33.526892],[-97.486624,33.526242],[-97.485513,33.625107],[-97.485014,33.695682],[-97.480073,33.692508],[-97.476659,33.691418],[-97.473038,33.691599],[-97.469905,33.692075],[-97.462351,33.691716],[-97.457578,33.69289],[-97.453585,33.694351],[-97.448499,33.695614],[-97.445803,33.695086],[-97.443981,33.692378]]]}},{"type":"Feature","properties":{"PRECINCT":"18","VTD":"0018"},"geometry":{"type":"Polygon","coordinates":[[[-97.463564,33.904955],[-97.462328,33.904955],[-97.46142,33.90523],[-97.460267,33.90436],[-97.460431,33.903581],[-97.459772,33.902596],[-97.458343,33.901887],[-97.457492,33.900513],[-97.456722,33.899826],[-97.456255,33.898978],[-97.456283,33.898566],[-97.454689,33.896825],[-97.451887,33.892428],[-97.451058,33.891676],[-97.451026,33.89069],[-97.4513,33.890459],[-97.450807,33.886608],[-97.451499,33.885214],[-97.451776,33.881595],[-97.451199,33.878183],[-97.451469,33.87093],[-97.452182,33.86896],[-97.453281,33.868044],[-97.453968,33.866693],[-97.456025,33.859432],[-97.455723,33.858104],[-97.455915,33.857646],[-97.456931,33.857073],[-97.45748,33.856019],[-97.457617,33.855126],[-97.457974,33.85508],[-97.459566,33.853316],[-97.459867,33.852561],[-97.460608,33.851713],[-97.461486,33.84956],[-97.463202,33.84309],[-97.463242,33.842004],[-97.462768,33.841864],[-97.462307,33.840261],[-97.459068,33.834581],[-97.457311,33.833436],[-97.456048,33.832246],[-97.45506,33.831009],[-97.454594,33.830002],[-97.453057,33.828536],[-97.450395,33.827414],[-97.448117,33.825926],[-97.445235,33.824643],[-97.444879,33.824048],[-97.444193,33.823773],[-97.437364,33.82181],[-97.433264,33.821259],[-97.430297,33.820418],[-97.428786,33.819415],[-97.426799,33.818641],[-97.422926,33.818511],[-97.418191,33.818707],[-97.414155,33.817977],[-97.413692,33.819304],[-97.410963,33.819097],[-97.410387,33.818845],[-97.406435,33.818821],[-97.403263,33.819523],[-97.400083,33.819483],[-97.398532,33.819827],[-97.395129,33.819963],[-97.391617,33.819343],[-97.390575,33.818839],[-97.386953,33.819249],[-97.386205,33.819513],[-97.380288,33.818526],[-97.379019,33.818772],[-97.375775,33.818832],[-97.37469,33.818552],[-97.373257,33.819072],[-97.372926,33.819416],[-97.368731,33.821443],[-97.365497,33.823744],[-97.358513,33.830018],[-97.357334,33.831369],[-97.356128,33.834094],[-97.355991,33.83501],[-97.354318,33.837965],[-97.352946,33.838836],[-97.351218,33.840967],[-97.34971,33.843372],[-97.348338,33.843876],[-97.347213,33.845113],[-97.346747,33.846945],[-97.344388,33.851504],[-97.344141,33.853061],[-97.342797,33.854825],[-97.342166,33.856199],[-97.342138,33.857184],[-97.341534,33.858192],[-97.340793,33.858765],[-97.339641,33.860734],[-97.338379,33.8663],[-97.338106,33.87056],[-97.337244,33.875101],[-97.334845,33.881802],[-97.33361,33.883566],[-97.33188,33.884483],[-97.330535,33.884735],[-97.327212,33.884666],[-97.325812,33.883888],[-97.323779,33.881712],[-97.323367,33.880934],[-97.32334,33.87917],[-97.324218,33.876628],[-97.328057,33.870263],[-97.333382,33.864148],[-97.334178,33.862888],[-97.334644,33.861445],[-97.334726,33.859086],[-97.334616,33.857231],[-97.334177,33.856246],[-97.333436,33.855559],[-97.332063,33.855056],[-97.328729,33.855434],[-97.326098,33.857083],[-97.320346,33.862299],[-97.318091,33.86353],[-97.316883,33.865431],[-97.315511,33.866164],[-97.314257,33.865089],[-97.314395,33.863814],[-97.313914,33.863511],[-97.314592,33.86307],[-97.315154,33.8632],[-97.315594,33.862688],[-97.314849,33.862113],[-97.31412,33.860681],[-97.312974,33.859597],[-97.312255,33.85773],[-97.311995,33.855951],[-97.31078,33.854327],[-97.309271,33.850639],[-97.308483,33.849669],[-97.307666,33.84946],[-97.305664,33.850068],[-97.303756,33.849824],[-97.301638,33.850089],[-97.298333,33.849962],[-97.297347,33.849686],[-97.296407,33.848976],[-97.296414,33.844722],[-97.296119,33.843099],[-97.291507,33.83725],[-97.29172,33.827281],[-97.292822,33.818943],[-97.294263,33.817346],[-97.295253,33.816797],[-97.305808,33.816795],[-97.30615,33.816487],[-97.306307,33.807907],[-97.307409,33.806778],[-97.310404,33.802355],[-97.313544,33.79827],[-97.31524,33.79738],[-97.31834,33.79685],[-97.319165,33.796341],[-97.320163,33.784103],[-97.320002,33.781834],[-97.32367,33.776577],[-97.324338,33.774228],[-97.324551,33.771575],[-97.325978,33.769922],[-97.326625,33.76995],[-97.325972,33.768202],[-97.325251,33.767926],[-97.323377,33.767732],[-97.322943,33.767463],[-97.322439,33.766411],[-97.322436,33.764857],[-97.321928,33.764094],[-97.317849,33.761956],[-97.312498,33.760296],[-97.312035,33.759142],[-97.311956,33.75664],[-97.309891,33.754637],[-97.309604,33.753657],[-97.30544,33.750398],[-97.302616,33.747354],[-97.301013,33.746411],[-97.297922,33.744051],[-97.295442,33.73917],[-97.293973,33.737585],[-97.288982,33.730877],[-97.285847,33.729463],[-97.283392,33.727734],[-97.282221,33.722458],[-97.281715,33.721609],[-97.2817,33.720102],[-97.280376,33.714151],[-97.279952,33.713681],[-97.27903,33.713634],[-97.27903,33.703256],[-97.277472,33.703266],[-97.277679,33.688782],[-97.275403,33.688762],[-97.275579,33.673048],[-97.297235,33.673298],[-97.297429,33.672235],[-97.300193,33.672202],[-97.300342,33.65595],[-97.300646,33.651781],[-97.30435,33.647846],[-97.3061,33.648094],[-97.312809,33.648141],[-97.313091,33.630315],[-97.314378,33.628785],[-97.320368,33.63091],[-97.321217,33.631002],[-97.320804,33.630533],[-97.320887,33.622855],[-97.319216,33.622763],[-97.319285,33.617966],[-97.32119,33.615592],[-97.321111,33.616493],[-97.321321,33.616719],[-97.321991,33.616784],[-97.322963,33.616301],[-97.323397,33.61646],[-97.323673,33.618247],[-97.32458,33.618725],[-97.326761,33.62128],[-97.328456,33.622017],[-97.329547,33.623028],[-97.330769,33.62316],[-97.332517,33.62432],[-97.333332,33.624297],[-97.334009,33.62471],[-97.334848,33.62609],[-97.334401,33.626469],[-97.3345,33.627024],[-97.333862,33.627409],[-97.333948,33.628124],[-97.334579,33.628898],[-97.334467,33.629734],[-97.33473,33.629998],[-97.334514,33.630234],[-97.334684,33.63058],[-97.334512,33.631294],[-97.345286,33.631204],[-97.346473,33.632155],[-97.347124,33.632408],[-97.348464,33.632012],[-97.34949,33.632391],[-97.350607,33.632495],[-97.350902,33.632759],[-97.350805,33.63454],[-97.351403,33.635194],[-97.351876,33.635204],[-97.352066,33.634506],[-97.352592,33.634314],[-97.353354,33.634385],[-97.354491,33.635039],[-97.354538,33.636132],[-97.355051,33.637023],[-97.354545,33.637688],[-97.354513,33.638111],[-97.35538,33.639282],[-97.356281,33.639996],[-97.357549,33.639534],[-97.357601,33.638715],[-97.358199,33.638242],[-97.358685,33.63822],[-97.359027,33.638374],[-97.359297,33.638907],[-97.360684,33.639731],[-97.362071,33.639884],[-97.362458,33.639614],[-97.363254,33.639625],[-97.363871,33.639377],[-97.364443,33.639845],[-97.36535,33.639564],[-97.365751,33.639685],[-97.367861,33.641129],[-97.368375,33.642316],[-97.368296,33.642926],[-97.368566,33.643223],[-97.369781,33.642942],[-97.370478,33.64314],[-97.371299,33.64292],[-97.372896,33.642906],[-97.373087,33.643304],[-97.37454,33.644182],[-97.37638,33.644219],[-97.376867,33.644417],[-97.376676,33.644833],[-97.385088,33.644852],[-97.38506,33.648343],[-97.387259,33.648595],[-97.387712,33.648409],[-97.396932,33.648363],[-97.396692,33.662145],[-97.401268,33.662124],[-97.401406,33.662428],[-97.402333,33.662434],[-97.402976,33.663],[-97.403364,33.662797],[-97.403483,33.662429],[-97.404397,33.662297],[-97.404686,33.66244],[-97.404679,33.662864],[-97.404035,33.66327],[-97.404981,33.66354],[-97.404889,33.664232],[-97.405796,33.664386],[-97.406151,33.664788],[-97.405105,33.66542],[-97.405053,33.665672],[-97.405624,33.666195],[-97.406453,33.666008],[-97.406808,33.666245],[-97.406952,33.66675],[-97.407721,33.66708],[-97.407747,33.667822],[-97.407405,33.667976],[-97.407346,33.668504],[-97.408154,33.668581],[-97.408266,33.669059],[-97.408996,33.669241],[-97.409679,33.670505],[-97.410093,33.670544],[-97.410567,33.669692],[-97.411316,33.670203],[-97.411684,33.67116],[-97.411256,33.671418],[-97.411046,33.671973],[-97.410737,33.671896],[-97.409888,33.672418],[-97.421165,33.684259],[-97.423953,33.685705],[-97.433317,33.68598],[-97.438695,33.687171],[-97.440974,33.688203],[-97.442873,33.690076],[-97.443981,33.692378],[-97.445803,33.695086],[-97.448499,33.695614],[-97.453585,33.694351],[-97.457578,33.69289],[-97.462351,33.691716],[-97.469905,33.692075],[-97.473038,33.691599],[-97.476659,33.691418],[-97.480073,33.692508],[-97.485014,33.695682],[-97.485272,33.719102],[-97.484902,33.750104],[-97.484163,33.91551],[-97.482578,33.914589],[-97.470542,33.908984],[-97.469113,33.908618],[-97.463564,33.904955]]]}},{"type":"Feature","properties":{"PRECINCT":"1C","VTD":"001C"},"geometry":{"type":"Polygon","coordinates":[[[-97.102051,33.624316],[-97.098695,33.623048],[-97.09446,33.623063],[-97.094369,33.6188],[-97.088647,33.618799],[-97.088644,33.617818],[-97.102625,33.612218],[-97.105012,33.613387],[-97.105806,33.611196],[-97.109423,33.609451],[-97.112089,33.608916],[-97.113067,33.608935],[-97.116267,33.609752],[-97.119096,33.611306],[-97.123805,33.611726],[-97.124021,33.604381],[-97.123345,33.603618],[-97.124015,33.602036],[-97.127075,33.604914],[-97.127488,33.605036],[-97.128126,33.604794],[-97.128336,33.605097],[-97.130855,33.605412],[-97.13091,33.602287],[-97.141827,33.602355],[-97.141886,33.601496],[-97.148007,33.601529],[-97.148055,33.602303],[-97.148818,33.602294],[-97.149284,33.603042],[-97.150301,33.60605],[-97.152238,33.606076],[-97.153113,33.607698],[-97.155758,33.605661],[-97.158677,33.601397],[-97.162314,33.591006],[-97.162384,33.590766],[-97.160125,33.590436],[-97.162056,33.583463],[-97.162528,33.577831],[-97.169225,33.577841],[-97.169076,33.583582],[-97.167723,33.589691],[-97.165343,33.58966],[-97.16526,33.60686],[-97.164795,33.614391],[-97.164997,33.614345],[-97.164454,33.615203],[-97.164616,33.615337],[-97.165655,33.613917],[-97.166683,33.612994],[-97.167713,33.613793],[-97.17385,33.613902],[-97.173846,33.617908],[-97.174169,33.618619],[-97.174222,33.621319],[-97.167173,33.621174],[-97.167294,33.621845],[-97.166703,33.624935],[-97.160904,33.622842],[-97.159915,33.623787],[-97.157924,33.624692],[-97.156249,33.624739],[-97.15613,33.624383],[-97.123098,33.624214],[-97.122414,33.624354],[-97.121778,33.625406],[-97.121345,33.625653],[-97.112565,33.626414],[-97.110684,33.626195],[-97.102051,33.624316]]]}},{"type":"Feature","properties":{"PRECINCT":"21","VTD":"0021"},"geometry":{"type":"Polygon","coordinates":[[[-97.308893,33.799291],[-97.30857,33.798918],[-97.309202,33.797956],[-97.309117,33.797527],[-97.308169,33.797307],[-97.308103,33.797978],[-97.306503,33.798505],[-97.306398,33.797021],[-97.305963,33.796845],[-97.30516,33.797461],[-97.30464,33.796873],[-97.305028,33.796296],[-97.304594,33.795724],[-97.30252,33.795674],[-97.301006,33.794685],[-97.300664,33.795932],[-97.299926,33.795938],[-97.298794,33.79652],[-97.297438,33.795773],[-97.297484,33.794492],[-97.296378,33.79425],[-97.296681,33.793585],[-97.296089,33.793019],[-97.295456,33.793184],[-97.294831,33.792628],[-97.294325,33.792645],[-97.295009,33.793854],[-97.294779,33.794019],[-97.292659,33.793254],[-97.291698,33.792221],[-97.290855,33.792935],[-97.290184,33.791726],[-97.289315,33.791264],[-97.289229,33.791671],[-97.288426,33.791874],[-97.288512,33.792451],[-97.287847,33.79255],[-97.287169,33.791231],[-97.286728,33.791571],[-97.285609,33.791417],[-97.285563,33.790444],[-97.284148,33.790636],[-97.28372,33.78935],[-97.282358,33.789174],[-97.281759,33.788036],[-97.281963,33.787168],[-97.281792,33.786942],[-97.280502,33.787316],[-97.279956,33.786969],[-97.279311,33.787068],[-97.279238,33.786639],[-97.278567,33.786601],[-97.277974,33.786985],[-97.278586,33.787876],[-97.278566,33.78809],[-97.278125,33.788216],[-97.276809,33.788029],[-97.275822,33.787501],[-97.274446,33.787699],[-97.272702,33.787467],[-97.27053,33.786757],[-97.269127,33.787246],[-97.268087,33.787213],[-97.267521,33.786553],[-97.265994,33.786646],[-97.264777,33.785881],[-97.264448,33.785925],[-97.264375,33.786381],[-97.264724,33.786667],[-97.264381,33.787255],[-97.26396,33.786865],[-97.263091,33.786722],[-97.262281,33.787221],[-97.261702,33.787095],[-97.261084,33.78649],[-97.260716,33.785621],[-97.258938,33.786269],[-97.258681,33.785846],[-97.258188,33.785857],[-97.256785,33.78701],[-97.254935,33.787619],[-97.250893,33.786903],[-97.249495,33.786433],[-97.248915,33.785982],[-97.248626,33.786318],[-97.24829,33.786087],[-97.248665,33.785273],[-97.248355,33.785048],[-97.248361,33.784543],[-97.247538,33.784037],[-97.248282,33.783691],[-97.247281,33.783438],[-97.246195,33.783483],[-97.245853,33.783153],[-97.246043,33.782609],[-97.245497,33.782884],[-97.243976,33.782137],[-97.243149,33.782236],[-97.242264,33.782006],[-97.241922,33.781599],[-97.240981,33.781226],[-97.240263,33.780374],[-97.239137,33.779567],[-97.238629,33.778715],[-97.238774,33.778061],[-97.240103,33.777319],[-97.238076,33.7781],[-97.237681,33.778051],[-97.236943,33.777298],[-97.236009,33.777018],[-97.236502,33.776561],[-97.235113,33.776463],[-97.23433,33.775738],[-97.234165,33.775144],[-97.23327,33.775255],[-97.233105,33.774925],[-97.232229,33.774518],[-97.23217,33.774073],[-97.233716,33.772951],[-97.231755,33.773771],[-97.229648,33.771964],[-97.229332,33.771381],[-97.227529,33.770947],[-97.227627,33.770095],[-97.228344,33.769518],[-97.228172,33.768694],[-97.228666,33.76827],[-97.229192,33.768292],[-97.229587,33.768611],[-97.230344,33.768429],[-97.231437,33.769132],[-97.231713,33.7685],[-97.233904,33.767675],[-97.2347,33.767664],[-97.235148,33.767773],[-97.235978,33.768999],[-97.234996,33.766922],[-97.236298,33.764915],[-97.237753,33.765376],[-97.238267,33.766063],[-97.238398,33.765541],[-97.239095,33.765364],[-97.239641,33.76537],[-97.240517,33.765793],[-97.239793,33.765089],[-97.238542,33.765068],[-97.237081,33.764282],[-97.236258,33.76348],[-97.236653,33.763183],[-97.23656,33.762117],[-97.237883,33.762474],[-97.237948,33.76215],[-97.239304,33.761434],[-97.240133,33.761511],[-97.240369,33.761258],[-97.240824,33.761236],[-97.242502,33.761472],[-97.242659,33.761059],[-97.24314,33.760894],[-97.243455,33.760432],[-97.244501,33.76013],[-97.246277,33.758843],[-97.248219,33.758043],[-97.248349,33.757138],[-97.248369,33.757312],[-97.248991,33.756834],[-97.249294,33.756219],[-97.249251,33.755325],[-97.250305,33.755197],[-97.251147,33.754738],[-97.251134,33.754298],[-97.250476,33.754205],[-97.250306,33.753523],[-97.250556,33.753325],[-97.250878,33.753468],[-97.251833,33.752029],[-97.252498,33.751903],[-97.25286,33.751348],[-97.252808,33.750974],[-97.253897,33.749841],[-97.253858,33.749391],[-97.254825,33.74916],[-97.254872,33.748786],[-97.254457,33.748237],[-97.25476,33.748022],[-97.25457,33.747698],[-97.25486,33.747258],[-97.254347,33.746928],[-97.254788,33.746665],[-97.254874,33.746093],[-97.254189,33.745868],[-97.254585,33.744961],[-97.254296,33.744202],[-97.254921,33.744219],[-97.255585,33.743876],[-97.254736,33.742805],[-97.253478,33.742112],[-97.253095,33.741623],[-97.251982,33.738938],[-97.251735,33.734817],[-97.249421,33.730197],[-97.247795,33.728667],[-97.242866,33.726416],[-97.241349,33.7249],[-97.240773,33.723589],[-97.238742,33.712853],[-97.238257,33.711745],[-97.235848,33.708121],[-97.232982,33.705556],[-97.225909,33.701359],[-97.224186,33.699924],[-97.213358,33.683634],[-97.208417,33.677849],[-97.204071,33.671398],[-97.202573,33.670239],[-97.193433,33.665196],[-97.194547,33.664822],[-97.20448,33.664921],[-97.20444,33.6597],[-97.205135,33.659712],[-97.20514,33.659307],[-97.21074,33.659382],[-97.210917,33.651797],[-97.208771,33.651793],[-97.208654,33.640956],[-97.207002,33.640914],[-97.207064,33.637217],[-97.210619,33.637186],[-97.214274,33.636574],[-97.214285,33.62922],[-97.216222,33.629241],[-97.216676,33.629495],[-97.217332,33.630389],[-97.218008,33.630614],[-97.220032,33.629762],[-97.221767,33.628686],[-97.230283,33.628799],[-97.230304,33.629626],[-97.233052,33.628441],[-97.234754,33.628034],[-97.238231,33.627692],[-97.239484,33.627233],[-97.242486,33.625572],[-97.244036,33.625531],[-97.24551,33.625914],[-97.245903,33.625741],[-97.24714,33.622108],[-97.246659,33.62103],[-97.247257,33.620403],[-97.247269,33.61937],[-97.248228,33.618825],[-97.24939,33.618866],[-97.249994,33.618576],[-97.250046,33.617079],[-97.251196,33.616794],[-97.251886,33.616267],[-97.25186,33.615816],[-97.250717,33.615755],[-97.24994,33.61534],[-97.249959,33.614004],[-97.250534,33.613831],[-97.251132,33.614084],[-97.252262,33.614123],[-97.25261,33.613766],[-97.252703,33.612997],[-97.253117,33.61275],[-97.253787,33.612805],[-97.254076,33.613261],[-97.254897,33.613025],[-97.255521,33.613476],[-97.255679,33.612916],[-97.256185,33.612971],[-97.25652,33.613213],[-97.256027,33.613719],[-97.256598,33.613977],[-97.257294,33.613675],[-97.257544,33.613994],[-97.258181,33.614203],[-97.258877,33.614138],[-97.259271,33.614501],[-97.260336,33.614199],[-97.260539,33.614589],[-97.261058,33.614655],[-97.261262,33.615024],[-97.262083,33.614848],[-97.262338,33.616066],[-97.2819,33.622387],[-97.283194,33.622684],[-97.284767,33.622741],[-97.293016,33.621996],[-97.294886,33.622319],[-97.298526,33.623487],[-97.301341,33.623246],[-97.304767,33.623713],[-97.310039,33.623852],[-97.309928,33.623247],[-97.309232,33.622615],[-97.309761,33.622623],[-97.314924,33.618346],[-97.315221,33.618155],[-97.315608,33.618443],[-97.319665,33.614835],[-97.320506,33.614954],[-97.32119,33.615592],[-97.319285,33.617966],[-97.319216,33.622763],[-97.320887,33.622855],[-97.320804,33.630533],[-97.321217,33.631002],[-97.320368,33.63091],[-97.314378,33.628785],[-97.313091,33.630315],[-97.312809,33.648141],[-97.3061,33.648094],[-97.30435,33.647846],[-97.300646,33.651781],[-97.300342,33.65595],[-97.300193,33.672202],[-97.297429,33.672235],[-97.297235,33.673298],[-97.275579,33.673048],[-97.275403,33.688762],[-97.277679,33.688782],[-97.277472,33.703266],[-97.27903,33.703256],[-97.27903,33.713634],[-97.279952,33.713681],[-97.280376,33.714151],[-97.2817,33.720102],[-97.281715,33.721609],[-97.282221,33.722458],[-97.283392,33.727734],[-97.285847,33.729463],[-97.288982,33.730877],[-97.293973,33.737585],[-97.295442,33.73917],[-97.297922,33.744051],[-97.301013,33.746411],[-97.302616,33.747354],[-97.30544,33.750398],[-97.309604,33.753657],[-97.309891,33.754637],[-97.311956,33.75664],[-97.312035,33.759142],[-97.312498,33.760296],[-97.317849,33.761956],[-97.321928,33.764094],[-97.322436,33.764857],[-97.322439,33.766411],[-97.322943,33.767463],[-97.323377,33.767732],[-97.325251,33.767926],[-97.325972,33.768202],[-97.326625,33.76995],[-97.325978,33.769922],[-97.324551,33.771575],[-97.324338,33.774228],[-97.32367,33.776577],[-97.320002,33.781834],[-97.320163,33.784103],[-97.319165,33.796341],[-97.31834,33.79685],[-97.31524,33.79738],[-97.314359,33.797729],[-97.313544,33.79827],[-97.312693,33.799325],[-97.312224,33.798929],[-97.31094,33.799099],[-97.310348,33.798841],[-97.309834,33.798951],[-97.30963,33.799302],[-97.308893,33.799291]]]}},{"type":"Feature","properties":{"PRECINCT":"22","VTD":"0022"},"geometry":{"type":"Polygon","coordinates":[[[-97.012014,33.595827],[-97.009655,33.594169],[-97.007136,33.593991],[-97.007066,33.586464],[-97.006027,33.58258],[-97.006655,33.579454],[-97.006563,33.576503],[-97.006246,33.576328],[-97.0035,33.576372],[-97.003453,33.571723],[-97.001367,33.569351],[-96.999006,33.5647],[-96.99733,33.562814],[-96.99588,33.559773],[-96.995869,33.558004],[-96.996386,33.555424],[-96.997519,33.552065],[-96.998434,33.550808],[-96.999264,33.548896],[-97.009696,33.550026],[-97.010934,33.550383],[-97.026016,33.560551],[-97.030738,33.564609],[-97.036382,33.568183],[-97.036342,33.568883],[-97.032364,33.568804],[-97.030754,33.568294],[-97.02709,33.569004],[-97.023977,33.568991],[-97.023729,33.570675],[-97.022538,33.571525],[-97.023729,33.574712],[-97.022344,33.575902],[-97.022276,33.581894],[-97.022601,33.582453],[-97.02328,33.582514],[-97.023276,33.584956],[-97.024279,33.586355],[-97.024516,33.587416],[-97.024068,33.589601],[-97.022919,33.590767],[-97.022686,33.593179],[-97.022139,33.593387],[-97.017848,33.593427],[-97.017027,33.595299],[-97.015737,33.595936],[-97.012014,33.595827]]]}},{"type":"Feature","properties":{"PRECINCT":"33","VTD":"0033"},"geometry":{"type":"Polygon","coordinates":[[[-97.206141,33.91428],[-97.202487,33.911395],[-97.201608,33.909975],[-97.200372,33.908761],[-97.19845,33.907525],[-97.190813,33.903815],[-97.189165,33.902601],[-97.186584,33.901548],[-97.185458,33.9007],[-97.182575,33.897609],[-97.180845,33.895204],[-97.179307,33.891127],[-97.179225,33.889364],[-97.178704,33.887669],[-97.178155,33.883707],[-97.177826,33.882585],[-97.177277,33.881852],[-97.176426,33.879081],[-97.176343,33.878394],[-97.176591,33.877432],[-97.17703,33.877203],[-97.176975,33.876699],[-97.174394,33.870716],[-97.172773,33.866046],[-97.169947,33.859656],[-97.168685,33.856037],[-97.166629,33.847311],[-97.166877,33.846258],[-97.166795,33.844059],[-97.167262,33.841563],[-97.166824,33.840395],[-97.171627,33.835335],[-97.175826,33.833801],[-97.176869,33.833001],[-97.179943,33.831673],[-97.18137,33.831375],[-97.186254,33.830894],[-97.192483,33.83133],[-97.194678,33.831192],[-97.195832,33.830805],[-97.197509,33.829834],[-97.198978,33.828373],[-97.201347,33.825288],[-97.203514,33.821825],[-97.204995,33.81887],[-97.204748,33.816947],[-97.204939,33.815229],[-97.204829,33.810122],[-97.204911,33.80971],[-97.205213,33.809664],[-97.20557,33.81145],[-97.205789,33.810053],[-97.205569,33.809091],[-97.205705,33.802908],[-97.204827,33.799908],[-97.203236,33.797343],[-97.202632,33.796587],[-97.200959,33.795442],[-97.200547,33.794343],[-97.200492,33.793198],[-97.196843,33.78894],[-97.195554,33.78784],[-97.195691,33.78681],[-97.194786,33.785344],[-97.192838,33.783146],[-97.19122,33.782184],[-97.190397,33.781153],[-97.189328,33.776939],[-97.189383,33.776138],[-97.189712,33.775978],[-97.190178,33.776367],[-97.190809,33.776436],[-97.188513,33.77241],[-97.187724,33.769831],[-97.188108,33.768007],[-97.189758,33.766443],[-97.190691,33.765143],[-97.191321,33.763537],[-97.192817,33.761169],[-97.192969,33.760784],[-97.192565,33.75968],[-97.191515,33.758381],[-97.191454,33.757966],[-97.191295,33.758082],[-97.185325,33.755503],[-97.184968,33.75603],[-97.181843,33.75587],[-97.181843,33.755686],[-97.18272,33.755641],[-97.18272,33.75548],[-97.181843,33.755366],[-97.180143,33.754495],[-97.178209,33.750104],[-97.176302,33.74776],[-97.17463,33.745035],[-97.174,33.74318],[-97.173617,33.739607],[-97.173287,33.738988],[-97.17219,33.737545],[-97.165256,33.730954],[-97.162804,33.729125],[-97.164373,33.727477],[-97.16495,33.726561],[-97.165335,33.725233],[-97.164792,33.721085],[-97.165238,33.715286],[-97.164835,33.710918],[-97.165829,33.702146],[-97.16502,33.695627],[-97.167044,33.681772],[-97.166905,33.67977],[-97.166135,33.677535],[-97.158842,33.665849],[-97.159268,33.647871],[-97.163141,33.647898],[-97.163202,33.650075],[-97.171171,33.650174],[-97.171988,33.649795],[-97.180819,33.649721],[-97.181153,33.650661],[-97.18518,33.657588],[-97.188277,33.662487],[-97.189397,33.664835],[-97.193355,33.663106],[-97.194423,33.664833],[-97.193433,33.665196],[-97.202573,33.670239],[-97.203893,33.671223],[-97.208417,33.677849],[-97.213358,33.683634],[-97.224186,33.699924],[-97.225909,33.701359],[-97.232982,33.705556],[-97.235848,33.708121],[-97.238257,33.711745],[-97.238742,33.712853],[-97.240773,33.723589],[-97.241349,33.7249],[-97.242866,33.726416],[-97.247795,33.728667],[-97.249421,33.730197],[-97.251735,33.734817],[-97.251982,33.738938],[-97.253095,33.741623],[-97.253478,33.742112],[-97.254736,33.742805],[-97.255585,33.743876],[-97.254921,33.744219],[-97.254296,33.744202],[-97.254585,33.744961],[-97.254189,33.745868],[-97.254874,33.746093],[-97.254788,33.746665],[-97.254347,33.746928],[-97.25486,33.747258],[-97.25457,33.747698],[-97.25476,33.748022],[-97.254457,33.748237],[-97.254872,33.748786],[-97.254825,33.74916],[-97.253858,33.749391],[-97.253897,33.749841],[-97.252808,33.750974],[-97.25286,33.751348],[-97.252498,33.751903],[-97.251833,33.752029],[-97.250878,33.753468],[-97.250556,33.753325],[-97.250306,33.753523],[-97.250476,33.754205],[-97.251134,33.754298],[-97.251147,33.754738],[-97.250305,33.755197],[-97.249251,33.755325],[-97.249294,33.756219],[-97.248991,33.756834],[-97.248369,33.757312],[-97.248349,33.757138],[-97.248219,33.758043],[-97.246277,33.758843],[-97.244501,33.76013],[-97.243455,33.760432],[-97.24314,33.760894],[-97.242659,33.761059],[-97.242502,33.761472],[-97.240824,33.761236],[-97.240369,33.761258],[-97.240133,33.761511],[-97.239304,33.761434],[-97.237948,33.76215],[-97.237883,33.762474],[-97.23656,33.762117],[-97.236653,33.763183],[-97.236258,33.76348],[-97.237081,33.764282],[-97.238542,33.765068],[-97.239793,33.765089],[-97.240517,33.765793],[-97.239641,33.76537],[-97.239095,33.765364],[-97.238398,33.765541],[-97.238267,33.766063],[-97.237753,33.765376],[-97.236298,33.764915],[-97.234996,33.766922],[-97.235978,33.768999],[-97.235148,33.767773],[-97.2347,33.767664],[-97.233904,33.767675],[-97.231713,33.7685],[-97.231437,33.769132],[-97.230344,33.768429],[-97.229587,33.768611],[-97.229192,33.768292],[-97.228666,33.76827],[-97.228126,33.768804],[-97.228344,33.769518],[-97.227627,33.770095],[-97.227568,33.770986],[-97.229332,33.771381],[-97.229648,33.771964],[-97.231755,33.773771],[-97.233716,33.772951],[-97.23217,33.774073],[-97.232229,33.774518],[-97.233105,33.774925],[-97.23327,33.775255],[-97.234165,33.775144],[-97.23433,33.775738],[-97.235113,33.776463],[-97.236502,33.776561],[-97.236009,33.777018],[-97.236943,33.777298],[-97.237681,33.778051],[-97.238076,33.7781],[-97.240103,33.777319],[-97.238774,33.778061],[-97.238629,33.778715],[-97.239137,33.779567],[-97.240263,33.780374],[-97.240981,33.781226],[-97.241922,33.781599],[-97.242264,33.782006],[-97.243149,33.782236],[-97.243976,33.782137],[-97.245497,33.782884],[-97.246043,33.782609],[-97.245853,33.783153],[-97.246195,33.783483],[-97.247281,33.783438],[-97.248282,33.783691],[-97.247538,33.784037],[-97.248361,33.784543],[-97.248355,33.785048],[-97.248665,33.785273],[-97.24829,33.786087],[-97.248626,33.786318],[-97.248915,33.785982],[-97.249495,33.786433],[-97.250893,33.786903],[-97.254935,33.787619],[-97.256785,33.78701],[-97.258188,33.785857],[-97.258681,33.785846],[-97.258938,33.786269],[-97.260716,33.785621],[-97.261084,33.78649],[-97.261702,33.787095],[-97.262281,33.787221],[-97.263091,33.786722],[-97.26396,33.786865],[-97.264381,33.787255],[-97.264724,33.786667],[-97.264375,33.786381],[-97.264448,33.785925],[-97.264777,33.785881],[-97.265994,33.786646],[-97.267521,33.786553],[-97.268087,33.787213],[-97.269127,33.787246],[-97.27053,33.786757],[-97.272702,33.787467],[-97.274446,33.787699],[-97.275822,33.787501],[-97.276809,33.788029],[-97.278125,33.788216],[-97.278566,33.78809],[-97.278586,33.787876],[-97.277974,33.786985],[-97.278567,33.786601],[-97.279238,33.786639],[-97.279311,33.787068],[-97.279956,33.786969],[-97.280502,33.787316],[-97.281792,33.786942],[-97.281963,33.787168],[-97.281759,33.788036],[-97.282358,33.789174],[-97.28372,33.78935],[-97.284148,33.790636],[-97.285563,33.790444],[-97.285609,33.791417],[-97.286728,33.791571],[-97.287169,33.791231],[-97.287847,33.79255],[-97.288512,33.792451],[-97.288426,33.791874],[-97.289229,33.791671],[-97.28923,33.79127],[-97.289664,33.791314],[-97.290184,33.791726],[-97.290855,33.792935],[-97.291698,33.792221],[-97.292659,33.793254],[-97.294779,33.794019],[-97.295009,33.793854],[-97.294285,33.792749],[-97.294831,33.792628],[-97.295456,33.793184],[-97.29599,33.792997],[-97.296602,33.793415],[-97.296378,33.79425],[-97.297438,33.794426],[-97.297438,33.795773],[-97.298024,33.795938],[-97.298688,33.796487],[-97.299367,33.796367],[-97.299926,33.795938],[-97.300664,33.795932],[-97.300809,33.794828],[-97.301079,33.794685],[-97.302428,33.795647],[-97.303969,33.795586],[-97.304831,33.795845],[-97.305022,33.796345],[-97.30464,33.796873],[-97.305219,33.797488],[-97.305963,33.796845],[-97.306292,33.796884],[-97.306503,33.798505],[-97.308103,33.797978],[-97.30807,33.79739],[-97.308419,33.797274],[-97.309255,33.797752],[-97.30857,33.798918],[-97.308893,33.799291],[-97.30963,33.799302],[-97.309834,33.798951],[-97.310348,33.798841],[-97.31094,33.799099],[-97.312224,33.798929],[-97.312693,33.799325],[-97.307409,33.806778],[-97.306271,33.807996],[-97.30615,33.816487],[-97.305808,33.816795],[-97.295604,33.816735],[-97.294263,33.817346],[-97.293098,33.818493],[-97.29277,33.81914],[-97.291672,33.828148],[-97.291522,33.837334],[-97.296119,33.843099],[-97.296414,33.844722],[-97.296407,33.848976],[-97.297347,33.849686],[-97.298333,33.849962],[-97.301638,33.850089],[-97.303756,33.849824],[-97.305664,33.850068],[-97.307666,33.84946],[-97.308409,33.849613],[-97.309271,33.850639],[-97.31078,33.854327],[-97.311995,33.855951],[-97.312255,33.85773],[-97.312974,33.859597],[-97.31412,33.860681],[-97.314849,33.862113],[-97.315594,33.862688],[-97.315154,33.8632],[-97.314592,33.86307],[-97.31393,33.863365],[-97.314395,33.863814],[-97.314254,33.866985],[-97.310727,33.872476],[-97.309946,33.874449],[-97.309426,33.877769],[-97.309442,33.880147],[-97.309846,33.883003],[-97.311159,33.886449],[-97.311192,33.887089],[-97.310324,33.88849],[-97.309172,33.888698],[-97.308046,33.888263],[-97.302224,33.883888],[-97.2972,33.878597],[-97.28973,33.87168],[-97.285393,33.868244],[-97.281032,33.865482],[-97.279151,33.864568],[-97.275487,33.863266],[-97.27461,33.862415],[-97.272869,33.861674],[-97.272054,33.860934],[-97.27198,33.860267],[-97.27098,33.858674],[-97.270916,33.858004],[-97.268541,33.858946],[-97.266874,33.859957],[-97.265839,33.861731],[-97.265087,33.862413],[-97.263565,33.862852],[-97.256628,33.863292],[-97.255639,33.863702],[-97.254235,33.865323],[-97.253163,33.867911],[-97.250293,33.872708],[-97.249209,33.875101],[-97.249077,33.880578],[-97.248789,33.882818],[-97.246537,33.887499],[-97.247124,33.889383],[-97.247143,33.892933],[-97.24687,33.897357],[-97.246302,33.900472],[-97.245049,33.903216],[-97.241536,33.906911],[-97.239467,33.907976],[-97.231587,33.910223],[-97.229902,33.911589],[-97.228462,33.913254],[-97.226936,33.91317],[-97.226243,33.913343],[-97.225815,33.913833],[-97.212184,33.915995],[-97.210316,33.915927],[-97.206141,33.91428]]]}},{"type":"Feature","properties":{"PRECINCT":"4C","VTD":"004C"},"geometry":{"type":"Polygon","coordinates":[[[-97.157594,33.714696],[-97.158767,33.703903],[-97.158469,33.695443],[-97.160899,33.695457],[-97.15991,33.691229],[-97.159294,33.689997],[-97.152348,33.681319],[-97.1515,33.680988],[-97.147155,33.676439],[-97.14714,33.676948],[-97.143681,33.676558],[-97.143693,33.666405],[-97.133361,33.651346],[-97.121257,33.651479],[-97.121166,33.652074],[-97.120776,33.652217],[-97.114746,33.652149],[-97.114529,33.645754],[-97.109546,33.645721],[-97.108849,33.645227],[-97.108786,33.645465],[-97.106859,33.645398],[-97.106715,33.645951],[-97.099288,33.646148],[-97.099184,33.645768],[-97.091726,33.646362],[-97.091633,33.645368],[-97.080544,33.646247],[-97.080352,33.643176],[-97.091389,33.642154],[-97.091501,33.644022],[-97.098767,33.643421],[-97.099278,33.641099],[-97.104765,33.640906],[-97.104957,33.627837],[-97.094542,33.627822],[-97.09446,33.623063],[-97.099233,33.623106],[-97.102051,33.624316],[-97.110684,33.626195],[-97.112565,33.626414],[-97.121345,33.625653],[-97.121778,33.625406],[-97.122527,33.624286],[-97.12707,33.624178],[-97.12705,33.634588],[-97.133372,33.634574],[-97.133382,33.641594],[-97.138846,33.640944],[-97.144401,33.640647],[-97.145301,33.643177],[-97.147295,33.646797],[-97.154236,33.65773],[-97.156185,33.661437],[-97.166135,33.677535],[-97.166905,33.67977],[-97.167044,33.681772],[-97.166854,33.683964],[-97.16502,33.695627],[-97.165829,33.702146],[-97.16562,33.705069],[-97.164881,33.709327],[-97.165172,33.714634],[-97.157594,33.714696]]]}}]}