{"type":"FeatureCollection","features":[{"type":"Feature","properties":{"PRECINCT":"harris:128","COUNTY":"Harris"},"geometry":{"type":"Polygon","coordinates":[[[-95.4679,29.70574],[-95.46772,29.69],[-95.47591,29.68989],[-95.47594,29.69111],[-95.48445,29.69103],[-95.48457,29.69919],[-95.48041,29.70125],[-95.48036,29.69832],[-95.47408,29.69838],[-95.47416,29.70442],[-95.47625,29.7034],[-95.47628,29.7056],[-95.4679,29.70574]]]}},{"type":"Feature","properties":{"PRECINCT":"harris:133","COUNTY":"Harris"},"geometry":{"type":"Polygon","coordinates":[[[-95.44312,29.72459],[-95.44303,29.72034],[-95.44127,29.72124],[-95.44098,29.70597],[-95.44739,29.70592],[-95.44782,29.72453],[-95.44312,29.72459]]]}},{"type":"Feature","properties":{"PRECINCT":"harris:135","COUNTY":"Harris"},"geometry":{"type":"Polygon","coordinates":[[[-95.43381,29.75756],[-95.43394,29.75445],[-95.43753,29.75343],[-95.43757,29.75202],[-95.4372,29.75018],[-95.43615,29.74764],[-95.43606,29.7421],[-95.4331,29.74239],[-95.43309,29.74181],[-95.43528,29.74152],[-95.44735,29.74167],[-95.45459,29.74124],[-95.45479,29.74194],[-95.45492,29.74674],[-95.44826,29.74666],[-95.4484,29.7561],[-95.4465,29.7551],[-95.44605,29.75394],[-95.44391,29.75407],[-95.44244,29.75361],[-95.44151,29.75405],[-95.44115,29.75522],[-95.44024,29.75611],[-95.43967,29.75708],[-95.43802,29.75713],[-95.43821,29.75778],[-95.4392,29.75878],[-95.43918,29.7592],[-95.43878,29.75958],[-95.43838,29.75959],[-95.43552,29.75798],[-95.43381,29.75756]]]}},{"type":"Feature","properties":{"PRECINCT":"harris:139","COUNTY":"Harris"},"geometry":{"type":"Polygon","coordinates":[[[-95.41073,29.74258],[-95.4106,29.73071],[-95.41865,29.73058],[-95.41875,29.73848],[-95.42997,29.73834],[-95.43003,29.74207],[-95.41073,29.74258]]]}},{"type":"Feature","properties":{"PRECINCT":"harris:148","COUNTY":"Harris"},"geometry":{"type":"Polygon","coordinates":[[[-95.40183,29.7103],[-95.40309,29.70872],[-95.4041,29.70934],[-95.40533,29.70775],[-95.40432,29.70717],[-95.40507,29.70625],[-95.41829,29.70616],[-95.4184,29.71505],[-95.41223,29.7151],[-95.41131,29.71491],[-95.40208,29.71191],[-95.40287,29.71091],[-95.40183,29.7103]]]}},{"type":"Feature","properties":{"PRECINCT":"harris:15","COUNTY":"Harris"},"geometry":{"type":"Polygon","coordinates":[[[-95.41858,29.72549],[-95.4184,29.71505],[-95.42992,29.71493],[-95.43011,29.7253],[-95.41858,29.72549]]]}},{"type":"Feature","properties":{"PRECINCT":"harris:175","COUNTY":"Harris"},"geometry":{"type":"Polygon","coordinates":[[[-95.42734,29.69972],[-95.42723,29.69667],[-95.42693,29.69582],[-95.4286,29.69378],[-95.42882,29.69218],[-95.42945,29.69153],[-95.43084,29.69113],[-95.43199,29.69112],[-95.43417,29.6921],[-95.43466,29.69209],[-95.43612,29.69086],[-95.4384,29.68988],[-95.44087,29.69099],[-95.44217,29.69094],[-95.44611,29.68757],[-95.44701,29.68731],[-95.44726,29.69986],[-95.44267,29.69972],[-95.44053,29.69938],[-95.42734,29.69972]]]}},{"type":"Feature","properties":{"PRECINCT":"harris:176","COUNTY":"Harris"},"geometry":{"type":"Polygon","coordinates":[[[-95.4591,29.69008],[-95.45905,29.6814],[-95.45997,29.68135],[-95.46067,29.68105],[-95.46162,29.68023],[-95.46262,29.67974],[-95.46888,29.67852],[-95.47688,29.67739],[-95.47702,29.68328],[-95.47426,29.68333],[-95.47416,29.68263],[-95.47322,29.68269],[-95.47315,29.6841],[-95.47241,29.68399],[-95.47239,29.68594],[-95.4719,29.68746],[-95.47187,29.68997],[-95.4591,29.69008]]]}},{"type":"Feature","properties":{"PRECINCT":"harris:177","COUNTY":"Harris"},"geometry":{"type":"Polygon","coordinates":[[[-95.44166,29.74173],[-95.44145,29.73069],[-95.44022,29.73096],[-95.43837,29.73102],[-95.43639,29.73081],[-95.43635,29.72938],[-95.4335,29.72953],[-95.43349,29.72921],[-95.44168,29.72886],[-95.44429,29.72911],[-95.44791,29.72985],[-95.44816,29.74163],[-95.44166,29.74173]]]}},{"type":"Feature","properties":{"PRECINCT":"harris:178","COUNTY":"Harris"},"geometry":{"type":"Polygon","coordinates":[[[-95.44816,29.74163],[-95.44792,29.73005],[-95.45049,29.7303],[-95.45583,29.73026],[-95.45812,29.72978],[-95.46044,29.72895],[-95.46031,29.731],[-95.45831,29.74094],[-95.44816,29.74163]]]}},{"type":"Feature","properties":{"PRECINCT":"harris:18","COUNTY":"Harris"},"geometry":{"type":"Polygon","coordinates":[[[-95.43143,29.68772],[-95.43141,29.68676],[-95.42723,29.68683],[-95.42716,29.68175],[-95.42689,29.6808],[-95.42604,29.67988],[-95.42764,29.67772],[-95.43599,29.67947],[-95.43995,29.67951],[-95.43999,29.68479],[-95.43933,29.6848],[-95.43923,29.68587],[-95.43531,29.6859],[-95.43532,29.68674],[-95.43427,29.68675],[-95.43425,29.6858],[-95.43292,29.68581],[-95.43295,29.68771],[-95.43143,29.68772]]]}},{"type":"Feature","properties":{"PRECINCT":"harris:182","COUNTY":"Harris"},"geometry":{"type":"Polygon","coordinates":[[[-95.45636,29.68117],[-95.45905,29.6814],[-95.45921,29.70072],[-95.45945,29.70577],[-95.44739,29.70592],[-95.44701,29.68731],[-95.44805,29.68719],[-95.44891,29.68678],[-95.45102,29.68417],[-95.45508,29.68156],[-95.45636,29.68117]]]}},{"type":"Feature","properties":{"PRECINCT":"harris:183","COUNTY":"Harris"},"geometry":{"type":"Polygon","coordinates":[[[-95.43776,29.70601],[-95.44098,29.70597],[-95.44127,29.72124],[-95.43336,29.72524],[-95.43011,29.7253],[-95.42996,29.71697],[-95.43739,29.71685],[-95.43735,29.71485],[-95.43794,29.71459],[-95.43776,29.70601]]]}},{"type":"Feature","properties":{"PRECINCT":"harris:200","COUNTY":"Harris"},"geometry":{"type":"Polygon","coordinates":[[[-95.40049,29.76201],[-95.39842,29.76186],[-95.39821,29.76135],[-95.39804,29.75266],[-95.39878,29.75188],[-95.40086,29.7509],[-95.40218,29.7508],[-95.40214,29.74822],[-95.41068,29.74813],[-95.41073,29.75456],[-95.41033,29.75505],[-95.40882,29.75574],[-95.4084,29.75641],[-95.40883,29.76061],[-95.40808,29.76038],[-95.40699,29.76076],[-95.40359,29.76092],[-95.40174,29.76182],[-95.40049,29.76201]]]}},{"type":"Feature","properties":{"PRECINCT":"harris:204","COUNTY":"Harris"},"geometry":{"type":"Polygon","coordinates":[[[-95.44054,29.80865],[-95.43922,29.80778],[-95.43604,29.80627],[-95.43408,29.80437],[-95.4332,29.80385],[-95.42966,29.80317],[-95.43003,29.80164],[-95.42989,29.78925],[-95.4433,29.78917],[-95.45126,29.79501],[-95.4505,29.8001],[-95.44911,29.80294],[-95.44483,29.80709],[-95.44176,29.80869],[-95.44124,29.80836],[-95.44054,29.80865]]]}},{"type":"Feature","properties":{"PRECINCT":"harris:214","COUNTY":"Harris"},"geometry":{"type":"Polygon","coordinates":[[[-95.45945,29.70577],[-95.47628,29.7056],[-95.47629,29.70743],[-95.47251,29.70748],[-95.47259,29.7129],[-95.46799,29.71298],[-95.4681,29.72021],[-95.46396,29.72026],[-95.46403,29.72553],[-95.45959,29.72588],[-95.45981,29.7244],[-95.45977,29.72031],[-95.46031,29.72024],[-95.46023,29.70986],[-95.45945,29.70577]]]}},{"type":"Feature","properties":{"PRECINCT":"harris:215","COUNTY":"Harris"},"geometry":{"type":"Polygon","coordinates":[[[-95.44739,29.70592],[-95.45945,29.70577],[-95.46023,29.70986],[-95.46031,29.72024],[-95.45148,29.7204],[-95.45151,29.72267],[-95.44777,29.72271],[-95.44739,29.70592]]]}},{"type":"Feature","properties":{"PRECINCT":"harris:217","COUNTY":"Harris"},"geometry":{"type":"Polygon","coordinates":[[[-95.41067,29.74908],[-95.41073,29.74258],[-95.42114,29.74218],[-95.43144,29.74206],[-95.43309,29.74181],[-95.4331,29.74239],[-95.43606,29.7421],[-95.43612,29.74723],[-95.43015,29.74776],[-95.42287,29.74779],[-95.42287,29.74608],[-95.42174,29.74611],[-95.41964,29.74665],[-95.41882,29.74664],[-95.41882,29.7484],[-95.4151,29.74899],[-95.41067,29.74908]]]}},{"type":"Feature","properties":{"PRECINCT":"harris:222","COUNTY":"Harris"},"geometry":{"type":"Polygon","coordinates":[[[-95.41267,29.71511],[-95.4184,29.71505],[-95.41858,29.72549],[-95.39944,29.72573],[-95.39954,29.72319],[-95.39881,29.72249],[-95.41094,29.71779],[-95.41272,29.71748],[-95.41267,29.71511]]]}},{"type":"Feature","properties":{"PRECINCT":"harris:224","COUNTY":"Harris"},"geometry":{"type":"Polygon","coordinates":[[[-95.41213,29.69731],[-95.42033,29.68704],[-95.42213,29.68808],[-95.42288,29.68713],[-95.42346,29.68688],[-95.43141,29.68676],[-95.43143,29.68772],[-95.43427,29.6877],[-95.43427,29.68675],[-95.43642,29.68673],[-95.43701,29.68705],[-95.43628,29.68789],[-95.43667,29.68912],[-95.43743,29.68879],[-95.43732,29.68831],[-95.43762,29.68753],[-95.44003,29.68767],[-95.44007,29.69064],[-95.43893,29.69],[-95.4382,29.68991],[-95.43612,29.69086],[-95.43466,29.69209],[-95.43417,29.6921],[-95.43199,29.69112],[-95.43084,29.69113],[-95.42945,29.69153],[-95.42882,29.69218],[-95.4286,29.69378],[-95.42659,29.69619],[-95.42564,29.69674],[-95.42397,29.69699],[-95.42321,29.69685],[-95.42094,29.6957],[-95.42043,29.69564],[-95.41964,29.69591],[-95.4181,29.69734],[-95.41723,29.69773],[-95.41448,29.69781],[-95.41213,29.69731]]]}},{"type":"Feature","properties":{"PRECINCT":"harris:227","COUNTY":"Harris"},"geometry":{"type":"Polygon","coordinates":[[[-95.40883,29.76061],[-95.40851,29.75612],[-95.40898,29.75565],[-95.41033,29.75505],[-95.41073,29.75456],[-95.41067,29.74908],[-95.4151,29.74899],[-95.41882,29.7484],[-95.41882,29.74664],[-95.41964,29.74665],[-95.42174,29.74611],[-95.42287,29.74608],[-95.42287,29.74779],[-95.43015,29.74776],[-95.43612,29.74723],[-95.43736,29.75073],[-95.43753,29.75343],[-95.43394,29.75445],[-95.43381,29.75767],[-95.43342,29.7578],[-95.43324,29.75815],[-95.43326,29.75944],[-95.43304,29.7598],[-95.43273,29.7599],[-95.43192,29.75966],[-95.43067,29.75852],[-95.42933,29.75828],[-95.42865,29.7587],[-95.42846,29.75934],[-95.42869,29.7598],[-95.42941,29.76006],[-95.42952,29.76032],[-95.42903,29.76055],[-95.42785,29.76046],[-95.42718,29.75957],[-95.42682,29.75839],[-95.42591,29.75793],[-95.42547,29.75674],[-95.42517,29.75658],[-95.42467,29.75683],[-95.42423,29.7583],[-95.42321,29.75825],[-95.42273,29.75752],[-95.42231,29.75735],[-95.42028,29.75928],[-95.41945,29.75892],[-95.41881,29.75789],[-95.41829,29.75755],[-95.41699,29.75867],[-95.41603,29.76016],[-95.41417,29.75984],[-95.41345,29.76008],[-95.41317,29.76055],[-95.41324,29.76208],[-95.41298,29.76238],[-95.41174,29.76205],[-95.40883,29.76061]]]}},{"type":"Feature","properties":{"PRECINCT":"harris:232","COUNTY":"Harris"},"geometry":{"type":"Polygon","coordinates":[[[-95.42745,29.70609],[-95.42734,29.69972],[-95.44053,29.69938],[-95.44267,29.69972],[-95.44726,29.69986],[-95.44739,29.70592],[-95.44552,29.70593],[-95.44538,29.7045],[-95.43511,29.70458],[-95.43312,29.70475],[-95.43313,29.70604],[-95.42745,29.70609]]]}},{"type":"Feature","properties":{"PRECINCT":"harris:233","COUNTY":"Harris"},"geometry":{"type":"Polygon","coordinates":[[[-95.43003,29.74207],[-95.42997,29.73834],[-95.41875,29.73848],[-95.41865,29.73058],[-95.42411,29.73049],[-95.43349,29.72921],[-95.4335,29.72953],[-95.43635,29.72938],[-95.43639,29.73081],[-95.43837,29.73102],[-95.44022,29.73096],[-95.44145,29.73069],[-95.44166,29.74173],[-95.43528,29.74152],[-95.43192,29.74203],[-95.43003,29.74207]]]}},{"type":"Feature","properties":{"PRECINCT":"harris:268","COUNTY":"Harris"},"geometry":{"type":"Polygon","coordinates":[[[-95.46758,29.68999],[-95.4679,29.70574],[-95.45945,29.70577],[-95.4591,29.69008],[-95.46758,29.68999]]]}},{"type":"Feature","properties":{"PRECINCT":"harris:281","COUNTY":"Harris"},"geometry":{"type":"Polygon","coordinates":[[[-95.46522,29.66937],[-95.46917,29.66576],[-95.47017,29.66635],[-95.47113,29.66659],[-95.48177,29.66648],[-95.48178,29.66697],[-95.47978,29.667],[-95.47994,29.67655],[-95.47662,29.67745],[-95.46888,29.67852],[-95.46262,29.67974],[-95.46162,29.68023],[-95.46067,29.68105],[-95.45997,29.68135],[-95.45905,29.6814],[-95.45908,29.67916],[-95.45957,29.67664],[-95.46187,29.67075],[-95.46399,29.67011],[-95.46522,29.66937]]]}},{"type":"Feature","properties":{"PRECINCT":"harris:316","COUNTY":"Harris"},"geometry":{"type":"Polygon","coordinates":[[[-95.47593,29.691],[-95.47591,29.68989],[-95.47187,29.68997],[-95.4719,29.68746],[-95.47239,29.68594],[-95.47241,29.68399],[-95.47315,29.6841],[-95.47322,29.68269],[-95.47416,29.68263],[-95.47419,29.68328],[-95.47477,29.68334],[-95.47929,29.68328],[-95.47929,29.68236],[-95.48178,29.68277],[-95.48174,29.68047],[-95.48424,29.68042],[-95.48445,29.69103],[-95.47593,29.691]]]}},{"type":"Feature","properties":{"PRECINCT":"harris:317","COUNTY":"Harris"},"geometry":{"type":"Polygon","coordinates":[[[-95.47702,29.68328],[-95.47688,29.67739],[-95.48426,29.67531],[-95.48424,29.68042],[-95.48174,29.68047],[-95.48178,29.68277],[-95.47929,29.68236],[-95.47929,29.68328],[-95.47702,29.68328]]]}},{"type":"Feature","properties":{"PRECINCT":"harris:350","COUNTY":"Harris"},"geometry":{"type":"Polygon","coordinates":[[[-95.41829,29.70616],[-95.41824,29.70071],[-95.41488,29.70073],[-95.41509,29.6983],[-95.41478,29.69783],[-95.41723,29.69773],[-95.41783,29.69751],[-95.42007,29.69569],[-95.42094,29.6957],[-95.42283,29.6967],[-95.42397,29.69699],[-95.42564,29.69674],[-95.42693,29.69582],[-95.42728,29.69712],[-95.42738,29.70222],[-95.42675,29.70224],[-95.42682,29.70307],[-95.42739,29.70303],[-95.42745,29.70609],[-95.41829,29.70616]]]}},{"type":"Feature","properties":{"PRECINCT":"harris:360","COUNTY":"Harris"},"geometry":{"type":"Polygon","coordinates":[[[-95.4106,29.73071],[-95.41053,29.72558],[-95.43336,29.72524],[-95.44303,29.72034],[-95.44312,29.72459],[-95.44782,29.72453],[-95.44791,29.72985],[-95.44429,29.72911],[-95.44064,29.72886],[-95.43217,29.72928],[-95.42411,29.73049],[-95.4106,29.73071]]]}},{"type":"Feature","properties":{"PRECINCT":"harris:361","COUNTY":"Harris"},"geometry":{"type":"Polygon","coordinates":[[[-95.39365,29.72064],[-95.40183,29.7103],[-95.40287,29.71091],[-95.40208,29.71191],[-95.41131,29.71491],[-95.41267,29.71511],[-95.41272,29.71748],[-95.41094,29.71779],[-95.3982,29.7227],[-95.39711,29.72269],[-95.39365,29.72064]]]}},{"type":"Feature","properties":{"PRECINCT":"harris:38","COUNTY":"Harris"},"geometry":{"type":"Polygon","coordinates":[[[-95.39714,29.74281],[-95.41073,29.74258],[-95.41068,29.74813],[-95.40214,29.74822],[-95.40218,29.7508],[-95.40096,29.75086],[-95.39878,29.75188],[-95.39866,29.75105],[-95.39437,29.74415],[-95.39714,29.74281]]]}},{"type":"Feature","properties":{"PRECINCT":"harris:39","COUNTY":"Harris"},"geometry":{"type":"Polygon","coordinates":[[[-95.39793,29.73654],[-95.39787,29.73443],[-95.39465,29.73446],[-95.3947,29.73117],[-95.4021,29.73061],[-95.4021,29.73098],[-95.4106,29.73071],[-95.41065,29.73424],[-95.39948,29.73442],[-95.39926,29.73523],[-95.39937,29.74273],[-95.39703,29.74283],[-95.39329,29.74466],[-95.39125,29.74467],[-95.39117,29.73787],[-95.3975,29.7378],[-95.39748,29.73655],[-95.39793,29.73654]]]}},{"type":"Feature","properties":{"PRECINCT":"harris:40","COUNTY":"Harris"},"geometry":{"type":"Polygon","coordinates":[[[-95.39525,29.72576],[-95.40207,29.72569],[-95.4021,29.73061],[-95.3947,29.73117],[-95.39463,29.72852],[-95.39512,29.72801],[-95.3951,29.72663],[-95.39471,29.72597],[-95.39525,29.72576]]]}},{"type":"Feature","properties":{"PRECINCT":"harris:434","COUNTY":"Harris"},"geometry":{"type":"Polygon","coordinates":[[[-95.45284,29.75729],[-95.45152,29.75706],[-95.45043,29.75632],[-95.4484,29.7561],[-95.44826,29.74666],[-95.45492,29.74674],[-95.45479,29.74194],[-95.45459,29.74124],[-95.45831,29.74094],[-95.45574,29.75159],[-95.45572,29.75996],[-95.45506,29.75989],[-95.45266,29.75858],[-95.45284,29.75729]]]}},{"type":"Feature","properties":{"PRECINCT":"harris:472","COUNTY":"Harris"},"geometry":{"type":"Polygon","coordinates":[[[-95.40507,29.70625],[-95.41213,29.69731],[-95.41478,29.69783],[-95.41509,29.6983],[-95.41488,29.70073],[-95.41824,29.70071],[-95.41829,29.70616],[-95.40507,29.70625]]]}},{"type":"Feature","properties":{"PRECINCT":"harris:52","COUNTY":"Harris"},"geometry":{"type":"Polygon","coordinates":[[[-95.39902,29.76353],[-95.39842,29.76186],[-95.39903,29.7618],[-95.40049,29.76201],[-95.40174,29.76182],[-95.40359,29.76092],[-95.40699,29.76076],[-95.40808,29.76038],[-95.40863,29.76052],[-95.40936,29.76392],[-95.40946,29.77047],[-95.40612,29.7705],[-95.39857,29.76971],[-95.39813,29.76851],[-95.39811,29.76592],[-95.39902,29.76353]]]}},{"type":"Feature","properties":{"PRECINCT":"harris:540","COUNTY":"Harris"},"geometry":{"type":"Polygon","coordinates":[[[-95.39026,29.72496],[-95.38008,29.71897],[-95.38462,29.7057],[-95.38768,29.70664],[-95.38886,29.70652],[-95.39023,29.7059],[-95.39194,29.7015],[-95.3966,29.703],[-95.39749,29.70229],[-95.39839,29.70191],[-95.40211,29.7014],[-95.40284,29.7037],[-95.40302,29.70623],[-95.40507,29.70625],[-95.40183,29.7103],[-95.40087,29.70972],[-95.3989,29.7122],[-95.39701,29.71108],[-95.39737,29.71021],[-95.39904,29.70921],[-95.3991,29.70624],[-95.39464,29.70622],[-95.39347,29.70723],[-95.39042,29.70861],[-95.39044,29.70922],[-95.39126,29.71022],[-95.38936,29.71353],[-95.38898,29.71346],[-95.38904,29.71429],[-95.38855,29.71454],[-95.38729,29.71637],[-95.38691,29.71808],[-95.38713,29.71921],[-95.38764,29.72012],[-95.38887,29.72085],[-95.38873,29.72192],[-95.38832,29.72255],[-95.39072,29.72393],[-95.39062,29.72453],[-95.39026,29.72496]]]}},{"type":"Feature","properties":{"PRECINCT":"harris:569","COUNTY":"Harris"},"geometry":{"type":"Polygon","coordinates":[[[-95.45574,29.75159],[-95.45831,29.74094],[-95.46031,29.731],[-95.46044,29.72895],[-95.46485,29.72726],[-95.46775,29.72646],[-95.47098,29.72616],[-95.4764,29.72604],[-95.47643,29.73151],[-95.47402,29.73152],[-95.47399,29.73205],[-95.47519,29.73204],[-95.47573,29.73232],[-95.47587,29.73313],[-95.47555,29.73409],[-95.47652,29.73431],[-95.47658,29.7366],[-95.47547,29.73657],[-95.47386,29.736],[-95.47376,29.73673],[-95.46837,29.73677],[-95.46839,29.73801],[-95.47062,29.73799],[-95.47066,29.73908],[-95.46679,29.74045],[-95.46087,29.74078],[-95.4613,29.75033],[-95.45915,29.75018],[-95.45631,29.7503],[-95.456,29.75416],[-95.45565,29.75416],[-95.45574,29.75159]]]}},{"type":"Feature","properties":{"PRECINCT":"harris:570","COUNTY":"Harris"},"geometry":{"type":"Polygon","coordinates":[[[-95.44792,29.73005],[-95.44777,29.72271],[-95.45151,29.72267],[-95.45148,29.7204],[-95.45977,29.72031],[-95.45981,29.7244],[-95.45959,29.72588],[-95.46039,29.72581],[-95.46044,29.72895],[-95.45812,29.72978],[-95.45583,29.73026],[-95.45049,29.7303],[-95.44809,29.73008],[-95.44792,29.73005]]]}},{"type":"Feature","properties":{"PRECINCT":"harris:60","COUNTY":"Harris"},"geometry":{"type":"Polygon","coordinates":[[[-95.39948,29.73442],[-95.41065,29.73424],[-95.41073,29.74258],[-95.40827,29.74277],[-95.39931,29.7428],[-95.39926,29.73523],[-95.39948,29.73442]]]}},{"type":"Feature","properties":{"PRECINCT":"harris:632","COUNTY":"Harris"},"geometry":{"type":"Polygon","coordinates":[[[-95.38904,29.71429],[-95.38898,29.71346],[-95.38936,29.71353],[-95.39126,29.71022],[-95.39044,29.70922],[-95.39042,29.70861],[-95.39347,29.70723],[-95.39464,29.70622],[-95.3991,29.70624],[-95.39904,29.70921],[-95.39737,29.71021],[-95.39701,29.71108],[-95.3989,29.7122],[-95.40087,29.70972],[-95.40183,29.7103],[-95.39132,29.72358],[-95.39072,29.72393],[-95.38832,29.72255],[-95.38873,29.72192],[-95.38887,29.72085],[-95.38764,29.72012],[-95.38698,29.71874],[-95.38695,29.71743],[-95.38729,29.71637],[-95.38855,29.71454],[-95.38904,29.71429]]]}},{"type":"Feature","properties":{"PRECINCT":"harris:70","COUNTY":"Harris"},"geometry":{"type":"Polygon","coordinates":[[[-95.42656,29.77818],[-95.42364,29.77696],[-95.42617,29.77666],[-95.42616,29.77593],[-95.42555,29.7752],[-95.4262,29.77473],[-95.42318,29.77109],[-95.42185,29.77104],[-95.42158,29.76283],[-95.41839,29.76286],[-95.41841,29.76438],[-95.41761,29.76439],[-95.41764,29.7659],[-95.41631,29.76593],[-95.41633,29.76743],[-95.41339,29.76746],[-95.41335,29.76601],[-95.41241,29.76603],[-95.41242,29.76676],[-95.41048,29.76679],[-95.41049,29.76533],[-95.40948,29.76533],[-95.40929,29.76312],[-95.40863,29.76052],[-95.41174,29.76205],[-95.41298,29.76238],[-95.41324,29.76208],[-95.41317,29.76055],[-95.41345,29.76008],[-95.41417,29.75984],[-95.41603,29.76016],[-95.41699,29.75867],[-95.41829,29.75755],[-95.41881,29.75789],[-95.41945,29.75892],[-95.42028,29.75928],[-95.42231,29.75735],[-95.42273,29.75752],[-95.42321,29.75825],[-95.42423,29.7583],[-95.42467,29.75683],[-95.42517,29.75658],[-95.42547,29.75674],[-95.42591,29.75793],[-95.42682,29.75839],[-95.42754,29.76013],[-95.42817,29.76054],[-95.42903,29.76055],[-95.42952,29.76032],[-95.42941,29.76006],[-95.42869,29.7598],[-95.42846,29.75934],[-95.42865,29.7587],[-95.42933,29.75828],[-95.43067,29.75852],[-95.43192,29.75966],[-95.43273,29.7599],[-95.43304,29.7598],[-95.43326,29.75944],[-95.43324,29.75815],[-95.43375,29.75766],[-95.43552,29.75798],[-95.43858,29.75963],[-95.43918,29.7592],[-95.4392,29.75878],[-95.43821,29.75778],[-95.43802,29.75713],[-95.43967,29.75708],[-95.44024,29.75611],[-95.44115,29.75522],[-95.44151,29.75405],[-95.44264,29.7536],[-95.44391,29.75407],[-95.44605,29.75394],[-95.4465,29.7551],[-95.44858,29.75617],[-95.45043,29.75632],[-95.45152,29.75706],[-95.45284,29.75729],[-95.45266,29.75858],[-95.45506,29.75989],[-95.45572,29.75996],[-95.45624,29.77197],[-95.45605,29.77513],[-95.45547,29.77855],[-95.454,29.78075],[-95.45179,29.77924],[-95.45,29.77881],[-95.44154,29.77869],[-95.43854,29.78289],[-95.43781,29.7835],[-95.43694,29.78366],[-95.4357,29.78336],[-95.43117,29.78057],[-95.42656,29.77818]]]}},{"type":"Feature","properties":{"PRECINCT":"harris:71","COUNTY":"Harris"},"geometry":{"type":"Polygon","coordinates":[[[-95.41597,29.78344],[-95.40966,29.78332],[-95.40916,29.78131],[-95.40965,29.77921],[-95.40946,29.77047],[-95.41342,29.77043],[-95.42115,29.77096],[-95.42117,29.77171],[-95.42214,29.77179],[-95.42215,29.77106],[-95.42318,29.77109],[-95.4262,29.77473],[-95.42555,29.7752],[-95.42616,29.77593],[-95.42617,29.77666],[-95.42364,29.77696],[-95.42732,29.77856],[-95.43117,29.78057],[-95.4357,29.78336],[-95.43675,29.78364],[-95.43675,29.78393],[-95.43612,29.78393],[-95.4189,29.78369],[-95.41597,29.78344]]]}},{"type":"Feature","properties":{"PRECINCT":"harris:710","COUNTY":"Harris"},"geometry":{"type":"Polygon","coordinates":[[[-95.42214,29.77179],[-95.42117,29.77171],[-95.42115,29.77096],[-95.41342,29.77043],[-95.40946,29.77047],[-95.40939,29.76542],[-95.41049,29.76533],[-95.41048,29.76679],[-95.41242,29.76676],[-95.41241,29.76603],[-95.41335,29.76601],[-95.41339,29.76746],[-95.41633,29.76743],[-95.41631,29.76593],[-95.41764,29.7659],[-95.41761,29.76439],[-95.41841,29.76438],[-95.41839,29.76286],[-95.42158,29.76283],[-95.42185,29.77104],[-95.42215,29.77106],[-95.42214,29.77179]]]}},{"type":"Feature","properties":{"PRECINCT":"harris:826","COUNTY":"Harris"},"geometry":{"type":"Polygon","coordinates":[[[-95.47408,29.69838],[-95.48036,29.69832],[-95.48038,29.70024],[-95.47997,29.70028],[-95.47679,29.7019],[-95.47412,29.70198],[-95.47408,29.69838]]]}},{"type":"Feature","properties":{"PRECINCT":"harris:830","COUNTY":"Harris"},"geometry":{"type":"Polygon","coordinates":[[[-95.41103,29.69723],[-95.41213,29.69731],[-95.40507,29.70625],[-95.40302,29.70623],[-95.40295,29.70429],[-95.40244,29.70237],[-95.40525,29.70203],[-95.40765,29.70046],[-95.40901,29.69831],[-95.41008,29.69755],[-95.41103,29.69723]]]}},{"type":"Feature","properties":{"PRECINCT":"harris:837","COUNTY":"Harris"},"geometry":{"type":"Polygon","coordinates":[[[-95.40309,29.70872],[-95.40432,29.70717],[-95.40533,29.70775],[-95.4041,29.70934],[-95.40309,29.70872]]]}},{"type":"Feature","properties":{"PRECINCT":"harris:87","COUNTY":"Harris"},"geometry":{"type":"Polygon","coordinates":[[[-95.42996,29.71697],[-95.42992,29.71493],[-95.4184,29.71505],[-95.41841,29.7143],[-95.42023,29.71426],[-95.42021,29.71339],[-95.41839,29.71341],[-95.41829,29.70616],[-95.43304,29.70603],[-95.43322,29.7149],[-95.43735,29.71485],[-95.43739,29.71685],[-95.42996,29.71697]]]}},{"type":"Feature","properties":{"PRECINCT":"harris:886","COUNTY":"Harris"},"geometry":{"type":"Polygon","coordinates":[[[-95.39223,29.76754],[-95.39228,29.76253],[-95.39538,29.76294],[-95.39842,29.76186],[-95.39902,29.76353],[-95.39811,29.76592],[-95.39813,29.76851],[-95.39857,29.76971],[-95.39182,29.76896],[-95.39223,29.76754]]]}},{"type":"Feature","properties":{"PRECINCT":"harris:89","COUNTY":"Harris"},"geometry":{"type":"Polygon","coordinates":[[[-95.43322,29.7149],[-95.43312,29.70475],[-95.44538,29.7045],[-95.44552,29.70593],[-95.43776,29.70601],[-95.43794,29.71459],[-95.43735,29.71485],[-95.43322,29.7149]]]}},{"type":"Feature","properties":{"PRECINCT":"harris:895","COUNTY":"Harris"},"geometry":{"type":"Polygon","coordinates":[[[-95.40207,29.72569],[-95.41053,29.72558],[-95.4106,29.73071],[-95.4021,29.73098],[-95.40207,29.72569]]]}},{"type":"Feature","properties":{"PRECINCT":"harris:896","COUNTY":"Harris"},"geometry":{"type":"Polygon","coordinates":[[[-95.39132,29.72358],[-95.39365,29.72064],[-95.39711,29.72269],[-95.3982,29.7227],[-95.39881,29.72249],[-95.39954,29.72319],[-95.39958,29.72564],[-95.39525,29.72576],[-95.39471,29.72597],[-95.3951,29.72663],[-95.39512,29.72801],[-95.39463,29.72852],[-95.39469,29.73144],[-95.38911,29.73187],[-95.3875,29.73219],[-95.38447,29.73225],[-95.39062,29.72453],[-95.39078,29.72385],[-95.39132,29.72358]]]}},{"type":"Feature","properties":{"PRECINCT":"harris:902","COUNTY":"Harris"},"geometry":{"type":"Polygon","coordinates":[[[-95.42705,29.80276],[-95.4263,29.80106],[-95.42508,29.80045],[-95.42454,29.7998],[-95.4245,29.79847],[-95.42342,29.7971],[-95.42247,29.79452],[-95.42204,29.79412],[-95.42053,29.79345],[-95.4194,29.79204],[-95.41701,29.79036],[-95.41712,29.78952],[-95.41788,29.78886],[-95.4184,29.78795],[-95.41832,29.78734],[-95.41611,29.78644],[-95.41397,29.7842],[-95.41347,29.78332],[-95.4189,29.78369],[-95.43675,29.78393],[-95.43675,29.78364],[-95.43781,29.7835],[-95.43854,29.78289],[-95.44154,29.77869],[-95.45,29.77881],[-95.45179,29.77924],[-95.454,29.78075],[-95.45277,29.78242],[-95.45208,29.78411],[-95.45226,29.79086],[-95.45126,29.79501],[-95.4433,29.78917],[-95.42989,29.78925],[-95.42992,29.80255],[-95.42966,29.80317],[-95.42782,29.80309],[-95.42705,29.80276]]]}},{"type":"Feature","properties":{"PRECINCT":"harris:906","COUNTY":"Harris"},"geometry":{"type":"Polygon","coordinates":[[[-95.41839,29.71341],[-95.42021,29.71339],[-95.42023,29.71426],[-95.41841,29.7143],[-95.41839,29.71341]]]}},{"type":"Feature","properties":{"PRECINCT":"harris:931","COUNTY":"Harris"},"geometry":{"type":"Polygon","coordinates":[[[-95.43649,29.6875],[-95.43701,29.68705],[-95.43642,29.68673],[-95.43532,29.68674],[-95.43531,29.6859],[-95.43923,29.68587],[-95.43933,29.6848],[-95.43999,29.68479],[-95.44003,29.68767],[-95.43762,29.68753],[-95.43732,29.68831],[-95.43743,29.68879],[-95.43667,29.68912],[-95.43627,29.68828],[-95.43649,29.6875]]]}},{"type":"Feature","properties":{"PRECINCT":"harris:932","COUNTY":"Harris"},"geometry":{"type":"Polygon","coordinates":[[[-95.43292,29.68581],[-95.43425,29.6858],[-95.43427,29.6877],[-95.43295,29.68771],[-95.43292,29.68581]]]}},{"type":"Feature","properties":{"PRECINCT":"harris:933","COUNTY":"Harris"},"geometry":{"type":"Polygon","coordinates":[[[-95.42033,29.68704],[-95.42604,29.67988],[-95.42689,29.6808],[-95.42716,29.68175],[-95.42723,29.68683],[-95.42324,29.68693],[-95.42213,29.68808],[-95.42033,29.68704]]]}},{"type":"Feature","properties":{"PRECINCT":"harris:956","COUNTY":"Harris"},"geometry":{"type":"Polygon","coordinates":[[[-95.42739,29.70303],[-95.42682,29.70307],[-95.42675,29.70224],[-95.42738,29.70222],[-95.42739,29.70303]]]}}]}