{"type":"FeatureCollection","features":[{"type":"Feature","properties":{"PRECINCT":"1","VTD":"0001"},"geometry":{"type":"Polygon","coordinates":[[[-98.064762,27.756101],[-98.064696,27.750908],[-98.065196,27.750719],[-98.068469,27.750183],[-98.082584,27.750113],[-98.08255,27.755226],[-98.081065,27.75523],[-98.081028,27.754796],[-98.080166,27.754775],[-98.080068,27.755229],[-98.076693,27.755082],[-98.0767,27.756075],[-98.064762,27.756101]]]}},{"type":"Feature","properties":{"PRECINCT":"2","VTD":"0002"},"geometry":{"type":"Polygon","coordinates":[[[-98.023067,28.05711],[-98.023761,28.056295],[-98.027316,28.04004],[-98.035727,28.029265],[-98.040362,28.024902],[-98.039969,27.921135],[-98.03933,27.920456],[-98.022397,27.91088],[-98.020567,27.910679],[-98.009605,27.910832],[-98.009587,27.927945],[-98.009123,27.929203],[-98.008048,27.930375],[-98.006625,27.931086],[-98.005036,27.931289],[-97.970693,27.923539],[-97.959734,27.919342],[-98.008308,27.847373],[-98.084889,27.846878],[-98.087221,27.889611],[-98.088249,27.896395],[-98.089412,27.917954],[-98.090135,27.924081],[-98.090212,27.932093],[-98.132111,27.93171],[-98.132439,27.960956],[-98.135237,27.960986],[-98.135819,27.961638],[-98.136099,27.974647],[-98.136775,27.98117],[-98.138076,27.989313],[-98.140619,27.994832],[-98.151054,28.012083],[-98.151852,28.011659],[-98.152785,28.010117],[-98.156344,28.005889],[-98.165326,27.995738],[-98.177121,28.00597],[-98.17861,28.006464],[-98.179601,28.008142],[-98.185425,28.013112],[-98.186928,28.011503],[-98.186594,28.01042],[-98.195395,28.003982],[-98.210778,27.989938],[-98.235422,27.995728],[-98.235497,28.057966],[-98.083966,28.057485],[-98.023067,28.05711]]]}},{"type":"Feature","properties":{"PRECINCT":"3","VTD":"0003"},"geometry":{"type":"Polygon","coordinates":[[[-97.882975,28.053293],[-97.882152,28.0531],[-97.880383,28.054068],[-97.879408,28.054139],[-97.877398,28.052973],[-97.874955,28.050403],[-97.874783,28.049788],[-97.875003,28.049012],[-97.878343,28.047601],[-97.87848,28.047208],[-97.878101,28.046313],[-97.87682,28.046185],[-97.876069,28.045638],[-97.874691,28.045197],[-97.872678,28.04635],[-97.872005,28.046341],[-97.871542,28.04609],[-97.871233,28.045565],[-97.870899,28.044198],[-97.86959,28.043687],[-97.867793,28.041091],[-97.8646,28.041451],[-97.863659,28.040815],[-97.861472,28.038631],[-97.860558,28.038113],[-97.858022,28.037915],[-97.855466,28.038412],[-97.854483,28.038311],[-97.853926,28.037047],[-97.853334,28.036596],[-97.852496,28.036613],[-97.850739,28.037583],[-97.849548,28.037605],[-97.84861,28.036259],[-97.847337,28.036123],[-97.845452,28.036801],[-97.84372,28.036251],[-97.841205,28.036117],[-97.839886,28.035528],[-97.839472,28.034805],[-97.838918,28.034613],[-97.837333,28.035004],[-97.835249,28.03611],[-97.834346,28.036086],[-97.834353,28.037172],[-97.834175,28.037235],[-97.828207,28.036677],[-97.826105,28.035879],[-97.824284,28.035629],[-97.822904,28.035953],[-97.822567,28.03644],[-97.822658,28.03675],[-97.823319,28.037013],[-97.824224,28.036506],[-97.824861,28.036559],[-97.826027,28.037507],[-97.825993,28.038114],[-97.823336,28.039426],[-97.821712,28.038746],[-97.819923,28.03886],[-97.819501,28.039361],[-97.82038,28.040289],[-97.819884,28.04067],[-97.81855,28.040704],[-97.816544,28.039798],[-97.815395,28.038718],[-97.814278,28.03854],[-97.812827,28.039182],[-97.812532,28.040318],[-97.811823,28.041551],[-97.808637,28.041606],[-97.805827,28.041382],[-97.804333,28.03985],[-97.801388,28.03836],[-97.80106,28.037957],[-97.80103,28.037069],[-97.801606,28.036492],[-97.801567,28.036074],[-97.800623,28.035559],[-97.798553,28.033634],[-97.798652,28.033234],[-97.800061,28.032523],[-97.79887,28.031102],[-97.79812,28.030736],[-97.796755,28.031529],[-97.79607,28.031258],[-97.795644,28.030293],[-97.79555,28.029071],[-97.794431,28.026993],[-97.793733,28.024869],[-97.792696,28.023754],[-97.791609,28.021137],[-97.790315,28.019384],[-97.790969,28.018136],[-97.791302,28.01672],[-97.790741,28.015748],[-97.789319,28.014647],[-97.788988,28.013895],[-97.789154,28.013589],[-97.790115,28.013248],[-97.790501,28.012849],[-97.790593,28.011428],[-97.791593,28.011228],[-97.792292,28.01174],[-97.792356,28.012187],[-97.791678,28.013064],[-97.791417,28.013882],[-97.79167,28.014619],[-97.792146,28.014821],[-97.793689,28.014307],[-97.794279,28.013452],[-97.794767,28.011435],[-97.795059,28.011097],[-97.795727,28.010876],[-97.796398,28.01109],[-97.796718,28.010616],[-97.796632,28.007146],[-97.796369,28.004995],[-97.795803,28.003131],[-97.796055,28.002234],[-97.796844,28.00136],[-97.79818,27.998153],[-97.798517,27.995659],[-97.855388,27.949066],[-97.86455,27.958498],[-97.880571,27.973417],[-97.908061,27.995431],[-97.906372,27.997824],[-97.909142,27.999337],[-97.913201,28.00001],[-97.914126,28.000453],[-97.932232,28.015905],[-97.93536,28.018977],[-97.939468,28.022051],[-97.940338,28.023764],[-97.942003,28.030717],[-97.941578,28.039566],[-97.941727,28.040973],[-97.944592,28.046956],[-97.950319,28.056906],[-97.90876,28.056681],[-97.883148,28.0569],[-97.882759,28.056315],[-97.884183,28.055719],[-97.884639,28.054904],[-97.884373,28.054197],[-97.882975,28.053293]]]}},{"type":"Feature","properties":{"PRECINCT":"4","VTD":"0004"},"geometry":{"type":"Polygon","coordinates":[[[-98.076372,27.39562],[-98.075047,27.39529],[-98.070596,27.395285],[-98.065663,27.394833],[-98.065182,27.394635],[-98.064779,27.394124],[-98.067571,27.394146],[-98.068171,27.393788],[-98.068467,27.382697],[-98.06747,27.365848],[-98.067385,27.365703],[-98.058625,27.365669],[-98.058423,27.327777],[-98.068179,27.328179],[-98.084283,27.327987],[-98.084264,27.327328],[-98.08512,27.327199],[-98.085492,27.326292],[-98.085542,27.325194],[-98.091225,27.325054],[-98.090889,27.325999],[-98.098157,27.325104],[-98.127874,27.32071],[-98.127175,27.325853],[-98.127712,27.325855],[-98.12795,27.324114],[-98.133074,27.323996],[-98.134445,27.323776],[-98.134969,27.323457],[-98.135968,27.323769],[-98.137217,27.323756],[-98.13734,27.323257],[-98.138023,27.323017],[-98.1424,27.323151],[-98.142894,27.323563],[-98.145341,27.323274],[-98.147345,27.323461],[-98.163587,27.322881],[-98.16565,27.366723],[-98.133123,27.367943],[-98.132915,27.363264],[-98.130869,27.363341],[-98.130826,27.36236],[-98.129008,27.362418],[-98.128884,27.359406],[-98.116503,27.359863],[-98.116916,27.368537],[-98.104353,27.368984],[-98.10417,27.369173],[-98.104174,27.370219],[-98.103551,27.371226],[-98.102072,27.370043],[-98.100214,27.368962],[-98.099835,27.369478],[-98.099637,27.371297],[-98.087739,27.371655],[-98.084687,27.37246],[-98.08214,27.37213],[-98.078761,27.370581],[-98.076132,27.370222],[-98.075181,27.369745],[-98.073822,27.369858],[-98.073913,27.375896],[-98.074421,27.376753],[-98.076471,27.376585],[-98.077117,27.376729],[-98.07789,27.378365],[-98.078408,27.37873],[-98.079468,27.379012],[-98.079531,27.382309],[-98.071052,27.382325],[-98.070538,27.382506],[-98.070901,27.383376],[-98.070965,27.391596],[-98.071224,27.391802],[-98.079144,27.391708],[-98.079548,27.393123],[-98.079579,27.39525],[-98.078228,27.395664],[-98.076372,27.39562]]]}},{"type":"Feature","properties":{"PRECINCT":"5","VTD":"0005"},"geometry":{"type":"Polygon","coordinates":[[[-98.226914,27.645144],[-98.200889,27.645204],[-98.200748,27.644064],[-98.192821,27.643589],[-98.189185,27.644048],[-98.185729,27.644161],[-98.185192,27.643932],[-98.182076,27.64102],[-98.181965,27.638336],[-98.181019,27.637855],[-98.180945,27.633724],[-98.178869,27.633745],[-98.177893,27.63341],[-98.176496,27.633409],[-98.174204,27.632892],[-98.173629,27.632578],[-98.172678,27.632507],[-98.174325,27.626106],[-98.175681,27.622472],[-98.175994,27.617086],[-98.179551,27.617096],[-98.174914,27.609632],[-98.174477,27.609322],[-98.174494,27.608818],[-98.172358,27.605532],[-98.18052,27.601345],[-98.180666,27.600459],[-98.189046,27.596051],[-98.188876,27.586363],[-98.180179,27.587517],[-98.147511,27.587708],[-98.146414,27.587546],[-98.144975,27.586989],[-98.141201,27.58394],[-98.13989,27.58331],[-98.13839,27.582964],[-98.093806,27.583191],[-98.09341,27.587076],[-98.093691,27.587887],[-98.093572,27.588409],[-98.093157,27.588475],[-98.092918,27.590281],[-98.092283,27.589919],[-98.086409,27.633845],[-98.085423,27.633553],[-98.084422,27.632502],[-98.084521,27.63123],[-98.084953,27.630416],[-98.083655,27.629338],[-98.082957,27.628006],[-98.081876,27.627291],[-98.080424,27.627346],[-98.079571,27.626686],[-98.079064,27.626631],[-98.078607,27.625789],[-98.077952,27.625464],[-98.077567,27.62458],[-98.077091,27.624112],[-98.075145,27.622549],[-98.073576,27.622203],[-98.07276,27.621152],[-98.072748,27.620767],[-98.072117,27.620992],[-98.071185,27.62015],[-98.070202,27.620101],[-98.067813,27.619091],[-98.066981,27.619138],[-98.066957,27.618836],[-98.06623,27.618739],[-98.065801,27.617676],[-98.063996,27.617516],[-98.063632,27.617286],[-98.063305,27.616761],[-98.063334,27.616206],[-98.062335,27.615534],[-98.061883,27.614811],[-98.061451,27.614549],[-98.061313,27.613792],[-98.061658,27.613484],[-98.061465,27.612491],[-98.060402,27.611375],[-98.060198,27.611002],[-98.060313,27.610047],[-98.059668,27.609234],[-98.059088,27.469652],[-98.155382,27.469254],[-98.15559,27.468888],[-98.155515,27.461737],[-98.155815,27.461528],[-98.233072,27.461142],[-98.233762,27.611523],[-98.233704,27.667445],[-98.227036,27.656551],[-98.226914,27.645144]]]}},{"type":"Feature","properties":{"PRECINCT":"6","VTD":"0006"},"geometry":{"type":"Polygon","coordinates":[[[-98.234486,27.788384],[-98.230918,27.787799],[-98.229975,27.787219],[-98.228598,27.785591],[-98.227433,27.784841],[-98.225286,27.784071],[-98.222607,27.78351],[-98.221753,27.782625],[-98.220156,27.782598],[-98.219699,27.781951],[-98.21878,27.786676],[-98.16066,27.786853],[-98.160567,27.763063],[-98.160785,27.760073],[-98.159649,27.752215],[-98.146302,27.750762],[-98.146088,27.68719],[-98.184136,27.68649],[-98.184379,27.686692],[-98.184504,27.690302],[-98.192598,27.690382],[-98.193276,27.715375],[-98.234153,27.714716],[-98.234443,27.728054],[-98.234133,27.74694],[-98.234491,27.759883],[-98.234486,27.788384]]]}},{"type":"Feature","properties":{"PRECINCT":"7","VTD":"0007"},"geometry":{"type":"Polygon","coordinates":[[[-98.017911,27.814146],[-98.017982,27.785122],[-98.018517,27.783693],[-98.019281,27.78269],[-98.021091,27.781353],[-98.022648,27.780559],[-98.061417,27.753113],[-98.061019,27.751453],[-98.062423,27.750864],[-98.064593,27.750376],[-98.064928,27.780982],[-98.051381,27.791142],[-98.04909,27.792281],[-98.0489,27.793084],[-98.042883,27.797666],[-98.040925,27.799875],[-98.040414,27.799846],[-98.030998,27.814035],[-98.017911,27.814146]]]}},{"type":"Feature","properties":{"PRECINCT":"8","VTD":"0008"},"geometry":{"type":"Polygon","coordinates":[[[-97.855388,27.949066],[-97.897997,27.914254],[-97.902465,27.911284],[-97.934274,27.885202],[-97.933804,27.847633],[-97.989994,27.847456],[-98.008159,27.847576],[-97.959734,27.919342],[-97.970693,27.923539],[-98.005036,27.931289],[-98.006625,27.931086],[-98.008048,27.930375],[-98.009123,27.929203],[-98.009587,27.927945],[-98.009605,27.910832],[-98.020567,27.910679],[-98.022397,27.91088],[-98.03933,27.920456],[-98.039969,27.921135],[-98.040362,28.024902],[-98.035727,28.029265],[-98.027316,28.04004],[-98.023587,28.056642],[-98.023067,28.05711],[-97.950319,28.056906],[-97.944592,28.046956],[-97.941727,28.040973],[-97.941578,28.039566],[-97.942003,28.030717],[-97.940338,28.023764],[-97.939468,28.022051],[-97.93536,28.018977],[-97.932232,28.015905],[-97.914126,28.000453],[-97.913201,28.00001],[-97.909142,27.999337],[-97.906372,27.997824],[-97.908061,27.995431],[-97.880571,27.973417],[-97.86455,27.958498],[-97.855388,27.949066]]]}},{"type":"Feature","properties":{"PRECINCT":"9","VTD":"0009"},"geometry":{"type":"Polygon","coordinates":[[[-98.00992,27.747889],[-98.010025,27.747114],[-98.010687,27.746575],[-98.01117,27.745799],[-98.010831,27.744588],[-98.009798,27.743482],[-98.008903,27.741302],[-98.0092,27.74034],[-98.008835,27.739949],[-98.006566,27.739794],[-98.005608,27.739243],[-98.005565,27.73844],[-98.006691,27.737191],[-98.003873,27.733828],[-98.002927,27.733392],[-98.000006,27.733212],[-97.99851,27.731952],[-97.998064,27.729894],[-97.997581,27.72919],[-97.994854,27.728712],[-97.992614,27.726969],[-97.991767,27.726942],[-97.991512,27.726715],[-97.984881,27.726728],[-97.984907,27.720635],[-97.984379,27.71946],[-97.966156,27.719239],[-97.966018,27.705566],[-97.937745,27.704312],[-97.938483,27.691509],[-97.939536,27.679591],[-97.942146,27.635932],[-98.017984,27.635671],[-98.029905,27.635793],[-98.029183,27.638452],[-98.027226,27.641066],[-98.020094,27.640651],[-98.019013,27.640926],[-98.016208,27.637302],[-98.013479,27.637416],[-98.013863,27.643171],[-98.014275,27.643675],[-98.014248,27.645624],[-98.023568,27.646728],[-98.023619,27.647416],[-98.022969,27.648363],[-98.022548,27.649724],[-98.016384,27.649747],[-98.015099,27.650235],[-98.014028,27.651522],[-98.013982,27.653024],[-98.030943,27.677982],[-98.04001,27.697653],[-98.042778,27.699502],[-98.055131,27.712511],[-98.040057,27.713112],[-98.039836,27.717926],[-98.039924,27.72996],[-98.058772,27.729867],[-98.060029,27.735504],[-98.04273,27.738266],[-98.044747,27.747217],[-98.059503,27.744641],[-98.060525,27.748292],[-98.061931,27.748066],[-98.062555,27.750828],[-98.061019,27.751453],[-98.061417,27.753113],[-98.022648,27.780559],[-98.020897,27.781478],[-98.019159,27.782825],[-98.01882,27.782287],[-98.018815,27.780957],[-98.017994,27.780923],[-98.018093,27.766688],[-98.014312,27.761143],[-98.016385,27.760465],[-98.015447,27.758366],[-98.013951,27.756885],[-98.012658,27.756279],[-98.011904,27.75563],[-98.01146,27.752113],[-98.011541,27.750523],[-98.011199,27.749425],[-98.010167,27.748539],[-98.00992,27.747889]]]}},{"type":"Feature","properties":{"PRECINCT":"10","VTD":"0010"},"geometry":{"type":"Polygon","coordinates":[[[-98.069815,27.746514],[-98.067211,27.746371],[-98.066364,27.745601],[-98.064685,27.74491],[-98.064548,27.72986],[-98.039924,27.72996],[-98.039836,27.717926],[-98.040079,27.71308],[-98.055131,27.712511],[-98.042778,27.699502],[-98.04001,27.697653],[-98.03112,27.678288],[-98.018267,27.659497],[-98.024493,27.659959],[-98.026168,27.657704],[-98.02821,27.657149],[-98.028982,27.656717],[-98.030475,27.657276],[-98.031702,27.660527],[-98.037689,27.660733],[-98.037957,27.662224],[-98.049702,27.662213],[-98.049814,27.660344],[-98.056851,27.660151],[-98.057506,27.687611],[-98.068339,27.687561],[-98.068302,27.675136],[-98.080915,27.67512],[-98.077096,27.704356],[-98.07715,27.735772],[-98.073216,27.735772],[-98.073285,27.746365],[-98.069815,27.746514]]]}},{"type":"Feature","properties":{"PRECINCT":"11","VTD":"0011"},"geometry":{"type":"Polygon","coordinates":[[[-98.059088,27.469652],[-98.058625,27.365669],[-98.067385,27.365703],[-98.06747,27.365848],[-98.068467,27.382697],[-98.068171,27.393788],[-98.067571,27.394146],[-98.064819,27.394223],[-98.065663,27.394833],[-98.070596,27.395285],[-98.075047,27.39529],[-98.076767,27.39568],[-98.078228,27.395664],[-98.079579,27.39525],[-98.079548,27.393123],[-98.079144,27.391708],[-98.071224,27.391802],[-98.070965,27.391596],[-98.070901,27.383376],[-98.070538,27.382506],[-98.071052,27.382325],[-98.079531,27.382309],[-98.079468,27.379012],[-98.078408,27.37873],[-98.07789,27.378365],[-98.077117,27.376729],[-98.076471,27.376585],[-98.074421,27.376753],[-98.073913,27.375896],[-98.073822,27.369858],[-98.075181,27.369745],[-98.076132,27.370222],[-98.078761,27.370581],[-98.08214,27.37213],[-98.084687,27.37246],[-98.087739,27.371655],[-98.099637,27.371297],[-98.099835,27.369478],[-98.100214,27.368962],[-98.102072,27.370043],[-98.103551,27.371226],[-98.104174,27.370219],[-98.10417,27.369173],[-98.104353,27.368984],[-98.116916,27.368537],[-98.116503,27.359863],[-98.128884,27.359406],[-98.129008,27.362418],[-98.130826,27.36236],[-98.130869,27.363341],[-98.132915,27.363264],[-98.133123,27.367943],[-98.16565,27.366723],[-98.163423,27.319233],[-98.2284,27.316651],[-98.228588,27.320475],[-98.232667,27.320285],[-98.233072,27.461142],[-98.155815,27.461528],[-98.155515,27.461737],[-98.15559,27.468888],[-98.155382,27.469254],[-98.059088,27.469652]]]}},{"type":"Feature","properties":{"PRECINCT":"12","VTD":"0012"},"geometry":{"type":"Polygon","coordinates":[[[-98.017842,27.831117],[-98.017911,27.814146],[-98.030998,27.814035],[-98.040414,27.799846],[-98.040925,27.799875],[-98.042883,27.797666],[-98.0489,27.793084],[-98.04909,27.792281],[-98.051381,27.791142],[-98.064928,27.780982],[-98.064762,27.756101],[-98.0767,27.756075],[-98.076693,27.755082],[-98.080068,27.755229],[-98.080166,27.754775],[-98.081028,27.754796],[-98.081065,27.75523],[-98.08255,27.755226],[-98.083332,27.786351],[-98.083583,27.790859],[-98.084086,27.792927],[-98.083443,27.79449],[-98.083068,27.796692],[-98.08307,27.798807],[-98.08384,27.802335],[-98.08402,27.807344],[-98.083094,27.813952],[-98.084889,27.846878],[-98.008308,27.847373],[-98.016663,27.834987],[-98.017513,27.833197],[-98.017842,27.831117]]]}},{"type":"Feature","properties":{"PRECINCT":"13","VTD":"0013"},"geometry":{"type":"Polygon","coordinates":[[[-98.064696,27.750908],[-98.064593,27.750376],[-98.062555,27.750828],[-98.061931,27.748066],[-98.062652,27.747926],[-98.062475,27.747125],[-98.064556,27.747013],[-98.064685,27.74491],[-98.066364,27.745601],[-98.067211,27.746371],[-98.069705,27.746514],[-98.076656,27.746211],[-98.076971,27.745892],[-98.077295,27.745901],[-98.077295,27.74629],[-98.078139,27.745818],[-98.082599,27.745792],[-98.082584,27.750113],[-98.068877,27.75017],[-98.064696,27.750908]]]}},{"type":"Feature","properties":{"PRECINCT":"14","VTD":"0014"},"geometry":{"type":"Polygon","coordinates":[[[-98.058423,27.327777],[-98.058078,27.260981],[-98.139073,27.261849],[-98.181042,27.26195],[-98.232464,27.262487],[-98.232667,27.320285],[-98.228588,27.320475],[-98.2284,27.316651],[-98.163423,27.319233],[-98.163587,27.322881],[-98.147345,27.323461],[-98.145341,27.323274],[-98.142894,27.323563],[-98.1424,27.323151],[-98.138023,27.323017],[-98.13734,27.323257],[-98.137217,27.323756],[-98.135968,27.323769],[-98.134969,27.323457],[-98.134445,27.323776],[-98.133074,27.323996],[-98.12795,27.324114],[-98.127712,27.325855],[-98.127175,27.325853],[-98.127874,27.32071],[-98.098157,27.325104],[-98.090889,27.325999],[-98.091225,27.325054],[-98.085542,27.325194],[-98.085492,27.326292],[-98.08512,27.327199],[-98.084264,27.327328],[-98.084283,27.327987],[-98.068179,27.328179],[-98.058423,27.327777]]]}},{"type":"Feature","properties":{"PRECINCT":"15","VTD":"0015"},"geometry":{"type":"Polygon","coordinates":[[[-98.083679,27.79377],[-98.084086,27.792927],[-98.083549,27.790519],[-98.083174,27.782338],[-98.082579,27.760229],[-98.082602,27.747216],[-98.090193,27.74599],[-98.101063,27.749226],[-98.147678,27.750805],[-98.159649,27.752215],[-98.160785,27.760073],[-98.160567,27.763063],[-98.16066,27.786853],[-98.136462,27.786921],[-98.136486,27.790501],[-98.105089,27.79071],[-98.104791,27.790873],[-98.104756,27.79308],[-98.104237,27.79342],[-98.085462,27.793551],[-98.083679,27.79377]]]}},{"type":"Feature","properties":{"PRECINCT":"16","VTD":"0016"},"geometry":{"type":"Polygon","coordinates":[[[-98.101063,27.749226],[-98.090193,27.74599],[-98.082602,27.747216],[-98.082599,27.745792],[-98.078139,27.745818],[-98.077295,27.74629],[-98.077295,27.745901],[-98.076971,27.745892],[-98.076656,27.746211],[-98.073285,27.746365],[-98.073216,27.735772],[-98.07715,27.735772],[-98.077124,27.713413],[-98.082571,27.713447],[-98.082647,27.720753],[-98.083267,27.720744],[-98.083278,27.722173],[-98.082997,27.722164],[-98.083091,27.725715],[-98.082503,27.725821],[-98.083151,27.725826],[-98.083156,27.727951],[-98.083313,27.727998],[-98.083096,27.738035],[-98.085307,27.738064],[-98.085185,27.742373],[-98.088162,27.742487],[-98.088182,27.742786],[-98.090519,27.742765],[-98.090497,27.743336],[-98.093957,27.743327],[-98.093981,27.743818],[-98.094571,27.743811],[-98.094641,27.745136],[-98.095693,27.746214],[-98.098334,27.746323],[-98.09946,27.747385],[-98.10071,27.747836],[-98.10194,27.747814],[-98.103209,27.746455],[-98.103212,27.747667],[-98.109108,27.747848],[-98.109089,27.749504],[-98.101063,27.749226]]]}},{"type":"Feature","properties":{"PRECINCT":"17","VTD":"0017"},"geometry":{"type":"Polygon","coordinates":[[[-98.193276,27.715375],[-98.192646,27.690446],[-98.184504,27.690302],[-98.184233,27.686501],[-98.079185,27.688326],[-98.080915,27.67512],[-98.068302,27.675136],[-98.068339,27.687561],[-98.057506,27.687611],[-98.056851,27.660151],[-98.049814,27.660344],[-98.049702,27.662213],[-98.037957,27.662224],[-98.037689,27.660733],[-98.031702,27.660527],[-98.030475,27.657276],[-98.028982,27.656717],[-98.02821,27.657149],[-98.026168,27.657704],[-98.024493,27.659959],[-98.018267,27.659497],[-98.014164,27.653504],[-98.013876,27.652614],[-98.014028,27.651522],[-98.014924,27.650351],[-98.016384,27.649747],[-98.022548,27.649724],[-98.022969,27.648363],[-98.023619,27.647416],[-98.023568,27.646728],[-98.014248,27.645624],[-98.014275,27.643675],[-98.013863,27.643171],[-98.013479,27.637416],[-98.016208,27.637302],[-98.019013,27.640926],[-98.020094,27.640651],[-98.027226,27.641066],[-98.029183,27.638452],[-98.029905,27.635793],[-98.0598,27.635869],[-98.059668,27.609234],[-98.060313,27.610047],[-98.060198,27.611002],[-98.060402,27.611375],[-98.061465,27.612491],[-98.061658,27.613484],[-98.061313,27.613792],[-98.061451,27.614549],[-98.061883,27.614811],[-98.062335,27.615534],[-98.063334,27.616206],[-98.063305,27.616761],[-98.063632,27.617286],[-98.063996,27.617516],[-98.065801,27.617676],[-98.06623,27.618739],[-98.066957,27.618836],[-98.066981,27.619138],[-98.067813,27.619091],[-98.070202,27.620101],[-98.071185,27.62015],[-98.072117,27.620992],[-98.072748,27.620767],[-98.07276,27.621152],[-98.073576,27.622203],[-98.075145,27.622549],[-98.077091,27.624112],[-98.077567,27.62458],[-98.077952,27.625464],[-98.078607,27.625789],[-98.079064,27.626631],[-98.079571,27.626686],[-98.080424,27.627346],[-98.081876,27.627291],[-98.082957,27.628006],[-98.083655,27.629338],[-98.084953,27.630416],[-98.084521,27.63123],[-98.084422,27.632502],[-98.085423,27.633553],[-98.086409,27.633845],[-98.092283,27.589919],[-98.092918,27.590281],[-98.093157,27.588475],[-98.093572,27.588409],[-98.093691,27.587887],[-98.09341,27.587076],[-98.093806,27.583191],[-98.13839,27.582964],[-98.13989,27.58331],[-98.141201,27.58394],[-98.144975,27.586989],[-98.146414,27.587546],[-98.147511,27.587708],[-98.180179,27.587517],[-98.188876,27.586363],[-98.189046,27.596051],[-98.180666,27.600459],[-98.18052,27.601345],[-98.172358,27.605532],[-98.174494,27.608818],[-98.174477,27.609322],[-98.174914,27.609632],[-98.179551,27.617096],[-98.175994,27.617086],[-98.175681,27.622472],[-98.174325,27.626106],[-98.172678,27.632507],[-98.173629,27.632578],[-98.174204,27.632892],[-98.176496,27.633409],[-98.177893,27.63341],[-98.178869,27.633745],[-98.180945,27.633724],[-98.181019,27.637855],[-98.181965,27.638336],[-98.182076,27.64102],[-98.185192,27.643932],[-98.185729,27.644161],[-98.189185,27.644048],[-98.192821,27.643589],[-98.200748,27.644064],[-98.200889,27.645204],[-98.226914,27.645144],[-98.227036,27.656551],[-98.233704,27.667445],[-98.233716,27.704918],[-98.234153,27.714716],[-98.193276,27.715375]]]}},{"type":"Feature","properties":{"PRECINCT":"18","VTD":"0018"},"geometry":{"type":"Polygon","coordinates":[[[-98.16541,27.995802],[-98.163608,27.997472],[-98.158777,28.003041],[-98.152785,28.010117],[-98.151852,28.011659],[-98.151054,28.012083],[-98.140619,27.994832],[-98.138076,27.989313],[-98.136775,27.98117],[-98.136099,27.974647],[-98.135819,27.961638],[-98.135237,27.960986],[-98.132439,27.960956],[-98.132111,27.93171],[-98.090212,27.932093],[-98.090027,27.928443],[-98.090252,27.926078],[-98.089412,27.917954],[-98.088249,27.896395],[-98.087221,27.889611],[-98.083114,27.814492],[-98.08315,27.812964],[-98.084017,27.807832],[-98.08384,27.802335],[-98.083043,27.798226],[-98.083128,27.795996],[-98.083443,27.79449],[-98.083679,27.79377],[-98.085403,27.793552],[-98.104292,27.793412],[-98.104789,27.792975],[-98.104791,27.790873],[-98.105089,27.79071],[-98.136486,27.790501],[-98.136462,27.786921],[-98.21878,27.786676],[-98.219699,27.781951],[-98.220156,27.782598],[-98.221753,27.782625],[-98.222607,27.78351],[-98.225286,27.784071],[-98.227433,27.784841],[-98.228598,27.785591],[-98.229975,27.787219],[-98.230918,27.787799],[-98.234486,27.788384],[-98.235422,27.995728],[-98.210778,27.989938],[-98.195395,28.003982],[-98.186594,28.01042],[-98.186928,28.011503],[-98.185425,28.013112],[-98.179601,28.008142],[-98.17861,28.006464],[-98.177121,28.00597],[-98.16541,27.995802]]]}},{"type":"Feature","properties":{"PRECINCT":"19","VTD":"0019"},"geometry":{"type":"Polygon","coordinates":[[[-97.933804,27.847633],[-97.933603,27.776896],[-97.937745,27.704312],[-97.965858,27.705534],[-97.966105,27.705627],[-97.966137,27.706464],[-97.966156,27.719239],[-97.984379,27.71946],[-97.984907,27.720635],[-97.984881,27.726728],[-97.991512,27.726715],[-97.991767,27.726942],[-97.992614,27.726969],[-97.994854,27.728712],[-97.997482,27.729124],[-97.998064,27.729894],[-97.998448,27.731825],[-97.998813,27.732271],[-98.000006,27.733212],[-98.002927,27.733392],[-98.003656,27.733685],[-98.00543,27.735892],[-98.006425,27.736685],[-98.00666,27.737307],[-98.005497,27.738594],[-98.005811,27.739474],[-98.006844,27.739854],[-98.008835,27.739949],[-98.0092,27.74034],[-98.008903,27.741302],[-98.009798,27.743482],[-98.010831,27.744588],[-98.01117,27.745799],[-98.010687,27.746575],[-98.010025,27.747114],[-98.00992,27.747889],[-98.010167,27.748539],[-98.011199,27.749425],[-98.011541,27.750523],[-98.01146,27.752113],[-98.011904,27.75563],[-98.012658,27.756279],[-98.013951,27.756885],[-98.015447,27.758366],[-98.016385,27.760465],[-98.014312,27.761143],[-98.018116,27.766835],[-98.017994,27.780923],[-98.018815,27.780957],[-98.01882,27.782287],[-98.019159,27.782825],[-98.018517,27.783693],[-98.017982,27.785122],[-98.017858,27.830054],[-98.017676,27.832613],[-98.016663,27.834987],[-98.008159,27.847576],[-97.989994,27.847456],[-97.933804,27.847633]]]}},{"type":"Feature","properties":{"PRECINCT":"20","VTD":"0020"},"geometry":{"type":"Polygon","coordinates":[[[-98.059603,27.744684],[-98.044747,27.747217],[-98.04273,27.738266],[-98.060029,27.735504],[-98.058772,27.729867],[-98.064548,27.72986],[-98.064556,27.747013],[-98.062475,27.747125],[-98.062652,27.747926],[-98.060525,27.748292],[-98.059603,27.744684]]]}},{"type":"Feature","properties":{"PRECINCT":"22","VTD":"0022"},"geometry":{"type":"Polygon","coordinates":[[[-98.146302,27.750762],[-98.109089,27.749504],[-98.109108,27.747848],[-98.103212,27.747667],[-98.103209,27.746455],[-98.10194,27.747814],[-98.10071,27.747836],[-98.09946,27.747385],[-98.098334,27.746323],[-98.095693,27.746214],[-98.094641,27.745136],[-98.094571,27.743811],[-98.093981,27.743818],[-98.093957,27.743327],[-98.090497,27.743336],[-98.090519,27.742765],[-98.088182,27.742786],[-98.088162,27.742487],[-98.085185,27.742373],[-98.085307,27.738064],[-98.083096,27.738035],[-98.083313,27.727998],[-98.083156,27.727951],[-98.083151,27.725826],[-98.082503,27.725821],[-98.083091,27.725715],[-98.082997,27.722164],[-98.083278,27.722173],[-98.083267,27.720744],[-98.082647,27.720753],[-98.082571,27.713447],[-98.077124,27.713413],[-98.077096,27.704356],[-98.079185,27.688326],[-98.146088,27.68719],[-98.146302,27.750762]]]}}]}