{"type":"FeatureCollection","features":[{"type":"Feature","properties":{"PRECINCT":"harris:174","COUNTY":"Harris"},"geometry":{"type":"Polygon","coordinates":[[[-95.08567,29.60838],[-95.08585,29.60591],[-95.08689,29.60338],[-95.08855,29.60142],[-95.08983,29.59892],[-95.092,29.59862],[-95.09232,29.5984],[-95.09224,29.59777],[-95.08993,29.59499],[-95.09001,29.5936],[-95.08966,29.59315],[-95.08697,29.59323],[-95.08634,29.59307],[-95.08574,29.59247],[-95.08519,29.59227],[-95.08404,29.59374],[-95.08355,29.59372],[-95.08084,29.59191],[-95.07964,29.59209],[-95.07939,29.59181],[-95.07947,29.59104],[-95.08083,29.58971],[-95.08223,29.58931],[-95.08262,29.58881],[-95.08249,29.5876],[-95.08338,29.5869],[-95.08378,29.58704],[-95.08436,29.58812],[-95.0851,29.58827],[-95.08558,29.58802],[-95.08555,29.58652],[-95.08595,29.58565],[-95.08673,29.5856],[-95.08711,29.58601],[-95.08739,29.58703],[-95.08837,29.58739],[-95.08919,29.58642],[-95.08998,29.58591],[-95.09042,29.58402],[-95.08961,29.58276],[-95.09078,29.58113],[-95.09067,29.58008],[-95.09099,29.57961],[-95.09281,29.57984],[-95.09364,29.57911],[-95.09426,29.5789],[-95.09652,29.57901],[-95.09782,29.57968],[-95.10114,29.5799],[-95.10182,29.58063],[-95.1021,29.58217],[-95.10364,29.58343],[-95.10302,29.58474],[-95.10277,29.5863],[-95.10303,29.58871],[-95.1029,29.59012],[-95.10525,29.59295],[-95.10652,29.5954],[-95.10713,29.59717],[-95.10758,29.59963],[-95.10811,29.60778],[-95.11313,29.60755],[-95.11335,29.61033],[-95.11293,29.61351],[-95.11326,29.61412],[-95.11345,29.61983],[-95.11378,29.62239],[-95.11415,29.62247],[-95.11421,29.62343],[-95.11545,29.62399],[-95.11775,29.62564],[-95.11775,29.63356],[-95.11588,29.63359],[-95.11251,29.63452],[-95.10823,29.63491],[-95.10583,29.6325],[-95.09995,29.62585],[-95.09272,29.62022],[-95.08879,29.6166],[-95.08424,29.61311],[-95.08459,29.61023],[-95.08567,29.60838]]]}},{"type":"Feature","properties":{"PRECINCT":"harris:290","COUNTY":"Harris"},"geometry":{"type":"Polygon","coordinates":[[[-95.03703,29.66518],[-95.03697,29.66388],[-95.03592,29.6639],[-95.03565,29.65222],[-95.02988,29.65233],[-95.02958,29.63652],[-95.03001,29.63445],[-95.03066,29.63275],[-95.03356,29.62678],[-95.03418,29.6247],[-95.03425,29.62276],[-95.03354,29.61439],[-95.03292,29.61039],[-95.03413,29.61018],[-95.03555,29.61168],[-95.03547,29.6111],[-95.03634,29.61065],[-95.0382,29.61043],[-95.03884,29.60937],[-95.03933,29.60906],[-95.04058,29.60936],[-95.03997,29.60849],[-95.04002,29.60822],[-95.04047,29.60775],[-95.04055,29.60701],[-95.04077,29.60687],[-95.0416,29.6072],[-95.04163,29.60678],[-95.04231,29.60641],[-95.04217,29.60548],[-95.0423,29.60505],[-95.04259,29.6052],[-95.04252,29.60467],[-95.0422,29.60438],[-95.04395,29.60479],[-95.04558,29.60586],[-95.0486,29.61109],[-95.06984,29.60224],[-95.08812,29.61606],[-95.09272,29.62022],[-95.09863,29.62467],[-95.10145,29.62747],[-95.10675,29.63348],[-95.11091,29.6374],[-95.11439,29.64132],[-95.1133,29.64225],[-95.11255,29.64246],[-95.11086,29.64404],[-95.10996,29.64455],[-95.10959,29.64603],[-95.11059,29.64689],[-95.11067,29.6485],[-95.11057,29.6491],[-95.10991,29.64993],[-95.10985,29.65082],[-95.08855,29.65117],[-95.08371,29.6517],[-95.07572,29.65181],[-95.07574,29.65255],[-95.07336,29.65262],[-95.07282,29.65604],[-95.07152,29.65948],[-95.06784,29.6585],[-95.06809,29.65773],[-95.06739,29.65759],[-95.06025,29.65753],[-95.05951,29.6591],[-95.05925,29.66035],[-95.05933,29.66479],[-95.03703,29.66518]]]}},{"type":"Feature","properties":{"PRECINCT":"harris:306","COUNTY":"Harris"},"geometry":{"type":"Polygon","coordinates":[[[-95.1059,29.58503],[-95.10364,29.58343],[-95.10959,29.57238],[-95.12464,29.57858],[-95.12618,29.57951],[-95.12789,29.5812],[-95.12636,29.58229],[-95.12577,29.58519],[-95.12512,29.58573],[-95.12334,29.58591],[-95.12209,29.58514],[-95.12065,29.585],[-95.11929,29.58428],[-95.11681,29.58407],[-95.1156,29.58425],[-95.11327,29.58536],[-95.11033,29.58496],[-95.10852,29.58535],[-95.1059,29.58503]]]}},{"type":"Feature","properties":{"PRECINCT":"harris:307","COUNTY":"Harris"},"geometry":{"type":"Polygon","coordinates":[[[-95.07889,29.53527],[-95.07954,29.53413],[-95.08011,29.53367],[-95.08378,29.53403],[-95.08532,29.53477],[-95.08593,29.53485],[-95.08651,29.53441],[-95.08697,29.53311],[-95.08819,29.53189],[-95.08963,29.53113],[-95.0905,29.53128],[-95.09097,29.53168],[-95.09117,29.53317],[-95.09146,29.53357],[-95.09452,29.53574],[-95.09476,29.53564],[-95.09502,29.53777],[-95.09589,29.53944],[-95.09645,29.5397],[-95.09789,29.54115],[-95.10024,29.54208],[-95.10147,29.54377],[-95.10389,29.54497],[-95.1049,29.54644],[-95.07759,29.55542],[-95.07615,29.55657],[-95.07282,29.56197],[-95.0718,29.56316],[-95.0692,29.5568],[-95.07011,29.55609],[-95.07076,29.55518],[-95.07247,29.55021],[-95.07498,29.54755],[-95.07746,29.54593],[-95.07782,29.54502],[-95.07851,29.54503],[-95.07949,29.54334],[-95.07917,29.54233],[-95.07926,29.54177],[-95.07973,29.54146],[-95.08023,29.54014],[-95.08011,29.53946],[-95.07859,29.53725],[-95.07889,29.53527]]]}},{"type":"Feature","properties":{"PRECINCT":"harris:333","COUNTY":"Harris"},"geometry":{"type":"Polygon","coordinates":[[[-95.0387,29.60375],[-95.03181,29.60372],[-95.03119,29.60004],[-95.02914,29.594],[-94.9962,29.5947],[-94.9879,29.59482],[-94.98753,29.59467],[-94.98759,29.5941],[-94.98793,29.59403],[-94.98815,29.59438],[-94.98919,29.59459],[-94.98963,29.59406],[-94.98927,29.59388],[-94.98937,29.59366],[-94.9898,29.59338],[-94.99079,29.5933],[-94.99077,29.59287],[-94.99124,29.59282],[-94.99321,29.59063],[-94.99424,29.59036],[-94.99459,29.58907],[-94.99376,29.58838],[-94.99381,29.58816],[-94.99426,29.58777],[-94.99419,29.58823],[-94.99505,29.58823],[-94.99578,29.58736],[-94.99565,29.58714],[-94.99617,29.58676],[-94.99671,29.58674],[-94.99731,29.58595],[-94.99728,29.58489],[-94.99868,29.58466],[-95.0,29.58329],[-95.00144,29.5827],[-95.0018,29.58212],[-95.00156,29.58178],[-95.00199,29.5812],[-95.00245,29.58109],[-95.00204,29.58051],[-95.00248,29.5801],[-95.00317,29.58001],[-95.0034,29.57955],[-95.00378,29.5797],[-95.00382,29.57943],[-95.0043,29.57939],[-95.00425,29.57895],[-95.00479,29.57799],[-95.00468,29.57779],[-95.00528,29.57719],[-95.00608,29.57707],[-95.00682,29.57537],[-95.00779,29.57429],[-95.00875,29.5728],[-95.0087,29.57253],[-95.00906,29.57251],[-95.00895,29.57231],[-95.01015,29.57058],[-95.01079,29.57011],[-95.01157,29.56829],[-95.01235,29.56765],[-95.01384,29.56407],[-95.01435,29.56376],[-95.01413,29.56343],[-95.01441,29.56264],[-95.01489,29.56232],[-95.01611,29.55918],[-95.01674,29.55897],[-95.01682,29.55847],[-95.01645,29.55755],[-95.01732,29.55666],[-95.0182,29.5546],[-95.01957,29.55421],[-95.02088,29.55301],[-95.02094,29.55237],[-95.02052,29.55194],[-95.01803,29.55041],[-95.0174,29.54973],[-95.01735,29.54876],[-95.01761,29.54818],[-95.01923,29.54804],[-95.01936,29.54824],[-95.02165,29.54856],[-95.02201,29.54909],[-95.02225,29.54896],[-95.02322,29.54946],[-95.02372,29.54891],[-95.03027,29.58867],[-95.0376,29.59061],[-95.04149,29.59132],[-95.04142,29.59204],[-95.0422,29.59278],[-95.04391,29.59274],[-95.04507,29.59316],[-95.04491,29.59452],[-95.04382,29.59572],[-95.04449,29.59726],[-95.04341,29.59804],[-95.04279,29.59906],[-95.04389,29.60186],[-95.04306,29.60288],[-95.04165,29.60367],[-95.04145,29.60424],[-95.0387,29.60375]]]}},{"type":"Feature","properties":{"PRECINCT":"harris:348","COUNTY":"Harris"},"geometry":{"type":"Polygon","coordinates":[[[-95.17154,29.65603],[-95.17136,29.64952],[-95.17608,29.64947],[-95.17717,29.64959],[-95.18075,29.65075],[-95.1834,29.6508],[-95.18499,29.6521],[-95.18581,29.65321],[-95.18604,29.65432],[-95.18604,29.65676],[-95.18651,29.65853],[-95.18667,29.66507],[-95.17223,29.66532],[-95.17197,29.6578],[-95.17154,29.65603]]]}},{"type":"Feature","properties":{"PRECINCT":"harris:349","COUNTY":"Harris"},"geometry":{"type":"Polygon","coordinates":[[[-95.14305,29.5389],[-95.14226,29.5388],[-95.14311,29.53736],[-95.14368,29.53576],[-95.1439,29.53488],[-95.14369,29.53318],[-95.14238,29.53108],[-95.13783,29.525],[-95.13821,29.52493],[-95.13818,29.52478],[-95.13957,29.5249],[-95.14291,29.52454],[-95.14276,29.52434],[-95.16186,29.52235],[-95.16272,29.52868],[-95.16254,29.53033],[-95.16139,29.53235],[-95.1573,29.53615],[-95.15622,29.53689],[-95.15471,29.53748],[-95.14505,29.53906],[-95.14497,29.5388],[-95.14446,29.53889],[-95.14362,29.53934],[-95.14305,29.5389]]]}},{"type":"Feature","properties":{"PRECINCT":"harris:377","COUNTY":"Harris"},"geometry":{"type":"Polygon","coordinates":[[[-95.01536,29.63447],[-95.01504,29.63195],[-95.0145,29.63157],[-95.01369,29.62986],[-95.01275,29.62865],[-95.01194,29.62836],[-95.00856,29.62362],[-95.00237,29.61896],[-95.00134,29.6187],[-94.99989,29.62014],[-94.99966,29.62001],[-94.99855,29.62073],[-94.99941,29.61977],[-94.99979,29.61965],[-94.99974,29.61945],[-95.00079,29.61894],[-95.00114,29.61826],[-95.00016,29.61775],[-94.99923,29.61857],[-94.99812,29.62023],[-94.99817,29.62046],[-94.99787,29.62004],[-94.99933,29.61762],[-94.99859,29.61652],[-94.99475,29.61372],[-94.98978,29.61074],[-94.98924,29.6103],[-94.98873,29.6091],[-94.98817,29.60878],[-94.98792,29.60796],[-94.98559,29.60493],[-94.98482,29.60435],[-94.98393,29.60449],[-94.98392,29.60408],[-94.98275,29.60231],[-94.98268,29.60103],[-94.98406,29.5993],[-94.98509,29.59727],[-94.98691,29.59483],[-95.02914,29.594],[-95.03119,29.60004],[-95.03181,29.60372],[-95.0387,29.60375],[-95.0422,29.60438],[-95.04252,29.60467],[-95.04259,29.6052],[-95.0423,29.60505],[-95.04217,29.60548],[-95.04231,29.60641],[-95.04163,29.60678],[-95.0416,29.6072],[-95.04077,29.60687],[-95.04055,29.60701],[-95.04047,29.60775],[-95.04002,29.60822],[-95.04051,29.6094],[-95.03933,29.60906],[-95.03884,29.60937],[-95.0382,29.61043],[-95.03634,29.61065],[-95.03547,29.6111],[-95.03555,29.61168],[-95.03413,29.61018],[-95.03292,29.61039],[-95.03354,29.61439],[-95.03423,29.62422],[-95.03356,29.62678],[-95.03039,29.63347],[-95.02834,29.63287],[-95.0271,29.63141],[-95.02706,29.63045],[-95.01852,29.63055],[-95.01862,29.63443],[-95.01734,29.63447],[-95.01732,29.63384],[-95.01587,29.63386],[-95.01611,29.63448],[-95.01536,29.63447]]]}},{"type":"Feature","properties":{"PRECINCT":"harris:378","COUNTY":"Harris"},"geometry":{"type":"Polygon","coordinates":[[[-95.1697,29.5231],[-95.16945,29.52153],[-95.16481,29.52202],[-95.16436,29.51883],[-95.16448,29.51808],[-95.16571,29.51662],[-95.16906,29.51337],[-95.16944,29.51464],[-95.16995,29.51504],[-95.17059,29.51515],[-95.17139,29.51445],[-95.17211,29.51422],[-95.17342,29.51448],[-95.17413,29.51491],[-95.17437,29.51553],[-95.17366,29.51629],[-95.1736,29.51682],[-95.17467,29.51822],[-95.17527,29.51815],[-95.17584,29.51703],[-95.17655,29.51683],[-95.17797,29.51703],[-95.17867,29.51745],[-95.179,29.5181],[-95.17893,29.51927],[-95.17929,29.51985],[-95.18022,29.51981],[-95.17991,29.51875],[-95.18007,29.51832],[-95.18282,29.51881],[-95.18318,29.51922],[-95.18281,29.52024],[-95.18427,29.52036],[-95.18517,29.52163],[-95.18466,29.5231],[-95.18633,29.52335],[-95.18585,29.5241],[-95.18457,29.52491],[-95.18213,29.52699],[-95.17678,29.53193],[-95.17046,29.52669],[-95.17159,29.52573],[-95.17025,29.52431],[-95.1697,29.5231]]]}},{"type":"Feature","properties":{"PRECINCT":"harris:391","COUNTY":"Harris"},"geometry":{"type":"Polygon","coordinates":[[[-95.08378,29.58704],[-95.08338,29.5869],[-95.08249,29.5876],[-95.08142,29.58732],[-95.08084,29.58755],[-95.07979,29.58706],[-95.0788,29.58606],[-95.07743,29.58572],[-95.07652,29.58591],[-95.07686,29.58715],[-95.07647,29.58733],[-95.07515,29.58656],[-95.07444,29.58546],[-95.07309,29.58526],[-95.07235,29.58465],[-95.07191,29.58375],[-95.07132,29.58331],[-95.071,29.58194],[-95.07001,29.58173],[-95.06955,29.5825],[-95.06903,29.58254],[-95.06829,29.58172],[-95.06717,29.58097],[-95.06724,29.58045],[-95.06906,29.5791],[-95.06951,29.57814],[-95.07126,29.57703],[-95.07147,29.57653],[-95.07103,29.57481],[-95.07187,29.5733],[-95.07134,29.57077],[-95.07161,29.57012],[-95.07171,29.56527],[-95.07216,29.56368],[-95.07188,29.56306],[-95.07282,29.56197],[-95.07615,29.55657],[-95.07731,29.55557],[-95.09653,29.5493],[-95.0951,29.55063],[-95.09427,29.5522],[-95.11237,29.55964],[-95.11244,29.56331],[-95.11197,29.56409],[-95.11093,29.56488],[-95.11093,29.56601],[-95.10997,29.56671],[-95.10994,29.56798],[-95.10796,29.5717],[-95.10959,29.57238],[-95.10364,29.58343],[-95.1021,29.58217],[-95.10182,29.58063],[-95.10114,29.5799],[-95.09782,29.57968],[-95.09652,29.57901],[-95.09426,29.5789],[-95.09364,29.57911],[-95.09281,29.57984],[-95.09123,29.57951],[-95.09075,29.5798],[-95.09078,29.58113],[-95.08961,29.58276],[-95.09042,29.58402],[-95.09016,29.58563],[-95.08837,29.58739],[-95.08739,29.58703],[-95.08699,29.58582],[-95.08642,29.58553],[-95.08566,29.58599],[-95.08544,29.58815],[-95.08489,29.58829],[-95.08436,29.58812],[-95.08378,29.58704]]]}},{"type":"Feature","properties":{"PRECINCT":"harris:415","COUNTY":"Harris"},"geometry":{"type":"Polygon","coordinates":[[[-95.08424,29.61311],[-95.06984,29.60224],[-95.0486,29.61109],[-95.04545,29.60573],[-95.04395,29.60479],[-95.04145,29.60424],[-95.04165,29.60367],[-95.04306,29.60288],[-95.04389,29.60186],[-95.04279,29.59906],[-95.04341,29.59804],[-95.04449,29.59726],[-95.04382,29.59572],[-95.04491,29.59452],[-95.04507,29.59316],[-95.04391,29.59274],[-95.0422,29.59278],[-95.04142,29.59204],[-95.04149,29.59132],[-95.0452,29.59104],[-95.04962,29.58989],[-95.05178,29.59009],[-95.05409,29.59087],[-95.05618,29.5889],[-95.05738,29.58694],[-95.05791,29.58456],[-95.05876,29.56933],[-95.05871,29.56662],[-95.059,29.5648],[-95.06006,29.56471],[-95.06008,29.56486],[-95.06107,29.56492],[-95.06443,29.56459],[-95.06517,29.56433],[-95.06599,29.56443],[-95.06985,29.56287],[-95.06941,29.56319],[-95.0702,29.56316],[-95.07108,29.56248],[-95.07143,29.563],[-95.0721,29.56318],[-95.07216,29.56368],[-95.07171,29.56527],[-95.07161,29.57012],[-95.07134,29.57077],[-95.07187,29.5733],[-95.07103,29.57481],[-95.07147,29.57653],[-95.07126,29.57703],[-95.06951,29.57814],[-95.06906,29.5791],[-95.06724,29.58045],[-95.06717,29.58097],[-95.06829,29.58172],[-95.06903,29.58254],[-95.06955,29.5825],[-95.07001,29.58173],[-95.071,29.58194],[-95.07132,29.58331],[-95.07191,29.58375],[-95.07235,29.58465],[-95.07309,29.58526],[-95.07444,29.58546],[-95.07515,29.58656],[-95.07647,29.58733],[-95.07686,29.58715],[-95.07652,29.58591],[-95.07743,29.58572],[-95.0788,29.58606],[-95.07979,29.58706],[-95.08065,29.58749],[-95.08142,29.58732],[-95.08249,29.5876],[-95.0825,29.589],[-95.08223,29.58931],[-95.08083,29.58971],[-95.07972,29.59066],[-95.07936,29.59149],[-95.07964,29.59209],[-95.08084,29.59191],[-95.08355,29.59372],[-95.08404,29.59374],[-95.08519,29.59227],[-95.08574,29.59247],[-95.08634,29.59307],[-95.08697,29.59323],[-95.08966,29.59315],[-95.09001,29.5936],[-95.08993,29.59499],[-95.09235,29.59811],[-95.092,29.59862],[-95.08983,29.59892],[-95.08855,29.60142],[-95.08689,29.60338],[-95.08585,29.60591],[-95.08559,29.60866],[-95.08452,29.61047],[-95.08424,29.61311]]]}},{"type":"Feature","properties":{"PRECINCT":"harris:416","COUNTY":"Harris"},"geometry":{"type":"Polygon","coordinates":[[[-95.14515,29.56666],[-95.14067,29.56189],[-95.14044,29.56205],[-95.12825,29.54922],[-95.13679,29.54298],[-95.14182,29.54041],[-95.15419,29.55341],[-95.15404,29.55352],[-95.15591,29.55548],[-95.15388,29.55364],[-95.1455,29.55877],[-95.14727,29.56102],[-95.14526,29.56231],[-95.14763,29.56488],[-95.14515,29.56666]]]}},{"type":"Feature","properties":{"PRECINCT":"harris:473","COUNTY":"Harris"},"geometry":{"type":"Polygon","coordinates":[[[-95.12478,29.57339],[-95.13015,29.56938],[-95.13267,29.57218],[-95.13521,29.57173],[-95.13575,29.57224],[-95.13504,29.57265],[-95.13303,29.5729],[-95.13323,29.57367],[-95.13552,29.57338],[-95.13695,29.57267],[-95.14056,29.57652],[-95.13033,29.58381],[-95.12618,29.57951],[-95.12464,29.57858],[-95.12201,29.57749],[-95.12332,29.57517],[-95.12478,29.57339]]]}},{"type":"Feature","properties":{"PRECINCT":"harris:474","COUNTY":"Harris"},"geometry":{"type":"Polygon","coordinates":[[[-95.19909,29.57309],[-95.17412,29.55225],[-95.1813,29.54568],[-95.17973,29.54439],[-95.18148,29.54357],[-95.18161,29.5418],[-95.1829,29.54066],[-95.1836,29.53807],[-95.18489,29.53701],[-95.17978,29.53259],[-95.1791,29.53319],[-95.17718,29.53156],[-95.18213,29.52699],[-95.18457,29.52491],[-95.18585,29.5241],[-95.18633,29.52335],[-95.18783,29.5242],[-95.18675,29.52549],[-95.18693,29.5274],[-95.18769,29.52718],[-95.18974,29.5271],[-95.18991,29.52743],[-95.18945,29.5278],[-95.18801,29.52783],[-95.18745,29.52816],[-95.18805,29.52865],[-95.18973,29.52943],[-95.19064,29.53047],[-95.18943,29.53117],[-95.18939,29.5324],[-95.18887,29.53267],[-95.18852,29.53327],[-95.18741,29.53376],[-95.18743,29.53401],[-95.18846,29.53424],[-95.18836,29.53489],[-95.18924,29.53599],[-95.18987,29.53559],[-95.1907,29.53627],[-95.19091,29.53578],[-95.1922,29.5359],[-95.19285,29.53649],[-95.19423,29.53669],[-95.1941,29.53737],[-95.19453,29.53827],[-95.19429,29.53839],[-95.19382,29.53821],[-95.19214,29.53872],[-95.19231,29.53924],[-95.19303,29.53938],[-95.19271,29.53968],[-95.19294,29.54015],[-95.19224,29.54039],[-95.19264,29.54131],[-95.19308,29.54152],[-95.19319,29.54088],[-95.19375,29.54131],[-95.19427,29.54093],[-95.19464,29.54123],[-95.19418,29.54169],[-95.19467,29.54214],[-95.19406,29.54275],[-95.19417,29.54324],[-95.19482,29.54294],[-95.19502,29.54358],[-95.19562,29.54364],[-95.19587,29.54331],[-95.1955,29.54264],[-95.19565,29.54233],[-95.19749,29.54197],[-95.19797,29.54229],[-95.19822,29.54298],[-95.19945,29.54453],[-95.19921,29.54497],[-95.19915,29.54609],[-95.19866,29.54658],[-95.19789,29.54685],[-95.19739,29.54757],[-95.19723,29.54914],[-95.19733,29.54949],[-95.19827,29.55031],[-95.19822,29.55102],[-95.19896,29.5512],[-95.19993,29.55238],[-95.19954,29.55343],[-95.1999,29.55371],[-95.19996,29.55411],[-95.19906,29.55403],[-95.19754,29.5574],[-95.19715,29.55732],[-95.19681,29.55685],[-95.19567,29.5577],[-95.1954,29.55695],[-95.19451,29.55591],[-95.19428,29.55659],[-95.19491,29.55723],[-95.19463,29.55748],[-95.19393,29.55737],[-95.19364,29.55753],[-95.19315,29.55952],[-95.19398,29.56009],[-95.19517,29.5594],[-95.19571,29.56017],[-95.19692,29.56018],[-95.19695,29.55996],[-95.19602,29.55896],[-95.19601,29.55862],[-95.19656,29.5588],[-95.19702,29.55833],[-95.19779,29.55821],[-95.1981,29.55899],[-95.19868,29.5587],[-95.19917,29.55871],[-95.19902,29.5597],[-95.19938,29.56023],[-95.20008,29.56052],[-95.19906,29.56118],[-95.19939,29.5615],[-95.19993,29.56133],[-95.20061,29.56157],[-95.20003,29.56263],[-95.20105,29.56321],[-95.20121,29.56145],[-95.20154,29.56123],[-95.20279,29.56134],[-95.20297,29.56097],[-95.20243,29.56055],[-95.20312,29.56017],[-95.203,29.55964],[-95.20357,29.5598],[-95.20356,29.55923],[-95.20419,29.55814],[-95.20467,29.55827],[-95.20432,29.55891],[-95.20586,29.55916],[-95.20611,29.55886],[-95.20562,29.55852],[-95.20567,29.55767],[-95.20605,29.55761],[-95.20669,29.55793],[-95.20773,29.55779],[-95.20778,29.55803],[-95.20687,29.55851],[-95.20674,29.55885],[-95.20872,29.55987],[-95.20876,29.55917],[-95.20968,29.55896],[-95.21032,29.55841],[-95.21088,29.55853],[-95.21142,29.5592],[-95.21231,29.55861],[-95.21313,29.55892],[-95.21361,29.5586],[-95.21274,29.55798],[-95.21374,29.55699],[-95.2134,29.55692],[-95.2128,29.5572],[-95.21276,29.55623],[-95.21326,29.55572],[-95.21373,29.55627],[-95.21416,29.55629],[-95.21424,29.5561],[-95.21381,29.55566],[-95.21401,29.55515],[-95.21435,29.55515],[-95.21474,29.55565],[-95.21555,29.55478],[-95.21591,29.55473],[-95.21615,29.55497],[-95.2159,29.55531],[-95.21643,29.55616],[-95.2161,29.55674],[-95.21542,29.5569],[-95.21472,29.55677],[-95.21455,29.55696],[-95.21554,29.55733],[-95.21595,29.55779],[-95.19909,29.57309]]]}},{"type":"Feature","properties":{"PRECINCT":"harris:537","COUNTY":"Harris"},"geometry":{"type":"Polygon","coordinates":[[[-95.2309,29.57524],[-95.22669,29.57193],[-95.2226,29.56709],[-95.2213,29.56616],[-95.21962,29.56557],[-95.21781,29.56408],[-95.21731,29.56122],[-95.21751,29.56069],[-95.2188,29.55993],[-95.21886,29.55968],[-95.21845,29.55918],[-95.21903,29.5584],[-95.22116,29.55692],[-95.22204,29.5582],[-95.22326,29.55899],[-95.2269,29.55985],[-95.22857,29.56002],[-95.23092,29.55784],[-95.23367,29.55714],[-95.23476,29.55814],[-95.23495,29.55878],[-95.23592,29.55931],[-95.23653,29.56019],[-95.23798,29.56143],[-95.24009,29.56062],[-95.24161,29.55971],[-95.24223,29.55736],[-95.24197,29.55607],[-95.24277,29.55511],[-95.24433,29.55461],[-95.24537,29.55471],[-95.24737,29.5531],[-95.24792,29.55391],[-95.24753,29.55497],[-95.24816,29.5557],[-95.24987,29.55512],[-95.2508,29.5555],[-95.25136,29.5554],[-95.2525,29.55475],[-95.25349,29.55373],[-95.25386,29.55378],[-95.25411,29.55453],[-95.2548,29.55508],[-95.25517,29.55684],[-95.25504,29.55717],[-95.25443,29.55749],[-95.25281,29.55741],[-95.25237,29.55814],[-95.2523,29.55779],[-95.24072,29.56861],[-95.24201,29.56971],[-95.23911,29.57237],[-95.23759,29.57113],[-95.23286,29.57541],[-95.2309,29.57524]]]}},{"type":"Feature","properties":{"PRECINCT":"harris:545","COUNTY":"Harris"},"geometry":{"type":"Polygon","coordinates":[[[-95.22229,29.58391],[-95.21832,29.58044],[-95.21362,29.58474],[-95.20904,29.58093],[-95.20806,29.5805],[-95.2083,29.58012],[-95.20714,29.5796],[-95.19909,29.57309],[-95.21595,29.55779],[-95.21688,29.55884],[-95.21788,29.55939],[-95.21844,29.55923],[-95.21886,29.55968],[-95.2188,29.55993],[-95.21751,29.56069],[-95.21731,29.56122],[-95.21781,29.56408],[-95.21962,29.56557],[-95.2213,29.56616],[-95.2226,29.56709],[-95.22638,29.57162],[-95.23063,29.57504],[-95.23133,29.5754],[-95.23247,29.57525],[-95.23286,29.57541],[-95.23237,29.57585],[-95.23256,29.57622],[-95.2268,29.58148],[-95.22633,29.58219],[-95.22816,29.58369],[-95.22745,29.58437],[-95.22511,29.58245],[-95.22336,29.58404],[-95.22411,29.58466],[-95.22321,29.58549],[-95.22229,29.58391]]]}},{"type":"Feature","properties":{"PRECINCT":"harris:568","COUNTY":"Harris"},"geometry":{"type":"Polygon","coordinates":[[[-95.1358,29.59523],[-95.13442,29.59508],[-95.13208,29.59417],[-95.13028,29.59421],[-95.12973,29.59394],[-95.12919,29.59245],[-95.12653,29.58997],[-95.12576,29.58818],[-95.12527,29.5878],[-95.12365,29.58739],[-95.12301,29.58671],[-95.12238,29.58539],[-95.12334,29.58591],[-95.12512,29.58573],[-95.12561,29.58548],[-95.12579,29.58456],[-95.12614,29.58405],[-95.12609,29.58291],[-95.12636,29.58229],[-95.12789,29.5812],[-95.13033,29.58381],[-95.14056,29.57652],[-95.14811,29.58455],[-95.14387,29.58916],[-95.13814,29.59212],[-95.13696,29.59322],[-95.1358,29.59523]]]}},{"type":"Feature","properties":{"PRECINCT":"harris:654","COUNTY":"Harris"},"geometry":{"type":"Polygon","coordinates":[[[-95.23542,29.60275],[-95.22787,29.59656],[-95.23735,29.5879],[-95.23605,29.58677],[-95.23514,29.58545],[-95.23379,29.57972],[-95.23299,29.57837],[-95.23162,29.57708],[-95.23256,29.57622],[-95.23237,29.57585],[-95.23286,29.57541],[-95.24234,29.58311],[-95.24248,29.58355],[-95.24153,29.58441],[-95.24385,29.58482],[-95.24586,29.58482],[-95.24822,29.58403],[-95.24944,29.58312],[-95.25101,29.58102],[-95.25649,29.57586],[-95.25749,29.57444],[-95.25868,29.57329],[-95.25967,29.57442],[-95.25973,29.57496],[-95.25962,29.57598],[-95.25877,29.57687],[-95.2588,29.57787],[-95.25988,29.57912],[-95.26043,29.58036],[-95.26119,29.58118],[-95.26054,29.58197],[-95.26015,29.58385],[-95.26106,29.58453],[-95.26116,29.58569],[-95.26216,29.58692],[-95.26152,29.58802],[-95.26127,29.58919],[-95.2605,29.58949],[-95.26029,29.58988],[-95.25469,29.58529],[-95.2468,29.59268],[-95.24491,29.59413],[-95.2503,29.59833],[-95.24627,29.602],[-95.24368,29.6001],[-95.23811,29.60024],[-95.23542,29.60275]]]}},{"type":"Feature","properties":{"PRECINCT":"harris:655","COUNTY":"Harris"},"geometry":{"type":"Polygon","coordinates":[[[-95.17623,29.54154],[-95.17458,29.54068],[-95.17279,29.54231],[-95.17133,29.54108],[-95.16879,29.53819],[-95.16139,29.53235],[-95.16254,29.53033],[-95.16272,29.52868],[-95.16186,29.52235],[-95.16945,29.52153],[-95.1697,29.5231],[-95.17025,29.52431],[-95.17159,29.52573],[-95.17046,29.52669],[-95.17678,29.53193],[-95.17718,29.53156],[-95.1791,29.53319],[-95.17978,29.53259],[-95.18489,29.53701],[-95.1836,29.53807],[-95.1829,29.54066],[-95.18161,29.5418],[-95.18148,29.54357],[-95.17973,29.54439],[-95.17623,29.54154]]]}},{"type":"Feature","properties":{"PRECINCT":"harris:662","COUNTY":"Harris"},"geometry":{"type":"Polygon","coordinates":[[[-95.12659,29.64302],[-95.12544,29.64322],[-95.125,29.64246],[-95.12434,29.64206],[-95.12358,29.64242],[-95.12317,29.64235],[-95.1226,29.64174],[-95.12156,29.64138],[-95.11977,29.63967],[-95.11877,29.63968],[-95.11772,29.63907],[-95.11716,29.6391],[-95.11639,29.63872],[-95.11439,29.64132],[-95.11091,29.6374],[-95.10823,29.63491],[-95.11251,29.63452],[-95.11588,29.63359],[-95.13915,29.6332],[-95.14019,29.63272],[-95.14148,29.63158],[-95.14274,29.63122],[-95.14293,29.64043],[-95.14337,29.64187],[-95.14358,29.65035],[-95.12917,29.65049],[-95.1293,29.64969],[-95.1282,29.64749],[-95.12828,29.64632],[-95.12753,29.64479],[-95.1275,29.64371],[-95.12659,29.64302]]]}},{"type":"Feature","properties":{"PRECINCT":"harris:692","COUNTY":"Harris"},"geometry":{"type":"Polygon","coordinates":[[[-95.02819,29.57596],[-95.02372,29.54891],[-95.02422,29.54895],[-95.02603,29.54843],[-95.02808,29.54745],[-95.02841,29.5475],[-95.02875,29.54792],[-95.02844,29.55075],[-95.02878,29.55226],[-95.02994,29.5525],[-95.03184,29.55219],[-95.03294,29.55223],[-95.03749,29.55347],[-95.03829,29.55399],[-95.04189,29.5546],[-95.04472,29.55572],[-95.04508,29.55561],[-95.04236,29.5629],[-95.04327,29.56387],[-95.0444,29.56433],[-95.03901,29.5723],[-95.0412,29.57221],[-95.04044,29.57337],[-95.03821,29.57351],[-95.03674,29.57571],[-95.03407,29.5757],[-95.03268,29.57734],[-95.02988,29.57614],[-95.02819,29.57596]]]}},{"type":"Feature","properties":{"PRECINCT":"harris:696","COUNTY":"Harris"},"geometry":{"type":"Polygon","coordinates":[[[-95.1446,29.67794],[-95.1376,29.67382],[-95.13694,29.67322],[-95.13267,29.6635],[-95.13549,29.66346],[-95.13678,29.66371],[-95.13978,29.66531],[-95.14219,29.66587],[-95.17223,29.66532],[-95.17244,29.67587],[-95.14542,29.67628],[-95.14526,29.67709],[-95.1446,29.67794]]]}},{"type":"Feature","properties":{"PRECINCT":"harris:699","COUNTY":"Harris"},"geometry":{"type":"Polygon","coordinates":[[[-95.1358,29.59523],[-95.13634,29.59406],[-95.13761,29.59254],[-95.13863,29.59179],[-95.14387,29.58916],[-95.14811,29.58455],[-95.14056,29.57652],[-95.14881,29.57058],[-95.16821,29.5913],[-95.16465,29.59163],[-95.16123,29.59153],[-95.14803,29.59182],[-95.14618,29.59257],[-95.14198,29.59321],[-95.14131,29.59371],[-95.14104,29.5944],[-95.14028,29.5949],[-95.13851,29.59535],[-95.1358,29.59523]]]}},{"type":"Feature","properties":{"PRECINCT":"harris:703","COUNTY":"Harris"},"geometry":{"type":"Polygon","coordinates":[[[-95.04149,29.59132],[-95.04148,29.59079],[-95.04204,29.59028],[-95.04376,29.59096],[-95.04334,29.58756],[-95.04364,29.58675],[-95.04619,29.58591],[-95.04758,29.58586],[-95.04873,29.58463],[-95.04882,29.58331],[-95.0484,29.58332],[-95.04832,29.58256],[-95.049,29.58224],[-95.04925,29.58182],[-95.04792,29.57978],[-95.04829,29.57843],[-95.04898,29.57859],[-95.0483,29.57808],[-95.04826,29.57766],[-95.05031,29.57622],[-95.05018,29.57562],[-95.0504,29.5745],[-95.05094,29.57411],[-95.05142,29.57432],[-95.05118,29.57393],[-95.05239,29.57275],[-95.0526,29.57207],[-95.05407,29.57194],[-95.05557,29.57014],[-95.05544,29.56845],[-95.05428,29.56773],[-95.05389,29.56724],[-95.05354,29.56587],[-95.05396,29.56513],[-95.05453,29.565],[-95.05487,29.56531],[-95.05549,29.56535],[-95.05607,29.5652],[-95.05676,29.5646],[-95.05692,29.56481],[-95.05811,29.56466],[-95.05822,29.56507],[-95.05773,29.56509],[-95.05774,29.56524],[-95.05824,29.56524],[-95.05834,29.56546],[-95.05839,29.56487],[-95.059,29.5648],[-95.05871,29.56662],[-95.05876,29.56933],[-95.05791,29.58456],[-95.05768,29.58612],[-95.05683,29.58798],[-95.05618,29.5889],[-95.05409,29.59087],[-95.05178,29.59009],[-95.04962,29.58989],[-95.0452,29.59104],[-95.04149,29.59132]]]}},{"type":"Feature","properties":{"PRECINCT":"harris:715","COUNTY":"Harris"},"geometry":{"type":"Polygon","coordinates":[[[-95.17386,29.62675],[-95.17898,29.62331],[-95.17111,29.62313],[-95.17091,29.62063],[-95.15437,29.62106],[-95.15422,29.61161],[-95.15317,29.61194],[-95.14474,29.61707],[-95.14221,29.61493],[-95.15401,29.60463],[-95.15417,29.60147],[-95.15401,29.5917],[-95.16465,29.59163],[-95.16821,29.5913],[-95.1578,29.5802],[-95.15924,29.57906],[-95.16214,29.57582],[-95.16498,29.57403],[-95.16902,29.56962],[-95.18094,29.58347],[-95.19179,29.59302],[-95.19782,29.59888],[-95.19372,29.60202],[-95.18528,29.60948],[-95.19251,29.6168],[-95.19634,29.62127],[-95.19964,29.62122],[-95.19974,29.62291],[-95.19773,29.62313],[-95.19318,29.62633],[-95.19194,29.62675],[-95.17386,29.62675]]]}},{"type":"Feature","properties":{"PRECINCT":"harris:716","COUNTY":"Harris"},"geometry":{"type":"Polygon","coordinates":[[[-95.08371,29.6517],[-95.08642,29.65141],[-95.08692,29.66438],[-95.07057,29.66459],[-95.07059,29.66223],[-95.07085,29.66099],[-95.07282,29.65604],[-95.07336,29.65262],[-95.07574,29.65255],[-95.07572,29.65181],[-95.08371,29.6517]]]}},{"type":"Feature","properties":{"PRECINCT":"harris:718","COUNTY":"Harris"},"geometry":{"type":"Polygon","coordinates":[[[-95.11775,29.63356],[-95.11776,29.6152],[-95.12199,29.6152],[-95.1265,29.60807],[-95.12609,29.60701],[-95.12502,29.60622],[-95.12433,29.60536],[-95.11847,29.5938],[-95.11787,29.59141],[-95.11768,29.58898],[-95.11789,29.58658],[-95.11852,29.58422],[-95.11959,29.5844],[-95.12065,29.585],[-95.12209,29.58514],[-95.12365,29.58739],[-95.12547,29.58789],[-95.12599,29.58846],[-95.12653,29.58997],[-95.12899,29.59221],[-95.12949,29.59365],[-95.13028,29.59421],[-95.13208,29.59417],[-95.135,29.59518],[-95.13851,29.59535],[-95.14075,29.59466],[-95.14131,29.59371],[-95.1422,29.59313],[-95.14618,29.59257],[-95.14803,29.59182],[-95.15401,29.5917],[-95.15417,29.60147],[-95.15401,29.60463],[-95.14221,29.61493],[-95.14474,29.61707],[-95.15317,29.61194],[-95.15422,29.61161],[-95.15437,29.62106],[-95.17091,29.62063],[-95.17111,29.62313],[-95.17898,29.62331],[-95.17386,29.62675],[-95.18213,29.62675],[-95.18233,29.63034],[-95.14274,29.63122],[-95.14148,29.63158],[-95.14019,29.63272],[-95.13915,29.6332],[-95.11775,29.63356]]]}},{"type":"Feature","properties":{"PRECINCT":"harris:721","COUNTY":"Harris"},"geometry":{"type":"Polygon","coordinates":[[[-95.11461,29.59447],[-95.11847,29.5938],[-95.12423,29.60512],[-95.12012,29.60674],[-95.11788,29.60723],[-95.10811,29.60778],[-95.10758,29.59963],[-95.10713,29.59717],[-95.11034,29.59638],[-95.11461,29.59447]]]}},{"type":"Feature","properties":{"PRECINCT":"harris:724","COUNTY":"Harris"},"geometry":{"type":"Polygon","coordinates":[[[-95.12106,29.60638],[-95.12423,29.60512],[-95.12502,29.60622],[-95.12609,29.60701],[-95.1265,29.60807],[-95.12199,29.6152],[-95.11776,29.6152],[-95.11775,29.62564],[-95.11545,29.62399],[-95.11421,29.62343],[-95.11415,29.62247],[-95.11378,29.62239],[-95.11345,29.61983],[-95.11326,29.61412],[-95.11293,29.61351],[-95.11335,29.61033],[-95.11313,29.60755],[-95.11788,29.60723],[-95.12106,29.60638]]]}},{"type":"Feature","properties":{"PRECINCT":"harris:728","COUNTY":"Harris"},"geometry":{"type":"Polygon","coordinates":[[[-95.12784,29.56754],[-95.12603,29.56563],[-95.12509,29.56394],[-95.12031,29.5592],[-95.12134,29.55808],[-95.12347,29.56029],[-95.12461,29.55948],[-95.12671,29.56171],[-95.12866,29.56032],[-95.12619,29.55769],[-95.12741,29.55695],[-95.12922,29.55673],[-95.12931,29.55835],[-95.13036,29.5584],[-95.1322,29.56025],[-95.12971,29.56203],[-95.1309,29.56331],[-95.13142,29.56454],[-95.13018,29.56542],[-95.12952,29.56471],[-95.12828,29.5656],[-95.13097,29.56762],[-95.13174,29.56708],[-95.13243,29.56776],[-95.13015,29.56938],[-95.12889,29.56815],[-95.12784,29.56754]]]}},{"type":"Feature","properties":{"PRECINCT":"harris:732","COUNTY":"Harris"},"geometry":{"type":"Polygon","coordinates":[[[-95.13243,29.56776],[-95.13174,29.56708],[-95.13097,29.56762],[-95.12828,29.5656],[-95.12952,29.56471],[-95.13018,29.56542],[-95.13142,29.56454],[-95.1309,29.56331],[-95.12971,29.56203],[-95.1322,29.56025],[-95.13036,29.5584],[-95.12931,29.55835],[-95.12922,29.55673],[-95.12741,29.55695],[-95.12619,29.55769],[-95.12866,29.56032],[-95.12671,29.56171],[-95.12461,29.55948],[-95.1257,29.5587],[-95.1236,29.55645],[-95.12444,29.5558],[-95.12385,29.55516],[-95.12534,29.55421],[-95.12626,29.55387],[-95.12798,29.55365],[-95.12808,29.55444],[-95.12888,29.55435],[-95.13069,29.55323],[-95.12957,29.55197],[-95.12788,29.55293],[-95.12621,29.55082],[-95.12825,29.54922],[-95.14044,29.56205],[-95.13243,29.56776]]]}},{"type":"Feature","properties":{"PRECINCT":"harris:742","COUNTY":"Harris"},"geometry":{"type":"Polygon","coordinates":[[[-95.14503,29.54381],[-95.12683,29.52423],[-95.11714,29.50803],[-95.118,29.50719],[-95.11874,29.50697],[-95.11943,29.50733],[-95.12074,29.50949],[-95.12145,29.51018],[-95.12294,29.51054],[-95.12509,29.51026],[-95.12737,29.50943],[-95.12815,29.5089],[-95.12888,29.50756],[-95.12895,29.50574],[-95.12962,29.5051],[-95.13083,29.50494],[-95.13161,29.50515],[-95.13389,29.50643],[-95.1357,29.50619],[-95.13852,29.50645],[-95.14171,29.50636],[-95.1427,29.50586],[-95.1433,29.50523],[-95.14495,29.50264],[-95.14659,29.50226],[-95.14728,29.50187],[-95.14793,29.49999],[-95.14889,29.4987],[-95.15023,29.49854],[-95.15064,29.49888],[-95.1511,29.50008],[-95.15151,29.50039],[-95.15216,29.50044],[-95.15388,29.49998],[-95.15672,29.49818],[-95.1587,29.49835],[-95.1595,29.49819],[-95.16089,29.49742],[-95.16259,29.49749],[-95.16393,29.49805],[-95.16427,29.49852],[-95.16415,29.49897],[-95.1631,29.50007],[-95.1629,29.50098],[-95.16302,29.50157],[-95.16357,29.50211],[-95.16421,29.50233],[-95.16643,29.50211],[-95.16708,29.5024],[-95.16726,29.50277],[-95.16702,29.50381],[-95.16772,29.5043],[-95.16775,29.50455],[-95.16728,29.50489],[-95.16734,29.50579],[-95.16869,29.50651],[-95.16993,29.50671],[-95.17057,29.50703],[-95.171,29.50772],[-95.17124,29.5097],[-95.17048,29.51042],[-95.16826,29.51083],[-95.16738,29.5119],[-95.16743,29.51235],[-95.16906,29.51337],[-95.16645,29.51582],[-95.16441,29.51822],[-95.16481,29.52202],[-95.14276,29.52434],[-95.14291,29.52454],[-95.13957,29.5249],[-95.13818,29.52478],[-95.13821,29.52493],[-95.13783,29.525],[-95.14238,29.53108],[-95.14369,29.53318],[-95.1439,29.53488],[-95.14368,29.53576],[-95.14311,29.53736],[-95.14226,29.5388],[-95.14305,29.5389],[-95.14361,29.53955],[-95.14395,29.53939],[-95.14413,29.54039],[-95.14373,29.54142],[-95.14377,29.54216],[-95.14515,29.54373],[-95.14503,29.54381]]]}},{"type":"Feature","properties":{"PRECINCT":"harris:744","COUNTY":"Harris"},"geometry":{"type":"Polygon","coordinates":[[[-95.14056,29.57652],[-95.13695,29.57267],[-95.13552,29.57338],[-95.13323,29.57367],[-95.13303,29.5729],[-95.13504,29.57265],[-95.13575,29.57224],[-95.13521,29.57173],[-95.13267,29.57218],[-95.13015,29.56938],[-95.14067,29.56189],[-95.14881,29.57058],[-95.14056,29.57652]]]}},{"type":"Feature","properties":{"PRECINCT":"harris:745","COUNTY":"Harris"},"geometry":{"type":"Polygon","coordinates":[[[-95.10959,29.57238],[-95.1174,29.55789],[-95.11965,29.55881],[-95.12096,29.55965],[-95.12509,29.56394],[-95.12683,29.56664],[-95.12889,29.56815],[-95.13015,29.56938],[-95.12478,29.57339],[-95.12332,29.57517],[-95.12201,29.57749],[-95.10959,29.57238]]]}},{"type":"Feature","properties":{"PRECINCT":"harris:746","COUNTY":"Harris"},"geometry":{"type":"Polygon","coordinates":[[[-95.11254,29.562],[-95.11237,29.55964],[-95.11572,29.56101],[-95.10959,29.57238],[-95.10796,29.5717],[-95.10994,29.56798],[-95.10997,29.56671],[-95.11093,29.56601],[-95.11093,29.56488],[-95.11197,29.56409],[-95.11244,29.56331],[-95.11254,29.562]]]}},{"type":"Feature","properties":{"PRECINCT":"harris:748","COUNTY":"Harris"},"geometry":{"type":"Polygon","coordinates":[[[-95.0951,29.55063],[-95.09653,29.5493],[-95.09768,29.54884],[-95.10641,29.54594],[-95.11054,29.54329],[-95.11302,29.54605],[-95.11325,29.54679],[-95.11309,29.548],[-95.11177,29.55043],[-95.11438,29.55149],[-95.11213,29.5557],[-95.11385,29.55641],[-95.11257,29.55883],[-95.11237,29.55964],[-95.09427,29.5522],[-95.0951,29.55063]]]}},{"type":"Feature","properties":{"PRECINCT":"harris:750","COUNTY":"Harris"},"geometry":{"type":"Polygon","coordinates":[[[-95.12678,29.54647],[-95.12643,29.54657],[-95.12007,29.53973],[-95.12082,29.53919],[-95.11692,29.53501],[-95.11604,29.53564],[-95.11277,29.53199],[-95.119,29.52758],[-95.12423,29.53322],[-95.13079,29.52862],[-95.14182,29.54041],[-95.13679,29.54298],[-95.12859,29.54896],[-95.12675,29.5469],[-95.12678,29.54647]]]}},{"type":"Feature","properties":{"PRECINCT":"harris:752","COUNTY":"Harris"},"geometry":{"type":"Polygon","coordinates":[[[-95.17673,29.64954],[-95.17136,29.64952],[-95.17111,29.64063],[-95.17135,29.64051],[-95.17792,29.64033],[-95.17975,29.64078],[-95.1813,29.64078],[-95.18147,29.64672],[-95.18254,29.64935],[-95.1834,29.6508],[-95.18075,29.65075],[-95.17673,29.64954]]]}},{"type":"Feature","properties":{"PRECINCT":"harris:762","COUNTY":"Harris"},"geometry":{"type":"Polygon","coordinates":[[[-95.23286,29.57541],[-95.23759,29.57113],[-95.23911,29.57237],[-95.24201,29.56971],[-95.24072,29.56861],[-95.2523,29.55779],[-95.25224,29.55812],[-95.25249,29.55798],[-95.25279,29.55855],[-95.25236,29.56056],[-95.25339,29.56171],[-95.2538,29.56268],[-95.255,29.56388],[-95.25573,29.56581],[-95.25545,29.56718],[-95.25601,29.56821],[-95.25665,29.56865],[-95.25692,29.56941],[-95.25851,29.57108],[-95.25825,29.572],[-95.25837,29.57287],[-95.25868,29.57329],[-95.25749,29.57444],[-95.25649,29.57586],[-95.25101,29.58102],[-95.24944,29.58312],[-95.24822,29.58403],[-95.24586,29.58482],[-95.24385,29.58482],[-95.24153,29.58441],[-95.24248,29.58355],[-95.24247,29.58324],[-95.23286,29.57541]]]}},{"type":"Feature","properties":{"PRECINCT":"harris:782","COUNTY":"Harris"},"geometry":{"type":"Polygon","coordinates":[[[-95.17412,29.55225],[-95.166,29.54559],[-95.16219,29.54915],[-95.15456,29.54575],[-95.15444,29.53753],[-95.15622,29.53689],[-95.1573,29.53615],[-95.16139,29.53235],[-95.16879,29.53819],[-95.17133,29.54108],[-95.17279,29.54231],[-95.17458,29.54068],[-95.17681,29.54196],[-95.1813,29.54568],[-95.17412,29.55225]]]}},{"type":"Feature","properties":{"PRECINCT":"harris:845","COUNTY":"Harris"},"geometry":{"type":"Polygon","coordinates":[[[-95.16135,29.56053],[-95.15711,29.5561],[-95.15868,29.55809],[-95.14503,29.54381],[-95.14497,29.54349],[-95.14377,29.54216],[-95.14373,29.54142],[-95.14413,29.54039],[-95.14395,29.53939],[-95.14361,29.53955],[-95.14362,29.53934],[-95.14446,29.53889],[-95.14497,29.5388],[-95.14505,29.53906],[-95.15444,29.53753],[-95.15456,29.54575],[-95.16219,29.54915],[-95.166,29.54559],[-95.17368,29.55187],[-95.16305,29.56169],[-95.16135,29.56053]]]}},{"type":"Feature","properties":{"PRECINCT":"harris:88","COUNTY":"Harris"},"geometry":{"type":"Polygon","coordinates":[[[-95.01467,29.65798],[-95.01403,29.65695],[-95.01308,29.65741],[-95.01213,29.65596],[-95.01164,29.65564],[-95.01241,29.6543],[-95.01204,29.65373],[-95.01246,29.65284],[-95.01134,29.65171],[-95.01113,29.6509],[-95.01073,29.65054],[-95.01134,29.64982],[-95.01305,29.64652],[-95.01421,29.64239],[-95.01611,29.6383],[-95.01594,29.63697],[-95.01563,29.63678],[-95.01568,29.63582],[-95.01536,29.63447],[-95.01611,29.63448],[-95.01587,29.63386],[-95.01732,29.63384],[-95.01734,29.63447],[-95.01862,29.63443],[-95.01852,29.63055],[-95.02706,29.63045],[-95.0271,29.63141],[-95.02834,29.63287],[-95.03039,29.63347],[-95.02958,29.63652],[-95.02952,29.63819],[-95.02988,29.65233],[-95.01525,29.65251],[-95.01551,29.65366],[-95.01626,29.65366],[-95.01675,29.65409],[-95.0167,29.6554],[-95.01749,29.65668],[-95.01467,29.65798]]]}},{"type":"Feature","properties":{"PRECINCT":"harris:90","COUNTY":"Harris"},"geometry":{"type":"Polygon","coordinates":[[[-95.04102,29.5913],[-95.03027,29.58867],[-95.02819,29.57596],[-95.02988,29.57614],[-95.03268,29.57734],[-95.03407,29.5757],[-95.03674,29.57571],[-95.03821,29.57351],[-95.04044,29.57337],[-95.0412,29.57221],[-95.03901,29.5723],[-95.0444,29.56433],[-95.04327,29.56387],[-95.04236,29.5629],[-95.04508,29.55561],[-95.04518,29.55594],[-95.04677,29.55737],[-95.04817,29.55797],[-95.05013,29.55855],[-95.05379,29.55898],[-95.05624,29.55909],[-95.05734,29.55873],[-95.05875,29.55898],[-95.06314,29.55889],[-95.06507,29.55848],[-95.0692,29.5568],[-95.07156,29.56305],[-95.07108,29.56248],[-95.0702,29.56316],[-95.06941,29.56319],[-95.06985,29.56287],[-95.06599,29.56443],[-95.06517,29.56433],[-95.06443,29.56459],[-95.06107,29.56492],[-95.06008,29.56486],[-95.06006,29.56471],[-95.05884,29.56478],[-95.05839,29.56487],[-95.05834,29.56546],[-95.05824,29.56524],[-95.05774,29.56524],[-95.05773,29.56509],[-95.05822,29.56507],[-95.05811,29.56466],[-95.05692,29.56481],[-95.05676,29.5646],[-95.05607,29.5652],[-95.05549,29.56535],[-95.05487,29.56531],[-95.05453,29.565],[-95.05396,29.56513],[-95.05354,29.56587],[-95.05389,29.56724],[-95.05428,29.56773],[-95.05544,29.56845],[-95.05557,29.57014],[-95.05407,29.57194],[-95.0526,29.57207],[-95.05239,29.57275],[-95.05118,29.57393],[-95.05142,29.57432],[-95.05094,29.57411],[-95.0504,29.5745],[-95.05018,29.57562],[-95.05031,29.57622],[-95.04826,29.57766],[-95.0483,29.57808],[-95.04898,29.57859],[-95.04829,29.57843],[-95.04792,29.57978],[-95.04925,29.58182],[-95.049,29.58224],[-95.04832,29.58256],[-95.0484,29.58332],[-95.04882,29.58331],[-95.04873,29.58463],[-95.04758,29.58586],[-95.04619,29.58591],[-95.04364,29.58675],[-95.04334,29.58756],[-95.04376,29.59096],[-95.04204,29.59028],[-95.04148,29.59079],[-95.04149,29.59132],[-95.04102,29.5913]]]}},{"type":"Feature","properties":{"PRECINCT":"harris:907","COUNTY":"Harris"},"geometry":{"type":"Polygon","coordinates":[[[-95.12423,29.53322],[-95.119,29.52758],[-95.11277,29.53199],[-95.10266,29.5213],[-95.1034,29.52054],[-95.10301,29.5188],[-95.10323,29.5182],[-95.10563,29.51723],[-95.10618,29.51659],[-95.10602,29.51578],[-95.10482,29.51419],[-95.10404,29.51256],[-95.10387,29.51129],[-95.10433,29.51073],[-95.1081,29.50965],[-95.10947,29.50986],[-95.11156,29.51086],[-95.11319,29.51083],[-95.11432,29.5102],[-95.1155,29.50882],[-95.11714,29.50803],[-95.12594,29.5229],[-95.12761,29.52523],[-95.13079,29.52862],[-95.12423,29.53322]]]}},{"type":"Feature","properties":{"PRECINCT":"harris:91","COUNTY":"Harris"},"geometry":{"type":"Polygon","coordinates":[[[-95.09479,29.52259],[-95.09705,29.52052],[-95.09761,29.51861],[-95.0985,29.51817],[-95.09923,29.51841],[-95.10055,29.52079],[-95.1012,29.52134],[-95.10189,29.52156],[-95.10266,29.5213],[-95.11804,29.53778],[-95.10967,29.54391],[-95.10641,29.54594],[-95.1049,29.54644],[-95.10389,29.54497],[-95.10147,29.54377],[-95.10024,29.54208],[-95.09789,29.54115],[-95.09645,29.5397],[-95.09589,29.53944],[-95.09502,29.53777],[-95.09476,29.53564],[-95.09645,29.53495],[-95.09698,29.53374],[-95.09543,29.53074],[-95.09507,29.52816],[-95.09387,29.52653],[-95.09369,29.52534],[-95.09479,29.52259]]]}},{"type":"Feature","properties":{"PRECINCT":"harris:92","COUNTY":"Harris"},"geometry":{"type":"Polygon","coordinates":[[[-95.10283,29.58585],[-95.10306,29.5846],[-95.10364,29.58343],[-95.1059,29.58503],[-95.10852,29.58535],[-95.10992,29.58494],[-95.11327,29.58536],[-95.11603,29.58414],[-95.11852,29.58422],[-95.11789,29.58658],[-95.11768,29.58898],[-95.11787,29.59141],[-95.11847,29.5938],[-95.11461,29.59447],[-95.11034,29.59638],[-95.10713,29.59717],[-95.10652,29.5954],[-95.10525,29.59295],[-95.1029,29.59012],[-95.10283,29.58585]]]}},{"type":"Feature","properties":{"PRECINCT":"harris:920","COUNTY":"Harris"},"geometry":{"type":"Polygon","coordinates":[[[-95.12788,29.55293],[-95.12957,29.55197],[-95.13069,29.55323],[-95.12928,29.55422],[-95.12808,29.55444],[-95.12788,29.55293]]]}},{"type":"Feature","properties":{"PRECINCT":"harris:941","COUNTY":"Harris"},"geometry":{"type":"Polygon","coordinates":[[[-95.11257,29.55883],[-95.11385,29.55641],[-95.11213,29.5557],[-95.11438,29.55149],[-95.11177,29.55043],[-95.11309,29.548],[-95.11325,29.54679],[-95.11302,29.54605],[-95.11054,29.54329],[-95.11804,29.53778],[-95.11604,29.53564],[-95.11692,29.53501],[-95.12082,29.53919],[-95.12007,29.53973],[-95.12643,29.54657],[-95.12688,29.5465],[-95.12675,29.5469],[-95.12859,29.54896],[-95.12621,29.55082],[-95.12769,29.55248],[-95.12798,29.55365],[-95.12626,29.55387],[-95.12385,29.55516],[-95.12444,29.5558],[-95.1236,29.55645],[-95.1257,29.5587],[-95.12347,29.56029],[-95.12134,29.55808],[-95.12031,29.5592],[-95.1174,29.55789],[-95.11572,29.56101],[-95.11237,29.55964],[-95.11257,29.55883]]]}},{"type":"Feature","properties":{"PRECINCT":"harris:996","COUNTY":"Harris"},"geometry":{"type":"Polygon","coordinates":[[[-95.21909,29.58915],[-95.21362,29.58474],[-95.21832,29.58044],[-95.22176,29.5833],[-95.22321,29.58549],[-95.22077,29.58771],[-95.218,29.58543],[-95.21741,29.58596],[-95.22014,29.58821],[-95.21909,29.58915]]]}}]}