{"type":"FeatureCollection","features":[{"type":"Feature","properties":{"PRECINCT":"9","VTD":"0009"},"geometry":{"type":"Polygon","coordinates":[[[-97.201466,29.69721],[-97.136228,29.647499],[-97.133444,29.645806],[-97.130517,29.643296],[-97.143262,29.628089],[-97.142643,29.628101],[-97.148402,29.624138],[-97.197872,29.585472],[-97.216573,29.5854],[-97.217516,29.585789],[-97.218013,29.586357],[-97.218028,29.590623],[-97.218206,29.590928],[-97.22814,29.590612],[-97.228158,29.594072],[-97.228447,29.595191],[-97.22902,29.596067],[-97.241939,29.595981],[-97.242344,29.600302],[-97.25377,29.600324],[-97.253945,29.600527],[-97.254034,29.603294],[-97.255173,29.603387],[-97.255331,29.602734],[-97.255935,29.601921],[-97.257956,29.600915],[-97.257983,29.600614],[-97.25704,29.59973],[-97.257147,29.598896],[-97.258223,29.598035],[-97.258774,29.597939],[-97.259562,29.597402],[-97.259876,29.597399],[-97.260007,29.597649],[-97.261163,29.597732],[-97.261688,29.59654],[-97.264625,29.595282],[-97.264888,29.594824],[-97.267458,29.592785],[-97.267642,29.591754],[-97.266568,29.591433],[-97.265991,29.590424],[-97.266805,29.58905],[-97.266963,29.588087],[-97.267461,29.587514],[-97.267697,29.586758],[-97.266465,29.586276],[-97.266177,29.585474],[-97.266886,29.584489],[-97.266939,29.583664],[-97.266676,29.583458],[-97.267359,29.582381],[-97.266231,29.582083],[-97.266022,29.581762],[-97.266389,29.581349],[-97.266442,29.580868],[-97.26694,29.58041],[-97.267046,29.579425],[-97.267465,29.579035],[-97.268225,29.579242],[-97.268776,29.578463],[-97.268855,29.578073],[-97.268436,29.577981],[-97.268331,29.577637],[-97.270114,29.576126],[-97.271059,29.574338],[-97.271243,29.572666],[-97.271636,29.572414],[-97.271532,29.571795],[-97.27224,29.571543],[-97.272371,29.570764],[-97.273079,29.570764],[-97.273184,29.570283],[-97.274573,29.569917],[-97.274967,29.569],[-97.275203,29.568931],[-97.275517,29.569229],[-97.276173,29.569],[-97.276016,29.56829],[-97.276199,29.568084],[-97.277432,29.567878],[-97.278192,29.56813],[-97.279031,29.567489],[-97.28,29.56797],[-97.280655,29.568635],[-97.283749,29.567902],[-97.284011,29.568407],[-97.284483,29.56843],[-97.285374,29.567949],[-97.285479,29.567628],[-97.285007,29.56733],[-97.285034,29.566963],[-97.285348,29.566872],[-97.285977,29.567376],[-97.286659,29.567445],[-97.286816,29.56717],[-97.286344,29.566597],[-97.286659,29.566253],[-97.288127,29.567078],[-97.288913,29.567216],[-97.288913,29.567812],[-97.288074,29.568774],[-97.28844,29.570035],[-97.290747,29.572167],[-97.291769,29.572304],[-97.293525,29.572053],[-97.295989,29.574138],[-97.296225,29.574849],[-97.297116,29.576064],[-97.296985,29.577187],[-97.296303,29.577989],[-97.296434,29.579111],[-97.297301,29.579845],[-97.29818,29.58184],[-97.298445,29.582115],[-97.300818,29.581749],[-97.302722,29.58356],[-97.303645,29.584087],[-97.303915,29.585233],[-97.305637,29.587388],[-97.305541,29.588602],[-97.306915,29.589795],[-97.307427,29.589899],[-97.30717,29.575097],[-97.319958,29.575014],[-97.319914,29.567312],[-97.324289,29.567203],[-97.32455,29.567028],[-97.324935,29.557737],[-97.32613,29.55837],[-97.32693,29.559219],[-97.32729,29.560847],[-97.327971,29.562291],[-97.336102,29.575656],[-97.336215,29.576882],[-97.336586,29.577599],[-97.337167,29.578411],[-97.339067,29.579736],[-97.339622,29.5805],[-97.346438,29.580417],[-97.346529,29.579568],[-97.347077,29.578986],[-97.347186,29.575507],[-97.348001,29.575244],[-97.35135,29.575266],[-97.351704,29.577121],[-97.352355,29.577281],[-97.352352,29.577578],[-97.352062,29.577761],[-97.3521,29.579775],[-97.351572,29.580049],[-97.351465,29.580346],[-97.351984,29.580734],[-97.351636,29.581673],[-97.352205,29.582565],[-97.352177,29.582908],[-97.351621,29.583206],[-97.351672,29.58364],[-97.352294,29.584556],[-97.352313,29.585425],[-97.352963,29.586065],[-97.352933,29.58666],[-97.353348,29.587048],[-97.353282,29.589039],[-97.353697,29.589451],[-97.353973,29.591938],[-97.35806,29.587861],[-97.366022,29.583751],[-97.371712,29.57636],[-97.372334,29.576859],[-97.371684,29.578031],[-97.371738,29.578583],[-97.372211,29.578745],[-97.372502,29.579273],[-97.373133,29.578885],[-97.373396,29.579023],[-97.373347,29.580011],[-97.3739,29.580585],[-97.373094,29.582264],[-97.373464,29.582953],[-97.373764,29.585986],[-97.374748,29.586906],[-97.375857,29.586928],[-97.377119,29.587574],[-97.377197,29.587781],[-97.376832,29.588149],[-97.377016,29.588425],[-97.377911,29.588862],[-97.378804,29.588796],[-97.379093,29.588981],[-97.37912,29.589371],[-97.380146,29.589352],[-97.380042,29.589811],[-97.380831,29.59002],[-97.380412,29.590456],[-97.380545,29.591077],[-97.381281,29.591446],[-97.381152,29.592387],[-97.381732,29.5931],[-97.381733,29.593307],[-97.381235,29.593469],[-97.381366,29.595073],[-97.380998,29.595989],[-97.381286,29.597319],[-97.380603,29.598029],[-97.379658,29.600228],[-97.378084,29.601258],[-97.378267,29.602015],[-97.377585,29.602977],[-97.378266,29.604352],[-97.377819,29.605108],[-97.377085,29.605589],[-97.377609,29.606094],[-97.377766,29.606896],[-97.378631,29.607034],[-97.379417,29.607676],[-97.379496,29.608363],[-97.379154,29.608753],[-97.3796,29.609441],[-97.37939,29.609784],[-97.379809,29.610609],[-97.380569,29.610885],[-97.3807,29.611275],[-97.382039,29.612214],[-97.382303,29.61281],[-97.382908,29.612969],[-97.383067,29.613588],[-97.38483,29.614435],[-97.385699,29.615603],[-97.386488,29.616221],[-97.386646,29.618254],[-97.405169,29.617956],[-97.398353,29.632694],[-97.397602,29.635167],[-97.394954,29.641134],[-97.392053,29.641122],[-97.391959,29.641273],[-97.394882,29.641315],[-97.392884,29.647056],[-97.392747,29.650506],[-97.390081,29.656246],[-97.389387,29.659275],[-97.389822,29.659473],[-97.389856,29.660474],[-97.39021,29.660862],[-97.390709,29.660991],[-97.393105,29.660526],[-97.400214,29.652482],[-97.409968,29.652407],[-97.409333,29.652681],[-97.409165,29.653876],[-97.408196,29.65496],[-97.407251,29.655302],[-97.407181,29.655531],[-97.407537,29.655734],[-97.406894,29.656312],[-97.40724,29.656428],[-97.40647,29.657164],[-97.405743,29.657181],[-97.405735,29.657917],[-97.405322,29.658649],[-97.403548,29.660458],[-97.403254,29.661328],[-97.40258,29.662209],[-97.403011,29.662443],[-97.402906,29.662822],[-97.401103,29.663257],[-97.400872,29.664227],[-97.400508,29.664644],[-97.399855,29.663882],[-97.399409,29.663699],[-97.398281,29.663721],[-97.395445,29.667571],[-97.394919,29.669358],[-97.394342,29.670091],[-97.393371,29.670458],[-97.393003,29.670274],[-97.392609,29.671053],[-97.392741,29.671466],[-97.393554,29.672222],[-97.392792,29.674193],[-97.392765,29.675064],[-97.392056,29.67598],[-97.39237,29.677058],[-97.392921,29.677722],[-97.393157,29.679006],[-97.392396,29.679556],[-97.391975,29.680335],[-97.391844,29.681296],[-97.392106,29.682075],[-97.39179,29.684],[-97.390582,29.685604],[-97.389295,29.686498],[-97.388717,29.687735],[-97.388743,29.68856],[-97.389504,29.689202],[-97.39016,29.689179],[-97.390895,29.688767],[-97.391577,29.689019],[-97.392048,29.690072],[-97.3914,29.69107],[-97.391975,29.692126],[-97.416723,29.685253],[-97.417417,29.684803],[-97.417629,29.685817],[-97.416971,29.690257],[-97.410043,29.717153],[-97.409777,29.734258],[-97.317893,29.784658],[-97.272686,29.750229],[-97.270441,29.748965],[-97.245793,29.730282],[-97.201466,29.69721]]]}},{"type":"Feature","properties":{"PRECINCT":"8","VTD":"0008"},"geometry":{"type":"Polygon","coordinates":[[[-97.415172,29.652395],[-97.461013,29.652161],[-97.467744,29.647174],[-97.470618,29.650482],[-97.471634,29.650263],[-97.473772,29.650719],[-97.479407,29.646671],[-97.479406,29.644104],[-97.479563,29.642591],[-97.479904,29.641742],[-97.474093,29.634957],[-97.472221,29.630492],[-97.469266,29.626638],[-97.467343,29.621167],[-97.464201,29.617814],[-97.463408,29.616277],[-97.46342,29.614275],[-97.464331,29.607977],[-97.46425,29.606625],[-97.463406,29.604151],[-97.457754,29.592537],[-97.457452,29.591592],[-97.456499,29.582579],[-97.4549,29.578544],[-97.461897,29.576211],[-97.463358,29.575347],[-97.463773,29.576114],[-97.464489,29.576651],[-97.469272,29.578724],[-97.46881,29.577929],[-97.468898,29.577753],[-97.469477,29.577775],[-97.469037,29.576681],[-97.469206,29.575724],[-97.469923,29.575091],[-97.472,29.574953],[-97.471458,29.574128],[-97.471156,29.572467],[-97.473257,29.570992],[-97.473225,29.569799],[-97.473684,29.568666],[-97.474936,29.568874],[-97.476006,29.568604],[-97.475917,29.567994],[-97.476326,29.567136],[-97.477766,29.566431],[-97.477753,29.564347],[-97.477058,29.563422],[-97.478034,29.563058],[-97.47977,29.562703],[-97.48067,29.564448],[-97.480979,29.564632],[-97.488881,29.562263],[-97.490344,29.565517],[-97.490399,29.566619],[-97.490718,29.567457],[-97.504995,29.599332],[-97.516903,29.586837],[-97.517404,29.586513],[-97.517985,29.586461],[-97.522042,29.589376],[-97.523128,29.588093],[-97.557704,29.614725],[-97.555052,29.619074],[-97.553666,29.61924],[-97.551891,29.619867],[-97.550512,29.619971],[-97.549599,29.619729],[-97.547855,29.619999],[-97.547276,29.619894],[-97.544544,29.621302],[-97.543744,29.62233],[-97.543209,29.622319],[-97.543228,29.622616],[-97.542573,29.622583],[-97.541547,29.622946],[-97.54115,29.624436],[-97.541311,29.62504],[-97.541071,29.625172],[-97.541291,29.625463],[-97.541033,29.625595],[-97.540869,29.626756],[-97.541467,29.627939],[-97.542021,29.628522],[-97.542361,29.628538],[-97.542663,29.62911],[-97.542487,29.63032],[-97.542197,29.630535],[-97.542266,29.631299],[-97.541127,29.631431],[-97.540585,29.631624],[-97.540409,29.631992],[-97.539596,29.632113],[-97.539174,29.633439],[-97.538721,29.633571],[-97.538532,29.634049],[-97.538135,29.634247],[-97.538419,29.634748],[-97.538399,29.636084],[-97.537505,29.637079],[-97.537603,29.637748],[-97.533317,29.641114],[-97.552304,29.650312],[-97.554067,29.652513],[-97.557718,29.652933],[-97.409777,29.734258],[-97.410043,29.717153],[-97.416971,29.690257],[-97.417629,29.685817],[-97.416415,29.682118],[-97.416286,29.680866],[-97.415323,29.666768],[-97.415172,29.652395]]]}},{"type":"Feature","properties":{"PRECINCT":"5","VTD":"0005"},"geometry":{"type":"Polygon","coordinates":[[[-97.624351,29.552348],[-97.616911,29.55789],[-97.600764,29.541742],[-97.600736,29.541475],[-97.601995,29.540052],[-97.602518,29.538649],[-97.58681,29.537752],[-97.585821,29.537945],[-97.584918,29.540126],[-97.581976,29.539305],[-97.580848,29.540037],[-97.580567,29.540007],[-97.579052,29.538411],[-97.579048,29.533045],[-97.579389,29.531005],[-97.580096,29.530248],[-97.580122,29.528208],[-97.579912,29.527337],[-97.578733,29.525412],[-97.578812,29.524436],[-97.578056,29.52301],[-97.577955,29.520652],[-97.576938,29.517747],[-97.577431,29.513344],[-97.577402,29.512191],[-97.576826,29.511061],[-97.577008,29.5106],[-97.576745,29.50993],[-97.577294,29.509053],[-97.57745,29.507417],[-97.577055,29.506148],[-97.576083,29.504557],[-97.573751,29.502884],[-97.572232,29.500652],[-97.571551,29.500572],[-97.569821,29.500867],[-97.568354,29.500595],[-97.567565,29.499867],[-97.565464,29.499316],[-97.564207,29.498077],[-97.563265,29.497531],[-97.561982,29.496964],[-97.559548,29.496445],[-97.5574,29.494798],[-97.555252,29.493629],[-97.554073,29.492529],[-97.551506,29.491611],[-97.550798,29.491634],[-97.549017,29.489892],[-97.548205,29.489525],[-97.547158,29.489571],[-97.546686,29.489136],[-97.546005,29.48909],[-97.545088,29.48831],[-97.544094,29.486133],[-97.544382,29.485376],[-97.545246,29.485056],[-97.544749,29.484185],[-97.545378,29.483314],[-97.544068,29.482718],[-97.543728,29.481778],[-97.544304,29.481595],[-97.54509,29.481984],[-97.545169,29.481663],[-97.544488,29.480953],[-97.543073,29.480655],[-97.542838,29.480402],[-97.54289,29.479784],[-97.543205,29.479371],[-97.542943,29.478913],[-97.543048,29.478592],[-97.544357,29.477377],[-97.546139,29.476507],[-97.548287,29.474834],[-97.549125,29.473184],[-97.549833,29.470389],[-97.550173,29.470114],[-97.550697,29.47016],[-97.552033,29.470961],[-97.553002,29.471122],[-97.558842,29.470801],[-97.560047,29.471374],[-97.560754,29.472085],[-97.561199,29.473162],[-97.560833,29.473827],[-97.557952,29.474652],[-97.556904,29.475477],[-97.555987,29.475775],[-97.555542,29.476279],[-97.555673,29.47692],[-97.557166,29.476829],[-97.558842,29.47754],[-97.559392,29.478846],[-97.559182,29.479946],[-97.559575,29.481848],[-97.559261,29.482674],[-97.559627,29.482903],[-97.560282,29.48288],[-97.561068,29.482742],[-97.56243,29.481436],[-97.562587,29.479717],[-97.56353,29.478915],[-97.564211,29.478571],[-97.565809,29.479396],[-97.566542,29.479213],[-97.567774,29.478365],[-97.567721,29.477517],[-97.567276,29.477173],[-97.566071,29.476806],[-97.565495,29.47621],[-97.565023,29.475248],[-97.565076,29.474789],[-97.566726,29.472933],[-97.567485,29.471695],[-97.569294,29.470229],[-97.569766,29.469039],[-97.570919,29.468809],[-97.571706,29.469292],[-97.572964,29.471401],[-97.574671,29.47617],[-97.575826,29.477271],[-97.57711,29.477754],[-97.577189,29.47796],[-97.577136,29.479037],[-97.576587,29.479657],[-97.574545,29.479108],[-97.573576,29.479429],[-97.572138,29.481378],[-97.572138,29.482044],[-97.572373,29.482342],[-97.580108,29.486127],[-97.582074,29.486357],[-97.587347,29.487582],[-97.587621,29.487009],[-97.587334,29.485959],[-97.588831,29.482421],[-97.58994,29.481404],[-97.592077,29.480543],[-97.592648,29.479813],[-97.597809,29.466597],[-97.586543,29.4633],[-97.587828,29.435613],[-97.588278,29.434426],[-97.586427,29.429529],[-97.586938,29.428917],[-97.591661,29.426855],[-97.591698,29.426156],[-97.590746,29.421877],[-97.608522,29.419947],[-97.618921,29.416923],[-97.634375,29.416439],[-97.635777,29.416013],[-97.63706,29.416341],[-97.651492,29.416926],[-97.656354,29.417574],[-97.665339,29.419492],[-97.669923,29.419765],[-97.671858,29.419485],[-97.675858,29.417998],[-97.682428,29.417249],[-97.694363,29.416693],[-97.723109,29.416228],[-97.723176,29.423506],[-97.743234,29.42344],[-97.745805,29.424319],[-97.747446,29.423403],[-97.74926,29.423353],[-97.804618,29.423041],[-97.753859,29.488582],[-97.746585,29.500335],[-97.735812,29.514412],[-97.732856,29.518722],[-97.73033,29.521532],[-97.726773,29.526162],[-97.664987,29.60772],[-97.654869,29.586528],[-97.653552,29.585964],[-97.650905,29.583117],[-97.649219,29.578942],[-97.647653,29.576921],[-97.646875,29.571743],[-97.646177,29.570597],[-97.645716,29.568948],[-97.648164,29.567376],[-97.624351,29.552348]]]}},{"type":"Feature","properties":{"PRECINCT":"7","VTD":"0007"},"geometry":{"type":"Polygon","coordinates":[[[-97.538224,29.634104],[-97.538532,29.634049],[-97.538721,29.633571],[-97.539174,29.633439],[-97.539666,29.632047],[-97.540409,29.631992],[-97.540585,29.631624],[-97.542084,29.631437],[-97.542291,29.631239],[-97.542197,29.630535],[-97.542487,29.63032],[-97.542663,29.62911],[-97.542361,29.628538],[-97.542021,29.628522],[-97.541467,29.627939],[-97.540869,29.626756],[-97.541033,29.625595],[-97.541291,29.625463],[-97.541071,29.625172],[-97.541311,29.62504],[-97.54115,29.624436],[-97.541547,29.622946],[-97.542573,29.622583],[-97.543228,29.622616],[-97.543209,29.622319],[-97.543744,29.62233],[-97.544544,29.621302],[-97.547276,29.619894],[-97.547855,29.619999],[-97.549599,29.619729],[-97.550512,29.619971],[-97.551891,29.619867],[-97.553666,29.61924],[-97.555052,29.619074],[-97.557704,29.614725],[-97.523128,29.588093],[-97.522042,29.589376],[-97.517985,29.586461],[-97.517404,29.586513],[-97.516903,29.586837],[-97.504995,29.599332],[-97.492983,29.57248],[-97.493832,29.571426],[-97.495946,29.571018],[-97.496914,29.569868],[-97.498103,29.570021],[-97.49855,29.570329],[-97.498758,29.569988],[-97.499267,29.570164],[-97.499443,29.569751],[-97.499922,29.569872],[-97.500549,29.569479],[-97.501304,29.569628],[-97.501966,29.568237],[-97.50245,29.56833],[-97.50352,29.567891],[-97.503545,29.567412],[-97.503879,29.567038],[-97.505534,29.567149],[-97.504609,29.566186],[-97.505743,29.564696],[-97.505712,29.563618],[-97.506027,29.563547],[-97.506158,29.564086],[-97.506737,29.563729],[-97.506706,29.562975],[-97.50692,29.562739],[-97.507915,29.562519],[-97.507657,29.561589],[-97.509004,29.560248],[-97.509665,29.55994],[-97.510558,29.559957],[-97.512151,29.557928],[-97.512737,29.556801],[-97.512731,29.5558],[-97.512077,29.554826],[-97.512348,29.554292],[-97.512179,29.553363],[-97.511575,29.55295],[-97.509631,29.552465],[-97.508477,29.551504],[-97.509041,29.550468],[-97.510829,29.548951],[-97.511119,29.548198],[-97.510983,29.547706],[-97.51179,29.546865],[-97.51179,29.546198],[-97.509971,29.544332],[-97.507573,29.54401],[-97.506769,29.543468],[-97.506835,29.543119],[-97.508739,29.541059],[-97.5122,29.539427],[-97.513065,29.538715],[-97.513558,29.538056],[-97.513552,29.537286],[-97.512728,29.536614],[-97.510301,29.536195],[-97.507849,29.533846],[-97.505328,29.532321],[-97.504239,29.531005],[-97.512508,29.526735],[-97.513474,29.526501],[-97.514352,29.525856],[-97.516018,29.5252],[-97.520193,29.522937],[-97.522979,29.520862],[-97.523966,29.518739],[-97.526157,29.517311],[-97.528257,29.519234],[-97.530569,29.522041],[-97.534706,29.524735],[-97.539129,29.531029],[-97.540954,29.53324],[-97.542698,29.53491],[-97.543673,29.535544],[-97.547731,29.537178],[-97.550115,29.538929],[-97.55318,29.54182],[-97.569957,29.529897],[-97.570168,29.529437],[-97.56994,29.528476],[-97.570724,29.526224],[-97.575425,29.527339],[-97.5757,29.526627],[-97.576579,29.526598],[-97.577136,29.518179],[-97.577955,29.520652],[-97.578056,29.52301],[-97.578812,29.524436],[-97.578733,29.525412],[-97.579912,29.527337],[-97.580122,29.528208],[-97.580096,29.530248],[-97.579389,29.531005],[-97.579048,29.533045],[-97.579052,29.538411],[-97.580567,29.540007],[-97.580848,29.540037],[-97.581976,29.539305],[-97.584918,29.540126],[-97.585821,29.537945],[-97.58681,29.537752],[-97.602518,29.538649],[-97.601995,29.540052],[-97.600736,29.541475],[-97.600764,29.541742],[-97.616911,29.55789],[-97.62407,29.55241],[-97.624421,29.552369],[-97.648164,29.567376],[-97.645716,29.568948],[-97.646177,29.570597],[-97.646875,29.571743],[-97.647653,29.576921],[-97.649219,29.578942],[-97.650905,29.583117],[-97.653552,29.585964],[-97.654869,29.586528],[-97.664987,29.60772],[-97.633176,29.649863],[-97.632965,29.648884],[-97.634094,29.648082],[-97.634094,29.647716],[-97.631943,29.646614],[-97.631025,29.647279],[-97.630684,29.647279],[-97.630369,29.64682],[-97.630474,29.646178],[-97.631111,29.646086],[-97.631235,29.645766],[-97.629977,29.644872],[-97.630188,29.643199],[-97.629429,29.639783],[-97.628563,29.639829],[-97.627408,29.640451],[-97.627434,29.640791],[-97.628195,29.641548],[-97.628168,29.642304],[-97.627748,29.642693],[-97.626672,29.642647],[-97.625275,29.642992],[-97.623747,29.642627],[-97.622435,29.642742],[-97.62199,29.642948],[-97.620862,29.644232],[-97.618921,29.644921],[-97.617477,29.645105],[-97.61701,29.644903],[-97.616847,29.644188],[-97.617161,29.64318],[-97.616344,29.641808],[-97.616242,29.641117],[-97.61674,29.639421],[-97.618077,29.637931],[-97.617894,29.63688],[-97.618836,29.635547],[-97.618456,29.633809],[-97.618092,29.633455],[-97.617497,29.633553],[-97.615969,29.634898],[-97.611885,29.636879],[-97.610967,29.637131],[-97.609104,29.636994],[-97.607594,29.635438],[-97.60585,29.635093],[-97.604854,29.635827],[-97.604644,29.63648],[-97.605248,29.637523],[-97.605432,29.638531],[-97.60643,29.640273],[-97.605276,29.641396],[-97.60393,29.641828],[-97.603072,29.64103],[-97.601784,29.638931],[-97.60003,29.637613],[-97.599765,29.637181],[-97.59987,29.636447],[-97.600656,29.635943],[-97.598629,29.635155],[-97.598583,29.633651],[-97.599947,29.632367],[-97.59992,29.63168],[-97.599632,29.631176],[-97.599107,29.630924],[-97.597743,29.630718],[-97.557718,29.652933],[-97.554067,29.652513],[-97.552304,29.650312],[-97.533317,29.641114],[-97.537603,29.637748],[-97.537505,29.637079],[-97.538399,29.636084],[-97.538224,29.634104]]]}},{"type":"Feature","properties":{"PRECINCT":"4/6","VTD":"04/6"},"geometry":{"type":"Polygon","coordinates":[[[-97.743234,29.42344],[-97.741532,29.423432],[-97.745066,29.406927],[-97.753132,29.406143],[-97.753433,29.40638],[-97.753453,29.407364],[-97.753795,29.40753],[-97.768167,29.407212],[-97.768498,29.406895],[-97.768331,29.402909],[-97.768559,29.402496],[-97.780006,29.402362],[-97.780562,29.402076],[-97.780942,29.401311],[-97.78084,29.400622],[-97.780108,29.399466],[-97.780419,29.399131],[-97.780144,29.398204],[-97.780872,29.396969],[-97.780897,29.396541],[-97.780318,29.395981],[-97.77869,29.395732],[-97.777426,29.394342],[-97.776401,29.393584],[-97.775351,29.393508],[-97.774749,29.393691],[-97.774199,29.394264],[-97.77344,29.394516],[-97.770848,29.394767],[-97.76988,29.394033],[-97.769933,29.393437],[-97.769671,29.392979],[-97.768546,29.39268],[-97.765196,29.392977],[-97.764725,29.39284],[-97.764463,29.392587],[-97.764177,29.389928],[-97.762659,29.388827],[-97.762267,29.388873],[-97.761167,29.389698],[-97.760591,29.389789],[-97.759231,29.388276],[-97.758472,29.388276],[-97.757582,29.389261],[-97.757319,29.390453],[-97.75632,29.391182],[-97.756074,29.391046],[-97.754712,29.391556],[-97.75333,29.391476],[-97.751568,29.392136],[-97.75129,29.391729],[-97.751087,29.389843],[-97.749894,29.389168],[-97.748803,29.387853],[-97.749579,29.384684],[-97.752683,29.363909],[-97.745389,29.364132],[-97.742066,29.36317],[-97.740984,29.36217],[-97.73993,29.362546],[-97.739544,29.362334],[-97.738259,29.363025],[-97.736756,29.362865],[-97.736027,29.363024],[-97.735932,29.36367],[-97.735392,29.363718],[-97.735626,29.363358],[-97.735544,29.362879],[-97.733872,29.360717],[-97.733332,29.358848],[-97.73167,29.358102],[-97.730405,29.357856],[-97.729402,29.35839],[-97.728923,29.359312],[-97.727391,29.360192],[-97.726736,29.361779],[-97.72694,29.362626],[-97.727529,29.380052],[-97.722558,29.38431],[-97.722149,29.38519],[-97.721393,29.385542],[-97.714319,29.385639],[-97.712726,29.385289],[-97.703961,29.385347],[-97.703683,29.385197],[-97.703672,29.384491],[-97.703455,29.384313],[-97.699133,29.384386],[-97.699768,29.376859],[-97.68926,29.373952],[-97.688376,29.372235],[-97.688286,29.371343],[-97.686433,29.369446],[-97.686392,29.368552],[-97.685122,29.368458],[-97.682339,29.366876],[-97.672012,29.358488],[-97.653193,29.339211],[-97.653949,29.339398],[-97.65459,29.339254],[-97.677142,29.322138],[-97.678994,29.321378],[-97.689207,29.318836],[-97.690653,29.318181],[-97.691701,29.317183],[-97.697508,29.308126],[-97.69894,29.306971],[-97.702783,29.304716],[-97.704337,29.302911],[-97.719295,29.279282],[-97.720271,29.278119],[-97.720581,29.27701],[-97.719371,29.276885],[-97.719323,29.276465],[-97.718886,29.276177],[-97.701959,29.268007],[-97.707666,29.259123],[-97.707935,29.259031],[-97.708737,29.259515],[-97.709012,29.259387],[-97.710504,29.256037],[-97.710024,29.255369],[-97.723735,29.233982],[-97.723743,29.233415],[-97.724564,29.232187],[-97.725643,29.229791],[-97.73048,29.223728],[-97.757701,29.250234],[-97.768831,29.261872],[-97.771082,29.26384],[-97.771334,29.264411],[-97.793337,29.287301],[-97.858782,29.35289],[-97.804618,29.423041],[-97.74926,29.423353],[-97.747446,29.423403],[-97.745805,29.424319],[-97.743234,29.42344]]]}},{"type":"Feature","properties":{"PRECINCT":"10","VTD":"0010"},"geometry":{"type":"Polygon","coordinates":[[[-97.592416,29.393545],[-97.591112,29.393473],[-97.590827,29.392805],[-97.591985,29.391608],[-97.591676,29.389884],[-97.591943,29.388504],[-97.5915,29.388089],[-97.590222,29.388224],[-97.589623,29.387671],[-97.589623,29.387465],[-97.590957,29.386548],[-97.590748,29.385379],[-97.59046,29.385104],[-97.589596,29.385586],[-97.588942,29.385654],[-97.588209,29.385563],[-97.587869,29.385288],[-97.587947,29.383569],[-97.589229,29.381735],[-97.589595,29.380612],[-97.589124,29.380245],[-97.588077,29.38036],[-97.587711,29.379993],[-97.587789,29.379145],[-97.588757,29.377976],[-97.590772,29.377197],[-97.592394,29.375775],[-97.593545,29.375688],[-97.594064,29.373995],[-97.593881,29.373239],[-97.593384,29.372689],[-97.593357,29.372185],[-97.593698,29.372001],[-97.59443,29.372368],[-97.595084,29.372322],[-97.595189,29.371795],[-97.594796,29.371038],[-97.595293,29.370259],[-97.594901,29.36948],[-97.593592,29.368197],[-97.593566,29.36783],[-97.594089,29.36744],[-97.594089,29.367096],[-97.593775,29.36689],[-97.592964,29.36689],[-97.591996,29.367532],[-97.590609,29.367143],[-97.588019,29.367006],[-97.587809,29.365264],[-97.588411,29.364874],[-97.587992,29.363866],[-97.588149,29.363132],[-97.588855,29.362788],[-97.589745,29.362926],[-97.589954,29.362742],[-97.589195,29.36139],[-97.589221,29.360909],[-97.589953,29.359785],[-97.589901,29.358914],[-97.590842,29.35841],[-97.590947,29.358043],[-97.590424,29.357631],[-97.590659,29.354789],[-97.590344,29.35362],[-97.590647,29.352891],[-97.591264,29.352277],[-97.592296,29.351893],[-97.593299,29.351122],[-97.59326,29.350279],[-97.593841,29.348913],[-97.59438,29.348367],[-97.594473,29.34757],[-97.593755,29.347071],[-97.592695,29.346825],[-97.593211,29.344526],[-97.59174,29.344128],[-97.590435,29.343106],[-97.589682,29.341694],[-97.589859,29.34063],[-97.590425,29.33989],[-97.592957,29.33886],[-97.592983,29.338309],[-97.592433,29.338012],[-97.592747,29.33753],[-97.592668,29.335651],[-97.592956,29.335124],[-97.592877,29.334734],[-97.591438,29.333794],[-97.589842,29.332305],[-97.588639,29.332168],[-97.587409,29.331388],[-97.587042,29.32944],[-97.586414,29.328936],[-97.586493,29.327148],[-97.585969,29.326942],[-97.584845,29.327034],[-97.584949,29.326484],[-97.584426,29.325407],[-97.58406,29.325132],[-97.582464,29.325132],[-97.580836,29.327019],[-97.580424,29.327097],[-97.579883,29.326792],[-97.577912,29.327114],[-97.57725,29.324878],[-97.576671,29.32437],[-97.574914,29.324569],[-97.573392,29.324286],[-97.572474,29.324374],[-97.572133,29.324555],[-97.572131,29.325033],[-97.572495,29.325763],[-97.572389,29.325968],[-97.571916,29.326034],[-97.570946,29.325685],[-97.570158,29.325061],[-97.568344,29.322938],[-97.567478,29.322659],[-97.566851,29.323163],[-97.563739,29.32275],[-97.561594,29.323231],[-97.560966,29.323048],[-97.560365,29.322292],[-97.5589,29.321444],[-97.558037,29.320664],[-97.555945,29.320664],[-97.554558,29.321627],[-97.554035,29.322681],[-97.554375,29.323552],[-97.554113,29.324308],[-97.551942,29.325729],[-97.551576,29.328388],[-97.549719,29.329671],[-97.548411,29.329648],[-97.547051,29.328204],[-97.546528,29.328318],[-97.545874,29.328823],[-97.545403,29.329877],[-97.545429,29.330221],[-97.546161,29.33061],[-97.545978,29.331046],[-97.545063,29.331229],[-97.542264,29.331137],[-97.539727,29.329784],[-97.539728,29.32944],[-97.540852,29.328913],[-97.540957,29.328615],[-97.540722,29.328294],[-97.538813,29.328065],[-97.537583,29.328798],[-97.536302,29.328385],[-97.535465,29.328408],[-97.534994,29.328637],[-97.534994,29.328981],[-97.535517,29.329669],[-97.535516,29.330196],[-97.535124,29.330814],[-97.533528,29.33141],[-97.532979,29.331387],[-97.532535,29.330539],[-97.530573,29.329713],[-97.529763,29.327902],[-97.529267,29.327306],[-97.529058,29.326412],[-97.529346,29.325175],[-97.528719,29.324097],[-97.528719,29.323318],[-97.529504,29.321416],[-97.530629,29.319926],[-97.530629,29.319583],[-97.529688,29.318711],[-97.528381,29.318436],[-97.527962,29.318138],[-97.527728,29.316304],[-97.526682,29.315891],[-97.526421,29.314745],[-97.525794,29.313508],[-97.524957,29.313325],[-97.5248,29.313508],[-97.525008,29.315776],[-97.524459,29.316005],[-97.523936,29.315776],[-97.523152,29.31486],[-97.522132,29.314149],[-97.522132,29.313668],[-97.523048,29.312132],[-97.522996,29.311009],[-97.522683,29.31078],[-97.521479,29.311146],[-97.520903,29.311948],[-97.519831,29.312544],[-97.51787,29.311558],[-97.516248,29.312497],[-97.514391,29.313023],[-97.514129,29.313665],[-97.515018,29.314124],[-97.515018,29.314422],[-97.514469,29.315109],[-97.51337,29.315567],[-97.512324,29.315681],[-97.512115,29.315498],[-97.512038,29.313458],[-97.511698,29.313137],[-97.511175,29.313137],[-97.510704,29.313549],[-97.509945,29.315268],[-97.50921,29.315562],[-97.507694,29.314897],[-97.506834,29.313089],[-97.505788,29.313249],[-97.505422,29.312997],[-97.506286,29.311003],[-97.503881,29.309512],[-97.503855,29.309145],[-97.504431,29.30816],[-97.504432,29.307106],[-97.502759,29.306028],[-97.502001,29.304927],[-97.501165,29.304743],[-97.500745,29.305087],[-97.500588,29.305843],[-97.498929,29.306236],[-97.498066,29.30603],[-97.497229,29.304885],[-97.495529,29.304839],[-97.494667,29.306673],[-97.494354,29.306765],[-97.492863,29.306193],[-97.492549,29.305437],[-97.492575,29.305001],[-97.493254,29.304863],[-97.493777,29.304038],[-97.49362,29.303465],[-97.493123,29.303053],[-97.492181,29.302801],[-97.491606,29.30303],[-97.491031,29.303558],[-97.490692,29.304566],[-97.49009,29.304498],[-97.489698,29.304154],[-97.489593,29.30326],[-97.489776,29.302894],[-97.491265,29.301518],[-97.491055,29.298836],[-97.49061,29.298127],[-97.489773,29.297944],[-97.489433,29.297577],[-97.487603,29.297509],[-97.486792,29.296363],[-97.487236,29.295286],[-97.48721,29.294736],[-97.486451,29.294392],[-97.485666,29.293338],[-97.485431,29.292582],[-97.485587,29.290749],[-97.486893,29.289121],[-97.486866,29.287539],[-97.486447,29.286898],[-97.486446,29.286027],[-97.486106,29.285523],[-97.486315,29.283506],[-97.485112,29.282727],[-97.484092,29.282727],[-97.483595,29.282292],[-97.483308,29.282246],[-97.48255,29.282659],[-97.482446,29.284378],[-97.483257,29.285799],[-97.483231,29.286578],[-97.482447,29.286899],[-97.481244,29.286762],[-97.481166,29.285891],[-97.479387,29.285089],[-97.47842,29.283989],[-97.476406,29.28289],[-97.474837,29.281148],[-97.474287,29.278238],[-97.473189,29.276382],[-97.473215,29.275672],[-97.474181,29.27393],[-97.473528,29.27322],[-97.47209,29.272349],[-97.470416,29.271616],[-97.469057,29.271295],[-97.467985,29.270631],[-97.466757,29.270379],[-97.465215,29.27054],[-97.464064,29.270173],[-97.461842,29.268753],[-97.45962,29.267699],[-97.458287,29.266484],[-97.456327,29.266003],[-97.455908,29.26566],[-97.455987,29.264812],[-97.45698,29.264078],[-97.457215,29.263505],[-97.456953,29.262703],[-97.455673,29.262015],[-97.455097,29.261442],[-97.455411,29.259219],[-97.454417,29.258921],[-97.453085,29.259449],[-97.452588,29.259449],[-97.450889,29.257707],[-97.450601,29.256951],[-97.450941,29.256424],[-97.450915,29.256011],[-97.450261,29.255049],[-97.449347,29.254614],[-97.448589,29.253491],[-97.447804,29.250732],[-97.447202,29.250246],[-97.445658,29.249798],[-97.444821,29.248865],[-97.44456,29.245175],[-97.44328,29.244395],[-97.443306,29.243708],[-97.444351,29.243158],[-97.444534,29.242791],[-97.444429,29.240682],[-97.444769,29.240201],[-97.445213,29.240155],[-97.446259,29.240614],[-97.447069,29.240476],[-97.447382,29.239903],[-97.449917,29.238665],[-97.450805,29.237703],[-97.451589,29.23635],[-97.451563,29.235846],[-97.450648,29.235273],[-97.451014,29.233898],[-97.451014,29.232064],[-97.450564,29.230813],[-97.494313,29.199101],[-97.592516,29.125248],[-97.603331,29.11738],[-97.613132,29.109765],[-97.625298,29.121338],[-97.62912,29.125268],[-97.73048,29.223728],[-97.725643,29.229791],[-97.724564,29.232187],[-97.723743,29.233415],[-97.723735,29.233982],[-97.710024,29.255369],[-97.710504,29.256037],[-97.709012,29.259387],[-97.708737,29.259515],[-97.707935,29.259031],[-97.707666,29.259123],[-97.701959,29.268007],[-97.718886,29.276177],[-97.719323,29.276465],[-97.719371,29.276885],[-97.720581,29.27701],[-97.720271,29.278119],[-97.719295,29.279282],[-97.703555,29.304004],[-97.702783,29.304716],[-97.69894,29.306971],[-97.697508,29.308126],[-97.691701,29.317183],[-97.690653,29.318181],[-97.689207,29.318836],[-97.678994,29.321378],[-97.676817,29.322321],[-97.655334,29.33872],[-97.654261,29.33936],[-97.653193,29.339211],[-97.644261,29.345983],[-97.644141,29.346221],[-97.644769,29.348612],[-97.645293,29.349364],[-97.645086,29.350797],[-97.643991,29.350913],[-97.643068,29.351602],[-97.642584,29.352554],[-97.642853,29.353609],[-97.643444,29.354184],[-97.642485,29.355345],[-97.641849,29.355547],[-97.6418,29.355957],[-97.641318,29.355962],[-97.641226,29.356225],[-97.640169,29.35675],[-97.640249,29.357504],[-97.640012,29.357675],[-97.639649,29.357408],[-97.638345,29.357671],[-97.637883,29.357378],[-97.637031,29.357694],[-97.634138,29.357209],[-97.633484,29.357324],[-97.633092,29.356796],[-97.633694,29.356476],[-97.633695,29.355742],[-97.632727,29.355352],[-97.632099,29.355375],[-97.631419,29.354572],[-97.630713,29.354136],[-97.630059,29.35432],[-97.629353,29.353746],[-97.629876,29.353448],[-97.629955,29.353059],[-97.629406,29.352761],[-97.627653,29.352622],[-97.626109,29.352919],[-97.625654,29.353355],[-97.62493,29.353334],[-97.624799,29.353036],[-97.624067,29.352785],[-97.62349,29.351341],[-97.623307,29.351249],[-97.622732,29.351593],[-97.62268,29.352143],[-97.622052,29.352442],[-97.62124,29.35141],[-97.620089,29.350655],[-97.619853,29.34999],[-97.61925,29.349646],[-97.61721,29.349945],[-97.615986,29.350348],[-97.616581,29.351278],[-97.616259,29.351285],[-97.616476,29.352068],[-97.616854,29.3519],[-97.617265,29.352312],[-97.616823,29.352497],[-97.616684,29.352803],[-97.617298,29.353256],[-97.617704,29.35283],[-97.61866,29.352832],[-97.619098,29.353463],[-97.618822,29.353551],[-97.61883,29.353922],[-97.619416,29.354286],[-97.619002,29.354374],[-97.61954,29.355432],[-97.619692,29.35636],[-97.61936,29.356755],[-97.61978,29.35724],[-97.619577,29.357384],[-97.619629,29.35832],[-97.619225,29.358174],[-97.619306,29.358529],[-97.619866,29.358595],[-97.620039,29.358991],[-97.619779,29.359587],[-97.620446,29.360428],[-97.620488,29.361347],[-97.620854,29.36176],[-97.620752,29.362082],[-97.620283,29.362186],[-97.620482,29.362848],[-97.620242,29.36317],[-97.621102,29.364084],[-97.621457,29.364827],[-97.621003,29.365624],[-97.621524,29.366366],[-97.621463,29.367608],[-97.621073,29.368632],[-97.620594,29.36909],[-97.620517,29.369889],[-97.621167,29.370374],[-97.621395,29.370859],[-97.622506,29.371463],[-97.621225,29.371878],[-97.620545,29.372657],[-97.619656,29.373139],[-97.61908,29.373918],[-97.618769,29.375239],[-97.618064,29.37573],[-97.614453,29.376227],[-97.608645,29.380836],[-97.606291,29.382235],[-97.60438,29.384002],[-97.603988,29.384622],[-97.602967,29.384831],[-97.602339,29.385198],[-97.599591,29.387312],[-97.599642,29.39087],[-97.593562,29.395668],[-97.593189,29.39563],[-97.592553,29.395048],[-97.593171,29.394581],[-97.592416,29.393545]]]}},{"type":"Feature","properties":{"PRECINCT":"1","VTD":"0001"},"geometry":{"type":"Polygon","coordinates":[[[-97.339446,29.535912],[-97.338502,29.535408],[-97.337323,29.535546],[-97.336118,29.535203],[-97.335437,29.536119],[-97.335096,29.536165],[-97.334283,29.53479],[-97.33292,29.534103],[-97.331479,29.532086],[-97.331138,29.531949],[-97.330771,29.532018],[-97.330483,29.532476],[-97.330588,29.533072],[-97.330116,29.533301],[-97.330116,29.533622],[-97.330667,29.534035],[-97.330667,29.534424],[-97.330274,29.534883],[-97.329645,29.534791],[-97.328702,29.534997],[-97.32747,29.534539],[-97.327365,29.534906],[-97.326972,29.535112],[-97.325347,29.535181],[-97.323669,29.534356],[-97.322333,29.533371],[-97.318926,29.532615],[-97.315388,29.531217],[-97.314183,29.529956],[-97.314209,29.529452],[-97.314969,29.528994],[-97.315048,29.528398],[-97.314157,29.527918],[-97.313371,29.526588],[-97.313397,29.525259],[-97.312401,29.524136],[-97.311458,29.522578],[-97.310698,29.519026],[-97.310253,29.519048],[-97.309598,29.518155],[-97.308576,29.518086],[-97.308288,29.518177],[-97.308209,29.518544],[-97.309519,29.5193],[-97.30931,29.519713],[-97.308393,29.519713],[-97.307973,29.518911],[-97.307345,29.518682],[-97.305746,29.519392],[-97.305642,29.518957],[-97.306008,29.518384],[-97.305301,29.517215],[-97.305642,29.51655],[-97.305747,29.515359],[-97.306218,29.515175],[-97.306768,29.514465],[-97.307528,29.514396],[-97.307947,29.513456],[-97.309179,29.513342],[-97.309467,29.512907],[-97.310489,29.512288],[-97.310777,29.511623],[-97.311458,29.511234],[-97.31148,29.510758],[-97.312077,29.510466],[-97.313648,29.508092],[-97.311945,29.508452],[-97.304161,29.508799],[-97.290785,29.508807],[-97.290645,29.507825],[-97.290418,29.507638],[-97.286909,29.507617],[-97.285327,29.507983],[-97.283722,29.503669],[-97.287251,29.499895],[-97.287446,29.499379],[-97.282914,29.487494],[-97.285077,29.477695],[-97.279959,29.472576],[-97.281794,29.46442],[-97.267429,29.462541],[-97.258563,29.461783],[-97.255848,29.461334],[-97.219593,29.450936],[-97.229457,29.418147],[-97.230926,29.414326],[-97.235981,29.397969],[-97.238481,29.388934],[-97.240108,29.384488],[-97.335207,29.315049],[-97.335987,29.315802],[-97.33698,29.316208],[-97.336954,29.316757],[-97.336457,29.317243],[-97.336639,29.317937],[-97.336116,29.318164],[-97.336012,29.318738],[-97.336875,29.319682],[-97.337137,29.320924],[-97.336693,29.321328],[-97.336589,29.322412],[-97.337112,29.322221],[-97.337243,29.321825],[-97.337556,29.321753],[-97.337923,29.321999],[-97.337792,29.322518],[-97.337975,29.322901],[-97.337531,29.323351],[-97.337531,29.323712],[-97.337949,29.324117],[-97.337871,29.324659],[-97.339049,29.324826],[-97.339938,29.325431],[-97.339938,29.325905],[-97.3402,29.326129],[-97.341037,29.326416],[-97.343501,29.326438],[-97.344079,29.327057],[-97.345181,29.327217],[-97.348642,29.327194],[-97.350453,29.328638],[-97.352184,29.328981],[-97.355095,29.327995],[-97.356429,29.32671],[-97.356295,29.327349],[-97.355715,29.327953],[-97.355776,29.328247],[-97.365083,29.336294],[-97.367683,29.340186],[-97.366044,29.34308],[-97.367025,29.344303],[-97.3694,29.344946],[-97.370443,29.345451],[-97.370782,29.345933],[-97.372379,29.345612],[-97.372928,29.345247],[-97.373426,29.344468],[-97.374779,29.344262],[-97.375671,29.344581],[-97.377037,29.343987],[-97.378293,29.344516],[-97.381462,29.344772],[-97.382431,29.346126],[-97.383635,29.346861],[-97.384473,29.347803],[-97.385913,29.347988],[-97.387457,29.347669],[-97.387537,29.347187],[-97.388375,29.346937],[-97.389448,29.347098],[-97.390574,29.346619],[-97.390733,29.345955],[-97.391492,29.345497],[-97.395655,29.346236],[-97.396807,29.345779],[-97.397332,29.345161],[-97.399453,29.34427],[-97.39995,29.344385],[-97.400291,29.344798],[-97.401338,29.344661],[-97.402804,29.345076],[-97.403275,29.345443],[-97.404087,29.34549],[-97.40503,29.346042],[-97.405291,29.346373],[-97.400325,29.350926],[-97.404167,29.353454],[-97.401561,29.36033],[-97.401754,29.360935],[-97.4346,29.380299],[-97.435258,29.380722],[-97.435507,29.381208],[-97.446214,29.38462],[-97.446311,29.385],[-97.442808,29.394386],[-97.464348,29.400865],[-97.464383,29.401215],[-97.461105,29.409502],[-97.461188,29.409845],[-97.467664,29.411839],[-97.468664,29.407747],[-97.46974,29.404797],[-97.472445,29.405895],[-97.473933,29.406164],[-97.474151,29.407383],[-97.473576,29.408116],[-97.473759,29.408529],[-97.474544,29.408873],[-97.475094,29.409514],[-97.47478,29.410385],[-97.474912,29.411484],[-97.474519,29.411943],[-97.474572,29.412424],[-97.475855,29.413042],[-97.476091,29.413799],[-97.475987,29.414349],[-97.476956,29.415105],[-97.477144,29.41564],[-97.477609,29.415487],[-97.478091,29.415802],[-97.477865,29.41642],[-97.47801,29.416924],[-97.478828,29.416631],[-97.479582,29.416724],[-97.479917,29.417029],[-97.479992,29.418993],[-97.481837,29.418976],[-97.482617,29.419588],[-97.483214,29.419275],[-97.485603,29.420519],[-97.487076,29.419413],[-97.487622,29.42015],[-97.48804,29.419979],[-97.488397,29.420114],[-97.488665,29.419691],[-97.489071,29.419613],[-97.489444,29.420601],[-97.48934,29.42177],[-97.488347,29.424682],[-97.487771,29.425576],[-97.488523,29.42645],[-97.489547,29.427225],[-97.489947,29.427114],[-97.503288,29.428893],[-97.497658,29.434031],[-97.490222,29.445954],[-97.48112,29.448577],[-97.479031,29.449541],[-97.447695,29.470937],[-97.446287,29.471977],[-97.445636,29.472755],[-97.445127,29.474932],[-97.445908,29.477276],[-97.449313,29.491569],[-97.450635,29.493876],[-97.450046,29.49441],[-97.450032,29.494818],[-97.451004,29.497568],[-97.454052,29.504415],[-97.452896,29.50481],[-97.456944,29.513901],[-97.453546,29.515033],[-97.449488,29.505973],[-97.441357,29.508748],[-97.440114,29.508896],[-97.437397,29.509031],[-97.436479,29.506949],[-97.431018,29.508812],[-97.430288,29.50801],[-97.422554,29.510599],[-97.422213,29.510962],[-97.421897,29.510857],[-97.419967,29.511516],[-97.41829,29.511777],[-97.416734,29.511788],[-97.413856,29.511031],[-97.395357,29.50339],[-97.394257,29.504899],[-97.387835,29.505385],[-97.391167,29.513578],[-97.391407,29.516362],[-97.393855,29.521833],[-97.385175,29.52525],[-97.383293,29.525562],[-97.380335,29.525388],[-97.378728,29.525603],[-97.375828,29.526539],[-97.369977,29.527947],[-97.360212,29.53132],[-97.355631,29.534078],[-97.35154,29.53615],[-97.344025,29.538796],[-97.34031,29.54141],[-97.339133,29.540663],[-97.338897,29.540157],[-97.339106,29.539077],[-97.339918,29.538869],[-97.340652,29.538089],[-97.340652,29.53786],[-97.339499,29.537035],[-97.339446,29.535912]]]}},{"type":"Feature","properties":{"PRECINCT":"14","VTD":"0014"},"geometry":{"type":"Polygon","coordinates":[[[-97.435126,29.380619],[-97.401705,29.360885],[-97.401561,29.36033],[-97.404167,29.353454],[-97.400325,29.350926],[-97.405291,29.346373],[-97.40503,29.346042],[-97.404087,29.34549],[-97.403275,29.345443],[-97.402804,29.345076],[-97.401338,29.344661],[-97.400291,29.344798],[-97.39995,29.344385],[-97.399453,29.34427],[-97.397332,29.345161],[-97.396807,29.345779],[-97.395655,29.346236],[-97.391492,29.345497],[-97.390733,29.345955],[-97.390574,29.346619],[-97.389448,29.347098],[-97.388375,29.346937],[-97.387537,29.347187],[-97.387457,29.347669],[-97.385913,29.347988],[-97.384473,29.347803],[-97.383635,29.346861],[-97.382431,29.346126],[-97.381462,29.344772],[-97.378293,29.344516],[-97.377037,29.343987],[-97.375671,29.344581],[-97.374779,29.344262],[-97.373426,29.344468],[-97.372928,29.345247],[-97.372379,29.345612],[-97.370782,29.345933],[-97.370443,29.345451],[-97.3694,29.344946],[-97.367025,29.344303],[-97.366044,29.34308],[-97.367683,29.340186],[-97.365083,29.336294],[-97.355776,29.328247],[-97.355715,29.327953],[-97.356295,29.327349],[-97.356429,29.32671],[-97.355095,29.327995],[-97.352184,29.328981],[-97.350453,29.328638],[-97.348642,29.327194],[-97.345181,29.327217],[-97.344079,29.327057],[-97.343501,29.326438],[-97.341037,29.326416],[-97.3402,29.326129],[-97.339938,29.325905],[-97.339938,29.325431],[-97.339049,29.324826],[-97.337871,29.324659],[-97.337949,29.324117],[-97.337531,29.323712],[-97.337531,29.323351],[-97.337975,29.322901],[-97.337792,29.322518],[-97.337923,29.321999],[-97.337556,29.321753],[-97.337243,29.321825],[-97.337112,29.322221],[-97.336589,29.322412],[-97.336693,29.321328],[-97.337137,29.320924],[-97.336875,29.319682],[-97.336012,29.318738],[-97.336116,29.318164],[-97.336639,29.317937],[-97.336457,29.317243],[-97.336954,29.316757],[-97.33698,29.316208],[-97.335987,29.315802],[-97.335207,29.315049],[-97.450564,29.230813],[-97.451014,29.232064],[-97.451014,29.233898],[-97.450648,29.235273],[-97.451563,29.235846],[-97.451589,29.23635],[-97.450805,29.237703],[-97.449917,29.238665],[-97.447382,29.239903],[-97.447069,29.240476],[-97.446259,29.240614],[-97.445213,29.240155],[-97.444769,29.240201],[-97.444429,29.240682],[-97.444534,29.242791],[-97.444351,29.243158],[-97.443306,29.243708],[-97.44328,29.244395],[-97.44456,29.245175],[-97.444821,29.248865],[-97.445658,29.249798],[-97.447202,29.250246],[-97.447804,29.250732],[-97.448589,29.253491],[-97.449347,29.254614],[-97.450471,29.255278],[-97.450915,29.256011],[-97.450654,29.25734],[-97.452327,29.25922],[-97.452588,29.259449],[-97.453085,29.259449],[-97.454417,29.258921],[-97.455411,29.259219],[-97.455097,29.261442],[-97.455673,29.262015],[-97.456953,29.262703],[-97.457215,29.263505],[-97.45698,29.264078],[-97.455987,29.264812],[-97.455908,29.26566],[-97.456327,29.266003],[-97.458287,29.266484],[-97.45962,29.267699],[-97.461842,29.268753],[-97.464064,29.270173],[-97.465215,29.27054],[-97.466757,29.270379],[-97.467985,29.270631],[-97.469057,29.271295],[-97.470416,29.271616],[-97.47209,29.272349],[-97.474077,29.273701],[-97.474129,29.27432],[-97.473215,29.275672],[-97.473189,29.276382],[-97.474287,29.278238],[-97.474837,29.281148],[-97.475936,29.282523],[-97.47842,29.283989],[-97.479387,29.285089],[-97.481166,29.285891],[-97.481401,29.286854],[-97.481819,29.286693],[-97.482447,29.286899],[-97.483231,29.286578],[-97.483257,29.285799],[-97.482446,29.284378],[-97.48255,29.282659],[-97.483308,29.282246],[-97.483595,29.282292],[-97.484092,29.282727],[-97.485112,29.282727],[-97.486315,29.283506],[-97.486106,29.285523],[-97.486446,29.286027],[-97.486447,29.286898],[-97.486866,29.287539],[-97.486893,29.289121],[-97.485587,29.290749],[-97.485431,29.292582],[-97.485666,29.293338],[-97.486451,29.294392],[-97.487288,29.294942],[-97.486661,29.296661],[-97.486845,29.298059],[-97.487238,29.298655],[-97.487029,29.298999],[-97.48627,29.299389],[-97.486376,29.30074],[-97.486062,29.301405],[-97.485592,29.301451],[-97.484859,29.300924],[-97.48384,29.301314],[-97.483004,29.303331],[-97.482926,29.304134],[-97.481174,29.304203],[-97.480677,29.303997],[-97.480285,29.304066],[-97.480102,29.304341],[-97.480102,29.305212],[-97.479371,29.30661],[-97.479502,29.307916],[-97.480339,29.308374],[-97.479869,29.309796],[-97.478666,29.310919],[-97.477097,29.311378],[-97.476732,29.312318],[-97.476104,29.312593],[-97.475163,29.313464],[-97.474955,29.315596],[-97.474197,29.316696],[-97.473439,29.318438],[-97.471085,29.319355],[-97.471661,29.320478],[-97.471635,29.320914],[-97.4697,29.322541],[-97.469021,29.323573],[-97.468315,29.325223],[-97.467819,29.328203],[-97.467008,29.329257],[-97.466669,29.331458],[-97.465519,29.333245],[-97.464761,29.336454],[-97.464473,29.336752],[-97.461858,29.337623],[-97.461021,29.338517],[-97.461316,29.340861],[-97.460234,29.34204],[-97.459492,29.343429],[-97.459376,29.345093],[-97.458773,29.345347],[-97.457151,29.345279],[-97.456288,29.345852],[-97.456236,29.348373],[-97.456524,29.349152],[-97.457335,29.350206],[-97.457387,29.350871],[-97.454484,29.353071],[-97.453333,29.353347],[-97.453307,29.354424],[-97.453856,29.355753],[-97.454589,29.356418],[-97.455818,29.356853],[-97.455949,29.357793],[-97.455034,29.359328],[-97.4537,29.362605],[-97.453517,29.364553],[-97.453779,29.36508],[-97.4537,29.366272],[-97.454616,29.367051],[-97.454503,29.36861],[-97.45405,29.370054],[-97.453444,29.370512],[-97.452836,29.371589],[-97.450704,29.372896],[-97.4491,29.372827],[-97.447837,29.3734],[-97.447939,29.37379],[-97.447623,29.374111],[-97.446728,29.374019],[-97.446646,29.375555],[-97.445909,29.375727],[-97.445486,29.376356],[-97.444276,29.377089],[-97.443277,29.377296],[-97.442281,29.377925],[-97.441705,29.378924],[-97.439349,29.379687],[-97.438955,29.381277],[-97.437663,29.382019],[-97.435444,29.381173],[-97.435126,29.380619]]]}},{"type":"Feature","properties":{"PRECINCT":"15","VTD":"0015"},"geometry":{"type":"Polygon","coordinates":[[[-97.490222,29.445954],[-97.497658,29.434031],[-97.503288,29.428893],[-97.489947,29.427114],[-97.489547,29.427225],[-97.488523,29.42645],[-97.487771,29.425576],[-97.488347,29.424682],[-97.48934,29.42177],[-97.489444,29.420601],[-97.489071,29.419613],[-97.488665,29.419691],[-97.488397,29.420114],[-97.48804,29.419979],[-97.487622,29.42015],[-97.487076,29.419413],[-97.485603,29.420519],[-97.483214,29.419275],[-97.482617,29.419588],[-97.481837,29.418976],[-97.479992,29.418993],[-97.479917,29.417029],[-97.479582,29.416724],[-97.478828,29.416631],[-97.47801,29.416924],[-97.477865,29.41642],[-97.478091,29.415802],[-97.477609,29.415487],[-97.477144,29.41564],[-97.476956,29.415105],[-97.475987,29.414349],[-97.476091,29.413799],[-97.475855,29.413042],[-97.474572,29.412424],[-97.474519,29.411943],[-97.474912,29.411484],[-97.47478,29.410385],[-97.475094,29.409514],[-97.474544,29.408873],[-97.473759,29.408529],[-97.473576,29.408116],[-97.474151,29.407383],[-97.473933,29.406164],[-97.472445,29.405895],[-97.46974,29.404797],[-97.468664,29.407747],[-97.467664,29.411839],[-97.461188,29.409845],[-97.461105,29.409502],[-97.464386,29.400904],[-97.442808,29.394386],[-97.446309,29.384729],[-97.446012,29.384473],[-97.437663,29.382019],[-97.438955,29.381277],[-97.439349,29.379687],[-97.441705,29.378924],[-97.442281,29.377925],[-97.443277,29.377296],[-97.444276,29.377089],[-97.445486,29.376356],[-97.445909,29.375727],[-97.446646,29.375555],[-97.446728,29.374019],[-97.447623,29.374111],[-97.447939,29.37379],[-97.447837,29.3734],[-97.4491,29.372827],[-97.450704,29.372896],[-97.451677,29.372437],[-97.452836,29.371589],[-97.453444,29.370512],[-97.45405,29.370054],[-97.454503,29.36861],[-97.454616,29.367051],[-97.4537,29.366272],[-97.453543,29.363567],[-97.4537,29.362605],[-97.455034,29.359328],[-97.455949,29.357793],[-97.455949,29.357059],[-97.454589,29.356418],[-97.453856,29.355753],[-97.453307,29.354424],[-97.453333,29.353347],[-97.454484,29.353071],[-97.457387,29.350871],[-97.457335,29.350206],[-97.456524,29.349152],[-97.456236,29.348373],[-97.456288,29.345852],[-97.457151,29.345279],[-97.458773,29.345347],[-97.459376,29.345093],[-97.459492,29.343429],[-97.460234,29.34204],[-97.461316,29.340861],[-97.461021,29.338517],[-97.461858,29.337623],[-97.464473,29.336752],[-97.464761,29.336454],[-97.465519,29.333245],[-97.466669,29.331458],[-97.467008,29.329257],[-97.467819,29.328203],[-97.468315,29.325223],[-97.469021,29.323573],[-97.4697,29.322541],[-97.471635,29.320914],[-97.471661,29.320478],[-97.471085,29.319355],[-97.473439,29.318438],[-97.474197,29.316696],[-97.474955,29.315596],[-97.475163,29.313464],[-97.476104,29.312593],[-97.476732,29.312318],[-97.477097,29.311378],[-97.478666,29.310919],[-97.479869,29.309796],[-97.480339,29.308374],[-97.479502,29.307916],[-97.479371,29.30661],[-97.480102,29.305212],[-97.480285,29.304066],[-97.482769,29.304248],[-97.48384,29.301314],[-97.484859,29.300924],[-97.485592,29.301451],[-97.486193,29.301267],[-97.486376,29.30074],[-97.48627,29.299389],[-97.487029,29.298999],[-97.487238,29.298655],[-97.486845,29.298059],[-97.486792,29.296363],[-97.487603,29.297509],[-97.489433,29.297577],[-97.489773,29.297944],[-97.49061,29.298127],[-97.491055,29.298836],[-97.491265,29.301518],[-97.489593,29.30326],[-97.489593,29.303925],[-97.49009,29.304498],[-97.490692,29.304566],[-97.491031,29.303558],[-97.491606,29.30303],[-97.492181,29.302801],[-97.493123,29.303053],[-97.49362,29.303465],[-97.493777,29.304038],[-97.493254,29.304863],[-97.492575,29.305001],[-97.492549,29.305437],[-97.492863,29.306193],[-97.494354,29.306765],[-97.494667,29.306673],[-97.495529,29.304839],[-97.497229,29.304885],[-97.498066,29.30603],[-97.498929,29.306236],[-97.500588,29.305843],[-97.500745,29.305087],[-97.501165,29.304743],[-97.502001,29.304927],[-97.502759,29.306028],[-97.504432,29.307106],[-97.504431,29.30816],[-97.503855,29.309145],[-97.503881,29.309512],[-97.506286,29.311003],[-97.505422,29.312997],[-97.505788,29.313249],[-97.506834,29.313089],[-97.507694,29.314897],[-97.50921,29.315562],[-97.509945,29.315268],[-97.510704,29.313549],[-97.511175,29.313137],[-97.511698,29.313137],[-97.512038,29.313458],[-97.512115,29.315498],[-97.512324,29.315681],[-97.51337,29.315567],[-97.514469,29.315109],[-97.515018,29.314422],[-97.515018,29.314124],[-97.514129,29.313665],[-97.514391,29.313023],[-97.516248,29.312497],[-97.51787,29.311558],[-97.519831,29.312544],[-97.520903,29.311948],[-97.521479,29.311146],[-97.522447,29.310734],[-97.522996,29.311009],[-97.523048,29.312132],[-97.522132,29.313668],[-97.522132,29.314149],[-97.523152,29.31486],[-97.523936,29.315776],[-97.524459,29.316005],[-97.525008,29.315776],[-97.5248,29.313508],[-97.524957,29.313325],[-97.525794,29.313508],[-97.526421,29.314745],[-97.526682,29.315891],[-97.527728,29.316304],[-97.527962,29.318138],[-97.528381,29.318436],[-97.529688,29.318711],[-97.530629,29.319583],[-97.530629,29.319926],[-97.529504,29.321416],[-97.528719,29.323318],[-97.528719,29.324097],[-97.529346,29.325175],[-97.529058,29.326412],[-97.529267,29.327306],[-97.529763,29.327902],[-97.530573,29.329713],[-97.532535,29.330539],[-97.532979,29.331387],[-97.533528,29.33141],[-97.535124,29.330814],[-97.535516,29.330196],[-97.535517,29.329669],[-97.534994,29.328981],[-97.534994,29.328637],[-97.535465,29.328408],[-97.536302,29.328385],[-97.537583,29.328798],[-97.538813,29.328065],[-97.540722,29.328294],[-97.540957,29.328615],[-97.540852,29.328913],[-97.539728,29.32944],[-97.539727,29.329784],[-97.542264,29.331137],[-97.545063,29.331229],[-97.545978,29.331046],[-97.546161,29.33061],[-97.545429,29.330221],[-97.545403,29.329877],[-97.545874,29.328823],[-97.546528,29.328318],[-97.547051,29.328204],[-97.548411,29.329648],[-97.549719,29.329671],[-97.551576,29.328388],[-97.551942,29.325729],[-97.554113,29.324308],[-97.554375,29.323552],[-97.554035,29.322681],[-97.554558,29.321627],[-97.555945,29.320664],[-97.558037,29.320664],[-97.5589,29.321444],[-97.560365,29.322292],[-97.560966,29.323048],[-97.561594,29.323231],[-97.563739,29.32275],[-97.566851,29.323163],[-97.567478,29.322659],[-97.568344,29.322938],[-97.570158,29.325061],[-97.570946,29.325685],[-97.571916,29.326034],[-97.572389,29.325968],[-97.572495,29.325763],[-97.572131,29.325033],[-97.572133,29.324555],[-97.572474,29.324374],[-97.573392,29.324286],[-97.574914,29.324569],[-97.576671,29.32437],[-97.57725,29.324878],[-97.577912,29.327114],[-97.579883,29.326792],[-97.580424,29.327097],[-97.580836,29.327019],[-97.582464,29.325132],[-97.58406,29.325132],[-97.584426,29.325407],[-97.584949,29.326484],[-97.584845,29.327034],[-97.585969,29.326942],[-97.586493,29.327148],[-97.586414,29.328936],[-97.587042,29.32944],[-97.587409,29.331388],[-97.588639,29.332168],[-97.589842,29.332305],[-97.591438,29.333794],[-97.592877,29.334734],[-97.592956,29.335124],[-97.592668,29.335651],[-97.592747,29.33753],[-97.592433,29.338012],[-97.592983,29.338309],[-97.592957,29.33886],[-97.590425,29.33989],[-97.589859,29.34063],[-97.589682,29.341694],[-97.590435,29.343106],[-97.59174,29.344128],[-97.593211,29.344526],[-97.592695,29.346825],[-97.593755,29.347071],[-97.594473,29.34757],[-97.59438,29.348367],[-97.593841,29.348913],[-97.59326,29.350279],[-97.593299,29.351122],[-97.592296,29.351893],[-97.591264,29.352277],[-97.590647,29.352891],[-97.590344,29.35362],[-97.590659,29.354789],[-97.590424,29.357631],[-97.590947,29.358043],[-97.590842,29.35841],[-97.589901,29.358914],[-97.589953,29.359785],[-97.589221,29.360909],[-97.589195,29.36139],[-97.589954,29.362742],[-97.589745,29.362926],[-97.588463,29.36288],[-97.587966,29.363476],[-97.588437,29.364622],[-97.588411,29.364874],[-97.587809,29.365264],[-97.587862,29.366776],[-97.58849,29.367097],[-97.590609,29.367143],[-97.591996,29.367532],[-97.592754,29.366959],[-97.593775,29.36689],[-97.594089,29.367096],[-97.594089,29.36744],[-97.593566,29.36783],[-97.593592,29.368197],[-97.594901,29.36948],[-97.595293,29.370259],[-97.594796,29.371038],[-97.595189,29.371795],[-97.595084,29.372322],[-97.59443,29.372368],[-97.593698,29.372001],[-97.593357,29.372185],[-97.593384,29.372689],[-97.593881,29.373239],[-97.594064,29.373995],[-97.593545,29.375688],[-97.592394,29.375775],[-97.590772,29.377197],[-97.588757,29.377976],[-97.587789,29.379145],[-97.587711,29.379993],[-97.588077,29.38036],[-97.589124,29.380245],[-97.589595,29.380612],[-97.589229,29.381735],[-97.587947,29.383569],[-97.587869,29.385288],[-97.588209,29.385563],[-97.588942,29.385654],[-97.589596,29.385586],[-97.59046,29.385104],[-97.590748,29.385379],[-97.590957,29.386548],[-97.589623,29.387465],[-97.589623,29.387671],[-97.590222,29.388224],[-97.5915,29.388089],[-97.591839,29.38832],[-97.5917,29.390505],[-97.592012,29.391355],[-97.591431,29.392299],[-97.590827,29.392805],[-97.590878,29.393197],[-97.591112,29.393473],[-97.592416,29.393545],[-97.593171,29.394581],[-97.593092,29.394787],[-97.592553,29.395048],[-97.59077,29.393574],[-97.589894,29.392175],[-97.585282,29.387752],[-97.583027,29.385244],[-97.573635,29.408462],[-97.573851,29.408769],[-97.578901,29.41026],[-97.57526,29.420619],[-97.573343,29.421722],[-97.573362,29.422839],[-97.572684,29.42314],[-97.572749,29.423868],[-97.55012,29.426441],[-97.547773,29.427444],[-97.527257,29.438296],[-97.52535,29.438584],[-97.517058,29.438524],[-97.515447,29.438709],[-97.490222,29.445954]]]}},{"type":"Feature","properties":{"PRECINCT":"12","VTD":"0012"},"geometry":{"type":"Polygon","coordinates":[[[-97.48112,29.448577],[-97.515447,29.438709],[-97.517058,29.438524],[-97.525849,29.438562],[-97.527593,29.438179],[-97.529869,29.437017],[-97.532279,29.438618],[-97.538361,29.446313],[-97.536833,29.447861],[-97.535255,29.448444],[-97.53457,29.449115],[-97.534316,29.449208],[-97.534151,29.44891],[-97.533339,29.448979],[-97.533287,29.448498],[-97.532789,29.448452],[-97.532187,29.449276],[-97.532186,29.450056],[-97.530982,29.450055],[-97.531035,29.448452],[-97.531794,29.447788],[-97.531899,29.447192],[-97.530669,29.447168],[-97.530066,29.447443],[-97.529228,29.448497],[-97.528888,29.448543],[-97.528338,29.447832],[-97.527998,29.447878],[-97.527814,29.448909],[-97.528285,29.449689],[-97.52962,29.449483],[-97.529856,29.449689],[-97.52962,29.450284],[-97.527944,29.450903],[-97.526294,29.452369],[-97.525665,29.454156],[-97.524539,29.453216],[-97.522418,29.453628],[-97.521999,29.453903],[-97.521789,29.454705],[-97.522364,29.45576],[-97.521341,29.459908],[-97.52134,29.461902],[-97.521628,29.46275],[-97.521549,29.463231],[-97.520894,29.464148],[-97.520109,29.464216],[-97.518747,29.463895],[-97.5177,29.462565],[-97.515736,29.461327],[-97.514088,29.459401],[-97.513748,29.457063],[-97.513094,29.456444],[-97.512308,29.456467],[-97.511758,29.456856],[-97.511129,29.457956],[-97.511312,29.458735],[-97.512621,29.459652],[-97.512385,29.460661],[-97.511206,29.461119],[-97.508771,29.460384],[-97.506885,29.461346],[-97.506518,29.461965],[-97.505706,29.462491],[-97.504789,29.462376],[-97.503794,29.461597],[-97.503375,29.46139],[-97.50306,29.461482],[-97.502902,29.46304],[-97.502325,29.464759],[-97.501407,29.466294],[-97.501538,29.466592],[-97.500696,29.467485],[-97.499215,29.467841],[-97.499232,29.467167],[-97.498999,29.467168],[-97.498999,29.46687],[-97.499868,29.466021],[-97.499732,29.465701],[-97.498187,29.466297],[-97.496641,29.465931],[-97.493421,29.466597],[-97.492111,29.465933],[-97.491247,29.466116],[-97.491221,29.466667],[-97.491981,29.467514],[-97.49219,29.468225],[-97.491771,29.468295],[-97.490384,29.46924],[-97.488553,29.473149],[-97.487218,29.474208],[-97.485358,29.474237],[-97.483368,29.473647],[-97.481011,29.471571],[-97.480146,29.470521],[-97.478418,29.470962],[-97.476794,29.470897],[-97.475956,29.470259],[-97.474909,29.468843],[-97.474123,29.468319],[-97.472918,29.468552],[-97.472525,29.469012],[-97.472787,29.469587],[-97.473888,29.470186],[-97.473678,29.470898],[-97.472788,29.471888],[-97.472265,29.472096],[-97.470772,29.471985],[-97.468965,29.471052],[-97.468205,29.470002],[-97.468257,29.469019],[-97.470352,29.468039],[-97.470563,29.467125],[-97.470274,29.466143],[-97.469515,29.465368],[-97.4692,29.464157],[-97.46865,29.463747],[-97.467262,29.46414],[-97.464828,29.466051],[-97.464881,29.468602],[-97.464514,29.469016],[-97.463964,29.469156],[-97.462393,29.468976],[-97.461974,29.468383],[-97.461974,29.466213],[-97.461555,29.465962],[-97.460534,29.466011],[-97.459932,29.46654],[-97.459591,29.467506],[-97.458125,29.468886],[-97.458492,29.469416],[-97.460772,29.470475],[-97.460798,29.47082],[-97.459855,29.472292],[-97.459698,29.473442],[-97.460196,29.474178],[-97.461139,29.47473],[-97.461584,29.475398],[-97.461427,29.475903],[-97.461139,29.476065],[-97.459045,29.475338],[-97.458495,29.475523],[-97.458836,29.477569],[-97.459281,29.478328],[-97.459281,29.479684],[-97.459831,29.480029],[-97.462347,29.479486],[-97.462687,29.479211],[-97.463054,29.478252],[-97.463027,29.477224],[-97.463603,29.476562],[-97.463996,29.476425],[-97.466144,29.476889],[-97.466144,29.47728],[-97.465098,29.478292],[-97.465098,29.479258],[-97.465307,29.479488],[-97.466853,29.479102],[-97.467533,29.478257],[-97.468136,29.478511],[-97.469184,29.48019],[-97.468871,29.482305],[-97.469291,29.485201],[-97.469003,29.486374],[-97.468139,29.486881],[-97.46539,29.486774],[-97.465023,29.486936],[-97.465049,29.487372],[-97.467119,29.490017],[-97.468665,29.48993],[-97.469818,29.488422],[-97.470813,29.488631],[-97.471128,29.489412],[-97.470919,29.490953],[-97.46953,29.491333],[-97.467486,29.49276],[-97.465888,29.494735],[-97.464997,29.494775],[-97.464604,29.494589],[-97.463791,29.493664],[-97.462848,29.493955],[-97.462743,29.494637],[-97.463293,29.495705],[-97.463188,29.497821],[-97.463921,29.498638],[-97.464393,29.49884],[-97.465624,29.498556],[-97.467037,29.49765],[-97.467613,29.496934],[-97.468686,29.494184],[-97.469498,29.493558],[-97.470284,29.493369],[-97.471173,29.493387],[-97.472274,29.493768],[-97.472614,29.494382],[-97.472562,29.496656],[-97.471016,29.497674],[-97.468501,29.498414],[-97.467793,29.498844],[-97.465097,29.501522],[-97.464338,29.501655],[-97.462975,29.501187],[-97.460272,29.499423],[-97.457296,29.498268],[-97.457774,29.502167],[-97.457435,29.502332],[-97.457579,29.502581],[-97.458092,29.502493],[-97.458363,29.502967],[-97.457613,29.503207],[-97.456714,29.50117],[-97.453172,29.502402],[-97.450742,29.496939],[-97.450032,29.494818],[-97.450046,29.49441],[-97.450635,29.493876],[-97.449313,29.491569],[-97.445908,29.477276],[-97.445127,29.474932],[-97.445636,29.472755],[-97.446287,29.471977],[-97.447695,29.470937],[-97.479031,29.449541],[-97.48112,29.448577]]]}},{"type":"Feature","properties":{"PRECINCT":"3","VTD":"0003"},"geometry":{"type":"Polygon","coordinates":[[[-97.498999,29.46687],[-97.499215,29.467841],[-97.50027,29.467659],[-97.501538,29.466592],[-97.501407,29.466294],[-97.502325,29.464759],[-97.502902,29.46304],[-97.50306,29.461482],[-97.503375,29.46139],[-97.503794,29.461597],[-97.504789,29.462376],[-97.505706,29.462491],[-97.506518,29.461965],[-97.506885,29.461346],[-97.508771,29.460384],[-97.511206,29.461119],[-97.512385,29.460661],[-97.512621,29.459652],[-97.511312,29.458735],[-97.511129,29.457956],[-97.511758,29.456856],[-97.512308,29.456467],[-97.513094,29.456444],[-97.513748,29.457063],[-97.514088,29.459401],[-97.514846,29.460456],[-97.515736,29.461327],[-97.5177,29.462565],[-97.518747,29.463895],[-97.520109,29.464216],[-97.520894,29.464148],[-97.521549,29.463231],[-97.521341,29.459908],[-97.522364,29.45576],[-97.521789,29.454705],[-97.521815,29.454132],[-97.522418,29.453628],[-97.524539,29.453216],[-97.525665,29.454156],[-97.525978,29.455371],[-97.52514,29.456219],[-97.525087,29.456884],[-97.525401,29.458511],[-97.526553,29.459084],[-97.528203,29.458924],[-97.52891,29.458558],[-97.530796,29.456977],[-97.531215,29.45606],[-97.531818,29.455442],[-97.532656,29.455304],[-97.533677,29.455625],[-97.534017,29.456107],[-97.533677,29.457413],[-97.533702,29.458559],[-97.534069,29.459682],[-97.53433,29.45998],[-97.534749,29.459889],[-97.535116,29.459499],[-97.536085,29.459362],[-97.538206,29.460165],[-97.539411,29.461196],[-97.540588,29.463122],[-97.542763,29.465827],[-97.543103,29.466698],[-97.543338,29.468187],[-97.541426,29.468233],[-97.540824,29.468554],[-97.540274,29.469287],[-97.540273,29.46986],[-97.540928,29.47096],[-97.543389,29.472955],[-97.542027,29.474489],[-97.541765,29.4752],[-97.541895,29.478385],[-97.542262,29.478981],[-97.543205,29.479073],[-97.542838,29.480402],[-97.543073,29.480655],[-97.544488,29.480953],[-97.545169,29.481663],[-97.54509,29.481984],[-97.544304,29.481595],[-97.543728,29.481778],[-97.544068,29.482718],[-97.545378,29.483314],[-97.544749,29.484185],[-97.545246,29.485056],[-97.544382,29.485376],[-97.544094,29.486133],[-97.545088,29.48831],[-97.546005,29.48909],[-97.546686,29.489136],[-97.547158,29.489571],[-97.548205,29.489525],[-97.549017,29.489892],[-97.550798,29.491634],[-97.551506,29.491611],[-97.554073,29.492529],[-97.555252,29.493629],[-97.5574,29.494798],[-97.558945,29.496103],[-97.563265,29.497531],[-97.564207,29.498077],[-97.565464,29.499316],[-97.567565,29.499867],[-97.568354,29.500595],[-97.569821,29.500867],[-97.571551,29.500572],[-97.572232,29.500652],[-97.573751,29.502884],[-97.576083,29.504557],[-97.577055,29.506148],[-97.57745,29.507417],[-97.577399,29.508408],[-97.577294,29.509053],[-97.576745,29.50993],[-97.577008,29.5106],[-97.576772,29.51083],[-97.577402,29.512191],[-97.577431,29.513344],[-97.576938,29.517747],[-97.577136,29.518179],[-97.576605,29.526558],[-97.5757,29.526627],[-97.575425,29.527339],[-97.570724,29.526224],[-97.56994,29.528476],[-97.570168,29.529437],[-97.569957,29.529897],[-97.55318,29.54182],[-97.550115,29.538929],[-97.547731,29.537178],[-97.543673,29.535544],[-97.542698,29.53491],[-97.540954,29.53324],[-97.539129,29.531029],[-97.534706,29.524735],[-97.530569,29.522041],[-97.528257,29.519234],[-97.526157,29.517311],[-97.523966,29.518739],[-97.522979,29.520862],[-97.520193,29.522937],[-97.516018,29.5252],[-97.514352,29.525856],[-97.513474,29.526501],[-97.512508,29.526735],[-97.504239,29.531005],[-97.505328,29.532321],[-97.507849,29.533846],[-97.510301,29.536195],[-97.513068,29.536741],[-97.51359,29.53744],[-97.513558,29.538056],[-97.513065,29.538715],[-97.5122,29.539427],[-97.508739,29.541059],[-97.506835,29.543119],[-97.506769,29.543468],[-97.5073,29.543932],[-97.509971,29.544332],[-97.51179,29.546198],[-97.51179,29.546865],[-97.510983,29.547706],[-97.511119,29.548198],[-97.510829,29.548951],[-97.509041,29.550468],[-97.508477,29.551504],[-97.509631,29.552465],[-97.511575,29.55295],[-97.512179,29.553363],[-97.512348,29.554292],[-97.512096,29.554919],[-97.512731,29.5558],[-97.512769,29.556245],[-97.512712,29.556872],[-97.51241,29.557103],[-97.512151,29.557928],[-97.510558,29.559957],[-97.509665,29.55994],[-97.508671,29.560451],[-97.508287,29.561122],[-97.507657,29.561589],[-97.507915,29.562519],[-97.50692,29.562739],[-97.506706,29.562975],[-97.506737,29.563729],[-97.506259,29.564047],[-97.506027,29.563547],[-97.505712,29.563618],[-97.505743,29.564696],[-97.504609,29.566186],[-97.505018,29.56677],[-97.505597,29.567089],[-97.503879,29.567038],[-97.503545,29.567412],[-97.50352,29.567891],[-97.50245,29.56833],[-97.501966,29.568237],[-97.501304,29.569628],[-97.500549,29.569479],[-97.499922,29.569872],[-97.499443,29.569751],[-97.499267,29.570164],[-97.498758,29.569988],[-97.49855,29.570329],[-97.498103,29.570021],[-97.496914,29.569868],[-97.495946,29.571018],[-97.493832,29.571426],[-97.492983,29.57248],[-97.490498,29.566949],[-97.490443,29.5658],[-97.488881,29.562263],[-97.480979,29.564632],[-97.48067,29.564448],[-97.479925,29.562827],[-97.479402,29.562679],[-97.477058,29.563422],[-97.477753,29.564347],[-97.477766,29.566431],[-97.476326,29.567136],[-97.475917,29.567994],[-97.476006,29.568604],[-97.474936,29.568874],[-97.473684,29.568666],[-97.473225,29.569799],[-97.473257,29.570992],[-97.471212,29.572368],[-97.471061,29.572791],[-97.471477,29.573572],[-97.471458,29.574128],[-97.472,29.574953],[-97.469923,29.575091],[-97.469269,29.575635],[-97.469037,29.576681],[-97.469477,29.577775],[-97.468898,29.577753],[-97.46881,29.577929],[-97.469272,29.578724],[-97.464489,29.576651],[-97.463773,29.576114],[-97.463358,29.575347],[-97.461897,29.576211],[-97.4549,29.578544],[-97.456499,29.582579],[-97.457452,29.591592],[-97.457754,29.592537],[-97.463406,29.604151],[-97.46425,29.606625],[-97.464331,29.607977],[-97.46342,29.614275],[-97.463408,29.616277],[-97.464201,29.617814],[-97.467343,29.621167],[-97.469266,29.626638],[-97.472221,29.630492],[-97.474093,29.634957],[-97.479904,29.641742],[-97.479563,29.642591],[-97.479406,29.644104],[-97.479407,29.646671],[-97.473772,29.650719],[-97.471634,29.650263],[-97.470618,29.650482],[-97.46766,29.647186],[-97.462792,29.651016],[-97.460847,29.652182],[-97.448492,29.652104],[-97.415172,29.652395],[-97.414838,29.612184],[-97.41576,29.597488],[-97.424856,29.589294],[-97.432693,29.583228],[-97.425145,29.566328],[-97.425107,29.565488],[-97.426459,29.562558],[-97.428789,29.558985],[-97.432601,29.555191],[-97.434769,29.552277],[-97.437373,29.546844],[-97.438729,29.54462],[-97.439292,29.542962],[-97.442777,29.538834],[-97.444027,29.536626],[-97.445785,29.531221],[-97.446659,29.526555],[-97.446517,29.524997],[-97.448807,29.524094],[-97.447869,29.52034],[-97.4547,29.517724],[-97.453546,29.515033],[-97.456944,29.513901],[-97.452896,29.50481],[-97.454052,29.504415],[-97.453172,29.502402],[-97.456714,29.50117],[-97.457613,29.503207],[-97.458363,29.502967],[-97.458092,29.502493],[-97.457579,29.502581],[-97.457435,29.502332],[-97.457774,29.502167],[-97.457296,29.498268],[-97.460272,29.499423],[-97.462975,29.501187],[-97.464338,29.501655],[-97.465097,29.501522],[-97.467793,29.498844],[-97.468501,29.498414],[-97.471016,29.497674],[-97.472562,29.496656],[-97.472614,29.494382],[-97.472274,29.493768],[-97.471173,29.493387],[-97.470284,29.493369],[-97.469498,29.493558],[-97.468686,29.494184],[-97.467613,29.496934],[-97.467037,29.49765],[-97.465624,29.498556],[-97.464393,29.49884],[-97.463921,29.498638],[-97.463188,29.497821],[-97.463293,29.495705],[-97.462743,29.494637],[-97.462848,29.493955],[-97.463791,29.493664],[-97.464604,29.494589],[-97.464997,29.494775],[-97.465888,29.494735],[-97.467486,29.49276],[-97.46953,29.491333],[-97.470919,29.490953],[-97.471128,29.489412],[-97.470813,29.488631],[-97.469818,29.488422],[-97.468665,29.48993],[-97.467119,29.490017],[-97.465049,29.487372],[-97.465023,29.486936],[-97.46539,29.486774],[-97.468139,29.486881],[-97.469003,29.486374],[-97.469291,29.485201],[-97.468871,29.482305],[-97.469184,29.48019],[-97.468136,29.478511],[-97.467533,29.478257],[-97.466853,29.479102],[-97.465307,29.479488],[-97.465098,29.479258],[-97.465098,29.478292],[-97.466144,29.47728],[-97.466144,29.476889],[-97.463996,29.476425],[-97.463603,29.476562],[-97.463027,29.477224],[-97.463054,29.478252],[-97.462687,29.479211],[-97.462347,29.479486],[-97.459831,29.480029],[-97.459281,29.479684],[-97.459281,29.478328],[-97.458836,29.477569],[-97.458495,29.475523],[-97.459045,29.475338],[-97.461139,29.476065],[-97.461427,29.475903],[-97.461584,29.475398],[-97.461139,29.47473],[-97.460196,29.474178],[-97.459698,29.473442],[-97.459855,29.472292],[-97.460798,29.47082],[-97.460772,29.470475],[-97.458492,29.469416],[-97.458125,29.468886],[-97.459591,29.467506],[-97.459932,29.46654],[-97.460534,29.466011],[-97.461555,29.465962],[-97.461974,29.466213],[-97.461974,29.468383],[-97.462183,29.468771],[-97.46276,29.469113],[-97.464514,29.469016],[-97.464881,29.468602],[-97.464828,29.466051],[-97.467262,29.46414],[-97.46865,29.463747],[-97.4692,29.464157],[-97.469515,29.465368],[-97.470274,29.466143],[-97.470563,29.467125],[-97.470352,29.468039],[-97.468257,29.469019],[-97.468205,29.470002],[-97.468965,29.471052],[-97.470772,29.471985],[-97.472265,29.472096],[-97.472788,29.471888],[-97.473678,29.470898],[-97.473888,29.470186],[-97.472787,29.469587],[-97.472525,29.469012],[-97.472918,29.468552],[-97.474123,29.468319],[-97.474909,29.468843],[-97.475956,29.470259],[-97.476794,29.470897],[-97.478418,29.470962],[-97.480146,29.470521],[-97.481011,29.471571],[-97.483368,29.473647],[-97.484573,29.474102],[-97.486406,29.474257],[-97.487218,29.474208],[-97.488553,29.473149],[-97.490384,29.46924],[-97.491771,29.468295],[-97.49219,29.468225],[-97.491981,29.467514],[-97.491221,29.466667],[-97.491247,29.466116],[-97.492111,29.465933],[-97.493421,29.466597],[-97.496641,29.465931],[-97.498187,29.466297],[-97.499732,29.465701],[-97.499868,29.466021],[-97.498999,29.46687]]]}},{"type":"Feature","properties":{"PRECINCT":"2","VTD":"0002"},"geometry":{"type":"Polygon","coordinates":[[[-97.327971,29.562291],[-97.32729,29.560847],[-97.32693,29.559219],[-97.32613,29.55837],[-97.324935,29.557737],[-97.32455,29.567028],[-97.324289,29.567203],[-97.319914,29.567312],[-97.319958,29.575014],[-97.30717,29.575097],[-97.307427,29.589899],[-97.306915,29.589795],[-97.305541,29.588602],[-97.305637,29.587388],[-97.303915,29.585233],[-97.303645,29.584087],[-97.302722,29.58356],[-97.300818,29.581749],[-97.298445,29.582115],[-97.29818,29.58184],[-97.297301,29.579845],[-97.296434,29.579111],[-97.296303,29.577989],[-97.296985,29.577187],[-97.297116,29.576064],[-97.296225,29.574849],[-97.295989,29.574138],[-97.293525,29.572053],[-97.291769,29.572304],[-97.290747,29.572167],[-97.288257,29.569737],[-97.288074,29.568774],[-97.288913,29.567812],[-97.288913,29.567216],[-97.288127,29.567078],[-97.286659,29.566253],[-97.286554,29.565566],[-97.287551,29.564626],[-97.28818,29.564443],[-97.288337,29.56371],[-97.289334,29.563045],[-97.289622,29.562564],[-97.2913,29.561808],[-97.291641,29.560848],[-97.293163,29.560162],[-97.293531,29.559774],[-97.293505,29.559545],[-97.292589,29.559683],[-97.29238,29.559568],[-97.292433,29.559203],[-97.292958,29.558906],[-97.293562,29.558105],[-97.294873,29.557832],[-97.295609,29.557146],[-97.296082,29.555979],[-97.296766,29.555133],[-97.298471,29.554975],[-97.298891,29.55532],[-97.300071,29.55562],[-97.300177,29.555207],[-97.29989,29.554681],[-97.300232,29.554109],[-97.299447,29.552943],[-97.299893,29.552669],[-97.300183,29.553105],[-97.301547,29.553405],[-97.301016,29.551385],[-97.301339,29.550886],[-97.301654,29.550817],[-97.302518,29.551159],[-97.303041,29.550517],[-97.302778,29.550195],[-97.302803,29.549552],[-97.302173,29.548588],[-97.303534,29.548311],[-97.303848,29.548792],[-97.304188,29.548791],[-97.305103,29.546817],[-97.305783,29.546288],[-97.305965,29.545209],[-97.30654,29.544796],[-97.306801,29.544107],[-97.30743,29.543739],[-97.307324,29.542776],[-97.307612,29.542477],[-97.307637,29.541743],[-97.308082,29.541604],[-97.309129,29.541785],[-97.308944,29.540592],[-97.310357,29.539673],[-97.310383,29.539031],[-97.310095,29.538917],[-97.309754,29.539306],[-97.309309,29.539283],[-97.308942,29.538458],[-97.309204,29.537908],[-97.308234,29.537313],[-97.305981,29.537083],[-97.305981,29.536739],[-97.306505,29.536144],[-97.306033,29.535456],[-97.306059,29.534929],[-97.306872,29.535135],[-97.307475,29.534608],[-97.307606,29.534287],[-97.306872,29.533806],[-97.306846,29.533462],[-97.307134,29.533073],[-97.307973,29.532775],[-97.308235,29.532202],[-97.307842,29.531812],[-97.307396,29.530323],[-97.307396,29.529728],[-97.308025,29.529315],[-97.308104,29.529017],[-97.30737,29.528742],[-97.30737,29.528467],[-97.307763,29.527963],[-97.307685,29.526313],[-97.308287,29.525855],[-97.30834,29.525488],[-97.307659,29.524801],[-97.308052,29.523861],[-97.307633,29.522509],[-97.307187,29.522028],[-97.306218,29.521844],[-97.305851,29.521225],[-97.306139,29.520377],[-97.306847,29.520125],[-97.307056,29.51969],[-97.306847,29.518957],[-97.307345,29.518682],[-97.307973,29.518911],[-97.308393,29.519713],[-97.309519,29.519576],[-97.309519,29.5193],[-97.308209,29.518544],[-97.308288,29.518177],[-97.309598,29.518155],[-97.310253,29.519048],[-97.310698,29.519026],[-97.311458,29.522578],[-97.312401,29.524136],[-97.313397,29.525259],[-97.313371,29.526588],[-97.314157,29.527918],[-97.315048,29.528398],[-97.314969,29.528994],[-97.314209,29.529452],[-97.314183,29.529956],[-97.315388,29.531217],[-97.318926,29.532615],[-97.322333,29.533371],[-97.323669,29.534356],[-97.325347,29.535181],[-97.326972,29.535112],[-97.327365,29.534906],[-97.32747,29.534539],[-97.328702,29.534997],[-97.329645,29.534791],[-97.330274,29.534883],[-97.330667,29.534424],[-97.330667,29.534035],[-97.330116,29.533622],[-97.330116,29.533301],[-97.330588,29.533072],[-97.330483,29.532476],[-97.330771,29.532018],[-97.331479,29.532086],[-97.33292,29.534103],[-97.334283,29.53479],[-97.335096,29.536165],[-97.335437,29.536119],[-97.336118,29.535203],[-97.337323,29.535546],[-97.338502,29.535408],[-97.339446,29.535912],[-97.339499,29.537035],[-97.340652,29.53786],[-97.340652,29.538089],[-97.339918,29.538869],[-97.339106,29.539077],[-97.338897,29.540157],[-97.339133,29.540663],[-97.34031,29.54141],[-97.344025,29.538796],[-97.35154,29.53615],[-97.355631,29.534078],[-97.360212,29.53132],[-97.369977,29.527947],[-97.375828,29.526539],[-97.378728,29.525603],[-97.380335,29.525388],[-97.383293,29.525562],[-97.385175,29.52525],[-97.393855,29.521833],[-97.391407,29.516362],[-97.391167,29.513578],[-97.387835,29.505385],[-97.394257,29.504899],[-97.395357,29.50339],[-97.413856,29.511031],[-97.415616,29.511606],[-97.417113,29.511805],[-97.419967,29.511516],[-97.421897,29.510857],[-97.422213,29.510962],[-97.422554,29.510599],[-97.430288,29.50801],[-97.431018,29.508812],[-97.436479,29.506949],[-97.437397,29.509031],[-97.440114,29.508896],[-97.441357,29.508748],[-97.449488,29.505973],[-97.4547,29.517724],[-97.447869,29.52034],[-97.448807,29.524094],[-97.446517,29.524997],[-97.446659,29.526555],[-97.445785,29.531221],[-97.444027,29.536626],[-97.442777,29.538834],[-97.439292,29.542962],[-97.438729,29.54462],[-97.437373,29.546844],[-97.434769,29.552277],[-97.432601,29.555191],[-97.428789,29.558985],[-97.426459,29.562558],[-97.425046,29.565691],[-97.425145,29.566328],[-97.432693,29.583228],[-97.424856,29.589294],[-97.41576,29.597488],[-97.414838,29.612184],[-97.415296,29.66559],[-97.416377,29.681872],[-97.417417,29.684803],[-97.417155,29.68512],[-97.391975,29.692126],[-97.3914,29.69107],[-97.392048,29.690072],[-97.391577,29.689019],[-97.390895,29.688767],[-97.39016,29.689179],[-97.389504,29.689202],[-97.388743,29.68856],[-97.388717,29.687735],[-97.389295,29.686498],[-97.390582,29.685604],[-97.39179,29.684],[-97.392106,29.682075],[-97.391844,29.681296],[-97.391975,29.680335],[-97.392396,29.679556],[-97.393157,29.679006],[-97.392921,29.677722],[-97.39237,29.677058],[-97.392056,29.67598],[-97.392765,29.675064],[-97.392792,29.674193],[-97.393554,29.672222],[-97.392741,29.671466],[-97.392609,29.671053],[-97.393003,29.670274],[-97.393371,29.670458],[-97.394342,29.670091],[-97.394919,29.669358],[-97.395445,29.667571],[-97.398281,29.663721],[-97.399409,29.663699],[-97.399855,29.663882],[-97.400508,29.664644],[-97.400872,29.664227],[-97.401103,29.663257],[-97.402906,29.662822],[-97.403011,29.662443],[-97.40258,29.662209],[-97.403254,29.661328],[-97.403548,29.660458],[-97.405322,29.658649],[-97.405735,29.657917],[-97.405743,29.657181],[-97.40647,29.657164],[-97.40724,29.656428],[-97.406894,29.656312],[-97.407537,29.655734],[-97.407181,29.655531],[-97.407251,29.655302],[-97.408196,29.65496],[-97.409165,29.653876],[-97.409333,29.652681],[-97.409968,29.652407],[-97.400214,29.652482],[-97.393105,29.660526],[-97.390709,29.660991],[-97.39021,29.660862],[-97.389856,29.660474],[-97.389822,29.659473],[-97.389387,29.659275],[-97.390081,29.656246],[-97.392747,29.650506],[-97.392884,29.647056],[-97.394882,29.641315],[-97.391959,29.641273],[-97.392053,29.641122],[-97.394954,29.641134],[-97.397602,29.635167],[-97.398353,29.632694],[-97.405169,29.617956],[-97.386646,29.618254],[-97.386488,29.616221],[-97.385699,29.615603],[-97.38483,29.614435],[-97.383067,29.613588],[-97.382908,29.612969],[-97.382303,29.61281],[-97.382039,29.612214],[-97.3807,29.611275],[-97.380569,29.610885],[-97.379809,29.610609],[-97.37939,29.609784],[-97.3796,29.609441],[-97.379154,29.608753],[-97.379496,29.608363],[-97.379417,29.607676],[-97.378631,29.607034],[-97.377766,29.606896],[-97.377609,29.606094],[-97.377085,29.605589],[-97.377819,29.605108],[-97.378266,29.604352],[-97.377585,29.602977],[-97.378267,29.602015],[-97.378084,29.601258],[-97.379658,29.600228],[-97.380603,29.598029],[-97.381286,29.597319],[-97.380998,29.595989],[-97.381366,29.595073],[-97.381235,29.593469],[-97.381733,29.593307],[-97.381732,29.5931],[-97.381152,29.592387],[-97.381281,29.591446],[-97.380545,29.591077],[-97.380412,29.590456],[-97.380831,29.59002],[-97.380042,29.589811],[-97.380146,29.589352],[-97.37912,29.589371],[-97.379093,29.588981],[-97.378804,29.588796],[-97.377911,29.588862],[-97.377016,29.588425],[-97.376832,29.588149],[-97.377197,29.587781],[-97.377119,29.587574],[-97.375857,29.586928],[-97.374748,29.586906],[-97.373764,29.585986],[-97.373464,29.582953],[-97.373094,29.582264],[-97.3739,29.580585],[-97.373347,29.580011],[-97.373396,29.579023],[-97.373133,29.578885],[-97.372502,29.579273],[-97.372211,29.578745],[-97.371738,29.578583],[-97.371684,29.578031],[-97.372334,29.576859],[-97.371712,29.57636],[-97.366022,29.583751],[-97.35806,29.587861],[-97.353973,29.591938],[-97.353697,29.589451],[-97.353282,29.589039],[-97.353348,29.587048],[-97.352933,29.58666],[-97.352963,29.586065],[-97.352313,29.585425],[-97.352294,29.584556],[-97.351672,29.58364],[-97.351621,29.583206],[-97.352177,29.582908],[-97.352205,29.582565],[-97.351636,29.581673],[-97.351984,29.580734],[-97.351465,29.580346],[-97.351572,29.580049],[-97.3521,29.579775],[-97.352062,29.577761],[-97.352352,29.577578],[-97.352355,29.577281],[-97.351704,29.577121],[-97.35135,29.575266],[-97.348001,29.575244],[-97.347186,29.575507],[-97.347077,29.578986],[-97.346529,29.579568],[-97.346438,29.580417],[-97.339622,29.5805],[-97.339067,29.579736],[-97.337167,29.578411],[-97.336586,29.577599],[-97.336215,29.576882],[-97.336102,29.575656],[-97.327971,29.562291]]]}},{"type":"Feature","properties":{"PRECINCT":"11","VTD":"0011"},"geometry":{"type":"Polygon","coordinates":[[[-97.216173,29.58532],[-97.197872,29.585472],[-97.204087,29.580613],[-97.203744,29.559316],[-97.202331,29.507527],[-97.204794,29.500238],[-97.207646,29.489955],[-97.219593,29.450936],[-97.255848,29.461334],[-97.258563,29.461783],[-97.267429,29.462541],[-97.281794,29.46442],[-97.279959,29.472576],[-97.285077,29.477695],[-97.282914,29.487494],[-97.287446,29.499379],[-97.287251,29.499895],[-97.283722,29.503669],[-97.285327,29.507983],[-97.286909,29.507617],[-97.290418,29.507638],[-97.290645,29.507825],[-97.290785,29.508807],[-97.304161,29.508799],[-97.311945,29.508452],[-97.313648,29.508092],[-97.312077,29.510466],[-97.31148,29.510758],[-97.311458,29.511234],[-97.310777,29.511623],[-97.310489,29.512288],[-97.309467,29.512907],[-97.309179,29.513342],[-97.307947,29.513456],[-97.307528,29.514396],[-97.306768,29.514465],[-97.306218,29.515175],[-97.305747,29.515359],[-97.305642,29.51655],[-97.305301,29.517215],[-97.306008,29.518384],[-97.305641,29.5193],[-97.306113,29.519369],[-97.306847,29.518957],[-97.307056,29.51969],[-97.306847,29.520125],[-97.306139,29.520377],[-97.305877,29.521523],[-97.306218,29.521844],[-97.307187,29.522028],[-97.307633,29.522509],[-97.308052,29.523861],[-97.307659,29.524801],[-97.30834,29.525488],[-97.308287,29.525855],[-97.307685,29.526313],[-97.307763,29.527963],[-97.30737,29.528467],[-97.30737,29.528742],[-97.308104,29.529017],[-97.308025,29.529315],[-97.307396,29.529728],[-97.307396,29.530323],[-97.307842,29.531812],[-97.308235,29.532202],[-97.307973,29.532775],[-97.307134,29.533073],[-97.306846,29.533462],[-97.306872,29.533806],[-97.307606,29.534287],[-97.307475,29.534608],[-97.306872,29.535135],[-97.306059,29.534929],[-97.306033,29.535456],[-97.306505,29.536144],[-97.305981,29.536739],[-97.305981,29.537083],[-97.308234,29.537313],[-97.309204,29.537908],[-97.308942,29.538458],[-97.309309,29.539283],[-97.309754,29.539306],[-97.310095,29.538917],[-97.310383,29.539031],[-97.310357,29.539673],[-97.308944,29.540592],[-97.309129,29.541785],[-97.308082,29.541604],[-97.307637,29.541743],[-97.307612,29.542477],[-97.307324,29.542776],[-97.30743,29.543739],[-97.306801,29.544107],[-97.30654,29.544796],[-97.305965,29.545209],[-97.305783,29.546288],[-97.305103,29.546817],[-97.304188,29.548791],[-97.303848,29.548792],[-97.303534,29.548311],[-97.302173,29.548588],[-97.302803,29.549552],[-97.302778,29.550195],[-97.303041,29.550517],[-97.302518,29.551159],[-97.301654,29.550817],[-97.301339,29.550886],[-97.301016,29.551385],[-97.301547,29.553405],[-97.300183,29.553105],[-97.299893,29.552669],[-97.299447,29.552943],[-97.300232,29.554109],[-97.29989,29.554681],[-97.300177,29.555207],[-97.300071,29.55562],[-97.298891,29.55532],[-97.298471,29.554975],[-97.297107,29.555065],[-97.296555,29.555317],[-97.295609,29.557146],[-97.294873,29.557832],[-97.293562,29.558105],[-97.292958,29.558906],[-97.292433,29.559203],[-97.29238,29.559568],[-97.292589,29.559683],[-97.293505,29.559545],[-97.293163,29.560162],[-97.291641,29.560848],[-97.2913,29.561808],[-97.289622,29.562564],[-97.289334,29.563045],[-97.288337,29.56371],[-97.28818,29.564443],[-97.287551,29.564626],[-97.286554,29.565566],[-97.286659,29.566253],[-97.286344,29.56678],[-97.286816,29.56717],[-97.286659,29.567445],[-97.285977,29.567376],[-97.285348,29.566872],[-97.284955,29.567101],[-97.285479,29.567628],[-97.285374,29.567949],[-97.284483,29.56843],[-97.284011,29.568407],[-97.283749,29.567902],[-97.280944,29.568635],[-97.280655,29.568635],[-97.28,29.56797],[-97.279031,29.567489],[-97.278192,29.56813],[-97.277432,29.567878],[-97.276462,29.567946],[-97.276016,29.56829],[-97.276173,29.569],[-97.275517,29.569229],[-97.275203,29.568931],[-97.274967,29.569],[-97.274337,29.5701],[-97.273184,29.570283],[-97.273079,29.570764],[-97.272371,29.570764],[-97.27224,29.571543],[-97.271532,29.571795],[-97.271636,29.572414],[-97.271243,29.572666],[-97.271059,29.574338],[-97.270114,29.576126],[-97.268331,29.577637],[-97.268436,29.577981],[-97.268855,29.578073],[-97.268776,29.578463],[-97.268225,29.579242],[-97.267465,29.579035],[-97.267046,29.579425],[-97.26694,29.58041],[-97.266442,29.580868],[-97.266389,29.581349],[-97.266022,29.581762],[-97.266231,29.582083],[-97.267359,29.582381],[-97.266676,29.583458],[-97.266939,29.583664],[-97.266886,29.584489],[-97.266177,29.585474],[-97.266465,29.586276],[-97.267697,29.586758],[-97.267461,29.587514],[-97.266963,29.588087],[-97.266805,29.58905],[-97.265991,29.590424],[-97.266568,29.591433],[-97.267642,29.591754],[-97.267458,29.592785],[-97.264888,29.594824],[-97.264625,29.595282],[-97.261688,29.59654],[-97.261163,29.597732],[-97.260007,29.597649],[-97.259876,29.597399],[-97.259562,29.597402],[-97.258774,29.597939],[-97.258223,29.598035],[-97.257147,29.598896],[-97.25704,29.59973],[-97.257983,29.600614],[-97.257956,29.600915],[-97.255935,29.601921],[-97.255331,29.602734],[-97.255173,29.603387],[-97.254034,29.603294],[-97.253945,29.600527],[-97.25377,29.600324],[-97.242344,29.600302],[-97.241939,29.595981],[-97.229091,29.596097],[-97.228534,29.59537],[-97.228194,29.594287],[-97.22814,29.590612],[-97.218206,29.590928],[-97.218028,29.590623],[-97.218047,29.586588],[-97.217658,29.585897],[-97.216173,29.58532]]]}},{"type":"Feature","properties":{"PRECINCT":"13","VTD":"0013"},"geometry":{"type":"Polygon","coordinates":[[[-97.682156,29.366736],[-97.685033,29.368421],[-97.686392,29.368552],[-97.686433,29.369446],[-97.688286,29.371343],[-97.688376,29.372235],[-97.68926,29.373952],[-97.699768,29.376859],[-97.699133,29.384386],[-97.703455,29.384313],[-97.703672,29.384491],[-97.703683,29.385197],[-97.703961,29.385347],[-97.712726,29.385289],[-97.714319,29.385639],[-97.721393,29.385542],[-97.722149,29.38519],[-97.722558,29.38431],[-97.727529,29.380052],[-97.72694,29.362626],[-97.726736,29.361779],[-97.727391,29.360192],[-97.728923,29.359312],[-97.729402,29.35839],[-97.729824,29.358089],[-97.730931,29.357853],[-97.733332,29.358848],[-97.733872,29.360717],[-97.735544,29.362879],[-97.735626,29.363358],[-97.735392,29.363718],[-97.735932,29.36367],[-97.736027,29.363024],[-97.736756,29.362865],[-97.738259,29.363025],[-97.739544,29.362334],[-97.73993,29.362546],[-97.740984,29.36217],[-97.742066,29.36317],[-97.745389,29.364132],[-97.752683,29.363909],[-97.749579,29.384684],[-97.748803,29.387853],[-97.749894,29.389168],[-97.751087,29.389843],[-97.75129,29.391729],[-97.751568,29.392136],[-97.75333,29.391476],[-97.754712,29.391556],[-97.756074,29.391046],[-97.75632,29.391182],[-97.757319,29.390453],[-97.757582,29.389261],[-97.758472,29.388276],[-97.759231,29.388276],[-97.760591,29.389789],[-97.761167,29.389698],[-97.762267,29.388873],[-97.762659,29.388827],[-97.764177,29.389928],[-97.764463,29.392587],[-97.764725,29.39284],[-97.765196,29.392977],[-97.768546,29.39268],[-97.769671,29.392979],[-97.769933,29.393437],[-97.76988,29.394033],[-97.770848,29.394767],[-97.77344,29.394516],[-97.774199,29.394264],[-97.774749,29.393691],[-97.775351,29.393508],[-97.776401,29.393584],[-97.777426,29.394342],[-97.77869,29.395732],[-97.780318,29.395981],[-97.780897,29.396541],[-97.780872,29.396969],[-97.780144,29.398204],[-97.780419,29.399131],[-97.780108,29.399372],[-97.780917,29.400821],[-97.780777,29.401767],[-97.780393,29.402226],[-97.779824,29.402374],[-97.768559,29.402496],[-97.768331,29.402909],[-97.768498,29.406895],[-97.768167,29.407212],[-97.753795,29.40753],[-97.753453,29.407364],[-97.753433,29.40638],[-97.753132,29.406143],[-97.745066,29.406927],[-97.741532,29.423432],[-97.723176,29.423506],[-97.723109,29.416228],[-97.694363,29.416693],[-97.682428,29.417249],[-97.675858,29.417998],[-97.671858,29.419485],[-97.669923,29.419765],[-97.665339,29.419492],[-97.656354,29.417574],[-97.651492,29.416926],[-97.63706,29.416341],[-97.635777,29.416013],[-97.634375,29.416439],[-97.618921,29.416923],[-97.608522,29.419947],[-97.590746,29.421877],[-97.591698,29.426156],[-97.591661,29.426855],[-97.586938,29.428917],[-97.586427,29.429529],[-97.588278,29.434426],[-97.587828,29.435613],[-97.586543,29.4633],[-97.597809,29.466597],[-97.592648,29.479813],[-97.592077,29.480543],[-97.58994,29.481404],[-97.588831,29.482421],[-97.587334,29.485959],[-97.587621,29.487009],[-97.587347,29.487582],[-97.582074,29.486357],[-97.580108,29.486127],[-97.572373,29.482342],[-97.572138,29.482044],[-97.572138,29.481378],[-97.573576,29.479429],[-97.574545,29.479108],[-97.576587,29.479657],[-97.577136,29.479037],[-97.577189,29.47796],[-97.57711,29.477754],[-97.575826,29.477271],[-97.574671,29.47617],[-97.572964,29.471401],[-97.571706,29.469292],[-97.570919,29.468809],[-97.569766,29.469039],[-97.569294,29.470229],[-97.567485,29.471695],[-97.566726,29.472933],[-97.565076,29.474789],[-97.565023,29.475248],[-97.565495,29.47621],[-97.566071,29.476806],[-97.567276,29.477173],[-97.567721,29.477517],[-97.567774,29.478365],[-97.566542,29.479213],[-97.565809,29.479396],[-97.564211,29.478571],[-97.56353,29.478915],[-97.562587,29.479717],[-97.56243,29.481436],[-97.561068,29.482742],[-97.559627,29.482903],[-97.559261,29.482674],[-97.559575,29.481848],[-97.559182,29.479946],[-97.559392,29.478846],[-97.558842,29.47754],[-97.557166,29.476829],[-97.555542,29.476806],[-97.555542,29.476279],[-97.555987,29.475775],[-97.556904,29.475477],[-97.557952,29.474652],[-97.56044,29.474033],[-97.561068,29.473529],[-97.561147,29.472772],[-97.560754,29.472085],[-97.560047,29.471374],[-97.558842,29.470801],[-97.553002,29.471122],[-97.552033,29.470961],[-97.550697,29.47016],[-97.550173,29.470114],[-97.549833,29.470389],[-97.549125,29.473184],[-97.548287,29.474834],[-97.546139,29.476507],[-97.543519,29.477996],[-97.542943,29.478913],[-97.542262,29.478981],[-97.541895,29.478385],[-97.541765,29.4752],[-97.542027,29.474489],[-97.543389,29.472955],[-97.540928,29.47096],[-97.540273,29.46986],[-97.540274,29.469287],[-97.540824,29.468554],[-97.541426,29.468233],[-97.543338,29.468187],[-97.543286,29.467248],[-97.542763,29.465827],[-97.540588,29.463122],[-97.539411,29.461196],[-97.538206,29.460165],[-97.536085,29.459362],[-97.535116,29.459499],[-97.534749,29.459889],[-97.53433,29.45998],[-97.533702,29.458559],[-97.533677,29.457413],[-97.534017,29.456107],[-97.533677,29.455625],[-97.532656,29.455304],[-97.532185,29.455281],[-97.531477,29.455694],[-97.530796,29.456977],[-97.528203,29.458924],[-97.526553,29.459084],[-97.525401,29.458511],[-97.525061,29.456425],[-97.525978,29.455371],[-97.525665,29.454156],[-97.526294,29.452369],[-97.527944,29.450903],[-97.52962,29.450284],[-97.529777,29.450055],[-97.529856,29.449689],[-97.52962,29.449483],[-97.528285,29.449689],[-97.527814,29.448909],[-97.527998,29.447878],[-97.528338,29.447832],[-97.528888,29.448543],[-97.529228,29.448497],[-97.530066,29.447443],[-97.530669,29.447168],[-97.531899,29.447192],[-97.531794,29.447788],[-97.531035,29.448452],[-97.530982,29.450055],[-97.532186,29.450056],[-97.532187,29.449276],[-97.532789,29.448452],[-97.533287,29.448498],[-97.533339,29.448979],[-97.534151,29.44891],[-97.534316,29.449208],[-97.53457,29.449115],[-97.535255,29.448444],[-97.536833,29.447861],[-97.538361,29.446313],[-97.532279,29.438618],[-97.529869,29.437017],[-97.547773,29.427444],[-97.55012,29.426441],[-97.572749,29.423868],[-97.572684,29.42314],[-97.573362,29.422839],[-97.573343,29.421722],[-97.57526,29.420619],[-97.578901,29.41026],[-97.573851,29.408769],[-97.573635,29.408462],[-97.583027,29.385244],[-97.585282,29.387752],[-97.589894,29.392175],[-97.590696,29.393501],[-97.593119,29.395584],[-97.593562,29.395668],[-97.599642,29.39087],[-97.599591,29.387312],[-97.602339,29.385198],[-97.602967,29.384831],[-97.603988,29.384622],[-97.60438,29.384002],[-97.606291,29.382235],[-97.608645,29.380836],[-97.614453,29.376227],[-97.618064,29.37573],[-97.618769,29.375239],[-97.61908,29.373918],[-97.619656,29.373139],[-97.620545,29.372657],[-97.621225,29.371878],[-97.622506,29.371463],[-97.621395,29.370859],[-97.621167,29.370374],[-97.620517,29.369889],[-97.620594,29.36909],[-97.621073,29.368632],[-97.621463,29.367608],[-97.621524,29.366366],[-97.621003,29.365624],[-97.621457,29.364827],[-97.621102,29.364084],[-97.620242,29.36317],[-97.620482,29.362848],[-97.620283,29.362186],[-97.620752,29.362082],[-97.620854,29.36176],[-97.620488,29.361347],[-97.620446,29.360428],[-97.619779,29.359587],[-97.620039,29.358991],[-97.619866,29.358595],[-97.619306,29.358529],[-97.619225,29.358174],[-97.619629,29.35832],[-97.619577,29.357384],[-97.61978,29.35724],[-97.61936,29.356755],[-97.619692,29.35636],[-97.61954,29.355432],[-97.619002,29.354374],[-97.619416,29.354286],[-97.61883,29.353922],[-97.618822,29.353551],[-97.619098,29.353463],[-97.61866,29.352832],[-97.617704,29.35283],[-97.617298,29.353256],[-97.616684,29.352803],[-97.616823,29.352497],[-97.617265,29.352312],[-97.616854,29.3519],[-97.616476,29.352068],[-97.616259,29.351285],[-97.616581,29.351278],[-97.615986,29.350348],[-97.61721,29.349945],[-97.61925,29.349646],[-97.619853,29.34999],[-97.620089,29.350655],[-97.62124,29.35141],[-97.622052,29.352442],[-97.62268,29.352143],[-97.622732,29.351593],[-97.623307,29.351249],[-97.62349,29.351341],[-97.624067,29.352785],[-97.624799,29.353036],[-97.62493,29.353334],[-97.625654,29.353355],[-97.626109,29.352919],[-97.627653,29.352622],[-97.629406,29.352761],[-97.629955,29.353059],[-97.629876,29.353448],[-97.629353,29.353746],[-97.630059,29.35432],[-97.630713,29.354136],[-97.631419,29.354572],[-97.632099,29.355375],[-97.632727,29.355352],[-97.633695,29.355742],[-97.633694,29.356476],[-97.633092,29.356796],[-97.633484,29.357324],[-97.634138,29.357209],[-97.637031,29.357694],[-97.637883,29.357378],[-97.638345,29.357671],[-97.639649,29.357408],[-97.640012,29.357675],[-97.640249,29.357504],[-97.640169,29.35675],[-97.641226,29.356225],[-97.641318,29.355962],[-97.6418,29.355957],[-97.641849,29.355547],[-97.642485,29.355345],[-97.643444,29.354184],[-97.642853,29.353609],[-97.642584,29.352554],[-97.643068,29.351602],[-97.643991,29.350913],[-97.645086,29.350797],[-97.645293,29.349364],[-97.644769,29.348612],[-97.644141,29.346221],[-97.644261,29.345983],[-97.653193,29.339211],[-97.672012,29.358488],[-97.682156,29.366736]]]}}]}