{"type":"FeatureCollection","features":[{"type":"Feature","properties":{"PRECINCT":"1A","VTD":"001A"},"geometry":{"type":"Polygon","coordinates":[[[-100.490991,28.7087],[-100.483204,28.70884],[-100.4832,28.701711],[-100.483352,28.700894],[-100.484797,28.69799],[-100.48501,28.696271],[-100.484813,28.695606],[-100.48855,28.698804],[-100.490198,28.699594],[-100.489672,28.700477],[-100.488519,28.699967],[-100.486648,28.69976],[-100.48665,28.704219],[-100.496363,28.704145],[-100.496306,28.702959],[-100.496568,28.702398],[-100.495374,28.701971],[-100.496406,28.700174],[-100.497524,28.700565],[-100.497496,28.702692],[-100.498398,28.702874],[-100.49847,28.703094],[-100.498293,28.707183],[-100.490988,28.707284],[-100.490991,28.7087]]]}},{"type":"Feature","properties":{"PRECINCT":"2A","VTD":"002A"},"geometry":{"type":"Polygon","coordinates":[[[-100.494381,28.701538],[-100.48855,28.698804],[-100.48526,28.696011],[-100.485821,28.695686],[-100.487095,28.695884],[-100.487121,28.693112],[-100.48998,28.692948],[-100.489982,28.691815],[-100.507253,28.691747],[-100.50745,28.69316],[-100.509639,28.695075],[-100.509799,28.696162],[-100.504411,28.696768],[-100.503402,28.697159],[-100.501504,28.697361],[-100.500354,28.697761],[-100.499058,28.698945],[-100.498335,28.700756],[-100.49847,28.703094],[-100.498398,28.702874],[-100.497496,28.702692],[-100.497524,28.700565],[-100.496406,28.700174],[-100.495374,28.701971],[-100.496568,28.702398],[-100.496306,28.702959],[-100.496363,28.704145],[-100.493534,28.704167],[-100.493535,28.702996],[-100.494381,28.701538]]]}},{"type":"Feature","properties":{"PRECINCT":"4D","VTD":"004D"},"geometry":{"type":"Polygon","coordinates":[[[-100.507253,28.691747],[-100.487735,28.691892],[-100.487935,28.691041],[-100.483704,28.689308],[-100.482953,28.689401],[-100.482711,28.689756],[-100.482312,28.689778],[-100.4818,28.688942],[-100.481762,28.6882],[-100.48005,28.687815],[-100.478729,28.684963],[-100.480649,28.683041],[-100.479883,28.682739],[-100.477046,28.680178],[-100.477433,28.67985],[-100.478535,28.680923],[-100.479487,28.680166],[-100.479891,28.679519],[-100.480771,28.679278],[-100.479725,28.677951],[-100.479632,28.677194],[-100.481615,28.676078],[-100.486828,28.671527],[-100.49305,28.671468],[-100.494,28.670812],[-100.494738,28.669425],[-100.501215,28.669162],[-100.501888,28.667633],[-100.504703,28.675482],[-100.507691,28.682875],[-100.509005,28.687974],[-100.510534,28.692669],[-100.510544,28.696134],[-100.509799,28.696162],[-100.50947,28.694805],[-100.50745,28.69316],[-100.507253,28.691747]]]}},{"type":"Feature","properties":{"PRECINCT":"2B","VTD":"002B"},"geometry":{"type":"MultiPolygon","coordinates":[[[[-100.309763,28.842267],[-100.305436,28.835257],[-100.304798,28.836767],[-100.291707,28.827071],[-100.290854,28.825922],[-100.287706,28.823961],[-100.287266,28.8234],[-100.286238,28.823118],[-100.284684,28.821119],[-100.28419,28.820073],[-100.280045,28.815444],[-100.274843,28.810172],[-100.24533,28.778307],[-100.24411,28.775537],[-100.244069,28.77212],[-100.244267,28.770831],[-100.244043,28.769813],[-100.243812,28.752342],[-100.244305,28.75152],[-100.243828,28.750659],[-100.24386,28.750169],[-100.258354,28.727329],[-100.259883,28.725366],[-100.261977,28.721623],[-100.26358,28.720303],[-100.263282,28.719639],[-100.26415,28.71821],[-100.266988,28.715399],[-100.261864,28.708777],[-100.261627,28.707982],[-100.262177,28.707324],[-100.267609,28.708088],[-100.270016,28.708052],[-100.270043,28.706079],[-100.271834,28.703556],[-100.271911,28.700353],[-100.272269,28.698098],[-100.275022,28.686404],[-100.275706,28.682292],[-100.27785,28.680005],[-100.279828,28.67641],[-100.281555,28.67083],[-100.281666,28.669683],[-100.282919,28.665159],[-100.309514,28.670664],[-100.318597,28.67284],[-100.369486,28.689648],[-100.386792,28.693712],[-100.422509,28.705444],[-100.424223,28.705717],[-100.445987,28.705809],[-100.447718,28.706158],[-100.456183,28.709019],[-100.465014,28.709093],[-100.463651,28.714462],[-100.469462,28.713761],[-100.471853,28.716737],[-100.471755,28.719878],[-100.462334,28.719872],[-100.461071,28.725115],[-100.460425,28.726436],[-100.459683,28.727225],[-100.404668,28.769518],[-100.39185,28.779125],[-100.371202,28.795206],[-100.309763,28.842267]]],[[[-100.48526,28.696011],[-100.473974,28.685976],[-100.468049,28.682192],[-100.455102,28.670192],[-100.436217,28.653646],[-100.433169,28.651869],[-100.436764,28.647789],[-100.437145,28.647544],[-100.438825,28.648925],[-100.440722,28.650039],[-100.442088,28.650094],[-100.444185,28.648094],[-100.444179,28.646835],[-100.444757,28.64641],[-100.445325,28.646299],[-100.446228,28.647066],[-100.447062,28.64741],[-100.447238,28.648239],[-100.44772,28.648082],[-100.447957,28.647532],[-100.447502,28.647092],[-100.447894,28.645045],[-100.447801,28.643648],[-100.447445,28.64279],[-100.447619,28.642406],[-100.449519,28.642962],[-100.4547,28.642186],[-100.455719,28.642275],[-100.460287,28.641021],[-100.462069,28.641108],[-100.474494,28.647071],[-100.476171,28.649219],[-100.478878,28.654416],[-100.479636,28.655225],[-100.480416,28.655493],[-100.483946,28.655811],[-100.486033,28.656948],[-100.48926,28.658002],[-100.492639,28.657869],[-100.495863,28.658569],[-100.497275,28.659066],[-100.498962,28.66035],[-100.500354,28.66196],[-100.501888,28.667633],[-100.501215,28.669162],[-100.494738,28.669425],[-100.493705,28.671116],[-100.492593,28.671583],[-100.486828,28.671527],[-100.481615,28.676078],[-100.479632,28.677194],[-100.479725,28.677951],[-100.480771,28.679278],[-100.479891,28.679519],[-100.479487,28.680166],[-100.478535,28.680923],[-100.477433,28.67985],[-100.477046,28.680178],[-100.479883,28.682739],[-100.480649,28.683041],[-100.478729,28.684963],[-100.48005,28.687815],[-100.481762,28.6882],[-100.4818,28.688942],[-100.482312,28.689778],[-100.482711,28.689756],[-100.482953,28.689401],[-100.483704,28.689308],[-100.487935,28.691041],[-100.487735,28.691892],[-100.489982,28.691815],[-100.48998,28.692948],[-100.487121,28.693112],[-100.487095,28.695884],[-100.485821,28.695686],[-100.48526,28.696011]]],[[[-100.48665,28.704219],[-100.486648,28.69976],[-100.488519,28.699967],[-100.489672,28.700477],[-100.490198,28.699594],[-100.494381,28.701538],[-100.493535,28.702996],[-100.493534,28.704167],[-100.48665,28.704219]]]]}},{"type":"Feature","properties":{"PRECINCT":"4A","VTD":"004A"},"geometry":{"type":"Polygon","coordinates":[[[-100.50381,28.716627],[-100.503781,28.715472],[-100.504962,28.715468],[-100.50479,28.71495],[-100.497272,28.716844],[-100.497927,28.715226],[-100.497498,28.715266],[-100.498258,28.712102],[-100.498494,28.702223],[-100.498335,28.700756],[-100.499058,28.698945],[-100.500354,28.697761],[-100.501504,28.697361],[-100.503402,28.697159],[-100.504411,28.696768],[-100.510544,28.696134],[-100.510922,28.701539],[-100.511498,28.704226],[-100.511998,28.705352],[-100.511819,28.706908],[-100.511419,28.708024],[-100.509126,28.710756],[-100.50775,28.71332],[-100.506701,28.716745],[-100.50682,28.717977],[-100.507236,28.718869],[-100.502762,28.720304],[-100.501594,28.71979],[-100.501326,28.718671],[-100.502369,28.718352],[-100.501971,28.717108],[-100.50381,28.716627]]]}},{"type":"Feature","properties":{"PRECINCT":"4C","VTD":"004C"},"geometry":{"type":"Polygon","coordinates":[[[-100.490479,28.722557],[-100.49044,28.721088],[-100.491124,28.72109],[-100.490988,28.707284],[-100.498293,28.707183],[-100.498182,28.712813],[-100.49587,28.720022],[-100.495121,28.719691],[-100.49333,28.719679],[-100.493245,28.722982],[-100.490479,28.722557]]]}},{"type":"Feature","properties":{"PRECINCT":"2D","VTD":"002D"},"geometry":{"type":"Polygon","coordinates":[[[-100.360287,28.592322],[-100.352826,28.579039],[-100.311607,28.526782],[-100.311339,28.525756],[-100.311336,28.507081],[-100.302072,28.507056],[-100.296698,28.506511],[-100.279266,28.502514],[-100.271116,28.503184],[-100.269613,28.503096],[-100.249757,28.498034],[-100.248532,28.497881],[-100.131928,28.496288],[-100.130815,28.496075],[-100.129488,28.495401],[-100.125335,28.491405],[-100.123668,28.49024],[-100.124082,28.489924],[-100.11402,28.489864],[-100.113836,28.402128],[-100.114042,28.349588],[-100.113835,28.343515],[-100.113719,28.197819],[-100.212189,28.196837],[-100.212723,28.198905],[-100.213609,28.204703],[-100.214112,28.205694],[-100.213481,28.20714],[-100.213452,28.210416],[-100.214248,28.211769],[-100.215464,28.218872],[-100.216532,28.221821],[-100.216547,28.223503],[-100.217565,28.226934],[-100.218757,28.229656],[-100.220288,28.23221],[-100.223629,28.235223],[-100.227573,28.235858],[-100.230517,28.236034],[-100.231479,28.235697],[-100.232228,28.236058],[-100.233715,28.235749],[-100.234966,28.23518],[-100.238753,28.234874],[-100.241397,28.234938],[-100.244273,28.23413],[-100.246205,28.234091],[-100.24804,28.234617],[-100.251636,28.23618],[-100.255889,28.23887],[-100.257789,28.24034],[-100.26091,28.244832],[-100.262794,28.246271],[-100.26365,28.247204],[-100.26471,28.247843],[-100.265998,28.249337],[-100.267603,28.250269],[-100.270129,28.253721],[-100.271583,28.255164],[-100.27263,28.255876],[-100.27763,28.262453],[-100.280519,28.267968],[-100.281112,28.268568],[-100.283177,28.270634],[-100.284301,28.271074],[-100.285102,28.271808],[-100.28939,28.27349],[-100.291397,28.275397],[-100.293474,28.278474],[-100.294291,28.280999],[-100.294296,28.28438],[-100.293468,28.28598],[-100.293276,28.287368],[-100.292228,28.288647],[-100.292151,28.289899],[-100.290436,28.295089],[-100.289798,28.295774],[-100.287553,28.301095],[-100.285986,28.3091],[-100.286111,28.31121],[-100.286476,28.312295],[-100.288639,28.316976],[-100.289553,28.31758],[-100.291637,28.320441],[-100.293084,28.321908],[-100.294838,28.323213],[-100.299284,28.328716],[-100.300887,28.330242],[-100.303849,28.334188],[-100.305428,28.335196],[-100.309123,28.338674],[-100.309837,28.341557],[-100.310732,28.343227],[-100.313139,28.344788],[-100.314199,28.345859],[-100.315712,28.349662],[-100.317245,28.357381],[-100.320392,28.362117],[-100.322914,28.364679],[-100.323724,28.366026],[-100.325114,28.367245],[-100.32959,28.372652],[-100.331401,28.373939],[-100.332208,28.375265],[-100.339712,28.382491],[-100.341871,28.384953],[-100.344402,28.389662],[-100.346799,28.395752],[-100.348178,28.398189],[-100.349588,28.402604],[-100.34945,28.403714],[-100.346988,28.407232],[-100.345248,28.407889],[-100.343947,28.410119],[-100.341915,28.414607],[-100.337063,28.427152],[-100.336187,28.430181],[-100.337616,28.437723],[-100.337433,28.441217],[-100.337798,28.44296],[-100.33944,28.446436],[-100.341534,28.449571],[-100.348425,28.456047],[-100.350786,28.459246],[-100.357498,28.463642],[-100.361046,28.467332],[-100.36206,28.469303],[-100.367765,28.475019],[-100.368288,28.477196],[-100.368197,28.47891],[-100.365982,28.481116],[-100.36189,28.482301],[-100.35508,28.482105],[-100.352235,28.482638],[-100.35065,28.483629],[-100.344181,28.486249],[-100.33714,28.491729],[-100.334864,28.495111],[-100.333682,28.497878],[-100.333814,28.499252],[-100.33474,28.500261],[-100.338518,28.501833],[-100.346748,28.503841],[-100.353142,28.504247],[-100.356037,28.504871],[-100.357982,28.5056],[-100.358712,28.506536],[-100.360356,28.50777],[-100.362148,28.508399],[-100.364738,28.508621],[-100.376959,28.512023],[-100.378252,28.511951],[-100.379079,28.511639],[-100.386963,28.514023],[-100.388262,28.514863],[-100.38886,28.515748],[-100.394988,28.528358],[-100.396177,28.529619],[-100.397736,28.530424],[-100.400209,28.531095],[-100.402214,28.532657],[-100.405058,28.53578],[-100.409887,28.545605],[-100.410928,28.548738],[-100.411388,28.55196],[-100.408888,28.557281],[-100.405171,28.560712],[-100.404752,28.563019],[-100.40425,28.564233],[-100.402866,28.565887],[-100.399593,28.571274],[-100.397301,28.575578],[-100.3968,28.580401],[-100.396933,28.581344],[-100.398096,28.583508],[-100.398385,28.584884],[-100.397494,28.5849],[-100.396895,28.585615],[-100.395911,28.585554],[-100.394826,28.585147],[-100.394247,28.58529],[-100.394938,28.586555],[-100.396658,28.586759],[-100.397007,28.587315],[-100.396913,28.588085],[-100.396127,28.589284],[-100.396246,28.589834],[-100.396071,28.589972],[-100.395342,28.589416],[-100.394444,28.589999],[-100.394208,28.589542],[-100.394064,28.589702],[-100.393871,28.589349],[-100.393447,28.58947],[-100.3924,28.588755],[-100.392188,28.589211],[-100.391771,28.588727],[-100.391335,28.588655],[-100.390886,28.587874],[-100.39002,28.587714],[-100.388936,28.586295],[-100.387821,28.585348],[-100.38511,28.585061],[-100.385078,28.585298],[-100.384524,28.585407],[-100.383439,28.585545],[-100.382778,28.58539],[-100.382349,28.584818],[-100.381375,28.584222],[-100.381002,28.583325],[-100.380573,28.583349],[-100.378488,28.585079],[-100.378427,28.58626],[-100.377055,28.589264],[-100.376992,28.591739],[-100.376723,28.593041],[-100.374266,28.596223],[-100.371758,28.598501],[-100.37032,28.601492],[-100.360287,28.592322]]]}},{"type":"Feature","properties":{"PRECINCT":"3B","VTD":"003B"},"geometry":{"type":"Polygon","coordinates":[[[-100.488064,28.755086],[-100.491083,28.738259],[-100.495922,28.738268],[-100.500136,28.737865],[-100.50717,28.736482],[-100.507613,28.740599],[-100.508255,28.741199],[-100.50915,28.741435],[-100.513516,28.741726],[-100.514541,28.742258],[-100.515156,28.742947],[-100.515565,28.743943],[-100.515536,28.744943],[-100.514504,28.74819],[-100.514399,28.750252],[-100.515472,28.75248],[-100.519226,28.756161],[-100.52157,28.75764],[-100.522483,28.757786],[-100.523862,28.757464],[-100.527216,28.756168],[-100.528475,28.756106],[-100.531567,28.757181],[-100.532862,28.758118],[-100.533408,28.759207],[-100.533551,28.761078],[-100.533017,28.76328],[-100.532211,28.764763],[-100.531343,28.765537],[-100.530281,28.767052],[-100.530004,28.768713],[-100.530046,28.770423],[-100.530464,28.771681],[-100.53194,28.773771],[-100.535023,28.77587],[-100.536445,28.777622],[-100.537772,28.780776],[-100.537733,28.782688],[-100.536944,28.784292],[-100.53517,28.785758],[-100.53345,28.787821],[-100.532431,28.791063],[-100.533402,28.799282],[-100.534246,28.802556],[-100.535438,28.805195],[-100.53583,28.805888],[-100.536459,28.806276],[-100.538815,28.806673],[-100.542173,28.808466],[-100.5452,28.812082],[-100.545819,28.813308],[-100.546216,28.81597],[-100.54604,28.817841],[-100.545499,28.819083],[-100.545479,28.819954],[-100.546576,28.824923],[-100.547324,28.825817],[-100.548895,28.826214],[-100.55313,28.828249],[-100.561443,28.829174],[-100.562777,28.829183],[-100.56583,28.828338],[-100.567637,28.827588],[-100.568521,28.82684],[-100.570475,28.826036],[-100.571599,28.82635],[-100.573944,28.827952],[-100.574728,28.828788],[-100.575118,28.829828],[-100.575891,28.832949],[-100.576866,28.835157],[-100.576294,28.83895],[-100.574397,28.843148],[-100.573536,28.845815],[-100.571833,28.846881],[-100.563092,28.855176],[-100.553341,28.859631],[-100.546499,28.863682],[-100.542832,28.866533],[-100.540065,28.867147],[-100.531692,28.867235],[-100.529412,28.867485],[-100.526988,28.868423],[-100.525965,28.869094],[-100.5242,28.870905],[-100.523462,28.872212],[-100.522993,28.873557],[-100.521617,28.884878],[-100.520407,28.88888],[-100.498054,28.935099],[-100.497021,28.937948],[-100.496702,28.939405],[-100.491088,28.996003],[-100.470869,29.085218],[-100.399991,29.085657],[-100.400257,28.940195],[-100.405669,28.926406],[-100.40948,28.917539],[-100.422054,28.899616],[-100.424634,28.895667],[-100.425156,28.894216],[-100.425423,28.89221],[-100.424856,28.887701],[-100.424849,28.884851],[-100.42502,28.884648],[-100.424449,28.880235],[-100.424352,28.876717],[-100.425983,28.870003],[-100.43357,28.840358],[-100.435903,28.832315],[-100.445464,28.810777],[-100.447493,28.808394],[-100.462553,28.799884],[-100.463724,28.798732],[-100.46494,28.797074],[-100.469893,28.789791],[-100.470529,28.788027],[-100.47115,28.784487],[-100.470624,28.777726],[-100.470665,28.77632],[-100.471197,28.774554],[-100.486539,28.758515],[-100.488064,28.755086]]]}},{"type":"Feature","properties":{"PRECINCT":"3A","VTD":"003A"},"geometry":{"type":"Polygon","coordinates":[[[-100.495497,28.738267],[-100.489394,28.738208],[-100.488177,28.738012],[-100.487851,28.729829],[-100.488054,28.728825],[-100.488023,28.722554],[-100.490479,28.722557],[-100.493245,28.722982],[-100.49333,28.719679],[-100.495121,28.719691],[-100.49587,28.720022],[-100.497498,28.715266],[-100.497927,28.715226],[-100.497272,28.716844],[-100.50479,28.71495],[-100.504962,28.715468],[-100.503781,28.715472],[-100.50381,28.716627],[-100.501971,28.717108],[-100.502369,28.718352],[-100.501326,28.718671],[-100.501594,28.71979],[-100.502762,28.720304],[-100.507236,28.718869],[-100.507625,28.719703],[-100.507877,28.721571],[-100.507706,28.727769],[-100.507113,28.72891],[-100.506791,28.732015],[-100.50717,28.736482],[-100.500136,28.737865],[-100.495497,28.738267]]]}},{"type":"Feature","properties":{"PRECINCT":"3C","VTD":"003C"},"geometry":{"type":"Polygon","coordinates":[[[-100.667548,29.084292],[-100.625361,29.084429],[-100.615811,29.084261],[-100.500357,29.084698],[-100.470869,29.085218],[-100.491088,28.996003],[-100.496702,28.939405],[-100.497021,28.937948],[-100.498054,28.935099],[-100.520407,28.88888],[-100.521617,28.884878],[-100.522993,28.873557],[-100.523462,28.872212],[-100.5242,28.870905],[-100.525965,28.869094],[-100.526988,28.868423],[-100.529412,28.867485],[-100.531692,28.867235],[-100.540065,28.867147],[-100.541952,28.866846],[-100.543327,28.866293],[-100.546499,28.863682],[-100.553341,28.859631],[-100.563092,28.855176],[-100.571833,28.846881],[-100.573536,28.845815],[-100.572824,28.847806],[-100.572992,28.848464],[-100.576988,28.852756],[-100.580502,28.856008],[-100.588192,28.860238],[-100.589854,28.861618],[-100.59104,28.863054],[-100.591468,28.864272],[-100.590761,28.867369],[-100.590855,28.871052],[-100.59044,28.87138],[-100.590369,28.87189],[-100.590768,28.872697],[-100.592033,28.873232],[-100.593214,28.873165],[-100.59493,28.873531],[-100.596804,28.873402],[-100.598101,28.874314],[-100.598877,28.875591],[-100.598731,28.878096],[-100.597941,28.880146],[-100.596118,28.881581],[-100.594848,28.882215],[-100.591041,28.883008],[-100.59031,28.883875],[-100.589705,28.884988],[-100.589499,28.886358],[-100.590651,28.888332],[-100.591517,28.889286],[-100.592504,28.889448],[-100.594287,28.888831],[-100.594929,28.888166],[-100.596267,28.887777],[-100.59729,28.887811],[-100.59987,28.886469],[-100.60099,28.886331],[-100.602172,28.886617],[-100.603011,28.887227],[-100.603841,28.888391],[-100.603793,28.889458],[-100.603568,28.890758],[-100.602294,28.894154],[-100.602562,28.895315],[-100.602209,28.897397],[-100.60232,28.898055],[-100.601299,28.899088],[-100.600749,28.900076],[-100.600768,28.900764],[-100.60109,28.901288],[-100.602595,28.902214],[-100.604249,28.90238],[-100.607763,28.902323],[-100.609732,28.902035],[-100.61218,28.901292],[-100.613368,28.901388],[-100.614222,28.901718],[-100.615792,28.903049],[-100.617016,28.907072],[-100.617451,28.90773],[-100.618216,28.908522],[-100.620942,28.909546],[-100.622436,28.909773],[-100.623482,28.909601],[-100.624218,28.90902],[-100.624899,28.90827],[-100.624706,28.9066],[-100.625407,28.904898],[-100.627729,28.903363],[-100.631611,28.902839],[-100.632236,28.90324],[-100.633277,28.904583],[-100.634485,28.908234],[-100.635347,28.909859],[-100.636619,28.911508],[-100.639242,28.912603],[-100.639978,28.913326],[-100.640763,28.914761],[-100.640672,28.915249],[-100.640092,28.915833],[-100.63917,28.916289],[-100.636015,28.916567],[-100.634449,28.916539],[-100.632956,28.916245],[-100.631061,28.916915],[-100.629993,28.918282],[-100.629581,28.91988],[-100.629706,28.921146],[-100.630188,28.922177],[-100.630228,28.923333],[-100.63072,28.924006],[-100.632401,28.925032],[-100.636855,28.926306],[-100.638857,28.927622],[-100.640794,28.930333],[-100.642552,28.933674],[-100.642983,28.935576],[-100.64375,28.937528],[-100.645342,28.939464],[-100.645841,28.939867],[-100.650229,28.941702],[-100.650894,28.942128],[-100.651219,28.942645],[-100.651512,28.943432],[-100.651542,28.945577],[-100.648911,28.952632],[-100.647268,28.955457],[-100.646993,28.957079],[-100.647143,28.958306],[-100.648285,28.960656],[-100.648828,28.961017],[-100.649932,28.961092],[-100.650334,28.961544],[-100.650319,28.962336],[-100.64943,28.964152],[-100.648157,28.965504],[-100.647153,28.96612],[-100.646636,28.966929],[-100.646382,28.970724],[-100.647192,28.973056],[-100.648113,28.974004],[-100.648654,28.977422],[-100.648104,28.98386],[-100.647286,28.985298],[-100.645894,28.986421],[-100.646903,28.991777],[-100.647826,28.992933],[-100.649164,28.996285],[-100.648529,28.998941],[-100.648664,29.000243],[-100.650946,29.008254],[-100.653758,29.015356],[-100.65611,29.017224],[-100.660208,29.031497],[-100.660351,29.035849],[-100.661885,29.039655],[-100.663212,29.048042],[-100.663059,29.053466],[-100.662508,29.058107],[-100.662625,29.060706],[-100.663187,29.063784],[-100.663746,29.069786],[-100.663863,29.07324],[-100.664021,29.074164],[-100.664609,29.075392],[-100.665464,29.075973],[-100.665873,29.076782],[-100.666941,29.081959],[-100.666848,29.082596],[-100.667548,29.084292]]]}},{"type":"Feature","properties":{"PRECINCT":"1B","VTD":"001B"},"geometry":{"type":"Polygon","coordinates":[[[-100.471755,28.719878],[-100.471853,28.716737],[-100.469462,28.713761],[-100.463651,28.714462],[-100.465014,28.709093],[-100.490991,28.7087],[-100.491097,28.716866],[-100.489732,28.717072],[-100.486968,28.717051],[-100.484024,28.718702],[-100.483329,28.718695],[-100.483148,28.719905],[-100.471755,28.719878]]]}},{"type":"Feature","properties":{"PRECINCT":"4B","VTD":"004B"},"geometry":{"type":"Polygon","coordinates":[[[-100.375351,29.085813],[-100.250348,29.085219],[-100.247894,29.085582],[-100.111406,29.086318],[-100.113286,28.778616],[-100.113134,28.776102],[-100.113298,28.763692],[-100.113523,28.763407],[-100.113315,28.762393],[-100.113978,28.670957],[-100.114317,28.654435],[-100.114269,28.629686],[-100.118599,28.630908],[-100.282919,28.665159],[-100.281666,28.669683],[-100.281555,28.67083],[-100.279828,28.67641],[-100.27785,28.680005],[-100.275706,28.682292],[-100.275022,28.686404],[-100.272269,28.698098],[-100.271911,28.700353],[-100.271834,28.703556],[-100.270043,28.706079],[-100.270016,28.708052],[-100.267609,28.708088],[-100.262177,28.707324],[-100.261627,28.707982],[-100.261864,28.708777],[-100.266988,28.715399],[-100.26415,28.71821],[-100.263282,28.719639],[-100.26358,28.720303],[-100.261977,28.721623],[-100.259883,28.725366],[-100.258354,28.727329],[-100.24386,28.750169],[-100.243828,28.750659],[-100.244305,28.75152],[-100.243812,28.752342],[-100.244043,28.769813],[-100.244267,28.770831],[-100.244069,28.77212],[-100.24411,28.775537],[-100.24533,28.778307],[-100.274843,28.810172],[-100.280045,28.815444],[-100.28419,28.820073],[-100.284684,28.821119],[-100.286238,28.823118],[-100.287266,28.8234],[-100.287706,28.823961],[-100.290854,28.825922],[-100.291707,28.827071],[-100.304798,28.836767],[-100.305436,28.835257],[-100.309763,28.842267],[-100.371202,28.795206],[-100.39185,28.779125],[-100.404668,28.769518],[-100.459683,28.727225],[-100.460425,28.726436],[-100.461071,28.725115],[-100.462334,28.719872],[-100.483148,28.719905],[-100.483329,28.718695],[-100.484024,28.718702],[-100.486968,28.717051],[-100.489732,28.717072],[-100.491097,28.716866],[-100.491124,28.72109],[-100.49044,28.721088],[-100.490479,28.722557],[-100.488023,28.722554],[-100.488054,28.728825],[-100.487851,28.729829],[-100.488177,28.738012],[-100.491083,28.738259],[-100.491135,28.738548],[-100.488064,28.755086],[-100.487392,28.756927],[-100.486539,28.758515],[-100.471197,28.774554],[-100.470665,28.77632],[-100.470624,28.777726],[-100.47115,28.784487],[-100.470529,28.788027],[-100.469893,28.789791],[-100.463724,28.798732],[-100.462553,28.799884],[-100.461097,28.800785],[-100.447493,28.808394],[-100.445464,28.810777],[-100.435903,28.832315],[-100.43357,28.840358],[-100.425983,28.870003],[-100.424352,28.876717],[-100.424449,28.880235],[-100.42502,28.884648],[-100.424849,28.884851],[-100.424856,28.887701],[-100.425423,28.89221],[-100.425156,28.894216],[-100.424634,28.895667],[-100.422054,28.899616],[-100.40948,28.917539],[-100.405669,28.926406],[-100.400257,28.940195],[-100.399991,29.085657],[-100.375351,29.085813]]]}},{"type":"Feature","properties":{"PRECINCT":"2C","VTD":"002C"},"geometry":{"type":"Polygon","coordinates":[[[-100.369486,28.689648],[-100.318597,28.67284],[-100.313602,28.671576],[-100.118599,28.630908],[-100.114269,28.629686],[-100.114091,28.618499],[-100.11402,28.489864],[-100.124082,28.489924],[-100.123668,28.49024],[-100.125335,28.491405],[-100.129488,28.495401],[-100.130815,28.496075],[-100.131928,28.496288],[-100.248532,28.497881],[-100.249757,28.498034],[-100.269613,28.503096],[-100.271116,28.503184],[-100.279266,28.502514],[-100.296698,28.506511],[-100.302072,28.507056],[-100.311336,28.507081],[-100.311339,28.525756],[-100.311607,28.526782],[-100.352826,28.579039],[-100.359961,28.591922],[-100.360885,28.592972],[-100.37032,28.601492],[-100.371758,28.598501],[-100.374266,28.596223],[-100.376723,28.593041],[-100.376992,28.591739],[-100.377055,28.589264],[-100.378427,28.58626],[-100.378488,28.585079],[-100.380268,28.583516],[-100.381002,28.583325],[-100.381375,28.584222],[-100.382349,28.584818],[-100.382778,28.58539],[-100.383439,28.585545],[-100.384524,28.585407],[-100.385078,28.585298],[-100.38511,28.585061],[-100.387821,28.585348],[-100.388936,28.586295],[-100.39002,28.587714],[-100.390955,28.587929],[-100.391459,28.588766],[-100.391771,28.588727],[-100.392307,28.589222],[-100.392326,28.588755],[-100.392687,28.588843],[-100.393447,28.58947],[-100.393871,28.589349],[-100.394064,28.589702],[-100.394208,28.589542],[-100.394444,28.589999],[-100.395342,28.589416],[-100.395965,28.58995],[-100.396183,28.589895],[-100.396127,28.589284],[-100.397025,28.587678],[-100.396658,28.586759],[-100.394938,28.586555],[-100.394247,28.58529],[-100.394826,28.585147],[-100.395911,28.585554],[-100.396895,28.585615],[-100.397494,28.5849],[-100.398385,28.584884],[-100.398902,28.585658],[-100.400266,28.58653],[-100.402236,28.58735],[-100.406214,28.588666],[-100.408968,28.588924],[-100.419389,28.593429],[-100.426603,28.595145],[-100.429856,28.596441],[-100.431321,28.597319],[-100.431871,28.597841],[-100.433623,28.606117],[-100.434173,28.606509],[-100.435334,28.606986],[-100.444975,28.607806],[-100.446659,28.608659],[-100.44732,28.609325],[-100.447598,28.610066],[-100.448624,28.61705],[-100.447557,28.621163],[-100.447043,28.626034],[-100.446944,28.631238],[-100.446492,28.634176],[-100.445646,28.636175],[-100.445526,28.637765],[-100.446163,28.638598],[-100.445749,28.640626],[-100.44591,28.641117],[-100.447091,28.642197],[-100.447619,28.642406],[-100.447445,28.64279],[-100.447801,28.643648],[-100.447894,28.645045],[-100.447502,28.647092],[-100.447932,28.647444],[-100.44792,28.647763],[-100.447627,28.648148],[-100.447238,28.648239],[-100.447062,28.64741],[-100.446228,28.647066],[-100.445325,28.646299],[-100.444379,28.646546],[-100.444179,28.646835],[-100.444185,28.648094],[-100.442325,28.649975],[-100.441264,28.650182],[-100.438825,28.648925],[-100.437145,28.647544],[-100.433169,28.651869],[-100.436217,28.653646],[-100.447925,28.664022],[-100.443748,28.667841],[-100.442833,28.667957],[-100.439289,28.667316],[-100.438616,28.667436],[-100.436388,28.67134],[-100.433713,28.669875],[-100.427067,28.667213],[-100.421391,28.665835],[-100.417774,28.664691],[-100.41709,28.662774],[-100.417402,28.657084],[-100.428481,28.649446],[-100.416878,28.643418],[-100.408724,28.63616],[-100.405692,28.639698],[-100.401379,28.638277],[-100.400539,28.639204],[-100.399746,28.640878],[-100.398738,28.641755],[-100.395794,28.642077],[-100.394721,28.642629],[-100.394445,28.643581],[-100.394861,28.646194],[-100.393313,28.648998],[-100.393307,28.649515],[-100.393945,28.650913],[-100.394733,28.652543],[-100.395758,28.653825],[-100.395955,28.654495],[-100.396036,28.656087],[-100.394719,28.657119],[-100.3945,28.657611],[-100.394863,28.659367],[-100.39469,28.660394],[-100.398686,28.660542],[-100.398224,28.662078],[-100.398267,28.663348],[-100.398791,28.664476],[-100.398684,28.66644],[-100.399139,28.666633],[-100.398921,28.667276],[-100.399345,28.667695],[-100.399027,28.668096],[-100.39844,28.667947],[-100.397436,28.668679],[-100.397267,28.669597],[-100.396637,28.670285],[-100.39678,28.671187],[-100.396312,28.672133],[-100.397522,28.672524],[-100.396393,28.673448],[-100.39512,28.673844],[-100.394371,28.674817],[-100.393448,28.675004],[-100.392724,28.67568],[-100.392873,28.676302],[-100.391513,28.677292],[-100.390415,28.677523],[-100.389642,28.677236],[-100.388306,28.677737],[-100.388587,28.678336],[-100.388256,28.678518],[-100.388212,28.67898],[-100.387807,28.678952],[-100.387757,28.679145],[-100.388486,28.680339],[-100.388667,28.681439],[-100.388373,28.682066],[-100.388535,28.68365],[-100.387442,28.684882],[-100.3865,28.685218],[-100.386637,28.686257],[-100.386475,28.686411],[-100.386762,28.686753],[-100.386056,28.687159],[-100.38487,28.688996],[-100.383766,28.6897],[-100.383079,28.690459],[-100.383303,28.691438],[-100.384126,28.692027],[-100.384441,28.693168],[-100.369486,28.689648]]]}},{"type":"Feature","properties":{"PRECINCT":"1C","VTD":"001C"},"geometry":{"type":"Polygon","coordinates":[[[-100.45823,28.709155],[-100.455123,28.708757],[-100.447718,28.706158],[-100.445987,28.705809],[-100.423463,28.705656],[-100.38791,28.694048],[-100.384441,28.693168],[-100.384126,28.692027],[-100.383303,28.691438],[-100.383079,28.690459],[-100.383766,28.6897],[-100.38487,28.688996],[-100.386056,28.687159],[-100.386762,28.686753],[-100.386475,28.686411],[-100.386637,28.686257],[-100.3865,28.685218],[-100.387442,28.684882],[-100.388535,28.68365],[-100.388373,28.682066],[-100.388667,28.681439],[-100.388486,28.680339],[-100.387757,28.679145],[-100.387807,28.678952],[-100.388212,28.67898],[-100.388256,28.678518],[-100.388587,28.678336],[-100.388306,28.677737],[-100.389642,28.677236],[-100.390415,28.677523],[-100.391513,28.677292],[-100.392873,28.676302],[-100.392724,28.67568],[-100.39356,28.674916],[-100.39424,28.674889],[-100.39512,28.673844],[-100.396093,28.673591],[-100.397085,28.672981],[-100.397497,28.672387],[-100.396717,28.672397],[-100.396312,28.672133],[-100.39678,28.671187],[-100.396637,28.670285],[-100.397267,28.669597],[-100.397436,28.668679],[-100.39844,28.667947],[-100.399027,28.668096],[-100.399345,28.667695],[-100.398921,28.667276],[-100.399139,28.666633],[-100.398684,28.66644],[-100.398791,28.664476],[-100.398267,28.663348],[-100.398224,28.662078],[-100.398686,28.660542],[-100.39469,28.660394],[-100.394863,28.659367],[-100.3945,28.657611],[-100.394719,28.657119],[-100.396036,28.656087],[-100.395955,28.654495],[-100.395758,28.653825],[-100.394733,28.652543],[-100.393281,28.649314],[-100.393619,28.648286],[-100.394814,28.646392],[-100.394442,28.643316],[-100.395078,28.642319],[-100.398738,28.641755],[-100.399746,28.640878],[-100.400539,28.639204],[-100.401379,28.638277],[-100.405692,28.639698],[-100.408724,28.63616],[-100.416878,28.643418],[-100.428481,28.649446],[-100.417402,28.657084],[-100.41709,28.662774],[-100.417686,28.664629],[-100.421391,28.665835],[-100.427067,28.667213],[-100.433713,28.669875],[-100.436388,28.67134],[-100.438616,28.667436],[-100.439289,28.667316],[-100.442833,28.667957],[-100.443748,28.667841],[-100.447968,28.663967],[-100.455102,28.670192],[-100.468049,28.682192],[-100.473974,28.685976],[-100.484813,28.695606],[-100.48501,28.696271],[-100.484797,28.69799],[-100.48324,28.701216],[-100.483204,28.70884],[-100.45823,28.709155]]]}}]}