{"type":"FeatureCollection","features":[{"type":"Feature","properties":{"PRECINCT":"montgomery:100","COUNTY":"Montgomery"},"geometry":{"type":"Polygon","coordinates":[[[-95.36375,30.13598],[-95.36264,30.13609],[-95.3609,30.13758],[-95.35866,30.13714],[-95.35666,30.13801],[-95.35555,30.13808],[-95.35508,30.13831],[-95.3531,30.13822],[-95.35144,30.13875],[-95.35004,30.13776],[-95.34918,30.13682],[-95.34725,30.13595],[-95.34588,30.13451],[-95.34575,30.13403],[-95.34528,30.13373],[-95.34425,30.13391],[-95.34172,30.13377],[-95.3399,30.13327],[-95.33845,30.13348],[-95.33787,30.13281],[-95.33624,30.1324],[-95.33307,30.13272],[-95.3322,30.13235],[-95.33099,30.13123],[-95.32954,30.12871],[-95.32897,30.12523],[-95.32794,30.12252],[-95.32857,30.11936],[-95.32818,30.11835],[-95.32707,30.11751],[-95.32491,30.11712],[-95.32306,30.11863],[-95.32238,30.11888],[-95.32133,30.11879],[-95.32022,30.11794],[-95.31983,30.1153],[-95.3193,30.11386],[-95.31811,30.11306],[-95.31482,30.11216],[-95.31429,30.11164],[-95.31411,30.11102],[-95.31467,30.10784],[-95.31475,30.10153],[-95.31409,30.09979],[-95.31338,30.09908],[-95.31156,30.09798],[-95.31104,30.09677],[-95.31117,30.09576],[-95.31172,30.09448],[-95.31407,30.09273],[-95.31474,30.0918],[-95.31475,30.09118],[-95.31315,30.08993],[-95.31022,30.08978],[-95.30806,30.08919],[-95.30743,30.08846],[-95.30722,30.08778],[-95.3074,30.08675],[-95.30714,30.08599],[-95.30641,30.08536],[-95.30404,30.08514],[-95.30033,30.08583],[-95.29928,30.08575],[-95.29745,30.08475],[-95.29483,30.08185],[-95.29384,30.08146],[-95.28833,30.08033],[-95.28505,30.07856],[-95.28198,30.07794],[-95.28052,30.07699],[-95.28027,30.0748],[-95.28181,30.07196],[-95.28196,30.07112],[-95.2818,30.07051],[-95.28104,30.06961],[-95.27791,30.06729],[-95.27648,30.06343],[-95.27447,30.06012],[-95.27295,30.0567],[-95.27067,30.04933],[-95.26938,30.04778],[-95.26896,30.04646],[-95.26898,30.04494],[-95.27103,30.04294],[-95.27132,30.04244],[-95.27133,30.04168],[-95.27105,30.04117],[-95.26975,30.04016],[-95.2667,30.03976],[-95.26554,30.03887],[-95.26383,30.0352],[-95.26368,30.03252],[-95.26401,30.03222],[-95.26461,30.03232],[-95.26823,30.03193],[-95.2713,30.03251],[-95.27277,30.03253],[-95.27844,30.03101],[-95.28295,30.03059],[-95.28706,30.0289],[-95.29268,30.02776],[-95.29291,30.02775],[-95.29371,30.02949],[-95.29412,30.02983],[-95.29722,30.03137],[-95.29993,30.03219],[-95.30274,30.03215],[-95.30435,30.0298],[-95.30472,30.02963],[-95.3056,30.02977],[-95.308,30.03191],[-95.31099,30.03289],[-95.31256,30.0351],[-95.31277,30.03682],[-95.31202,30.04044],[-95.31128,30.04231],[-95.30976,30.04326],[-95.30941,30.04366],[-95.30924,30.04458],[-95.30975,30.04589],[-95.31139,30.04698],[-95.31234,30.04807],[-95.31324,30.05078],[-95.31595,30.05384],[-95.31657,30.05419],[-95.31783,30.05415],[-95.31977,30.05272],[-95.32117,30.05284],[-95.32182,30.05315],[-95.32295,30.0546],[-95.32374,30.05623],[-95.32703,30.05804],[-95.328,30.05975],[-95.32809,30.0613],[-95.32878,30.06222],[-95.33287,30.06342],[-95.33543,30.06282],[-95.3363,30.06281],[-95.33711,30.06315],[-95.33757,30.06382],[-95.33814,30.06608],[-95.33931,30.06662],[-95.34109,30.06694],[-95.34287,30.06797],[-95.34395,30.07067],[-95.34469,30.07175],[-95.34603,30.07257],[-95.34833,30.07293],[-95.34915,30.07334],[-95.34952,30.07394],[-95.34933,30.07609],[-95.34954,30.0764],[-95.35053,30.07665],[-95.35264,30.07629],[-95.35363,30.07634],[-95.3627,30.08599],[-95.35024,30.09396],[-95.3517,30.09495],[-95.35328,30.09668],[-95.35403,30.09717],[-95.3533,30.09862],[-95.35338,30.09957],[-95.35384,30.10061],[-95.35599,30.10327],[-95.35864,30.10564],[-95.36026,30.10678],[-95.36093,30.10868],[-95.36343,30.11123],[-95.36119,30.11212],[-95.35792,30.11227],[-95.35831,30.11407],[-95.35911,30.11472],[-95.36171,30.11536],[-95.36314,30.11611],[-95.36384,30.11742],[-95.36398,30.1191],[-95.36493,30.1205],[-95.36551,30.1208],[-95.36872,30.12116],[-95.36958,30.12158],[-95.371,30.1231],[-95.37207,30.12233],[-95.37224,30.12254],[-95.37178,30.12287],[-95.37282,30.12407],[-95.37375,30.12448],[-95.37441,30.12449],[-95.37488,30.12563],[-95.37445,30.12577],[-95.37477,30.1269],[-95.37535,30.12751],[-95.37604,30.12789],[-95.37894,30.1282],[-95.37969,30.12855],[-95.38119,30.12986],[-95.38009,30.13062],[-95.37174,30.13496],[-95.36549,30.1393],[-95.36483,30.13882],[-95.36465,30.13664],[-95.36375,30.13598]]]}},{"type":"Feature","properties":{"PRECINCT":"montgomery:24","COUNTY":"Montgomery"},"geometry":{"type":"Polygon","coordinates":[[[-95.44657,30.19805],[-95.44529,30.19292],[-95.43241,30.19307],[-95.43238,30.19049],[-95.41846,30.19059],[-95.41849,30.19425],[-95.40366,30.19435],[-95.40364,30.1932],[-95.40316,30.1932],[-95.40317,30.19436],[-95.38747,30.1945],[-95.38561,30.19338],[-95.38461,30.19233],[-95.38437,30.18983],[-95.38384,30.18891],[-95.38247,30.18765],[-95.38184,30.18649],[-95.38184,30.18552],[-95.38218,30.18477],[-95.38395,30.18222],[-95.383,30.17966],[-95.38221,30.17874],[-95.37904,30.17721],[-95.37859,30.17668],[-95.37859,30.17613],[-95.38044,30.17189],[-95.38181,30.17036],[-95.38192,30.16951],[-95.38123,30.16885],[-95.3768,30.16596],[-95.37556,30.16427],[-95.37538,30.16365],[-95.37577,30.16282],[-95.37574,30.16223],[-95.37522,30.16163],[-95.37155,30.16143],[-95.37079,30.16108],[-95.37029,30.15995],[-95.37644,30.16023],[-95.38949,30.16004],[-95.38949,30.15986],[-95.40928,30.15973],[-95.40912,30.15426],[-95.40633,30.15429],[-95.40634,30.15358],[-95.40754,30.15355],[-95.4075,30.15251],[-95.41004,30.15245],[-95.41004,30.15336],[-95.41281,30.1534],[-95.41272,30.15533],[-95.41408,30.15538],[-95.41411,30.15653],[-95.43346,30.15637],[-95.43446,30.16056],[-95.43752,30.16064],[-95.4388,30.16581],[-95.44121,30.1655],[-95.44134,30.16949],[-95.45116,30.16944],[-95.45306,30.18877],[-95.4548,30.19786],[-95.44657,30.19805]]]}},{"type":"Feature","properties":{"PRECINCT":"montgomery:31","COUNTY":"Montgomery"},"geometry":{"type":"Polygon","coordinates":[[[-95.45562,30.20183],[-95.45306,30.18877],[-95.45197,30.17826],[-95.45548,30.17801],[-95.45927,30.1771],[-95.47135,30.17674],[-95.47108,30.17705],[-95.47124,30.17774],[-95.47064,30.17806],[-95.4718,30.17835],[-95.47306,30.17952],[-95.47267,30.18067],[-95.47314,30.18211],[-95.47272,30.18243],[-95.47272,30.18445],[-95.47188,30.18488],[-95.47196,30.18605],[-95.47331,30.18754],[-95.47444,30.18806],[-95.47545,30.18967],[-95.47669,30.19042],[-95.47914,30.19099],[-95.48146,30.19184],[-95.48254,30.19184],[-95.48502,30.19261],[-95.48782,30.19289],[-95.48845,30.19359],[-95.48895,30.19492],[-95.48898,30.19529],[-95.48801,30.19616],[-95.48814,30.19685],[-95.48856,30.19731],[-95.48861,30.19818],[-95.4903,30.19851],[-95.49077,30.19881],[-95.49194,30.20169],[-95.49135,30.20368],[-95.48822,30.20256],[-95.48558,30.20261],[-95.48384,30.20327],[-95.47966,30.20573],[-95.47771,30.20638],[-95.45635,30.20759],[-95.45562,30.20183]]]}},{"type":"Feature","properties":{"PRECINCT":"montgomery:32","COUNTY":"Montgomery"},"geometry":{"type":"Polygon","coordinates":[[[-95.47326,30.1549],[-95.47359,30.15238],[-95.47313,30.15047],[-95.46916,30.14397],[-95.46664,30.13854],[-95.4659,30.13743],[-95.45737,30.12929],[-95.45732,30.13002],[-95.45666,30.12974],[-95.45639,30.12838],[-95.45615,30.12818],[-95.45489,30.12739],[-95.453,30.12674],[-95.4583,30.1266],[-95.46101,30.12687],[-95.4661,30.12628],[-95.47201,30.12627],[-95.47215,30.13313],[-95.47284,30.13383],[-95.47563,30.13468],[-95.47683,30.13458],[-95.47979,30.13321],[-95.48122,30.13281],[-95.48888,30.13269],[-95.48909,30.14831],[-95.48833,30.14839],[-95.48809,30.14789],[-95.48622,30.14792],[-95.48568,30.1484],[-95.4856,30.14987],[-95.48516,30.15122],[-95.48431,30.15182],[-95.48278,30.15232],[-95.48263,30.15258],[-95.48257,30.15377],[-95.48283,30.15437],[-95.47326,30.1549]]]}},{"type":"Feature","properties":{"PRECINCT":"montgomery:33","COUNTY":"Montgomery"},"geometry":{"type":"Polygon","coordinates":[[[-95.45197,30.17826],[-95.4504,30.16209],[-95.44949,30.15689],[-95.46189,30.15597],[-95.46159,30.15393],[-95.4605,30.15173],[-95.45856,30.15211],[-95.45855,30.15109],[-95.45932,30.14937],[-95.45949,30.14822],[-95.45918,30.14705],[-95.45818,30.14523],[-95.45802,30.14317],[-95.46157,30.14307],[-95.46329,30.14325],[-95.46526,30.14276],[-95.46675,30.14158],[-95.46788,30.14117],[-95.46916,30.14397],[-95.47313,30.15047],[-95.47361,30.15276],[-95.47326,30.1549],[-95.48283,30.15437],[-95.4832,30.15716],[-95.4828,30.15943],[-95.48161,30.16096],[-95.47888,30.16288],[-95.47826,30.1636],[-95.47741,30.16549],[-95.47467,30.16936],[-95.47407,30.17071],[-95.47411,30.17112],[-95.47311,30.17196],[-95.47176,30.17174],[-95.4709,30.17274],[-95.47113,30.17371],[-95.47076,30.17503],[-95.47127,30.17552],[-95.47135,30.17674],[-95.45927,30.1771],[-95.45548,30.17801],[-95.45197,30.17826]]]}},{"type":"Feature","properties":{"PRECINCT":"montgomery:35","COUNTY":"Montgomery"},"geometry":{"type":"Polygon","coordinates":[[[-95.44134,30.16949],[-95.44121,30.1655],[-95.4388,30.16581],[-95.43752,30.16064],[-95.43446,30.16056],[-95.43346,30.15637],[-95.43618,30.1562],[-95.42606,30.11553],[-95.42673,30.11537],[-95.4291,30.1141],[-95.42968,30.11359],[-95.43062,30.11391],[-95.43284,30.11363],[-95.43513,30.11298],[-95.43586,30.11219],[-95.43606,30.11118],[-95.4366,30.11042],[-95.43806,30.11411],[-95.44121,30.11838],[-95.44218,30.12091],[-95.44973,30.15809],[-95.4504,30.16209],[-95.45116,30.16944],[-95.44134,30.16949]]]}},{"type":"Feature","properties":{"PRECINCT":"montgomery:4","COUNTY":"Montgomery"},"geometry":{"type":"Polygon","coordinates":[[[-95.50673,30.16846],[-95.50402,30.16532],[-95.50124,30.1674],[-95.49953,30.166],[-95.49635,30.16537],[-95.49515,30.16489],[-95.49417,30.16404],[-95.49303,30.16226],[-95.49228,30.16178],[-95.49123,30.16155],[-95.49146,30.15957],[-95.4937,30.1557],[-95.49475,30.1553],[-95.50009,30.15542],[-95.50305,30.15736],[-95.50719,30.16203],[-95.5091,30.16173],[-95.5095,30.16352],[-95.50947,30.16479],[-95.50903,30.16608],[-95.50825,30.16726],[-95.50673,30.16846]]]}},{"type":"Feature","properties":{"PRECINCT":"montgomery:45","COUNTY":"Montgomery"},"geometry":{"type":"Polygon","coordinates":[[[-95.50082,30.14797],[-95.50029,30.14756],[-95.49943,30.14757],[-95.49941,30.14673],[-95.48909,30.14684],[-95.48888,30.13269],[-95.48122,30.13281],[-95.48003,30.13311],[-95.47774,30.13417],[-95.47728,30.13357],[-95.47723,30.13293],[-95.47662,30.13252],[-95.47665,30.13194],[-95.47746,30.13095],[-95.47783,30.1297],[-95.47675,30.12883],[-95.47696,30.12759],[-95.47669,30.12725],[-95.47648,30.12486],[-95.47693,30.12315],[-95.47759,30.12267],[-95.47769,30.1217],[-95.47637,30.12072],[-95.47458,30.12003],[-95.47402,30.12003],[-95.47292,30.12047],[-95.47136,30.11992],[-95.47102,30.11935],[-95.47078,30.11795],[-95.46923,30.11708],[-95.46875,30.11651],[-95.46867,30.1153],[-95.46843,30.11509],[-95.46709,30.11472],[-95.4649,30.11477],[-95.4639,30.11443],[-95.46264,30.11482],[-95.46121,30.11462],[-95.45968,30.11281],[-95.4598,30.1119],[-95.45904,30.11155],[-95.45866,30.11082],[-95.45813,30.11051],[-95.45728,30.11048],[-95.45608,30.1099],[-95.45574,30.10935],[-95.45491,30.10931],[-95.45459,30.10906],[-95.45453,30.10847],[-95.45398,30.1083],[-95.45376,30.10799],[-95.45212,30.10765],[-95.45203,30.1072],[-95.45238,30.10672],[-95.45337,30.10648],[-95.45358,30.10623],[-95.45335,30.10499],[-95.45351,30.10475],[-95.45533,30.10429],[-95.45571,30.10497],[-95.4567,30.10523],[-95.45724,30.1047],[-95.4586,30.1046],[-95.45879,30.10526],[-95.45965,30.10518],[-95.46073,30.10562],[-95.46188,30.10517],[-95.46292,30.1053],[-95.4636,30.10444],[-95.46405,30.10422],[-95.46446,30.10439],[-95.46477,30.10532],[-95.46559,30.10501],[-95.46636,30.10504],[-95.46651,30.10479],[-95.4661,30.10401],[-95.46646,30.10366],[-95.46731,30.10346],[-95.46796,30.1037],[-95.4682,30.10426],[-95.46898,30.10419],[-95.46937,30.10463],[-95.47015,30.10397],[-95.47062,30.10404],[-95.47213,30.10338],[-95.47239,30.104],[-95.47309,30.10462],[-95.47349,30.10367],[-95.47384,30.10349],[-95.47431,30.10388],[-95.47448,30.10329],[-95.47475,30.10323],[-95.4754,30.10354],[-95.47576,30.104],[-95.47746,30.10441],[-95.47792,30.10507],[-95.47921,30.10474],[-95.47957,30.10642],[-95.47986,30.10638],[-95.47993,30.10587],[-95.48028,30.10566],[-95.48065,30.10606],[-95.48185,30.10651],[-95.48228,30.10733],[-95.48307,30.10707],[-95.48343,30.10757],[-95.48462,30.10793],[-95.48539,30.10778],[-95.4883,30.10793],[-95.48858,30.10847],[-95.4894,30.10872],[-95.4904,30.10964],[-95.49128,30.10992],[-95.49115,30.1105],[-95.49225,30.11273],[-95.4919,30.1131],[-95.49246,30.11386],[-95.4921,30.11403],[-95.4918,30.11511],[-95.49264,30.11548],[-95.49253,30.11633],[-95.49336,30.11768],[-95.49426,30.11802],[-95.49524,30.11901],[-95.49628,30.11962],[-95.49637,30.12003],[-95.49591,30.12023],[-95.49617,30.12153],[-95.49724,30.12181],[-95.49726,30.12235],[-95.49761,30.12271],[-95.49749,30.12314],[-95.49787,30.12359],[-95.49716,30.12367],[-95.49704,30.12386],[-95.49732,30.12454],[-95.49717,30.12518],[-95.49772,30.12598],[-95.49691,30.12663],[-95.49607,30.12605],[-95.49581,30.12616],[-95.49607,30.12689],[-95.49568,30.12742],[-95.49587,30.12795],[-95.49619,30.12827],[-95.49697,30.12845],[-95.49708,30.12872],[-95.496,30.12978],[-95.49656,30.13013],[-95.49577,30.13186],[-95.49694,30.13244],[-95.49698,30.13317],[-95.49663,30.13386],[-95.49801,30.13528],[-95.49738,30.13557],[-95.49725,30.1359],[-95.49794,30.13667],[-95.49784,30.13702],[-95.49861,30.13743],[-95.4985,30.13908],[-95.49894,30.13912],[-95.49938,30.13966],[-95.4999,30.14259],[-95.50055,30.14283],[-95.50051,30.14319],[-95.50086,30.14333],[-95.50096,30.14369],[-95.50212,30.14421],[-95.50168,30.14671],[-95.5018,30.14797],[-95.50082,30.14797]]]}},{"type":"Feature","properties":{"PRECINCT":"montgomery:46","COUNTY":"Montgomery"},"geometry":{"type":"Polygon","coordinates":[[[-95.3729,30.09787],[-95.37107,30.09796],[-95.36844,30.09895],[-95.36624,30.09918],[-95.3666,30.09627],[-95.36775,30.09364],[-95.36803,30.0921],[-95.36807,30.08756],[-95.36757,30.08754],[-95.36757,30.08803],[-95.36445,30.08722],[-95.36284,30.08515],[-95.36226,30.08552],[-95.35363,30.07634],[-95.356,30.07732],[-95.35867,30.07653],[-95.35941,30.07658],[-95.35994,30.07686],[-95.3611,30.07815],[-95.36214,30.07839],[-95.36326,30.07796],[-95.36468,30.07682],[-95.36554,30.07659],[-95.3669,30.07784],[-95.36757,30.07802],[-95.36956,30.07796],[-95.37102,30.07833],[-95.37261,30.07917],[-95.37374,30.0803],[-95.37416,30.08158],[-95.37437,30.0835],[-95.37413,30.08474],[-95.37423,30.08563],[-95.37457,30.0862],[-95.37497,30.08637],[-95.37586,30.08603],[-95.37685,30.08602],[-95.3784,30.08716],[-95.37923,30.08748],[-95.38178,30.08714],[-95.3836,30.08794],[-95.38476,30.08777],[-95.38498,30.08732],[-95.38469,30.0864],[-95.38494,30.08575],[-95.38561,30.08519],[-95.38654,30.08475],[-95.3874,30.08467],[-95.38891,30.08516],[-95.38972,30.08516],[-95.39011,30.08463],[-95.39045,30.08323],[-95.3909,30.08286],[-95.39174,30.08273],[-95.39264,30.08322],[-95.39562,30.08403],[-95.3975,30.08531],[-95.39829,30.08556],[-95.39987,30.0899],[-95.40136,30.09113],[-95.40256,30.09174],[-95.4055,30.09209],[-95.40386,30.09375],[-95.40291,30.09611],[-95.40152,30.09714],[-95.38769,30.11057],[-95.38598,30.10821],[-95.38301,30.1052],[-95.37936,30.10276],[-95.37688,30.09944],[-95.37516,30.09839],[-95.3729,30.09787]]]}},{"type":"Feature","properties":{"PRECINCT":"montgomery:47","COUNTY":"Montgomery"},"geometry":{"type":"Polygon","coordinates":[[[-95.38554,30.12007],[-95.38456,30.11802],[-95.38359,30.11846],[-95.38236,30.11734],[-95.38363,30.11706],[-95.38179,30.11567],[-95.38482,30.1133],[-95.40152,30.09714],[-95.40291,30.09611],[-95.40376,30.09391],[-95.40487,30.09259],[-95.4055,30.09209],[-95.40729,30.093],[-95.4094,30.09264],[-95.41003,30.09283],[-95.41091,30.09467],[-95.41256,30.09497],[-95.41292,30.09546],[-95.41064,30.09794],[-95.40716,30.09602],[-95.4065,30.09581],[-95.40619,30.09629],[-95.40582,30.09792],[-95.40596,30.10044],[-95.40514,30.11311],[-95.40377,30.11467],[-95.40327,30.11574],[-95.40359,30.12293],[-95.40179,30.12223],[-95.39912,30.12067],[-95.39756,30.11911],[-95.39369,30.12118],[-95.38391,30.12797],[-95.38377,30.12686],[-95.38396,30.1256],[-95.38527,30.12297],[-95.3856,30.12172],[-95.38554,30.12007]]]}},{"type":"Feature","properties":{"PRECINCT":"montgomery:48","COUNTY":"Montgomery"},"geometry":{"type":"Polygon","coordinates":[[[-95.4929,30.173],[-95.49214,30.17207],[-95.49084,30.17108],[-95.48658,30.16874],[-95.48508,30.16829],[-95.48273,30.16819],[-95.47905,30.16947],[-95.47763,30.16975],[-95.47653,30.16976],[-95.47467,30.16935],[-95.47741,30.16549],[-95.47826,30.1636],[-95.47888,30.16288],[-95.48161,30.16096],[-95.4828,30.15943],[-95.4832,30.15716],[-95.48283,30.15437],[-95.48614,30.15502],[-95.49247,30.15779],[-95.49132,30.15995],[-95.49123,30.16155],[-95.49228,30.16178],[-95.49303,30.16226],[-95.49417,30.16404],[-95.49515,30.16489],[-95.49635,30.16537],[-95.49953,30.166],[-95.50124,30.1674],[-95.50402,30.16532],[-95.50673,30.16846],[-95.50417,30.17021],[-95.50253,30.17277],[-95.50178,30.17244],[-95.50127,30.17331],[-95.50042,30.17358],[-95.49839,30.17308],[-95.49705,30.17542],[-95.49551,30.17714],[-95.49447,30.17589],[-95.4929,30.173]]]}},{"type":"Feature","properties":{"PRECINCT":"montgomery:49","COUNTY":"Montgomery"},"geometry":{"type":"Polygon","coordinates":[[[-95.51199,30.17811],[-95.50937,30.17836],[-95.50544,30.18031],[-95.50315,30.18083],[-95.50049,30.18051],[-95.49917,30.17994],[-95.49809,30.17919],[-95.50012,30.17679],[-95.50417,30.17021],[-95.50673,30.16846],[-95.50815,30.17032],[-95.50912,30.17119],[-95.51503,30.17429],[-95.52002,30.17603],[-95.52676,30.17728],[-95.52599,30.18021],[-95.52452,30.18254],[-95.52191,30.18138],[-95.51777,30.18052],[-95.51416,30.17863],[-95.51199,30.17811]]]}},{"type":"Feature","properties":{"PRECINCT":"montgomery:56","COUNTY":"Montgomery"},"geometry":{"type":"Polygon","coordinates":[[[-95.44807,30.24496],[-95.44807,30.24411],[-95.44863,30.24274],[-95.4482,30.24217],[-95.44572,30.24205],[-95.44417,30.24231],[-95.44322,30.2416],[-95.44271,30.24052],[-95.44229,30.24038],[-95.44071,30.24052],[-95.43936,30.23997],[-95.43738,30.2378],[-95.43641,30.23787],[-95.43567,30.23959],[-95.43512,30.2397],[-95.43451,30.2394],[-95.43417,30.23908],[-95.43401,30.23828],[-95.43445,30.23544],[-95.43421,30.23501],[-95.43263,30.23402],[-95.43208,30.23343],[-95.43208,30.2329],[-95.43289,30.23237],[-95.43273,30.23152],[-95.43226,30.23116],[-95.43094,30.23104],[-95.42996,30.23132],[-95.42938,30.23187],[-95.42844,30.23208],[-95.42772,30.2318],[-95.42743,30.23134],[-95.42741,30.23045],[-95.42651,30.22963],[-95.42609,30.22681],[-95.43299,30.22676],[-95.43297,30.22411],[-95.4344,30.22409],[-95.4342,30.20847],[-95.4468,30.20837],[-95.45617,30.20735],[-95.45874,30.2353],[-95.45836,30.2409],[-95.45788,30.2433],[-95.45747,30.24491],[-95.45675,30.24463],[-95.45575,30.24507],[-95.45433,30.24507],[-95.45391,30.24546],[-95.45369,30.24596],[-95.45388,30.2478],[-95.45314,30.24853],[-95.45124,30.24851],[-95.45021,30.247],[-95.44863,30.24576],[-95.44807,30.24496]]]}},{"type":"Feature","properties":{"PRECINCT":"montgomery:58","COUNTY":"Montgomery"},"geometry":{"type":"Polygon","coordinates":[[[-95.48299,30.19195],[-95.48146,30.19184],[-95.48116,30.19164],[-95.48291,30.18911],[-95.48766,30.18482],[-95.48887,30.18588],[-95.48977,30.18737],[-95.49079,30.18697],[-95.49297,30.18552],[-95.49711,30.18467],[-95.49603,30.18214],[-95.4982,30.18041],[-95.50142,30.18152],[-95.50157,30.18077],[-95.50315,30.18083],[-95.50451,30.18062],[-95.50894,30.17849],[-95.51032,30.17817],[-95.51199,30.17811],[-95.51416,30.17863],[-95.51777,30.18052],[-95.52191,30.18138],[-95.52452,30.18254],[-95.52371,30.1842],[-95.52355,30.18639],[-95.52469,30.1897],[-95.52522,30.19206],[-95.52402,30.19162],[-95.5238,30.19132],[-95.52158,30.19111],[-95.51991,30.19043],[-95.51753,30.19112],[-95.51709,30.19135],[-95.51693,30.19172],[-95.51596,30.19195],[-95.51529,30.19171],[-95.51487,30.19121],[-95.51478,30.19068],[-95.51243,30.18785],[-95.51113,30.18767],[-95.50895,30.18844],[-95.50708,30.19079],[-95.50533,30.19065],[-95.50486,30.19029],[-95.50306,30.19033],[-95.50039,30.19095],[-95.49889,30.19085],[-95.49768,30.19038],[-95.49685,30.1907],[-95.49567,30.19041],[-95.49416,30.18883],[-95.49266,30.18872],[-95.4922,30.189],[-95.49145,30.19009],[-95.4895,30.19091],[-95.48874,30.19174],[-95.48771,30.19211],[-95.48713,30.1927],[-95.48639,30.19282],[-95.48502,30.19261],[-95.48299,30.19195]]]}},{"type":"Feature","properties":{"PRECINCT":"montgomery:59","COUNTY":"Montgomery"},"geometry":{"type":"Polygon","coordinates":[[[-95.5156,30.19826],[-95.51351,30.19861],[-95.51034,30.20087],[-95.50704,30.1977],[-95.50602,30.19692],[-95.50454,30.19621],[-95.5022,30.19582],[-95.49863,30.19629],[-95.49709,30.19626],[-95.49572,30.19593],[-95.4945,30.19535],[-95.49265,30.19354],[-95.4911,30.19029],[-95.49235,30.18887],[-95.49341,30.18874],[-95.49416,30.18883],[-95.49567,30.19041],[-95.49685,30.1907],[-95.49768,30.19038],[-95.49889,30.19085],[-95.50039,30.19095],[-95.50306,30.19033],[-95.50486,30.19029],[-95.50533,30.19065],[-95.50708,30.19079],[-95.50895,30.18844],[-95.51113,30.18767],[-95.51243,30.18785],[-95.51478,30.19068],[-95.51487,30.19121],[-95.51529,30.19171],[-95.51596,30.19195],[-95.51693,30.19172],[-95.51709,30.19135],[-95.51753,30.19112],[-95.51991,30.19043],[-95.52158,30.19111],[-95.5238,30.19132],[-95.52402,30.19162],[-95.52522,30.19206],[-95.52587,30.19503],[-95.52777,30.19865],[-95.52851,30.20067],[-95.52848,30.20209],[-95.52779,30.20295],[-95.52526,30.20463],[-95.52387,30.20488],[-95.52274,30.2047],[-95.52168,30.20418],[-95.52068,30.20309],[-95.51999,30.20093],[-95.51913,30.19974],[-95.51794,30.19903],[-95.5156,30.19826]]]}},{"type":"Feature","properties":{"PRECINCT":"montgomery:61","COUNTY":"Montgomery"},"geometry":{"type":"Polygon","coordinates":[[[-95.55194,30.18108],[-95.5486,30.18111],[-95.54157,30.18187],[-95.53914,30.18164],[-95.53701,30.18091],[-95.53144,30.1781],[-95.52156,30.1764],[-95.51707,30.17512],[-95.5118,30.17272],[-95.50912,30.17119],[-95.50815,30.17032],[-95.50673,30.16846],[-95.50869,30.16669],[-95.5092,30.16573],[-95.50953,30.16432],[-95.50899,30.16009],[-95.50962,30.15717],[-95.50958,30.15549],[-95.50903,30.15382],[-95.50684,30.15],[-95.50778,30.1493],[-95.50832,30.14785],[-95.50884,30.14726],[-95.50894,30.14782],[-95.50948,30.14835],[-95.51113,30.14883],[-95.51255,30.14957],[-95.51315,30.15044],[-95.5146,30.15119],[-95.51529,30.15123],[-95.51533,30.1518],[-95.51611,30.15214],[-95.51608,30.15263],[-95.51682,30.15311],[-95.51684,30.15374],[-95.51726,30.15423],[-95.51792,30.1541],[-95.51853,30.1534],[-95.51824,30.15297],[-95.51868,30.15218],[-95.52,30.15281],[-95.51951,30.15305],[-95.51939,30.15342],[-95.52091,30.1542],[-95.52109,30.15509],[-95.52237,30.15508],[-95.52198,30.15555],[-95.52227,30.15637],[-95.52351,30.15741],[-95.5235,30.15802],[-95.52301,30.15852],[-95.52333,30.15868],[-95.5239,30.15844],[-95.52436,30.15874],[-95.52386,30.1612],[-95.52452,30.16204],[-95.52456,30.16278],[-95.52498,30.16335],[-95.52632,30.16348],[-95.52708,30.16391],[-95.52753,30.16469],[-95.52806,30.16495],[-95.5292,30.16486],[-95.5292,30.16555],[-95.52953,30.16582],[-95.53045,30.16577],[-95.53109,30.16506],[-95.53101,30.16467],[-95.53155,30.16445],[-95.53168,30.16511],[-95.53268,30.1659],[-95.53405,30.1664],[-95.53377,30.16701],[-95.5339,30.16717],[-95.53509,30.1675],[-95.53467,30.16803],[-95.53614,30.16847],[-95.53679,30.16822],[-95.53712,30.1693],[-95.53753,30.16929],[-95.53886,30.16854],[-95.53972,30.16954],[-95.54203,30.17053],[-95.54246,30.17034],[-95.54304,30.17045],[-95.54284,30.16979],[-95.5433,30.17017],[-95.54361,30.17014],[-95.54468,30.1694],[-95.54489,30.16901],[-95.54562,30.16953],[-95.54712,30.16904],[-95.54826,30.17011],[-95.54862,30.16996],[-95.54835,30.16935],[-95.54883,30.16925],[-95.54921,30.16944],[-95.54966,30.17015],[-95.5505,30.17005],[-95.5509,30.17047],[-95.55183,30.17059],[-95.5525,30.17035],[-95.55295,30.1699],[-95.55282,30.16918],[-95.5533,30.16847],[-95.5542,30.16807],[-95.5548,30.16752],[-95.55541,30.1673],[-95.55598,30.16737],[-95.55603,30.16708],[-95.55661,30.16669],[-95.55657,30.16621],[-95.5568,30.16591],[-95.55736,30.16671],[-95.55832,30.16702],[-95.55832,30.1807],[-95.56119,30.18067],[-95.56184,30.18145],[-95.56134,30.18276],[-95.56124,30.18419],[-95.55605,30.18191],[-95.55194,30.18108]]]}},{"type":"Feature","properties":{"PRECINCT":"montgomery:62","COUNTY":"Montgomery"},"geometry":{"type":"Polygon","coordinates":[[[-95.47272,30.18445],[-95.47272,30.18243],[-95.47314,30.18211],[-95.47267,30.18067],[-95.47306,30.17952],[-95.4718,30.17835],[-95.47064,30.17806],[-95.47124,30.17774],[-95.47108,30.17705],[-95.4714,30.17668],[-95.47127,30.17552],[-95.47076,30.17503],[-95.47113,30.17371],[-95.4709,30.17274],[-95.47176,30.17174],[-95.47338,30.17187],[-95.47411,30.17112],[-95.47407,30.17071],[-95.47467,30.16935],[-95.47653,30.16976],[-95.47798,30.16971],[-95.48155,30.16848],[-95.48316,30.16815],[-95.48478,30.16824],[-95.48619,30.16859],[-95.49084,30.17108],[-95.49214,30.17207],[-95.49277,30.17279],[-95.49447,30.17589],[-95.49551,30.17714],[-95.49705,30.17542],[-95.49839,30.17308],[-95.50042,30.17358],[-95.50127,30.17331],[-95.50178,30.17244],[-95.50253,30.17277],[-95.50012,30.17679],[-95.49809,30.17919],[-95.49954,30.18015],[-95.50157,30.18077],[-95.50142,30.18152],[-95.4982,30.18041],[-95.49603,30.18214],[-95.49711,30.18467],[-95.49297,30.18552],[-95.49079,30.18697],[-95.48977,30.18737],[-95.48887,30.18588],[-95.48766,30.18482],[-95.48291,30.18911],[-95.48116,30.19164],[-95.47714,30.19061],[-95.47545,30.18967],[-95.47444,30.18806],[-95.47331,30.18754],[-95.47196,30.18605],[-95.47188,30.18488],[-95.47272,30.18445]]]}},{"type":"Feature","properties":{"PRECINCT":"montgomery:67","COUNTY":"Montgomery"},"geometry":{"type":"Polygon","coordinates":[[[-95.44949,30.15689],[-95.44769,30.14841],[-95.44806,30.1484],[-95.44824,30.14922],[-95.44922,30.149],[-95.44893,30.14519],[-95.44812,30.14067],[-95.45369,30.14064],[-95.45391,30.13863],[-95.4568,30.13459],[-95.45789,30.13415],[-95.45803,30.13358],[-95.45682,30.13327],[-95.45728,30.13241],[-95.45737,30.12929],[-95.46531,30.13673],[-95.46664,30.13854],[-95.46788,30.14117],[-95.46675,30.14158],[-95.46526,30.14276],[-95.46329,30.14325],[-95.46157,30.14307],[-95.45802,30.14317],[-95.45818,30.14523],[-95.45918,30.14705],[-95.45949,30.14822],[-95.45932,30.14937],[-95.45855,30.15109],[-95.45856,30.15211],[-95.4605,30.15173],[-95.46159,30.15393],[-95.46189,30.15597],[-95.44949,30.15689]]]}},{"type":"Feature","properties":{"PRECINCT":"montgomery:68","COUNTY":"Montgomery"},"geometry":{"type":"Polygon","coordinates":[[[-95.41376,30.13929],[-95.41353,30.13791],[-95.41,30.13781],[-95.40956,30.13763],[-95.40587,30.13339],[-95.40554,30.12664],[-95.40587,30.12637],[-95.40584,30.12553],[-95.40359,30.12465],[-95.40327,30.11574],[-95.40377,30.11467],[-95.40514,30.11311],[-95.40596,30.10044],[-95.40582,30.09792],[-95.4065,30.09581],[-95.41064,30.09794],[-95.41054,30.09851],[-95.41079,30.09943],[-95.41221,30.09939],[-95.4116,30.10031],[-95.41174,30.10085],[-95.41385,30.10134],[-95.41639,30.10314],[-95.41799,30.10393],[-95.41894,30.10478],[-95.41884,30.10872],[-95.42046,30.1087],[-95.42118,30.10943],[-95.42245,30.10983],[-95.423,30.11086],[-95.42291,30.1121],[-95.42347,30.11332],[-95.42357,30.11453],[-95.42387,30.11514],[-95.42422,30.11549],[-95.42473,30.1156],[-95.42606,30.11553],[-95.43103,30.13528],[-95.42815,30.13493],[-95.42239,30.13526],[-95.42226,30.13827],[-95.4206,30.13825],[-95.42068,30.1395],[-95.41785,30.13954],[-95.41515,30.1411],[-95.41376,30.13929]]]}},{"type":"Feature","properties":{"PRECINCT":"montgomery:69","COUNTY":"Montgomery"},"geometry":{"type":"Polygon","coordinates":[[[-95.50987,30.22613],[-95.50032,30.21016],[-95.50716,30.20719],[-95.51381,30.20601],[-95.51437,30.20562],[-95.51486,30.20482],[-95.51644,30.20523],[-95.51978,30.20541],[-95.52181,30.20578],[-95.52604,30.20758],[-95.52188,30.21428],[-95.52064,30.21738],[-95.52051,30.22359],[-95.52121,30.22783],[-95.51159,30.22964],[-95.50987,30.22613]]]}},{"type":"Feature","properties":{"PRECINCT":"montgomery:70","COUNTY":"Montgomery"},"geometry":{"type":"Polygon","coordinates":[[[-95.50509,30.2065],[-95.50387,30.20629],[-95.503,30.20523],[-95.50182,30.20483],[-95.49763,30.20465],[-95.49688,30.20397],[-95.49529,30.20148],[-95.49465,30.20126],[-95.49334,30.20126],[-95.49297,30.2008],[-95.49297,30.19948],[-95.49231,30.19874],[-95.49154,30.19838],[-95.49091,30.19831],[-95.49004,30.19859],[-95.4888,30.19834],[-95.48801,30.19616],[-95.48898,30.19529],[-95.48895,30.19492],[-95.48819,30.19321],[-95.48713,30.1927],[-95.48716,30.1925],[-95.48874,30.19174],[-95.4895,30.19091],[-95.4911,30.19029],[-95.49265,30.19354],[-95.4945,30.19535],[-95.49572,30.19593],[-95.49709,30.19626],[-95.49863,30.19629],[-95.5022,30.19582],[-95.50454,30.19621],[-95.50602,30.19692],[-95.50704,30.1977],[-95.51034,30.20087],[-95.5137,30.19852],[-95.5152,30.19825],[-95.51659,30.19846],[-95.51864,30.19938],[-95.51956,30.20019],[-95.52049,30.20274],[-95.52111,30.20363],[-95.52051,30.20425],[-95.52025,30.20547],[-95.51644,30.20523],[-95.51486,30.20482],[-95.51437,30.20562],[-95.51365,30.20606],[-95.50778,30.20703],[-95.50568,30.20782],[-95.50509,30.2065]]]}},{"type":"Feature","properties":{"PRECINCT":"montgomery:71","COUNTY":"Montgomery"},"geometry":{"type":"Polygon","coordinates":[[[-95.54588,30.21596],[-95.5438,30.21557],[-95.53731,30.2135],[-95.53811,30.21185],[-95.54032,30.20923],[-95.54039,30.20807],[-95.53963,30.20595],[-95.53966,30.20516],[-95.53624,30.20491],[-95.53456,30.20529],[-95.53331,30.20629],[-95.53229,30.20825],[-95.53078,30.20744],[-95.52807,30.20475],[-95.53198,30.20161],[-95.53517,30.19662],[-95.53776,30.19817],[-95.53946,30.19896],[-95.53951,30.19878],[-95.53982,30.19912],[-95.5409,30.19919],[-95.54217,30.2],[-95.54407,30.19954],[-95.54438,30.19972],[-95.54478,30.20062],[-95.54657,30.20064],[-95.54902,30.20153],[-95.54992,30.20321],[-95.55158,30.20476],[-95.55374,30.20518],[-95.55472,30.20591],[-95.55559,30.20626],[-95.55672,30.2063],[-95.55978,30.20729],[-95.56065,30.20704],[-95.5611,30.20731],[-95.56194,30.2072],[-95.56231,30.2074],[-95.56313,30.2072],[-95.56384,30.2074],[-95.56474,30.20727],[-95.56666,30.20635],[-95.56767,30.20669],[-95.56822,30.20665],[-95.56877,30.20624],[-95.57004,30.20642],[-95.57078,30.20688],[-95.57223,30.20677],[-95.57318,30.20709],[-95.57352,30.20702],[-95.57394,30.20631],[-95.57476,30.20596],[-95.57545,30.20537],[-95.57697,30.20512],[-95.5784,30.2059],[-95.57088,30.21037],[-95.56969,30.21137],[-95.56942,30.21123],[-95.5691,30.21135],[-95.56457,30.21422],[-95.56274,30.21567],[-95.54887,30.2161],[-95.54588,30.21596]]]}},{"type":"Feature","properties":{"PRECINCT":"montgomery:75","COUNTY":"Montgomery"},"geometry":{"type":"Polygon","coordinates":[[[-95.4562,30.2076],[-95.47743,30.20642],[-95.47883,30.20609],[-95.48384,30.20327],[-95.48578,30.20258],[-95.48822,30.20256],[-95.49135,30.20368],[-95.49194,30.20169],[-95.49104,30.19934],[-95.49077,30.19881],[-95.4903,30.19851],[-95.49091,30.19831],[-95.49231,30.19874],[-95.49283,30.19925],[-95.49297,30.2008],[-95.49334,30.20126],[-95.49465,30.20126],[-95.49552,30.20166],[-95.49688,30.20397],[-95.49763,30.20465],[-95.50182,30.20483],[-95.503,30.20523],[-95.50387,30.20629],[-95.50509,30.2065],[-95.50568,30.20782],[-95.50019,30.21022],[-95.49813,30.20744],[-95.4805,30.20768],[-95.48081,30.23504],[-95.46996,30.23663],[-95.45869,30.23674],[-95.45862,30.23379],[-95.4562,30.2076]]]}},{"type":"Feature","properties":{"PRECINCT":"montgomery:78","COUNTY":"Montgomery"},"geometry":{"type":"Polygon","coordinates":[[[-95.52025,30.20547],[-95.52051,30.20425],[-95.52111,30.20363],[-95.52184,30.20429],[-95.52274,30.2047],[-95.52358,30.20487],[-95.5248,30.20478],[-95.52572,30.20439],[-95.52779,30.20295],[-95.52855,30.20183],[-95.52857,30.20085],[-95.52788,30.19892],[-95.52587,30.19503],[-95.52487,30.19028],[-95.52355,30.18639],[-95.52378,30.18398],[-95.52599,30.18021],[-95.52676,30.17728],[-95.53187,30.17825],[-95.53701,30.18091],[-95.53964,30.18174],[-95.54157,30.18187],[-95.55028,30.18102],[-95.55402,30.18137],[-95.55797,30.18268],[-95.56296,30.18501],[-95.56534,30.18649],[-95.56428,30.1881],[-95.56412,30.19162],[-95.56338,30.19309],[-95.56133,30.19487],[-95.55963,30.19747],[-95.5566,30.19965],[-95.55532,30.20177],[-95.55451,30.20367],[-95.55347,30.20512],[-95.55126,30.20458],[-95.54992,30.20321],[-95.54902,30.20153],[-95.54657,30.20064],[-95.54478,30.20062],[-95.54438,30.19972],[-95.54407,30.19954],[-95.54217,30.2],[-95.5409,30.19919],[-95.53982,30.19912],[-95.53951,30.19878],[-95.53946,30.19896],[-95.53776,30.19817],[-95.53517,30.19662],[-95.53198,30.20161],[-95.52807,30.20475],[-95.52604,30.20758],[-95.52287,30.20612],[-95.52025,30.20547]]]}},{"type":"Feature","properties":{"PRECINCT":"montgomery:79","COUNTY":"Montgomery"},"geometry":{"type":"Polygon","coordinates":[[[-95.49959,30.15531],[-95.49421,30.15538],[-95.4936,30.15583],[-95.49247,30.15779],[-95.48614,30.15502],[-95.48283,30.15437],[-95.48257,30.15377],[-95.48263,30.15258],[-95.48278,30.15232],[-95.48431,30.15182],[-95.48516,30.15122],[-95.4856,30.14987],[-95.48568,30.1484],[-95.48622,30.14792],[-95.48809,30.14789],[-95.48833,30.14839],[-95.48909,30.14831],[-95.48909,30.14684],[-95.49941,30.14673],[-95.49943,30.14757],[-95.50029,30.14756],[-95.50082,30.14797],[-95.5018,30.14797],[-95.50168,30.14671],[-95.50212,30.14421],[-95.5027,30.14402],[-95.50316,30.14478],[-95.50352,30.14448],[-95.50379,30.14454],[-95.50353,30.14527],[-95.50499,30.14513],[-95.50684,30.14562],[-95.50699,30.14631],[-95.50884,30.14726],[-95.50832,30.14785],[-95.50778,30.1493],[-95.50684,30.15],[-95.50903,30.15382],[-95.50958,30.15549],[-95.50962,30.15717],[-95.50899,30.16009],[-95.5091,30.16173],[-95.50719,30.16203],[-95.50281,30.15714],[-95.50071,30.15574],[-95.49959,30.15531]]]}},{"type":"Feature","properties":{"PRECINCT":"montgomery:80","COUNTY":"Montgomery"},"geometry":{"type":"Polygon","coordinates":[[[-95.38957,30.15376],[-95.3961,30.14901],[-95.39758,30.14886],[-95.39821,30.14997],[-95.40206,30.14759],[-95.40049,30.14532],[-95.40016,30.14408],[-95.40011,30.14295],[-95.40098,30.13856],[-95.4009,30.13683],[-95.40032,30.13502],[-95.39778,30.12967],[-95.39817,30.12711],[-95.39902,30.12571],[-95.40182,30.12224],[-95.40359,30.12293],[-95.40359,30.12465],[-95.40584,30.12553],[-95.40587,30.12637],[-95.40554,30.12664],[-95.40587,30.13339],[-95.40956,30.13763],[-95.41,30.13781],[-95.41353,30.13791],[-95.41376,30.13929],[-95.41515,30.1411],[-95.41785,30.13954],[-95.42068,30.1395],[-95.4206,30.13825],[-95.42226,30.13827],[-95.42239,30.13526],[-95.42815,30.13493],[-95.43103,30.13528],[-95.43618,30.1562],[-95.43469,30.15638],[-95.41411,30.15653],[-95.41408,30.15538],[-95.41272,30.15533],[-95.41281,30.1534],[-95.41004,30.15336],[-95.41004,30.15245],[-95.4075,30.15251],[-95.40754,30.15355],[-95.40634,30.15358],[-95.40633,30.15429],[-95.40912,30.15426],[-95.40928,30.15973],[-95.38087,30.1601],[-95.38834,30.15466],[-95.38958,30.15465],[-95.38957,30.15376]]]}},{"type":"Feature","properties":{"PRECINCT":"montgomery:81","COUNTY":"Montgomery"},"geometry":{"type":"Polygon","coordinates":[[[-95.52051,30.22359],[-95.52064,30.21738],[-95.52188,30.21428],[-95.52698,30.20604],[-95.52807,30.20475],[-95.53078,30.20744],[-95.53229,30.20825],[-95.53331,30.20629],[-95.53456,30.20529],[-95.53624,30.20491],[-95.53966,30.20516],[-95.53963,30.20595],[-95.54039,30.20807],[-95.54032,30.20923],[-95.53811,30.21185],[-95.53731,30.2135],[-95.54507,30.21587],[-95.54887,30.2161],[-95.56274,30.21567],[-95.56457,30.21422],[-95.5691,30.21135],[-95.56942,30.21123],[-95.56969,30.21137],[-95.56873,30.2127],[-95.56816,30.21433],[-95.56819,30.22091],[-95.56057,30.22373],[-95.55894,30.22413],[-95.54155,30.22446],[-95.52121,30.22783],[-95.52051,30.22359]]]}},{"type":"Feature","properties":{"PRECINCT":"montgomery:84","COUNTY":"Montgomery"},"geometry":{"type":"Polygon","coordinates":[[[-95.44824,30.14922],[-95.44806,30.1484],[-95.44769,30.14841],[-95.44764,30.14817],[-95.442,30.12024],[-95.44078,30.1177],[-95.43806,30.11411],[-95.4366,30.11042],[-95.43737,30.10993],[-95.4389,30.11053],[-95.43927,30.1097],[-95.44032,30.10962],[-95.44189,30.10902],[-95.44352,30.10969],[-95.44522,30.10972],[-95.44655,30.10943],[-95.44721,30.10975],[-95.45174,30.10828],[-95.45212,30.10765],[-95.45376,30.10799],[-95.45398,30.1083],[-95.45453,30.10847],[-95.45459,30.10906],[-95.45491,30.10931],[-95.45574,30.10935],[-95.45608,30.1099],[-95.45728,30.11048],[-95.45813,30.11051],[-95.45866,30.11082],[-95.45904,30.11155],[-95.4598,30.1119],[-95.45968,30.11281],[-95.46121,30.11462],[-95.46264,30.11482],[-95.4639,30.11443],[-95.4649,30.11477],[-95.46709,30.11472],[-95.46843,30.11509],[-95.46867,30.1153],[-95.46875,30.11651],[-95.46923,30.11708],[-95.47078,30.11795],[-95.47102,30.11935],[-95.47136,30.11992],[-95.47292,30.12047],[-95.47402,30.12003],[-95.47458,30.12003],[-95.47637,30.12072],[-95.47769,30.1217],[-95.47759,30.12267],[-95.47693,30.12315],[-95.47648,30.12486],[-95.47669,30.12725],[-95.47696,30.12759],[-95.47675,30.12883],[-95.47783,30.1297],[-95.47746,30.13095],[-95.47665,30.13194],[-95.47662,30.13252],[-95.47723,30.13293],[-95.47728,30.13357],[-95.47774,30.13417],[-95.47664,30.13463],[-95.47563,30.13468],[-95.47307,30.13392],[-95.47234,30.13346],[-95.47198,30.13219],[-95.47219,30.1295],[-95.47201,30.12627],[-95.4661,30.12628],[-95.46101,30.12687],[-95.4583,30.1266],[-95.453,30.12674],[-95.45489,30.12739],[-95.45639,30.12838],[-95.4565,30.12953],[-95.45732,30.13002],[-95.45728,30.13241],[-95.45682,30.13327],[-95.45803,30.13358],[-95.45789,30.13415],[-95.4568,30.13459],[-95.45388,30.13868],[-95.45369,30.14064],[-95.44812,30.14067],[-95.44893,30.14519],[-95.44922,30.149],[-95.44824,30.14922]]]}},{"type":"Feature","properties":{"PRECINCT":"montgomery:87","COUNTY":"Montgomery"},"geometry":{"type":"Polygon","coordinates":[[[-95.36488,30.15293],[-95.36183,30.15077],[-95.35792,30.15112],[-95.35713,30.15096],[-95.35648,30.15043],[-95.35597,30.14837],[-95.35508,30.14731],[-95.35418,30.14699],[-95.35181,30.14699],[-95.35086,30.14674],[-95.34794,30.14507],[-95.34598,30.14498],[-95.34285,30.14644],[-95.3419,30.1466],[-95.34129,30.14642],[-95.34079,30.14585],[-95.34053,30.14482],[-95.33987,30.14367],[-95.339,30.14273],[-95.33737,30.14165],[-95.33716,30.14115],[-95.33721,30.13971],[-95.33874,30.13499],[-95.33861,30.13348],[-95.3399,30.13327],[-95.34172,30.13377],[-95.34425,30.13391],[-95.34528,30.13373],[-95.34575,30.13403],[-95.34588,30.13451],[-95.34725,30.13595],[-95.34918,30.13682],[-95.35004,30.13776],[-95.35144,30.13875],[-95.3531,30.13822],[-95.35508,30.13831],[-95.35555,30.13808],[-95.35666,30.13801],[-95.35866,30.13714],[-95.3609,30.13758],[-95.36264,30.13609],[-95.36343,30.13588],[-95.36465,30.13664],[-95.36483,30.13882],[-95.36549,30.1393],[-95.37174,30.13496],[-95.38009,30.13062],[-95.3808,30.13146],[-95.38085,30.13284],[-95.38151,30.13375],[-95.38199,30.13394],[-95.38307,30.13366],[-95.38394,30.13517],[-95.38692,30.13696],[-95.38781,30.13788],[-95.3886,30.1381],[-95.38974,30.13907],[-95.39063,30.14039],[-95.39105,30.1425],[-95.39219,30.14349],[-95.39298,30.14374],[-95.39427,30.14532],[-95.39427,30.14619],[-95.39459,30.14672],[-95.3943,30.14859],[-95.39448,30.14882],[-95.39591,30.14914],[-95.38957,30.15376],[-95.38958,30.15465],[-95.38834,30.15466],[-95.38084,30.16012],[-95.37644,30.16023],[-95.37029,30.15995],[-95.37042,30.15875],[-95.37103,30.15769],[-95.37111,30.15666],[-95.37087,30.15627],[-95.36968,30.15549],[-95.36596,30.15492],[-95.36562,30.15462],[-95.36488,30.15293]]]}},{"type":"Feature","properties":{"PRECINCT":"montgomery:88","COUNTY":"Montgomery"},"geometry":{"type":"Polygon","coordinates":[[[-95.37853,30.12811],[-95.37604,30.12789],[-95.37504,30.12724],[-95.37446,30.12591],[-95.37488,30.12563],[-95.37441,30.12449],[-95.37375,30.12448],[-95.37282,30.12407],[-95.37178,30.12287],[-95.37224,30.12254],[-95.37207,30.12233],[-95.371,30.1231],[-95.36958,30.12158],[-95.36872,30.12116],[-95.36551,30.1208],[-95.36493,30.1205],[-95.36398,30.1191],[-95.36384,30.11742],[-95.36314,30.11611],[-95.36171,30.11536],[-95.35911,30.11472],[-95.35831,30.11407],[-95.35792,30.11227],[-95.36119,30.11212],[-95.36343,30.11123],[-95.36093,30.10868],[-95.36026,30.10678],[-95.35864,30.10564],[-95.35599,30.10327],[-95.35384,30.10061],[-95.35338,30.09957],[-95.3533,30.09862],[-95.35403,30.09717],[-95.35328,30.09668],[-95.3517,30.09495],[-95.35024,30.09396],[-95.3627,30.08599],[-95.36226,30.08552],[-95.36284,30.08515],[-95.36445,30.08722],[-95.36757,30.08803],[-95.36757,30.08754],[-95.36807,30.08756],[-95.36803,30.0921],[-95.36775,30.09364],[-95.3666,30.09627],[-95.36624,30.09918],[-95.36844,30.09895],[-95.37021,30.09823],[-95.37191,30.09786],[-95.37388,30.098],[-95.37578,30.09869],[-95.37739,30.09994],[-95.37959,30.10298],[-95.38313,30.10531],[-95.38598,30.10821],[-95.38769,30.11057],[-95.3842,30.11385],[-95.38179,30.11567],[-95.38363,30.11706],[-95.38236,30.11734],[-95.38359,30.11846],[-95.38456,30.11802],[-95.38525,30.11918],[-95.38558,30.12026],[-95.38546,30.12243],[-95.38388,30.12592],[-95.38391,30.12797],[-95.38119,30.12986],[-95.37969,30.12855],[-95.37853,30.12811]]]}},{"type":"Feature","properties":{"PRECINCT":"montgomery:92","COUNTY":"Montgomery"},"geometry":{"type":"Polygon","coordinates":[[[-95.39821,30.14997],[-95.39758,30.14886],[-95.39592,30.14914],[-95.39448,30.14882],[-95.39422,30.1483],[-95.39459,30.14672],[-95.39427,30.14619],[-95.39427,30.14532],[-95.39298,30.14374],[-95.39219,30.14349],[-95.39105,30.1425],[-95.39063,30.14039],[-95.38974,30.13907],[-95.3886,30.1381],[-95.38781,30.13788],[-95.38692,30.13696],[-95.38394,30.13517],[-95.38307,30.13366],[-95.38199,30.13394],[-95.38151,30.13375],[-95.38085,30.13284],[-95.3808,30.13146],[-95.38009,30.13062],[-95.39296,30.12167],[-95.39756,30.11911],[-95.39878,30.12043],[-95.40182,30.12224],[-95.39902,30.12571],[-95.39817,30.12711],[-95.39778,30.12967],[-95.40032,30.13502],[-95.4009,30.13683],[-95.40098,30.13856],[-95.40011,30.14295],[-95.40016,30.14408],[-95.40049,30.14532],[-95.40206,30.14759],[-95.39821,30.14997]]]}},{"type":"Feature","properties":{"PRECINCT":"montgomery:96","COUNTY":"Montgomery"},"geometry":{"type":"Polygon","coordinates":[[[-95.42418,30.2239],[-95.42281,30.22386],[-95.42068,30.22438],[-95.41883,30.22516],[-95.41762,30.22471],[-95.41614,30.22487],[-95.41479,30.22443],[-95.41358,30.22336],[-95.41324,30.22212],[-95.41258,30.22155],[-95.41213,30.22036],[-95.41112,30.21896],[-95.40941,30.21791],[-95.40859,30.21704],[-95.40825,30.21623],[-95.40682,30.21546],[-95.40616,30.21541],[-95.40532,30.21569],[-95.40376,30.21674],[-95.40157,30.21665],[-95.4002,30.21695],[-95.39783,30.21679],[-95.39706,30.21564],[-95.39704,30.21468],[-95.39746,30.21193],[-95.39827,30.21024],[-95.39809,30.20916],[-95.39775,30.20849],[-95.39719,30.20811],[-95.39374,30.20719],[-95.39321,30.20687],[-95.3925,30.20556],[-95.39274,30.20437],[-95.3941,30.20279],[-95.39453,30.20183],[-95.3945,30.20114],[-95.39305,30.19986],[-95.39234,30.19844],[-95.39168,30.19791],[-95.3897,30.1973],[-95.38886,30.19661],[-95.38793,30.19489],[-95.38747,30.1945],[-95.40317,30.19436],[-95.40316,30.1932],[-95.40364,30.1932],[-95.40366,30.19435],[-95.41849,30.19425],[-95.41846,30.19059],[-95.43238,30.19049],[-95.43241,30.19307],[-95.44529,30.19292],[-95.44657,30.19805],[-95.4548,30.19786],[-95.45586,30.20302],[-95.45635,30.20759],[-95.45617,30.20735],[-95.4468,30.20837],[-95.4342,30.20847],[-95.4344,30.22409],[-95.43297,30.22411],[-95.43299,30.22676],[-95.42609,30.22681],[-95.4264,30.22589],[-95.42611,30.22505],[-95.42418,30.2239]]]}},{"type":"Feature","properties":{"PRECINCT":"montgomery:98","COUNTY":"Montgomery"},"geometry":{"type":"Polygon","coordinates":[[[-95.46058,30.24738],[-95.45892,30.24585],[-95.45747,30.24491],[-95.45831,30.24123],[-95.45869,30.23674],[-95.46996,30.23663],[-95.48081,30.23504],[-95.4805,30.20768],[-95.49813,30.20744],[-95.50032,30.21016],[-95.50987,30.22613],[-95.51159,30.22964],[-95.50139,30.23113],[-95.50187,30.23322],[-95.50156,30.23375],[-95.50035,30.23455],[-95.50007,30.23561],[-95.50046,30.23755],[-95.50046,30.24046],[-95.50154,30.24381],[-95.50154,30.24716],[-95.49311,30.2474],[-95.49122,30.24946],[-95.4901,30.24765],[-95.48068,30.24784],[-95.48068,30.24647],[-95.46939,30.24728],[-95.46794,30.24717],[-95.46718,30.24776],[-95.46662,30.2487],[-95.46536,30.24882],[-95.46251,30.2477],[-95.46058,30.24738]]]}}]}