{"type":"FeatureCollection","features":[{"type":"Feature","properties":{"PRECINCT":"cameron:1","COUNTY":"Cameron"},"geometry":{"type":"Polygon","coordinates":[[[-97.19751,26.07988],[-97.19727,26.07729],[-97.19765,26.07519],[-97.19789,26.07453],[-97.19956,26.07234],[-97.20576,26.06763],[-97.20665,26.06778],[-97.20873,26.06711],[-97.21165,26.06724],[-97.21235,26.06918],[-97.21253,26.07156],[-97.21295,26.07225],[-97.214,26.07291],[-97.21505,26.07404],[-97.21501,26.07466],[-97.214,26.07578],[-97.21401,26.07602],[-97.2181,26.07764],[-97.21948,26.07794],[-97.21962,26.07852],[-97.21757,26.07892],[-97.21028,26.07907],[-97.20893,26.07908],[-97.20856,26.07862],[-97.20735,26.07913],[-97.2067,26.07898],[-97.2065,26.07848],[-97.20606,26.07821],[-97.2017,26.08088],[-97.19817,26.08253],[-97.19751,26.07988]]]}},{"type":"Feature","properties":{"PRECINCT":"cameron:14","COUNTY":"Cameron"},"geometry":{"type":"Polygon","coordinates":[[[-97.32952,26.08732],[-97.32837,26.08674],[-97.32836,26.08704],[-97.32418,26.08479],[-97.32219,26.08412],[-97.31914,26.0835],[-97.30715,26.08204],[-97.30399,26.08197],[-97.30081,26.08251],[-97.29602,26.0845],[-97.29086,26.08706],[-97.28977,26.08736],[-97.26598,26.0756],[-97.26432,26.08003],[-97.26271,26.07935],[-97.25535,26.07788],[-97.25529,26.07813],[-97.24933,26.077],[-97.24931,26.07671],[-97.24878,26.07623],[-97.24746,26.0754],[-97.24649,26.07508],[-97.245,26.07501],[-97.24236,26.07531],[-97.2405,26.07513],[-97.23508,26.07409],[-97.23104,26.07305],[-97.22895,26.07184],[-97.23281,26.06836],[-97.2333,26.06861],[-97.2361,26.06605],[-97.23597,26.06593],[-97.23501,26.06638],[-97.23444,26.06632],[-97.23347,26.06574],[-97.23272,26.06568],[-97.23223,26.06632],[-97.23216,26.06752],[-97.23046,26.06532],[-97.2305,26.06395],[-97.23001,26.06349],[-97.23031,26.06328],[-97.22407,26.05823],[-97.22409,26.05789],[-97.21961,26.05851],[-97.21702,26.0608],[-97.215,26.0605],[-97.21465,26.05988],[-97.21472,26.0594],[-97.21359,26.05795],[-97.21349,26.05807],[-97.2113,26.05755],[-97.21138,26.05562],[-97.20812,26.04997],[-97.20798,26.04941],[-97.20626,26.04759],[-97.20308,26.04572],[-97.19855,26.04903],[-97.19647,26.05099],[-97.16683,26.06684],[-97.14471,26.06654],[-97.14469,26.06604],[-97.08934,26.06618],[-97.0902,26.05717],[-97.09129,26.0516],[-97.09414,26.04304],[-97.09786,26.03862],[-97.09112,25.97384],[-97.12525,25.97259],[-97.14665,25.97097],[-97.14701,25.97052],[-97.1466,25.96799],[-97.14634,25.96261],[-97.14668,25.95939],[-97.14611,25.95666],[-97.14733,25.9557],[-97.14728,25.95399],[-97.14779,25.95314],[-97.15049,25.95147],[-97.15661,25.94902],[-97.15895,25.94912],[-97.1603,25.95025],[-97.16046,25.95098],[-97.15858,25.95757],[-97.15819,25.96036],[-97.15846,25.96173],[-97.15882,25.96222],[-97.16,25.96237],[-97.16153,25.96159],[-97.16428,25.96062],[-97.16695,25.96023],[-97.1711,25.96164],[-97.17188,25.96228],[-97.17348,25.96457],[-97.17466,25.96529],[-97.17558,25.96557],[-97.17709,25.96535],[-97.17735,25.96496],[-97.17774,25.96271],[-97.1786,25.96146],[-97.17967,25.96075],[-97.18471,25.9594],[-97.18708,25.95848],[-97.18751,25.95758],[-97.18714,25.95523],[-97.18789,25.95451],[-97.18959,25.95379],[-97.19032,25.95386],[-97.19339,25.95509],[-97.19436,25.95559],[-97.19675,25.95745],[-97.19789,25.95793],[-97.20157,25.95846],[-97.20366,25.95799],[-97.20548,25.95829],[-97.20606,25.95865],[-97.20649,25.96011],[-97.20656,25.96323],[-97.20716,25.96365],[-97.20902,25.96372],[-97.20996,25.96346],[-97.21245,25.96131],[-97.21409,25.96031],[-97.2163,25.95912],[-97.22092,25.95727],[-97.22256,25.95733],[-97.22422,25.95863],[-97.22535,25.95909],[-97.22803,25.95894],[-97.22923,25.95876],[-97.233,25.95671],[-97.23783,25.95564],[-97.23987,25.95498],[-97.24179,25.95406],[-97.24357,25.95279],[-97.24478,25.95127],[-97.24485,25.94995],[-97.24524,25.94922],[-97.24701,25.94823],[-97.24803,25.9481],[-97.25359,25.94837],[-97.25501,25.94878],[-97.2576,25.95011],[-97.26086,25.95093],[-97.2767,25.95215],[-97.27858,25.95343],[-97.28,25.95493],[-97.2822,25.95881],[-97.28301,25.95927],[-97.28445,25.95916],[-97.28552,25.95862],[-97.28924,25.95544],[-97.2897,25.95467],[-97.28964,25.95403],[-97.28839,25.95238],[-97.28474,25.94949],[-97.28125,25.94799],[-97.27921,25.94774],[-97.27853,25.94747],[-97.2782,25.94684],[-97.27828,25.94658],[-97.28039,25.94545],[-97.28104,25.94346],[-97.27894,25.94172],[-97.27748,25.9399],[-97.27639,25.93606],[-97.2767,25.93534],[-97.27811,25.93504],[-97.28005,25.93507],[-97.28687,25.93623],[-97.29179,25.9363],[-97.29324,25.93571],[-97.29501,25.93374],[-97.29611,25.93342],[-97.29815,25.93387],[-97.29866,25.93442],[-97.29889,25.93625],[-97.29962,25.93687],[-97.30072,25.93722],[-97.30254,25.93723],[-97.30361,25.93671],[-97.30421,25.93611],[-97.30459,25.93516],[-97.30469,25.93217],[-97.30422,25.93027],[-97.30451,25.92884],[-97.30532,25.92793],[-97.3069,25.92701],[-97.30823,25.92649],[-97.30974,25.9264],[-97.31086,25.9269],[-97.31149,25.92754],[-97.31173,25.9286],[-97.31264,25.92995],[-97.31396,25.93107],[-97.31518,25.93147],[-97.31678,25.93165],[-97.31858,25.93104],[-97.32057,25.9298],[-97.32395,25.92595],[-97.32492,25.92404],[-97.3251,25.92167],[-97.32465,25.91859],[-97.32487,25.91804],[-97.326,25.91769],[-97.33025,25.91771],[-97.33124,25.91856],[-97.33181,25.92003],[-97.33268,25.92558],[-97.33362,25.92611],[-97.33408,25.92569],[-97.33451,25.92428],[-97.33427,25.92146],[-97.33448,25.9202],[-97.33507,25.91983],[-97.33594,25.9198],[-97.33734,25.92015],[-97.33783,25.92048],[-97.33844,25.92162],[-97.33836,25.92285],[-97.33654,25.92837],[-97.33644,25.92896],[-97.33682,25.92945],[-97.33806,25.92981],[-97.34078,25.92888],[-97.34251,25.92899],[-97.34423,25.92938],[-97.34735,25.93118],[-97.34827,25.93114],[-97.34891,25.93081],[-97.35039,25.92524],[-97.35298,25.92173],[-97.35544,25.91943],[-97.3615,25.91587],[-97.36345,25.91563],[-97.36522,25.91583],[-97.36764,25.91568],[-97.36852,25.91533],[-97.36911,25.91462],[-97.36939,25.91313],[-97.3692,25.91228],[-97.36835,25.91064],[-97.36842,25.90967],[-97.36912,25.90905],[-97.37022,25.90892],[-97.37073,25.90888],[-97.37216,25.90946],[-97.37349,25.90925],[-97.37491,25.90801],[-97.37512,25.9072],[-97.37484,25.90654],[-97.37417,25.90592],[-97.37237,25.90502],[-97.36697,25.90303],[-97.36598,25.90245],[-97.36567,25.90106],[-97.36591,25.89936],[-97.36675,25.89673],[-97.36726,25.89389],[-97.36696,25.89175],[-97.36629,25.89082],[-97.36489,25.88997],[-97.36343,25.88969],[-97.36104,25.88994],[-97.35847,25.88964],[-97.35675,25.88843],[-97.35663,25.88768],[-97.3574,25.88683],[-97.35875,25.88623],[-97.35987,25.88597],[-97.36352,25.88589],[-97.36672,25.88507],[-97.36904,25.88405],[-97.37212,25.88211],[-97.3732,25.88118],[-97.37386,25.88025],[-97.37413,25.87904],[-97.374,25.87871],[-97.37334,25.87848],[-97.3683,25.87833],[-97.36382,25.87792],[-97.3617,25.8784],[-97.36137,25.8793],[-97.36066,25.87983],[-97.35993,25.87987],[-97.3595,25.87968],[-97.35875,25.87881],[-97.35857,25.87813],[-97.3586,25.87667],[-97.35926,25.87387],[-97.35919,25.87243],[-97.35766,25.86918],[-97.35678,25.86789],[-97.35669,25.86735],[-97.35719,25.86668],[-97.35875,25.86571],[-97.35938,25.86655],[-97.35893,25.8681],[-97.35936,25.86921],[-97.36007,25.86958],[-97.36146,25.8693],[-97.36325,25.8676],[-97.36398,25.86603],[-97.36572,25.86426],[-97.36855,25.8591],[-97.36914,25.85845],[-97.36974,25.85804],[-97.37228,25.85708],[-97.37416,25.85695],[-97.37577,25.85644],[-97.37617,25.85598],[-97.37658,25.85458],[-97.37556,25.854],[-97.37379,25.85397],[-97.36976,25.85436],[-97.36658,25.85356],[-97.36539,25.85298],[-97.36459,25.85213],[-97.3641,25.85111],[-97.3641,25.85003],[-97.36446,25.84979],[-97.36518,25.84985],[-97.36711,25.85057],[-97.3682,25.85071],[-97.3694,25.85048],[-97.37078,25.84966],[-97.37155,25.84863],[-97.37204,25.84742],[-97.37184,25.84192],[-97.37228,25.84078],[-97.37319,25.83996],[-97.37655,25.84041],[-97.38066,25.83961],[-97.38206,25.83976],[-97.38338,25.84065],[-97.3862,25.84355],[-97.38714,25.84385],[-97.38786,25.8435],[-97.38825,25.84275],[-97.38865,25.84056],[-97.38908,25.83975],[-97.39007,25.83893],[-97.39337,25.8374],[-97.39504,25.83724],[-97.397,25.83802],[-97.3985,25.83896],[-97.39965,25.83921],[-97.40182,25.83889],[-97.40366,25.83787],[-97.40554,25.83775],[-97.40639,25.83807],[-97.40699,25.83885],[-97.40716,25.83972],[-97.40693,25.84007],[-97.40504,25.84066],[-97.40343,25.84024],[-97.40227,25.84034],[-97.40089,25.84127],[-97.40041,25.84197],[-97.40016,25.84276],[-97.4002,25.84378],[-97.40072,25.84512],[-97.40078,25.8462],[-97.39874,25.85049],[-97.39921,25.8512],[-97.40085,25.85232],[-97.40171,25.85221],[-97.40305,25.85145],[-97.40392,25.85061],[-97.40452,25.84959],[-97.40509,25.84821],[-97.40563,25.84551],[-97.40673,25.84472],[-97.40787,25.84526],[-97.4089,25.84643],[-97.41054,25.84955],[-97.41021,25.85108],[-97.40811,25.85473],[-97.4083,25.85603],[-97.409,25.85682],[-97.40928,25.85781],[-97.40886,25.85904],[-97.40815,25.85996],[-97.40786,25.86076],[-97.40801,25.8616],[-97.40842,25.86196],[-97.40783,25.86574],[-97.40707,25.94504],[-97.4072,25.94701],[-97.40779,25.94822],[-97.40873,25.94915],[-97.41532,25.95253],[-97.41689,25.95374],[-97.42975,25.97002],[-97.44143,25.98012],[-97.43876,25.98363],[-97.43804,25.98847],[-97.43674,25.99301],[-97.43613,25.99336],[-97.42378,25.99561],[-97.42301,25.99627],[-97.39744,26.05026],[-97.38275,26.06509],[-97.38264,26.06572],[-97.38111,26.06673],[-97.37194,26.07592],[-97.36984,26.0786],[-97.36817,26.07811],[-97.36475,26.08494],[-97.36372,26.08616],[-97.36071,26.08831],[-97.3584,26.08923],[-97.35626,26.08955],[-97.33665,26.08885],[-97.33231,26.08824],[-97.32952,26.08732]]]}},{"type":"Feature","properties":{"PRECINCT":"cameron:2","COUNTY":"Cameron"},"geometry":{"type":"Polygon","coordinates":[[[-97.34762,26.41105],[-97.29312,26.2899],[-97.28379,26.26499],[-97.29798,26.26129],[-97.2986,26.26036],[-97.30368,26.25931],[-97.30837,26.25707],[-97.30935,26.25704],[-97.31146,26.25746],[-97.31313,26.25629],[-97.3163,26.25569],[-97.31967,26.25395],[-97.32229,26.2513],[-97.32252,26.25074],[-97.32234,26.2504],[-97.33041,26.25029],[-97.33002,26.24901],[-97.33556,26.24897],[-97.33556,26.24875],[-97.33619,26.24893],[-97.33625,26.2562],[-97.35048,26.25604],[-97.35129,26.25763],[-97.353,26.25915],[-97.35737,26.26206],[-97.35746,26.26318],[-97.35864,26.2632],[-97.35966,26.2669],[-97.36432,26.26688],[-97.36424,26.25592],[-97.37226,26.256],[-97.3723,26.25958],[-97.37637,26.25959],[-97.38024,26.26222],[-97.38068,26.26178],[-97.38149,26.26237],[-97.38265,26.26274],[-97.38269,26.26308],[-97.38132,26.26315],[-97.38277,26.26321],[-97.38292,26.26342],[-97.38282,26.26375],[-97.38231,26.26375],[-97.38215,26.26402],[-97.38238,26.26562],[-97.38055,26.2687],[-97.38045,26.27043],[-97.38438,26.27041],[-97.38435,26.2667],[-97.38848,26.26669],[-97.38865,26.26501],[-97.39104,26.2656],[-97.3914,26.2659],[-97.39171,26.26707],[-97.39224,26.26785],[-97.39552,26.26817],[-97.39745,26.2678],[-97.39822,26.26748],[-97.41358,26.25721],[-97.41457,26.25669],[-97.41742,26.25632],[-97.42352,26.25593],[-97.42606,26.25612],[-97.45967,26.26075],[-97.46344,26.21716],[-97.52551,26.22556],[-97.51257,26.3131],[-97.50891,26.31257],[-97.50694,26.3127],[-97.50569,26.31324],[-97.50284,26.31594],[-97.50082,26.31885],[-97.5007,26.32081],[-97.5009,26.32147],[-97.50193,26.32259],[-97.50375,26.32368],[-97.50448,26.32486],[-97.50515,26.32725],[-97.50518,26.32835],[-97.50567,26.32937],[-97.50842,26.3322],[-97.50903,26.33358],[-97.50852,26.33443],[-97.50766,26.33472],[-97.50376,26.33273],[-97.5025,26.33275],[-97.50026,26.33359],[-97.49825,26.33491],[-97.49552,26.33601],[-97.49264,26.33671],[-97.48861,26.33707],[-97.48547,26.33709],[-97.48265,26.3367],[-97.47934,26.33587],[-97.47622,26.33432],[-97.47407,26.33279],[-97.47365,26.33215],[-97.47171,26.33037],[-97.47101,26.33004],[-97.46975,26.32989],[-97.46778,26.33122],[-97.46834,26.33318],[-97.47031,26.33685],[-97.47302,26.33884],[-97.47472,26.33972],[-97.47501,26.34074],[-97.47489,26.34128],[-97.47375,26.34222],[-97.47247,26.34262],[-97.46788,26.3429],[-97.46661,26.34271],[-97.46503,26.34157],[-97.46459,26.34051],[-97.46505,26.33823],[-97.46622,26.33585],[-97.46642,26.3349],[-97.46646,26.33395],[-97.46571,26.33238],[-97.46454,26.33179],[-97.45988,26.33205],[-97.45904,26.33179],[-97.45716,26.32996],[-97.45653,26.32899],[-97.45625,26.32672],[-97.45591,26.32609],[-97.45532,26.32547],[-97.45414,26.32498],[-97.45226,26.32448],[-97.45084,26.3244],[-97.44857,26.3245],[-97.44699,26.32495],[-97.44538,26.32582],[-97.44458,26.32671],[-97.44415,26.32901],[-97.44345,26.33029],[-97.44214,26.332],[-97.43822,26.33592],[-97.43728,26.33723],[-97.43592,26.3412],[-97.43552,26.34545],[-97.43308,26.35244],[-97.43213,26.35602],[-97.43216,26.36061],[-97.43088,26.36332],[-97.43005,26.36434],[-97.42932,26.36476],[-97.42863,26.36494],[-97.42422,26.36493],[-97.42311,26.36519],[-97.42129,26.36614],[-97.41943,26.36858],[-97.4178,26.37013],[-97.41184,26.37343],[-97.41114,26.37471],[-97.40749,26.37925],[-97.40108,26.38545],[-97.40025,26.38667],[-97.39995,26.3893],[-97.40015,26.38947],[-97.39844,26.39614],[-97.39649,26.39963],[-97.39508,26.40148],[-97.3943,26.40212],[-97.39474,26.40393],[-97.39465,26.40477],[-97.39387,26.40549],[-97.39042,26.40786],[-97.38984,26.40867],[-97.38909,26.40874],[-97.3865,26.41044],[-97.38553,26.41057],[-97.38451,26.41019],[-97.38349,26.41062],[-97.38283,26.41058],[-97.38226,26.41094],[-97.34762,26.41105]]]}},{"type":"Feature","properties":{"PRECINCT":"cameron:20","COUNTY":"Cameron"},"geometry":{"type":"Polygon","coordinates":[[[-97.58348,26.24866],[-97.58055,26.24825],[-97.58047,26.24838],[-97.58069,26.2466],[-97.57788,26.24637],[-97.57793,26.24728],[-97.57612,26.24704],[-97.57708,26.24052],[-97.5767,26.24048],[-97.57655,26.24152],[-97.57561,26.24124],[-97.57601,26.23923],[-97.57581,26.23894],[-97.57589,26.23833],[-97.56662,26.23695],[-97.56714,26.23394],[-97.56446,26.23357],[-97.56476,26.23204],[-97.56284,26.23153],[-97.56301,26.23058],[-97.56766,26.2313],[-97.56846,26.2267],[-97.57398,26.23072],[-97.57545,26.2291],[-97.57679,26.2301],[-97.57693,26.22908],[-97.57993,26.22905],[-97.57973,26.22612],[-97.5815,26.22603],[-97.58147,26.22585],[-97.58175,26.22583],[-97.58152,26.22192],[-97.57981,26.22202],[-97.57976,26.22124],[-97.58087,26.22117],[-97.58055,26.22109],[-97.58057,26.22047],[-97.58206,26.22044],[-97.58201,26.21984],[-97.58344,26.21983],[-97.58417,26.21818],[-97.58375,26.21683],[-97.58413,26.21681],[-97.58435,26.21771],[-97.58425,26.21628],[-97.58377,26.21526],[-97.58424,26.21557],[-97.58496,26.21698],[-97.58606,26.21656],[-97.5864,26.21651],[-97.58662,26.21676],[-97.58665,26.21757],[-97.58499,26.2186],[-97.58459,26.21935],[-97.58447,26.22078],[-97.58507,26.222],[-97.58698,26.22389],[-97.58817,26.22669],[-97.58802,26.227],[-97.59178,26.2287],[-97.59169,26.23213],[-97.59702,26.23215],[-97.59704,26.23615],[-97.59317,26.23614],[-97.59322,26.23825],[-97.59296,26.23832],[-97.58907,26.23825],[-97.58895,26.24204],[-97.58785,26.24204],[-97.58787,26.24474],[-97.58883,26.24474],[-97.58885,26.24646],[-97.58701,26.24645],[-97.58705,26.24751],[-97.5837,26.24765],[-97.58391,26.24923],[-97.58348,26.24866]]]}},{"type":"Feature","properties":{"PRECINCT":"cameron:23","COUNTY":"Cameron"},"geometry":{"type":"Polygon","coordinates":[[[-97.76234,26.14522],[-97.75983,26.14489],[-97.75935,26.14461],[-97.75874,26.14465],[-97.75614,26.14378],[-97.75244,26.14437],[-97.75097,26.14405],[-97.75262,26.14346],[-97.75366,26.14231],[-97.75168,26.12296],[-97.75085,26.12189],[-97.74755,26.12206],[-97.74712,26.11851],[-97.73224,26.1198],[-97.71809,26.11899],[-97.71651,26.11855],[-97.71053,26.11577],[-97.7086,26.11454],[-97.71362,26.10851],[-97.71149,26.10684],[-97.71997,26.09714],[-97.71998,26.09461],[-97.71964,26.0918],[-97.72362,26.09213],[-97.72598,26.09116],[-97.7275,26.09108],[-97.72937,26.08775],[-97.73652,26.0876],[-97.73868,26.08917],[-97.74026,26.08973],[-97.75495,26.09037],[-97.76364,26.09036],[-97.77173,26.08936],[-97.77166,26.10888],[-97.7744,26.10862],[-97.77434,26.11604],[-97.77751,26.1166],[-97.7775,26.12818],[-97.77713,26.12867],[-97.77821,26.13053],[-97.77964,26.13236],[-97.7789,26.13318],[-97.77907,26.13356],[-97.77861,26.13371],[-97.77741,26.13362],[-97.77651,26.133],[-97.77597,26.13365],[-97.77518,26.1336],[-97.77464,26.13557],[-97.76942,26.13777],[-97.76733,26.13826],[-97.76598,26.13809],[-97.76489,26.13821],[-97.76325,26.13869],[-97.76234,26.14017],[-97.76393,26.14166],[-97.76454,26.14253],[-97.76456,26.14311],[-97.76378,26.14459],[-97.76234,26.14522]]]}},{"type":"Feature","properties":{"PRECINCT":"cameron:26","COUNTY":"Cameron"},"geometry":{"type":"Polygon","coordinates":[[[-97.78613,26.1703],[-97.78606,26.13802],[-97.78731,26.13825],[-97.78864,26.14003],[-97.78945,26.14054],[-97.79123,26.14042],[-97.79188,26.13944],[-97.79242,26.13917],[-97.79233,26.13883],[-97.79255,26.13857],[-97.79556,26.13699],[-97.79649,26.13613],[-97.79714,26.13482],[-97.79788,26.13193],[-97.79743,26.13038],[-97.79552,26.12885],[-97.79537,26.12783],[-97.79552,26.12733],[-97.79706,26.12681],[-97.79768,26.12688],[-97.79986,26.12753],[-97.80191,26.12914],[-97.80306,26.12938],[-97.80406,26.1286],[-97.8039,26.12816],[-97.8042,26.12756],[-97.80381,26.12667],[-97.80396,26.12549],[-97.80504,26.12445],[-97.80603,26.12415],[-97.80781,26.12419],[-97.81003,26.12537],[-97.81113,26.12566],[-97.81212,26.12563],[-97.81245,26.12516],[-97.81346,26.1248],[-97.81468,26.12381],[-97.81569,26.12353],[-97.81702,26.12272],[-97.81829,26.12275],[-97.81932,26.12231],[-97.82025,26.1229],[-97.82062,26.12352],[-97.82068,26.12474],[-97.82039,26.126],[-97.82079,26.12779],[-97.82483,26.13058],[-97.82758,26.13064],[-97.82826,26.13048],[-97.82957,26.12987],[-97.83029,26.1291],[-97.83142,26.12903],[-97.83279,26.1293],[-97.83307,26.12958],[-97.83324,26.13041],[-97.83396,26.13084],[-97.83528,26.1303],[-97.83637,26.12908],[-97.83672,26.12813],[-97.83644,26.12738],[-97.8365,26.12674],[-97.83703,26.12639],[-97.83856,26.12614],[-97.84054,26.12895],[-97.84054,26.13033],[-97.83817,26.13312],[-97.83765,26.13686],[-97.83779,26.1372],[-97.83902,26.13819],[-97.83884,26.13986],[-97.83947,26.14141],[-97.83858,26.14253],[-97.83728,26.14365],[-97.83633,26.14365],[-97.83642,26.15536],[-97.83194,26.15666],[-97.83199,26.15412],[-97.83177,26.15318],[-97.8344,26.15315],[-97.8346,26.15295],[-97.8346,26.15159],[-97.83418,26.15108],[-97.83404,26.14542],[-97.8342,26.145],[-97.83382,26.145],[-97.83383,26.14414],[-97.83207,26.14417],[-97.83208,26.14657],[-97.82809,26.14665],[-97.8281,26.14744],[-97.82387,26.14745],[-97.82395,26.15127],[-97.82188,26.15131],[-97.82175,26.1541],[-97.82199,26.15954],[-97.8099,26.16309],[-97.80997,26.16655],[-97.80737,26.16656],[-97.80724,26.16692],[-97.80144,26.16706],[-97.80142,26.16583],[-97.79669,26.16721],[-97.7966,26.16699],[-97.79531,26.16737],[-97.79531,26.16762],[-97.78613,26.1703]]]}},{"type":"Feature","properties":{"PRECINCT":"cameron:28","COUNTY":"Cameron"},"geometry":{"type":"Polygon","coordinates":[[[-97.73787,26.23149],[-97.73737,26.22945],[-97.73379,26.22956],[-97.7338,26.22856],[-97.72307,26.22855],[-97.72155,26.22827],[-97.72119,26.22771],[-97.72119,26.22643],[-97.72223,26.22643],[-97.7222,26.22613],[-97.72405,26.22612],[-97.72406,26.2234],[-97.73383,26.22334],[-97.73389,26.21135],[-97.77007,26.21139],[-97.77028,26.2187],[-97.7783,26.21865],[-97.77853,26.23382],[-97.75799,26.22375],[-97.75798,26.22594],[-97.74567,26.22591],[-97.74564,26.22965],[-97.74187,26.22962],[-97.74184,26.23316],[-97.73782,26.23316],[-97.73787,26.23149]]]}},{"type":"Feature","properties":{"PRECINCT":"cameron:29","COUNTY":"Cameron"},"geometry":{"type":"Polygon","coordinates":[[[-97.7391,26.18698],[-97.7391,26.18379],[-97.73587,26.18474],[-97.73577,26.17083],[-97.74624,26.1708],[-97.74623,26.16888],[-97.75076,26.16892],[-97.75077,26.17079],[-97.75506,26.17078],[-97.75496,26.16805],[-97.75795,26.16796],[-97.75798,26.16985],[-97.75633,26.16982],[-97.75633,26.17077],[-97.77235,26.17072],[-97.77235,26.17408],[-97.78256,26.17109],[-97.7862,26.18145],[-97.78619,26.18201],[-97.77869,26.18588],[-97.7764,26.1867],[-97.77446,26.18703],[-97.7391,26.18698]]]}},{"type":"Feature","properties":{"PRECINCT":"cameron:3","COUNTY":"Cameron"},"geometry":{"type":"Polygon","coordinates":[[[-97.39529,26.10466],[-97.39487,26.06582],[-97.38545,26.06516],[-97.38374,26.06533],[-97.38264,26.06572],[-97.38261,26.06542],[-97.3967,26.05115],[-97.39744,26.05026],[-97.398,26.04912],[-97.41143,26.04815],[-97.42933,26.04409],[-97.44355,26.04194],[-97.44439,26.04214],[-97.44667,26.04337],[-97.44753,26.04336],[-97.44921,26.04265],[-97.44996,26.04266],[-97.45132,26.04366],[-97.45189,26.04384],[-97.45263,26.04363],[-97.45485,26.04228],[-97.45631,26.04205],[-97.46274,26.04206],[-97.46491,26.04337],[-97.47868,26.04379],[-97.47746,26.05755],[-97.48082,26.05778],[-97.48005,26.06579],[-97.48145,26.06598],[-97.48266,26.05277],[-97.48787,26.05333],[-97.48659,26.06455],[-97.48866,26.06465],[-97.48806,26.06947],[-97.49007,26.06968],[-97.49035,26.06788],[-97.49232,26.06794],[-97.49213,26.0699],[-97.49322,26.07006],[-97.4932,26.07171],[-97.50792,26.07274],[-97.51766,26.07368],[-97.52279,26.07037],[-97.52264,26.07031],[-97.52555,26.07054],[-97.5259,26.06791],[-97.53132,26.06862],[-97.5303,26.07598],[-97.52699,26.07565],[-97.52681,26.07697],[-97.52474,26.07672],[-97.52392,26.08306],[-97.52348,26.08393],[-97.52312,26.08651],[-97.51995,26.08695],[-97.51953,26.09016],[-97.51136,26.08936],[-97.51413,26.08754],[-97.51846,26.08603],[-97.52323,26.08394],[-97.52327,26.08367],[-97.52002,26.08496],[-97.52029,26.08265],[-97.52098,26.08102],[-97.52142,26.07737],[-97.51441,26.07685],[-97.51426,26.07814],[-97.50789,26.07765],[-97.50778,26.07809],[-97.49837,26.07743],[-97.49672,26.07691],[-97.49595,26.0772],[-97.49495,26.07712],[-97.49134,26.08061],[-97.48787,26.0803],[-97.48771,26.08254],[-97.48981,26.08269],[-97.49033,26.08556],[-97.49029,26.08709],[-97.49407,26.08748],[-97.49312,26.08875],[-97.49175,26.08946],[-97.4868,26.09046],[-97.48648,26.0941],[-97.48349,26.09389],[-97.48372,26.09006],[-97.48003,26.08987],[-97.47933,26.08931],[-97.47849,26.08908],[-97.47855,26.0878],[-97.47565,26.08615],[-97.475,26.08599],[-97.47511,26.0848],[-97.46836,26.08569],[-97.46622,26.08544],[-97.46442,26.08491],[-97.46499,26.0795],[-97.46547,26.07891],[-97.45666,26.08082],[-97.45192,26.08162],[-97.4492,26.08175],[-97.44743,26.08208],[-97.42196,26.09157],[-97.41885,26.09337],[-97.40166,26.10669],[-97.39649,26.10959],[-97.3951,26.11059],[-97.39503,26.10509],[-97.39529,26.10466]]]}},{"type":"Feature","properties":{"PRECINCT":"cameron:30","COUNTY":"Cameron"},"geometry":{"type":"Polygon","coordinates":[[[-97.66312,26.19071],[-97.66376,26.18814],[-97.66646,26.18395],[-97.66759,26.18416],[-97.66895,26.18407],[-97.66989,26.18357],[-97.6706,26.18251],[-97.67305,26.18148],[-97.67436,26.18131],[-97.67573,26.18184],[-97.67684,26.18139],[-97.67713,26.18101],[-97.67735,26.17987],[-97.67693,26.17735],[-97.6775,26.17673],[-97.67826,26.17659],[-97.68015,26.177],[-97.68151,26.17775],[-97.6821,26.17778],[-97.68308,26.17745],[-97.68497,26.17919],[-97.6826,26.18015],[-97.68241,26.18053],[-97.68361,26.18092],[-97.68273,26.18072],[-97.68212,26.18117],[-97.68248,26.18231],[-97.68194,26.18258],[-97.68157,26.18306],[-97.68141,26.18459],[-97.68026,26.18497],[-97.68018,26.186],[-97.68239,26.18534],[-97.68242,26.19072],[-97.66954,26.19077],[-97.66956,26.19032],[-97.6681,26.19067],[-97.66312,26.19071]]]}},{"type":"Feature","properties":{"PRECINCT":"cameron:31","COUNTY":"Cameron"},"geometry":{"type":"Polygon","coordinates":[[[-97.68241,26.18547],[-97.6879,26.18545],[-97.68793,26.19069],[-97.68242,26.19072],[-97.68241,26.18547]]]}},{"type":"Feature","properties":{"PRECINCT":"cameron:32","COUNTY":"Cameron"},"geometry":{"type":"Polygon","coordinates":[[[-97.66302,26.20531],[-97.66299,26.19586],[-97.66535,26.19585],[-97.66533,26.19309],[-97.66312,26.19308],[-97.66312,26.19071],[-97.6681,26.19067],[-97.66956,26.19032],[-97.66954,26.19077],[-97.6822,26.19073],[-97.68223,26.19579],[-97.67978,26.1958],[-97.67958,26.19744],[-97.67908,26.19887],[-97.67475,26.2053],[-97.66302,26.20531]]]}},{"type":"Feature","properties":{"PRECINCT":"cameron:33","COUNTY":"Cameron"},"geometry":{"type":"Polygon","coordinates":[[[-97.70087,26.19798],[-97.69042,26.19808],[-97.68224,26.19788],[-97.6822,26.19073],[-97.69688,26.19067],[-97.69749,26.19171],[-97.6979,26.19171],[-97.69857,26.19276],[-97.69817,26.19276],[-97.69855,26.19337],[-97.69957,26.19405],[-97.70087,26.19588],[-97.70204,26.19822],[-97.70147,26.19833],[-97.70087,26.19798]]]}},{"type":"Feature","properties":{"PRECINCT":"cameron:34","COUNTY":"Cameron"},"geometry":{"type":"Polygon","coordinates":[[[-97.66336,26.31865],[-97.57587,26.30625],[-97.57627,26.30562],[-97.58252,26.29946],[-97.5833,26.29817],[-97.59112,26.2541],[-97.59145,26.25274],[-97.59212,26.25185],[-97.59637,26.2482],[-97.597,26.24726],[-97.59867,26.24759],[-97.65717,26.24748],[-97.65716,26.24406],[-97.65507,26.24405],[-97.65487,26.2374],[-97.64547,26.23724],[-97.64537,26.23593],[-97.63967,26.23579],[-97.63967,26.23136],[-97.63949,26.23118],[-97.64509,26.23123],[-97.64523,26.21644],[-97.65361,26.21637],[-97.65364,26.21287],[-97.65391,26.21264],[-97.66996,26.21259],[-97.66987,26.22708],[-97.67528,26.2271],[-97.67568,26.22627],[-97.70565,26.2264],[-97.70565,26.22616],[-97.71126,26.22598],[-97.7129,26.22648],[-97.71917,26.22652],[-97.72119,26.22605],[-97.72119,26.22771],[-97.72155,26.22827],[-97.72119,26.22827],[-97.72118,26.22893],[-97.72049,26.22786],[-97.72003,26.22786],[-97.72003,26.2328],[-97.72025,26.23339],[-97.71949,26.23328],[-97.71798,26.23364],[-97.71799,26.23454],[-97.71831,26.23469],[-97.71787,26.23583],[-97.71759,26.23759],[-97.70984,26.23751],[-97.7097,26.23521],[-97.70565,26.23524],[-97.70566,26.23758],[-97.70324,26.23769],[-97.70306,26.24457],[-97.70168,26.24456],[-97.70165,26.24841],[-97.68229,26.24831],[-97.68227,26.26076],[-97.6895,26.26078],[-97.68946,26.25682],[-97.69715,26.25688],[-97.69703,26.26776],[-97.70279,26.26888],[-97.6962,26.30788],[-97.69615,26.32352],[-97.66336,26.31865]]]}},{"type":"Feature","properties":{"PRECINCT":"cameron:35","COUNTY":"Cameron"},"geometry":{"type":"Polygon","coordinates":[[[-97.69552,26.20833],[-97.68843,26.20505],[-97.68819,26.20526],[-97.68633,26.20531],[-97.67475,26.2053],[-97.67908,26.19887],[-97.67958,26.19744],[-97.67978,26.1958],[-97.68223,26.19579],[-97.68224,26.19788],[-97.69563,26.19799],[-97.69563,26.20335],[-97.6958,26.20425],[-97.69548,26.20462],[-97.69552,26.20833]]]}},{"type":"Feature","properties":{"PRECINCT":"cameron:36","COUNTY":"Cameron"},"geometry":{"type":"Polygon","coordinates":[[[-97.71737,26.18816],[-97.71796,26.18998],[-97.71779,26.19003],[-97.71698,26.18789],[-97.71603,26.18672],[-97.71568,26.18447],[-97.7153,26.18349],[-97.71359,26.18135],[-97.71244,26.18049],[-97.7109,26.17974],[-97.70619,26.17849],[-97.70463,26.17778],[-97.70318,26.17657],[-97.70072,26.17349],[-97.70183,26.17273],[-97.70309,26.17314],[-97.70459,26.17292],[-97.70576,26.17204],[-97.70643,26.17096],[-97.70801,26.16973],[-97.70939,26.16724],[-97.70956,26.16528],[-97.70995,26.16414],[-97.71089,26.16261],[-97.71398,26.1597],[-97.72091,26.15988],[-97.721,26.15847],[-97.72594,26.1585],[-97.72603,26.15716],[-97.72991,26.1572],[-97.72989,26.15479],[-97.73185,26.15475],[-97.73216,26.15524],[-97.73227,26.15753],[-97.73274,26.15965],[-97.72993,26.15965],[-97.72993,26.15997],[-97.73284,26.15997],[-97.73245,26.16224],[-97.73151,26.16222],[-97.73151,26.16134],[-97.72994,26.16134],[-97.72999,26.17085],[-97.73577,26.17083],[-97.73587,26.18474],[-97.7391,26.18379],[-97.7391,26.18698],[-97.73318,26.18698],[-97.72686,26.18663],[-97.72519,26.18703],[-97.72162,26.18854],[-97.72179,26.18891],[-97.72133,26.18918],[-97.7183,26.19007],[-97.71769,26.18832],[-97.71737,26.18816]]]}},{"type":"Feature","properties":{"PRECINCT":"cameron:39","COUNTY":"Cameron"},"geometry":{"type":"Polygon","coordinates":[[[-97.715,26.21898],[-97.71294,26.21617],[-97.7125,26.21517],[-97.70147,26.19833],[-97.70204,26.19822],[-97.70087,26.19588],[-97.69957,26.19405],[-97.69855,26.19337],[-97.69817,26.19276],[-97.69857,26.19276],[-97.6979,26.19171],[-97.69749,26.19171],[-97.69688,26.19067],[-97.71588,26.19056],[-97.71796,26.18998],[-97.71728,26.1881],[-97.71769,26.18832],[-97.72009,26.19515],[-97.71966,26.19527],[-97.72088,26.19975],[-97.72099,26.21705],[-97.72072,26.21704],[-97.72074,26.21852],[-97.71714,26.21852],[-97.71615,26.21895],[-97.715,26.21898]]]}},{"type":"Feature","properties":{"PRECINCT":"cameron:4","COUNTY":"Cameron"},"geometry":{"type":"Polygon","coordinates":[[[-97.5626,26.05561],[-97.55219,26.04614],[-97.5518,26.04673],[-97.54873,26.04415],[-97.535,26.03165],[-97.53346,26.02919],[-97.53215,26.0262],[-97.5305,26.01631],[-97.5319,26.01616],[-97.53666,26.01653],[-97.53753,26.01601],[-97.53868,26.01454],[-97.53983,26.01425],[-97.58841,26.02004],[-97.57999,26.0773],[-97.58007,26.07855],[-97.58119,26.0804],[-97.5813,26.08103],[-97.58068,26.081],[-97.57968,26.0797],[-97.56427,26.05748],[-97.5626,26.05561]]]}},{"type":"Feature","properties":{"PRECINCT":"cameron:41","COUNTY":"Cameron"},"geometry":{"type":"Polygon","coordinates":[[[-97.68793,26.19069],[-97.6879,26.18545],[-97.68241,26.18547],[-97.6881,26.1835],[-97.68899,26.18276],[-97.68308,26.17745],[-97.68347,26.17682],[-97.68366,26.17528],[-97.68444,26.1741],[-97.6857,26.17332],[-97.6945,26.17122],[-97.69656,26.17212],[-97.69662,26.1725],[-97.6961,26.17306],[-97.69632,26.1736],[-97.697,26.17424],[-97.69902,26.17436],[-97.70072,26.17349],[-97.70318,26.17657],[-97.70463,26.17778],[-97.70619,26.17849],[-97.7109,26.17974],[-97.71322,26.18104],[-97.71438,26.18214],[-97.7153,26.18349],[-97.71568,26.18447],[-97.71603,26.18672],[-97.71698,26.18789],[-97.71779,26.19003],[-97.71527,26.19062],[-97.68793,26.19069]]]}},{"type":"Feature","properties":{"PRECINCT":"cameron:42","COUNTY":"Cameron"},"geometry":{"type":"Polygon","coordinates":[[[-97.71306,26.21633],[-97.69552,26.20833],[-97.69548,26.20462],[-97.6958,26.20425],[-97.69563,26.20335],[-97.69563,26.19799],[-97.70087,26.19798],[-97.70132,26.19816],[-97.7125,26.21517],[-97.71306,26.21633]]]}},{"type":"Feature","properties":{"PRECINCT":"cameron:43","COUNTY":"Cameron"},"geometry":{"type":"Polygon","coordinates":[[[-97.70071,26.17274],[-97.70124,26.17222],[-97.69967,26.17122],[-97.69955,26.17133],[-97.69758,26.16992],[-97.69988,26.16592],[-97.69683,26.16448],[-97.70305,26.15362],[-97.6923,26.14859],[-97.69435,26.14506],[-97.69395,26.14466],[-97.69444,26.14418],[-97.69524,26.14455],[-97.69595,26.1432],[-97.69594,26.14272],[-97.69643,26.1426],[-97.69737,26.14295],[-97.69937,26.14405],[-97.69965,26.14354],[-97.69974,26.14405],[-97.70015,26.14405],[-97.70007,26.14347],[-97.70043,26.14342],[-97.7005,26.14362],[-97.70205,26.14336],[-97.70229,26.14477],[-97.70281,26.14525],[-97.70372,26.14505],[-97.7041,26.1446],[-97.70458,26.14369],[-97.70468,26.14177],[-97.70326,26.13781],[-97.70283,26.13422],[-97.70333,26.13373],[-97.70591,26.13332],[-97.70724,26.13278],[-97.70868,26.13148],[-97.70817,26.13097],[-97.70278,26.12848],[-97.71099,26.11597],[-97.71651,26.11855],[-97.71809,26.11899],[-97.73224,26.1198],[-97.74712,26.11851],[-97.74755,26.12206],[-97.75085,26.12189],[-97.75168,26.12296],[-97.7536,26.14248],[-97.75262,26.14346],[-97.75097,26.14405],[-97.7501,26.14372],[-97.74792,26.14382],[-97.74695,26.14359],[-97.74507,26.14194],[-97.7442,26.14096],[-97.74397,26.14025],[-97.74288,26.13972],[-97.74272,26.13921],[-97.7422,26.139],[-97.74129,26.13756],[-97.73911,26.13703],[-97.7383,26.13765],[-97.73732,26.1378],[-97.73643,26.1384],[-97.7358,26.13982],[-97.7359,26.14084],[-97.73435,26.14268],[-97.7329,26.14308],[-97.73215,26.14272],[-97.72996,26.14239],[-97.7283,26.14323],[-97.72679,26.1468],[-97.72683,26.14957],[-97.72649,26.15082],[-97.72449,26.15253],[-97.72278,26.15319],[-97.72131,26.15336],[-97.72074,26.15375],[-97.71997,26.15502],[-97.71868,26.15565],[-97.71481,26.15876],[-97.71089,26.16261],[-97.70995,26.16414],[-97.70956,26.16528],[-97.7095,26.16689],[-97.70898,26.16825],[-97.70801,26.16973],[-97.70643,26.17096],[-97.70576,26.17204],[-97.70459,26.17292],[-97.7038,26.17313],[-97.70274,26.17309],[-97.70183,26.17273],[-97.70113,26.17327],[-97.70071,26.17274]]]}},{"type":"Feature","properties":{"PRECINCT":"cameron:44","COUNTY":"Cameron"},"geometry":{"type":"Polygon","coordinates":[[[-97.63248,26.23069],[-97.63244,26.21646],[-97.61657,26.21648],[-97.61581,26.1965],[-97.60508,26.1973],[-97.60304,26.19726],[-97.59954,26.19658],[-97.60002,26.19596],[-97.60122,26.1951],[-97.60228,26.19477],[-97.6033,26.19487],[-97.60518,26.19547],[-97.6069,26.19537],[-97.61071,26.19264],[-97.61407,26.19115],[-97.61547,26.19098],[-97.61731,26.19124],[-97.61837,26.19077],[-97.62116,26.18897],[-97.62212,26.18795],[-97.62193,26.18722],[-97.62051,26.18529],[-97.62048,26.18435],[-97.62092,26.18375],[-97.62146,26.18339],[-97.62287,26.18302],[-97.62399,26.18334],[-97.62531,26.18412],[-97.62706,26.18412],[-97.62872,26.18309],[-97.62998,26.18258],[-97.63236,26.18209],[-97.63242,26.17981],[-97.6327,26.17859],[-97.63343,26.17708],[-97.63462,26.17575],[-97.6363,26.1747],[-97.64973,26.1691],[-97.65162,26.16761],[-97.65655,26.16211],[-97.66283,26.16681],[-97.66394,26.16558],[-97.67074,26.1706],[-97.67352,26.17329],[-97.66392,26.18786],[-97.66327,26.18934],[-97.66312,26.19308],[-97.66533,26.19309],[-97.66535,26.19585],[-97.66299,26.19586],[-97.66302,26.20531],[-97.66556,26.20531],[-97.66556,26.20901],[-97.66315,26.20901],[-97.66328,26.21257],[-97.65372,26.21271],[-97.65361,26.21637],[-97.64523,26.21644],[-97.64509,26.23123],[-97.62943,26.23137],[-97.6294,26.2307],[-97.63248,26.23069]]]}},{"type":"Feature","properties":{"PRECINCT":"cameron:49","COUNTY":"Cameron"},"geometry":{"type":"Polygon","coordinates":[[[-97.59954,26.19658],[-97.56707,26.19105],[-97.53143,26.18619],[-97.53406,26.16801],[-97.53367,26.16759],[-97.53404,26.16763],[-97.53415,26.16731],[-97.53732,26.14638],[-97.53692,26.14633],[-97.53714,26.14477],[-97.53784,26.14284],[-97.54064,26.1229],[-97.54382,26.1027],[-97.57763,26.10774],[-97.57942,26.09697],[-97.58046,26.09212],[-97.58125,26.08174],[-97.58068,26.081],[-97.58229,26.08097],[-97.5833,26.0807],[-97.59222,26.07745],[-97.59423,26.07591],[-97.59582,26.07414],[-97.59537,26.07578],[-97.59515,26.0788],[-97.59254,26.09634],[-97.59466,26.09882],[-97.59954,26.10317],[-97.59785,26.11075],[-97.60205,26.11138],[-97.60617,26.11427],[-97.60399,26.11668],[-97.60697,26.12492],[-97.59379,26.13956],[-97.59223,26.13871],[-97.59066,26.14078],[-97.59207,26.14108],[-97.59552,26.14359],[-97.60447,26.1335],[-97.61383,26.14036],[-97.6099,26.14475],[-97.6144,26.14805],[-97.61437,26.14917],[-97.60753,26.15637],[-97.60682,26.15753],[-97.60307,26.15682],[-97.6022,26.15712],[-97.60231,26.15819],[-97.60297,26.15942],[-97.60472,26.1616],[-97.6056,26.16218],[-97.6061,26.16329],[-97.60866,26.16049],[-97.60703,26.15934],[-97.61098,26.15495],[-97.61383,26.15683],[-97.61365,26.15364],[-97.61415,26.15268],[-97.6146,26.15243],[-97.61744,26.15326],[-97.61859,26.15315],[-97.62132,26.15065],[-97.62151,26.14999],[-97.62136,26.14969],[-97.61981,26.14756],[-97.61915,26.14622],[-97.61964,26.14565],[-97.62037,26.14731],[-97.62184,26.14885],[-97.62239,26.15],[-97.62389,26.14968],[-97.62394,26.14984],[-97.62314,26.15022],[-97.62098,26.1529],[-97.62223,26.15384],[-97.62436,26.15142],[-97.62639,26.15301],[-97.62943,26.15361],[-97.6296,26.15398],[-97.63147,26.15536],[-97.63039,26.15656],[-97.63182,26.15769],[-97.62902,26.16104],[-97.63362,26.16443],[-97.63246,26.16518],[-97.63027,26.16576],[-97.63731,26.1712],[-97.6395,26.16871],[-97.64348,26.17176],[-97.6363,26.1747],[-97.63444,26.17591],[-97.63343,26.17708],[-97.6327,26.17859],[-97.63242,26.17981],[-97.63236,26.18209],[-97.62998,26.18258],[-97.62872,26.18309],[-97.62706,26.18412],[-97.62531,26.18412],[-97.62399,26.18334],[-97.62287,26.18302],[-97.62146,26.18339],[-97.62092,26.18375],[-97.62048,26.18435],[-97.62051,26.18529],[-97.62193,26.18722],[-97.62212,26.18795],[-97.62116,26.18897],[-97.61779,26.19108],[-97.61676,26.19127],[-97.61547,26.19098],[-97.61407,26.19115],[-97.61071,26.19264],[-97.6069,26.19537],[-97.60518,26.19547],[-97.6033,26.19487],[-97.60228,26.19477],[-97.60122,26.1951],[-97.60002,26.19596],[-97.59954,26.19658]]]}},{"type":"Feature","properties":{"PRECINCT":"cameron:50","COUNTY":"Cameron"},"geometry":{"type":"Polygon","coordinates":[[[-97.64348,26.17176],[-97.6395,26.16871],[-97.63731,26.1712],[-97.63027,26.16576],[-97.63246,26.16518],[-97.63362,26.16443],[-97.62902,26.16104],[-97.63182,26.15769],[-97.63039,26.15656],[-97.63147,26.15536],[-97.6296,26.15398],[-97.62943,26.15361],[-97.62639,26.15301],[-97.62436,26.15142],[-97.62223,26.15384],[-97.62098,26.1529],[-97.62314,26.15022],[-97.62394,26.14984],[-97.62389,26.14968],[-97.62239,26.15],[-97.62184,26.14885],[-97.62037,26.14731],[-97.61964,26.14565],[-97.61915,26.14622],[-97.61981,26.14756],[-97.62136,26.14969],[-97.62151,26.14999],[-97.62132,26.15065],[-97.61859,26.15315],[-97.61744,26.15326],[-97.6146,26.15243],[-97.61415,26.15268],[-97.61365,26.15364],[-97.61383,26.15683],[-97.61098,26.15495],[-97.60703,26.15934],[-97.60866,26.16049],[-97.6061,26.16329],[-97.6056,26.16218],[-97.60472,26.1616],[-97.60297,26.15942],[-97.60231,26.15819],[-97.6022,26.15712],[-97.60307,26.15682],[-97.60682,26.15753],[-97.60753,26.15637],[-97.61437,26.14917],[-97.6144,26.14805],[-97.6099,26.14475],[-97.61383,26.14036],[-97.60447,26.1335],[-97.59552,26.14359],[-97.59207,26.14108],[-97.59066,26.14078],[-97.59223,26.13871],[-97.59379,26.13956],[-97.60697,26.12492],[-97.60399,26.11668],[-97.60617,26.11427],[-97.60205,26.11138],[-97.59785,26.11075],[-97.59954,26.10317],[-97.60776,26.11049],[-97.60631,26.11218],[-97.60718,26.11448],[-97.60666,26.11434],[-97.60781,26.11683],[-97.61041,26.12445],[-97.61225,26.12733],[-97.61384,26.12878],[-97.61901,26.13257],[-97.62138,26.13472],[-97.62781,26.13946],[-97.63405,26.144],[-97.64523,26.15154],[-97.63992,26.15739],[-97.65252,26.16662],[-97.6511,26.16811],[-97.64973,26.1691],[-97.64348,26.17176]]]}},{"type":"Feature","properties":{"PRECINCT":"cameron:52","COUNTY":"Cameron"},"geometry":{"type":"Polygon","coordinates":[[[-97.16725,26.41271],[-97.1565,26.37535],[-97.12612,26.25035],[-97.12525,26.24828],[-97.12525,26.24633],[-97.12455,26.24442],[-97.12126,26.22555],[-97.11728,26.19796],[-97.11461,26.17502],[-97.11333,26.16631],[-97.11259,26.15796],[-97.1107,26.14537],[-97.11015,26.14058],[-97.10965,26.12947],[-97.10904,26.12535],[-97.1083,26.10451],[-97.10025,26.09766],[-97.09422,26.08838],[-97.09292,26.0851],[-97.08999,26.07534],[-97.08934,26.06618],[-97.14469,26.06604],[-97.14471,26.06654],[-97.16683,26.06684],[-97.19647,26.05099],[-97.19739,26.05455],[-97.19717,26.06229],[-97.19759,26.06394],[-97.19736,26.06527],[-97.19836,26.06657],[-97.1983,26.06733],[-97.1963,26.06762],[-97.19629,26.06793],[-97.19571,26.06829],[-97.19188,26.06958],[-97.18949,26.07114],[-97.18966,26.07144],[-97.19151,26.07136],[-97.19241,26.07095],[-97.19323,26.07096],[-97.19749,26.06965],[-97.19833,26.06976],[-97.19878,26.07016],[-97.19946,26.07152],[-97.2012,26.07045],[-97.20147,26.07077],[-97.20046,26.0715],[-97.1988,26.07321],[-97.19765,26.07519],[-97.19727,26.07729],[-97.19751,26.07988],[-97.19811,26.08243],[-97.20201,26.08981],[-97.22182,26.12535],[-97.2534,26.18127],[-97.27666,26.24659],[-97.27831,26.25035],[-97.29312,26.2899],[-97.34762,26.41105],[-97.22329,26.41113],[-97.16725,26.41271]]]}},{"type":"Feature","properties":{"PRECINCT":"cameron:56","COUNTY":"Cameron"},"geometry":{"type":"Polygon","coordinates":[[[-97.66993,26.2127],[-97.66328,26.21257],[-97.66315,26.20901],[-97.66556,26.20901],[-97.66556,26.20531],[-97.68246,26.20528],[-97.68232,26.21407],[-97.68249,26.21444],[-97.68261,26.22627],[-97.67568,26.22627],[-97.67528,26.2271],[-97.66987,26.22708],[-97.66993,26.2127]]]}},{"type":"Feature","properties":{"PRECINCT":"cameron:57","COUNTY":"Cameron"},"geometry":{"type":"Polygon","coordinates":[[[-97.63992,26.15739],[-97.6549,26.14058],[-97.65795,26.14332],[-97.66082,26.14543],[-97.65623,26.15061],[-97.65651,26.15082],[-97.655,26.15254],[-97.65453,26.15236],[-97.65155,26.14962],[-97.64933,26.15215],[-97.65001,26.15283],[-97.64889,26.15409],[-97.65175,26.15621],[-97.64636,26.16228],[-97.63992,26.15739]]]}},{"type":"Feature","properties":{"PRECINCT":"cameron:58","COUNTY":"Cameron"},"geometry":{"type":"Polygon","coordinates":[[[-97.80468,26.23604],[-97.79947,26.23269],[-97.79871,26.23258],[-97.78477,26.23497],[-97.78039,26.23433],[-97.77853,26.23325],[-97.7781,26.2007],[-97.78221,26.2007],[-97.78222,26.20186],[-97.78366,26.20186],[-97.78366,26.2007],[-97.78635,26.2007],[-97.78627,26.19153],[-97.78982,26.19154],[-97.78979,26.18972],[-97.79636,26.1897],[-97.79634,26.18581],[-97.78622,26.18584],[-97.78619,26.18201],[-97.8166,26.16641],[-97.81855,26.16592],[-97.82033,26.16575],[-97.8365,26.16557],[-97.83699,26.23395],[-97.81313,26.23405],[-97.80621,26.23646],[-97.80568,26.23646],[-97.80468,26.23604]]]}},{"type":"Feature","properties":{"PRECINCT":"cameron:59","COUNTY":"Cameron"},"geometry":{"type":"Polygon","coordinates":[[[-97.18966,26.07144],[-97.1896,26.071],[-97.19188,26.06958],[-97.19571,26.06829],[-97.19629,26.06793],[-97.1963,26.06762],[-97.1983,26.06733],[-97.19836,26.06657],[-97.19736,26.06527],[-97.19759,26.06394],[-97.19717,26.06229],[-97.19739,26.05455],[-97.19647,26.05099],[-97.19855,26.04903],[-97.20308,26.04572],[-97.20626,26.04759],[-97.20798,26.04941],[-97.20812,26.04997],[-97.21138,26.05562],[-97.21133,26.05746],[-97.21097,26.05916],[-97.20951,26.06274],[-97.20797,26.06528],[-97.20662,26.06681],[-97.20147,26.07077],[-97.2012,26.07045],[-97.19946,26.07152],[-97.19878,26.07016],[-97.19833,26.06976],[-97.19749,26.06965],[-97.19323,26.07096],[-97.19241,26.07095],[-97.19185,26.07128],[-97.18966,26.07144]]]}},{"type":"Feature","properties":{"PRECINCT":"cameron:65","COUNTY":"Cameron"},"geometry":{"type":"Polygon","coordinates":[[[-97.52067,26.181],[-97.50504,26.15445],[-97.50443,26.1539],[-97.50383,26.15278],[-97.50295,26.15219],[-97.50216,26.15275],[-97.50067,26.15275],[-97.50126,26.14805],[-97.49121,26.13092],[-97.49202,26.13098],[-97.49662,26.08103],[-97.49792,26.07717],[-97.49837,26.07743],[-97.50778,26.07809],[-97.50789,26.07765],[-97.51426,26.07814],[-97.51441,26.07685],[-97.52142,26.07737],[-97.52098,26.08102],[-97.52029,26.08265],[-97.52002,26.08496],[-97.52327,26.08367],[-97.52323,26.08394],[-97.51846,26.08603],[-97.51413,26.08754],[-97.51136,26.08936],[-97.51953,26.09016],[-97.51995,26.08695],[-97.52312,26.08651],[-97.52348,26.08393],[-97.52392,26.08306],[-97.52474,26.07672],[-97.52681,26.07697],[-97.52699,26.07565],[-97.58074,26.08108],[-97.58125,26.08174],[-97.58046,26.09212],[-97.57942,26.09697],[-97.57763,26.10774],[-97.54382,26.1027],[-97.54064,26.1229],[-97.53784,26.14284],[-97.53714,26.14477],[-97.53692,26.14633],[-97.53732,26.14638],[-97.53415,26.16731],[-97.53404,26.16763],[-97.53367,26.16759],[-97.53406,26.16801],[-97.53143,26.18619],[-97.52587,26.18526],[-97.52399,26.18447],[-97.52218,26.18308],[-97.52067,26.181]]]}},{"type":"Feature","properties":{"PRECINCT":"cameron:66","COUNTY":"Cameron"},"geometry":{"type":"Polygon","coordinates":[[[-97.38282,26.17411],[-97.38273,26.1726],[-97.38339,26.17004],[-97.38345,26.16894],[-97.38283,26.14725],[-97.38291,26.14335],[-97.38245,26.13449],[-97.38193,26.13274],[-97.38062,26.13078],[-97.37836,26.13084],[-97.37846,26.11992],[-97.38224,26.11982],[-97.39649,26.10959],[-97.40166,26.10669],[-97.41885,26.09337],[-97.42054,26.09229],[-97.42317,26.09107],[-97.44685,26.08229],[-97.44876,26.08179],[-97.45192,26.08162],[-97.45666,26.08082],[-97.46547,26.07891],[-97.46499,26.0795],[-97.46442,26.08491],[-97.46622,26.08544],[-97.46836,26.08569],[-97.47511,26.0848],[-97.475,26.08599],[-97.47565,26.08615],[-97.47855,26.0878],[-97.47849,26.08908],[-97.47933,26.08931],[-97.48003,26.08987],[-97.48372,26.09006],[-97.48349,26.09389],[-97.48648,26.0941],[-97.4868,26.09046],[-97.49175,26.08946],[-97.49312,26.08875],[-97.49407,26.08748],[-97.49029,26.08709],[-97.49033,26.08556],[-97.48981,26.08269],[-97.48771,26.08254],[-97.48787,26.0803],[-97.49134,26.08061],[-97.49495,26.07712],[-97.49595,26.0772],[-97.49672,26.07691],[-97.49792,26.07717],[-97.49662,26.08103],[-97.49202,26.13098],[-97.49121,26.13092],[-97.49872,26.14372],[-97.49823,26.14351],[-97.49628,26.14614],[-97.49524,26.14828],[-97.49381,26.15291],[-97.49276,26.15473],[-97.49245,26.15476],[-97.49252,26.15513],[-97.49023,26.15678],[-97.48735,26.15826],[-97.48666,26.15832],[-97.48307,26.15973],[-97.48167,26.15971],[-97.48117,26.15949],[-97.48064,26.15614],[-97.48024,26.15504],[-97.47992,26.15504],[-97.47941,26.15165],[-97.48,26.14424],[-97.47891,26.14477],[-97.47718,26.14469],[-97.47586,26.14502],[-97.47207,26.14689],[-97.46977,26.14747],[-97.46953,26.1514],[-97.47014,26.15266],[-97.47152,26.15308],[-97.47382,26.15524],[-97.47425,26.15681],[-97.47416,26.15791],[-97.47318,26.16032],[-97.47161,26.1625],[-97.46842,26.16597],[-97.46793,26.16605],[-97.46656,26.1669],[-97.46516,26.16717],[-97.46403,26.16664],[-97.46244,26.16456],[-97.46166,26.16413],[-97.45984,26.16379],[-97.4568,26.1637],[-97.45498,26.16288],[-97.45432,26.16237],[-97.45416,26.16304],[-97.45142,26.16069],[-97.45063,26.16088],[-97.45055,26.16112],[-97.44964,26.16142],[-97.44939,26.16185],[-97.44987,26.16525],[-97.44965,26.16637],[-97.44862,26.16709],[-97.4484,26.16675],[-97.44551,26.16745],[-97.44436,26.168],[-97.44326,26.16983],[-97.44311,26.17237],[-97.44279,26.17302],[-97.44196,26.17315],[-97.44004,26.17211],[-97.43791,26.17035],[-97.43669,26.16879],[-97.43708,26.16742],[-97.44157,26.16452],[-97.44337,26.16155],[-97.44304,26.16125],[-97.4426,26.16127],[-97.44093,26.15988],[-97.43924,26.15959],[-97.43816,26.16073],[-97.43809,26.16123],[-97.4374,26.16132],[-97.43471,26.16334],[-97.4329,26.16365],[-97.42976,26.16298],[-97.42711,26.16838],[-97.42652,26.16805],[-97.42587,26.16812],[-97.42493,26.16887],[-97.42243,26.16856],[-97.42082,26.16812],[-97.41877,26.16806],[-97.41818,26.16853],[-97.41818,26.16978],[-97.41655,26.17032],[-97.4158,26.1714],[-97.41383,26.1718],[-97.41249,26.17171],[-97.40966,26.17325],[-97.40852,26.17446],[-97.40754,26.17483],[-97.40658,26.17451],[-97.40596,26.17508],[-97.4057,26.17552],[-97.4055,26.17706],[-97.40325,26.17867],[-97.40238,26.1799],[-97.40263,26.18107],[-97.40311,26.18187],[-97.40313,26.18264],[-97.40213,26.18583],[-97.40241,26.18746],[-97.40181,26.18917],[-97.40106,26.19036],[-97.40095,26.19102],[-97.40116,26.19198],[-97.40088,26.19261],[-97.40131,26.19568],[-97.38441,26.19415],[-97.38423,26.18573],[-97.3838,26.1817],[-97.3837,26.17733],[-97.38282,26.17411]]]}},{"type":"Feature","properties":{"PRECINCT":"cameron:67","COUNTY":"Cameron"},"geometry":{"type":"Polygon","coordinates":[[[-97.3824,26.26498],[-97.38215,26.26402],[-97.38231,26.26375],[-97.38282,26.26375],[-97.38291,26.26332],[-97.38132,26.26315],[-97.38269,26.26308],[-97.38259,26.26269],[-97.38149,26.26237],[-97.38068,26.26178],[-97.38024,26.26222],[-97.37637,26.25959],[-97.3723,26.25958],[-97.37226,26.256],[-97.36424,26.25592],[-97.36432,26.26688],[-97.35966,26.2669],[-97.35864,26.2632],[-97.35746,26.26318],[-97.35737,26.26206],[-97.353,26.25915],[-97.35129,26.25763],[-97.35048,26.25604],[-97.33625,26.2562],[-97.33619,26.24893],[-97.33556,26.24875],[-97.33556,26.24897],[-97.33002,26.24901],[-97.33041,26.25029],[-97.32234,26.2504],[-97.32252,26.25074],[-97.32229,26.2513],[-97.31967,26.25395],[-97.3163,26.25569],[-97.31313,26.25629],[-97.31146,26.25746],[-97.30935,26.25704],[-97.30837,26.25707],[-97.30368,26.25931],[-97.2986,26.26036],[-97.29798,26.26129],[-97.28379,26.26499],[-97.27831,26.25035],[-97.27666,26.24659],[-97.2534,26.18127],[-97.22182,26.12535],[-97.20201,26.08981],[-97.19817,26.08253],[-97.2017,26.08088],[-97.20606,26.07821],[-97.2065,26.07848],[-97.2067,26.07898],[-97.20735,26.07913],[-97.20856,26.07862],[-97.20893,26.07908],[-97.21587,26.07896],[-97.21757,26.07892],[-97.22043,26.07835],[-97.22156,26.07884],[-97.22484,26.07922],[-97.22607,26.07916],[-97.22672,26.07848],[-97.22731,26.07836],[-97.22935,26.07869],[-97.23826,26.07905],[-97.24227,26.07957],[-97.24734,26.07987],[-97.248,26.07998],[-97.24859,26.08041],[-97.25547,26.08188],[-97.25851,26.08295],[-97.26262,26.084],[-97.26296,26.08321],[-97.26178,26.08282],[-97.26197,26.08229],[-97.26177,26.0819],[-97.26259,26.07976],[-97.25525,26.07828],[-97.25535,26.07788],[-97.26271,26.07935],[-97.26432,26.08003],[-97.26598,26.0756],[-97.28977,26.08736],[-97.29086,26.08706],[-97.29602,26.0845],[-97.30081,26.08251],[-97.30399,26.08197],[-97.30715,26.08204],[-97.31914,26.0835],[-97.32219,26.08412],[-97.32418,26.08479],[-97.32836,26.08704],[-97.32837,26.08674],[-97.32952,26.08732],[-97.33231,26.08824],[-97.33439,26.08865],[-97.35626,26.08955],[-97.3584,26.08923],[-97.36071,26.08831],[-97.36372,26.08616],[-97.36475,26.08494],[-97.36817,26.07811],[-97.36984,26.0786],[-97.37194,26.07592],[-97.38195,26.06609],[-97.38374,26.06533],[-97.38507,26.06515],[-97.39487,26.06582],[-97.39529,26.10466],[-97.39503,26.10509],[-97.3951,26.11059],[-97.38224,26.11982],[-97.37846,26.11992],[-97.37836,26.13084],[-97.38062,26.13078],[-97.38193,26.13274],[-97.38245,26.13449],[-97.38291,26.14335],[-97.38283,26.14725],[-97.38345,26.16894],[-97.38273,26.17335],[-97.3837,26.17733],[-97.3838,26.1817],[-97.38423,26.18573],[-97.38441,26.19415],[-97.40382,26.1959],[-97.40598,26.19621],[-97.4082,26.19684],[-97.4098,26.19748],[-97.41231,26.1989],[-97.42465,26.20737],[-97.42334,26.23146],[-97.42309,26.23145],[-97.42273,26.23583],[-97.42303,26.23713],[-97.42209,26.24379],[-97.42133,26.256],[-97.41457,26.25669],[-97.39822,26.26748],[-97.3962,26.26811],[-97.39224,26.26785],[-97.39171,26.26707],[-97.3914,26.2659],[-97.39104,26.2656],[-97.38865,26.26501],[-97.38848,26.26669],[-97.38435,26.2667],[-97.38438,26.27041],[-97.38045,26.27043],[-97.38055,26.2687],[-97.38222,26.26613],[-97.3824,26.26498]]]}},{"type":"Feature","properties":{"PRECINCT":"cameron:78","COUNTY":"Cameron"},"geometry":{"type":"Polygon","coordinates":[[[-97.69347,26.2264],[-97.69356,26.21552],[-97.69344,26.21529],[-97.68916,26.21531],[-97.68907,26.20637],[-97.68244,26.20638],[-97.68246,26.20528],[-97.68805,26.20527],[-97.68843,26.20505],[-97.71264,26.21607],[-97.71351,26.21675],[-97.715,26.21898],[-97.71615,26.21895],[-97.71714,26.21852],[-97.72074,26.21852],[-97.72072,26.21704],[-97.72121,26.21705],[-97.72119,26.22605],[-97.71917,26.22652],[-97.7129,26.22648],[-97.71126,26.22598],[-97.70565,26.22616],[-97.70565,26.2264],[-97.69347,26.2264]]]}},{"type":"Feature","properties":{"PRECINCT":"cameron:79","COUNTY":"Cameron"},"geometry":{"type":"Polygon","coordinates":[[[-97.66646,26.18395],[-97.67352,26.17329],[-97.67074,26.1706],[-97.66388,26.16538],[-97.67348,26.1547],[-97.67372,26.1541],[-97.67457,26.15315],[-97.66838,26.14878],[-97.67058,26.14644],[-97.67231,26.14524],[-97.68373,26.14129],[-97.68533,26.14037],[-97.68638,26.13945],[-97.69563,26.12904],[-97.69778,26.1249],[-97.69613,26.12368],[-97.70077,26.11854],[-97.70181,26.1179],[-97.71149,26.10684],[-97.71362,26.10851],[-97.7086,26.11454],[-97.71099,26.11597],[-97.70278,26.12848],[-97.70817,26.13097],[-97.70868,26.13148],[-97.70724,26.13278],[-97.70591,26.13332],[-97.70333,26.13373],[-97.70283,26.13422],[-97.70326,26.13781],[-97.70468,26.14177],[-97.70458,26.14369],[-97.70372,26.14505],[-97.70281,26.14525],[-97.70229,26.14477],[-97.70205,26.14336],[-97.7005,26.14362],[-97.70043,26.14342],[-97.70007,26.14347],[-97.70015,26.14405],[-97.69974,26.14405],[-97.69965,26.14354],[-97.69937,26.14405],[-97.69737,26.14295],[-97.69643,26.1426],[-97.69594,26.14272],[-97.69595,26.1432],[-97.69524,26.14455],[-97.69444,26.14418],[-97.69395,26.14466],[-97.69435,26.14506],[-97.6923,26.14859],[-97.70305,26.15362],[-97.69475,26.16811],[-97.69449,26.16852],[-97.68784,26.16437],[-97.68771,26.16458],[-97.68973,26.16583],[-97.68809,26.16867],[-97.68592,26.16772],[-97.6835,26.17198],[-97.6815,26.17219],[-97.68117,26.17579],[-97.68308,26.17745],[-97.6821,26.17778],[-97.68151,26.17775],[-97.68015,26.177],[-97.67771,26.17664],[-97.67693,26.17735],[-97.67735,26.17987],[-97.67713,26.18101],[-97.67684,26.18139],[-97.67573,26.18184],[-97.67436,26.18131],[-97.67305,26.18148],[-97.6706,26.18251],[-97.66989,26.18357],[-97.66895,26.18407],[-97.66759,26.18416],[-97.66646,26.18395]]]}},{"type":"Feature","properties":{"PRECINCT":"cameron:80","COUNTY":"Cameron"},"geometry":{"type":"Polygon","coordinates":[[[-97.77028,26.2187],[-97.77007,26.21139],[-97.75132,26.21133],[-97.75245,26.21122],[-97.75247,26.20597],[-97.74987,26.20582],[-97.74987,26.20096],[-97.75028,26.20025],[-97.75013,26.18731],[-97.75827,26.18736],[-97.75826,26.18708],[-97.77521,26.18693],[-97.77828,26.18607],[-97.78619,26.18201],[-97.78622,26.18584],[-97.79634,26.18581],[-97.79636,26.1897],[-97.78979,26.18972],[-97.78982,26.19154],[-97.78627,26.19153],[-97.78635,26.2007],[-97.78366,26.2007],[-97.78366,26.20186],[-97.78222,26.20186],[-97.78221,26.2007],[-97.7781,26.2007],[-97.7783,26.21865],[-97.77028,26.2187]]]}},{"type":"Feature","properties":{"PRECINCT":"cameron:81","COUNTY":"Cameron"},"geometry":{"type":"Polygon","coordinates":[[[-97.5165,26.32718],[-97.51321,26.3272],[-97.50849,26.32296],[-97.50659,26.32082],[-97.50625,26.3193],[-97.50671,26.31811],[-97.50787,26.31706],[-97.50953,26.31662],[-97.51316,26.31675],[-97.51413,26.31635],[-97.51469,26.31534],[-97.51413,26.31381],[-97.51257,26.3131],[-97.52652,26.21864],[-97.52658,26.2183],[-97.53063,26.21895],[-97.53246,26.20813],[-97.52823,26.20752],[-97.53143,26.18619],[-97.56707,26.19105],[-97.60304,26.19726],[-97.60625,26.19727],[-97.61581,26.1965],[-97.61657,26.21648],[-97.63244,26.21646],[-97.63248,26.23069],[-97.6294,26.2307],[-97.62943,26.23137],[-97.63967,26.23136],[-97.63967,26.23579],[-97.64537,26.23593],[-97.64547,26.23724],[-97.65487,26.2374],[-97.65507,26.24405],[-97.65716,26.24406],[-97.65717,26.24748],[-97.59867,26.24759],[-97.597,26.24726],[-97.59637,26.2482],[-97.59212,26.25185],[-97.59128,26.25329],[-97.5833,26.29817],[-97.58252,26.29946],[-97.57627,26.30562],[-97.57587,26.30625],[-97.52758,26.2993],[-97.52664,26.30085],[-97.52594,26.30273],[-97.52585,26.30451],[-97.52664,26.30908],[-97.5267,26.31343],[-97.52709,26.31659],[-97.5258,26.32048],[-97.52401,26.32355],[-97.52131,26.32584],[-97.51878,26.32671],[-97.5165,26.32718]],[[-97.58701,26.24741],[-97.58701,26.24645],[-97.58885,26.24646],[-97.58883,26.24474],[-97.58787,26.24474],[-97.58785,26.24204],[-97.58895,26.24204],[-97.58907,26.23825],[-97.59296,26.23832],[-97.59322,26.23825],[-97.59317,26.23614],[-97.59704,26.23615],[-97.59702,26.23215],[-97.59169,26.23213],[-97.59178,26.2287],[-97.58802,26.227],[-97.58817,26.22669],[-97.58698,26.22389],[-97.58507,26.222],[-97.58447,26.22078],[-97.58459,26.21935],[-97.58499,26.2186],[-97.58665,26.21757],[-97.58662,26.21676],[-97.5864,26.21651],[-97.58606,26.21656],[-97.58496,26.21698],[-97.58424,26.21557],[-97.58377,26.21526],[-97.58425,26.21628],[-97.58435,26.21771],[-97.58413,26.21681],[-97.58375,26.21683],[-97.58417,26.21818],[-97.58344,26.21983],[-97.58201,26.21984],[-97.58206,26.22044],[-97.58057,26.22047],[-97.58055,26.22109],[-97.58087,26.22117],[-97.57976,26.22124],[-97.57981,26.22202],[-97.58152,26.22192],[-97.58175,26.22583],[-97.58147,26.22585],[-97.5815,26.22603],[-97.57973,26.22612],[-97.57993,26.22905],[-97.57693,26.22908],[-97.57679,26.2301],[-97.57545,26.2291],[-97.57398,26.23072],[-97.56846,26.2267],[-97.56766,26.2313],[-97.56301,26.23058],[-97.56284,26.23153],[-97.56476,26.23204],[-97.56446,26.23357],[-97.56714,26.23394],[-97.56662,26.23695],[-97.57589,26.23833],[-97.57581,26.23894],[-97.57601,26.23923],[-97.57561,26.24124],[-97.57655,26.24152],[-97.5767,26.24048],[-97.57708,26.24052],[-97.57612,26.24704],[-97.57793,26.24728],[-97.57788,26.24637],[-97.58069,26.2466],[-97.58047,26.24838],[-97.58055,26.24825],[-97.58348,26.24866],[-97.58391,26.24923],[-97.5837,26.24765],[-97.58701,26.24741]]]}},{"type":"Feature","properties":{"PRECINCT":"cameron:83","COUNTY":"Cameron"},"geometry":{"type":"Polygon","coordinates":[[[-97.248,26.07998],[-97.24227,26.07957],[-97.23826,26.07905],[-97.22935,26.07869],[-97.22731,26.07836],[-97.22672,26.07848],[-97.22607,26.07916],[-97.22484,26.07922],[-97.22156,26.07884],[-97.22043,26.07835],[-97.21962,26.07852],[-97.21948,26.07794],[-97.2181,26.07764],[-97.21401,26.07602],[-97.214,26.07578],[-97.21501,26.07466],[-97.21505,26.07404],[-97.214,26.07291],[-97.21295,26.07225],[-97.21253,26.07156],[-97.21235,26.06918],[-97.21165,26.06724],[-97.20873,26.06711],[-97.20665,26.06778],[-97.20576,26.06763],[-97.20797,26.06528],[-97.20951,26.06274],[-97.21097,26.05916],[-97.2113,26.05755],[-97.21349,26.05807],[-97.21359,26.05795],[-97.21472,26.0594],[-97.21465,26.05988],[-97.215,26.0605],[-97.21702,26.0608],[-97.21961,26.05851],[-97.22409,26.05789],[-97.22407,26.05823],[-97.23031,26.06328],[-97.23001,26.06349],[-97.2305,26.06395],[-97.23046,26.06532],[-97.23216,26.06752],[-97.23223,26.06632],[-97.23272,26.06568],[-97.23347,26.06574],[-97.23444,26.06632],[-97.23501,26.06638],[-97.23597,26.06593],[-97.2361,26.06605],[-97.2333,26.06861],[-97.23281,26.06836],[-97.22895,26.07184],[-97.22926,26.07213],[-97.23104,26.07305],[-97.23259,26.07353],[-97.2405,26.07513],[-97.24236,26.07531],[-97.245,26.07501],[-97.24649,26.07508],[-97.24746,26.0754],[-97.24878,26.07623],[-97.24931,26.07671],[-97.24933,26.077],[-97.26259,26.07976],[-97.26177,26.0819],[-97.26197,26.08229],[-97.26178,26.08282],[-97.26296,26.08321],[-97.26262,26.084],[-97.25851,26.08295],[-97.25547,26.08188],[-97.24859,26.08041],[-97.248,26.07998]]]}},{"type":"Feature","properties":{"PRECINCT":"cameron:84","COUNTY":"Cameron"},"geometry":{"type":"Polygon","coordinates":[[[-97.69347,26.2264],[-97.68261,26.22627],[-97.68249,26.21444],[-97.68232,26.21407],[-97.68244,26.20638],[-97.68907,26.20637],[-97.68916,26.21531],[-97.69344,26.21529],[-97.69356,26.21552],[-97.69347,26.2264]]]}},{"type":"Feature","properties":{"PRECINCT":"cameron:85","COUNTY":"Cameron"},"geometry":{"type":"Polygon","coordinates":[[[-97.77235,26.17408],[-97.77235,26.17072],[-97.75633,26.17077],[-97.75633,26.16982],[-97.75798,26.16985],[-97.75795,26.16796],[-97.75496,26.16805],[-97.75506,26.17078],[-97.75077,26.17079],[-97.75076,26.16892],[-97.74623,26.16888],[-97.74624,26.1708],[-97.72999,26.17085],[-97.72994,26.16134],[-97.73151,26.16134],[-97.73151,26.16222],[-97.73245,26.16224],[-97.73284,26.15997],[-97.72993,26.15997],[-97.72993,26.15965],[-97.73274,26.15965],[-97.73227,26.15753],[-97.73216,26.15524],[-97.73205,26.1549],[-97.73163,26.1547],[-97.72989,26.15479],[-97.72991,26.1572],[-97.72603,26.15716],[-97.72594,26.1585],[-97.721,26.15847],[-97.72091,26.15988],[-97.71398,26.1597],[-97.71369,26.16],[-97.7132,26.1604],[-97.71396,26.15948],[-97.71868,26.15565],[-97.71997,26.15502],[-97.72048,26.15402],[-97.72117,26.15343],[-97.72278,26.15319],[-97.72449,26.15253],[-97.72649,26.15082],[-97.72683,26.14957],[-97.72679,26.1468],[-97.72768,26.14443],[-97.72852,26.14303],[-97.72996,26.14239],[-97.73215,26.14272],[-97.7329,26.14308],[-97.73435,26.14268],[-97.7359,26.14084],[-97.7358,26.13982],[-97.73643,26.1384],[-97.73742,26.13774],[-97.7383,26.13765],[-97.73911,26.13703],[-97.74129,26.13756],[-97.7422,26.139],[-97.74272,26.13921],[-97.74288,26.13972],[-97.74397,26.14025],[-97.7442,26.14096],[-97.74507,26.14194],[-97.74695,26.14359],[-97.74792,26.14382],[-97.7501,26.14372],[-97.75115,26.14416],[-97.75173,26.14411],[-97.75244,26.14437],[-97.75614,26.14378],[-97.75874,26.14465],[-97.75935,26.14461],[-97.75983,26.14489],[-97.76234,26.14522],[-97.76378,26.14459],[-97.76456,26.14311],[-97.76454,26.14253],[-97.76393,26.14166],[-97.76234,26.14017],[-97.76325,26.13869],[-97.76489,26.13821],[-97.76598,26.13809],[-97.76733,26.13826],[-97.76942,26.13777],[-97.7722,26.13647],[-97.77342,26.13619],[-97.77464,26.13557],[-97.77518,26.1336],[-97.77597,26.13365],[-97.77639,26.13302],[-97.77741,26.13362],[-97.77861,26.13371],[-97.7808,26.1331],[-97.78197,26.13319],[-97.78239,26.13351],[-97.78282,26.13494],[-97.78264,26.13636],[-97.78306,26.13712],[-97.78438,26.13797],[-97.78606,26.13802],[-97.78613,26.17005],[-97.77235,26.17408]]]}},{"type":"Feature","properties":{"PRECINCT":"cameron:87","COUNTY":"Cameron"},"geometry":{"type":"Polygon","coordinates":[[[-97.78418,26.33653],[-97.69615,26.32352],[-97.6962,26.30788],[-97.70279,26.26888],[-97.69703,26.26776],[-97.69715,26.25688],[-97.68946,26.25682],[-97.6895,26.26078],[-97.68227,26.26076],[-97.68229,26.24831],[-97.70165,26.24841],[-97.70168,26.24456],[-97.70306,26.24457],[-97.70324,26.23769],[-97.70566,26.23758],[-97.70565,26.23524],[-97.7097,26.23521],[-97.70984,26.23751],[-97.71759,26.23759],[-97.71787,26.23583],[-97.71831,26.23469],[-97.71799,26.23454],[-97.71798,26.23364],[-97.71949,26.23328],[-97.72025,26.23339],[-97.72003,26.2328],[-97.72003,26.22786],[-97.72049,26.22786],[-97.72118,26.22893],[-97.72119,26.22827],[-97.72307,26.22855],[-97.7338,26.22856],[-97.73379,26.22956],[-97.73737,26.22945],[-97.73787,26.23149],[-97.73782,26.23316],[-97.74184,26.23316],[-97.74187,26.22962],[-97.74564,26.22965],[-97.74565,26.22759],[-97.75244,26.22756],[-97.75244,26.22983],[-97.75565,26.22972],[-97.75547,26.24042],[-97.7786,26.24042],[-97.77881,26.26335],[-97.76641,26.26345],[-97.74347,26.26312],[-97.77664,26.31359],[-97.77656,26.31381],[-97.78043,26.31989],[-97.78111,26.32187],[-97.78194,26.32664],[-97.78395,26.3345],[-97.78418,26.33653]]]}},{"type":"Feature","properties":{"PRECINCT":"cameron:90","COUNTY":"Cameron"},"geometry":{"type":"Polygon","coordinates":[[[-97.56933,26.01773],[-97.57193,25.99989],[-97.57274,25.99977],[-97.57364,25.99895],[-97.57424,25.99626],[-97.57465,25.9955],[-97.57615,25.99469],[-97.57672,25.99406],[-97.57789,25.99457],[-97.5789,25.98769],[-97.57986,25.98806],[-97.5801,25.98781],[-97.58151,25.97728],[-97.58814,25.97806],[-97.58873,25.97796],[-97.58934,25.9789],[-97.59014,25.97692],[-97.59046,25.97742],[-97.59223,25.97652],[-97.59326,25.9782],[-97.59664,25.98194],[-97.59792,25.98369],[-97.5981,25.98483],[-97.59781,25.98728],[-97.59827,25.98915],[-97.59924,25.99075],[-97.60223,25.99391],[-97.59513,25.99526],[-97.59332,25.99634],[-97.59196,25.99803],[-97.5914,25.99974],[-97.58841,26.02004],[-97.56933,26.01773]]]}},{"type":"Feature","properties":{"PRECINCT":"cameron:92","COUNTY":"Cameron"},"geometry":{"type":"Polygon","coordinates":[[[-97.6881,26.1835],[-97.68018,26.186],[-97.68026,26.18497],[-97.68141,26.18459],[-97.68157,26.18306],[-97.68194,26.18258],[-97.68248,26.18231],[-97.68209,26.18122],[-97.68273,26.18072],[-97.68361,26.18092],[-97.68241,26.18053],[-97.68295,26.17993],[-97.68497,26.17919],[-97.68899,26.18276],[-97.6881,26.1835]]]}},{"type":"Feature","properties":{"PRECINCT":"cameron:93","COUNTY":"Cameron"},"geometry":{"type":"Polygon","coordinates":[[[-97.6835,26.17198],[-97.68592,26.16772],[-97.68809,26.16867],[-97.68973,26.16583],[-97.68771,26.16458],[-97.68784,26.16437],[-97.69449,26.16852],[-97.69683,26.16448],[-97.69988,26.16592],[-97.69758,26.16992],[-97.69955,26.17133],[-97.69967,26.17122],[-97.70124,26.17222],[-97.70064,26.17265],[-97.70113,26.17327],[-97.69902,26.17436],[-97.69845,26.17446],[-97.69736,26.17438],[-97.69659,26.1739],[-97.6961,26.17306],[-97.69662,26.1725],[-97.69656,26.17212],[-97.6945,26.17122],[-97.68625,26.17314],[-97.68507,26.17362],[-97.68412,26.17441],[-97.68366,26.17528],[-97.68339,26.1771],[-97.68308,26.17745],[-97.68117,26.17579],[-97.6815,26.17219],[-97.6835,26.17198]]]}},{"type":"Feature","properties":{"PRECINCT":"cameron:94","COUNTY":"Cameron"},"geometry":{"type":"Polygon","coordinates":[[[-97.58074,26.08108],[-97.5303,26.07598],[-97.53132,26.06862],[-97.5259,26.06791],[-97.52555,26.07054],[-97.52264,26.07031],[-97.52279,26.07037],[-97.51766,26.07368],[-97.50792,26.07274],[-97.4932,26.07171],[-97.49322,26.07006],[-97.49213,26.0699],[-97.49232,26.06794],[-97.49035,26.06788],[-97.49007,26.06968],[-97.48806,26.06947],[-97.48866,26.06465],[-97.48659,26.06455],[-97.48787,26.05333],[-97.48266,26.05277],[-97.48145,26.06598],[-97.48005,26.06579],[-97.48082,26.05778],[-97.47746,26.05755],[-97.47868,26.04379],[-97.46491,26.04337],[-97.46274,26.04206],[-97.45631,26.04205],[-97.45485,26.04228],[-97.45263,26.04363],[-97.45189,26.04384],[-97.45132,26.04366],[-97.44996,26.04266],[-97.44921,26.04265],[-97.44753,26.04336],[-97.44667,26.04337],[-97.44439,26.04214],[-97.44355,26.04194],[-97.42933,26.04409],[-97.41143,26.04815],[-97.398,26.04912],[-97.42301,25.99627],[-97.42378,25.99561],[-97.43613,25.99336],[-97.43674,25.99301],[-97.43804,25.98847],[-97.43876,25.98363],[-97.44143,25.98012],[-97.48593,26.01832],[-97.48757,26.01924],[-97.4893,26.01979],[-97.50089,26.0216],[-97.49795,26.04489],[-97.50504,26.04547],[-97.50543,26.04432],[-97.50994,26.04022],[-97.51022,26.0397],[-97.51538,26.04016],[-97.516,26.04036],[-97.51643,26.04128],[-97.51961,26.044],[-97.52124,26.04425],[-97.52167,26.04534],[-97.52178,26.04674],[-97.52269,26.04829],[-97.52467,26.04947],[-97.52776,26.04991],[-97.52811,26.04726],[-97.52856,26.0473],[-97.52963,26.03882],[-97.52593,26.03834],[-97.52751,26.02649],[-97.5308,26.02819],[-97.53073,26.02869],[-97.53356,26.02937],[-97.53525,26.0319],[-97.54568,26.04144],[-97.5518,26.04673],[-97.55219,26.04614],[-97.5626,26.05561],[-97.56593,26.0597],[-97.58074,26.08108]]]}},{"type":"Feature","properties":{"PRECINCT":"cameron:96","COUNTY":"Cameron"},"geometry":{"type":"Polygon","coordinates":[[[-97.72119,26.22643],[-97.72092,26.20022],[-97.72054,26.19801],[-97.71966,26.19527],[-97.72009,26.19515],[-97.7183,26.19007],[-97.72133,26.18918],[-97.72179,26.18891],[-97.72162,26.18854],[-97.72519,26.18703],[-97.72744,26.18658],[-97.73318,26.18698],[-97.75826,26.18708],[-97.75827,26.18736],[-97.75013,26.18731],[-97.75028,26.20025],[-97.74987,26.20096],[-97.74987,26.20582],[-97.75244,26.20587],[-97.75245,26.21122],[-97.73389,26.21135],[-97.73383,26.22334],[-97.72406,26.2234],[-97.72405,26.22612],[-97.7222,26.22613],[-97.72223,26.22643],[-97.72119,26.22643]]]}},{"type":"Feature","properties":{"PRECINCT":"cameron:99","COUNTY":"Cameron"},"geometry":{"type":"Polygon","coordinates":[[[-97.42606,26.25612],[-97.42133,26.256],[-97.42209,26.24379],[-97.42303,26.23713],[-97.42273,26.23583],[-97.42309,26.23145],[-97.42334,26.23146],[-97.42465,26.20737],[-97.41231,26.1989],[-97.4098,26.19748],[-97.40598,26.19621],[-97.40131,26.19568],[-97.40088,26.19261],[-97.40116,26.19198],[-97.40095,26.19102],[-97.40106,26.19036],[-97.40181,26.18917],[-97.40241,26.18746],[-97.40213,26.18583],[-97.40313,26.18264],[-97.40311,26.18187],[-97.40237,26.18027],[-97.40247,26.17967],[-97.40325,26.17867],[-97.4055,26.17706],[-97.40579,26.17529],[-97.40648,26.17454],[-97.40754,26.17483],[-97.40835,26.17455],[-97.40966,26.17325],[-97.41261,26.17167],[-97.41383,26.1718],[-97.4158,26.1714],[-97.41655,26.17032],[-97.41818,26.16978],[-97.41818,26.16853],[-97.41877,26.16806],[-97.42082,26.16812],[-97.42243,26.16856],[-97.42493,26.16887],[-97.42587,26.16812],[-97.42652,26.16805],[-97.42711,26.16838],[-97.42976,26.16298],[-97.4329,26.16365],[-97.43471,26.16334],[-97.4374,26.16132],[-97.43809,26.16123],[-97.43816,26.16073],[-97.43924,26.15959],[-97.44093,26.15988],[-97.4426,26.16127],[-97.44304,26.16125],[-97.44337,26.16155],[-97.44157,26.16452],[-97.43708,26.16742],[-97.43669,26.16879],[-97.43791,26.17035],[-97.44004,26.17211],[-97.44196,26.17315],[-97.44279,26.17302],[-97.44311,26.17237],[-97.44326,26.16983],[-97.44436,26.168],[-97.44551,26.16745],[-97.4484,26.16675],[-97.44862,26.16709],[-97.44965,26.16637],[-97.44987,26.16525],[-97.44939,26.16185],[-97.44964,26.16142],[-97.45055,26.16112],[-97.45063,26.16088],[-97.45142,26.16069],[-97.45416,26.16304],[-97.45432,26.16237],[-97.45498,26.16288],[-97.4568,26.1637],[-97.45984,26.16379],[-97.46166,26.16413],[-97.46244,26.16456],[-97.46403,26.16664],[-97.46516,26.16717],[-97.46656,26.1669],[-97.46793,26.16605],[-97.46842,26.16597],[-97.47161,26.1625],[-97.47318,26.16032],[-97.47416,26.15791],[-97.47425,26.15681],[-97.47382,26.15524],[-97.47152,26.15308],[-97.47014,26.15266],[-97.46953,26.1514],[-97.46977,26.14747],[-97.47207,26.14689],[-97.47586,26.14502],[-97.47718,26.14469],[-97.47891,26.14477],[-97.48,26.14424],[-97.4794,26.15145],[-97.4798,26.15449],[-97.48064,26.15614],[-97.48117,26.15949],[-97.48167,26.15971],[-97.48307,26.15973],[-97.48666,26.15832],[-97.48814,26.15794],[-97.49023,26.15678],[-97.49252,26.15513],[-97.49245,26.15476],[-97.49276,26.15473],[-97.49381,26.15291],[-97.4957,26.14724],[-97.49683,26.14528],[-97.49843,26.14346],[-97.50126,26.14805],[-97.50067,26.15275],[-97.50216,26.15275],[-97.50313,26.15221],[-97.50383,26.15278],[-97.50443,26.1539],[-97.50504,26.15445],[-97.52158,26.1824],[-97.52292,26.18374],[-97.52493,26.18493],[-97.52679,26.18551],[-97.53143,26.18619],[-97.52823,26.20752],[-97.53246,26.20813],[-97.53063,26.21895],[-97.52658,26.2183],[-97.52551,26.22556],[-97.46344,26.21716],[-97.45967,26.26075],[-97.42606,26.25612]]]}},{"type":"Feature","properties":{"PRECINCT":"willacy:1","COUNTY":"Willacy"},"geometry":{"type":"Polygon","coordinates":[[[-97.77758,26.51928],[-97.7818,26.48914],[-97.78177,26.48723],[-97.78249,26.4819],[-97.81367,26.48153],[-97.81396,26.4806],[-97.81394,26.47421],[-97.86296,26.47382],[-97.86301,26.47974],[-97.8608,26.47973],[-97.86077,26.49924],[-97.86109,26.49924],[-97.86112,26.49999],[-97.86108,26.51083],[-97.86077,26.51081],[-97.86071,26.51865],[-97.86091,26.519],[-97.8607,26.51933],[-97.85993,26.59799],[-97.7669,26.59807],[-97.76633,26.59787],[-97.76643,26.59536],[-97.77429,26.53935],[-97.77492,26.53846],[-97.77621,26.52921],[-97.77611,26.52684],[-97.77567,26.52472],[-97.77758,26.51928]]]}},{"type":"Feature","properties":{"PRECINCT":"willacy:10","COUNTY":"Willacy"},"geometry":{"type":"Polygon","coordinates":[[[-97.22443,26.59769],[-97.21998,26.58986],[-97.21734,26.58467],[-97.21406,26.57677],[-97.21352,26.57409],[-97.21268,26.56688],[-97.21282,26.56403],[-97.21255,26.56165],[-97.20181,26.52906],[-97.19685,26.51284],[-97.18457,26.47585],[-97.17877,26.45471],[-97.23827,26.45433],[-97.36636,26.45426],[-97.4828,26.45367],[-97.48266,26.45399],[-97.58961,26.45361],[-97.59064,26.51371],[-97.59004,26.5614],[-97.5901,26.59993],[-97.50026,26.60099],[-97.4743,26.59981],[-97.29011,26.60035],[-97.25,26.60009],[-97.22537,26.60023],[-97.22443,26.59769]]]}},{"type":"Feature","properties":{"PRECINCT":"willacy:11","COUNTY":"Willacy"},"geometry":{"type":"Polygon","coordinates":[[[-97.75811,26.48209],[-97.75638,26.4639],[-97.75988,26.46379],[-97.7598,26.46338],[-97.7684,26.46341],[-97.76838,26.45971],[-97.77407,26.45969],[-97.77805,26.45236],[-97.75289,26.45249],[-97.74936,26.45309],[-97.69169,26.45348],[-97.69155,26.44001],[-97.70759,26.43978],[-97.70764,26.43992],[-97.77156,26.43968],[-97.77159,26.43757],[-97.77197,26.43726],[-97.78858,26.43715],[-97.78829,26.44258],[-97.78426,26.47146],[-97.78071,26.47145],[-97.78074,26.47245],[-97.77881,26.47246],[-97.77878,26.46696],[-97.77024,26.46705],[-97.76938,26.47014],[-97.76876,26.47455],[-97.76861,26.482],[-97.75811,26.48209]]]}},{"type":"Feature","properties":{"PRECINCT":"willacy:12","COUNTY":"Willacy"},"geometry":{"type":"Polygon","coordinates":[[[-97.17877,26.45471],[-97.16737,26.41311],[-97.22354,26.41148],[-97.39073,26.41133],[-97.39491,26.40568],[-97.395,26.40188],[-97.39644,26.39998],[-97.39838,26.39652],[-97.40078,26.38652],[-97.40626,26.38138],[-97.40871,26.37855],[-97.44962,26.37848],[-97.55534,26.37774],[-97.55624,26.37794],[-97.55812,26.37739],[-97.55917,26.37771],[-97.56355,26.37762],[-97.56419,26.3774],[-97.56511,26.3777],[-97.57331,26.37765],[-97.57388,26.37828],[-97.58614,26.37812],[-97.58621,26.38853],[-97.58675,26.38922],[-97.58774,26.3897],[-97.59666,26.38983],[-97.59799,26.39045],[-97.59843,26.39109],[-97.59922,26.39347],[-97.59939,26.40218],[-97.67305,26.40201],[-97.67352,26.41236],[-97.67365,26.42547],[-97.67301,26.42592],[-97.67304,26.4349],[-97.67206,26.43493],[-97.67211,26.45314],[-97.61819,26.45319],[-97.60735,26.4535],[-97.57846,26.45369],[-97.55895,26.45376],[-97.55895,26.45361],[-97.48266,26.45399],[-97.4828,26.45367],[-97.36636,26.45426],[-97.23827,26.45433],[-97.17877,26.45471]]]}},{"type":"Feature","properties":{"PRECINCT":"willacy:2","COUNTY":"Willacy"},"geometry":{"type":"MultiPolygon","coordinates":[[[[-97.70835,26.48259],[-97.70805,26.45339],[-97.74936,26.45309],[-97.75289,26.45249],[-97.77805,26.45236],[-97.77407,26.45969],[-97.76838,26.45971],[-97.7684,26.46341],[-97.7598,26.46338],[-97.75988,26.46379],[-97.75638,26.4639],[-97.75811,26.48209],[-97.70835,26.48259]]],[[[-97.76894,26.47295],[-97.76959,26.4691],[-97.77024,26.46705],[-97.77878,26.46696],[-97.77881,26.47246],[-97.78074,26.47245],[-97.78071,26.47145],[-97.78426,26.47146],[-97.78249,26.4819],[-97.76861,26.482],[-97.76858,26.4769],[-97.76894,26.47295]]]]}},{"type":"Feature","properties":{"PRECINCT":"willacy:3","COUNTY":"Willacy"},"geometry":{"type":"Polygon","coordinates":[[[-97.68221,26.45311],[-97.67211,26.45314],[-97.67206,26.43493],[-97.67304,26.4349],[-97.67301,26.42592],[-97.67365,26.42547],[-97.67352,26.41236],[-97.67303,26.4019],[-97.62432,26.40226],[-97.59939,26.40218],[-97.59922,26.39347],[-97.59829,26.3908],[-97.59763,26.39016],[-97.59686,26.38985],[-97.59921,26.38983],[-97.5991,26.37797],[-97.61954,26.37775],[-97.61954,26.37245],[-97.69319,26.37248],[-97.69351,26.37242],[-97.69388,26.37188],[-97.75712,26.37196],[-97.79144,26.37176],[-97.79146,26.38172],[-97.78858,26.43715],[-97.77197,26.43726],[-97.77159,26.43757],[-97.77156,26.43968],[-97.70764,26.43992],[-97.70759,26.43978],[-97.69155,26.44001],[-97.69169,26.45348],[-97.68548,26.45352],[-97.68221,26.45311]]]}},{"type":"Feature","properties":{"PRECINCT":"willacy:4","COUNTY":"Willacy"},"geometry":{"type":"Polygon","coordinates":[[[-97.8297,26.42232],[-97.8294,26.39325],[-97.81327,26.39338],[-97.81305,26.3716],[-97.76547,26.37194],[-97.69388,26.37188],[-97.69351,26.37242],[-97.69319,26.37248],[-97.61954,26.37245],[-97.61954,26.37775],[-97.5991,26.37797],[-97.59921,26.38983],[-97.58822,26.38974],[-97.58748,26.38962],[-97.58662,26.38911],[-97.58606,26.38816],[-97.58614,26.37812],[-97.57388,26.37828],[-97.57331,26.37765],[-97.56511,26.3777],[-97.56419,26.3774],[-97.56355,26.37762],[-97.55917,26.37771],[-97.55812,26.37739],[-97.55624,26.37794],[-97.55534,26.37774],[-97.44962,26.37848],[-97.40871,26.37855],[-97.4098,26.37727],[-97.41173,26.37398],[-97.41264,26.37319],[-97.41616,26.37136],[-97.4178,26.37013],[-97.41943,26.36858],[-97.42129,26.36614],[-97.42311,26.36519],[-97.42422,26.36493],[-97.42863,26.36494],[-97.42932,26.36476],[-97.43005,26.36434],[-97.43088,26.36332],[-97.43216,26.36061],[-97.43213,26.35602],[-97.43308,26.35244],[-97.43552,26.34545],[-97.43592,26.3412],[-97.43728,26.33723],[-97.43822,26.33592],[-97.44214,26.332],[-97.44345,26.33029],[-97.44415,26.32901],[-97.44458,26.32671],[-97.44538,26.32582],[-97.44699,26.32495],[-97.44951,26.32441],[-97.45226,26.32448],[-97.45414,26.32498],[-97.45532,26.32547],[-97.45591,26.32609],[-97.45625,26.32672],[-97.45653,26.32899],[-97.45716,26.32996],[-97.45904,26.33179],[-97.45988,26.33205],[-97.46454,26.33179],[-97.46571,26.33238],[-97.46646,26.33395],[-97.46642,26.3349],[-97.46622,26.33585],[-97.46505,26.33823],[-97.46459,26.34051],[-97.46503,26.34157],[-97.46589,26.34232],[-97.46661,26.34271],[-97.46788,26.3429],[-97.47247,26.34262],[-97.47375,26.34222],[-97.47434,26.34181],[-97.47489,26.34128],[-97.47501,26.34074],[-97.47472,26.33972],[-97.47065,26.33705],[-97.4682,26.3326],[-97.46829,26.33127],[-97.46975,26.32989],[-97.47101,26.33004],[-97.47171,26.33037],[-97.47365,26.33215],[-97.47407,26.33279],[-97.47622,26.33432],[-97.47934,26.33587],[-97.48265,26.3367],[-97.48547,26.33709],[-97.48861,26.33707],[-97.49264,26.33671],[-97.49552,26.33601],[-97.49825,26.33491],[-97.50026,26.33359],[-97.5025,26.33275],[-97.50376,26.33273],[-97.50766,26.33472],[-97.50853,26.33442],[-97.50903,26.33358],[-97.50842,26.3322],[-97.50567,26.32937],[-97.50518,26.32835],[-97.50515,26.32725],[-97.50448,26.32486],[-97.50375,26.32368],[-97.50193,26.32259],[-97.5009,26.32147],[-97.5007,26.32081],[-97.50082,26.31885],[-97.50284,26.31594],[-97.50569,26.31324],[-97.50694,26.3127],[-97.50891,26.31257],[-97.51229,26.31298],[-97.51413,26.31381],[-97.51469,26.31534],[-97.51413,26.31635],[-97.51316,26.31675],[-97.50953,26.31662],[-97.50787,26.31706],[-97.50671,26.31811],[-97.50625,26.3193],[-97.50659,26.32082],[-97.50759,26.32208],[-97.51014,26.32414],[-97.51335,26.32624],[-97.51501,26.32693],[-97.51789,26.3267],[-97.52131,26.32584],[-97.52401,26.32355],[-97.5258,26.32048],[-97.52709,26.31659],[-97.5267,26.31343],[-97.52664,26.30908],[-97.52585,26.30451],[-97.52594,26.30273],[-97.52664,26.30085],[-97.52758,26.2993],[-97.52816,26.29927],[-97.52978,26.29967],[-97.6745,26.32027],[-97.68756,26.32245],[-97.79107,26.33745],[-97.79167,26.33771],[-97.79837,26.33855],[-97.82364,26.34252],[-97.86187,26.34816],[-97.8619,26.42207],[-97.8297,26.42232]]]}},{"type":"Feature","properties":{"PRECINCT":"willacy:5","COUNTY":"Willacy"},"geometry":{"type":"Polygon","coordinates":[[[-97.9574,26.61177],[-97.86169,26.598],[-97.85993,26.59799],[-97.85983,26.59415],[-97.8607,26.51933],[-97.86091,26.519],[-97.86071,26.51865],[-97.86077,26.51081],[-97.86108,26.51083],[-97.86112,26.49999],[-97.86109,26.49924],[-97.86077,26.49924],[-97.8608,26.47973],[-97.86301,26.47974],[-97.86272,26.45152],[-97.88112,26.45138],[-97.88382,26.45168],[-97.88751,26.45168],[-97.88777,26.43352],[-97.89031,26.43331],[-97.90851,26.43324],[-97.9083,26.43491],[-97.90847,26.43496],[-98.00419,26.44878],[-97.99651,26.49191],[-97.99228,26.49131],[-97.98437,26.53658],[-97.96391,26.5335],[-97.96884,26.55136],[-97.97007,26.55225],[-97.96876,26.55398],[-97.96824,26.56018],[-97.96866,26.5622],[-97.96809,26.56892],[-97.96442,26.56875],[-97.9574,26.61177]]]}},{"type":"Feature","properties":{"PRECINCT":"willacy:6","COUNTY":"Willacy"},"geometry":{"type":"Polygon","coordinates":[[[-97.59,26.57454],[-97.59064,26.51371],[-97.58961,26.45361],[-97.60735,26.4535],[-97.61819,26.45319],[-97.6819,26.45308],[-97.68548,26.45352],[-97.70805,26.45339],[-97.70835,26.48259],[-97.68792,26.48281],[-97.68846,26.54083],[-97.68844,26.57023],[-97.68913,26.57024],[-97.68844,26.57025],[-97.68874,26.58546],[-97.68859,26.59871],[-97.62527,26.59923],[-97.62272,26.59956],[-97.5901,26.59993],[-97.5902,26.58355],[-97.59,26.57454]]]}},{"type":"Feature","properties":{"PRECINCT":"willacy:7","COUNTY":"Willacy"},"geometry":{"type":"Polygon","coordinates":[[[-97.78696,26.4521],[-97.84637,26.45165],[-97.84631,26.44561],[-97.83002,26.44579],[-97.8297,26.42232],[-97.8619,26.42207],[-97.86192,26.43358],[-97.88785,26.43344],[-97.88751,26.45168],[-97.88382,26.45168],[-97.88112,26.45138],[-97.86272,26.45152],[-97.86296,26.47382],[-97.81394,26.47421],[-97.81396,26.4806],[-97.81367,26.48153],[-97.78249,26.4819],[-97.78304,26.47789],[-97.78398,26.47343],[-97.78696,26.4521]]]}},{"type":"Feature","properties":{"PRECINCT":"willacy:8","COUNTY":"Willacy"},"geometry":{"type":"Polygon","coordinates":[[[-97.68859,26.59871],[-97.68874,26.58546],[-97.68844,26.57025],[-97.68913,26.57024],[-97.68844,26.57023],[-97.68846,26.54083],[-97.68792,26.48281],[-97.78249,26.4819],[-97.78177,26.48723],[-97.7818,26.48914],[-97.77758,26.51928],[-97.77567,26.52472],[-97.77611,26.52684],[-97.77621,26.52921],[-97.77492,26.53846],[-97.77429,26.53935],[-97.77277,26.54994],[-97.76643,26.59536],[-97.76635,26.59788],[-97.76437,26.59807],[-97.68859,26.59871]]]}},{"type":"Feature","properties":{"PRECINCT":"willacy:9","COUNTY":"Willacy"},"geometry":{"type":"Polygon","coordinates":[[[-97.78697,26.45201],[-97.78842,26.44124],[-97.79146,26.38172],[-97.79144,26.37176],[-97.81305,26.3716],[-97.81327,26.39338],[-97.8294,26.39325],[-97.83002,26.44579],[-97.84631,26.44561],[-97.84637,26.45165],[-97.78697,26.45201]]]}}]}