{"type":"FeatureCollection","features":[{"type":"Feature","properties":{"PRECINCT":"1","VTD":"0001"},"geometry":{"type":"Polygon","coordinates":[[[-94.982044,33.169483],[-94.982067,33.167251],[-94.980612,33.167257],[-94.980715,33.161664],[-94.978637,33.161653],[-94.978613,33.157058],[-94.972713,33.156689],[-94.969497,33.156703],[-94.969501,33.155873],[-94.968539,33.15587],[-94.968558,33.153728],[-94.971599,33.150532],[-94.973226,33.149406],[-94.974954,33.14882],[-94.977149,33.148671],[-94.982905,33.149532],[-94.991326,33.151296],[-95.00021,33.152749],[-95.003057,33.15278],[-95.003809,33.153943],[-95.003727,33.155361],[-94.99531,33.15663],[-94.992906,33.15738],[-94.993004,33.160655],[-94.997909,33.162097],[-94.997992,33.162565],[-94.998154,33.16217],[-94.998925,33.1624],[-94.998491,33.163456],[-94.997029,33.163106],[-94.997538,33.16484],[-94.989858,33.166317],[-94.982044,33.169483]]]}},{"type":"Feature","properties":{"PRECINCT":"2","VTD":"0002"},"geometry":{"type":"Polygon","coordinates":[[[-94.964423,33.313119],[-94.963742,33.313183],[-94.96372,33.312685],[-94.965256,33.312157],[-94.965451,33.311844],[-94.96524,33.311622],[-94.961958,33.311242],[-94.960184,33.310491],[-94.959612,33.310529],[-94.957002,33.312033],[-94.957517,33.308537],[-94.959594,33.302501],[-94.96009,33.29981],[-94.95955,33.284253],[-94.959137,33.28248],[-94.958244,33.281115],[-94.957461,33.28041],[-94.94711,33.271662],[-94.946219,33.270336],[-94.945812,33.26907],[-94.946174,33.237267],[-94.946683,33.232562],[-94.945649,33.22639],[-94.961604,33.22643],[-94.961728,33.221884],[-94.961941,33.2217],[-94.975666,33.221828],[-94.976173,33.221201],[-94.988357,33.22099],[-94.98894,33.222271],[-94.995917,33.222293],[-94.996222,33.222648],[-94.996292,33.224977],[-95.002963,33.225065],[-95.002988,33.228294],[-95.003179,33.228409],[-95.017501,33.228581],[-95.019171,33.228358],[-95.020972,33.229681],[-95.029781,33.239007],[-95.029625,33.247354],[-95.026837,33.249803],[-95.025342,33.252767],[-95.025296,33.254589],[-95.026843,33.254652],[-95.026937,33.254841],[-95.026862,33.270336],[-95.026651,33.270508],[-95.024838,33.270567],[-95.024565,33.270788],[-95.024487,33.273851],[-95.023785,33.277399],[-95.021599,33.279313],[-95.021423,33.281858],[-95.020713,33.282051],[-95.018295,33.281979],[-95.018016,33.282159],[-95.018012,33.28519],[-95.01862,33.287278],[-95.019218,33.291489],[-95.025905,33.29159],[-95.026418,33.292596],[-95.027092,33.292943],[-95.02674,33.293094],[-95.02672,33.293385],[-95.026327,33.293357],[-95.025725,33.293906],[-95.025365,33.295423],[-95.024082,33.295665],[-95.023637,33.295533],[-95.023427,33.295847],[-95.022668,33.295896],[-95.022334,33.296571],[-95.022563,33.29699],[-95.022301,33.297803],[-95.022563,33.297748],[-95.022431,33.298088],[-95.023302,33.298825],[-95.023668,33.299678],[-95.023412,33.300266],[-95.023569,33.300539],[-95.023058,33.301215],[-95.023752,33.301546],[-95.023254,33.303514],[-95.024013,33.30442],[-95.02453,33.304646],[-95.02453,33.305081],[-95.022487,33.305574],[-95.022029,33.305816],[-95.022022,33.306305],[-95.019862,33.306458],[-95.01852,33.306848],[-95.016871,33.30637],[-95.016263,33.305132],[-95.015262,33.304352],[-95.011263,33.30362],[-95.009633,33.304372],[-95.009154,33.305273],[-95.007845,33.305366],[-95.007164,33.305833],[-95.006726,33.305546],[-95.005763,33.305497],[-95.005849,33.304485],[-95.005286,33.304436],[-95.004521,33.303528],[-95.003971,33.303781],[-95.002394,33.303759],[-95.002263,33.304264],[-95.001529,33.304654],[-94.99815,33.304288],[-94.996442,33.304954],[-94.994444,33.305078],[-94.994242,33.305937],[-94.992823,33.306984],[-94.992191,33.306868],[-94.990534,33.305897],[-94.989595,33.3065],[-94.988298,33.306823],[-94.98766,33.307499],[-94.985974,33.307463],[-94.985626,33.307766],[-94.986097,33.30836],[-94.985839,33.30883],[-94.985269,33.308822],[-94.984857,33.308249],[-94.984187,33.308104],[-94.983724,33.30819],[-94.982875,33.308985],[-94.981837,33.309449],[-94.982192,33.308743],[-94.981922,33.308262],[-94.979956,33.308169],[-94.979353,33.308695],[-94.978979,33.30838],[-94.978342,33.308503],[-94.976677,33.30966],[-94.97622,33.310991],[-94.977797,33.311543],[-94.977351,33.31206],[-94.976793,33.312188],[-94.975915,33.312174],[-94.975518,33.311962],[-94.974823,33.311112],[-94.974545,33.310226],[-94.973626,33.310335],[-94.972275,33.309952],[-94.971161,33.310035],[-94.970579,33.309644],[-94.970201,33.309947],[-94.97014,33.311608],[-94.970577,33.312567],[-94.971278,33.312708],[-94.971592,33.313186],[-94.970679,33.314691],[-94.969992,33.314331],[-94.970087,33.313526],[-94.968916,33.312835],[-94.968167,33.313421],[-94.966691,33.314087],[-94.96656,33.315081],[-94.965706,33.315126],[-94.964613,33.314455],[-94.964423,33.313119]]]}},{"type":"Feature","properties":{"PRECINCT":"3","VTD":"0003"},"geometry":{"type":"Polygon","coordinates":[[[-95.100946,33.325854],[-95.100339,33.324437],[-95.099588,33.324629],[-95.09863,33.323746],[-95.097642,33.323906],[-95.096687,33.324905],[-95.09607,33.32497],[-95.093119,33.322533],[-95.092447,33.322474],[-95.091911,33.322809],[-95.091614,33.32274],[-95.091483,33.32188],[-95.091001,33.321728],[-95.090153,33.321883],[-95.089734,33.322547],[-95.089264,33.322783],[-95.087445,33.322564],[-95.086466,33.322823],[-95.086247,33.323335],[-95.086449,33.324205],[-95.086065,33.324576],[-95.085825,33.324556],[-95.085084,33.323452],[-95.084512,33.323023],[-95.082917,33.32354],[-95.082055,33.32266],[-95.080421,33.322149],[-95.080222,33.322311],[-95.080479,33.323068],[-95.08029,33.323486],[-95.079745,33.3233],[-95.078801,33.321939],[-95.078197,33.322159],[-95.077854,33.323357],[-95.077536,33.323423],[-95.077058,33.323103],[-95.076579,33.321893],[-95.075436,33.322243],[-95.074573,33.321274],[-95.07309,33.322046],[-95.072034,33.320968],[-95.071471,33.320862],[-95.070451,33.321272],[-95.070069,33.321149],[-95.070484,33.31973],[-95.068393,33.317227],[-95.065524,33.31662],[-95.065167,33.316678],[-95.064688,33.317388],[-95.064267,33.317425],[-95.064014,33.316493],[-95.063295,33.315641],[-95.062641,33.315581],[-95.061652,33.315868],[-95.060994,33.315114],[-95.060231,33.315789],[-95.05993,33.315798],[-95.059191,33.314847],[-95.05891,33.313957],[-95.058512,33.313727],[-95.057669,33.313763],[-95.057461,33.313978],[-95.058142,33.315091],[-95.058733,33.315556],[-95.058412,33.315905],[-95.057673,33.31573],[-95.055943,33.314438],[-95.055626,33.313595],[-95.054846,33.313815],[-95.054046,33.31346],[-95.053176,33.314239],[-95.053416,33.313235],[-95.053086,33.313029],[-95.052407,33.313172],[-95.051821,33.314374],[-95.051342,33.314498],[-95.051139,33.314295],[-95.051174,33.31327],[-95.050545,33.312928],[-95.049897,33.313056],[-95.048985,33.313741],[-95.049734,33.314964],[-95.049381,33.315539],[-95.04888,33.315592],[-95.047802,33.315168],[-95.047283,33.315939],[-95.046982,33.315091],[-95.045447,33.315385],[-95.045306,33.315182],[-95.045524,33.314763],[-95.047431,33.314121],[-95.047291,33.313862],[-95.046323,33.313851],[-95.044411,33.31454],[-95.044075,33.315302],[-95.044642,33.315776],[-95.044531,33.316114],[-95.043346,33.316172],[-95.041669,33.315668],[-95.041288,33.314073],[-95.040078,33.313474],[-95.04049,33.313173],[-95.040463,33.312747],[-95.039395,33.312514],[-95.037105,33.312753],[-95.037313,33.312457],[-95.038439,33.311932],[-95.038501,33.311481],[-95.038283,33.311331],[-95.037557,33.311244],[-95.036625,33.311898],[-95.035694,33.311745],[-95.035602,33.311408],[-95.036106,33.310847],[-95.036051,33.310146],[-95.035186,33.309289],[-95.034547,33.3093],[-95.034263,33.308743],[-95.03264,33.309227],[-95.032069,33.309759],[-95.03145,33.309981],[-95.031232,33.310315],[-95.031433,33.310744],[-95.031002,33.311686],[-95.030517,33.311356],[-95.030378,33.310626],[-95.028852,33.310903],[-95.02877,33.309137],[-95.02701,33.309692],[-95.026902,33.310018],[-95.027417,33.311248],[-95.026835,33.311611],[-95.026478,33.311278],[-95.025914,33.311239],[-95.025706,33.31064],[-95.025083,33.310657],[-95.024362,33.30997],[-95.023404,33.309994],[-95.022746,33.310614],[-95.022129,33.310617],[-95.021492,33.309919],[-95.022078,33.309536],[-95.022161,33.309157],[-95.021586,33.308928],[-95.020298,33.309033],[-95.019367,33.309618],[-95.018509,33.310581],[-95.018407,33.31096],[-95.018999,33.311404],[-95.018824,33.311814],[-95.018191,33.311808],[-95.017397,33.311086],[-95.016923,33.311121],[-95.016844,33.311512],[-95.017517,33.312672],[-95.017366,33.312883],[-95.016379,33.311991],[-95.015393,33.311745],[-95.015032,33.311337],[-95.015425,33.310707],[-95.016434,33.310232],[-95.016475,33.309894],[-95.016175,33.309654],[-95.01507,33.309497],[-95.014078,33.309936],[-95.014087,33.311214],[-95.013566,33.311287],[-95.012836,33.311042],[-95.013006,33.308494],[-95.014514,33.308512],[-95.01499,33.308224],[-95.014514,33.307665],[-95.012612,33.306958],[-95.011936,33.307091],[-95.011907,33.308079],[-95.011056,33.308746],[-95.0116,33.309264],[-95.011482,33.309663],[-95.011149,33.309828],[-95.010771,33.309499],[-95.010386,33.308023],[-95.01045,33.307264],[-95.008932,33.306925],[-95.006421,33.30939],[-95.006045,33.309125],[-95.006027,33.307853],[-95.005439,33.307814],[-95.005133,33.308261],[-95.00523,33.309987],[-95.004302,33.310561],[-95.00388,33.310447],[-95.003735,33.310077],[-95.00438,33.309167],[-95.004263,33.308824],[-95.003578,33.308953],[-95.002643,33.310268],[-95.002483,33.309423],[-95.000634,33.309012],[-95.000569,33.308535],[-95.000102,33.308087],[-94.999635,33.308014],[-94.999013,33.308492],[-94.998302,33.308604],[-94.997697,33.308214],[-94.996803,33.306958],[-94.996313,33.306984],[-94.995934,33.307434],[-94.995448,33.307217],[-94.996289,33.30637],[-94.995246,33.305729],[-94.995512,33.305086],[-94.996606,33.304916],[-94.99815,33.304288],[-95.001529,33.304654],[-95.002263,33.304264],[-95.002394,33.303759],[-95.003971,33.303781],[-95.004449,33.303517],[-95.005286,33.304436],[-95.005849,33.304485],[-95.005763,33.305497],[-95.006726,33.305546],[-95.007164,33.305833],[-95.007845,33.305366],[-95.009154,33.305273],[-95.009384,33.304575],[-95.010896,33.303669],[-95.01354,33.303911],[-95.015877,33.304676],[-95.016871,33.30637],[-95.01852,33.306848],[-95.019862,33.306458],[-95.022022,33.306305],[-95.022029,33.305816],[-95.022487,33.305574],[-95.024549,33.305047],[-95.02453,33.304646],[-95.024013,33.30442],[-95.023254,33.303514],[-95.023752,33.301546],[-95.023058,33.301215],[-95.023569,33.300539],[-95.023412,33.300266],[-95.023668,33.299678],[-95.023302,33.298825],[-95.022431,33.298088],[-95.022563,33.297748],[-95.022301,33.297803],[-95.022563,33.29699],[-95.022334,33.296571],[-95.022668,33.295896],[-95.023427,33.295847],[-95.023637,33.295533],[-95.024082,33.295665],[-95.025365,33.295423],[-95.025725,33.293906],[-95.026327,33.293357],[-95.02672,33.293385],[-95.02674,33.293094],[-95.027092,33.292943],[-95.026418,33.292596],[-95.025905,33.29159],[-95.019218,33.291489],[-95.01862,33.287278],[-95.018012,33.28519],[-95.018016,33.282159],[-95.018295,33.281979],[-95.020713,33.282051],[-95.021423,33.281858],[-95.021599,33.279313],[-95.023785,33.277399],[-95.024487,33.273851],[-95.024565,33.270788],[-95.024838,33.270567],[-95.026651,33.270508],[-95.026862,33.270336],[-95.026937,33.254841],[-95.026843,33.254652],[-95.025296,33.254589],[-95.025342,33.252767],[-95.026837,33.249803],[-95.029625,33.247354],[-95.029781,33.239007],[-95.026906,33.235944],[-95.040578,33.236213],[-95.04076,33.23001],[-95.04134,33.229066],[-95.04945,33.23482],[-95.054248,33.238946],[-95.055707,33.240633],[-95.058717,33.242326],[-95.060515,33.244394],[-95.065794,33.247954],[-95.069281,33.249802],[-95.074217,33.253424],[-95.078698,33.253279],[-95.090644,33.253444],[-95.091114,33.253923],[-95.091232,33.255481],[-95.091607,33.25571],[-95.099083,33.25614],[-95.111983,33.255843],[-95.117613,33.255932],[-95.117936,33.25605],[-95.118165,33.257088],[-95.124531,33.257151],[-95.124934,33.313048],[-95.124874,33.312119],[-95.124239,33.311763],[-95.123055,33.312196],[-95.121511,33.313347],[-95.120758,33.313265],[-95.120405,33.313606],[-95.120039,33.314842],[-95.120163,33.315194],[-95.120975,33.315506],[-95.120629,33.316733],[-95.119883,33.317112],[-95.118292,33.316695],[-95.117952,33.316904],[-95.118005,33.31752],[-95.118869,33.318201],[-95.118536,33.318872],[-95.116808,33.318894],[-95.11612,33.318021],[-95.115695,33.318334],[-95.115767,33.319401],[-95.115224,33.319373],[-95.114432,33.318769],[-95.114196,33.319011],[-95.114229,33.319687],[-95.113908,33.319737],[-95.113319,33.319589],[-95.112821,33.319111],[-95.112729,33.318116],[-95.111669,33.318143],[-95.11125,33.318485],[-95.111617,33.319237],[-95.111172,33.319936],[-95.110701,33.320079],[-95.109915,33.31955],[-95.109947,33.318221],[-95.109417,33.31805],[-95.108435,33.318381],[-95.108023,33.318755],[-95.108508,33.319595],[-95.108482,33.320058],[-95.107495,33.320998],[-95.106671,33.322377],[-95.105363,33.323374],[-95.103757,33.323976],[-95.104252,33.324638],[-95.104141,33.32519],[-95.1026,33.325693],[-95.101784,33.325535],[-95.100946,33.325854]]]}},{"type":"Feature","properties":{"PRECINCT":"4","VTD":"0004"},"geometry":{"type":"Polygon","coordinates":[[[-95.071933,33.126874],[-95.070683,33.126858],[-95.070451,33.12454],[-95.069505,33.121496],[-95.068536,33.119363],[-95.067576,33.118598],[-95.06774,33.116996],[-95.064689,33.117057],[-95.063414,33.11515],[-95.060077,33.111995],[-95.05817,33.109695],[-95.055723,33.111114],[-95.053656,33.112011],[-95.051781,33.113746],[-95.04926,33.115097],[-95.045181,33.115234],[-95.041534,33.11575],[-95.036429,33.115367],[-95.032825,33.115704],[-95.0307,33.116056],[-95.027551,33.116984],[-95.023147,33.118679],[-95.023344,33.112263],[-95.022723,33.107901],[-95.026886,33.107439],[-95.028775,33.106374],[-95.030785,33.105196],[-95.030868,33.104466],[-95.031718,33.103549],[-95.032012,33.102477],[-95.031202,33.101169],[-95.030641,33.101273],[-95.03034,33.10085],[-95.02987,33.100806],[-95.028845,33.10004],[-95.028479,33.101432],[-95.027865,33.102322],[-95.028048,33.100628],[-95.027023,33.099579],[-95.026338,33.099519],[-95.025796,33.099167],[-95.024908,33.100018],[-95.024809,33.100485],[-95.025136,33.101151],[-95.024842,33.101194],[-95.024633,33.10076],[-95.023974,33.100568],[-95.024424,33.100018],[-95.024203,33.099139],[-95.02336,33.098858],[-95.022564,33.097638],[-95.02182,33.097203],[-95.021578,33.097313],[-95.021552,33.09767],[-95.021774,33.098709],[-95.021584,33.099451],[-95.022014,33.100809],[-95.021779,33.100963],[-95.02144,33.10065],[-95.021015,33.100687],[-95.020898,33.100166],[-95.020291,33.099846],[-95.020284,33.099336],[-95.01984,33.099269],[-95.019298,33.099533],[-95.019227,33.099302],[-95.019926,33.0985],[-95.018698,33.098174],[-95.019586,33.09796],[-95.01975,33.097785],[-95.019586,33.097593],[-95.018326,33.097307],[-95.017523,33.098174],[-95.017,33.098252],[-95.01717,33.097696],[-95.016772,33.097558],[-95.015244,33.097887],[-95.014349,33.097783],[-95.01418,33.097513],[-95.014539,33.096832],[-95.014017,33.096398],[-95.01369,33.096595],[-95.013403,33.096431],[-95.013423,33.095959],[-95.012346,33.095463],[-95.013371,33.095107],[-95.013992,33.094468],[-95.013352,33.093628],[-95.013914,33.092748],[-95.014332,33.092731],[-95.014835,33.092079],[-95.014339,33.092039],[-95.014065,33.091551],[-95.014614,33.091304],[-95.014588,33.090753],[-95.015025,33.090688],[-95.015894,33.089599],[-95.015718,33.089138],[-95.014589,33.088873],[-95.014413,33.088538],[-95.013662,33.088724],[-95.01274,33.089758],[-95.013504,33.090121],[-95.013563,33.090373],[-95.012655,33.090401],[-95.012805,33.091501],[-95.012002,33.091577],[-95.011681,33.091918],[-95.012269,33.092688],[-95.011949,33.092709],[-95.010616,33.093913],[-95.009989,33.093704],[-95.010747,33.093522],[-95.011263,33.092973],[-95.010741,33.091951],[-95.010382,33.091813],[-95.010337,33.091258],[-95.011153,33.091268],[-95.011421,33.090786],[-95.011049,33.090362],[-95.011173,33.089993],[-95.01084,33.089499],[-95.011004,33.089064],[-95.010697,33.08834],[-95.009934,33.087856],[-95.010182,33.087685],[-95.009138,33.085887],[-95.009184,33.085496],[-95.006071,33.082693],[-95.005504,33.081412],[-95.003708,33.082016],[-95.003212,33.081999],[-95.002468,33.081587],[-95.002971,33.080944],[-95.003011,33.080339],[-95.002328,33.075034],[-95.002753,33.074962],[-95.002932,33.074464],[-95.003828,33.073532],[-95.003837,33.0732],[-95.003092,33.073042],[-95.003166,33.072405],[-95.003713,33.07215],[-95.005215,33.07204],[-95.005717,33.071638],[-95.005846,33.0711],[-95.007223,33.071149],[-95.007141,33.071689],[-95.006386,33.072595],[-95.006527,33.072847],[-95.007678,33.072499],[-95.009816,33.072877],[-95.010167,33.073154],[-95.009357,33.073867],[-95.010044,33.074984],[-95.010748,33.074393],[-95.011292,33.074542],[-95.011413,33.075785],[-95.014203,33.076045],[-95.014465,33.075725],[-95.014032,33.074939],[-95.014615,33.075032],[-95.015488,33.074747],[-95.016805,33.075006],[-95.016964,33.075378],[-95.01827,33.075742],[-95.018591,33.075163],[-95.020129,33.075359],[-95.021388,33.074745],[-95.021776,33.075094],[-95.022291,33.075167],[-95.022872,33.07457],[-95.024196,33.07407],[-95.025082,33.074463],[-95.025686,33.074306],[-95.025783,33.073895],[-95.025324,33.073445],[-95.025744,33.0732],[-95.027993,33.07303],[-95.028305,33.072418],[-95.028851,33.072293],[-95.029048,33.072673],[-95.028544,33.07334],[-95.029163,33.073642],[-95.030703,33.07362],[-95.030686,33.073309],[-95.030058,33.073043],[-95.030058,33.072074],[-95.030475,33.07144],[-95.031028,33.071686],[-95.031178,33.072994],[-95.032002,33.07287],[-95.03182,33.0719],[-95.032426,33.0715],[-95.032798,33.071624],[-95.032961,33.072602],[-95.033312,33.072887],[-95.033573,33.072558],[-95.033389,33.071741],[-95.034822,33.07096],[-95.036454,33.072245],[-95.037152,33.072305],[-95.036898,33.070771],[-95.037405,33.070799],[-95.037672,33.071834],[-95.038265,33.071886],[-95.038302,33.070966],[-95.038094,33.070763],[-95.039303,33.070318],[-95.039528,33.070788],[-95.039224,33.071537],[-95.040269,33.072294],[-95.040826,33.07208],[-95.039917,33.070041],[-95.04123,33.069775],[-95.042918,33.070237],[-95.044581,33.070272],[-95.044699,33.069982],[-95.043543,33.069814],[-95.043279,33.069449],[-95.044045,33.0693],[-95.043914,33.067999],[-95.045099,33.068047],[-95.045279,33.067283],[-95.047039,33.067221],[-95.047167,33.066811],[-95.047898,33.066283],[-95.047266,33.065382],[-95.046424,33.065426],[-95.046161,33.064923],[-95.046328,33.064433],[-95.046663,33.064427],[-95.047042,33.064791],[-95.04777,33.064684],[-95.047716,33.064352],[-95.046583,33.063837],[-95.04637,33.063069],[-95.04684,33.062903],[-95.047843,33.061949],[-95.048351,33.061863],[-95.048306,33.062606],[-95.048561,33.062905],[-95.050043,33.062899],[-95.050485,33.062708],[-95.050223,33.062036],[-95.050378,33.061812],[-95.051433,33.06147],[-95.051911,33.061483],[-95.052632,33.062052],[-95.053301,33.062072],[-95.054099,33.061585],[-95.054424,33.061611],[-95.055404,33.060052],[-95.054767,33.059693],[-95.054171,33.057978],[-95.054663,33.05753],[-95.055626,33.057761],[-95.055799,33.056649],[-95.056417,33.057057],[-95.056428,33.057944],[-95.057039,33.057997],[-95.056951,33.057164],[-95.057577,33.05775],[-95.057959,33.057727],[-95.057734,33.05621],[-95.057267,33.05615],[-95.057144,33.055906],[-95.057705,33.055208],[-95.058078,33.055259],[-95.05811,33.055954],[-95.059389,33.056106],[-95.059768,33.055464],[-95.060304,33.055362],[-95.060703,33.054622],[-95.062714,33.054256],[-95.063083,33.054637],[-95.063828,33.054779],[-95.064262,33.054378],[-95.065639,33.055388],[-95.065821,33.055267],[-95.065626,33.054685],[-95.067452,33.053688],[-95.067885,33.054385],[-95.068194,33.054056],[-95.068374,33.054178],[-95.068599,33.054752],[-95.069776,33.054744],[-95.072587,33.05359],[-95.07445,33.053683],[-95.076274,33.052912],[-95.076564,33.052557],[-95.078394,33.052076],[-95.079146,33.051372],[-95.078921,33.05091],[-95.079051,33.050249],[-95.079446,33.049897],[-95.07921,33.048524],[-95.079439,33.047483],[-95.080316,33.046674],[-95.081126,33.04697],[-95.081444,33.046762],[-95.081457,33.046294],[-95.082053,33.045966],[-95.084022,33.04593],[-95.084729,33.044925],[-95.085211,33.044907],[-95.085249,33.043791],[-95.085895,33.043722],[-95.086353,33.043287],[-95.087685,33.04287],[-95.088189,33.043368],[-95.088873,33.043368],[-95.090331,33.042816],[-95.091609,33.041398],[-95.090757,33.041051],[-95.091338,33.040022],[-95.09277,33.039698],[-95.094577,33.037565],[-95.096681,33.038387],[-95.096977,33.038172],[-95.09659,33.036959],[-95.098036,33.037273],[-95.098926,33.037132],[-95.099029,33.036937],[-95.098616,33.036817],[-95.098358,33.036125],[-95.09841,33.034978],[-95.098787,33.034813],[-95.098668,33.035649],[-95.099107,33.036299],[-95.099313,33.036299],[-95.099174,33.035598],[-95.099356,33.035218],[-95.099869,33.036015],[-95.100269,33.035908],[-95.100444,33.034483],[-95.101491,33.034537],[-95.10152,33.035578],[-95.101853,33.035756],[-95.102193,33.035089],[-95.102574,33.035237],[-95.102438,33.034397],[-95.103228,33.034773],[-95.102986,33.034094],[-95.103227,33.033796],[-95.103043,33.032956],[-95.103973,33.032702],[-95.104319,33.033488],[-95.104959,33.033565],[-95.105238,33.03342],[-95.104969,33.032466],[-95.105506,33.032244],[-95.106318,33.032273],[-95.106779,33.033123],[-95.107342,33.033264],[-95.107535,33.033006],[-95.107429,33.031981],[-95.10793,33.031508],[-95.10833,33.031664],[-95.108751,33.03278],[-95.109276,33.032871],[-95.109588,33.031073],[-95.10998,33.031004],[-95.110405,33.031757],[-95.111975,33.03145],[-95.112614,33.031568],[-95.113033,33.030675],[-95.113617,33.030509],[-95.114331,33.030786],[-95.115174,33.031672],[-95.115009,33.031953],[-95.113252,33.031838],[-95.113063,33.032635],[-95.113694,33.032656],[-95.11477,33.033138],[-95.115039,33.034076],[-95.115814,33.033991],[-95.115867,33.034484],[-95.116726,33.03461],[-95.117943,33.03423],[-95.118656,33.034743],[-95.119728,33.034506],[-95.120253,33.034647],[-95.120935,33.034239],[-95.121047,33.034514],[-95.120786,33.034812],[-95.121136,33.035265],[-95.12212,33.035303],[-95.122222,33.035756],[-95.123362,33.035359],[-95.123858,33.035556],[-95.124233,33.035259],[-95.124604,33.035503],[-95.125217,33.035362],[-95.12613,33.034581],[-95.125573,33.11907],[-95.119458,33.119146],[-95.119435,33.114212],[-95.115429,33.114162],[-95.115363,33.118913],[-95.094927,33.118724],[-95.095083,33.119204],[-95.096009,33.119033],[-95.096754,33.119148],[-95.096983,33.11967],[-95.097557,33.119236],[-95.098406,33.119186],[-95.09853,33.119895],[-95.098772,33.119982],[-95.098433,33.120527],[-95.098531,33.121467],[-95.09878,33.121637],[-95.098329,33.122028],[-95.098414,33.122297],[-95.098845,33.122401],[-95.099133,33.123126],[-95.098892,33.123928],[-95.099963,33.124314],[-95.099358,33.125931],[-95.098744,33.125096],[-95.098332,33.125217],[-95.098221,33.125833],[-95.097625,33.124798],[-95.095692,33.124788],[-95.095443,33.124249],[-95.094942,33.125805],[-95.095093,33.12607],[-95.095883,33.125909],[-95.096443,33.126258],[-95.095074,33.126258],[-95.08941,33.121803],[-95.087271,33.120572],[-95.087603,33.11997],[-95.086551,33.118513],[-95.086264,33.118426],[-95.085591,33.118723],[-95.084964,33.118271],[-95.083926,33.118277],[-95.083534,33.118806],[-95.08343,33.119586],[-95.083051,33.11992],[-95.081999,33.120037],[-95.081588,33.119608],[-95.080151,33.119169],[-95.078381,33.119619],[-95.078224,33.119818],[-95.078277,33.120296],[-95.078695,33.120609],[-95.078623,33.120917],[-95.079028,33.121378],[-95.078708,33.122422],[-95.079394,33.123081],[-95.079564,33.123857],[-95.079083,33.125337],[-95.079377,33.125639],[-95.079331,33.126061],[-95.079638,33.126165],[-95.08005,33.126973],[-95.079044,33.127266],[-95.078887,33.126534],[-95.079057,33.125974],[-95.07888,33.125804],[-95.0786,33.125951],[-95.078417,33.126744],[-95.078123,33.126826],[-95.078306,33.12726],[-95.077672,33.127783],[-95.077552,33.12924],[-95.075375,33.128974],[-95.073163,33.12726],[-95.071933,33.126874]]]}},{"type":"Feature","properties":{"PRECINCT":"5","VTD":"0005"},"geometry":{"type":"Polygon","coordinates":[[[-94.886848,33.397083],[-94.8848,33.396968],[-94.883545,33.396165],[-94.881416,33.395868],[-94.88027,33.394653],[-94.87956,33.394516],[-94.877321,33.39488],[-94.876175,33.394444],[-94.875984,33.393804],[-94.87623,33.393392],[-94.877213,33.392797],[-94.877596,33.39211],[-94.876805,33.391078],[-94.875959,33.39101],[-94.873894,33.391969],[-94.872828,33.390939],[-94.86977,33.389795],[-94.868841,33.389017],[-94.86895,33.388376],[-94.869632,33.38787],[-94.870041,33.387023],[-94.870013,33.386221],[-94.869412,33.385879],[-94.868621,33.385834],[-94.866764,33.386201],[-94.865918,33.385697],[-94.865617,33.38501],[-94.865808,33.384644],[-94.866245,33.384459],[-94.867146,33.384459],[-94.868757,33.385146],[-94.86933,33.385032],[-94.86952,33.384115],[-94.869138,33.383681],[-94.8681,33.383153],[-94.86649,33.383063],[-94.865425,33.382606],[-94.863869,33.382697],[-94.863568,33.382537],[-94.863186,33.38192],[-94.863322,33.381484],[-94.864686,33.380384],[-94.864713,33.380087],[-94.861682,33.379561],[-94.857586,33.3767],[-94.856985,33.376631],[-94.856603,33.376883],[-94.856467,33.377433],[-94.857642,33.379379],[-94.857697,33.380226],[-94.857424,33.380639],[-94.857616,33.381509],[-94.857288,33.381601],[-94.856169,33.381258],[-94.854312,33.379724],[-94.853957,33.380595],[-94.854477,33.381991],[-94.854149,33.38245],[-94.853494,33.38261],[-94.852784,33.382267],[-94.852347,33.380778],[-94.851419,33.380115],[-94.851091,33.380115],[-94.850845,33.380412],[-94.850737,33.381625],[-94.849536,33.382222],[-94.849536,33.382474],[-94.850246,33.382795],[-94.850437,33.38355],[-94.849864,33.383848],[-94.849182,33.383848],[-94.848472,33.383299],[-94.848471,33.382108],[-94.847625,33.380757],[-94.847269,33.379223],[-94.846859,33.378878],[-94.846286,33.378833],[-94.844976,33.380139],[-94.843257,33.380781],[-94.843448,33.381376],[-94.845168,33.381833],[-94.845633,33.382818],[-94.845251,33.383391],[-94.844595,33.383483],[-94.843995,33.383209],[-94.842984,33.381605],[-94.841919,33.380919],[-94.841046,33.381217],[-94.840664,33.382225],[-94.840064,33.382316],[-94.838016,33.38179],[-94.837416,33.382064],[-94.837361,33.382294],[-94.837853,33.382752],[-94.8393,33.383462],[-94.839818,33.384057],[-94.839846,33.385088],[-94.839245,33.385179],[-94.837498,33.384447],[-94.836624,33.383806],[-94.83616,33.383119],[-94.836542,33.38179],[-94.835941,33.379407],[-94.835449,33.378928],[-94.834958,33.378859],[-94.83433,33.379432],[-94.835096,33.383417],[-94.834441,33.383851],[-94.833867,33.383875],[-94.833403,33.383646],[-94.832557,33.382523],[-94.83212,33.382364],[-94.830755,33.382799],[-94.830154,33.382776],[-94.82969,33.382181],[-94.829362,33.380211],[-94.828379,33.379043],[-94.826523,33.378724],[-94.824229,33.379365],[-94.817623,33.37641],[-94.813447,33.375906],[-94.812221,33.375115],[-94.811485,33.37321],[-94.811513,33.372179],[-94.812468,33.371675],[-94.813341,33.371789],[-94.814624,33.372431],[-94.815252,33.372453],[-94.815962,33.371996],[-94.816125,33.370851],[-94.815307,33.369774],[-94.814624,33.369522],[-94.813014,33.369591],[-94.812058,33.369087],[-94.811867,33.368446],[-94.812249,33.366979],[-94.813614,33.366751],[-94.814979,33.367072],[-94.815497,33.366728],[-94.81547,33.366315],[-94.814569,33.365468],[-94.814023,33.364162],[-94.814924,33.36336],[-94.814951,33.362858],[-94.81345,33.362674],[-94.812276,33.363407],[-94.811321,33.364759],[-94.810502,33.365102],[-94.80982,33.364049],[-94.808783,33.363636],[-94.810269,33.28289],[-94.811042,33.283144],[-94.811611,33.28361],[-94.812308,33.284846],[-94.812518,33.285489],[-94.812373,33.285928],[-94.811591,33.286876],[-94.81162,33.287273],[-94.812116,33.287702],[-94.813008,33.287933],[-94.814005,33.287371],[-94.814884,33.28723],[-94.815176,33.288178],[-94.815989,33.288221],[-94.817729,33.289374],[-94.819146,33.289702],[-94.819767,33.290072],[-94.819585,33.290855],[-94.818889,33.291908],[-94.819184,33.29374],[-94.818367,33.295712],[-94.818489,33.296507],[-94.820832,33.300238],[-94.822887,33.300742],[-94.823985,33.301519],[-94.824018,33.302312],[-94.824479,33.302909],[-94.824377,33.304373],[-94.824872,33.30509],[-94.825143,33.305234],[-94.826071,33.305087],[-94.82649,33.305512],[-94.82738,33.305522],[-94.827652,33.306233],[-94.828448,33.30689],[-94.827871,33.307471],[-94.828953,33.308725],[-94.829602,33.308695],[-94.829911,33.308428],[-94.829426,33.306705],[-94.829616,33.306269],[-94.829971,33.306151],[-94.830421,33.306311],[-94.830425,33.307249],[-94.830879,33.307695],[-94.833283,33.307952],[-94.833711,33.308205],[-94.833991,33.308923],[-94.833087,33.309826],[-94.833218,33.310434],[-94.833571,33.310685],[-94.834573,33.310792],[-94.835278,33.311298],[-94.835489,33.310972],[-94.835103,33.31044],[-94.835448,33.309932],[-94.836315,33.309638],[-94.836988,33.309831],[-94.837998,33.311275],[-94.837374,33.312274],[-94.837437,33.313127],[-94.839113,33.314664],[-94.8397,33.314557],[-94.840086,33.313692],[-94.840622,33.313706],[-94.840785,33.314017],[-94.840591,33.314991],[-94.840847,33.315269],[-94.841168,33.315213],[-94.841719,33.314498],[-94.842123,33.314402],[-94.843086,33.31555],[-94.843988,33.315624],[-94.845142,33.315334],[-94.845518,33.315964],[-94.84719,33.316743],[-94.847724,33.316631],[-94.847995,33.316333],[-94.847847,33.316007],[-94.846629,33.315787],[-94.84621,33.315467],[-94.846281,33.31468],[-94.846821,33.314138],[-94.84756,33.314118],[-94.848011,33.314852],[-94.848583,33.315074],[-94.84918,33.314208],[-94.850104,33.31463],[-94.850722,33.313923],[-94.851256,33.313761],[-94.851994,33.31409],[-94.852146,33.315029],[-94.852539,33.31524],[-94.853501,33.315356],[-94.854835,33.315998],[-94.856903,33.316127],[-94.857232,33.315733],[-94.857226,33.314976],[-94.858017,33.314058],[-94.857803,33.313226],[-94.857224,33.313152],[-94.856255,33.314611],[-94.85588,33.314617],[-94.855587,33.314306],[-94.85585,33.313342],[-94.855774,33.311791],[-94.856783,33.310741],[-94.857149,33.310679],[-94.859406,33.311656],[-94.859384,33.31002],[-94.859617,33.309618],[-94.860318,33.30988],[-94.861349,33.311152],[-94.861505,33.310253],[-94.862819,33.309595],[-94.864815,33.309435],[-94.866148,33.309013],[-94.867543,33.30899],[-94.867734,33.3087],[-94.867576,33.307716],[-94.867982,33.307665],[-94.868492,33.308172],[-94.868799,33.308169],[-94.870774,33.306151],[-94.870749,33.305767],[-94.869616,33.305338],[-94.869344,33.304738],[-94.870446,33.304367],[-94.871045,33.304425],[-94.871322,33.303628],[-94.871977,33.303172],[-94.872869,33.303251],[-94.872834,33.304412],[-94.874928,33.305162],[-94.875268,33.304907],[-94.875926,33.303528],[-94.876208,33.303621],[-94.876842,33.304637],[-94.877365,33.304749],[-94.87761,33.304519],[-94.877667,33.3035],[-94.878367,33.303209],[-94.879125,33.303821],[-94.88045,33.304063],[-94.880563,33.304605],[-94.879625,33.304766],[-94.879311,33.305208],[-94.879654,33.305419],[-94.881215,33.305163],[-94.881095,33.305929],[-94.881403,33.306358],[-94.882418,33.306179],[-94.883431,33.305253],[-94.884058,33.305324],[-94.884074,33.305549],[-94.883094,33.305917],[-94.882949,33.306266],[-94.883053,33.307011],[-94.883456,33.30755],[-94.883759,33.307395],[-94.883531,33.306787],[-94.884927,33.306223],[-94.885241,33.306355],[-94.884943,33.307037],[-94.885221,33.307347],[-94.885941,33.306711],[-94.886369,33.306747],[-94.88674,33.307325],[-94.886405,33.308368],[-94.886624,33.308698],[-94.887035,33.308674],[-94.8876,33.308169],[-94.88886,33.30784],[-94.889227,33.308666],[-94.889871,33.308853],[-94.889419,33.307744],[-94.88977,33.307429],[-94.890558,33.30742],[-94.89067,33.308096],[-94.891388,33.308971],[-94.892556,33.308897],[-94.893232,33.309339],[-94.89316,33.30971],[-94.89153,33.310803],[-94.891522,33.311344],[-94.891775,33.311483],[-94.892828,33.310644],[-94.893268,33.310688],[-94.893367,33.311582],[-94.894208,33.312219],[-94.893382,33.312787],[-94.893416,33.313017],[-94.893907,33.313263],[-94.895223,33.313325],[-94.895105,33.314261],[-94.895566,33.314321],[-94.896558,33.313842],[-94.89714,33.313912],[-94.898449,33.315173],[-94.899625,33.314884],[-94.900117,33.31506],[-94.900739,33.31626],[-94.901133,33.316027],[-94.901022,33.31532],[-94.901372,33.314704],[-94.901888,33.3144],[-94.902684,33.314445],[-94.903451,33.314959],[-94.903915,33.315828],[-94.905049,33.316032],[-94.90532,33.316966],[-94.906434,33.317559],[-94.90653,33.318877],[-94.908653,33.318993],[-94.9101,33.318647],[-94.910922,33.318744],[-94.910736,33.320402],[-94.910142,33.320731],[-94.909928,33.3213],[-94.910762,33.322626],[-94.911765,33.323082],[-94.912015,33.323473],[-94.911697,33.323895],[-94.910896,33.324223],[-94.910897,33.324664],[-94.912029,33.325581],[-94.912975,33.326008],[-94.915165,33.326507],[-94.916223,33.326054],[-94.917385,33.326447],[-94.918198,33.325967],[-94.918433,33.326909],[-94.920248,33.327843],[-94.920665,33.327573],[-94.919785,33.326234],[-94.920123,33.325637],[-94.92064,33.325592],[-94.922566,33.326825],[-94.922088,33.324754],[-94.923906,33.323976],[-94.924993,33.324956],[-94.926224,33.325589],[-94.925635,33.32403],[-94.926984,33.322977],[-94.927842,33.323175],[-94.927974,33.324401],[-94.928629,33.324965],[-94.931639,33.324084],[-94.933764,33.324601],[-94.93462,33.324592],[-94.935758,33.323258],[-94.934728,33.32311],[-94.933838,33.322284],[-94.933575,33.321723],[-94.934091,33.321527],[-94.935424,33.322097],[-94.935577,33.321438],[-94.936323,33.320912],[-94.935805,33.320608],[-94.935698,33.320216],[-94.936512,33.319079],[-94.937334,33.319485],[-94.9376,33.320765],[-94.938039,33.320873],[-94.938651,33.320549],[-94.938791,33.32029],[-94.937969,33.319795],[-94.937338,33.318444],[-94.937948,33.31825],[-94.938722,33.318365],[-94.939633,33.317315],[-94.940713,33.317286],[-94.940465,33.316243],[-94.940728,33.315773],[-94.941359,33.315378],[-94.942172,33.315446],[-94.942455,33.316086],[-94.94299,33.31653],[-94.943954,33.316634],[-94.944048,33.316311],[-94.943325,33.315668],[-94.943532,33.315292],[-94.944758,33.315993],[-94.945103,33.315911],[-94.945363,33.315111],[-94.945947,33.314681],[-94.947875,33.315216],[-94.948829,33.315204],[-94.948941,33.314797],[-94.948712,33.314492],[-94.946755,33.314093],[-94.946955,33.313381],[-94.94822,33.313257],[-94.948716,33.313713],[-94.949189,33.31376],[-94.949982,33.313516],[-94.950773,33.312869],[-94.951853,33.312648],[-94.952353,33.312818],[-94.95326,33.313727],[-94.953676,33.313737],[-94.953898,33.313507],[-94.953944,33.312517],[-94.955053,33.312891],[-94.956608,33.312444],[-94.95716,33.311849],[-94.959612,33.310529],[-94.960343,33.310529],[-94.96207,33.311266],[-94.965396,33.311736],[-94.965256,33.312157],[-94.96372,33.312685],[-94.963616,33.312902],[-94.963742,33.313183],[-94.964423,33.313119],[-94.964613,33.314455],[-94.965706,33.315126],[-94.96656,33.315081],[-94.966691,33.314087],[-94.968167,33.313421],[-94.968916,33.312835],[-94.970087,33.313526],[-94.969992,33.314331],[-94.970679,33.314691],[-94.971592,33.313186],[-94.971278,33.312708],[-94.970577,33.312567],[-94.97014,33.311608],[-94.970201,33.309947],[-94.970579,33.309644],[-94.971161,33.310035],[-94.972275,33.309952],[-94.973626,33.310335],[-94.974545,33.310226],[-94.974823,33.311112],[-94.975518,33.311962],[-94.975915,33.312174],[-94.976793,33.312188],[-94.977351,33.31206],[-94.977797,33.311543],[-94.97622,33.310991],[-94.976677,33.30966],[-94.978342,33.308503],[-94.978979,33.30838],[-94.979353,33.308695],[-94.979956,33.308169],[-94.981922,33.308262],[-94.982192,33.308743],[-94.981837,33.309449],[-94.982875,33.308985],[-94.983724,33.30819],[-94.984187,33.308104],[-94.984857,33.308249],[-94.985269,33.308822],[-94.985839,33.30883],[-94.986097,33.30836],[-94.985626,33.307766],[-94.985974,33.307463],[-94.98766,33.307499],[-94.988298,33.306823],[-94.989595,33.3065],[-94.990534,33.305897],[-94.992191,33.306868],[-94.992823,33.306984],[-94.994242,33.305937],[-94.994372,33.305128],[-94.995271,33.304898],[-94.995512,33.305086],[-94.995246,33.305729],[-94.996289,33.30637],[-94.995423,33.30708],[-94.995625,33.307358],[-94.995934,33.307434],[-94.996313,33.306984],[-94.996803,33.306958],[-94.997697,33.308214],[-94.998302,33.308604],[-94.999013,33.308492],[-94.999635,33.308014],[-95.000102,33.308087],[-95.000569,33.308535],[-95.000634,33.309012],[-95.002483,33.309423],[-95.002643,33.310268],[-95.003578,33.308953],[-95.004263,33.308824],[-95.00438,33.309167],[-95.003735,33.310077],[-95.004084,33.310558],[-95.00523,33.309987],[-95.005133,33.308261],[-95.005439,33.307814],[-95.006027,33.307853],[-95.006045,33.309125],[-95.006421,33.30939],[-95.008932,33.306925],[-95.01045,33.307264],[-95.010386,33.308023],[-95.010771,33.309499],[-95.011149,33.309828],[-95.011482,33.309663],[-95.0116,33.309264],[-95.011056,33.308746],[-95.011907,33.308079],[-95.011936,33.307091],[-95.012281,33.306922],[-95.013032,33.307077],[-95.014514,33.307665],[-95.01499,33.308224],[-95.014514,33.308512],[-95.013006,33.308494],[-95.012836,33.311042],[-95.013566,33.311287],[-95.014087,33.311214],[-95.014078,33.309936],[-95.01507,33.309497],[-95.016175,33.309654],[-95.016475,33.309894],[-95.016434,33.310232],[-95.015425,33.310707],[-95.015032,33.311337],[-95.015393,33.311745],[-95.016379,33.311991],[-95.017328,33.312877],[-95.017517,33.312672],[-95.016811,33.311366],[-95.016993,33.311067],[-95.017582,33.311194],[-95.018191,33.311808],[-95.018824,33.311814],[-95.018969,33.311318],[-95.018424,33.310841],[-95.019571,33.309446],[-95.020602,33.308965],[-95.021586,33.308928],[-95.022161,33.309157],[-95.022078,33.309536],[-95.021505,33.310057],[-95.022129,33.310617],[-95.022746,33.310614],[-95.023509,33.312167],[-95.025023,33.314176],[-95.026255,33.318218],[-95.026663,33.320673],[-95.030481,33.324617],[-95.013325,33.324567],[-95.009415,33.325634],[-95.005663,33.326006],[-95.003997,33.326994],[-95.001794,33.327343],[-94.998841,33.331052],[-94.997746,33.333149],[-94.997738,33.337942],[-94.996372,33.338872],[-94.996049,33.340665],[-94.994929,33.342568],[-94.991339,33.345187],[-94.991289,33.349489],[-94.990904,33.350603],[-94.991002,33.355421],[-95.005466,33.355573],[-95.005406,33.370278],[-95.013082,33.370344],[-95.01297,33.371938],[-95.013668,33.37536],[-95.013703,33.376986],[-95.012767,33.38026],[-95.012844,33.388857],[-95.012344,33.393076],[-95.011256,33.393006],[-95.010029,33.391838],[-95.009373,33.391862],[-95.006095,33.394607],[-95.004729,33.395363],[-95.003992,33.395226],[-95.003146,33.394744],[-95.001017,33.394995],[-95.000216,33.394743],[-94.999756,33.39419],[-94.999742,33.393091],[-95.00121,33.392293],[-95.002629,33.392041],[-95.003121,33.391263],[-95.00304,33.390393],[-95.002112,33.39005],[-95.00162,33.39021],[-95.000746,33.391354],[-94.998566,33.391695],[-94.997364,33.390414],[-94.997118,33.390391],[-94.996736,33.39094],[-94.996299,33.391033],[-94.99589,33.390804],[-94.995397,33.389063],[-94.995042,33.388765],[-94.993459,33.388469],[-94.992885,33.388767],[-94.992831,33.389042],[-94.993815,33.39069],[-94.993842,33.391101],[-94.991768,33.392203],[-94.990785,33.391607],[-94.99043,33.390302],[-94.989938,33.389936],[-94.988955,33.389798],[-94.98759,33.39012],[-94.986962,33.389044],[-94.98658,33.388815],[-94.985433,33.388747],[-94.984614,33.389319],[-94.983715,33.391931],[-94.982978,33.392206],[-94.981667,33.391886],[-94.980848,33.391039],[-94.98224,33.390282],[-94.983058,33.388655],[-94.982866,33.387718],[-94.981911,33.387214],[-94.980628,33.387352],[-94.979317,33.387099],[-94.977489,33.388154],[-94.977462,33.388429],[-94.978144,33.389162],[-94.978145,33.389437],[-94.977735,33.389735],[-94.976015,33.389758],[-94.974841,33.389369],[-94.974541,33.388934],[-94.974731,33.387673],[-94.974239,33.38749],[-94.973202,33.388522],[-94.972683,33.388568],[-94.9708,33.388042],[-94.968452,33.38834],[-94.966459,33.387929],[-94.965722,33.388295],[-94.964631,33.389418],[-94.964658,33.39086],[-94.964167,33.390929],[-94.963239,33.390655],[-94.961546,33.389785],[-94.961,33.390403],[-94.960946,33.390929],[-94.961383,33.3918],[-94.960973,33.392578],[-94.958189,33.392671],[-94.957288,33.393679],[-94.955595,33.393358],[-94.954203,33.394481],[-94.954513,33.394821],[-94.956169,33.395363],[-94.956898,33.396],[-94.956603,33.396428],[-94.955243,33.396616],[-94.953472,33.396116],[-94.952055,33.395162],[-94.952114,33.394205],[-94.953248,33.393701],[-94.953329,33.392924],[-94.952892,33.392052],[-94.953056,33.390839],[-94.952483,33.390405],[-94.951336,33.390358],[-94.949917,33.391458],[-94.949207,33.391573],[-94.94735,33.391367],[-94.945986,33.391871],[-94.945167,33.391917],[-94.94473,33.391871],[-94.94402,33.391275],[-94.943883,33.390039],[-94.943365,33.389352],[-94.942819,33.389077],[-94.941863,33.388985],[-94.939597,33.38926],[-94.936785,33.388367],[-94.936103,33.389488],[-94.935666,33.389558],[-94.93512,33.389077],[-94.935119,33.388596],[-94.936075,33.386764],[-94.936047,33.386214],[-94.935474,33.385848],[-94.933099,33.387543],[-94.932662,33.388458],[-94.931871,33.388665],[-94.931188,33.388207],[-94.930642,33.387314],[-94.931106,33.385688],[-94.930915,33.385481],[-94.929823,33.385344],[-94.929032,33.384382],[-94.927449,33.383741],[-94.926712,33.383786],[-94.925893,33.384817],[-94.925155,33.384839],[-94.923572,33.384175],[-94.922125,33.384197],[-94.921143,33.384518],[-94.920214,33.385227],[-94.919777,33.386122],[-94.918604,33.386854],[-94.918248,33.387563],[-94.916529,33.388091],[-94.915518,33.387907],[-94.914646,33.384746],[-94.913909,33.38422],[-94.913472,33.384244],[-94.913008,33.384518],[-94.912461,33.38628],[-94.911233,33.387769],[-94.910523,33.387815],[-94.909622,33.387563],[-94.908257,33.386691],[-94.908285,33.386075],[-94.909213,33.384746],[-94.909186,33.384242],[-94.908777,33.383785],[-94.908286,33.383716],[-94.907139,33.384151],[-94.906347,33.385204],[-94.906347,33.385754],[-94.907111,33.386806],[-94.907083,33.387402],[-94.906619,33.387791],[-94.905117,33.388019],[-94.904571,33.38937],[-94.904189,33.389691],[-94.901213,33.38953],[-94.899466,33.389964],[-94.899274,33.390217],[-94.899547,33.391705],[-94.898809,33.392667],[-94.898836,33.393583],[-94.898427,33.393926],[-94.896734,33.394109],[-94.895997,33.393856],[-94.895697,33.392871],[-94.895288,33.392437],[-94.894714,33.392391],[-94.89384,33.393031],[-94.892693,33.393237],[-94.892092,33.393833],[-94.890071,33.394519],[-94.88977,33.395023],[-94.889987,33.39839],[-94.889304,33.39848],[-94.888731,33.398275],[-94.886848,33.397083]]]}},{"type":"Feature","properties":{"PRECINCT":"6","VTD":"0006"},"geometry":{"type":"Polygon","coordinates":[[[-94.812588,33.212038],[-94.814786,33.125278],[-94.815206,33.12229],[-94.816276,33.094074],[-94.820656,33.096342],[-94.826776,33.098185],[-94.831108,33.100243],[-94.83893,33.106101],[-94.844622,33.108367],[-94.846029,33.10964],[-94.848066,33.112338],[-94.851043,33.11435],[-94.857456,33.116715],[-94.868409,33.11704],[-94.87002,33.117441],[-94.885912,33.126517],[-94.88583,33.131639],[-94.885249,33.131794],[-94.88513,33.13225],[-94.885062,33.137604],[-94.885229,33.137931],[-94.88665,33.138013],[-94.886957,33.138241],[-94.886924,33.146715],[-94.876938,33.146687],[-94.876889,33.155991],[-94.886906,33.156039],[-94.886953,33.158189],[-94.888432,33.158336],[-94.919526,33.158212],[-94.91994,33.157825],[-94.920036,33.155277],[-94.921783,33.154323],[-94.932796,33.154186],[-94.933486,33.15507],[-94.933506,33.155482],[-94.934702,33.155932],[-94.934597,33.156526],[-94.934297,33.15673],[-94.934865,33.157187],[-94.934225,33.157494],[-94.934101,33.158225],[-94.933676,33.158406],[-94.933957,33.158813],[-94.933473,33.158901],[-94.932532,33.159675],[-94.932212,33.159424],[-94.9318,33.15983],[-94.932317,33.160429],[-94.93165,33.160308],[-94.931487,33.160505],[-94.931742,33.160836],[-94.931108,33.160742],[-94.931349,33.162281],[-94.931081,33.162694],[-94.931389,33.162809],[-94.931206,33.162914],[-94.931434,33.163887],[-94.931042,33.164112],[-94.931153,33.164606],[-94.930754,33.164507],[-94.930781,33.164859],[-94.929938,33.165644],[-94.92867,33.166283],[-94.927238,33.165838],[-94.926592,33.165096],[-94.925592,33.165644],[-94.925801,33.166327],[-94.925317,33.166679],[-94.927052,33.166718],[-94.927002,33.170868],[-94.927347,33.173309],[-94.927529,33.182223],[-94.926633,33.182614],[-94.916288,33.186884],[-94.914436,33.187444],[-94.901203,33.188523],[-94.897548,33.188499],[-94.878716,33.186731],[-94.861775,33.186515],[-94.861335,33.189711],[-94.861697,33.191525],[-94.861593,33.1984],[-94.862502,33.200642],[-94.862701,33.212277],[-94.86382,33.215261],[-94.866427,33.218043],[-94.866376,33.22202],[-94.865893,33.225461],[-94.862881,33.232514],[-94.86207,33.235083],[-94.860159,33.23801],[-94.859699,33.241926],[-94.859824,33.243024],[-94.857435,33.245406],[-94.856159,33.24626],[-94.856161,33.246586],[-94.81047,33.273102],[-94.812588,33.212038]]]}},{"type":"Feature","properties":{"PRECINCT":"7","VTD":"0007"},"geometry":{"type":"Polygon","coordinates":[[[-94.868409,33.11704],[-94.857456,33.116715],[-94.851043,33.11435],[-94.848066,33.112338],[-94.846029,33.10964],[-94.844622,33.108367],[-94.83893,33.106101],[-94.831108,33.100243],[-94.826776,33.098185],[-94.820656,33.096342],[-94.816276,33.094074],[-94.817709,33.037202],[-94.819828,32.982886],[-94.820811,32.982491],[-94.821411,32.98254],[-94.822657,32.983815],[-94.825749,32.985695],[-94.82627,32.985431],[-94.826812,32.984673],[-94.826844,32.983826],[-94.828403,32.983271],[-94.829101,32.984678],[-94.827966,32.985068],[-94.827777,32.98548],[-94.828005,32.985777],[-94.829356,32.98614],[-94.829917,32.986711],[-94.829748,32.98869],[-94.829963,32.98903],[-94.830322,32.989201],[-94.831183,32.988794],[-94.830719,32.988206],[-94.831084,32.987738],[-94.832239,32.987233],[-94.832872,32.987326],[-94.833446,32.989069],[-94.834183,32.988838],[-94.835018,32.989089],[-94.835109,32.989525],[-94.834425,32.990282],[-94.83464,32.990755],[-94.835142,32.990921],[-94.836049,32.990833],[-94.836343,32.992013],[-94.837948,32.992597],[-94.838515,32.993267],[-94.840728,32.993876],[-94.841569,32.994799],[-94.841478,32.995647],[-94.842665,32.996768],[-94.843553,32.996993],[-94.843748,32.996767],[-94.843657,32.995976],[-94.8459,32.995545],[-94.848256,32.99676],[-94.848341,32.997656],[-94.848896,32.998063],[-94.849353,32.999332],[-94.849927,32.999766],[-94.850814,32.999733],[-94.852996,33.001258],[-94.853309,33.001641],[-94.853349,33.002285],[-94.853877,33.00267],[-94.854106,33.003642],[-94.854582,33.003642],[-94.855247,33.003197],[-94.856017,33.003433],[-94.857047,33.001702],[-94.85813,33.001976],[-94.858254,33.002245],[-94.858,33.002746],[-94.856689,33.003619],[-94.856735,33.003966],[-94.857942,33.003537],[-94.859207,33.003427],[-94.859945,33.003905],[-94.860114,33.004399],[-94.859867,33.005834],[-94.861191,33.00546],[-94.861727,33.006037],[-94.862601,33.005893],[-94.862738,33.006068],[-94.862556,33.00668],[-94.862034,33.007168],[-94.860794,33.006554],[-94.860468,33.006597],[-94.859895,33.007978],[-94.858968,33.008181],[-94.859668,33.011452],[-94.858755,33.011232],[-94.858272,33.011325],[-94.857894,33.011634],[-94.857822,33.012085],[-94.859343,33.013574],[-94.860544,33.013711],[-94.861027,33.014035],[-94.861783,33.013699],[-94.863786,33.013472],[-94.864478,33.014116],[-94.864374,33.014951],[-94.865222,33.015363],[-94.865522,33.015033],[-94.86562,33.014313],[-94.865848,33.014335],[-94.86607,33.014819],[-94.869939,33.013817],[-94.870415,33.014712],[-94.872457,33.014041],[-94.872816,33.014403],[-94.872777,33.014997],[-94.874735,33.015138],[-94.876014,33.015752],[-94.87585,33.016819],[-94.876691,33.017331],[-94.87641,33.01827],[-94.876618,33.019221],[-94.876977,33.019612],[-94.877694,33.019843],[-94.878777,33.019827],[-94.879809,33.019053],[-94.880082,33.020305],[-94.881015,33.020294],[-94.8814,33.020026],[-94.881589,33.020867],[-94.882091,33.020795],[-94.883037,33.021714],[-94.883767,33.021924],[-94.884851,33.021726],[-94.884766,33.022264],[-94.88607,33.022655],[-94.88682,33.023221],[-94.887669,33.022996],[-94.888112,33.023145],[-94.888575,33.024498],[-94.889677,33.025207],[-94.890343,33.025114],[-94.890799,33.026131],[-94.890486,33.026648],[-94.889676,33.026516],[-94.888972,33.026823],[-94.889232,33.027301],[-94.889062,33.027988],[-94.889245,33.028505],[-94.888624,33.029148],[-94.88944,33.029587],[-94.88867,33.030054],[-94.888676,33.030456],[-94.889831,33.030336],[-94.890862,33.030782],[-94.891502,33.030336],[-94.891906,33.030859],[-94.892794,33.030222],[-94.893642,33.030611],[-94.893733,33.030942],[-94.893061,33.031425],[-94.894052,33.03214],[-94.893588,33.033261],[-94.894273,33.033361],[-94.895024,33.032569],[-94.895611,33.0338],[-94.896185,33.034202],[-94.89561,33.035994],[-94.896321,33.036198],[-94.897477,33.035747],[-94.897659,33.035918],[-94.897489,33.0364],[-94.897763,33.036737],[-94.900869,33.037639],[-94.900863,33.037886],[-94.899988,33.038007],[-94.900523,33.038551],[-94.900261,33.039706],[-94.900379,33.040205],[-94.900829,33.040179],[-94.90139,33.039755],[-94.901964,33.040503],[-94.901977,33.041789],[-94.903256,33.041718],[-94.903465,33.04235],[-94.904176,33.042004],[-94.905573,33.042571],[-94.90569,33.042774],[-94.905194,33.042932],[-94.905507,33.044334],[-94.905879,33.044187],[-94.906303,33.043467],[-94.906995,33.044676],[-94.907367,33.044846],[-94.9077,33.044632],[-94.90755,33.044083],[-94.908046,33.043962],[-94.908907,33.04455],[-94.908561,33.04505],[-94.908672,33.045369],[-94.90924,33.045561],[-94.909925,33.045403],[-94.910793,33.045924],[-94.911158,33.045799],[-94.911184,33.045397],[-94.911765,33.045403],[-94.912366,33.044485],[-94.913377,33.044925],[-94.914383,33.04448],[-94.914839,33.044804],[-94.91576,33.044931],[-94.915968,33.045519],[-94.916921,33.045349],[-94.917391,33.045992],[-94.917887,33.046194],[-94.918017,33.04663],[-94.917247,33.046855],[-94.917254,33.047601],[-94.916621,33.047696],[-94.91651,33.048152],[-94.917169,33.048102],[-94.917867,33.048367],[-94.918872,33.047981],[-94.919929,33.049202],[-94.920138,33.049747],[-94.919994,33.050576],[-94.921639,33.050885],[-94.921443,33.052446],[-94.921143,33.05277],[-94.922043,33.054023],[-94.921638,33.054226],[-94.921384,33.054743],[-94.920738,33.055067],[-94.920698,33.055363],[-94.920947,33.055491],[-94.921482,33.05521],[-94.922474,33.055331],[-94.922644,33.055605],[-94.922265,33.056029],[-94.922539,33.05632],[-94.923277,33.056677],[-94.924079,33.056513],[-94.924412,33.056815],[-94.923701,33.057288],[-94.922232,33.057513],[-94.923178,33.058041],[-94.923511,33.058684],[-94.924464,33.058563],[-94.924216,33.059443],[-94.923524,33.059579],[-94.924719,33.060074],[-94.9237,33.06042],[-94.922767,33.062306],[-94.922989,33.062576],[-94.923439,33.062614],[-94.923922,33.06234],[-94.923889,33.061845],[-94.925345,33.062153],[-94.925822,33.062043],[-94.926057,33.062362],[-94.925665,33.063527],[-94.926383,33.063829],[-94.925612,33.06505],[-94.924281,33.06617],[-94.924326,33.066726],[-94.923941,33.067538],[-94.925364,33.067254],[-94.925723,33.066589],[-94.926872,33.067259],[-94.926885,33.067501],[-94.925984,33.067594],[-94.926441,33.068018],[-94.926193,33.068523],[-94.926741,33.068886],[-94.926546,33.069287],[-94.927401,33.069601],[-94.927015,33.070579],[-94.927172,33.070739],[-94.927557,33.070722],[-94.927832,33.070233],[-94.929059,33.070639],[-94.930365,33.069705],[-94.930626,33.070008],[-94.930606,33.071008],[-94.931389,33.071299],[-94.93199,33.071069],[-94.932441,33.071464],[-94.933648,33.071239],[-94.933779,33.071596],[-94.933302,33.072733],[-94.934725,33.072657],[-94.934791,33.073223],[-94.93545,33.073465],[-94.935809,33.073905],[-94.936325,33.073531],[-94.936886,33.07363],[-94.937487,33.073438],[-94.937631,33.07425],[-94.938153,33.073624],[-94.93906,33.074503],[-94.940301,33.074108],[-94.940588,33.074509],[-94.940366,33.075163],[-94.94096,33.075719],[-94.941567,33.075871],[-94.941365,33.076048],[-94.940895,33.075971],[-94.940699,33.076318],[-94.941411,33.076279],[-94.941235,33.076597],[-94.941659,33.076697],[-94.941809,33.077092],[-94.942155,33.076828],[-94.942371,33.076922],[-94.942514,33.077263],[-94.941744,33.077351],[-94.942031,33.07763],[-94.941875,33.077967],[-94.942436,33.078687],[-94.943285,33.078609],[-94.943122,33.079016],[-94.943311,33.079637],[-94.942776,33.080363],[-94.942998,33.080665],[-94.943259,33.080467],[-94.943592,33.080544],[-94.943579,33.080863],[-94.937708,33.080839],[-94.93758,33.087822],[-94.927876,33.087669],[-94.92767,33.090671],[-94.925279,33.092857],[-94.925293,33.096168],[-94.923816,33.099609],[-94.920317,33.101453],[-94.919347,33.102268],[-94.915137,33.102235],[-94.919048,33.120199],[-94.918672,33.126564],[-94.920072,33.131929],[-94.920096,33.137867],[-94.904483,33.135233],[-94.899996,33.133996],[-94.892782,33.130591],[-94.87062,33.117689],[-94.868409,33.11704]]]}},{"type":"Feature","properties":{"PRECINCT":"8","VTD":"0008"},"geometry":{"type":"Polygon","coordinates":[[[-94.970418,33.177303],[-94.970304,33.171489],[-94.966556,33.171829],[-94.966543,33.174171],[-94.966282,33.175281],[-94.964982,33.177374],[-94.963731,33.178116],[-94.9636,33.176119],[-94.962496,33.17251],[-94.960287,33.17239],[-94.957533,33.172649],[-94.957564,33.169179],[-94.953836,33.170718],[-94.953773,33.169812],[-94.954541,33.169065],[-94.952498,33.169527],[-94.949373,33.169764],[-94.946568,33.169722],[-94.942236,33.168974],[-94.941381,33.168154],[-94.941749,33.167586],[-94.941263,33.166636],[-94.941929,33.165972],[-94.941978,33.1631],[-94.93932,33.161204],[-94.938003,33.158473],[-94.939392,33.158492],[-94.939391,33.158155],[-94.94313,33.159439],[-94.942851,33.160248],[-94.941969,33.16127],[-94.94391,33.160939],[-94.944626,33.161157],[-94.944886,33.158462],[-94.945317,33.158009],[-94.945401,33.156377],[-94.947571,33.157179],[-94.964991,33.157031],[-94.966883,33.156695],[-94.971437,33.156699],[-94.971486,33.160725],[-94.975032,33.160722],[-94.974962,33.166293],[-94.974605,33.166461],[-94.981437,33.173038],[-94.983642,33.174798],[-94.970661,33.178824],[-94.970418,33.177303]]]}},{"type":"Feature","properties":{"PRECINCT":"9","VTD":"0009"},"geometry":{"type":"Polygon","coordinates":[[[-95.087833,33.393816],[-95.085921,33.39226],[-95.084556,33.39219],[-95.082153,33.389283],[-95.079533,33.388253],[-95.077757,33.387864],[-95.076638,33.386284],[-95.074208,33.385894],[-95.073744,33.38617],[-95.073717,33.387361],[-95.07328,33.387521],[-95.07268,33.387544],[-95.07126,33.386514],[-95.070332,33.386605],[-95.070032,33.386834],[-95.069677,33.38759],[-95.070633,33.388689],[-95.070742,33.389468],[-95.069923,33.389628],[-95.068722,33.389055],[-95.068149,33.389124],[-95.068121,33.389331],[-95.069405,33.390085],[-95.069459,33.39043],[-95.068913,33.390934],[-95.066374,33.391163],[-95.065883,33.390796],[-95.065583,33.389834],[-95.065201,33.389422],[-95.064136,33.389285],[-95.062334,33.389674],[-95.061926,33.391207],[-95.060447,33.391644],[-95.059731,33.392103],[-95.058302,33.392148],[-95.057614,33.391576],[-95.057715,33.390569],[-95.057768,33.390318],[-95.058852,33.389631],[-95.059491,33.387641],[-95.059596,33.38709],[-95.059097,33.38613],[-95.058273,33.38597],[-95.057085,33.387551],[-95.055901,33.388308],[-95.055407,33.388377],[-95.054719,33.388102],[-95.054578,33.387484],[-95.054929,33.387072],[-95.055851,33.386682],[-95.055955,33.386089],[-95.05513,33.38563],[-95.054224,33.385815],[-95.053613,33.387006],[-95.052677,33.387739],[-95.052619,33.388151],[-95.053183,33.389091],[-95.052716,33.389229],[-95.05203,33.389046],[-95.050929,33.388382],[-95.050759,33.387628],[-95.05154,33.386255],[-95.052271,33.385841],[-95.052241,33.385407],[-95.051223,33.385019],[-95.049575,33.385202],[-95.0493,33.384997],[-95.049324,33.384515],[-95.049917,33.383738],[-95.04983,33.383119],[-95.047769,33.382823],[-95.046723,33.381977],[-95.044635,33.382161],[-95.042931,33.381635],[-95.042437,33.381611],[-95.042091,33.382686],[-95.041549,33.382595],[-95.041064,33.381977],[-95.040694,33.38067],[-95.039692,33.380097],[-95.03915,33.380074],[-95.038771,33.380232],[-95.038396,33.381079],[-95.041731,33.384009],[-95.041654,33.384559],[-95.041194,33.384878],[-95.040516,33.384832],[-95.039515,33.384351],[-95.038322,33.384281],[-95.037731,33.383158],[-95.034885,33.383294],[-95.034781,33.382765],[-95.035088,33.382056],[-95.034791,33.381667],[-95.033274,33.381825],[-95.033004,33.382101],[-95.032936,33.38393],[-95.032344,33.384732],[-95.031855,33.384708],[-95.031478,33.384227],[-95.031659,33.382302],[-95.031009,33.381982],[-95.029789,33.382187],[-95.029196,33.382849],[-95.027983,33.383555],[-95.026866,33.383146],[-95.025839,33.382344],[-95.024918,33.38232],[-95.024605,33.384127],[-95.023927,33.384265],[-95.02349,33.384013],[-95.022891,33.382202],[-95.020899,33.380829],[-95.019834,33.381034],[-95.019315,33.381652],[-95.020106,33.383691],[-95.019942,33.384149],[-95.017922,33.384171],[-95.016802,33.384675],[-95.017075,33.385339],[-95.018085,33.385935],[-95.018248,33.386254],[-95.01792,33.387124],[-95.017538,33.387352],[-95.016883,33.387352],[-95.015873,33.386688],[-95.015245,33.386803],[-95.015518,33.387513],[-95.018056,33.388705],[-95.018056,33.389048],[-95.017127,33.389986],[-95.017127,33.390949],[-95.016472,33.391039],[-95.014998,33.390513],[-95.013469,33.390397],[-95.013223,33.39058],[-95.013031,33.392321],[-95.012344,33.393076],[-95.012844,33.388857],[-95.012767,33.38026],[-95.013703,33.376986],[-95.013668,33.37536],[-95.01297,33.371938],[-95.013082,33.370344],[-95.005406,33.370278],[-95.005466,33.355573],[-94.991002,33.355421],[-94.990904,33.350603],[-94.991289,33.349489],[-94.991339,33.345187],[-94.994929,33.342568],[-94.996049,33.340665],[-94.996372,33.338872],[-94.997738,33.337942],[-94.997746,33.333149],[-94.998841,33.331052],[-95.001794,33.327343],[-95.003997,33.326994],[-95.005663,33.326006],[-95.009415,33.325634],[-95.013325,33.324567],[-95.030481,33.324617],[-95.026522,33.320389],[-95.026255,33.318218],[-95.025102,33.314349],[-95.023177,33.311642],[-95.022746,33.310614],[-95.023293,33.310041],[-95.024587,33.310068],[-95.025083,33.310657],[-95.025706,33.31064],[-95.025914,33.311239],[-95.026478,33.311278],[-95.026835,33.311611],[-95.027417,33.311248],[-95.026902,33.310018],[-95.02701,33.309692],[-95.02877,33.309137],[-95.028852,33.310903],[-95.030378,33.310626],[-95.030517,33.311356],[-95.031002,33.311686],[-95.031433,33.310744],[-95.031232,33.310315],[-95.03145,33.309981],[-95.032069,33.309759],[-95.03264,33.309227],[-95.034263,33.308743],[-95.034547,33.3093],[-95.035186,33.309289],[-95.036051,33.310146],[-95.036106,33.310847],[-95.035602,33.311408],[-95.035694,33.311745],[-95.036625,33.311898],[-95.037557,33.311244],[-95.038283,33.311331],[-95.038501,33.311481],[-95.038439,33.311932],[-95.037313,33.312457],[-95.037105,33.312753],[-95.039395,33.312514],[-95.040463,33.312747],[-95.04049,33.313173],[-95.040078,33.313474],[-95.041288,33.314073],[-95.041669,33.315668],[-95.043346,33.316172],[-95.044531,33.316114],[-95.044642,33.315776],[-95.044075,33.315302],[-95.044411,33.31454],[-95.046323,33.313851],[-95.047291,33.313862],[-95.047431,33.314121],[-95.045524,33.314763],[-95.045306,33.315182],[-95.045447,33.315385],[-95.046982,33.315091],[-95.047283,33.315939],[-95.047802,33.315168],[-95.04888,33.315592],[-95.049381,33.315539],[-95.049734,33.314964],[-95.048985,33.313741],[-95.049897,33.313056],[-95.050545,33.312928],[-95.051174,33.31327],[-95.051139,33.314295],[-95.051342,33.314498],[-95.051821,33.314374],[-95.052407,33.313172],[-95.053086,33.313029],[-95.053416,33.313235],[-95.053176,33.314239],[-95.054046,33.31346],[-95.054846,33.313815],[-95.055626,33.313595],[-95.055943,33.314438],[-95.057673,33.31573],[-95.058412,33.315905],[-95.058733,33.315556],[-95.058142,33.315091],[-95.057461,33.313978],[-95.057669,33.313763],[-95.058512,33.313727],[-95.05891,33.313957],[-95.059191,33.314847],[-95.05993,33.315798],[-95.060231,33.315789],[-95.060994,33.315114],[-95.061652,33.315868],[-95.062641,33.315581],[-95.063295,33.315641],[-95.064014,33.316493],[-95.064267,33.317425],[-95.064688,33.317388],[-95.065167,33.316678],[-95.065524,33.31662],[-95.068393,33.317227],[-95.070484,33.31973],[-95.070069,33.321149],[-95.070451,33.321272],[-95.071471,33.320862],[-95.072034,33.320968],[-95.07309,33.322046],[-95.074573,33.321274],[-95.075436,33.322243],[-95.076579,33.321893],[-95.077058,33.323103],[-95.077536,33.323423],[-95.077854,33.323357],[-95.078197,33.322159],[-95.078801,33.321939],[-95.079745,33.3233],[-95.08029,33.323486],[-95.080479,33.323068],[-95.080222,33.322311],[-95.080421,33.322149],[-95.082055,33.32266],[-95.082917,33.32354],[-95.084512,33.323023],[-95.085084,33.323452],[-95.085825,33.324556],[-95.086065,33.324576],[-95.086449,33.324205],[-95.086247,33.323335],[-95.086466,33.322823],[-95.087445,33.322564],[-95.089264,33.322783],[-95.089734,33.322547],[-95.090153,33.321883],[-95.091218,33.32175],[-95.091565,33.322055],[-95.091614,33.32274],[-95.091911,33.322809],[-95.092447,33.322474],[-95.093119,33.322533],[-95.09607,33.32497],[-95.096687,33.324905],[-95.097642,33.323906],[-95.09863,33.323746],[-95.099588,33.324629],[-95.100131,33.32442],[-95.100445,33.324526],[-95.100946,33.325854],[-95.101784,33.325535],[-95.102751,33.325674],[-95.104141,33.32519],[-95.104252,33.324638],[-95.103757,33.323976],[-95.105363,33.323374],[-95.106671,33.322377],[-95.107495,33.320998],[-95.108482,33.320058],[-95.108508,33.319595],[-95.108023,33.318755],[-95.108435,33.318381],[-95.109417,33.31805],[-95.109947,33.318221],[-95.109915,33.31955],[-95.110701,33.320079],[-95.111172,33.319936],[-95.111617,33.319237],[-95.11125,33.318485],[-95.111669,33.318143],[-95.112729,33.318116],[-95.112821,33.319111],[-95.113319,33.319589],[-95.113908,33.319737],[-95.114229,33.319687],[-95.114196,33.319011],[-95.114432,33.318769],[-95.115224,33.319373],[-95.115767,33.319401],[-95.115695,33.318334],[-95.11612,33.318021],[-95.116808,33.318894],[-95.118536,33.318872],[-95.118869,33.318201],[-95.118005,33.31752],[-95.118024,33.316805],[-95.118417,33.316712],[-95.119883,33.317112],[-95.120629,33.316733],[-95.120963,33.316051],[-95.120975,33.315506],[-95.120046,33.315024],[-95.120405,33.313606],[-95.120849,33.313226],[-95.121511,33.313347],[-95.123055,33.312196],[-95.123931,33.311818],[-95.124507,33.311805],[-95.124874,33.312119],[-95.125451,33.389454],[-95.123264,33.389476],[-95.122691,33.388789],[-95.122171,33.387163],[-95.120915,33.386431],[-95.120423,33.385813],[-95.119604,33.385859],[-95.118922,33.386547],[-95.118923,33.387417],[-95.119469,33.388035],[-95.119469,33.388539],[-95.119033,33.388837],[-95.118651,33.388928],[-95.117177,33.388562],[-95.115757,33.388609],[-95.11532,33.388266],[-95.114037,33.388495],[-95.112374,33.390694],[-95.111826,33.39042],[-95.111553,33.389664],[-95.109778,33.389069],[-95.109232,33.389184],[-95.109041,33.389367],[-95.109261,33.390856],[-95.108961,33.391589],[-95.108197,33.392069],[-95.107623,33.392069],[-95.107241,33.391292],[-95.106859,33.391132],[-95.106285,33.391246],[-95.106259,33.392895],[-95.103311,33.393949],[-95.102547,33.394499],[-95.101511,33.396652],[-95.101129,33.39663],[-95.100309,33.395736],[-95.099463,33.395645],[-95.09919,33.395394],[-95.099626,33.394478],[-95.099407,33.393355],[-95.098834,33.393217],[-95.097278,33.393929],[-95.096787,33.393906],[-95.095858,33.392646],[-95.094821,33.39267],[-95.094248,33.393288],[-95.094248,33.393586],[-95.095641,33.394982],[-95.095641,33.395853],[-95.095204,33.396448],[-95.094085,33.396769],[-95.094058,33.397227],[-95.093703,33.397548],[-95.09283,33.397273],[-95.09212,33.396312],[-95.090127,33.395946],[-95.089225,33.395533],[-95.088434,33.394824],[-95.087833,33.393816]]]}},{"type":"Feature","properties":{"PRECINCT":"10","VTD":"0010"},"geometry":{"type":"Polygon","coordinates":[[[-94.918331,33.326045],[-94.918053,33.325974],[-94.917385,33.326447],[-94.916048,33.326079],[-94.915165,33.326507],[-94.912975,33.326008],[-94.912029,33.325581],[-94.910808,33.324427],[-94.911905,33.323726],[-94.911926,33.32325],[-94.910762,33.322626],[-94.909928,33.3213],[-94.910142,33.320731],[-94.910736,33.320402],[-94.910922,33.318744],[-94.9101,33.318647],[-94.908653,33.318993],[-94.90653,33.318877],[-94.906434,33.317559],[-94.90532,33.316966],[-94.905049,33.316032],[-94.903915,33.315828],[-94.903451,33.314959],[-94.902684,33.314445],[-94.901888,33.3144],[-94.901372,33.314704],[-94.901022,33.31532],[-94.901133,33.316027],[-94.900739,33.31626],[-94.900117,33.31506],[-94.899625,33.314884],[-94.898449,33.315173],[-94.89714,33.313912],[-94.896558,33.313842],[-94.895566,33.314321],[-94.895105,33.314261],[-94.895223,33.313325],[-94.893907,33.313263],[-94.893416,33.313017],[-94.893382,33.312787],[-94.894208,33.312219],[-94.893367,33.311582],[-94.893268,33.310688],[-94.892828,33.310644],[-94.891775,33.311483],[-94.891522,33.311344],[-94.89153,33.310803],[-94.89316,33.30971],[-94.893232,33.309339],[-94.892556,33.308897],[-94.891388,33.308971],[-94.89067,33.308096],[-94.890558,33.30742],[-94.88977,33.307429],[-94.889419,33.307744],[-94.889871,33.308853],[-94.889227,33.308666],[-94.88886,33.30784],[-94.8876,33.308169],[-94.887035,33.308674],[-94.886624,33.308698],[-94.886405,33.308368],[-94.88674,33.307325],[-94.886369,33.306747],[-94.885941,33.306711],[-94.885221,33.307347],[-94.884943,33.307037],[-94.885241,33.306355],[-94.884927,33.306223],[-94.883531,33.306787],[-94.883759,33.307395],[-94.883456,33.30755],[-94.883053,33.307011],[-94.882949,33.306266],[-94.883094,33.305917],[-94.884074,33.305549],[-94.884058,33.305324],[-94.883431,33.305253],[-94.882418,33.306179],[-94.881403,33.306358],[-94.881095,33.305929],[-94.881215,33.305163],[-94.879654,33.305419],[-94.879311,33.305208],[-94.879625,33.304766],[-94.880563,33.304605],[-94.88045,33.304063],[-94.879125,33.303821],[-94.878367,33.303209],[-94.877667,33.3035],[-94.87761,33.304519],[-94.877365,33.304749],[-94.876842,33.304637],[-94.876208,33.303621],[-94.875926,33.303528],[-94.875268,33.304907],[-94.874928,33.305162],[-94.872834,33.304412],[-94.872869,33.303251],[-94.871977,33.303172],[-94.871322,33.303628],[-94.871045,33.304425],[-94.870446,33.304367],[-94.869344,33.304738],[-94.869616,33.305338],[-94.870749,33.305767],[-94.870774,33.306151],[-94.868799,33.308169],[-94.868492,33.308172],[-94.867982,33.307665],[-94.867576,33.307716],[-94.867734,33.3087],[-94.867543,33.30899],[-94.866148,33.309013],[-94.864815,33.309435],[-94.862819,33.309595],[-94.861505,33.310253],[-94.861349,33.311152],[-94.860318,33.30988],[-94.859617,33.309618],[-94.859384,33.31002],[-94.859406,33.311656],[-94.857149,33.310679],[-94.856783,33.310741],[-94.855774,33.311791],[-94.85585,33.313342],[-94.855587,33.314306],[-94.85588,33.314617],[-94.856255,33.314611],[-94.857224,33.313152],[-94.857803,33.313226],[-94.858017,33.314058],[-94.857226,33.314976],[-94.857232,33.315733],[-94.856903,33.316127],[-94.854835,33.315998],[-94.853501,33.315356],[-94.852539,33.31524],[-94.852146,33.315029],[-94.851994,33.31409],[-94.851256,33.313761],[-94.850722,33.313923],[-94.850104,33.31463],[-94.84918,33.314208],[-94.848583,33.315074],[-94.848011,33.314852],[-94.84756,33.314118],[-94.846821,33.314138],[-94.846281,33.31468],[-94.84621,33.315467],[-94.846629,33.315787],[-94.847847,33.316007],[-94.847995,33.316333],[-94.847724,33.316631],[-94.84719,33.316743],[-94.845518,33.315964],[-94.845142,33.315334],[-94.843988,33.315624],[-94.843086,33.31555],[-94.842123,33.314402],[-94.841719,33.314498],[-94.841168,33.315213],[-94.840847,33.315269],[-94.840591,33.314991],[-94.840785,33.314017],[-94.840622,33.313706],[-94.840086,33.313692],[-94.8397,33.314557],[-94.839113,33.314664],[-94.837437,33.313127],[-94.837374,33.312274],[-94.837998,33.311275],[-94.836988,33.309831],[-94.836315,33.309638],[-94.835448,33.309932],[-94.835103,33.31044],[-94.835489,33.310972],[-94.835278,33.311298],[-94.834573,33.310792],[-94.833571,33.310685],[-94.833218,33.310434],[-94.833087,33.309826],[-94.833991,33.308923],[-94.833941,33.308487],[-94.833283,33.307952],[-94.830737,33.307616],[-94.830425,33.307249],[-94.830262,33.306184],[-94.829616,33.306269],[-94.829426,33.306705],[-94.829911,33.308428],[-94.829602,33.308695],[-94.82874,33.30863],[-94.827871,33.307471],[-94.828448,33.30689],[-94.82837,33.306685],[-94.827652,33.306233],[-94.82738,33.305522],[-94.82649,33.305512],[-94.826071,33.305087],[-94.825143,33.305234],[-94.824634,33.30481],[-94.824306,33.304042],[-94.824479,33.302909],[-94.824018,33.302312],[-94.823985,33.301519],[-94.822887,33.300742],[-94.821169,33.300413],[-94.820347,33.299723],[-94.818489,33.296507],[-94.818367,33.295712],[-94.819184,33.29374],[-94.818889,33.291908],[-94.819585,33.290855],[-94.819708,33.289997],[-94.817729,33.289374],[-94.815989,33.288221],[-94.815176,33.288178],[-94.814884,33.28723],[-94.814005,33.287371],[-94.813008,33.287933],[-94.812116,33.287702],[-94.81162,33.287273],[-94.811591,33.286876],[-94.812518,33.285489],[-94.811611,33.28361],[-94.811042,33.283144],[-94.810269,33.28289],[-94.81047,33.273102],[-94.856161,33.246586],[-94.856159,33.24626],[-94.857435,33.245406],[-94.859824,33.243024],[-94.859699,33.241926],[-94.860159,33.23801],[-94.86207,33.235083],[-94.862881,33.232514],[-94.866067,33.224952],[-94.86996,33.225142],[-94.871783,33.224809],[-94.877739,33.224729],[-94.879424,33.22552],[-94.882843,33.226205],[-94.88424,33.226171],[-94.886209,33.225881],[-94.887214,33.225496],[-94.889598,33.22278],[-94.891776,33.223985],[-94.893571,33.225724],[-94.895545,33.226287],[-94.89986,33.226276],[-94.90085,33.226447],[-94.901378,33.22628],[-94.93884,33.226199],[-94.943601,33.22674],[-94.945649,33.22639],[-94.946683,33.232562],[-94.946174,33.237267],[-94.946143,33.253937],[-94.945746,33.268602],[-94.945907,33.269489],[-94.94711,33.271662],[-94.958244,33.281115],[-94.959137,33.28248],[-94.959491,33.283757],[-94.96003,33.300541],[-94.959594,33.302501],[-94.957733,33.307699],[-94.957002,33.312033],[-94.956608,33.312444],[-94.955053,33.312891],[-94.953944,33.312517],[-94.953898,33.313507],[-94.953529,33.313761],[-94.951853,33.312648],[-94.950773,33.312869],[-94.949982,33.313516],[-94.949189,33.31376],[-94.948716,33.313713],[-94.94822,33.313257],[-94.947049,33.313347],[-94.946784,33.313533],[-94.946755,33.314093],[-94.948712,33.314492],[-94.948941,33.314797],[-94.948829,33.315204],[-94.947875,33.315216],[-94.945947,33.314681],[-94.945363,33.315111],[-94.945103,33.315911],[-94.944758,33.315993],[-94.943532,33.315292],[-94.943325,33.315668],[-94.944048,33.316311],[-94.943954,33.316634],[-94.943672,33.316707],[-94.942643,33.316333],[-94.942072,33.315388],[-94.941495,33.315326],[-94.940966,33.315589],[-94.940377,33.316543],[-94.940713,33.317286],[-94.939633,33.317315],[-94.938722,33.318365],[-94.937948,33.31825],[-94.937338,33.318444],[-94.937969,33.319795],[-94.938791,33.32029],[-94.938651,33.320549],[-94.938039,33.320873],[-94.9376,33.320765],[-94.937334,33.319485],[-94.936512,33.319079],[-94.935698,33.320216],[-94.935805,33.320608],[-94.936323,33.320912],[-94.935577,33.321438],[-94.935424,33.322097],[-94.934091,33.321527],[-94.933575,33.321723],[-94.933838,33.322284],[-94.934728,33.32311],[-94.935758,33.323258],[-94.93462,33.324592],[-94.933764,33.324601],[-94.931639,33.324084],[-94.928629,33.324965],[-94.927974,33.324401],[-94.927842,33.323175],[-94.927182,33.322946],[-94.9258,33.323724],[-94.925635,33.32403],[-94.926224,33.325589],[-94.924993,33.324956],[-94.923906,33.323976],[-94.922088,33.324754],[-94.922566,33.326825],[-94.92064,33.325592],[-94.920123,33.325637],[-94.919785,33.326234],[-94.920615,33.32744],[-94.920465,33.32781],[-94.918586,33.327047],[-94.918331,33.326045]]]}},{"type":"Feature","properties":{"PRECINCT":"11","VTD":"0011"},"geometry":{"type":"Polygon","coordinates":[[[-95.077662,33.188519],[-95.068446,33.188257],[-95.042167,33.186334],[-95.039474,33.186774],[-95.036513,33.188224],[-95.034951,33.188592],[-95.035204,33.185485],[-95.035168,33.173648],[-95.065894,33.174045],[-95.065883,33.166711],[-95.070843,33.167186],[-95.071142,33.162312],[-95.06991,33.162187],[-95.069838,33.159815],[-95.073032,33.160631],[-95.073055,33.159453],[-95.066284,33.159274],[-95.066269,33.157646],[-95.068967,33.156864],[-95.069294,33.149994],[-95.066685,33.149606],[-95.06653,33.149388],[-95.066649,33.145151],[-95.067187,33.143269],[-95.073755,33.143316],[-95.073778,33.140731],[-95.074419,33.136483],[-95.073951,33.135796],[-95.073354,33.135446],[-95.070533,33.135004],[-95.069855,33.134675],[-95.069092,33.133733],[-95.069018,33.132858],[-95.070752,33.12988],[-95.070683,33.126858],[-95.07286,33.127115],[-95.075375,33.128974],[-95.077552,33.12924],[-95.077672,33.127783],[-95.078306,33.12726],[-95.078123,33.126826],[-95.078417,33.126744],[-95.0786,33.125951],[-95.07888,33.125804],[-95.079057,33.125974],[-95.078887,33.126534],[-95.079044,33.127266],[-95.080004,33.127079],[-95.079985,33.126666],[-95.079331,33.126061],[-95.079377,33.125639],[-95.079083,33.125337],[-95.079564,33.123857],[-95.079394,33.123081],[-95.078708,33.122422],[-95.079028,33.121378],[-95.078623,33.120917],[-95.078695,33.120609],[-95.078277,33.120296],[-95.078381,33.119619],[-95.080151,33.119169],[-95.081588,33.119608],[-95.081999,33.120037],[-95.083005,33.119932],[-95.08343,33.119586],[-95.083821,33.118322],[-95.084964,33.118271],[-95.085591,33.118723],[-95.086421,33.118437],[-95.087603,33.11997],[-95.087271,33.120572],[-95.08941,33.121803],[-95.095074,33.126258],[-95.096443,33.126258],[-95.095883,33.125909],[-95.095093,33.12607],[-95.094942,33.125805],[-95.095443,33.124249],[-95.095692,33.124788],[-95.097625,33.124798],[-95.098221,33.125833],[-95.098332,33.125217],[-95.098744,33.125096],[-95.099358,33.125931],[-95.099963,33.124314],[-95.098892,33.123928],[-95.099133,33.123126],[-95.098845,33.122401],[-95.098414,33.122297],[-95.098329,33.122028],[-95.09878,33.121637],[-95.098531,33.121467],[-95.098433,33.120527],[-95.098772,33.119982],[-95.09853,33.119895],[-95.098406,33.119186],[-95.097557,33.119236],[-95.096983,33.11967],[-95.096754,33.119148],[-95.096009,33.119033],[-95.095083,33.119204],[-95.094927,33.118724],[-95.115363,33.118913],[-95.115429,33.114162],[-95.119435,33.114212],[-95.119458,33.119146],[-95.125573,33.11907],[-95.124968,33.154158],[-95.124817,33.187441],[-95.124524,33.187047],[-95.124151,33.187164],[-95.123001,33.186697],[-95.122092,33.186852],[-95.121543,33.187187],[-95.120845,33.188083],[-95.116734,33.188657],[-95.113175,33.188803],[-95.113263,33.173516],[-95.104631,33.175843],[-95.104094,33.177007],[-95.102564,33.176519],[-95.10225,33.18123],[-95.101636,33.182831],[-95.096147,33.188668],[-95.093911,33.190309],[-95.091546,33.190931],[-95.083789,33.190886],[-95.08228,33.190483],[-95.079705,33.189214],[-95.077662,33.188519]]]}},{"type":"Feature","properties":{"PRECINCT":"12","VTD":"0012"},"geometry":{"type":"Polygon","coordinates":[[[-95.117815,33.255949],[-95.111983,33.255843],[-95.098643,33.256127],[-95.09147,33.255691],[-95.091232,33.255481],[-95.091114,33.253923],[-95.090644,33.253444],[-95.078698,33.253279],[-95.074217,33.253424],[-95.069281,33.249802],[-95.065794,33.247954],[-95.060515,33.244394],[-95.058717,33.242326],[-95.055707,33.240633],[-95.054248,33.238946],[-95.04945,33.23482],[-95.04134,33.229066],[-95.037619,33.226041],[-95.040646,33.223605],[-95.0408,33.221891],[-95.047825,33.221691],[-95.046921,33.218092],[-95.047364,33.214078],[-95.046821,33.21333],[-95.045625,33.212775],[-95.044337,33.211363],[-95.043376,33.211275],[-95.042748,33.21078],[-95.04165,33.209192],[-95.042612,33.207884],[-95.041853,33.207312],[-95.03933,33.206207],[-95.039415,33.205817],[-95.04035,33.20525],[-95.040481,33.204745],[-95.040004,33.20413],[-95.039049,33.204079],[-95.039173,33.203695],[-95.038265,33.203113],[-95.038834,33.202409],[-95.038605,33.201237],[-95.035305,33.201195],[-95.035201,33.198655],[-95.032768,33.197516],[-95.031971,33.196269],[-95.031729,33.195307],[-95.031069,33.194674],[-95.030998,33.194305],[-95.030193,33.194345],[-95.030024,33.193938],[-95.030272,33.193069],[-95.029906,33.192909],[-95.028815,33.191426],[-95.028063,33.191206],[-95.027416,33.191464],[-95.02673,33.189726],[-95.027011,33.188729],[-95.035233,33.188569],[-95.037138,33.187969],[-95.039474,33.186774],[-95.042167,33.186334],[-95.068446,33.188257],[-95.076845,33.188437],[-95.078911,33.188888],[-95.081782,33.19028],[-95.083789,33.190886],[-95.091546,33.190931],[-95.092512,33.190782],[-95.093911,33.190309],[-95.095291,33.189453],[-95.101636,33.182831],[-95.10225,33.18123],[-95.102564,33.176519],[-95.104094,33.177007],[-95.104631,33.175843],[-95.113263,33.173516],[-95.113175,33.188803],[-95.116734,33.188657],[-95.120845,33.188083],[-95.121543,33.187187],[-95.122092,33.186852],[-95.123001,33.186697],[-95.124151,33.187164],[-95.124524,33.187047],[-95.124817,33.187441],[-95.124531,33.257151],[-95.118165,33.257088],[-95.117815,33.255949]]]}},{"type":"Feature","properties":{"PRECINCT":"14","VTD":"0014"},"geometry":{"type":"Polygon","coordinates":[[[-94.96021,33.157013],[-94.958383,33.153694],[-94.958327,33.15312],[-94.956701,33.152924],[-94.956656,33.147322],[-94.961736,33.148828],[-94.968333,33.151249],[-94.968833,33.146771],[-94.968208,33.142332],[-94.968174,33.133957],[-94.968954,33.131087],[-94.955435,33.130702],[-94.955538,33.132446],[-94.958195,33.132489],[-94.958319,33.133297],[-94.95551,33.133333],[-94.955515,33.135044],[-94.958815,33.135357],[-94.958832,33.137819],[-94.955766,33.13785],[-94.952562,33.139218],[-94.952064,33.140102],[-94.951472,33.142471],[-94.951401,33.145898],[-94.937236,33.142051],[-94.926607,33.138894],[-94.920096,33.137867],[-94.920072,33.131929],[-94.918672,33.126564],[-94.919048,33.120199],[-94.915137,33.102235],[-94.919347,33.102268],[-94.920317,33.101453],[-94.924019,33.099401],[-94.924525,33.09761],[-94.925293,33.096168],[-94.925279,33.092857],[-94.92767,33.090671],[-94.927876,33.087669],[-94.93758,33.087822],[-94.937708,33.080839],[-94.943579,33.080863],[-94.943592,33.080544],[-94.943259,33.080467],[-94.942998,33.080665],[-94.942776,33.080363],[-94.943311,33.079637],[-94.943122,33.079016],[-94.943285,33.078609],[-94.942436,33.078687],[-94.941875,33.077967],[-94.942031,33.07763],[-94.941744,33.077351],[-94.942482,33.077278],[-94.942501,33.077087],[-94.942155,33.076828],[-94.942018,33.07707],[-94.941718,33.077043],[-94.941659,33.076697],[-94.941235,33.076597],[-94.941411,33.076279],[-94.940686,33.07629],[-94.940895,33.075971],[-94.941567,33.075922],[-94.94145,33.075708],[-94.940908,33.075685],[-94.940353,33.075125],[-94.940588,33.074509],[-94.941019,33.07441],[-94.940849,33.073414],[-94.941169,33.07286],[-94.941535,33.072937],[-94.94301,33.074284],[-94.943865,33.074607],[-94.94461,33.074514],[-94.945191,33.075015],[-94.946098,33.074531],[-94.945478,33.074135],[-94.945302,33.073734],[-94.945817,33.073437],[-94.947019,33.07387],[-94.947534,33.074706],[-94.947907,33.074877],[-94.948168,33.074767],[-94.947952,33.073985],[-94.948246,33.073926],[-94.948847,33.07441],[-94.949251,33.074415],[-94.949767,33.073546],[-94.950211,33.073656],[-94.95057,33.074481],[-94.951282,33.073963],[-94.951797,33.074651],[-94.952437,33.073892],[-94.953364,33.074343],[-94.953854,33.073782],[-94.954559,33.073946],[-94.954494,33.073397],[-94.954781,33.073002],[-94.955447,33.073309],[-94.95638,33.073121],[-94.957608,33.073694],[-94.957823,33.072896],[-94.958606,33.072781],[-94.959474,33.072297],[-94.960487,33.073],[-94.96144,33.073116],[-94.961766,33.072775],[-94.962354,33.073335],[-94.963855,33.072592],[-94.964717,33.073071],[-94.966062,33.073043],[-94.967086,33.072702],[-94.968875,33.073185],[-94.970031,33.072366],[-94.970213,33.072525],[-94.969927,33.073096],[-94.970207,33.073383],[-94.971108,33.072502],[-94.972361,33.071925],[-94.972616,33.072041],[-94.972792,33.072783],[-94.973582,33.072557],[-94.974079,33.073162],[-94.97481,33.07282],[-94.975489,33.073694],[-94.977154,33.074061],[-94.977187,33.075227],[-94.978108,33.075348],[-94.978343,33.075584],[-94.978389,33.07593],[-94.977632,33.076552],[-94.977756,33.077057],[-94.978076,33.077173],[-94.979042,33.076369],[-94.979571,33.077413],[-94.980348,33.077227],[-94.98106,33.07732],[-94.981183,33.076791],[-94.981549,33.076577],[-94.982391,33.077264],[-94.982822,33.07727],[-94.982495,33.075984],[-94.982802,33.075691],[-94.983494,33.075901],[-94.98369,33.077072],[-94.984311,33.07707],[-94.984708,33.076009],[-94.985165,33.075862],[-94.985746,33.076109],[-94.986144,33.075752],[-94.986275,33.075097],[-94.98758,33.074849],[-94.986862,33.074244],[-94.987462,33.07403],[-94.987429,33.073371],[-94.988043,33.07314],[-94.988768,33.073546],[-94.989204,33.072766],[-94.989851,33.072892],[-94.989969,33.073397],[-94.990817,33.073462],[-94.991333,33.073891],[-94.993565,33.073022],[-94.994851,33.072977],[-94.995198,33.073439],[-94.994571,33.073555],[-94.994323,33.073895],[-94.994872,33.074329],[-94.995401,33.07423],[-94.995642,33.074384],[-94.995212,33.074928],[-94.99561,33.075395],[-94.996804,33.074466],[-94.998424,33.074568],[-94.998913,33.074778],[-94.998972,33.075102],[-94.998346,33.075207],[-94.998549,33.07647],[-94.999861,33.075865],[-95.00096,33.075957],[-95.001107,33.075395],[-95.002328,33.075034],[-95.003011,33.080339],[-95.002971,33.080944],[-95.002468,33.081587],[-95.003539,33.08202],[-95.004087,33.081978],[-95.005295,33.081379],[-95.005654,33.081533],[-95.006071,33.082693],[-95.009021,33.085239],[-95.009138,33.085887],[-95.010117,33.087493],[-95.010143,33.087817],[-95.009934,33.087856],[-95.010697,33.08834],[-95.011004,33.089064],[-95.01084,33.089499],[-95.011434,33.091022],[-95.010964,33.09133],[-95.010539,33.091132],[-95.010337,33.091258],[-95.010382,33.091813],[-95.010741,33.091951],[-95.011289,33.092906],[-95.010747,33.093522],[-95.009989,33.093704],[-95.010616,33.093913],[-95.011949,33.092709],[-95.012269,33.092688],[-95.011681,33.091918],[-95.012002,33.091577],[-95.012805,33.091501],[-95.012655,33.090401],[-95.013563,33.090373],[-95.013504,33.090121],[-95.01274,33.089758],[-95.013662,33.088724],[-95.014413,33.088538],[-95.014589,33.088873],[-95.015718,33.089138],[-95.015894,33.089599],[-95.015025,33.090688],[-95.014588,33.090753],[-95.014614,33.091304],[-95.014065,33.091551],[-95.014339,33.092039],[-95.014835,33.092079],[-95.014332,33.092731],[-95.013914,33.092748],[-95.013352,33.093628],[-95.013992,33.094468],[-95.013371,33.095107],[-95.012346,33.095463],[-95.013423,33.095959],[-95.013403,33.096431],[-95.01369,33.096595],[-95.014017,33.096398],[-95.014539,33.096832],[-95.01418,33.097513],[-95.014349,33.097783],[-95.015244,33.097887],[-95.016772,33.097558],[-95.01717,33.097696],[-95.017,33.098252],[-95.017523,33.098174],[-95.018326,33.097307],[-95.019586,33.097593],[-95.01975,33.097785],[-95.019586,33.09796],[-95.018698,33.098174],[-95.019926,33.0985],[-95.019227,33.099302],[-95.019298,33.099533],[-95.01984,33.099269],[-95.020284,33.099336],[-95.020291,33.099846],[-95.020898,33.100166],[-95.021015,33.100687],[-95.02144,33.10065],[-95.021779,33.100963],[-95.022014,33.100809],[-95.021584,33.099451],[-95.021774,33.098709],[-95.021578,33.097313],[-95.022061,33.097275],[-95.022564,33.097638],[-95.023119,33.09866],[-95.024203,33.099139],[-95.024424,33.100018],[-95.023974,33.100568],[-95.024633,33.10076],[-95.024842,33.101194],[-95.025136,33.101151],[-95.024809,33.100485],[-95.024908,33.100018],[-95.025685,33.099193],[-95.026338,33.099519],[-95.026769,33.099458],[-95.028048,33.100628],[-95.027898,33.102317],[-95.028211,33.101954],[-95.028146,33.101646],[-95.028479,33.101432],[-95.028845,33.10004],[-95.02987,33.100806],[-95.03034,33.10085],[-95.030641,33.101273],[-95.031202,33.101169],[-95.032012,33.102477],[-95.031718,33.103549],[-95.030868,33.104466],[-95.030785,33.105196],[-95.026886,33.107439],[-95.022723,33.107901],[-95.023344,33.112263],[-95.023147,33.118679],[-95.018787,33.120752],[-95.01192,33.122678],[-95.010162,33.125176],[-95.008886,33.127578],[-95.006656,33.129081],[-95.004814,33.130888],[-94.999145,33.137673],[-94.998445,33.138056],[-94.995525,33.138829],[-94.990975,33.143652],[-94.985542,33.146501],[-94.982253,33.148964],[-94.980132,33.149178],[-94.976655,33.148636],[-94.974954,33.14882],[-94.973226,33.149406],[-94.971599,33.150532],[-94.968558,33.153728],[-94.968539,33.15587],[-94.969501,33.155873],[-94.969497,33.156703],[-94.966883,33.156695],[-94.964991,33.157031],[-94.96021,33.157013]]]}},{"type":"Feature","properties":{"PRECINCT":"15","VTD":"0015"},"geometry":{"type":"Polygon","coordinates":[[[-94.877971,33.224753],[-94.871783,33.224809],[-94.86996,33.225142],[-94.866067,33.224952],[-94.866427,33.218043],[-94.86382,33.215261],[-94.862701,33.212277],[-94.862502,33.200642],[-94.861593,33.1984],[-94.861697,33.191525],[-94.861335,33.189711],[-94.861775,33.186515],[-94.878716,33.186731],[-94.89909,33.188577],[-94.913533,33.187603],[-94.916288,33.186884],[-94.948619,33.173574],[-94.960287,33.17239],[-94.962496,33.17251],[-94.9636,33.176119],[-94.963759,33.177763],[-94.962968,33.183642],[-94.961958,33.18724],[-94.960043,33.192366],[-94.959201,33.195586],[-94.954433,33.203604],[-94.953268,33.209023],[-94.951169,33.21562],[-94.948599,33.220187],[-94.947444,33.222712],[-94.946689,33.225113],[-94.945649,33.22639],[-94.943601,33.22674],[-94.93884,33.226199],[-94.901378,33.22628],[-94.90085,33.226447],[-94.89986,33.226276],[-94.895545,33.226287],[-94.893571,33.225724],[-94.891776,33.223985],[-94.889598,33.22278],[-94.887346,33.225403],[-94.88651,33.225811],[-94.884909,33.226109],[-94.882379,33.226142],[-94.879103,33.225443],[-94.877971,33.224753]]]}},{"type":"Feature","properties":{"PRECINCT":"16","VTD":"0016"},"geometry":{"type":"Polygon","coordinates":[[[-95.026825,33.235858],[-95.020972,33.229681],[-95.019171,33.228358],[-95.017501,33.228581],[-95.003179,33.228409],[-95.002988,33.228294],[-95.002963,33.225065],[-94.996292,33.224977],[-94.996222,33.222648],[-94.995917,33.222293],[-94.98894,33.222271],[-94.988357,33.22099],[-94.976173,33.221201],[-94.975666,33.221828],[-94.961941,33.2217],[-94.961728,33.221884],[-94.961604,33.22643],[-94.945649,33.22639],[-94.946689,33.225113],[-94.947444,33.222712],[-94.948599,33.220187],[-94.951344,33.215196],[-94.953268,33.209023],[-94.954433,33.203604],[-94.959201,33.195586],[-94.960043,33.192366],[-94.962738,33.184558],[-94.963731,33.178116],[-94.964982,33.177374],[-94.966282,33.175281],[-94.966543,33.174171],[-94.966556,33.171829],[-94.970304,33.171489],[-94.970418,33.177303],[-94.970661,33.178824],[-94.983642,33.174798],[-94.978887,33.170645],[-94.989858,33.166317],[-94.997538,33.16484],[-95.000058,33.169742],[-95.019244,33.163777],[-95.025465,33.164053],[-95.025326,33.169629],[-95.026882,33.171778],[-95.027791,33.173783],[-95.027971,33.17731],[-95.028305,33.177605],[-95.029789,33.177833],[-95.03004,33.178776],[-95.031968,33.17906],[-95.032542,33.182899],[-95.033286,33.185549],[-95.033287,33.188651],[-95.027011,33.188729],[-95.02673,33.189726],[-95.027116,33.191052],[-95.027475,33.191485],[-95.028063,33.191206],[-95.028815,33.191426],[-95.029906,33.192909],[-95.030272,33.193069],[-95.030024,33.193938],[-95.030193,33.194345],[-95.030998,33.194305],[-95.031069,33.194674],[-95.031729,33.195307],[-95.031971,33.196269],[-95.032768,33.197516],[-95.035201,33.198655],[-95.035305,33.201195],[-95.038605,33.201237],[-95.038834,33.202409],[-95.038265,33.203113],[-95.039173,33.203695],[-95.039049,33.204079],[-95.040004,33.20413],[-95.040481,33.204745],[-95.04035,33.20525],[-95.039415,33.205817],[-95.03933,33.206207],[-95.042435,33.207675],[-95.042612,33.207884],[-95.04165,33.209192],[-95.04267,33.210681],[-95.043278,33.211236],[-95.044337,33.211363],[-95.045625,33.212775],[-95.046821,33.21333],[-95.047364,33.214078],[-95.046921,33.218092],[-95.047825,33.221691],[-95.0408,33.221891],[-95.040646,33.223605],[-95.037619,33.226041],[-95.04134,33.229066],[-95.04076,33.23001],[-95.040578,33.236213],[-95.026825,33.235858]]]}},{"type":"Feature","properties":{"PRECINCT":"17","VTD":"0017"},"geometry":{"type":"Polygon","coordinates":[[[-94.978887,33.170645],[-94.974605,33.166461],[-94.974962,33.166293],[-94.975032,33.160722],[-94.971486,33.160725],[-94.971437,33.156699],[-94.978613,33.157058],[-94.978637,33.161653],[-94.980715,33.161664],[-94.980612,33.167257],[-94.982067,33.167251],[-94.982044,33.169483],[-94.978887,33.170645]]]}},{"type":"Feature","properties":{"PRECINCT":"18","VTD":"0018"},"geometry":{"type":"Polygon","coordinates":[[[-95.027892,33.174177],[-95.026675,33.171432],[-95.025362,33.169798],[-95.025465,33.164053],[-95.019244,33.163777],[-95.000058,33.169742],[-94.997538,33.16484],[-94.997029,33.163106],[-94.998491,33.163456],[-94.998925,33.1624],[-94.998154,33.16217],[-94.997992,33.162565],[-94.997909,33.162097],[-94.993004,33.160655],[-94.992906,33.15738],[-94.99531,33.15663],[-95.003727,33.155361],[-95.003809,33.153943],[-95.003057,33.15278],[-95.00021,33.152749],[-94.991326,33.151296],[-94.982905,33.149532],[-94.980132,33.149178],[-94.982253,33.148964],[-94.985542,33.146501],[-94.990818,33.143765],[-94.994988,33.13921],[-94.996039,33.138633],[-94.998445,33.138056],[-94.999498,33.137405],[-95.004814,33.130888],[-95.006656,33.129081],[-95.008886,33.127578],[-95.010162,33.125176],[-95.01192,33.122678],[-95.018787,33.120752],[-95.023925,33.118357],[-95.027551,33.116984],[-95.031427,33.115896],[-95.036429,33.115367],[-95.041534,33.11575],[-95.045181,33.115234],[-95.049425,33.115054],[-95.051781,33.113746],[-95.053656,33.112011],[-95.055723,33.111114],[-95.05817,33.109695],[-95.060077,33.111995],[-95.063414,33.11515],[-95.064689,33.117057],[-95.06774,33.116996],[-95.067576,33.118598],[-95.068536,33.119363],[-95.069115,33.120464],[-95.070644,33.125681],[-95.070752,33.12988],[-95.069125,33.1325],[-95.069092,33.133733],[-95.070091,33.134818],[-95.073354,33.135446],[-95.073951,33.135796],[-95.074419,33.136483],[-95.073778,33.140731],[-95.073755,33.143316],[-95.067187,33.143269],[-95.066649,33.145151],[-95.06653,33.149388],[-95.066685,33.149606],[-95.069294,33.149994],[-95.068967,33.156864],[-95.066269,33.157646],[-95.066284,33.159274],[-95.073055,33.159453],[-95.073032,33.160631],[-95.069838,33.159815],[-95.06991,33.162187],[-95.071142,33.162312],[-95.070843,33.167186],[-95.065883,33.166711],[-95.065894,33.174045],[-95.035168,33.173648],[-95.035204,33.185485],[-95.034951,33.188592],[-95.033287,33.188651],[-95.033266,33.185395],[-95.032542,33.182899],[-95.032003,33.179133],[-95.031743,33.178936],[-95.03004,33.178776],[-95.029789,33.177833],[-95.028012,33.177416],[-95.027892,33.174177]]]}},{"type":"Feature","properties":{"PRECINCT":"19","VTD":"0019"},"geometry":{"type":"Polygon","coordinates":[[[-94.927075,33.172407],[-94.927052,33.166718],[-94.925317,33.166679],[-94.925801,33.166327],[-94.925592,33.165644],[-94.926592,33.165096],[-94.927238,33.165838],[-94.92867,33.166283],[-94.929938,33.165644],[-94.930781,33.164859],[-94.930754,33.164507],[-94.931153,33.164606],[-94.931042,33.164112],[-94.931434,33.163887],[-94.931206,33.162914],[-94.931389,33.162809],[-94.931081,33.162694],[-94.931349,33.162281],[-94.931108,33.160742],[-94.931742,33.160836],[-94.931487,33.160505],[-94.93165,33.160308],[-94.932317,33.160429],[-94.931827,33.159753],[-94.932212,33.159424],[-94.932532,33.159675],[-94.933473,33.158901],[-94.933957,33.158813],[-94.933676,33.158406],[-94.934101,33.158225],[-94.934225,33.157494],[-94.934865,33.157187],[-94.934297,33.15673],[-94.934597,33.156526],[-94.934702,33.155932],[-94.933506,33.155482],[-94.933486,33.15507],[-94.932796,33.154186],[-94.921387,33.154388],[-94.920036,33.155277],[-94.91994,33.157825],[-94.919526,33.158212],[-94.887455,33.15833],[-94.887061,33.158278],[-94.886906,33.158028],[-94.886906,33.156039],[-94.876889,33.155991],[-94.876938,33.146687],[-94.886924,33.146715],[-94.886957,33.138241],[-94.88665,33.138013],[-94.885229,33.137931],[-94.885062,33.137604],[-94.88513,33.13225],[-94.885249,33.131794],[-94.88583,33.131639],[-94.885912,33.126517],[-94.894101,33.131318],[-94.898524,33.13339],[-94.90195,33.134653],[-94.904483,33.135233],[-94.926072,33.138759],[-94.937236,33.142051],[-94.956656,33.147322],[-94.956701,33.152924],[-94.958327,33.15312],[-94.958383,33.153694],[-94.96021,33.157013],[-94.947571,33.157179],[-94.945401,33.156377],[-94.945317,33.158009],[-94.944886,33.158462],[-94.944626,33.161157],[-94.94391,33.160939],[-94.941969,33.16127],[-94.942851,33.160248],[-94.94313,33.159439],[-94.939391,33.158155],[-94.939392,33.158492],[-94.938003,33.158473],[-94.93932,33.161204],[-94.941978,33.1631],[-94.941929,33.165972],[-94.941263,33.166636],[-94.941749,33.167586],[-94.941381,33.168154],[-94.942236,33.168974],[-94.946568,33.169722],[-94.949373,33.169764],[-94.952498,33.169527],[-94.954541,33.169065],[-94.953773,33.169812],[-94.953836,33.170718],[-94.957564,33.169179],[-94.957533,33.172649],[-94.948619,33.173574],[-94.927529,33.182223],[-94.927347,33.173309],[-94.927075,33.172407]]]}},{"type":"Feature","properties":{"PRECINCT":"20","VTD":"0020"},"geometry":{"type":"Polygon","coordinates":[[[-94.958832,33.137819],[-94.958815,33.135357],[-94.955515,33.135044],[-94.95551,33.133333],[-94.958319,33.133297],[-94.958195,33.132489],[-94.955538,33.132446],[-94.955435,33.130702],[-94.968954,33.131087],[-94.968174,33.133957],[-94.968208,33.142332],[-94.968833,33.146771],[-94.968333,33.151249],[-94.960587,33.148451],[-94.951401,33.145898],[-94.951472,33.142471],[-94.952418,33.1394],[-94.952837,33.139038],[-94.955459,33.137922],[-94.958832,33.137819]]]}}]}