{"type":"FeatureCollection","features":[{"type":"Feature","properties":{"PRECINCT":"1","VTD":"0001"},"geometry":{"type":"Polygon","coordinates":[[[-97.816381,32.472453],[-97.815764,32.472533],[-97.815634,32.469622],[-97.814291,32.466369],[-97.813313,32.465187],[-97.807886,32.461888],[-97.805787,32.459456],[-97.802683,32.457191],[-97.794614,32.454147],[-97.791138,32.452661],[-97.790261,32.452053],[-97.788293,32.448852],[-97.787666,32.448386],[-97.787646,32.442208],[-97.779392,32.442227],[-97.771737,32.443537],[-97.770437,32.443257],[-97.767498,32.441846],[-97.768892,32.440638],[-97.770983,32.439332],[-97.772056,32.439067],[-97.773576,32.438858],[-97.779224,32.438815],[-97.782751,32.439166],[-97.785219,32.438314],[-97.787558,32.436653],[-97.789257,32.435744],[-97.789715,32.435086],[-97.789298,32.431305],[-97.787736,32.427777],[-97.785051,32.42431],[-97.78185,32.420748],[-97.784064,32.41976],[-97.786479,32.417971],[-97.787652,32.418293],[-97.787092,32.417482],[-97.787122,32.41696],[-97.788001,32.416874],[-97.78834,32.418253],[-97.792437,32.424822],[-97.793135,32.426504],[-97.794326,32.433779],[-97.794267,32.442321],[-97.799455,32.4424],[-97.801282,32.442095],[-97.806558,32.439721],[-97.824743,32.433211],[-97.841714,32.425829],[-97.847704,32.434196],[-97.850071,32.438257],[-97.8486,32.438522],[-97.843403,32.44048],[-97.83884,32.44374],[-97.838036,32.444727],[-97.836722,32.448324],[-97.836187,32.449084],[-97.834518,32.44991],[-97.832143,32.450108],[-97.83157,32.450395],[-97.832034,32.452137],[-97.831899,32.452419],[-97.83115,32.452618],[-97.829338,32.452233],[-97.828684,32.451517],[-97.827534,32.452174],[-97.827241,32.453865],[-97.829156,32.454763],[-97.829735,32.455968],[-97.829319,32.456569],[-97.82945,32.457527],[-97.829216,32.458157],[-97.82807,32.459721],[-97.828574,32.461353],[-97.827134,32.462052],[-97.826718,32.462623],[-97.826591,32.463672],[-97.826954,32.464368],[-97.825151,32.464146],[-97.823442,32.465291],[-97.823093,32.467007],[-97.821502,32.468832],[-97.819731,32.468227],[-97.819674,32.467627],[-97.819484,32.467582],[-97.819124,32.468409],[-97.819602,32.469288],[-97.819439,32.470815],[-97.818103,32.470891],[-97.817119,32.471494],[-97.817785,32.472577],[-97.817923,32.473312],[-97.817597,32.473348],[-97.816381,32.472453]]]}},{"type":"Feature","properties":{"PRECINCT":"12","VTD":"0012"},"geometry":{"type":"Polygon","coordinates":[[[-97.799721,32.55699],[-97.801225,32.555406],[-97.805055,32.552677],[-97.809513,32.550766],[-97.815038,32.549319],[-97.816315,32.547992],[-97.818826,32.54642],[-97.82392,32.541641],[-97.829217,32.532988],[-97.830011,32.533229],[-97.830323,32.533639],[-97.830147,32.534703],[-97.829667,32.534892],[-97.829759,32.535953],[-97.83082,32.536222],[-97.831682,32.536158],[-97.830859,32.535445],[-97.830886,32.535182],[-97.830464,32.535052],[-97.830437,32.533521],[-97.830256,32.533291],[-97.834315,32.533259],[-97.834324,32.532007],[-97.83474,32.531422],[-97.833259,32.531851],[-97.831582,32.532677],[-97.830833,32.532696],[-97.833258,32.531444],[-97.83431,32.53118],[-97.834753,32.530811],[-97.835443,32.528981],[-97.836711,32.526767],[-97.835805,32.527901],[-97.835906,32.526981],[-97.83731,32.525776],[-97.837438,32.524509],[-97.841326,32.515197],[-97.841797,32.513225],[-97.84411,32.508499],[-97.843876,32.50771],[-97.844131,32.505015],[-97.844015,32.503172],[-97.844999,32.502673],[-97.845609,32.503225],[-97.846526,32.503317],[-97.84523,32.502544],[-97.844882,32.501894],[-97.841804,32.501306],[-97.839721,32.501381],[-97.838334,32.500735],[-97.836634,32.499601],[-97.835993,32.498815],[-97.834352,32.49774],[-97.833509,32.497434],[-97.833832,32.496114],[-97.832542,32.49506],[-97.833293,32.494338],[-97.835802,32.493591],[-97.836106,32.493381],[-97.836046,32.493077],[-97.839887,32.491128],[-97.838175,32.488788],[-97.837282,32.489136],[-97.836542,32.488309],[-97.842047,32.487142],[-97.846751,32.484175],[-97.848189,32.485717],[-97.849166,32.48509],[-97.846201,32.481797],[-97.844649,32.4807],[-97.842981,32.480134],[-97.833859,32.479114],[-97.831648,32.478569],[-97.830313,32.477794],[-97.829222,32.476678],[-97.8286,32.475639],[-97.828136,32.473929],[-97.817656,32.475279],[-97.816863,32.475009],[-97.816162,32.474355],[-97.815867,32.47377],[-97.815764,32.472533],[-97.816381,32.472453],[-97.817847,32.473368],[-97.817785,32.472577],[-97.817119,32.471494],[-97.818103,32.470891],[-97.819439,32.470815],[-97.819602,32.469288],[-97.819124,32.468409],[-97.819484,32.467582],[-97.819674,32.467627],[-97.819731,32.468227],[-97.821502,32.468832],[-97.823093,32.467007],[-97.823442,32.465291],[-97.825151,32.464146],[-97.826954,32.464368],[-97.826591,32.463672],[-97.826718,32.462623],[-97.827134,32.462052],[-97.828574,32.461353],[-97.82807,32.459721],[-97.829216,32.458157],[-97.82945,32.457527],[-97.829319,32.456569],[-97.829735,32.455968],[-97.829156,32.454763],[-97.827241,32.453865],[-97.827534,32.452174],[-97.828684,32.451517],[-97.829338,32.452233],[-97.83115,32.452618],[-97.831899,32.452419],[-97.832034,32.452137],[-97.83157,32.450395],[-97.832143,32.450108],[-97.834518,32.44991],[-97.836187,32.449084],[-97.836722,32.448324],[-97.838036,32.444727],[-97.83884,32.44374],[-97.843155,32.440613],[-97.847278,32.438982],[-97.850071,32.438257],[-97.863647,32.458035],[-97.853872,32.462935],[-97.85375,32.463178],[-97.855635,32.463091],[-97.859919,32.464156],[-97.875021,32.472547],[-97.883427,32.476242],[-97.898606,32.477888],[-97.910784,32.479988],[-97.91236,32.480037],[-97.915772,32.479481],[-97.91823,32.479979],[-97.920012,32.481229],[-97.924344,32.487202],[-97.929805,32.492609],[-97.932015,32.493527],[-97.940141,32.494946],[-97.941385,32.495331],[-97.942458,32.49609],[-97.944431,32.498472],[-97.948182,32.500266],[-97.951502,32.502816],[-97.919506,32.534366],[-97.919326,32.557101],[-97.875312,32.557355],[-97.799721,32.55699]]]}},{"type":"Feature","properties":{"PRECINCT":"5","VTD":"0005"},"geometry":{"type":"Polygon","coordinates":[[[-97.915939,32.479488],[-97.91236,32.480037],[-97.911184,32.48003],[-97.898606,32.477888],[-97.883427,32.476242],[-97.875021,32.472547],[-97.859919,32.464156],[-97.855635,32.463091],[-97.85375,32.463178],[-97.853872,32.462935],[-97.863647,32.458035],[-97.8497,32.437714],[-97.847704,32.434196],[-97.841714,32.425829],[-97.854011,32.42051],[-97.864643,32.414386],[-97.862224,32.410762],[-97.864194,32.409551],[-97.864446,32.407339],[-97.863992,32.406053],[-97.861399,32.404347],[-97.859466,32.401767],[-97.85826,32.400542],[-97.855773,32.396265],[-97.85577,32.394813],[-97.855033,32.393673],[-97.855146,32.393394],[-97.857435,32.392207],[-97.857605,32.391135],[-97.861721,32.389004],[-97.851132,32.374863],[-97.844229,32.36454],[-97.852704,32.359623],[-97.854376,32.357785],[-97.85983,32.342115],[-97.860938,32.334781],[-97.862423,32.329427],[-97.862395,32.328003],[-97.861449,32.32618],[-97.857784,32.320892],[-97.838837,32.294165],[-97.837752,32.293062],[-97.835555,32.292251],[-97.833549,32.29235],[-97.827005,32.295445],[-97.822735,32.297958],[-97.820743,32.298245],[-97.819135,32.297956],[-97.858177,32.278159],[-97.862991,32.275392],[-97.880054,32.266635],[-97.886646,32.263484],[-97.945625,32.233468],[-97.963403,32.273817],[-98.001237,32.362329],[-98.008296,32.375063],[-98.020587,32.402285],[-98.045892,32.459695],[-97.992537,32.459637],[-97.992558,32.458993],[-97.966365,32.458835],[-97.966052,32.461896],[-97.966175,32.467477],[-97.959489,32.467636],[-97.959356,32.471798],[-97.961053,32.493401],[-97.951502,32.502816],[-97.948182,32.500266],[-97.944431,32.498472],[-97.942458,32.49609],[-97.941385,32.495331],[-97.940141,32.494946],[-97.932015,32.493527],[-97.929805,32.492609],[-97.924344,32.487202],[-97.92254,32.484918],[-97.921152,32.482585],[-97.919679,32.480908],[-97.917862,32.479835],[-97.915939,32.479488]]]}},{"type":"Feature","properties":{"PRECINCT":"4","VTD":"0004"},"geometry":{"type":"Polygon","coordinates":[[[-97.812055,32.489441],[-97.807259,32.485399],[-97.8059,32.482906],[-97.803095,32.476249],[-97.801355,32.475296],[-97.799414,32.47486],[-97.796065,32.475375],[-97.787814,32.475789],[-97.784755,32.476734],[-97.781999,32.477767],[-97.766293,32.486097],[-97.764877,32.486289],[-97.76165,32.485793],[-97.759279,32.484433],[-97.757858,32.483018],[-97.756677,32.480488],[-97.756894,32.477006],[-97.757821,32.47451],[-97.760908,32.470159],[-97.763614,32.466856],[-97.764301,32.465556],[-97.764619,32.46353],[-97.764659,32.449199],[-97.765591,32.44467],[-97.766307,32.443281],[-97.767498,32.441846],[-97.770437,32.443257],[-97.771737,32.443537],[-97.779392,32.442227],[-97.787646,32.442208],[-97.787666,32.448386],[-97.788293,32.448852],[-97.790261,32.452053],[-97.791138,32.452661],[-97.794614,32.454147],[-97.802683,32.457191],[-97.805787,32.459456],[-97.807886,32.461888],[-97.813558,32.465398],[-97.814291,32.466369],[-97.815634,32.469622],[-97.815867,32.47377],[-97.816647,32.474871],[-97.817909,32.475285],[-97.828136,32.473929],[-97.8286,32.475639],[-97.829222,32.476678],[-97.830313,32.477794],[-97.831322,32.478413],[-97.833016,32.478983],[-97.842676,32.480083],[-97.843994,32.48042],[-97.845953,32.481564],[-97.849166,32.48509],[-97.848189,32.485717],[-97.846751,32.484175],[-97.842047,32.487142],[-97.836542,32.488309],[-97.837282,32.489136],[-97.838175,32.488788],[-97.839887,32.491128],[-97.836046,32.493077],[-97.836106,32.493381],[-97.835802,32.493591],[-97.833293,32.494338],[-97.832542,32.49506],[-97.833832,32.496114],[-97.833509,32.497434],[-97.834352,32.49774],[-97.835993,32.498815],[-97.836634,32.499601],[-97.837456,32.500134],[-97.830187,32.500135],[-97.829003,32.498871],[-97.812055,32.489441]]]}},{"type":"Feature","properties":{"PRECINCT":"13","VTD":"0013"},"geometry":{"type":"Polygon","coordinates":[[[-97.75588,32.441873],[-97.753615,32.439382],[-97.752668,32.439303],[-97.748687,32.441105],[-97.74806,32.441066],[-97.747314,32.440588],[-97.743613,32.435904],[-97.742579,32.435698],[-97.740482,32.436611],[-97.737144,32.43173],[-97.735935,32.427543],[-97.733116,32.423532],[-97.730837,32.419263],[-97.728722,32.416362],[-97.725761,32.415366],[-97.722355,32.409968],[-97.721188,32.409976],[-97.720701,32.409612],[-97.719052,32.409414],[-97.718588,32.408245],[-97.71883,32.407353],[-97.723162,32.405551],[-97.736098,32.403267],[-97.740341,32.40404],[-97.743889,32.406551],[-97.745272,32.409703],[-97.744565,32.413693],[-97.744835,32.420443],[-97.748022,32.423713],[-97.750306,32.425637],[-97.753563,32.425767],[-97.755041,32.426028],[-97.756069,32.425466],[-97.758938,32.420764],[-97.760662,32.418447],[-97.762548,32.41662],[-97.764627,32.415166],[-97.767699,32.414],[-97.771467,32.414265],[-97.776188,32.416531],[-97.780113,32.418815],[-97.785051,32.42431],[-97.787736,32.427777],[-97.789298,32.431305],[-97.789715,32.435086],[-97.789257,32.435744],[-97.787558,32.436653],[-97.785219,32.438314],[-97.782751,32.439166],[-97.779224,32.438815],[-97.773576,32.438858],[-97.772056,32.439067],[-97.770983,32.439332],[-97.768892,32.440638],[-97.767498,32.441846],[-97.763782,32.440283],[-97.761573,32.440036],[-97.759241,32.440483],[-97.75588,32.441873]]]}},{"type":"Feature","properties":{"PRECINCT":"9","VTD":"0009"},"geometry":{"type":"Polygon","coordinates":[[[-97.659693,32.555987],[-97.65981,32.553437],[-97.669914,32.54777],[-97.673456,32.544781],[-97.674488,32.543371],[-97.675586,32.540225],[-97.676403,32.531655],[-97.674616,32.526791],[-97.674526,32.524955],[-97.675001,32.523891],[-97.680156,32.516368],[-97.680901,32.515662],[-97.682303,32.514978],[-97.687501,32.513897],[-97.690139,32.512994],[-97.692489,32.511288],[-97.696899,32.504624],[-97.697738,32.503754],[-97.702997,32.5],[-97.703821,32.49877],[-97.704107,32.497065],[-97.704572,32.495978],[-97.707754,32.493643],[-97.709566,32.491715],[-97.708213,32.489781],[-97.706125,32.490614],[-97.705619,32.490552],[-97.699775,32.482002],[-97.699321,32.478391],[-97.700189,32.477283],[-97.698463,32.472853],[-97.707518,32.467578],[-97.724874,32.458263],[-97.749884,32.444265],[-97.759241,32.440483],[-97.760691,32.440111],[-97.762014,32.440041],[-97.763782,32.440283],[-97.767498,32.441846],[-97.766307,32.443281],[-97.765591,32.44467],[-97.764659,32.449199],[-97.764619,32.46353],[-97.764301,32.465556],[-97.763614,32.466856],[-97.760908,32.470159],[-97.757821,32.47451],[-97.756894,32.477006],[-97.756633,32.478783],[-97.756677,32.480488],[-97.757158,32.481838],[-97.757858,32.483018],[-97.759279,32.484433],[-97.76165,32.485793],[-97.764877,32.486289],[-97.765716,32.486175],[-97.765382,32.489918],[-97.766628,32.49183],[-97.767939,32.492472],[-97.764264,32.498112],[-97.765491,32.503776],[-97.76573,32.506659],[-97.765176,32.517496],[-97.765872,32.526114],[-97.765458,32.527467],[-97.759707,32.530005],[-97.757934,32.531655],[-97.750884,32.534967],[-97.744828,32.535643],[-97.743982,32.536],[-97.731174,32.542239],[-97.730289,32.5443],[-97.725283,32.546891],[-97.728878,32.552658],[-97.729693,32.553617],[-97.730674,32.554208],[-97.730731,32.554713],[-97.732059,32.556681],[-97.705342,32.556431],[-97.699334,32.556579],[-97.659693,32.555987]]]}},{"type":"Feature","properties":{"PRECINCT":"15","VTD":"0015"},"geometry":{"type":"Polygon","coordinates":[[[-97.617066,32.555484],[-97.617071,32.535852],[-97.616657,32.520471],[-97.62564,32.520474],[-97.627412,32.520414],[-97.627632,32.52015],[-97.627882,32.5203],[-97.633803,32.512701],[-97.635168,32.511665],[-97.645694,32.505409],[-97.652886,32.499108],[-97.654406,32.498285],[-97.663532,32.494465],[-97.698463,32.472853],[-97.700189,32.477283],[-97.699321,32.478391],[-97.699775,32.482002],[-97.705619,32.490552],[-97.706125,32.490614],[-97.708213,32.489781],[-97.709566,32.491715],[-97.707754,32.493643],[-97.704572,32.495978],[-97.704107,32.497065],[-97.703821,32.49877],[-97.702997,32.5],[-97.697738,32.503754],[-97.696899,32.504624],[-97.692489,32.511288],[-97.690139,32.512994],[-97.687501,32.513897],[-97.682303,32.514978],[-97.680901,32.515662],[-97.6798,32.516832],[-97.676036,32.522334],[-97.674921,32.524022],[-97.674447,32.525474],[-97.674616,32.526791],[-97.676403,32.531655],[-97.675683,32.539544],[-97.674602,32.543129],[-97.673456,32.544781],[-97.669696,32.547919],[-97.65981,32.553437],[-97.659693,32.555987],[-97.617066,32.555484]]]}},{"type":"Feature","properties":{"PRECINCT":"10","VTD":"0010"},"geometry":{"type":"Polygon","coordinates":[[[-97.616657,32.520471],[-97.615675,32.495392],[-97.616261,32.479318],[-97.617134,32.471693],[-97.615603,32.384431],[-97.615483,32.362085],[-97.622588,32.365153],[-97.625246,32.366746],[-97.62727,32.367659],[-97.629682,32.368288],[-97.6391,32.370035],[-97.640993,32.370927],[-97.642442,32.37245],[-97.642423,32.374412],[-97.641461,32.376747],[-97.641003,32.378659],[-97.641026,32.380204],[-97.64156,32.382058],[-97.64226,32.383341],[-97.644707,32.38467],[-97.646044,32.385723],[-97.650002,32.386863],[-97.651355,32.386572],[-97.657399,32.382148],[-97.659925,32.379849],[-97.66748,32.37514],[-97.673211,32.373054],[-97.676746,32.372557],[-97.679601,32.372587],[-97.683156,32.373544],[-97.687948,32.373508],[-97.692821,32.374229],[-97.69377,32.374542],[-97.702975,32.378386],[-97.707077,32.381276],[-97.708671,32.384952],[-97.708324,32.388109],[-97.705469,32.392121],[-97.69299,32.400245],[-97.680157,32.412667],[-97.679572,32.415571],[-97.68036,32.417721],[-97.681338,32.418564],[-97.690448,32.417119],[-97.698274,32.414051],[-97.701479,32.420022],[-97.702347,32.419186],[-97.703184,32.418785],[-97.703421,32.419176],[-97.702566,32.419702],[-97.706547,32.426147],[-97.704596,32.427182],[-97.703105,32.43016],[-97.703006,32.432088],[-97.704937,32.435217],[-97.69797,32.438431],[-97.697723,32.441222],[-97.698099,32.441325],[-97.698124,32.441553],[-97.697906,32.441543],[-97.697553,32.44247],[-97.698061,32.443682],[-97.697705,32.444777],[-97.696551,32.44542],[-97.696454,32.446257],[-97.694634,32.446999],[-97.689903,32.44708],[-97.687366,32.452956],[-97.687505,32.453668],[-97.689712,32.457214],[-97.691286,32.461754],[-97.694916,32.46696],[-97.698463,32.472853],[-97.663532,32.494465],[-97.654406,32.498285],[-97.652886,32.499108],[-97.645694,32.505409],[-97.635168,32.511665],[-97.633803,32.512701],[-97.627882,32.5203],[-97.627632,32.52015],[-97.627412,32.520414],[-97.62564,32.520474],[-97.616657,32.520471]]]}},{"type":"Feature","properties":{"PRECINCT":"16","VTD":"0016"},"geometry":{"type":"Polygon","coordinates":[[[-97.642442,32.37245],[-97.640993,32.370927],[-97.6391,32.370035],[-97.629682,32.368288],[-97.62727,32.367659],[-97.625246,32.366746],[-97.622588,32.365153],[-97.615483,32.362085],[-97.615374,32.347741],[-97.61766,32.348722],[-97.619164,32.349755],[-97.622929,32.35305],[-97.625292,32.353993],[-97.638253,32.35458],[-97.644427,32.356529],[-97.647508,32.357071],[-97.650052,32.356365],[-97.653757,32.354696],[-97.663798,32.349072],[-97.665246,32.347899],[-97.666873,32.345937],[-97.670366,32.340144],[-97.67128,32.339446],[-97.67216,32.339263],[-97.673531,32.339609],[-97.675878,32.341204],[-97.680047,32.345243],[-97.681876,32.347337],[-97.683864,32.350091],[-97.684889,32.351963],[-97.686673,32.356761],[-97.687828,32.359017],[-97.690017,32.362352],[-97.692929,32.365881],[-97.695714,32.368144],[-97.699028,32.369876],[-97.700107,32.370214],[-97.70361,32.370365],[-97.703695,32.370663],[-97.704373,32.371083],[-97.704208,32.371932],[-97.704401,32.372289],[-97.705991,32.372726],[-97.706466,32.372552],[-97.70844,32.372577],[-97.708923,32.372359],[-97.709643,32.37289],[-97.710288,32.372949],[-97.710924,32.373592],[-97.710506,32.373584],[-97.71031,32.374049],[-97.710846,32.37472],[-97.706465,32.374643],[-97.700909,32.372037],[-97.698347,32.371597],[-97.698256,32.371785],[-97.696202,32.371978],[-97.690259,32.370108],[-97.689386,32.369644],[-97.689248,32.369956],[-97.688784,32.370115],[-97.687948,32.373508],[-97.683156,32.373544],[-97.679601,32.372587],[-97.678254,32.372506],[-97.67492,32.372704],[-97.673211,32.373054],[-97.66748,32.37514],[-97.659925,32.379849],[-97.657399,32.382148],[-97.651355,32.386572],[-97.650002,32.386863],[-97.646044,32.385723],[-97.644707,32.38467],[-97.64226,32.383341],[-97.64156,32.382058],[-97.641026,32.380204],[-97.641003,32.378659],[-97.641461,32.376747],[-97.642423,32.374412],[-97.642442,32.37245]]]}},{"type":"Feature","properties":{"PRECINCT":"14","VTD":"0014"},"geometry":{"type":"Polygon","coordinates":[[[-97.690241,32.446976],[-97.694521,32.447021],[-97.696454,32.446257],[-97.696497,32.44549],[-97.697705,32.444777],[-97.698048,32.443776],[-97.697553,32.44247],[-97.698137,32.441406],[-97.697723,32.441222],[-97.697902,32.438505],[-97.704937,32.435217],[-97.703006,32.432088],[-97.703105,32.43016],[-97.704596,32.427182],[-97.706547,32.426147],[-97.702566,32.419702],[-97.703421,32.419176],[-97.703184,32.418785],[-97.702347,32.419186],[-97.701479,32.420022],[-97.698274,32.414051],[-97.706041,32.411051],[-97.709036,32.410376],[-97.709641,32.409967],[-97.710125,32.409855],[-97.710372,32.410013],[-97.711706,32.409611],[-97.712416,32.408988],[-97.713345,32.409107],[-97.714185,32.408852],[-97.714644,32.408232],[-97.715373,32.408493],[-97.718743,32.407438],[-97.718588,32.408245],[-97.719052,32.409414],[-97.720701,32.409612],[-97.721188,32.409976],[-97.722355,32.409968],[-97.725761,32.415366],[-97.728722,32.416362],[-97.730837,32.419263],[-97.733116,32.423532],[-97.735935,32.427543],[-97.737144,32.43173],[-97.740482,32.436611],[-97.742579,32.435698],[-97.743613,32.435904],[-97.747314,32.440588],[-97.747899,32.441017],[-97.748687,32.441105],[-97.752244,32.439433],[-97.753152,32.439279],[-97.754194,32.439762],[-97.75588,32.441873],[-97.750103,32.444169],[-97.747903,32.445276],[-97.724874,32.458263],[-97.707518,32.467578],[-97.698463,32.472853],[-97.694916,32.46696],[-97.691286,32.461754],[-97.689712,32.457214],[-97.687388,32.453422],[-97.687434,32.452706],[-97.689738,32.447259],[-97.690241,32.446976]]]}},{"type":"Feature","properties":{"PRECINCT":"7","VTD":"0007"},"geometry":{"type":"Polygon","coordinates":[[[-97.919326,32.557101],[-97.919506,32.534366],[-97.961053,32.493401],[-97.959356,32.471798],[-97.959489,32.467636],[-97.966175,32.467477],[-97.966052,32.461896],[-97.966365,32.458835],[-97.992558,32.458993],[-97.992537,32.459637],[-98.045892,32.459695],[-98.063484,32.499591],[-98.06352,32.500135],[-98.068545,32.511626],[-98.066836,32.558822],[-98.000317,32.558221],[-97.997791,32.557887],[-97.983526,32.557319],[-97.919326,32.557101]]]}},{"type":"Feature","properties":{"PRECINCT":"2","VTD":"0002"},"geometry":{"type":"Polygon","coordinates":[[[-97.794267,32.442321],[-97.794326,32.433779],[-97.793135,32.426504],[-97.792437,32.424822],[-97.78834,32.418253],[-97.788004,32.417085],[-97.788248,32.410494],[-97.791509,32.404314],[-97.791733,32.403106],[-97.791533,32.401908],[-97.771946,32.356596],[-97.743724,32.316936],[-97.78276,32.316493],[-97.819135,32.297956],[-97.820743,32.298245],[-97.822735,32.297958],[-97.827005,32.295445],[-97.832633,32.29267],[-97.834157,32.292211],[-97.835555,32.292251],[-97.837431,32.292865],[-97.838837,32.294165],[-97.857784,32.320892],[-97.861449,32.32618],[-97.862395,32.328003],[-97.862423,32.329427],[-97.860938,32.334781],[-97.85983,32.342115],[-97.854376,32.357785],[-97.852704,32.359623],[-97.844229,32.36454],[-97.851132,32.374863],[-97.861721,32.389004],[-97.857605,32.391135],[-97.857435,32.392207],[-97.855146,32.393394],[-97.855033,32.393673],[-97.85577,32.394813],[-97.855773,32.396265],[-97.85826,32.400542],[-97.859466,32.401767],[-97.861399,32.404347],[-97.863911,32.405965],[-97.864265,32.406585],[-97.864446,32.407339],[-97.864258,32.409428],[-97.862224,32.410762],[-97.864643,32.414386],[-97.854011,32.42051],[-97.824743,32.433211],[-97.806558,32.439721],[-97.80109,32.442155],[-97.799455,32.4424],[-97.794267,32.442321]]]}},{"type":"Feature","properties":{"PRECINCT":"11","VTD":"0011"},"geometry":{"type":"Polygon","coordinates":[[[-97.680157,32.412667],[-97.69299,32.400245],[-97.705469,32.392121],[-97.708324,32.388109],[-97.708671,32.384952],[-97.707077,32.381276],[-97.702975,32.378386],[-97.698187,32.376302],[-97.692821,32.374229],[-97.687948,32.373508],[-97.688825,32.370032],[-97.689248,32.369956],[-97.689386,32.369644],[-97.690259,32.370108],[-97.696202,32.371978],[-97.698256,32.371785],[-97.698347,32.371597],[-97.700909,32.372037],[-97.706465,32.374643],[-97.710846,32.37472],[-97.71031,32.374049],[-97.710506,32.373584],[-97.710924,32.373592],[-97.710839,32.373379],[-97.708923,32.372359],[-97.70844,32.372577],[-97.706466,32.372552],[-97.705991,32.372726],[-97.704401,32.372289],[-97.704208,32.371932],[-97.704373,32.371083],[-97.703695,32.370663],[-97.70361,32.370365],[-97.700107,32.370214],[-97.699028,32.369876],[-97.695714,32.368144],[-97.692929,32.365881],[-97.690017,32.362352],[-97.687828,32.359017],[-97.686673,32.356761],[-97.684889,32.351963],[-97.683864,32.350091],[-97.681876,32.347337],[-97.676966,32.342133],[-97.674265,32.340031],[-97.672582,32.339317],[-97.671432,32.339376],[-97.670366,32.340144],[-97.666873,32.345937],[-97.665246,32.347899],[-97.663798,32.349072],[-97.660392,32.350829],[-97.656084,32.353528],[-97.648655,32.356851],[-97.647221,32.357074],[-97.645296,32.356757],[-97.638606,32.35463],[-97.625611,32.354052],[-97.623228,32.353222],[-97.619164,32.349755],[-97.61766,32.348722],[-97.615374,32.347741],[-97.615286,32.318618],[-97.743724,32.316936],[-97.771946,32.356596],[-97.78215,32.380238],[-97.779234,32.381732],[-97.7775,32.382309],[-97.776054,32.382722],[-97.772319,32.383189],[-97.769938,32.384031],[-97.767767,32.384321],[-97.760104,32.383842],[-97.759132,32.384095],[-97.756715,32.385348],[-97.760735,32.390926],[-97.760625,32.392729],[-97.761551,32.39313],[-97.765439,32.393631],[-97.768051,32.394616],[-97.771152,32.395451],[-97.760111,32.400072],[-97.758651,32.397407],[-97.746989,32.403365],[-97.743587,32.406337],[-97.740341,32.40404],[-97.736098,32.403267],[-97.723162,32.405551],[-97.718743,32.407438],[-97.715373,32.408493],[-97.714644,32.408232],[-97.714185,32.408852],[-97.713345,32.409107],[-97.712416,32.408988],[-97.711706,32.409611],[-97.710372,32.410013],[-97.710125,32.409855],[-97.709641,32.409967],[-97.709036,32.410376],[-97.706041,32.411051],[-97.690448,32.417119],[-97.681338,32.418564],[-97.68036,32.417721],[-97.679572,32.415571],[-97.680157,32.412667]]]}},{"type":"Feature","properties":{"PRECINCT":"8","VTD":"0008"},"geometry":{"type":"Polygon","coordinates":[[[-97.732059,32.556681],[-97.730731,32.554713],[-97.730674,32.554208],[-97.729693,32.553617],[-97.728878,32.552658],[-97.725283,32.546891],[-97.730289,32.5443],[-97.731174,32.542239],[-97.743982,32.536],[-97.744828,32.535643],[-97.750884,32.534967],[-97.757934,32.531655],[-97.759707,32.530005],[-97.765458,32.527467],[-97.765872,32.526114],[-97.765176,32.517496],[-97.76573,32.506659],[-97.765491,32.503776],[-97.764264,32.498112],[-97.767939,32.492472],[-97.766628,32.49183],[-97.765382,32.489918],[-97.765716,32.486175],[-97.766293,32.486097],[-97.769221,32.484686],[-97.781999,32.477767],[-97.787814,32.475789],[-97.796065,32.475375],[-97.799414,32.47486],[-97.801355,32.475296],[-97.803095,32.476249],[-97.8059,32.482906],[-97.807259,32.485399],[-97.812055,32.489441],[-97.829003,32.498871],[-97.830187,32.500135],[-97.837456,32.500134],[-97.839721,32.501381],[-97.841804,32.501306],[-97.844882,32.501894],[-97.845563,32.502811],[-97.846526,32.503186],[-97.846416,32.503422],[-97.845899,32.503335],[-97.844999,32.502673],[-97.844015,32.503172],[-97.844131,32.505015],[-97.843876,32.50771],[-97.84411,32.508499],[-97.841797,32.513225],[-97.841326,32.515197],[-97.837438,32.524509],[-97.83731,32.525776],[-97.835906,32.526981],[-97.835805,32.527901],[-97.836711,32.526767],[-97.835443,32.528981],[-97.834753,32.530811],[-97.83431,32.53118],[-97.833258,32.531444],[-97.830833,32.532696],[-97.831582,32.532677],[-97.833259,32.531851],[-97.83474,32.531422],[-97.834324,32.532007],[-97.834315,32.533259],[-97.830256,32.533291],[-97.830437,32.533521],[-97.830464,32.535052],[-97.830886,32.535182],[-97.830859,32.535445],[-97.831682,32.536158],[-97.83082,32.536222],[-97.829759,32.535953],[-97.829667,32.534892],[-97.830147,32.534703],[-97.830323,32.533639],[-97.830011,32.533229],[-97.829217,32.532988],[-97.82392,32.541641],[-97.818826,32.54642],[-97.816315,32.547992],[-97.815038,32.549319],[-97.809513,32.550766],[-97.805055,32.552677],[-97.801225,32.555406],[-97.799721,32.55699],[-97.750306,32.556958],[-97.732059,32.556681]]]}},{"type":"Feature","properties":{"PRECINCT":"3","VTD":"0003"},"geometry":{"type":"Polygon","coordinates":[[[-97.744565,32.413693],[-97.745272,32.409703],[-97.743889,32.406551],[-97.743587,32.406337],[-97.746989,32.403365],[-97.758651,32.397407],[-97.760111,32.400072],[-97.771152,32.395451],[-97.768051,32.394616],[-97.765439,32.393631],[-97.761551,32.39313],[-97.760625,32.392729],[-97.760735,32.390926],[-97.756715,32.385348],[-97.759132,32.384095],[-97.760104,32.383842],[-97.767767,32.384321],[-97.769938,32.384031],[-97.772319,32.383189],[-97.776054,32.382722],[-97.7775,32.382309],[-97.779234,32.381732],[-97.78215,32.380238],[-97.791719,32.402727],[-97.791509,32.404314],[-97.788248,32.410494],[-97.788001,32.416874],[-97.78703,32.417121],[-97.787652,32.418293],[-97.786479,32.417971],[-97.784064,32.41976],[-97.78185,32.420748],[-97.780113,32.418815],[-97.776188,32.416531],[-97.771467,32.414265],[-97.767699,32.414],[-97.764627,32.415166],[-97.762548,32.41662],[-97.760662,32.418447],[-97.758938,32.420764],[-97.756069,32.425466],[-97.755041,32.426028],[-97.753563,32.425767],[-97.750306,32.425637],[-97.748022,32.423713],[-97.744835,32.420443],[-97.744565,32.413693]]]}}]}