{"type":"FeatureCollection","features":[{"type":"Feature","properties":{"PRECINCT":"301","VTD":"0301"},"geometry":{"type":"Polygon","coordinates":[[[-98.468124,33.885795],[-98.468284,33.867518],[-98.485817,33.867637],[-98.485577,33.883135],[-98.481652,33.88309],[-98.48148,33.885321],[-98.48483,33.888091],[-98.4843,33.889018],[-98.480945,33.887331],[-98.476577,33.88614],[-98.474214,33.885893],[-98.468124,33.885795]]]}},{"type":"Feature","properties":{"PRECINCT":"109","VTD":"0109"},"geometry":{"type":"Polygon","coordinates":[[[-98.506165,33.877277],[-98.4943,33.877174],[-98.494438,33.867718],[-98.465861,33.8675],[-98.466005,33.858251],[-98.464094,33.85839],[-98.4644,33.85137],[-98.462668,33.851341],[-98.46273,33.841976],[-98.479338,33.841804],[-98.479332,33.843253],[-98.489537,33.843385],[-98.490559,33.840256],[-98.494501,33.853362],[-98.495041,33.853438],[-98.494798,33.853557],[-98.505224,33.854876],[-98.505072,33.857399],[-98.505587,33.858015],[-98.505089,33.85874],[-98.504483,33.858517],[-98.504456,33.862585],[-98.504834,33.862358],[-98.50636,33.862363],[-98.506165,33.877277]]]}},{"type":"Feature","properties":{"PRECINCT":"319","VTD":"0319"},"geometry":{"type":"Polygon","coordinates":[[[-98.485597,33.876242],[-98.485595,33.875693],[-98.489399,33.87568],[-98.490879,33.874834],[-98.491605,33.875146],[-98.494337,33.875179],[-98.494319,33.87623],[-98.486838,33.876223],[-98.486556,33.876441],[-98.485597,33.876242]]]}},{"type":"Feature","properties":{"PRECINCT":"318","VTD":"0318"},"geometry":{"type":"Polygon","coordinates":[[[-98.489399,33.87568],[-98.485595,33.875693],[-98.485817,33.867637],[-98.494438,33.867718],[-98.494337,33.875179],[-98.491605,33.875146],[-98.490879,33.874834],[-98.489399,33.87568]]]}},{"type":"Feature","properties":{"PRECINCT":"204","VTD":"0204"},"geometry":{"type":"Polygon","coordinates":[[[-98.423532,34.0614],[-98.423618,34.024321],[-98.422972,33.97032],[-98.423081,33.944405],[-98.423576,33.94386],[-98.424434,33.944107],[-98.424626,33.947183],[-98.425919,33.949204],[-98.433426,33.951607],[-98.434229,33.950283],[-98.431919,33.941894],[-98.436906,33.941005],[-98.440275,33.938373],[-98.442444,33.937289],[-98.443607,33.936297],[-98.440709,33.930349],[-98.492091,33.973537],[-98.499801,33.973576],[-98.499795,33.974915],[-98.499445,33.974916],[-98.499472,33.989007],[-98.519316,33.989028],[-98.525021,33.987964],[-98.528173,33.987991],[-98.528173,33.988971],[-98.532505,33.989119],[-98.53253,33.996125],[-98.545701,33.99638],[-98.557227,34.031709],[-98.557901,34.03531],[-98.519096,34.035028],[-98.518889,34.035237],[-98.516556,34.035221],[-98.516475,34.049684],[-98.469927,34.049799],[-98.468624,34.049572],[-98.465037,34.047722],[-98.46063,34.047405],[-98.45913,34.046583],[-98.457681,34.045206],[-98.456158,34.044622],[-98.425372,34.044384],[-98.424881,34.044561],[-98.424546,34.045103],[-98.424416,34.061434],[-98.423532,34.0614]]]}},{"type":"Feature","properties":{"PRECINCT":"201","VTD":"0201"},"geometry":{"type":"Polygon","coordinates":[[[-98.546527,33.996309],[-98.53253,33.996125],[-98.532505,33.989119],[-98.528173,33.988971],[-98.528173,33.987991],[-98.525021,33.987964],[-98.519316,33.989028],[-98.499472,33.989007],[-98.499445,33.974916],[-98.499795,33.974915],[-98.499801,33.973576],[-98.517472,33.973618],[-98.518581,33.97388],[-98.528214,33.97392],[-98.532716,33.973697],[-98.538794,33.982104],[-98.540155,33.98159],[-98.541437,33.981446],[-98.542198,33.984239],[-98.546527,33.996309]]]}},{"type":"Feature","properties":{"PRECINCT":"203","VTD":"0203"},"geometry":{"type":"Polygon","coordinates":[[[-98.518581,33.97388],[-98.517472,33.973618],[-98.499801,33.973576],[-98.499792,33.966711],[-98.503314,33.966717],[-98.503533,33.956603],[-98.493773,33.956445],[-98.49363,33.962369],[-98.493039,33.963882],[-98.488209,33.966701],[-98.486431,33.964493],[-98.487212,33.962953],[-98.493031,33.962795],[-98.493214,33.956165],[-98.49511,33.956012],[-98.495459,33.956254],[-98.509459,33.956286],[-98.509883,33.957055],[-98.513926,33.956971],[-98.514179,33.957758],[-98.514501,33.954967],[-98.515234,33.952781],[-98.518768,33.948236],[-98.521723,33.946787],[-98.523607,33.946724],[-98.524213,33.945934],[-98.525073,33.945536],[-98.526337,33.94539],[-98.529929,33.945749],[-98.531492,33.946121],[-98.53135,33.949246],[-98.52783,33.949252],[-98.527859,33.96469],[-98.528214,33.97392],[-98.518581,33.97388]]]}},{"type":"Feature","properties":{"PRECINCT":"211","VTD":"0211"},"geometry":{"type":"Polygon","coordinates":[[[-98.492091,33.973537],[-98.440709,33.930349],[-98.443607,33.936297],[-98.442444,33.937289],[-98.440275,33.938373],[-98.436906,33.941005],[-98.431919,33.941894],[-98.434229,33.950283],[-98.433426,33.951607],[-98.425919,33.949204],[-98.424626,33.947183],[-98.424434,33.944107],[-98.423576,33.94386],[-98.423081,33.944405],[-98.423004,33.921069],[-98.440937,33.921204],[-98.442307,33.925718],[-98.443804,33.925264],[-98.445101,33.926364],[-98.444396,33.928565],[-98.448688,33.930866],[-98.450285,33.929866],[-98.452575,33.925267],[-98.454171,33.923767],[-98.457864,33.921568],[-98.46242,33.921485],[-98.462855,33.922901],[-98.458697,33.929793],[-98.459815,33.931013],[-98.464962,33.935208],[-98.46988,33.935588],[-98.470844,33.93427],[-98.469964,33.932895],[-98.48454,33.933112],[-98.490111,33.938979],[-98.494912,33.938959],[-98.494858,33.942046],[-98.497819,33.942236],[-98.498825,33.941994],[-98.500375,33.94369],[-98.501328,33.943352],[-98.502797,33.945345],[-98.503723,33.945191],[-98.504226,33.946171],[-98.503192,33.946505],[-98.503648,33.948024],[-98.502926,33.949531],[-98.502919,33.950264],[-98.503152,33.950608],[-98.505458,33.949898],[-98.505639,33.948922],[-98.509459,33.956286],[-98.495459,33.956254],[-98.49511,33.956012],[-98.493214,33.956165],[-98.493031,33.962795],[-98.487212,33.962953],[-98.486431,33.964493],[-98.488209,33.966701],[-98.493039,33.963882],[-98.49363,33.962369],[-98.493773,33.956445],[-98.503533,33.956603],[-98.503389,33.966278],[-98.503314,33.966717],[-98.499792,33.966711],[-98.499801,33.973576],[-98.492091,33.973537]]]}},{"type":"Feature","properties":{"PRECINCT":"208","VTD":"0208"},"geometry":{"type":"Polygon","coordinates":[[[-98.542359,33.984671],[-98.541437,33.981446],[-98.540155,33.98159],[-98.538794,33.982104],[-98.532716,33.973697],[-98.528214,33.97392],[-98.527859,33.96469],[-98.52783,33.949252],[-98.53135,33.949246],[-98.531492,33.946121],[-98.532684,33.946404],[-98.5325,33.9472],[-98.53333,33.947371],[-98.533115,33.948368],[-98.539343,33.949804],[-98.544509,33.950555],[-98.553141,33.950805],[-98.553105,33.958808],[-98.552562,33.959202],[-98.572619,33.959307],[-98.572681,33.955293],[-98.574485,33.95148],[-98.590144,33.953915],[-98.589935,33.980382],[-98.585868,33.980376],[-98.585878,33.982943],[-98.550064,33.982759],[-98.545701,33.984652],[-98.542359,33.984671]]]}},{"type":"Feature","properties":{"PRECINCT":"210","VTD":"0210"},"geometry":{"type":"Polygon","coordinates":[[[-98.459815,33.931013],[-98.463152,33.927818],[-98.46321,33.932658],[-98.469964,33.932895],[-98.470844,33.93427],[-98.46988,33.935588],[-98.464962,33.935208],[-98.459815,33.931013]]]}},{"type":"Feature","properties":{"PRECINCT":"116","VTD":"0116"},"geometry":{"type":"Polygon","coordinates":[[[-98.440937,33.921204],[-98.423004,33.921069],[-98.423005,33.911405],[-98.43606,33.905861],[-98.436479,33.906458],[-98.437789,33.905862],[-98.440246,33.913948],[-98.440937,33.921204]]]}},{"type":"Feature","properties":{"PRECINCT":"115","VTD":"0115"},"geometry":{"type":"Polygon","coordinates":[[[-98.437789,33.905862],[-98.445947,33.902375],[-98.44566,33.913906],[-98.443599,33.913924],[-98.443438,33.921213],[-98.440937,33.921204],[-98.440246,33.913948],[-98.437789,33.905862]]]}},{"type":"Feature","properties":{"PRECINCT":"117","VTD":"0117"},"geometry":{"type":"Polygon","coordinates":[[[-98.423005,33.911405],[-98.42301,33.88229],[-98.424432,33.882732],[-98.424338,33.882893],[-98.428159,33.884992],[-98.429385,33.885276],[-98.43018,33.885795],[-98.430031,33.888316],[-98.43388,33.889804],[-98.435815,33.887754],[-98.438665,33.888502],[-98.444503,33.8915],[-98.442836,33.893898],[-98.442816,33.899317],[-98.44215,33.901235],[-98.438653,33.904033],[-98.43577,33.905491],[-98.43606,33.905861],[-98.423005,33.911405]]]}},{"type":"Feature","properties":{"PRECINCT":"304","VTD":"0304"},"geometry":{"type":"Polygon","coordinates":[[[-98.468124,33.885795],[-98.434035,33.885529],[-98.43165,33.885],[-98.424432,33.882732],[-98.424669,33.882134],[-98.428737,33.883235],[-98.428824,33.878951],[-98.430313,33.878956],[-98.430327,33.878716],[-98.430814,33.878716],[-98.430916,33.870128],[-98.43668,33.870175],[-98.436836,33.864876],[-98.44578,33.864966],[-98.445707,33.877773],[-98.440799,33.877896],[-98.440782,33.879591],[-98.4483,33.879456],[-98.448196,33.87989],[-98.455571,33.879851],[-98.455726,33.876019],[-98.465576,33.876069],[-98.465861,33.8675],[-98.468284,33.867518],[-98.468124,33.885795]]]}},{"type":"Feature","properties":{"PRECINCT":"303","VTD":"0303"},"geometry":{"type":"Polygon","coordinates":[[[-98.462855,33.922901],[-98.46242,33.921485],[-98.454876,33.921732],[-98.454876,33.922555],[-98.445781,33.9225],[-98.445779,33.921246],[-98.443438,33.921213],[-98.443599,33.913924],[-98.44566,33.913906],[-98.445947,33.902375],[-98.436479,33.906458],[-98.43577,33.905491],[-98.438653,33.904033],[-98.44215,33.901235],[-98.442816,33.899317],[-98.442836,33.893898],[-98.444503,33.8915],[-98.438665,33.888502],[-98.435815,33.887754],[-98.43388,33.889804],[-98.430031,33.888316],[-98.43018,33.885795],[-98.429385,33.885276],[-98.428159,33.884992],[-98.424338,33.882893],[-98.424432,33.882732],[-98.43165,33.885],[-98.434035,33.885529],[-98.46703,33.885777],[-98.474214,33.885893],[-98.476577,33.88614],[-98.480945,33.887331],[-98.482803,33.888204],[-98.484268,33.888995],[-98.487217,33.891336],[-98.492851,33.898576],[-98.486929,33.902115],[-98.486189,33.90479],[-98.486092,33.907496],[-98.484656,33.912143],[-98.48315,33.913441],[-98.481495,33.913908],[-98.469368,33.913814],[-98.469892,33.917138],[-98.463451,33.923196],[-98.462855,33.922901]]]}},{"type":"Feature","properties":{"PRECINCT":"311","VTD":"0311"},"geometry":{"type":"Polygon","coordinates":[[[-98.46321,33.932658],[-98.463152,33.927818],[-98.461908,33.929219],[-98.459815,33.931013],[-98.458697,33.929793],[-98.462855,33.922901],[-98.463451,33.923196],[-98.469892,33.917138],[-98.469368,33.913814],[-98.480999,33.913934],[-98.48229,33.913762],[-98.483577,33.913197],[-98.484423,33.912441],[-98.485021,33.911423],[-98.486092,33.907496],[-98.486189,33.90479],[-98.486929,33.902115],[-98.493787,33.898101],[-98.503051,33.909376],[-98.501871,33.909411],[-98.50447,33.912623],[-98.505484,33.91362],[-98.509672,33.916237],[-98.51058,33.917184],[-98.511216,33.918622],[-98.51198,33.923024],[-98.513865,33.926947],[-98.502826,33.925138],[-98.50147,33.925376],[-98.490508,33.931706],[-98.490146,33.932499],[-98.490093,33.937508],[-98.489778,33.938751],[-98.48454,33.933112],[-98.46321,33.932658]]]}},{"type":"Feature","properties":{"PRECINCT":"316","VTD":"0316"},"geometry":{"type":"Polygon","coordinates":[[[-98.504844,33.913024],[-98.501871,33.909411],[-98.508048,33.909522],[-98.508137,33.902546],[-98.510458,33.90266],[-98.510394,33.909551],[-98.51019,33.909548],[-98.510039,33.913],[-98.505872,33.913862],[-98.504844,33.913024]]]}},{"type":"Feature","properties":{"PRECINCT":"112","VTD":"0112"},"geometry":{"type":"Polygon","coordinates":[[[-98.494418,33.886102],[-98.496642,33.886108],[-98.496661,33.888017],[-98.494407,33.888016],[-98.494418,33.886102]]]}},{"type":"Feature","properties":{"PRECINCT":"105","VTD":"0105"},"geometry":{"type":"Polygon","coordinates":[[[-98.49869,33.894459],[-98.498764,33.888033],[-98.496661,33.888017],[-98.496642,33.886108],[-98.494418,33.886102],[-98.494493,33.884205],[-98.494102,33.880566],[-98.4943,33.877174],[-98.506165,33.877277],[-98.50636,33.862363],[-98.504834,33.862358],[-98.504456,33.862585],[-98.504483,33.858517],[-98.505089,33.85874],[-98.505587,33.858015],[-98.505072,33.857399],[-98.505224,33.854876],[-98.520936,33.857056],[-98.520543,33.857827],[-98.518925,33.859135],[-98.518572,33.860464],[-98.518353,33.867717],[-98.518504,33.877716],[-98.514062,33.877752],[-98.513898,33.879702],[-98.513565,33.880593],[-98.512859,33.881381],[-98.511938,33.881602],[-98.511859,33.890294],[-98.498866,33.894564],[-98.49869,33.894459]]]}},{"type":"Feature","properties":{"PRECINCT":"102","VTD":"0102"},"geometry":{"type":"Polygon","coordinates":[[[-98.511938,33.881602],[-98.512859,33.881381],[-98.513565,33.880593],[-98.513898,33.879702],[-98.514062,33.877752],[-98.521459,33.877732],[-98.522622,33.877954],[-98.522788,33.878278],[-98.52264,33.879014],[-98.521263,33.878897],[-98.521036,33.880704],[-98.521285,33.885027],[-98.521164,33.885822],[-98.520735,33.886474],[-98.519806,33.887053],[-98.518631,33.887435],[-98.518708,33.887997],[-98.511859,33.890294],[-98.511938,33.881602]]]}},{"type":"Feature","properties":{"PRECINCT":"110","VTD":"0110"},"geometry":{"type":"Polygon","coordinates":[[[-98.521036,33.880704],[-98.521263,33.878897],[-98.52264,33.879014],[-98.522823,33.878456],[-98.522622,33.877954],[-98.524975,33.877966],[-98.526228,33.877742],[-98.529363,33.878006],[-98.528077,33.88615],[-98.522532,33.888127],[-98.518862,33.889156],[-98.518631,33.887435],[-98.520395,33.886734],[-98.521212,33.885671],[-98.521036,33.880704]]]}},{"type":"Feature","properties":{"PRECINCT":"111","VTD":"0111"},"geometry":{"type":"Polygon","coordinates":[[[-98.522376,33.877945],[-98.521459,33.877732],[-98.518504,33.877716],[-98.518523,33.87047],[-98.528504,33.870469],[-98.528706,33.87106],[-98.529813,33.87215],[-98.529926,33.874593],[-98.530195,33.875271],[-98.530605,33.875482],[-98.529718,33.876498],[-98.529363,33.878006],[-98.526228,33.877742],[-98.524975,33.877966],[-98.522376,33.877945]]]}},{"type":"Feature","properties":{"PRECINCT":"113","VTD":"0113"},"geometry":{"type":"Polygon","coordinates":[[[-98.494501,33.853362],[-98.490559,33.840256],[-98.491456,33.84232],[-98.501011,33.84224],[-98.501036,33.836178],[-98.511684,33.836154],[-98.511555,33.840774],[-98.497349,33.852073],[-98.495041,33.853438],[-98.494501,33.853362]]]}},{"type":"Feature","properties":{"PRECINCT":"114","VTD":"0114"},"geometry":{"type":"Polygon","coordinates":[[[-98.552293,33.850538],[-98.535448,33.842261],[-98.534732,33.842698],[-98.534579,33.842322],[-98.532508,33.842029],[-98.53051,33.839272],[-98.527319,33.837873],[-98.525882,33.83635],[-98.525308,33.836354],[-98.525465,33.836718],[-98.524676,33.837083],[-98.52419,33.836439],[-98.524466,33.835804],[-98.51913,33.835858],[-98.519019,33.844196],[-98.511555,33.84422],[-98.511555,33.840774],[-98.518391,33.83566],[-98.596349,33.83522],[-98.594551,33.835835],[-98.593379,33.839651],[-98.590253,33.837071],[-98.584131,33.838941],[-98.584288,33.841754],[-98.5788,33.839317],[-98.57662,33.839823],[-98.574755,33.842445],[-98.570424,33.839319],[-98.565448,33.839623],[-98.563835,33.838815],[-98.563239,33.839017],[-98.563234,33.83841],[-98.561942,33.838916],[-98.560583,33.838398],[-98.558272,33.838487],[-98.557185,33.839616],[-98.557892,33.840834],[-98.56061,33.841963],[-98.560718,33.842865],[-98.560012,33.842504],[-98.557348,33.842504],[-98.555391,33.841737],[-98.553652,33.842865],[-98.55338,33.846025],[-98.552293,33.847379],[-98.554467,33.848733],[-98.554358,33.849861],[-98.552836,33.849861],[-98.552836,33.850312],[-98.552293,33.850538]]]}},{"type":"Feature","properties":{"PRECINCT":"103","VTD":"0103"},"geometry":{"type":"Polygon","coordinates":[[[-98.598144,33.859403],[-98.58882,33.859256],[-98.585141,33.858349],[-98.582854,33.858076],[-98.561124,33.85802],[-98.561232,33.839933],[-98.561886,33.838979],[-98.563234,33.83841],[-98.563239,33.839017],[-98.563835,33.838815],[-98.565448,33.839623],[-98.570424,33.839319],[-98.574755,33.842445],[-98.57662,33.839823],[-98.5788,33.839317],[-98.584288,33.841754],[-98.584131,33.838941],[-98.588386,33.837638],[-98.587919,33.849211],[-98.588529,33.849801],[-98.589778,33.849063],[-98.59012,33.849866],[-98.591072,33.849804],[-98.590641,33.851224],[-98.590046,33.85131],[-98.590156,33.852352],[-98.594316,33.852374],[-98.594324,33.851426],[-98.603538,33.851409],[-98.603525,33.852475],[-98.600675,33.85394],[-98.600859,33.854259],[-98.599983,33.85474],[-98.600033,33.859591],[-98.599849,33.859756],[-98.598144,33.859403]]]}},{"type":"Feature","properties":{"PRECINCT":"403","VTD":"0403"},"geometry":{"type":"Polygon","coordinates":[[[-98.547833,33.871829],[-98.547878,33.867557],[-98.548228,33.86679],[-98.547849,33.866153],[-98.547854,33.864778],[-98.544708,33.864726],[-98.544232,33.864357],[-98.542721,33.863964],[-98.542718,33.864826],[-98.542257,33.864802],[-98.537231,33.8625],[-98.536817,33.861883],[-98.536001,33.861886],[-98.536027,33.857787],[-98.561124,33.85802],[-98.561007,33.871599],[-98.559947,33.871861],[-98.547833,33.871829]]]}},{"type":"Feature","properties":{"PRECINCT":"402","VTD":"0402"},"geometry":{"type":"Polygon","coordinates":[[[-98.52988,33.872359],[-98.528706,33.87106],[-98.528504,33.870469],[-98.535542,33.870528],[-98.538362,33.871062],[-98.54423,33.87139],[-98.546281,33.871825],[-98.559947,33.871861],[-98.561007,33.871599],[-98.56095,33.875264],[-98.551513,33.878333],[-98.543063,33.880694],[-98.532596,33.884684],[-98.528077,33.88615],[-98.529547,33.876936],[-98.530605,33.875482],[-98.530002,33.874904],[-98.52988,33.872359]]]}},{"type":"Feature","properties":{"PRECINCT":"401","VTD":"0401"},"geometry":{"type":"Polygon","coordinates":[[[-98.535927,33.894666],[-98.53605,33.883327],[-98.543063,33.880694],[-98.551513,33.878333],[-98.56095,33.875264],[-98.560763,33.886179],[-98.555436,33.888044],[-98.552883,33.888224],[-98.538722,33.893755],[-98.535927,33.894666]]]}},{"type":"Feature","properties":{"PRECINCT":"405","VTD":"0405"},"geometry":{"type":"Polygon","coordinates":[[[-98.53805,33.90402],[-98.532794,33.903961],[-98.532774,33.897562],[-98.533596,33.897481],[-98.520668,33.891876],[-98.522466,33.889072],[-98.522532,33.888127],[-98.53605,33.883327],[-98.535927,33.894666],[-98.538722,33.893755],[-98.552883,33.888224],[-98.555356,33.888063],[-98.55905,33.886853],[-98.55754,33.888035],[-98.553911,33.89288],[-98.547827,33.898337],[-98.53805,33.90402]]]}},{"type":"Feature","properties":{"PRECINCT":"407","VTD":"0407"},"geometry":{"type":"Polygon","coordinates":[[[-98.514917,33.909645],[-98.514946,33.908033],[-98.513729,33.908039],[-98.513021,33.90778],[-98.513898,33.906461],[-98.513907,33.905946],[-98.513448,33.905948],[-98.513485,33.902725],[-98.513978,33.902729],[-98.520668,33.891876],[-98.533596,33.897481],[-98.532774,33.897562],[-98.532794,33.903961],[-98.53805,33.90402],[-98.529901,33.908594],[-98.527473,33.909477],[-98.524471,33.909726],[-98.514917,33.909645]]]}},{"type":"Feature","properties":{"PRECINCT":"308","VTD":"0308"},"geometry":{"type":"Polygon","coordinates":[[[-98.510596,33.90269],[-98.510495,33.90131],[-98.509976,33.901304],[-98.510096,33.892799],[-98.511884,33.892828],[-98.511859,33.890294],[-98.518708,33.887997],[-98.518862,33.889156],[-98.522532,33.888127],[-98.522466,33.889072],[-98.513978,33.902729],[-98.510596,33.90269]]]}},{"type":"Feature","properties":{"PRECINCT":"409","VTD":"0409"},"geometry":{"type":"Polygon","coordinates":[[[-98.605536,33.869692],[-98.613699,33.866975],[-98.61438,33.868176],[-98.612317,33.869109],[-98.613122,33.870476],[-98.611321,33.872493],[-98.610587,33.874457],[-98.609912,33.874919],[-98.60751,33.875268],[-98.607343,33.880809],[-98.605326,33.881305],[-98.605536,33.869692]]]}},{"type":"Feature","properties":{"PRECINCT":"410","VTD":"0410"},"geometry":{"type":"Polygon","coordinates":[[[-98.605536,33.869692],[-98.603128,33.862267],[-98.601848,33.86082],[-98.599849,33.859756],[-98.600055,33.859576],[-98.603453,33.859614],[-98.603441,33.859112],[-98.604723,33.858972],[-98.605501,33.859906],[-98.607866,33.860137],[-98.608743,33.861065],[-98.60899,33.861758],[-98.605707,33.863246],[-98.605617,33.865932],[-98.607222,33.865374],[-98.607492,33.866479],[-98.609397,33.865729],[-98.612225,33.864988],[-98.613699,33.866975],[-98.605536,33.869692]]]}},{"type":"Feature","properties":{"PRECINCT":"406","VTD":"0406"},"geometry":{"type":"Polygon","coordinates":[[[-98.560961,33.873924],[-98.561124,33.85802],[-98.582854,33.858076],[-98.585141,33.858349],[-98.58882,33.859256],[-98.598144,33.859403],[-98.599456,33.859632],[-98.601578,33.860617],[-98.603128,33.862267],[-98.605536,33.869692],[-98.602573,33.870676],[-98.598734,33.871285],[-98.589791,33.871444],[-98.575854,33.871271],[-98.564046,33.873207],[-98.562621,33.873679],[-98.560961,33.873924]]]}},{"type":"Feature","properties":{"PRECINCT":"404","VTD":"0404"},"geometry":{"type":"Polygon","coordinates":[[[-98.566469,33.918552],[-98.557743,33.904808],[-98.55591,33.904985],[-98.554796,33.907552],[-98.554369,33.914133],[-98.553184,33.917513],[-98.552571,33.917815],[-98.550712,33.917176],[-98.549829,33.916481],[-98.550128,33.91327],[-98.54948,33.91147],[-98.545666,33.90858],[-98.544678,33.908581],[-98.5437,33.907985],[-98.537962,33.908123],[-98.533796,33.90955],[-98.532405,33.907189],[-98.547227,33.89879],[-98.553911,33.89288],[-98.55754,33.888035],[-98.559314,33.886699],[-98.560763,33.886179],[-98.560961,33.873924],[-98.562621,33.873679],[-98.564046,33.873207],[-98.575854,33.871271],[-98.589791,33.871444],[-98.598734,33.871285],[-98.602573,33.870676],[-98.605536,33.869692],[-98.605326,33.88679],[-98.606633,33.891068],[-98.606426,33.894229],[-98.603866,33.89549],[-98.604087,33.898236],[-98.602101,33.900981],[-98.597821,33.904019],[-98.597034,33.907198],[-98.595555,33.907481],[-98.593268,33.905541],[-98.590809,33.901991],[-98.589022,33.902802],[-98.585478,33.906393],[-98.585982,33.908502],[-98.58869,33.911675],[-98.589193,33.913598],[-98.587797,33.914686],[-98.585982,33.914223],[-98.584726,33.91149],[-98.58132,33.908595],[-98.578667,33.90739],[-98.573431,33.90791],[-98.571124,33.909508],[-98.569613,33.912705],[-98.570096,33.918099],[-98.569088,33.919385],[-98.566469,33.918552]]]}},{"type":"Feature","properties":{"PRECINCT":"101","VTD":"0101"},"geometry":{"type":"Polygon","coordinates":[[[-98.606377,33.890022],[-98.605347,33.887152],[-98.605326,33.881305],[-98.607343,33.880809],[-98.60751,33.875268],[-98.609912,33.874919],[-98.610587,33.874457],[-98.611321,33.872493],[-98.613122,33.870476],[-98.612317,33.869109],[-98.61438,33.868176],[-98.612225,33.864988],[-98.609397,33.865729],[-98.607492,33.866479],[-98.607222,33.865374],[-98.605617,33.865932],[-98.605707,33.863246],[-98.60899,33.861758],[-98.608743,33.861065],[-98.607866,33.860137],[-98.605501,33.859906],[-98.604723,33.858972],[-98.603441,33.859112],[-98.603453,33.859614],[-98.600033,33.859591],[-98.599983,33.85474],[-98.600859,33.854259],[-98.600675,33.85394],[-98.603525,33.852475],[-98.603538,33.851409],[-98.594324,33.851426],[-98.594316,33.852374],[-98.590156,33.852352],[-98.590046,33.85131],[-98.590641,33.851224],[-98.591072,33.849804],[-98.59012,33.849866],[-98.589778,33.849063],[-98.588529,33.849801],[-98.587919,33.849211],[-98.588386,33.837638],[-98.590253,33.837071],[-98.593379,33.839651],[-98.594551,33.835835],[-98.596349,33.83522],[-98.637646,33.835037],[-98.637346,33.86859],[-98.637512,33.868979],[-98.63753,33.897289],[-98.636298,33.896468],[-98.635383,33.895139],[-98.634971,33.894056],[-98.633551,33.892415],[-98.632757,33.891759],[-98.632345,33.891683],[-98.630803,33.892118],[-98.628698,33.893874],[-98.628011,33.896071],[-98.627279,33.897041],[-98.62627,33.897254],[-98.624577,33.896812],[-98.623615,33.896049],[-98.623081,33.894897],[-98.623401,33.891592],[-98.622974,33.890791],[-98.621921,33.889731],[-98.619692,33.88938],[-98.616733,33.895623],[-98.615384,33.906656],[-98.614796,33.908364],[-98.614266,33.90934],[-98.613531,33.909755],[-98.612884,33.909926],[-98.611913,33.909804],[-98.610884,33.908461],[-98.609501,33.905045],[-98.609714,33.902179],[-98.611003,33.898531],[-98.610856,33.897799],[-98.609826,33.89531],[-98.609091,33.894748],[-98.60762,33.89426],[-98.606426,33.894229],[-98.606661,33.891543],[-98.606377,33.890022]]]}},{"type":"Feature","properties":{"PRECINCT":"408","VTD":"0408"},"geometry":{"type":"Polygon","coordinates":[[[-98.557636,33.916173],[-98.555454,33.916771],[-98.553821,33.917935],[-98.552663,33.918259],[-98.538945,33.917264],[-98.538461,33.916248],[-98.536523,33.914191],[-98.533796,33.90955],[-98.537962,33.908123],[-98.5437,33.907985],[-98.544678,33.908581],[-98.545666,33.90858],[-98.54948,33.91147],[-98.550128,33.91327],[-98.549829,33.916481],[-98.550712,33.917176],[-98.552571,33.917815],[-98.553184,33.917513],[-98.554369,33.914133],[-98.554796,33.907552],[-98.55591,33.904985],[-98.557743,33.904808],[-98.566243,33.91818],[-98.565926,33.918727],[-98.560813,33.916525],[-98.557636,33.916173]]]}},{"type":"Feature","properties":{"PRECINCT":"315","VTD":"0315"},"geometry":{"type":"Polygon","coordinates":[[[-98.538525,33.92037],[-98.532066,33.920274],[-98.532192,33.911668],[-98.532594,33.911101],[-98.534284,33.910407],[-98.536523,33.914191],[-98.538461,33.916248],[-98.538904,33.917113],[-98.539095,33.918695],[-98.538525,33.92037]]]}},{"type":"Feature","properties":{"PRECINCT":"314","VTD":"0314"},"geometry":{"type":"Polygon","coordinates":[[[-98.531995,33.910297],[-98.533796,33.90955],[-98.534284,33.910407],[-98.532531,33.911154],[-98.531995,33.910297]]]}},{"type":"Feature","properties":{"PRECINCT":"317","VTD":"0317"},"geometry":{"type":"Polygon","coordinates":[[[-98.564519,33.922643],[-98.565926,33.918727],[-98.567803,33.91952],[-98.568789,33.919657],[-98.57152,33.9187],[-98.575341,33.918678],[-98.575303,33.936662],[-98.557811,33.933958],[-98.559778,33.933409],[-98.560542,33.932965],[-98.562174,33.931084],[-98.564519,33.922643]]]}},{"type":"Feature","properties":{"PRECINCT":"207","VTD":"0207"},"geometry":{"type":"Polygon","coordinates":[[[-98.531864,33.936421],[-98.518394,33.936226],[-98.51198,33.923024],[-98.510844,33.917606],[-98.509672,33.916237],[-98.505872,33.913862],[-98.509612,33.912974],[-98.511876,33.91335],[-98.512289,33.913745],[-98.512416,33.914835],[-98.511899,33.918514],[-98.512725,33.922152],[-98.514556,33.926196],[-98.515962,33.925892],[-98.517477,33.922946],[-98.520404,33.91882],[-98.520307,33.918315],[-98.521726,33.915516],[-98.523441,33.913935],[-98.530791,33.911024],[-98.531995,33.910297],[-98.532531,33.911154],[-98.532174,33.911923],[-98.531864,33.936421]]]}},{"type":"Feature","properties":{"PRECINCT":"313","VTD":"0313"},"geometry":{"type":"Polygon","coordinates":[[[-98.526949,33.939996],[-98.52723,33.938356],[-98.525065,33.938405],[-98.525062,33.936332],[-98.531864,33.936421],[-98.531856,33.939448],[-98.531338,33.940396],[-98.531208,33.942186],[-98.531474,33.943211],[-98.532716,33.945159],[-98.532684,33.946404],[-98.531492,33.946121],[-98.531515,33.945707],[-98.528214,33.944911],[-98.528427,33.942344],[-98.526949,33.939996]]]}},{"type":"Feature","properties":{"PRECINCT":"306","VTD":"0306"},"geometry":{"type":"Polygon","coordinates":[[[-98.516761,33.949464],[-98.514226,33.94941],[-98.511569,33.938901],[-98.501256,33.9388],[-98.50078,33.938685],[-98.500767,33.938058],[-98.495533,33.93805],[-98.494992,33.937524],[-98.490093,33.937508],[-98.490146,33.932499],[-98.490631,33.931576],[-98.501623,33.925324],[-98.502826,33.925138],[-98.513865,33.926947],[-98.518394,33.936226],[-98.525062,33.936332],[-98.525065,33.938405],[-98.52723,33.938356],[-98.527308,33.939086],[-98.526949,33.939996],[-98.528427,33.942344],[-98.528214,33.944911],[-98.531515,33.945707],[-98.531492,33.946121],[-98.529929,33.945749],[-98.526337,33.94539],[-98.525073,33.945536],[-98.524213,33.945934],[-98.523607,33.946724],[-98.521723,33.946787],[-98.518768,33.948236],[-98.517419,33.949772],[-98.516761,33.949464]]]}},{"type":"Feature","properties":{"PRECINCT":"312","VTD":"0312"},"geometry":{"type":"Polygon","coordinates":[[[-98.514179,33.957758],[-98.513926,33.956971],[-98.509883,33.957055],[-98.505639,33.948922],[-98.505458,33.949898],[-98.503152,33.950608],[-98.502926,33.949531],[-98.503648,33.948024],[-98.503192,33.946505],[-98.504226,33.946171],[-98.503723,33.945191],[-98.502797,33.945345],[-98.501328,33.943352],[-98.500375,33.94369],[-98.498825,33.941994],[-98.497819,33.942236],[-98.494858,33.942046],[-98.494912,33.938959],[-98.490111,33.938979],[-98.489778,33.938751],[-98.490093,33.937508],[-98.494992,33.937524],[-98.495533,33.93805],[-98.500767,33.938058],[-98.50078,33.938685],[-98.501256,33.9388],[-98.511569,33.938901],[-98.514226,33.94941],[-98.51648,33.949408],[-98.517419,33.949772],[-98.515723,33.951946],[-98.514973,33.953371],[-98.514501,33.954967],[-98.514179,33.957758]]]}},{"type":"Feature","properties":{"PRECINCT":"106","VTD":"0106"},"geometry":{"type":"Polygon","coordinates":[[[-98.837378,33.938295],[-98.830028,33.938186],[-98.828582,33.937158],[-98.827447,33.937413],[-98.825805,33.936861],[-98.82553,33.936354],[-98.825093,33.93633],[-98.824956,33.936606],[-98.823887,33.936809],[-98.823094,33.937266],[-98.822405,33.937059],[-98.82169,33.936419],[-98.821114,33.936556],[-98.820811,33.936099],[-98.819848,33.935733],[-98.820399,33.935388],[-98.820674,33.934195],[-98.8193,33.934584],[-98.818942,33.933211],[-98.81952,33.933278],[-98.81941,33.932751],[-98.820044,33.932749],[-98.820099,33.932567],[-98.818752,33.932109],[-98.818036,33.93133],[-98.817102,33.930874],[-98.816799,33.930439],[-98.817157,33.930025],[-98.817047,33.929362],[-98.816606,33.929246],[-98.816524,33.928858],[-98.815891,33.928856],[-98.815148,33.927642],[-98.815038,33.926977],[-98.814514,33.926519],[-98.814513,33.925946],[-98.814101,33.925764],[-98.813028,33.924549],[-98.811797,33.923796],[-98.81182,33.92227],[-98.811082,33.920921],[-98.810787,33.917994],[-98.810951,33.917698],[-98.810596,33.917081],[-98.810569,33.916396],[-98.81016,33.915731],[-98.80913,33.915503],[-98.808854,33.915251],[-98.808884,33.914953],[-98.809484,33.914466],[-98.809546,33.912961],[-98.810455,33.912505],[-98.810729,33.911729],[-98.810502,33.911333],[-98.810072,33.911516],[-98.809962,33.910969],[-98.809526,33.910712],[-98.808304,33.910554],[-98.807514,33.910048],[-98.807154,33.909549],[-98.8071,33.90886],[-98.806574,33.908677],[-98.806384,33.909176],[-98.805801,33.909221],[-98.805663,33.908098],[-98.806267,33.907709],[-98.806646,33.907067],[-98.807474,33.9067],[-98.807143,33.905692],[-98.807253,33.905349],[-98.808276,33.904796],[-98.808305,33.904477],[-98.807205,33.903812],[-98.806931,33.904089],[-98.807095,33.904503],[-98.806081,33.904872],[-98.805863,33.904438],[-98.80548,33.90453],[-98.805398,33.904324],[-98.80584,33.903456],[-98.805484,33.903318],[-98.804605,33.904147],[-98.803207,33.904264],[-98.803676,33.903648],[-98.80324,33.903305],[-98.803873,33.902848],[-98.803791,33.902643],[-98.803243,33.902712],[-98.803106,33.902393],[-98.803355,33.902072],[-98.80437,33.902352],[-98.804591,33.902147],[-98.80273,33.901003],[-98.801353,33.898615],[-98.799582,33.898309],[-98.796093,33.898283],[-98.795078,33.898077],[-98.793843,33.89723],[-98.793185,33.896152],[-98.793187,33.892624],[-98.792447,33.891042],[-98.791459,33.890172],[-98.787179,33.88852],[-98.78501,33.888634],[-98.782868,33.88904],[-98.780614,33.890186],[-98.778169,33.892867],[-98.777067,33.896784],[-98.777121,33.898572],[-98.776625,33.900588],[-98.776844,33.902949],[-98.777201,33.903521],[-98.7772,33.904896],[-98.776348,33.906041],[-98.775166,33.906568],[-98.774122,33.906659],[-98.772448,33.905902],[-98.771597,33.904092],[-98.770966,33.903313],[-98.770061,33.900609],[-98.768909,33.899325],[-98.76847,33.899142],[-98.767948,33.899165],[-98.766575,33.900034],[-98.764678,33.901911],[-98.763689,33.902346],[-98.761903,33.902506],[-98.760502,33.902299],[-98.758057,33.901359],[-98.755777,33.89948],[-98.754873,33.89783],[-98.754516,33.897578],[-98.753115,33.897486],[-98.751522,33.897875],[-98.749212,33.899134],[-98.744512,33.90011],[-98.739981,33.902566],[-98.738348,33.904398],[-98.736502,33.905518],[-98.735876,33.906792],[-98.733771,33.908173],[-98.733343,33.909394],[-98.732352,33.910828],[-98.731985,33.912652],[-98.731192,33.914086],[-98.730826,33.914307],[-98.727714,33.914353],[-98.726875,33.913834],[-98.72544,33.912346],[-98.724494,33.910981],[-98.724387,33.910012],[-98.723914,33.909287],[-98.724128,33.90799],[-98.724647,33.906884],[-98.724235,33.904725],[-98.723548,33.904198],[-98.721808,33.903595],[-98.719581,33.900995],[-98.718955,33.900827],[-98.717704,33.90114],[-98.717323,33.901528],[-98.716636,33.903153],[-98.716544,33.904381],[-98.717597,33.907647],[-98.717857,33.909249],[-98.71891,33.911446],[-98.719229,33.912735],[-98.719275,33.914391],[-98.719015,33.914834],[-98.718497,33.915101],[-98.717917,33.91507],[-98.716009,33.914094],[-98.713267,33.913315],[-98.712146,33.912393],[-98.710721,33.911955],[-98.709078,33.910768],[-98.708693,33.910127],[-98.70821,33.908131],[-98.708208,33.907657],[-98.708588,33.907065],[-98.70926,33.906581],[-98.709838,33.905614],[-98.711638,33.904321],[-98.713313,33.902071],[-98.714901,33.901147],[-98.716898,33.89924],[-98.717094,33.898313],[-98.716202,33.8973],[-98.715511,33.896913],[-98.711871,33.897531],[-98.709236,33.897106],[-98.706704,33.897139],[-98.704538,33.901256],[-98.70222,33.904011],[-98.701249,33.907459],[-98.701264,33.91109],[-98.700312,33.911882],[-98.698498,33.912131],[-98.69747,33.911945],[-98.69535,33.91007],[-98.694437,33.908748],[-98.692013,33.907435],[-98.690359,33.907173],[-98.687108,33.907589],[-98.68652,33.90726],[-98.685969,33.906445],[-98.686012,33.905339],[-98.686646,33.904723],[-98.687792,33.904621],[-98.691198,33.905328],[-98.692478,33.904698],[-98.693744,33.90466],[-98.694986,33.904187],[-98.697675,33.902686],[-98.699311,33.900461],[-98.69884,33.899309],[-98.697779,33.898303],[-98.696321,33.897833],[-98.694919,33.898032],[-98.693905,33.897892],[-98.692442,33.898155],[-98.68747,33.900085],[-98.683397,33.900636],[-98.679618,33.901589],[-98.676458,33.901118],[-98.673909,33.900281],[-98.673085,33.90045],[-98.671712,33.90097],[-98.670658,33.901764],[-98.669116,33.903932],[-98.667804,33.905292],[-98.666751,33.905597],[-98.66472,33.90476],[-98.66211,33.90213],[-98.660309,33.900934],[-98.659056,33.9005],[-98.65689,33.900417],[-98.655897,33.900899],[-98.654935,33.901907],[-98.653439,33.904266],[-98.653042,33.906167],[-98.653194,33.906977],[-98.654094,33.908374],[-98.654047,33.909664],[-98.653773,33.910221],[-98.652567,33.910749],[-98.650873,33.911009],[-98.648874,33.911629],[-98.647026,33.912607],[-98.646401,33.912645],[-98.645287,33.911813],[-98.644982,33.91092],[-98.645028,33.909478],[-98.643929,33.905654],[-98.644768,33.903068],[-98.647881,33.900778],[-98.647774,33.899641],[-98.646233,33.898489],[-98.644767,33.898177],[-98.641715,33.899153],[-98.640662,33.899236],[-98.639716,33.898977],[-98.63845,33.898267],[-98.63753,33.897289],[-98.637512,33.868979],[-98.637346,33.86859],[-98.637646,33.835037],[-98.838216,33.834075],[-98.953088,33.834],[-98.953085,33.899334],[-98.94524,33.901294],[-98.934842,33.90174],[-98.919869,33.90483],[-98.914947,33.905234],[-98.912629,33.905072],[-98.908343,33.90435],[-98.906683,33.904648],[-98.905972,33.90511],[-98.901197,33.910633],[-98.880804,33.915839],[-98.879878,33.916313],[-98.863546,33.935784],[-98.863538,33.938167],[-98.837358,33.937835],[-98.837378,33.938295]]]}},{"type":"Feature","properties":{"PRECINCT":"310","VTD":"0310"},"geometry":{"type":"Polygon","coordinates":[[[-98.734429,33.962289],[-98.725627,33.959795],[-98.720838,33.958756],[-98.68671,33.953444],[-98.67482,33.951976],[-98.603176,33.941011],[-98.603207,33.95426],[-98.60114,33.954264],[-98.601004,33.94509],[-98.592866,33.945134],[-98.592644,33.953496],[-98.590146,33.95341],[-98.589608,33.952015],[-98.589541,33.94692],[-98.585976,33.946125],[-98.584321,33.94521],[-98.584293,33.942523],[-98.583491,33.942131],[-98.583233,33.937913],[-98.575191,33.936565],[-98.575341,33.918678],[-98.581895,33.918642],[-98.584487,33.91745],[-98.587853,33.917055],[-98.58889,33.917372],[-98.59302,33.920575],[-98.595338,33.921312],[-98.629895,33.921412],[-98.645626,33.926216],[-98.674536,33.926072],[-98.690402,33.925773],[-98.695969,33.92576],[-98.698172,33.926039],[-98.715166,33.926048],[-98.717763,33.925647],[-98.717817,33.930956],[-98.719502,33.931386],[-98.719628,33.940133],[-98.719945,33.940299],[-98.724293,33.940281],[-98.724684,33.940475],[-98.724714,33.951015],[-98.725627,33.951461],[-98.725602,33.955097],[-98.726009,33.955144],[-98.726844,33.956581],[-98.727819,33.957486],[-98.727707,33.957938],[-98.728441,33.958622],[-98.729211,33.958811],[-98.730204,33.959575],[-98.730928,33.959665],[-98.730981,33.960258],[-98.732124,33.961017],[-98.732486,33.960903],[-98.732588,33.960559],[-98.732996,33.960513],[-98.733762,33.961112],[-98.73397,33.961565],[-98.734558,33.961728],[-98.734429,33.962289]]]}},{"type":"Feature","properties":{"PRECINCT":"107","VTD":"0107"},"geometry":{"type":"Polygon","coordinates":[[[-98.428737,33.883235],[-98.424669,33.882134],[-98.424432,33.882732],[-98.42301,33.88229],[-98.423003,33.836056],[-98.500604,33.835915],[-98.518391,33.83566],[-98.511555,33.840774],[-98.511684,33.836154],[-98.501036,33.836178],[-98.501011,33.84224],[-98.491456,33.84232],[-98.490559,33.840256],[-98.489537,33.843385],[-98.479332,33.843253],[-98.479338,33.841804],[-98.46273,33.841976],[-98.462668,33.851341],[-98.4644,33.85137],[-98.464094,33.85839],[-98.466005,33.858251],[-98.465576,33.876069],[-98.455726,33.876019],[-98.455571,33.879851],[-98.448196,33.87989],[-98.4483,33.879456],[-98.440782,33.879591],[-98.440799,33.877896],[-98.445707,33.877773],[-98.44578,33.864966],[-98.436836,33.864876],[-98.43668,33.870175],[-98.430916,33.870128],[-98.430814,33.878716],[-98.430327,33.878716],[-98.430313,33.878956],[-98.428824,33.878951],[-98.428737,33.883235]]]}},{"type":"Feature","properties":{"PRECINCT":"307","VTD":"0307"},"geometry":{"type":"Polygon","coordinates":[[[-98.589935,33.980382],[-98.590144,33.953915],[-98.56178,33.949521],[-98.557904,33.9492],[-98.556855,33.948896],[-98.553169,33.948722],[-98.553265,33.933257],[-98.531972,33.929913],[-98.532066,33.920274],[-98.538525,33.92037],[-98.539095,33.918695],[-98.538945,33.917264],[-98.552579,33.918263],[-98.553552,33.918069],[-98.555128,33.916943],[-98.557001,33.916226],[-98.560988,33.916581],[-98.565926,33.918727],[-98.564258,33.923375],[-98.562174,33.931084],[-98.560542,33.932965],[-98.559778,33.933409],[-98.557811,33.933958],[-98.583233,33.937913],[-98.583491,33.942131],[-98.584293,33.942523],[-98.584321,33.94521],[-98.585976,33.946125],[-98.589541,33.94692],[-98.589608,33.952015],[-98.590146,33.95341],[-98.592644,33.953496],[-98.592866,33.945134],[-98.601004,33.94509],[-98.60114,33.954264],[-98.603207,33.95426],[-98.603194,33.950911],[-98.60678,33.950994],[-98.606626,33.962163],[-98.603224,33.962209],[-98.603304,33.98288],[-98.585878,33.982943],[-98.585868,33.980376],[-98.589935,33.980382]]]}},{"type":"Feature","properties":{"PRECINCT":"202","VTD":"0202"},"geometry":{"type":"Polygon","coordinates":[[[-98.5325,33.9472],[-98.532716,33.945159],[-98.531276,33.94274],[-98.531139,33.941332],[-98.531856,33.939448],[-98.531972,33.929913],[-98.553265,33.933257],[-98.553169,33.948722],[-98.556855,33.948896],[-98.557904,33.9492],[-98.56178,33.949521],[-98.574485,33.95148],[-98.572681,33.955293],[-98.572619,33.959307],[-98.552562,33.959202],[-98.553105,33.958808],[-98.553141,33.950805],[-98.544509,33.950555],[-98.539343,33.949804],[-98.533115,33.948368],[-98.53333,33.947371],[-98.5325,33.9472]]]}},{"type":"Feature","properties":{"PRECINCT":"205","VTD":"0205"},"geometry":{"type":"Polygon","coordinates":[[[-98.524614,34.092595],[-98.520936,34.088979],[-98.516875,34.085984],[-98.513812,34.082011],[-98.504149,34.072287],[-98.501375,34.071921],[-98.499949,34.071007],[-98.49812,34.070307],[-98.496098,34.069993],[-98.494613,34.07009],[-98.493218,34.06916],[-98.491727,34.067771],[-98.49073,34.067111],[-98.489346,34.066579],[-98.4888,34.066076],[-98.488268,34.065473],[-98.487824,34.063768],[-98.486999,34.06288],[-98.486328,34.062598],[-98.483551,34.062277],[-98.48204,34.06227],[-98.47911,34.06288],[-98.473525,34.064734],[-98.471465,34.065665],[-98.468184,34.068991],[-98.466002,34.073081],[-98.465133,34.073729],[-98.461959,34.073836],[-98.454665,34.072577],[-98.45169,34.072615],[-98.449034,34.073462],[-98.447447,34.074393],[-98.446379,34.07543],[-98.445784,34.076827],[-98.445921,34.078413],[-98.445585,34.079298],[-98.443724,34.082152],[-98.442808,34.083144],[-98.441877,34.083647],[-98.438169,34.084746],[-98.432127,34.085622],[-98.42848,34.085523],[-98.42523,34.084799],[-98.423533,34.082843],[-98.423532,34.0614],[-98.424416,34.061434],[-98.424546,34.045103],[-98.424728,34.044699],[-98.42564,34.044378],[-98.456158,34.044622],[-98.457681,34.045206],[-98.45913,34.046583],[-98.46063,34.047405],[-98.465037,34.047722],[-98.468624,34.049572],[-98.469927,34.049799],[-98.516475,34.049684],[-98.516556,34.035221],[-98.518889,34.035237],[-98.519096,34.035028],[-98.557901,34.03531],[-98.558463,34.040918],[-98.557237,34.053188],[-98.557444,34.053965],[-98.558622,34.055219],[-98.558864,34.055785],[-98.563267,34.055779],[-98.564677,34.056228],[-98.565752,34.055843],[-98.565993,34.048708],[-98.56621,34.048509],[-98.585264,34.048558],[-98.585499,34.048704],[-98.585484,34.051793],[-98.58567,34.052016],[-98.601157,34.05198],[-98.601151,34.053521],[-98.61265,34.05362],[-98.61383,34.068228],[-98.613499,34.06877],[-98.613449,34.082059],[-98.595495,34.081781],[-98.595492,34.07982],[-98.570306,34.080245],[-98.571992,34.08759],[-98.570657,34.087616],[-98.569608,34.087927],[-98.560674,34.087841],[-98.560614,34.09329],[-98.560472,34.091481],[-98.557379,34.091444],[-98.556984,34.092774],[-98.556383,34.09377],[-98.555399,34.09463],[-98.536082,34.107073],[-98.533678,34.103269],[-98.532412,34.102086],[-98.530611,34.099843],[-98.5282,34.094961],[-98.526506,34.094037],[-98.524614,34.092595]]]}},{"type":"Feature","properties":{"PRECINCT":"206","VTD":"0206"},"geometry":{"type":"Polygon","coordinates":[[[-98.618593,34.156596],[-98.613096,34.156282],[-98.608853,34.157521],[-98.606732,34.159034],[-98.603978,34.160249],[-98.602131,34.160593],[-98.599789,34.160571],[-98.598521,34.159998],[-98.597502,34.159128],[-98.592954,34.157297],[-98.592568,34.156863],[-98.588516,34.154481],[-98.586394,34.152718],[-98.583914,34.151298],[-98.579147,34.149695],[-98.578128,34.149031],[-98.577356,34.1491],[-98.572451,34.145091],[-98.571459,34.143488],[-98.569724,34.141586],[-98.56774,34.13996],[-98.567409,34.139387],[-98.567298,34.138242],[-98.566609,34.13744],[-98.560191,34.133202],[-98.558621,34.132973],[-98.553717,34.13366],[-98.552836,34.133568],[-98.551982,34.13295],[-98.55088,34.132583],[-98.550384,34.131736],[-98.550357,34.129239],[-98.551046,34.127818],[-98.551845,34.127131],[-98.552616,34.126811],[-98.554324,34.126605],[-98.557602,34.128437],[-98.558593,34.128254],[-98.559558,34.127704],[-98.560136,34.126926],[-98.560976,34.125092],[-98.560977,34.123922],[-98.560574,34.123567],[-98.559368,34.123449],[-98.558027,34.122856],[-98.55682,34.121079],[-98.555747,34.120134],[-98.55387,34.119542],[-98.550917,34.119334],[-98.536082,34.107073],[-98.555399,34.09463],[-98.556383,34.09377],[-98.556984,34.092774],[-98.557379,34.091444],[-98.560472,34.091481],[-98.560614,34.09329],[-98.560674,34.087841],[-98.569608,34.087927],[-98.570657,34.087616],[-98.571992,34.08759],[-98.570306,34.080245],[-98.595492,34.07982],[-98.595495,34.081781],[-98.613449,34.082059],[-98.613578,34.068521],[-98.613956,34.068137],[-98.614497,34.06801],[-98.621993,34.068106],[-98.622367,34.067918],[-98.62248,34.056607],[-98.622648,34.056435],[-98.649877,34.056497],[-98.649954,34.063739],[-98.653908,34.064447],[-98.653907,34.064704],[-98.72893,34.065186],[-98.730197,34.064866],[-98.731754,34.065314],[-98.731888,34.059938],[-98.732419,34.058777],[-98.733977,34.057822],[-98.734753,34.057684],[-98.75069,34.05778],[-98.750589,34.076898],[-98.750821,34.089255],[-98.762374,34.089363],[-98.762785,34.090294],[-98.763334,34.090203],[-98.763665,34.089858],[-98.764215,34.089927],[-98.763883,34.090522],[-98.764046,34.091392],[-98.763771,34.091597],[-98.762834,34.091643],[-98.762641,34.09194],[-98.762915,34.092398],[-98.763905,34.092351],[-98.764427,34.092787],[-98.764592,34.09329],[-98.765664,34.093908],[-98.766654,34.094068],[-98.766267,34.094915],[-98.765412,34.094845],[-98.765082,34.094593],[-98.76453,34.094798],[-98.764253,34.095347],[-98.764473,34.095851],[-98.764032,34.096171],[-98.764032,34.096422],[-98.764856,34.09672],[-98.764856,34.096949],[-98.763532,34.097932],[-98.763421,34.098367],[-98.76298,34.098595],[-98.762758,34.099397],[-98.764022,34.100198],[-98.764076,34.101022],[-98.763194,34.101204],[-98.763056,34.10141],[-98.764293,34.102211],[-98.763878,34.103332],[-98.764042,34.103721],[-98.763518,34.104293],[-98.763378,34.105254],[-98.762192,34.106443],[-98.762933,34.107154],[-98.762711,34.10839],[-98.763344,34.108641],[-98.764252,34.108205],[-98.76513,34.1099],[-98.765211,34.11054],[-98.76499,34.110996],[-98.763529,34.111041],[-98.762646,34.111362],[-98.762783,34.112047],[-98.763443,34.112344],[-98.763551,34.113192],[-98.762971,34.113809],[-98.761317,34.114403],[-98.761261,34.114677],[-98.762307,34.114998],[-98.762362,34.115203],[-98.761451,34.115821],[-98.761092,34.115751],[-98.760761,34.115087],[-98.760431,34.115384],[-98.760786,34.116597],[-98.762519,34.116757],[-98.762242,34.118267],[-98.762349,34.119343],[-98.761478,34.120242],[-98.760678,34.120541],[-98.760762,34.121206],[-98.760431,34.121688],[-98.759274,34.122331],[-98.755827,34.123411],[-98.753456,34.124609],[-98.751362,34.124215],[-98.749291,34.124238],[-98.746263,34.12554],[-98.743563,34.125392],[-98.741966,34.12553],[-98.740589,34.126294],[-98.739461,34.127394],[-98.737232,34.130992],[-98.737177,34.13255],[-98.73682,34.133374],[-98.735471,34.135208],[-98.734287,34.135758],[-98.731036,34.136011],[-98.728502,34.135279],[-98.726188,34.135486],[-98.723626,34.135189],[-98.722717,34.135281],[-98.718639,34.136473],[-98.717537,34.13645],[-98.716104,34.135947],[-98.714947,34.134847],[-98.71423,34.133404],[-98.71412,34.132144],[-98.7131,34.131366],[-98.712467,34.13116],[-98.710731,34.131206],[-98.70996,34.131549],[-98.706132,34.134986],[-98.703047,34.135903],[-98.700182,34.135995],[-98.696518,34.133521],[-98.695939,34.133407],[-98.693405,34.13375],[-98.692358,34.133636],[-98.690898,34.133018],[-98.690072,34.133155],[-98.685828,34.136041],[-98.68536,34.137187],[-98.68412,34.13879],[-98.678693,34.142135],[-98.67715,34.142501],[-98.676626,34.142913],[-98.673733,34.145868],[-98.672934,34.147472],[-98.670922,34.149373],[-98.665824,34.151617],[-98.663179,34.153312],[-98.659899,34.156128],[-98.655655,34.158258],[-98.652347,34.161029],[-98.650583,34.163113],[-98.649534,34.163433],[-98.648073,34.164441],[-98.643223,34.164531],[-98.639642,34.16343],[-98.637575,34.162284],[-98.633388,34.160839],[-98.629117,34.159806],[-98.621666,34.157195],[-98.618593,34.156596]]]}},{"type":"Feature","properties":{"PRECINCT":"309","VTD":"0309"},"geometry":{"type":"Polygon","coordinates":[[[-98.61383,34.068228],[-98.61265,34.05362],[-98.601151,34.053521],[-98.601157,34.05198],[-98.58567,34.052016],[-98.585484,34.051793],[-98.585499,34.048704],[-98.585264,34.048558],[-98.56621,34.048509],[-98.565993,34.048708],[-98.565752,34.055843],[-98.564677,34.056228],[-98.563267,34.055779],[-98.558864,34.055785],[-98.558622,34.055219],[-98.557444,34.053965],[-98.557237,34.053188],[-98.558463,34.040918],[-98.55832,34.038418],[-98.557227,34.031709],[-98.545701,33.99638],[-98.546527,33.996309],[-98.542359,33.984671],[-98.545701,33.984652],[-98.550064,33.982759],[-98.576436,33.982976],[-98.603304,33.98288],[-98.603224,33.962209],[-98.606626,33.962163],[-98.60678,33.950994],[-98.603194,33.950911],[-98.603176,33.941011],[-98.67482,33.951976],[-98.68671,33.953444],[-98.720838,33.958756],[-98.725627,33.959795],[-98.736269,33.962842],[-98.748399,33.96589],[-98.76937,33.970464],[-98.769453,33.970614],[-98.769176,33.970583],[-98.769117,33.972587],[-98.768001,33.97431],[-98.767502,33.975757],[-98.767077,34.000169],[-98.766181,34.001544],[-98.766037,34.002306],[-98.766154,34.002831],[-98.76704,34.00403],[-98.766729,34.037706],[-98.765684,34.039091],[-98.765501,34.039695],[-98.765297,34.0561],[-98.764096,34.0574],[-98.762628,34.057851],[-98.734753,34.057684],[-98.733977,34.057822],[-98.732419,34.058777],[-98.731888,34.059938],[-98.731754,34.065314],[-98.730197,34.064866],[-98.72893,34.065186],[-98.653907,34.064704],[-98.653908,34.064447],[-98.649954,34.063739],[-98.649877,34.056497],[-98.622793,34.056409],[-98.62248,34.056607],[-98.622367,34.067918],[-98.621993,34.068106],[-98.614497,34.06801],[-98.61383,34.068228]]]}},{"type":"Feature","properties":{"PRECINCT":"414","VTD":"0414"},"geometry":{"type":"Polygon","coordinates":[[[-98.934679,34.197523],[-98.9333,34.197317],[-98.928145,34.192689],[-98.927456,34.191155],[-98.92503,34.188635],[-98.924479,34.187536],[-98.923129,34.185978],[-98.920704,34.183435],[-98.917672,34.181464],[-98.915357,34.18096],[-98.909349,34.177499],[-98.905876,34.177178],[-98.896616,34.174495],[-98.895129,34.173509],[-98.892263,34.172294],[-98.891657,34.171355],[-98.890473,34.170392],[-98.887112,34.16826],[-98.884467,34.167618],[-98.880415,34.167272],[-98.87606,34.167705],[-98.874849,34.167522],[-98.872922,34.166584],[-98.872095,34.165897],[-98.871543,34.165027],[-98.871211,34.163012],[-98.872229,34.160446],[-98.874955,34.157031],[-98.874872,34.155657],[-98.873271,34.153596],[-98.869246,34.150207],[-98.868116,34.149635],[-98.865747,34.149132],[-98.86255,34.149111],[-98.860125,34.149913],[-98.858419,34.152732],[-98.858175,34.158505],[-98.857101,34.161254],[-98.85451,34.161713],[-98.852912,34.161164],[-98.850762,34.159882],[-98.84966,34.159699],[-98.847731,34.159905],[-98.846518,34.159654],[-98.844727,34.159082],[-98.843542,34.158143],[-98.842191,34.158051],[-98.840676,34.157296],[-98.83668,34.156495],[-98.834063,34.158259],[-98.833346,34.159107],[-98.832135,34.161787],[-98.831115,34.162154],[-98.825079,34.160391],[-98.816812,34.158605],[-98.815269,34.158101],[-98.812954,34.158444],[-98.80681,34.155901],[-98.804413,34.153931],[-98.799756,34.147883],[-98.79893,34.145959],[-98.797966,34.144608],[-98.796203,34.142775],[-98.795239,34.142798],[-98.792015,34.143736],[-98.79072,34.144584],[-98.789094,34.146485],[-98.788405,34.146668],[-98.783006,34.142337],[-98.778076,34.139495],[-98.776257,34.139289],[-98.771795,34.138302],[-98.766671,34.136834],[-98.764358,34.135642],[-98.761797,34.133785],[-98.760558,34.132388],[-98.760008,34.130898],[-98.759486,34.128882],[-98.759653,34.126912],[-98.758441,34.125949],[-98.75745,34.124713],[-98.753456,34.124609],[-98.755827,34.123411],[-98.759714,34.122147],[-98.760706,34.121435],[-98.760678,34.120541],[-98.761478,34.120242],[-98.762349,34.119343],[-98.762242,34.118267],[-98.762519,34.116757],[-98.760786,34.116597],[-98.760431,34.115384],[-98.760761,34.115087],[-98.761092,34.115751],[-98.761451,34.115821],[-98.762362,34.115203],[-98.762307,34.114998],[-98.761261,34.114677],[-98.761317,34.114403],[-98.762971,34.113809],[-98.763551,34.113192],[-98.763443,34.112344],[-98.762783,34.112047],[-98.762646,34.111362],[-98.763529,34.111041],[-98.76499,34.110996],[-98.765211,34.11054],[-98.76513,34.1099],[-98.764252,34.108205],[-98.763344,34.108641],[-98.762711,34.10839],[-98.762933,34.107154],[-98.762192,34.106443],[-98.763378,34.105254],[-98.763518,34.104293],[-98.764042,34.103721],[-98.763878,34.103332],[-98.764293,34.102211],[-98.763056,34.10141],[-98.763194,34.101204],[-98.764076,34.101022],[-98.764022,34.100198],[-98.762758,34.099397],[-98.76298,34.098595],[-98.763421,34.098367],[-98.763532,34.097932],[-98.764856,34.096949],[-98.764856,34.09672],[-98.764032,34.096422],[-98.764032,34.096171],[-98.764473,34.095851],[-98.764253,34.095347],[-98.76453,34.094798],[-98.765082,34.094593],[-98.765412,34.094845],[-98.766267,34.094915],[-98.766654,34.094068],[-98.765664,34.093908],[-98.764592,34.09329],[-98.764427,34.092787],[-98.763905,34.092351],[-98.762915,34.092398],[-98.762641,34.09194],[-98.762834,34.091643],[-98.763771,34.091597],[-98.764046,34.091392],[-98.763883,34.090522],[-98.764215,34.089927],[-98.763665,34.089858],[-98.763334,34.090203],[-98.762785,34.090294],[-98.762374,34.089363],[-98.750821,34.089255],[-98.750589,34.076898],[-98.75069,34.05778],[-98.762656,34.057846],[-98.764096,34.0574],[-98.766174,34.055075],[-98.767656,34.054422],[-98.78694,34.054557],[-98.788569,34.055176],[-98.792543,34.058533],[-98.793776,34.058088],[-98.841722,34.058091],[-98.863934,34.055829],[-98.881134,34.055952],[-98.882548,34.05555],[-98.883972,34.054586],[-98.89637,34.040548],[-98.897639,34.039611],[-98.899042,34.039175],[-98.900075,34.039112],[-98.912531,34.039157],[-98.919066,34.029132],[-98.952763,34.044124],[-98.952737,34.049501],[-98.95306,34.051114],[-98.953043,34.17928],[-98.952296,34.201445],[-98.952395,34.212497],[-98.95067,34.211863],[-98.950161,34.21127],[-98.949673,34.209995],[-98.948685,34.209229],[-98.947141,34.208862],[-98.942453,34.20506],[-98.94022,34.203686],[-98.936664,34.20002],[-98.935478,34.198188],[-98.934679,34.197523]]]}},{"type":"Feature","properties":{"PRECINCT":"305","VTD":"0305"},"geometry":{"type":"Polygon","coordinates":[[[-98.510039,33.913],[-98.51019,33.909548],[-98.510394,33.909551],[-98.510458,33.90266],[-98.513485,33.902725],[-98.513448,33.905948],[-98.513907,33.905946],[-98.513898,33.906461],[-98.513021,33.90778],[-98.513729,33.908039],[-98.514946,33.908033],[-98.514917,33.909645],[-98.524471,33.909726],[-98.527194,33.909538],[-98.529901,33.908594],[-98.532405,33.907189],[-98.533796,33.90955],[-98.531598,33.910434],[-98.530791,33.911024],[-98.523441,33.913935],[-98.521726,33.915516],[-98.520307,33.918315],[-98.520404,33.91882],[-98.517477,33.922946],[-98.515962,33.925892],[-98.514556,33.926196],[-98.512725,33.922152],[-98.511899,33.918514],[-98.512416,33.914835],[-98.512289,33.913745],[-98.511876,33.91335],[-98.510039,33.913]]]}},{"type":"Feature","properties":{"PRECINCT":"411","VTD":"0411"},"geometry":{"type":"Polygon","coordinates":[[[-98.536002,33.870603],[-98.536001,33.861886],[-98.536817,33.861883],[-98.537231,33.8625],[-98.542257,33.864802],[-98.542718,33.864826],[-98.542721,33.863964],[-98.544232,33.864357],[-98.544708,33.864726],[-98.547854,33.864778],[-98.547849,33.866153],[-98.548228,33.86679],[-98.547878,33.867557],[-98.547833,33.871829],[-98.546136,33.871817],[-98.54423,33.87139],[-98.539368,33.871182],[-98.536002,33.870603]]]}},{"type":"Feature","properties":{"PRECINCT":"104","VTD":"0104"},"geometry":{"type":"Polygon","coordinates":[[[-98.518523,33.87047],[-98.518363,33.867017],[-98.518696,33.859753],[-98.519065,33.858964],[-98.520543,33.857827],[-98.520936,33.857056],[-98.526034,33.857741],[-98.536027,33.857787],[-98.536002,33.870603],[-98.518523,33.87047]]]}},{"type":"Feature","properties":{"PRECINCT":"108","VTD":"0108"},"geometry":{"type":"Polygon","coordinates":[[[-98.525163,33.857664],[-98.494798,33.853557],[-98.497349,33.852073],[-98.511555,33.840774],[-98.511555,33.84422],[-98.519019,33.844196],[-98.51913,33.835858],[-98.524466,33.835804],[-98.52419,33.836439],[-98.524676,33.837083],[-98.525465,33.836718],[-98.525308,33.836354],[-98.525882,33.83635],[-98.527319,33.837873],[-98.53051,33.839272],[-98.532508,33.842029],[-98.534579,33.842322],[-98.534732,33.842698],[-98.535448,33.842261],[-98.552293,33.850538],[-98.552836,33.850312],[-98.552836,33.849861],[-98.554358,33.849861],[-98.554467,33.848733],[-98.552293,33.847379],[-98.55338,33.846025],[-98.553652,33.842865],[-98.555391,33.841737],[-98.557348,33.842504],[-98.560012,33.842504],[-98.560718,33.842865],[-98.56061,33.841963],[-98.557892,33.840834],[-98.557185,33.839616],[-98.558272,33.838487],[-98.560583,33.838398],[-98.561942,33.838916],[-98.561232,33.839933],[-98.561124,33.85802],[-98.525163,33.857664]]]}},{"type":"Feature","properties":{"PRECINCT":"412","VTD":"0412"},"geometry":{"type":"Polygon","coordinates":[[[-98.734558,33.961728],[-98.73397,33.961565],[-98.733762,33.961112],[-98.732996,33.960513],[-98.732588,33.960559],[-98.732486,33.960903],[-98.732124,33.961017],[-98.730981,33.960258],[-98.730928,33.959665],[-98.730204,33.959575],[-98.729211,33.958811],[-98.728441,33.958622],[-98.727707,33.957938],[-98.727819,33.957486],[-98.726844,33.956581],[-98.726009,33.955144],[-98.725602,33.955097],[-98.725627,33.951461],[-98.724714,33.951015],[-98.724684,33.940475],[-98.724293,33.940281],[-98.719945,33.940299],[-98.719628,33.940133],[-98.719502,33.931386],[-98.717817,33.930956],[-98.717763,33.925647],[-98.715166,33.926048],[-98.698172,33.926039],[-98.695969,33.92576],[-98.690402,33.925773],[-98.674536,33.926072],[-98.645626,33.926216],[-98.629895,33.921412],[-98.595338,33.921312],[-98.59302,33.920575],[-98.58889,33.917372],[-98.588065,33.917069],[-98.584487,33.91745],[-98.581895,33.918642],[-98.57152,33.9187],[-98.568789,33.919657],[-98.567803,33.91952],[-98.565926,33.918727],[-98.566243,33.91818],[-98.566469,33.918552],[-98.569088,33.919385],[-98.570096,33.918099],[-98.569613,33.912705],[-98.571124,33.909508],[-98.573431,33.90791],[-98.578667,33.90739],[-98.58132,33.908595],[-98.584726,33.91149],[-98.585982,33.914223],[-98.587797,33.914686],[-98.589193,33.913598],[-98.58869,33.911675],[-98.585982,33.908502],[-98.585478,33.906393],[-98.589022,33.902802],[-98.590809,33.901991],[-98.593268,33.905541],[-98.595555,33.907481],[-98.597034,33.907198],[-98.597821,33.904019],[-98.602101,33.900981],[-98.604087,33.898236],[-98.603866,33.89549],[-98.606426,33.894229],[-98.60762,33.89426],[-98.609091,33.894748],[-98.609826,33.89531],[-98.611003,33.898531],[-98.609714,33.902179],[-98.609501,33.905045],[-98.610884,33.908461],[-98.611766,33.909633],[-98.612884,33.909926],[-98.613531,33.909755],[-98.614266,33.90934],[-98.615384,33.906656],[-98.616733,33.895623],[-98.619692,33.88938],[-98.621921,33.889731],[-98.622974,33.890791],[-98.623401,33.891592],[-98.623081,33.894897],[-98.623615,33.896049],[-98.624577,33.896812],[-98.62627,33.897254],[-98.627279,33.897041],[-98.628011,33.896071],[-98.628698,33.893874],[-98.630803,33.892118],[-98.632345,33.891683],[-98.633169,33.892064],[-98.634971,33.894056],[-98.635383,33.895139],[-98.636298,33.896468],[-98.63787,33.897481],[-98.63845,33.898267],[-98.639716,33.898977],[-98.640662,33.899236],[-98.641715,33.899153],[-98.644767,33.898177],[-98.646233,33.898489],[-98.647774,33.899641],[-98.647881,33.900778],[-98.644768,33.903068],[-98.643929,33.905654],[-98.645028,33.909478],[-98.644982,33.91092],[-98.645287,33.911813],[-98.646401,33.912645],[-98.647026,33.912607],[-98.648874,33.911629],[-98.650873,33.911009],[-98.652567,33.910749],[-98.653773,33.910221],[-98.654047,33.909664],[-98.654094,33.908374],[-98.653194,33.906977],[-98.653042,33.906167],[-98.653439,33.904266],[-98.654935,33.901907],[-98.655897,33.900899],[-98.65689,33.900417],[-98.659056,33.9005],[-98.660309,33.900934],[-98.66211,33.90213],[-98.66472,33.90476],[-98.666751,33.905597],[-98.667804,33.905292],[-98.669116,33.903932],[-98.670658,33.901764],[-98.671712,33.90097],[-98.673085,33.90045],[-98.673909,33.900281],[-98.676458,33.901118],[-98.679618,33.901589],[-98.683397,33.900636],[-98.68747,33.900085],[-98.692442,33.898155],[-98.693905,33.897892],[-98.694919,33.898032],[-98.696321,33.897833],[-98.697779,33.898303],[-98.69884,33.899309],[-98.699311,33.900461],[-98.697675,33.902686],[-98.694986,33.904187],[-98.693744,33.90466],[-98.692478,33.904698],[-98.691198,33.905328],[-98.687792,33.904621],[-98.686646,33.904723],[-98.686012,33.905339],[-98.685969,33.906445],[-98.68652,33.90726],[-98.687108,33.907589],[-98.690359,33.907173],[-98.692013,33.907435],[-98.694437,33.908748],[-98.69535,33.91007],[-98.69747,33.911945],[-98.698498,33.912131],[-98.700312,33.911882],[-98.701264,33.91109],[-98.701249,33.907459],[-98.70222,33.904011],[-98.704538,33.901256],[-98.706704,33.897139],[-98.709236,33.897106],[-98.711871,33.897531],[-98.715511,33.896913],[-98.716202,33.8973],[-98.717094,33.898313],[-98.716898,33.89924],[-98.714901,33.901147],[-98.713313,33.902071],[-98.711638,33.904321],[-98.709838,33.905614],[-98.70926,33.906581],[-98.708588,33.907065],[-98.708208,33.907657],[-98.70821,33.908131],[-98.708693,33.910127],[-98.709554,33.911256],[-98.710721,33.911955],[-98.712146,33.912393],[-98.713267,33.913315],[-98.716009,33.914094],[-98.717917,33.91507],[-98.718497,33.915101],[-98.719015,33.914834],[-98.719275,33.914391],[-98.719229,33.912735],[-98.71891,33.911446],[-98.717857,33.909249],[-98.717597,33.907647],[-98.716544,33.904381],[-98.716636,33.903153],[-98.717323,33.901528],[-98.718376,33.900858],[-98.719581,33.900995],[-98.721808,33.903595],[-98.724067,33.904458],[-98.724647,33.906884],[-98.724128,33.90799],[-98.723914,33.909287],[-98.724387,33.910012],[-98.724494,33.910981],[-98.72486,33.911622],[-98.726081,33.913048],[-98.727714,33.914353],[-98.730826,33.914307],[-98.731192,33.914086],[-98.731985,33.912652],[-98.732352,33.910828],[-98.733343,33.909394],[-98.733771,33.908173],[-98.735876,33.906792],[-98.736502,33.905518],[-98.738348,33.904398],[-98.739981,33.902566],[-98.744512,33.90011],[-98.749212,33.899134],[-98.751522,33.897875],[-98.753115,33.897486],[-98.754516,33.897578],[-98.754873,33.89783],[-98.755777,33.89948],[-98.758057,33.901359],[-98.760502,33.902299],[-98.761903,33.902506],[-98.763689,33.902346],[-98.764678,33.901911],[-98.766575,33.900034],[-98.767948,33.899165],[-98.76847,33.899142],[-98.768909,33.899325],[-98.770061,33.900609],[-98.770966,33.903313],[-98.771597,33.904092],[-98.772448,33.905902],[-98.774122,33.906659],[-98.775166,33.906568],[-98.776348,33.906041],[-98.7772,33.904896],[-98.777201,33.903521],[-98.776844,33.902949],[-98.776625,33.900588],[-98.777121,33.898572],[-98.777067,33.896784],[-98.777866,33.893577],[-98.778471,33.892408],[-98.780614,33.890186],[-98.782868,33.88904],[-98.786327,33.888497],[-98.788112,33.888773],[-98.791459,33.890172],[-98.792447,33.891042],[-98.793187,33.892624],[-98.793185,33.896152],[-98.793843,33.89723],[-98.795078,33.898077],[-98.796093,33.898283],[-98.799582,33.898309],[-98.801353,33.898615],[-98.80273,33.901003],[-98.804591,33.902147],[-98.80437,33.902352],[-98.803355,33.902072],[-98.803106,33.902393],[-98.803243,33.902712],[-98.803791,33.902643],[-98.803873,33.902848],[-98.80324,33.903305],[-98.803676,33.903648],[-98.803207,33.904264],[-98.804605,33.904147],[-98.805484,33.903318],[-98.80584,33.903456],[-98.805398,33.904324],[-98.80548,33.90453],[-98.805863,33.904438],[-98.806081,33.904872],[-98.807095,33.904503],[-98.806931,33.904089],[-98.807205,33.903812],[-98.808305,33.904477],[-98.808276,33.904796],[-98.807253,33.905349],[-98.807143,33.905692],[-98.807474,33.9067],[-98.806646,33.907067],[-98.806267,33.907709],[-98.805663,33.908098],[-98.805801,33.909221],[-98.806384,33.909176],[-98.806574,33.908677],[-98.8071,33.90886],[-98.807154,33.909549],[-98.807514,33.910048],[-98.808304,33.910554],[-98.809526,33.910712],[-98.809962,33.910969],[-98.810072,33.911516],[-98.810502,33.911333],[-98.810729,33.911729],[-98.810455,33.912505],[-98.809546,33.912961],[-98.809484,33.914466],[-98.808884,33.914953],[-98.808854,33.915251],[-98.80913,33.915503],[-98.81016,33.915731],[-98.810569,33.916396],[-98.810596,33.917081],[-98.810951,33.917698],[-98.810787,33.917994],[-98.811082,33.920921],[-98.81182,33.92227],[-98.811797,33.923796],[-98.813028,33.924549],[-98.814101,33.925764],[-98.814513,33.925946],[-98.814514,33.926519],[-98.815038,33.926977],[-98.815148,33.927642],[-98.815891,33.928856],[-98.816524,33.928858],[-98.816606,33.929246],[-98.817047,33.929362],[-98.817157,33.930025],[-98.816799,33.930439],[-98.817102,33.930874],[-98.818036,33.93133],[-98.818752,33.932109],[-98.820099,33.932567],[-98.820044,33.932749],[-98.81941,33.932751],[-98.81952,33.933278],[-98.818942,33.933211],[-98.8193,33.934584],[-98.820674,33.934195],[-98.820399,33.935388],[-98.819848,33.935733],[-98.820811,33.936099],[-98.821114,33.936556],[-98.82169,33.936419],[-98.822405,33.937059],[-98.823094,33.937266],[-98.823887,33.936809],[-98.824956,33.936606],[-98.825093,33.93633],[-98.82553,33.936354],[-98.825805,33.936861],[-98.827447,33.937413],[-98.828582,33.937158],[-98.830028,33.938186],[-98.837378,33.938295],[-98.837244,33.994555],[-98.818711,33.987169],[-98.793256,33.97625],[-98.787727,33.97415],[-98.782985,33.972904],[-98.765122,33.969594],[-98.748399,33.96589],[-98.734429,33.962289],[-98.734558,33.961728]]]}},{"type":"Feature","properties":{"PRECINCT":"413","VTD":"0413"},"geometry":{"type":"Polygon","coordinates":[[[-98.788569,34.055176],[-98.787489,34.054666],[-98.786382,34.054529],[-98.767656,34.054422],[-98.766174,34.055075],[-98.765297,34.0561],[-98.765501,34.039695],[-98.765684,34.039091],[-98.766729,34.037706],[-98.76704,34.00403],[-98.766154,34.002831],[-98.766037,34.002306],[-98.766181,34.001544],[-98.767077,34.000169],[-98.767502,33.975757],[-98.768001,33.97431],[-98.769117,33.972587],[-98.769176,33.970583],[-98.769453,33.970614],[-98.769303,33.970393],[-98.782985,33.972904],[-98.787727,33.97415],[-98.793256,33.97625],[-98.818711,33.987169],[-98.837244,33.994555],[-98.837499,33.951969],[-98.837358,33.937835],[-98.863538,33.938167],[-98.863546,33.935784],[-98.879878,33.916313],[-98.880804,33.915839],[-98.901197,33.910633],[-98.905972,33.90511],[-98.906683,33.904648],[-98.908343,33.90435],[-98.912629,33.905072],[-98.914947,33.905234],[-98.919869,33.90483],[-98.934842,33.90174],[-98.94524,33.901294],[-98.953085,33.899334],[-98.953064,34.033697],[-98.952723,34.036859],[-98.952763,34.044124],[-98.919066,34.029132],[-98.912531,34.039157],[-98.900075,34.039112],[-98.899042,34.039175],[-98.897639,34.039611],[-98.89637,34.040548],[-98.883972,34.054586],[-98.882548,34.05555],[-98.881262,34.055929],[-98.863934,34.055829],[-98.841722,34.058091],[-98.793776,34.058088],[-98.792543,34.058533],[-98.788569,34.055176]]]}},{"type":"Feature","properties":{"PRECINCT":"209","VTD":"0209"},"geometry":{"type":"Polygon","coordinates":[[[-98.445101,33.926364],[-98.443804,33.925264],[-98.442307,33.925718],[-98.440937,33.921204],[-98.445779,33.921246],[-98.445781,33.9225],[-98.454876,33.922555],[-98.454876,33.921732],[-98.457864,33.921568],[-98.454171,33.923767],[-98.452575,33.925267],[-98.450285,33.929866],[-98.448688,33.930866],[-98.444396,33.928565],[-98.445101,33.926364]]]}},{"type":"Feature","properties":{"PRECINCT":"302","VTD":"0302"},"geometry":{"type":"Polygon","coordinates":[[[-98.508048,33.909522],[-98.503051,33.909376],[-98.493787,33.898101],[-98.492851,33.898576],[-98.488297,33.892492],[-98.486118,33.890333],[-98.4843,33.889018],[-98.48483,33.888091],[-98.48148,33.885321],[-98.481652,33.88309],[-98.485577,33.883135],[-98.485597,33.876242],[-98.486556,33.876441],[-98.486838,33.876223],[-98.494319,33.87623],[-98.494102,33.880566],[-98.494493,33.884205],[-98.494407,33.888016],[-98.498764,33.888033],[-98.49869,33.894459],[-98.498866,33.894564],[-98.511859,33.890294],[-98.511884,33.892828],[-98.510096,33.892799],[-98.509976,33.901304],[-98.510495,33.90131],[-98.510458,33.90266],[-98.508137,33.902546],[-98.508048,33.909522]]]}}]}