{"type":"FeatureCollection","features":[{"type":"Feature","properties":{"PRECINCT":"101","VTD":"0101"},"geometry":{"type":"Polygon","coordinates":[[[-99.022644,29.828216],[-98.932251,29.787879],[-98.932595,29.78754],[-98.93342,29.787542],[-98.932606,29.784402],[-98.934051,29.782774],[-98.933841,29.781789],[-98.93434,29.78172],[-98.935497,29.782935],[-98.935996,29.782866],[-98.936352,29.781289],[-98.935746,29.780205],[-98.934879,29.779397],[-98.935297,29.778768],[-98.936408,29.778196],[-98.937737,29.77677],[-98.93861,29.776362],[-98.939324,29.775005],[-98.941204,29.774001],[-98.941579,29.773848],[-98.942043,29.774679],[-98.942712,29.775114],[-98.943515,29.772466],[-98.947594,29.769548],[-98.950131,29.76831],[-98.950477,29.767958],[-98.951912,29.768446],[-98.952085,29.768913],[-98.951749,29.769622],[-98.951974,29.770125],[-98.956314,29.77561],[-98.959131,29.774376],[-98.960921,29.772269],[-98.965795,29.768835],[-98.966243,29.76867],[-98.96867,29.768746],[-98.969314,29.768553],[-98.970316,29.766683],[-98.971904,29.766077],[-98.972746,29.766506],[-98.974657,29.763983],[-98.972717,29.762673],[-98.971991,29.760695],[-98.972065,29.758308],[-98.972853,29.756447],[-98.971067,29.75637],[-98.969483,29.755397],[-98.967121,29.75547],[-98.966391,29.754987],[-98.965592,29.754976],[-98.962391,29.7536],[-98.962554,29.752819],[-98.962383,29.752248],[-98.9617,29.751849],[-98.9621,29.751136],[-98.962059,29.750024],[-98.958771,29.748005],[-98.958594,29.747315],[-98.957523,29.746205],[-98.955149,29.745651],[-98.958316,29.743537],[-98.953803,29.737517],[-98.953188,29.737085],[-98.951739,29.737144],[-98.950407,29.736038],[-98.94982,29.73391],[-98.948932,29.732303],[-98.949932,29.731698],[-98.951327,29.731338],[-98.95195,29.730742],[-98.952509,29.7297],[-98.955599,29.730789],[-98.962818,29.736697],[-98.963944,29.737161],[-98.97138,29.739035],[-98.979806,29.742802],[-98.988939,29.744956],[-98.992012,29.745932],[-99.000735,29.744685],[-99.003053,29.744685],[-99.006791,29.745065],[-99.006679,29.743314],[-99.006914,29.742219],[-99.00735,29.741529],[-99.00813,29.741685],[-99.010208,29.741554],[-99.010903,29.741143],[-99.010971,29.739941],[-99.011333,29.739508],[-99.012887,29.738492],[-99.013626,29.738336],[-99.013856,29.73857],[-99.016432,29.735957],[-99.015622,29.734816],[-99.013993,29.733866],[-99.016643,29.731526],[-99.016731,29.729209],[-99.014379,29.729178],[-99.013162,29.728596],[-99.010674,29.729027],[-99.01114,29.7311],[-99.010585,29.732025],[-99.009577,29.731538],[-99.008812,29.731482],[-99.004473,29.732741],[-99.003247,29.731112],[-99.001031,29.730331],[-99.001511,29.729212],[-99.000889,29.728384],[-99.000331,29.728732],[-98.998855,29.727137],[-98.998312,29.726897],[-98.998372,29.725471],[-98.996832,29.724741],[-98.996347,29.725007],[-98.99625,29.72484],[-98.998012,29.723626],[-99.004137,29.717295],[-99.004083,29.715947],[-99.005414,29.714392],[-99.006288,29.713983],[-99.006773,29.713339],[-99.007983,29.713532],[-99.008909,29.714352],[-99.008846,29.715447],[-99.009091,29.716385],[-99.008763,29.717609],[-99.0088,29.718522],[-99.00977,29.719997],[-99.010879,29.719596],[-99.012301,29.716668],[-99.013381,29.715455],[-99.014134,29.715152],[-99.017056,29.716346],[-99.01997,29.719014],[-99.021449,29.719891],[-99.021761,29.718908],[-99.023272,29.719835],[-99.024541,29.719419],[-99.025381,29.71871],[-99.027171,29.714992],[-99.028145,29.71388],[-99.028203,29.712921],[-99.028686,29.712311],[-99.030742,29.711509],[-99.032917,29.711416],[-99.035211,29.711857],[-99.036263,29.71271],[-99.038363,29.717111],[-99.038837,29.720096],[-99.04008,29.724033],[-99.041535,29.726278],[-99.042506,29.726894],[-99.043647,29.727095],[-99.046849,29.726246],[-99.048601,29.727005],[-99.048847,29.727302],[-99.048803,29.727748],[-99.049194,29.72799],[-99.049881,29.727985],[-99.050757,29.727594],[-99.051837,29.727925],[-99.054387,29.729806],[-99.054406,29.730576],[-99.053656,29.7321],[-99.055505,29.732001],[-99.055509,29.731832],[-99.059863,29.73191],[-99.063257,29.73137],[-99.065633,29.733312],[-99.063322,29.735018],[-99.061227,29.735369],[-99.06061,29.73666],[-99.058126,29.736101],[-99.056999,29.736273],[-99.053593,29.73801],[-99.052673,29.738752],[-99.052471,29.739199],[-99.052672,29.73994],[-99.054576,29.74285],[-99.054664,29.743456],[-99.054178,29.744105],[-99.054184,29.745673],[-99.053617,29.746305],[-99.052217,29.746888],[-99.050742,29.746877],[-99.048876,29.745991],[-99.048189,29.745997],[-99.047735,29.746354],[-99.047274,29.748505],[-99.046997,29.748874],[-99.047337,29.749188],[-99.047879,29.750742],[-99.048661,29.751727],[-99.048648,29.752437],[-99.047658,29.753658],[-99.044442,29.754929],[-99.043509,29.756502],[-99.043653,29.759126],[-99.044447,29.762631],[-99.043489,29.762999],[-99.04171,29.762851],[-99.039283,29.761744],[-99.03659,29.764258],[-99.036457,29.76614],[-99.037529,29.767994],[-99.038972,29.768885],[-99.041892,29.769953],[-99.04215,29.77069],[-99.041475,29.773326],[-99.03986,29.775108],[-99.038788,29.776874],[-99.039304,29.781292],[-99.038439,29.783888],[-99.038527,29.784493],[-99.039341,29.785704],[-99.039479,29.786369],[-99.039207,29.788878],[-99.039497,29.791178],[-99.038992,29.792636],[-99.038638,29.795783],[-99.038127,29.797147],[-99.038719,29.799067],[-99.040737,29.800921],[-99.040756,29.801989],[-99.039235,29.805884],[-99.039052,29.809783],[-99.029311,29.818416],[-99.026746,29.820327],[-99.026218,29.821068],[-99.027586,29.822875],[-99.025953,29.82416],[-99.024061,29.826361],[-99.023415,29.826579],[-99.022696,29.8276],[-99.022644,29.828216]]]}},{"type":"Feature","properties":{"PRECINCT":"102","VTD":"0102"},"geometry":{"type":"Polygon","coordinates":[[[-98.932251,29.787879],[-98.781017,29.72089],[-98.778782,29.720167],[-98.800401,29.697424],[-98.828732,29.666708],[-98.830365,29.668209],[-98.832012,29.670391],[-98.842969,29.680179],[-98.84622,29.684331],[-98.848302,29.685979],[-98.850563,29.684551],[-98.850918,29.683347],[-98.850707,29.681066],[-98.847834,29.681389],[-98.848045,29.680234],[-98.84885,29.680147],[-98.850619,29.678906],[-98.85242,29.678522],[-98.853614,29.677991],[-98.855006,29.677921],[-98.855881,29.677385],[-98.856234,29.676719],[-98.856986,29.676388],[-98.857291,29.676425],[-98.858265,29.677324],[-98.8609,29.678583],[-98.863126,29.67878],[-98.865217,29.679587],[-98.866439,29.680512],[-98.866664,29.681587],[-98.868001,29.681819],[-98.868629,29.681464],[-98.8699,29.681478],[-98.870179,29.680027],[-98.872176,29.679538],[-98.87148,29.678597],[-98.870356,29.677719],[-98.87128,29.676024],[-98.872132,29.676645],[-98.873462,29.676772],[-98.875009,29.677398],[-98.875981,29.676769],[-98.87663,29.675966],[-98.879435,29.676397],[-98.880305,29.676134],[-98.880969,29.675113],[-98.881454,29.674844],[-98.88338,29.674264],[-98.885838,29.673896],[-98.887301,29.673895],[-98.887626,29.673201],[-98.887422,29.672373],[-98.890348,29.672535],[-98.891587,29.671987],[-98.893735,29.671854],[-98.893645,29.673645],[-98.892754,29.674727],[-98.892718,29.675102],[-98.893917,29.675857],[-98.894737,29.675652],[-98.894852,29.675247],[-98.89518,29.675127],[-98.8956,29.675529],[-98.895924,29.675139],[-98.896911,29.675527],[-98.897792,29.675562],[-98.898314,29.676054],[-98.898609,29.677504],[-98.899518,29.678277],[-98.899591,29.677166],[-98.90141,29.676776],[-98.900937,29.675542],[-98.901209,29.674708],[-98.902469,29.673963],[-98.902462,29.672464],[-98.903681,29.671919],[-98.903487,29.670944],[-98.903784,29.669925],[-98.9037,29.669371],[-98.903117,29.668507],[-98.90234,29.668137],[-98.90267,29.667443],[-98.902163,29.666807],[-98.9023,29.665641],[-98.902926,29.665316],[-98.903198,29.663995],[-98.903655,29.663367],[-98.9038,29.662105],[-98.905196,29.661279],[-98.906137,29.660067],[-98.908276,29.660281],[-98.910883,29.661933],[-98.914868,29.663265],[-98.915429,29.663849],[-98.915991,29.665496],[-98.916627,29.66361],[-98.917521,29.662174],[-98.91781,29.660269],[-98.919001,29.65703],[-98.920254,29.655289],[-98.92213,29.653898],[-98.9253,29.650626],[-98.926228,29.649079],[-98.926464,29.647249],[-98.926955,29.646216],[-98.928447,29.644414],[-98.930409,29.642569],[-98.930551,29.641854],[-98.931452,29.640729],[-98.931923,29.639682],[-98.933016,29.638288],[-98.934049,29.63761],[-98.938013,29.637238],[-98.93862,29.638971],[-98.939629,29.640683],[-98.946765,29.648281],[-98.952143,29.65627],[-98.952721,29.657776],[-98.953383,29.661572],[-98.955218,29.665549],[-98.955878,29.669287],[-98.956913,29.671019],[-98.96201,29.674778],[-98.962815,29.675656],[-98.963206,29.677347],[-98.96389,29.677443],[-98.969371,29.680893],[-98.976071,29.678413],[-98.976528,29.678833],[-98.976628,29.67981],[-98.975889,29.681262],[-98.97589,29.681759],[-98.972607,29.684303],[-98.972261,29.685497],[-98.973295,29.687422],[-98.977581,29.690601],[-98.97818,29.691393],[-98.978811,29.693346],[-98.978578,29.694842],[-98.977716,29.696356],[-98.975366,29.6993],[-98.972739,29.701275],[-98.972147,29.701457],[-98.971485,29.701336],[-98.969734,29.702068],[-98.969236,29.702597],[-98.968745,29.703873],[-98.969155,29.704561],[-98.970869,29.705881],[-98.971214,29.706635],[-98.972715,29.707641],[-98.973649,29.708096],[-98.974866,29.708295],[-98.976542,29.70923],[-98.978227,29.709401],[-98.980002,29.712697],[-98.978908,29.713943],[-98.978366,29.715322],[-98.97559,29.715454],[-98.974821,29.71609],[-98.974047,29.717574],[-98.97353,29.718005],[-98.971586,29.718165],[-98.968753,29.719116],[-98.961975,29.724182],[-98.96008,29.725183],[-98.956802,29.727766],[-98.954878,29.72867],[-98.953682,29.730037],[-98.952509,29.7297],[-98.95195,29.730742],[-98.951327,29.731338],[-98.949932,29.731698],[-98.948932,29.732303],[-98.94982,29.73391],[-98.950407,29.736038],[-98.951739,29.737144],[-98.953188,29.737085],[-98.953803,29.737517],[-98.958316,29.743537],[-98.955149,29.745651],[-98.957523,29.746205],[-98.958594,29.747315],[-98.958771,29.748005],[-98.962059,29.750024],[-98.9621,29.751136],[-98.9617,29.751849],[-98.962383,29.752248],[-98.962554,29.752819],[-98.962391,29.7536],[-98.965592,29.754976],[-98.966391,29.754987],[-98.967121,29.75547],[-98.969483,29.755397],[-98.971067,29.75637],[-98.972853,29.756447],[-98.972065,29.758308],[-98.971991,29.760695],[-98.972717,29.762673],[-98.974657,29.763983],[-98.972746,29.766506],[-98.971904,29.766077],[-98.970316,29.766683],[-98.969314,29.768553],[-98.96867,29.768746],[-98.966243,29.76867],[-98.965795,29.768835],[-98.960921,29.772269],[-98.959131,29.774376],[-98.956314,29.77561],[-98.951974,29.770125],[-98.951749,29.769622],[-98.952085,29.768913],[-98.951912,29.768446],[-98.950477,29.767958],[-98.950131,29.76831],[-98.947594,29.769548],[-98.943515,29.772466],[-98.942712,29.775114],[-98.942043,29.774679],[-98.941579,29.773848],[-98.941204,29.774001],[-98.939324,29.775005],[-98.93861,29.776362],[-98.937737,29.77677],[-98.936408,29.778196],[-98.935297,29.778768],[-98.934879,29.779397],[-98.935746,29.780205],[-98.936352,29.781289],[-98.935996,29.782866],[-98.935497,29.782935],[-98.93434,29.78172],[-98.933841,29.781789],[-98.934051,29.782774],[-98.932606,29.784402],[-98.93342,29.787542],[-98.932595,29.78754],[-98.932251,29.787879]]]}},{"type":"Feature","properties":{"PRECINCT":"203","VTD":"0203"},"geometry":{"type":"Polygon","coordinates":[[[-98.84622,29.684331],[-98.842969,29.680179],[-98.832012,29.670391],[-98.830365,29.668209],[-98.828732,29.666708],[-98.861006,29.632255],[-98.86271,29.630718],[-98.871221,29.621764],[-98.875306,29.617206],[-98.927161,29.56225],[-98.930185,29.581676],[-98.930098,29.590138],[-98.932106,29.592977],[-98.932275,29.596342],[-98.933054,29.599344],[-98.931972,29.603294],[-98.931469,29.603794],[-98.929828,29.604319],[-98.930287,29.607419],[-98.93079,29.608959],[-98.931666,29.610366],[-98.934717,29.613268],[-98.935578,29.614453],[-98.93718,29.618648],[-98.937586,29.621445],[-98.938821,29.62157],[-98.939034,29.622005],[-98.940404,29.621758],[-98.942549,29.620947],[-98.943324,29.621421],[-98.944238,29.621469],[-98.945605,29.623037],[-98.947654,29.622979],[-98.949392,29.623758],[-98.953316,29.624723],[-98.954255,29.625252],[-98.955823,29.624742],[-98.955978,29.626638],[-98.9566,29.627154],[-98.958056,29.626428],[-98.960312,29.626788],[-98.962071,29.626707],[-98.963487,29.626079],[-98.964369,29.625962],[-98.965154,29.623704],[-98.9675,29.622208],[-98.968722,29.622278],[-98.969455,29.622778],[-98.969732,29.623562],[-98.970357,29.623984],[-98.970906,29.624798],[-98.971928,29.624935],[-98.972296,29.625278],[-98.973448,29.625535],[-98.974722,29.6253],[-98.975315,29.624882],[-98.978771,29.625942],[-98.979109,29.626324],[-98.979176,29.627313],[-98.979427,29.627618],[-98.980446,29.628528],[-98.98207,29.629181],[-98.981499,29.629333],[-98.979521,29.628525],[-98.978784,29.628063],[-98.978771,29.62743],[-98.977915,29.627859],[-98.977065,29.627645],[-98.976567,29.62704],[-98.976164,29.627381],[-98.976001,29.627134],[-98.975661,29.627321],[-98.974911,29.627145],[-98.972934,29.626403],[-98.971573,29.62648],[-98.971252,29.625848],[-98.970931,29.626634],[-98.970472,29.626871],[-98.969867,29.62636],[-98.969924,29.626948],[-98.969622,29.62735],[-98.968967,29.627367],[-98.968916,29.627746],[-98.967191,29.628599],[-98.96643,29.629287],[-98.965152,29.630757],[-98.964583,29.632745],[-98.964026,29.633639],[-98.963999,29.634749],[-98.963226,29.635384],[-98.96272,29.635004],[-98.96296,29.635485],[-98.963555,29.635641],[-98.964549,29.635075],[-98.964621,29.633438],[-98.965165,29.633084],[-98.965291,29.632451],[-98.965795,29.631886],[-98.966569,29.634063],[-98.966706,29.634266],[-98.967079,29.634134],[-98.968589,29.636478],[-98.968727,29.639274],[-98.96944,29.640762],[-98.969603,29.642121],[-98.970037,29.643208],[-98.971837,29.645242],[-98.972222,29.646068],[-98.973031,29.646667],[-98.975931,29.647774],[-98.979732,29.648343],[-98.98209,29.64924],[-98.984895,29.649349],[-98.986586,29.650175],[-98.987707,29.651534],[-98.987735,29.652568],[-98.98727,29.653562],[-98.983629,29.657778],[-98.983071,29.659221],[-98.983229,29.659791],[-98.982794,29.661863],[-98.981393,29.663486],[-98.980166,29.664505],[-98.978434,29.665413],[-98.97559,29.666119],[-98.973147,29.666279],[-98.971825,29.667354],[-98.970842,29.66916],[-98.971235,29.670772],[-98.972152,29.672332],[-98.976239,29.675633],[-98.977289,29.676928],[-98.977679,29.679289],[-98.977375,29.680269],[-98.97589,29.681759],[-98.975889,29.681262],[-98.97664,29.679737],[-98.976477,29.678684],[-98.976071,29.678413],[-98.969684,29.680869],[-98.969255,29.680841],[-98.96389,29.677443],[-98.963206,29.677347],[-98.962815,29.675656],[-98.96201,29.674778],[-98.956913,29.671019],[-98.955878,29.669287],[-98.955218,29.665549],[-98.953383,29.661572],[-98.952721,29.657776],[-98.952143,29.65627],[-98.946765,29.648281],[-98.939629,29.640683],[-98.93862,29.638971],[-98.938013,29.637238],[-98.934049,29.63761],[-98.933016,29.638288],[-98.931923,29.639682],[-98.931452,29.640729],[-98.930551,29.641854],[-98.930409,29.642569],[-98.928447,29.644414],[-98.926955,29.646216],[-98.926464,29.647249],[-98.926228,29.649079],[-98.9253,29.650626],[-98.92213,29.653898],[-98.920254,29.655289],[-98.919001,29.65703],[-98.91781,29.660269],[-98.917521,29.662174],[-98.916627,29.66361],[-98.915991,29.665496],[-98.915429,29.663849],[-98.914868,29.663265],[-98.910883,29.661933],[-98.908276,29.660281],[-98.906137,29.660067],[-98.905196,29.661279],[-98.9038,29.662105],[-98.903655,29.663367],[-98.903198,29.663995],[-98.902926,29.665316],[-98.9023,29.665641],[-98.902163,29.666807],[-98.90267,29.667443],[-98.90234,29.668137],[-98.903117,29.668507],[-98.9037,29.669371],[-98.903784,29.669925],[-98.903487,29.670944],[-98.903681,29.671919],[-98.902462,29.672464],[-98.902469,29.673963],[-98.901209,29.674708],[-98.900937,29.675542],[-98.90141,29.676776],[-98.899591,29.677166],[-98.899518,29.678277],[-98.898609,29.677504],[-98.898314,29.676054],[-98.897792,29.675562],[-98.896911,29.675527],[-98.895924,29.675139],[-98.8956,29.675529],[-98.89518,29.675127],[-98.894852,29.675247],[-98.894737,29.675652],[-98.893917,29.675857],[-98.893032,29.675369],[-98.89271,29.674916],[-98.893645,29.673645],[-98.893735,29.671854],[-98.891587,29.671987],[-98.890348,29.672535],[-98.887422,29.672373],[-98.887626,29.673201],[-98.887301,29.673895],[-98.885838,29.673896],[-98.88338,29.674264],[-98.881454,29.674844],[-98.880969,29.675113],[-98.880305,29.676134],[-98.879435,29.676397],[-98.87663,29.675966],[-98.875981,29.676769],[-98.875009,29.677398],[-98.873462,29.676772],[-98.872132,29.676645],[-98.87128,29.676024],[-98.870356,29.677719],[-98.87148,29.678597],[-98.872176,29.679538],[-98.870179,29.680027],[-98.869954,29.681402],[-98.869739,29.681524],[-98.868629,29.681464],[-98.868462,29.681714],[-98.867639,29.681845],[-98.866664,29.681587],[-98.866439,29.680512],[-98.865217,29.679587],[-98.863126,29.67878],[-98.8609,29.678583],[-98.858265,29.677324],[-98.857101,29.676378],[-98.856261,29.676699],[-98.855881,29.677385],[-98.855006,29.677921],[-98.853614,29.677991],[-98.85242,29.678522],[-98.850619,29.678906],[-98.84885,29.680147],[-98.848045,29.680234],[-98.847834,29.681389],[-98.850707,29.681066],[-98.850918,29.683347],[-98.850563,29.684551],[-98.848302,29.685979],[-98.84622,29.684331]]]}},{"type":"Feature","properties":{"PRECINCT":"204","VTD":"0204"},"geometry":{"type":"Polygon","coordinates":[[[-98.96296,29.635485],[-98.9628,29.634934],[-98.963226,29.635384],[-98.963999,29.634749],[-98.964026,29.633639],[-98.964583,29.632745],[-98.965152,29.630757],[-98.965769,29.63003],[-98.967191,29.628599],[-98.968916,29.627746],[-98.968967,29.627367],[-98.969622,29.62735],[-98.969924,29.626948],[-98.969867,29.62636],[-98.970472,29.626871],[-98.970931,29.626634],[-98.971164,29.625875],[-98.971573,29.62648],[-98.972934,29.626403],[-98.974911,29.627145],[-98.975661,29.627321],[-98.976001,29.627134],[-98.976164,29.627381],[-98.976567,29.62704],[-98.977065,29.627645],[-98.977915,29.627859],[-98.978771,29.62743],[-98.978784,29.628063],[-98.979521,29.628525],[-98.981499,29.629333],[-98.98207,29.629181],[-98.980446,29.628528],[-98.979427,29.627618],[-98.979176,29.627313],[-98.979109,29.626324],[-98.978771,29.625942],[-98.975315,29.624882],[-98.974722,29.6253],[-98.973448,29.625535],[-98.972296,29.625278],[-98.971928,29.624935],[-98.970906,29.624798],[-98.970357,29.623984],[-98.969732,29.623562],[-98.969455,29.622778],[-98.968722,29.622278],[-98.9675,29.622208],[-98.965154,29.623704],[-98.964369,29.625962],[-98.963487,29.626079],[-98.962071,29.626707],[-98.960312,29.626788],[-98.958056,29.626428],[-98.9566,29.627154],[-98.955978,29.626638],[-98.955823,29.624742],[-98.954255,29.625252],[-98.953316,29.624723],[-98.949392,29.623758],[-98.947654,29.622979],[-98.945605,29.623037],[-98.944238,29.621469],[-98.943324,29.621421],[-98.942549,29.620947],[-98.940404,29.621758],[-98.939034,29.622005],[-98.938821,29.62157],[-98.937586,29.621445],[-98.93718,29.618648],[-98.935578,29.614453],[-98.934717,29.613268],[-98.931666,29.610366],[-98.93079,29.608959],[-98.930287,29.607419],[-98.929828,29.604319],[-98.931469,29.603794],[-98.931972,29.603294],[-98.933054,29.599344],[-98.932275,29.596342],[-98.932106,29.592977],[-98.930098,29.590138],[-98.930185,29.581676],[-98.927161,29.56225],[-98.929914,29.563427],[-98.931664,29.563547],[-98.933726,29.56315],[-98.935474,29.562399],[-98.939392,29.559347],[-98.941076,29.558498],[-98.943561,29.55798],[-98.94741,29.557953],[-98.957853,29.560238],[-98.960624,29.560236],[-98.962501,29.559879],[-98.964728,29.558901],[-98.966273,29.557689],[-98.96778,29.555791],[-98.968541,29.553862],[-98.969948,29.552513],[-98.971383,29.551842],[-98.973353,29.551695],[-98.975148,29.552234],[-98.977065,29.553281],[-98.979342,29.555402],[-98.981336,29.558652],[-98.98344,29.561337],[-98.985202,29.564079],[-98.985944,29.567048],[-98.985765,29.570106],[-98.984349,29.571697],[-98.981203,29.573282],[-98.979989,29.574445],[-98.979025,29.576052],[-98.978871,29.57761],[-98.979822,29.579183],[-98.980384,29.579682],[-98.982963,29.580317],[-98.984336,29.580954],[-98.986328,29.582542],[-98.987068,29.584663],[-98.986713,29.586931],[-98.986007,29.588949],[-98.984859,29.590936],[-98.981218,29.594748],[-98.978655,29.598817],[-98.977343,29.601941],[-98.976528,29.604895],[-98.975697,29.609778],[-98.976126,29.613264],[-98.977539,29.615628],[-98.979477,29.617885],[-98.98114,29.621265],[-98.983787,29.62345],[-98.985463,29.623456],[-98.98761,29.626715],[-98.98811,29.629049],[-98.987485,29.631194],[-98.988893,29.6316],[-98.987266,29.631582],[-98.98647,29.632746],[-98.986878,29.633815],[-98.988926,29.634721],[-98.989171,29.635231],[-98.986376,29.634026],[-98.986063,29.633063],[-98.9824,29.63378],[-98.97957,29.633363],[-98.978241,29.632835],[-98.977904,29.632641],[-98.978591,29.63108],[-98.981472,29.632052],[-98.98172,29.631586],[-98.981516,29.631175],[-98.978909,29.630199],[-98.978352,29.63024],[-98.977484,29.631998],[-98.976958,29.632047],[-98.976447,29.632705],[-98.976149,29.632599],[-98.976816,29.631594],[-98.976107,29.631166],[-98.975311,29.631507],[-98.975176,29.631333],[-98.975595,29.631017],[-98.975262,29.630725],[-98.973274,29.629925],[-98.97169,29.629875],[-98.969254,29.630712],[-98.971385,29.6298],[-98.973735,29.629478],[-98.974381,29.629528],[-98.977363,29.630682],[-98.977569,29.630707],[-98.97784,29.630323],[-98.978119,29.629635],[-98.977267,29.629378],[-98.976165,29.629362],[-98.973608,29.628225],[-98.972372,29.628228],[-98.96955,29.628859],[-98.967802,29.630025],[-98.966918,29.631982],[-98.967095,29.633311],[-98.967454,29.634002],[-98.966706,29.634266],[-98.965775,29.631879],[-98.965291,29.632451],[-98.965165,29.633084],[-98.964621,29.633438],[-98.964549,29.635075],[-98.963555,29.635641],[-98.96296,29.635485]]]}},{"type":"Feature","properties":{"PRECINCT":"305","VTD":"0305"},"geometry":{"type":"Polygon","coordinates":[[[-99.040737,29.800921],[-99.038454,29.798664],[-99.038127,29.797147],[-99.038638,29.795783],[-99.038992,29.792636],[-99.039497,29.791178],[-99.039207,29.788878],[-99.039479,29.786369],[-99.039341,29.785704],[-99.038849,29.785153],[-99.038452,29.784158],[-99.038616,29.78298],[-99.039304,29.781292],[-99.038756,29.77711],[-99.0394,29.775735],[-99.041475,29.773326],[-99.04215,29.77069],[-99.041892,29.769953],[-99.038972,29.768885],[-99.037529,29.767994],[-99.036457,29.76614],[-99.03659,29.764258],[-99.039283,29.761744],[-99.04171,29.762851],[-99.043489,29.762999],[-99.044447,29.762631],[-99.043653,29.759126],[-99.043509,29.756502],[-99.044442,29.754929],[-99.047658,29.753658],[-99.048648,29.752437],[-99.048661,29.751727],[-99.047879,29.750742],[-99.047337,29.749188],[-99.046997,29.748874],[-99.047274,29.748505],[-99.047735,29.746354],[-99.048189,29.745997],[-99.048876,29.745991],[-99.050742,29.746877],[-99.052217,29.746888],[-99.053617,29.746305],[-99.054184,29.745673],[-99.054178,29.744105],[-99.054664,29.743456],[-99.054576,29.74285],[-99.052672,29.73994],[-99.052471,29.739199],[-99.052673,29.738752],[-99.053593,29.73801],[-99.056999,29.736273],[-99.058126,29.736101],[-99.06061,29.73666],[-99.061227,29.735369],[-99.063322,29.735018],[-99.065633,29.733312],[-99.063257,29.73137],[-99.059863,29.73191],[-99.055509,29.731832],[-99.055505,29.732001],[-99.053656,29.7321],[-99.054476,29.730252],[-99.054085,29.729421],[-99.051262,29.727665],[-99.050757,29.727594],[-99.049736,29.728012],[-99.049067,29.727946],[-99.048601,29.727005],[-99.04729,29.726334],[-99.046376,29.726141],[-99.047662,29.724496],[-99.048904,29.723561],[-99.049799,29.723275],[-99.050883,29.72344],[-99.053228,29.724739],[-99.053549,29.725168],[-99.053674,29.726021],[-99.058214,29.730033],[-99.059433,29.730317],[-99.061221,29.730041],[-99.061423,29.72962],[-99.062361,29.729036],[-99.067521,29.723691],[-99.069061,29.722965],[-99.067793,29.72195],[-99.064788,29.720611],[-99.067589,29.718237],[-99.070619,29.721193],[-99.072881,29.719815],[-99.071794,29.720788],[-99.072179,29.720675],[-99.075764,29.717563],[-99.076112,29.715948],[-99.076911,29.715166],[-99.076664,29.714979],[-99.077727,29.713966],[-99.077674,29.713612],[-99.078259,29.713005],[-99.078574,29.713283],[-99.081274,29.711068],[-99.084181,29.712687],[-99.083268,29.71502],[-99.082834,29.715382],[-99.083579,29.716648],[-99.083332,29.718405],[-99.083542,29.718863],[-99.082619,29.720244],[-99.080004,29.722685],[-99.08,29.723007],[-99.078915,29.724615],[-99.078539,29.72619],[-99.078584,29.728306],[-99.079376,29.72993],[-99.080456,29.730452],[-99.081382,29.730581],[-99.081749,29.7316],[-99.097023,29.730906],[-99.098404,29.730744],[-99.100178,29.730019],[-99.101601,29.729974],[-99.105126,29.730476],[-99.107822,29.731423],[-99.110732,29.732791],[-99.113266,29.734527],[-99.114673,29.735147],[-99.122657,29.736225],[-99.125064,29.736803],[-99.128287,29.736737],[-99.131466,29.736991],[-99.133525,29.737481],[-99.135134,29.738336],[-99.139957,29.740105],[-99.142059,29.7412],[-99.145397,29.742092],[-99.155407,29.741344],[-99.158077,29.740221],[-99.159513,29.740083],[-99.160508,29.740257],[-99.162164,29.741123],[-99.171251,29.74721],[-99.171821,29.747793],[-99.176999,29.755813],[-99.178142,29.757079],[-99.180012,29.757784],[-99.18446,29.758553],[-99.185871,29.759649],[-99.186896,29.760934],[-99.187458,29.762182],[-99.189006,29.767361],[-99.189567,29.768074],[-99.191344,29.769329],[-99.192679,29.76975],[-99.196261,29.7692],[-99.199228,29.767647],[-99.200217,29.767401],[-99.201714,29.767699],[-99.202802,29.768345],[-99.203535,29.769367],[-99.20371,29.77055],[-99.203488,29.771436],[-99.202714,29.772776],[-99.202814,29.774353],[-99.203159,29.77486],[-99.205261,29.776424],[-99.208152,29.780287],[-99.209956,29.783176],[-99.212705,29.7858],[-99.213861,29.787675],[-99.214319,29.789486],[-99.213866,29.789695],[-99.211829,29.79303],[-99.210873,29.794158],[-99.209723,29.794949],[-99.208433,29.795467],[-99.197082,29.797475],[-99.195284,29.797224],[-99.190814,29.795578],[-99.186498,29.795425],[-99.184637,29.795944],[-99.182455,29.797186],[-99.181465,29.797488],[-99.169659,29.797832],[-99.168357,29.798068],[-99.166507,29.798934],[-99.162767,29.802084],[-99.160909,29.802829],[-99.149215,29.803114],[-99.14737,29.803574],[-99.146405,29.804062],[-99.139877,29.808888],[-99.138517,29.810368],[-99.136557,29.813243],[-99.135904,29.814273],[-99.135294,29.816108],[-99.135305,29.823697],[-99.134727,29.82511],[-99.130237,29.829906],[-99.127181,29.832482],[-99.126731,29.833091],[-99.126003,29.83457],[-99.125491,29.83711],[-99.12472,29.838557],[-99.122343,29.841102],[-99.12082,29.844215],[-99.119614,29.845465],[-99.118551,29.846123],[-99.114639,29.847264],[-99.111733,29.848984],[-99.107329,29.850756],[-99.103742,29.853566],[-99.104424,29.856111],[-99.10693,29.862556],[-99.107174,29.865842],[-99.022644,29.828216],[-99.022696,29.8276],[-99.023415,29.826579],[-99.024061,29.826361],[-99.025953,29.82416],[-99.027586,29.822875],[-99.026218,29.821068],[-99.026746,29.820327],[-99.029311,29.818416],[-99.039052,29.809783],[-99.039235,29.805884],[-99.040826,29.801631],[-99.040737,29.800921]]]}},{"type":"Feature","properties":{"PRECINCT":"306","VTD":"0306"},"geometry":{"type":"Polygon","coordinates":[[[-99.498983,29.906691],[-99.31144,29.904844],[-99.278898,29.904199],[-99.176988,29.895063],[-99.174858,29.894414],[-99.125947,29.873935],[-99.107174,29.865842],[-99.10693,29.862556],[-99.104424,29.856111],[-99.103742,29.853566],[-99.107329,29.850756],[-99.111733,29.848984],[-99.114639,29.847264],[-99.118551,29.846123],[-99.119614,29.845465],[-99.12082,29.844215],[-99.122343,29.841102],[-99.12472,29.838557],[-99.125491,29.83711],[-99.126003,29.83457],[-99.126731,29.833091],[-99.127181,29.832482],[-99.130237,29.829906],[-99.134727,29.82511],[-99.135305,29.823697],[-99.135294,29.816108],[-99.135904,29.814273],[-99.136557,29.813243],[-99.138517,29.810368],[-99.139877,29.808888],[-99.146866,29.8038],[-99.149215,29.803114],[-99.160909,29.802829],[-99.161982,29.802488],[-99.163369,29.801679],[-99.167131,29.79853],[-99.169415,29.797872],[-99.180368,29.797639],[-99.182455,29.797186],[-99.185315,29.79568],[-99.18779,29.795395],[-99.190814,29.795578],[-99.195844,29.797373],[-99.198223,29.797379],[-99.208433,29.795467],[-99.210239,29.794629],[-99.211829,29.79303],[-99.213866,29.789695],[-99.214319,29.789486],[-99.213861,29.787675],[-99.212705,29.7858],[-99.209956,29.783176],[-99.206026,29.777315],[-99.202814,29.774353],[-99.202714,29.772776],[-99.203488,29.771436],[-99.20371,29.77055],[-99.203233,29.768833],[-99.201714,29.767699],[-99.200217,29.767401],[-99.199228,29.767647],[-99.196261,29.7692],[-99.192679,29.76975],[-99.191344,29.769329],[-99.189567,29.768074],[-99.189006,29.767361],[-99.187458,29.762182],[-99.186896,29.760934],[-99.18563,29.759438],[-99.186367,29.758669],[-99.186834,29.75581],[-99.188184,29.75225],[-99.189785,29.749987],[-99.190153,29.748127],[-99.191222,29.745624],[-99.194825,29.740867],[-99.19513,29.739759],[-99.195145,29.738206],[-99.196483,29.736311],[-99.197295,29.733106],[-99.197273,29.730983],[-99.198104,29.729136],[-99.198227,29.7266],[-99.198771,29.725105],[-99.198933,29.722477],[-99.199615,29.720429],[-99.201465,29.716848],[-99.203148,29.71556],[-99.205001,29.713255],[-99.205754,29.712868],[-99.207509,29.712473],[-99.209161,29.71046],[-99.212442,29.704363],[-99.212442,29.703808],[-99.211422,29.701547],[-99.211568,29.700328],[-99.212415,29.699351],[-99.228757,29.699467],[-99.228754,29.698275],[-99.239097,29.698186],[-99.24384,29.696581],[-99.242769,29.693796],[-99.25477,29.69101],[-99.261162,29.688857],[-99.291758,29.6817],[-99.295952,29.680479],[-99.296633,29.681219],[-99.299355,29.68263],[-99.30219,29.689092],[-99.306139,29.690177],[-99.309461,29.69058],[-99.311161,29.691664],[-99.312954,29.692091],[-99.315882,29.69364],[-99.317414,29.695823],[-99.318448,29.697946],[-99.318868,29.701576],[-99.318726,29.702622],[-99.318972,29.703348],[-99.320176,29.704614],[-99.323516,29.706137],[-99.323535,29.70743],[-99.324304,29.707832],[-99.324978,29.708954],[-99.325609,29.709422],[-99.325993,29.710307],[-99.325924,29.711243],[-99.327972,29.712662],[-99.328697,29.713481],[-99.328842,29.714021],[-99.330754,29.715001],[-99.331103,29.716332],[-99.332888,29.717202],[-99.333661,29.718272],[-99.334121,29.718337],[-99.333799,29.716653],[-99.334111,29.716383],[-99.335109,29.716246],[-99.335723,29.715776],[-99.337577,29.715451],[-99.338181,29.7155],[-99.338649,29.715836],[-99.339032,29.715567],[-99.340515,29.715902],[-99.343257,29.715964],[-99.345724,29.716496],[-99.348181,29.716694],[-99.34958,29.717362],[-99.351269,29.717627],[-99.35174,29.718164],[-99.352359,29.718364],[-99.353984,29.717688],[-99.357007,29.714929],[-99.35747,29.71419],[-99.358085,29.712375],[-99.357934,29.711033],[-99.358482,29.709957],[-99.35786,29.707609],[-99.357933,29.706736],[-99.360867,29.70673],[-99.361253,29.706394],[-99.362329,29.706526],[-99.363488,29.706053],[-99.363824,29.705572],[-99.362411,29.704753],[-99.360867,29.705023],[-99.36207,29.703565],[-99.362422,29.702431],[-99.361648,29.700978],[-99.36073,29.700208],[-99.359565,29.69737],[-99.357125,29.694753],[-99.357655,29.694312],[-99.356752,29.692101],[-99.35713,29.691848],[-99.358113,29.692057],[-99.358397,29.691781],[-99.357514,29.690131],[-99.357879,29.689251],[-99.357442,29.68904],[-99.355427,29.689042],[-99.355388,29.688189],[-99.355901,29.688377],[-99.356581,29.687366],[-99.35732,29.686677],[-99.357736,29.686593],[-99.358447,29.687136],[-99.358763,29.688281],[-99.359315,29.688651],[-99.359814,29.68867],[-99.361704,29.687869],[-99.363514,29.687662],[-99.364091,29.686745],[-99.365676,29.686368],[-99.366148,29.686469],[-99.367727,29.687575],[-99.368132,29.688729],[-99.368821,29.689198],[-99.36906,29.690474],[-99.369677,29.690943],[-99.373738,29.690923],[-99.374334,29.691943],[-99.375321,29.692504],[-99.375872,29.693841],[-99.374966,29.694548],[-99.373525,29.694751],[-99.373376,29.695778],[-99.372541,29.695524],[-99.370512,29.697077],[-99.369584,29.699088],[-99.369589,29.699613],[-99.37102,29.700799],[-99.371734,29.701163],[-99.373691,29.701592],[-99.374937,29.702619],[-99.376436,29.702593],[-99.379212,29.701669],[-99.379379,29.700588],[-99.379937,29.699783],[-99.381657,29.699136],[-99.380669,29.695614],[-99.379826,29.693815],[-99.378845,29.692293],[-99.37745,29.691679],[-99.376612,29.690893],[-99.378596,29.690897],[-99.384871,29.687659],[-99.394584,29.687652],[-99.393026,29.686371],[-99.393023,29.684826],[-99.394023,29.683013],[-99.396096,29.681466],[-99.396554,29.680726],[-99.397408,29.680592],[-99.397543,29.681881],[-99.404015,29.699114],[-99.399684,29.70019],[-99.410125,29.73622],[-99.420259,29.733535],[-99.421493,29.737296],[-99.433101,29.734812],[-99.434179,29.738305],[-99.450965,29.734747],[-99.453317,29.741861],[-99.465199,29.738913],[-99.467051,29.744622],[-99.452908,29.748312],[-99.45718,29.76192],[-99.458809,29.760429],[-99.460465,29.759624],[-99.462803,29.759226],[-99.463703,29.75924],[-99.464783,29.759567],[-99.474226,29.762964],[-99.47528,29.764341],[-99.475656,29.767287],[-99.476562,29.768846],[-99.477553,29.769491],[-99.479191,29.77003],[-99.481995,29.769934],[-99.483063,29.773177],[-99.461864,29.778211],[-99.466324,29.79154],[-99.464585,29.794608],[-99.484528,29.804608],[-99.480063,29.811327],[-99.478619,29.814119],[-99.47492,29.819537],[-99.491557,29.827586],[-99.494728,29.840347],[-99.494727,29.85472],[-99.498283,29.854721],[-99.498283,29.858012],[-99.494571,29.858011],[-99.49457,29.871925],[-99.498281,29.871929],[-99.498336,29.885425],[-99.495366,29.885439],[-99.495297,29.897577],[-99.498969,29.89758],[-99.498983,29.906691]]]}},{"type":"Feature","properties":{"PRECINCT":"407","VTD":"0407"},"geometry":{"type":"Polygon","coordinates":[[[-99.159964,29.740093],[-99.158077,29.740221],[-99.155407,29.741344],[-99.145397,29.742092],[-99.142059,29.7412],[-99.139957,29.740105],[-99.135134,29.738336],[-99.133525,29.737481],[-99.131466,29.736991],[-99.128287,29.736737],[-99.125064,29.736803],[-99.122657,29.736225],[-99.114673,29.735147],[-99.113266,29.734527],[-99.110732,29.732791],[-99.107822,29.731423],[-99.105126,29.730476],[-99.101601,29.729974],[-99.100178,29.730019],[-99.098404,29.730744],[-99.097023,29.730906],[-99.081749,29.7316],[-99.081382,29.730581],[-99.080456,29.730452],[-99.079376,29.72993],[-99.078584,29.728306],[-99.078539,29.72619],[-99.078915,29.724615],[-99.08,29.723007],[-99.080004,29.722685],[-99.082619,29.720244],[-99.083542,29.718863],[-99.083332,29.718405],[-99.083579,29.716648],[-99.082834,29.715382],[-99.083268,29.71502],[-99.084181,29.712687],[-99.081274,29.711068],[-99.078574,29.713283],[-99.078259,29.713005],[-99.077674,29.713612],[-99.077727,29.713966],[-99.076664,29.714979],[-99.076911,29.715166],[-99.076112,29.715948],[-99.075764,29.717563],[-99.072179,29.720675],[-99.071794,29.720788],[-99.072881,29.719815],[-99.070619,29.721193],[-99.067589,29.718237],[-99.064788,29.720611],[-99.067793,29.72195],[-99.069061,29.722965],[-99.067521,29.723691],[-99.062361,29.729036],[-99.061423,29.72962],[-99.061221,29.730041],[-99.059433,29.730317],[-99.058214,29.730033],[-99.056122,29.728025],[-99.054152,29.726515],[-99.053512,29.725845],[-99.053518,29.725102],[-99.052818,29.724403],[-99.051703,29.723759],[-99.050285,29.723292],[-99.048904,29.723561],[-99.047662,29.724496],[-99.046397,29.726238],[-99.04457,29.726974],[-99.042771,29.726993],[-99.041321,29.726118],[-99.039966,29.723719],[-99.038837,29.720096],[-99.038657,29.718233],[-99.037825,29.715674],[-99.036263,29.71271],[-99.035211,29.711857],[-99.032917,29.711416],[-99.031202,29.711465],[-99.028686,29.712311],[-99.028203,29.712921],[-99.028145,29.71388],[-99.027171,29.714992],[-99.025381,29.71871],[-99.024541,29.719419],[-99.023272,29.719835],[-99.021761,29.718908],[-99.021449,29.719891],[-99.01997,29.719014],[-99.017056,29.716346],[-99.014134,29.715152],[-99.013381,29.715455],[-99.012301,29.716668],[-99.010879,29.719596],[-99.00977,29.719997],[-99.0088,29.718522],[-99.008763,29.717609],[-99.009091,29.716385],[-99.008846,29.715447],[-99.008909,29.714352],[-99.007983,29.713532],[-99.006773,29.713339],[-99.006288,29.713983],[-99.005414,29.714392],[-99.004083,29.715947],[-99.004137,29.717295],[-98.998012,29.723626],[-98.99625,29.72484],[-98.996347,29.725007],[-98.996832,29.724741],[-98.998372,29.725471],[-98.998312,29.726897],[-98.998855,29.727137],[-99.000331,29.728732],[-99.000889,29.728384],[-99.001511,29.729212],[-99.001031,29.730331],[-99.003247,29.731112],[-99.004473,29.732741],[-99.008812,29.731482],[-99.009577,29.731538],[-99.010585,29.732025],[-99.01114,29.7311],[-99.010674,29.729027],[-99.013162,29.728596],[-99.014379,29.729178],[-99.016731,29.729209],[-99.016643,29.731526],[-99.013993,29.733866],[-99.015622,29.734816],[-99.016432,29.735957],[-99.013856,29.73857],[-99.013626,29.738336],[-99.012887,29.738492],[-99.011333,29.739508],[-99.010971,29.739941],[-99.010903,29.741143],[-99.010208,29.741554],[-99.00813,29.741685],[-99.00735,29.741529],[-99.006914,29.742219],[-99.006679,29.743314],[-99.006791,29.745065],[-99.003053,29.744685],[-99.000735,29.744685],[-98.992012,29.745932],[-98.988939,29.744956],[-98.979806,29.742802],[-98.97138,29.739035],[-98.963944,29.737161],[-98.962818,29.736697],[-98.955599,29.730789],[-98.953682,29.730037],[-98.954878,29.72867],[-98.956802,29.727766],[-98.96008,29.725183],[-98.961975,29.724182],[-98.968753,29.719116],[-98.971586,29.718165],[-98.97353,29.718005],[-98.974047,29.717574],[-98.974821,29.71609],[-98.97559,29.715454],[-98.978366,29.715322],[-98.978908,29.713943],[-98.980002,29.712697],[-98.978227,29.709401],[-98.976542,29.70923],[-98.974866,29.708295],[-98.973649,29.708096],[-98.972715,29.707641],[-98.971214,29.706635],[-98.970869,29.705881],[-98.969155,29.704561],[-98.968745,29.703873],[-98.969236,29.702597],[-98.969734,29.702068],[-98.971485,29.701336],[-98.972147,29.701457],[-98.972739,29.701275],[-98.975366,29.6993],[-98.978087,29.695789],[-98.978578,29.694842],[-98.978817,29.693599],[-98.978369,29.691734],[-98.977581,29.690601],[-98.973295,29.687422],[-98.97235,29.685887],[-98.972607,29.684303],[-98.976412,29.681287],[-98.977375,29.680269],[-98.977679,29.679289],[-98.977289,29.676928],[-98.976239,29.675633],[-98.972152,29.672332],[-98.971235,29.670772],[-98.970842,29.66916],[-98.971825,29.667354],[-98.973147,29.666279],[-98.97559,29.666119],[-98.978434,29.665413],[-98.980166,29.664505],[-98.981393,29.663486],[-98.982794,29.661863],[-98.983229,29.659791],[-98.983071,29.659221],[-98.983629,29.657778],[-98.986261,29.654938],[-98.987148,29.656119],[-98.988295,29.656586],[-98.989977,29.6568],[-98.991193,29.658026],[-98.991005,29.659049],[-98.989178,29.659501],[-98.989046,29.66047],[-98.989495,29.662269],[-98.990144,29.662598],[-98.990654,29.662598],[-98.992222,29.661783],[-98.992581,29.662058],[-98.992701,29.662515],[-98.992664,29.664451],[-98.991475,29.665981],[-98.990517,29.666565],[-98.990322,29.667264],[-98.990842,29.672248],[-98.990748,29.673404],[-98.990024,29.675687],[-98.99063,29.676892],[-98.991266,29.677007],[-98.992041,29.676577],[-98.99245,29.675257],[-98.993117,29.674288],[-98.994975,29.673875],[-98.997477,29.674743],[-98.998617,29.673939],[-99.000205,29.674142],[-99.002612,29.673846],[-99.003639,29.673511],[-99.004471,29.672345],[-99.006683,29.670828],[-99.007263,29.670547],[-99.007439,29.670712],[-99.008725,29.670421],[-99.00916,29.6698],[-99.00938,29.669893],[-99.00882,29.670512],[-99.01062,29.669795],[-99.012811,29.669849],[-99.013398,29.670051],[-99.013297,29.67228],[-99.014049,29.672813],[-99.014941,29.674163],[-99.016064,29.674989],[-99.017487,29.675351],[-99.017973,29.676069],[-99.01883,29.676447],[-99.021641,29.679325],[-99.023939,29.679656],[-99.024858,29.678962],[-99.025494,29.678869],[-99.026086,29.679261],[-99.027464,29.681352],[-99.028335,29.682067],[-99.032261,29.682621],[-99.034335,29.68448],[-99.036789,29.68533],[-99.02613,29.694613],[-99.031537,29.699537],[-99.032768,29.704076],[-99.033807,29.706329],[-99.036246,29.705772],[-99.037273,29.705118],[-99.039655,29.704827],[-99.040116,29.70431],[-99.039662,29.703325],[-99.039725,29.70289],[-99.040929,29.701988],[-99.041061,29.701427],[-99.042001,29.700343],[-99.045838,29.699827],[-99.046034,29.7003],[-99.046992,29.699827],[-99.047168,29.699453],[-99.046784,29.698952],[-99.045442,29.698468],[-99.043967,29.697477],[-99.044112,29.696828],[-99.045102,29.695766],[-99.045905,29.695775],[-99.047049,29.697937],[-99.046617,29.6981],[-99.046593,29.698424],[-99.047566,29.698733],[-99.04784,29.699361],[-99.050954,29.69789],[-99.050021,29.696191],[-99.050648,29.695786],[-99.051122,29.695018],[-99.051935,29.69441],[-99.055168,29.693181],[-99.055564,29.693209],[-99.057332,29.694529],[-99.057043,29.695119],[-99.055978,29.695837],[-99.059259,29.696814],[-99.058873,29.686258],[-99.058712,29.673014],[-99.058875,29.671574],[-99.059366,29.670075],[-99.060194,29.66872],[-99.067333,29.660023],[-99.068201,29.658224],[-99.068458,29.656751],[-99.068424,29.653792],[-99.068604,29.654409],[-99.068287,29.646563],[-99.066935,29.635546],[-99.066812,29.623773],[-99.125313,29.624321],[-99.191512,29.625226],[-99.193665,29.625482],[-99.210446,29.625487],[-99.210759,29.626396],[-99.211776,29.626806],[-99.212842,29.628212],[-99.215079,29.62961],[-99.214963,29.630755],[-99.214248,29.63192],[-99.214343,29.633289],[-99.213821,29.633541],[-99.213335,29.633458],[-99.212396,29.634836],[-99.211459,29.635577],[-99.210268,29.635996],[-99.209661,29.636094],[-99.208402,29.635806],[-99.206481,29.634266],[-99.205177,29.633754],[-99.204379,29.633774],[-99.203803,29.632991],[-99.2015,29.631271],[-99.200484,29.631299],[-99.199604,29.630914],[-99.19922,29.630175],[-99.198126,29.629707],[-99.197801,29.628879],[-99.197278,29.628584],[-99.195324,29.628651],[-99.192451,29.629298],[-99.191167,29.629364],[-99.190411,29.630568],[-99.188113,29.631291],[-99.187621,29.63169],[-99.187139,29.632115],[-99.187089,29.6327],[-99.186655,29.633068],[-99.186041,29.633351],[-99.18468,29.63343],[-99.183643,29.633898],[-99.184925,29.636007],[-99.185687,29.638056],[-99.189259,29.640459],[-99.190187,29.641643],[-99.192307,29.642768],[-99.193243,29.643531],[-99.193514,29.644103],[-99.193691,29.645854],[-99.195741,29.647014],[-99.190671,29.646415],[-99.189211,29.646053],[-99.187282,29.646452],[-99.18617,29.646142],[-99.187637,29.648098],[-99.188871,29.648017],[-99.189296,29.648247],[-99.189821,29.650593],[-99.190379,29.651844],[-99.190354,29.653574],[-99.191,29.65565],[-99.194519,29.66167],[-99.195248,29.662288],[-99.195715,29.664429],[-99.195493,29.667788],[-99.196885,29.668316],[-99.196566,29.668715],[-99.195687,29.669022],[-99.194577,29.668856],[-99.194674,29.669047],[-99.193767,29.670581],[-99.193477,29.671665],[-99.193849,29.673024],[-99.192885,29.675018],[-99.190281,29.677958],[-99.187843,29.679528],[-99.18707,29.68031],[-99.186732,29.681022],[-99.18603,29.681395],[-99.185976,29.681698],[-99.186496,29.682609],[-99.191457,29.682947],[-99.194429,29.682705],[-99.196354,29.682166],[-99.200771,29.680289],[-99.209121,29.678457],[-99.214083,29.676756],[-99.217995,29.676407],[-99.217652,29.678845],[-99.217616,29.684082],[-99.216334,29.686898],[-99.215643,29.689877],[-99.215466,29.691782],[-99.215956,29.693164],[-99.213475,29.695846],[-99.214132,29.697101],[-99.213948,29.697956],[-99.211968,29.69979],[-99.211497,29.70057],[-99.211457,29.701874],[-99.212479,29.703941],[-99.212313,29.704742],[-99.209161,29.71046],[-99.207597,29.712389],[-99.205118,29.713158],[-99.203307,29.71539],[-99.201528,29.716785],[-99.200837,29.717792],[-99.198981,29.722247],[-99.198771,29.725105],[-99.198227,29.7266],[-99.198104,29.729136],[-99.197273,29.730983],[-99.197333,29.732747],[-99.197037,29.73432],[-99.196405,29.736485],[-99.195145,29.738206],[-99.194931,29.740627],[-99.191271,29.745524],[-99.190153,29.748127],[-99.189748,29.750071],[-99.188104,29.752426],[-99.186815,29.755878],[-99.186411,29.758554],[-99.185741,29.759379],[-99.183728,29.758329],[-99.182071,29.758256],[-99.178831,29.757463],[-99.178142,29.757079],[-99.176999,29.755813],[-99.171821,29.747793],[-99.171251,29.74721],[-99.162164,29.741123],[-99.159964,29.740093]]]}},{"type":"Feature","properties":{"PRECINCT":"408","VTD":"0408"},"geometry":{"type":"Polygon","coordinates":[[[-99.434179,29.738305],[-99.433101,29.734812],[-99.421493,29.737296],[-99.420259,29.733535],[-99.410125,29.73622],[-99.399684,29.70019],[-99.404015,29.699114],[-99.397543,29.681881],[-99.397408,29.680592],[-99.396554,29.680726],[-99.396096,29.681466],[-99.394023,29.683013],[-99.393023,29.684826],[-99.393026,29.686371],[-99.394584,29.687652],[-99.384871,29.687659],[-99.378596,29.690897],[-99.376612,29.690893],[-99.37745,29.691679],[-99.378845,29.692293],[-99.379826,29.693815],[-99.380669,29.695614],[-99.381657,29.699136],[-99.379937,29.699783],[-99.379379,29.700588],[-99.379212,29.701669],[-99.376436,29.702593],[-99.374937,29.702619],[-99.373691,29.701592],[-99.371734,29.701163],[-99.37102,29.700799],[-99.369589,29.699613],[-99.369584,29.699088],[-99.370512,29.697077],[-99.372541,29.695524],[-99.373376,29.695778],[-99.373525,29.694751],[-99.374966,29.694548],[-99.375872,29.693841],[-99.375321,29.692504],[-99.374334,29.691943],[-99.373738,29.690923],[-99.369677,29.690943],[-99.36906,29.690474],[-99.368821,29.689198],[-99.368132,29.688729],[-99.367727,29.687575],[-99.366148,29.686469],[-99.365676,29.686368],[-99.364091,29.686745],[-99.363514,29.687662],[-99.361704,29.687869],[-99.359814,29.68867],[-99.359315,29.688651],[-99.358763,29.688281],[-99.358447,29.687136],[-99.357736,29.686593],[-99.35732,29.686677],[-99.356581,29.687366],[-99.355901,29.688377],[-99.355388,29.688189],[-99.355427,29.689042],[-99.357442,29.68904],[-99.357879,29.689251],[-99.357514,29.690131],[-99.358397,29.691781],[-99.358113,29.692057],[-99.35713,29.691848],[-99.356752,29.692101],[-99.357655,29.694312],[-99.357125,29.694753],[-99.359565,29.69737],[-99.36073,29.700208],[-99.361648,29.700978],[-99.362422,29.702431],[-99.36207,29.703565],[-99.360867,29.705023],[-99.362411,29.704753],[-99.363824,29.705572],[-99.363488,29.706053],[-99.362329,29.706526],[-99.361253,29.706394],[-99.360867,29.70673],[-99.357933,29.706736],[-99.35786,29.707609],[-99.358482,29.709957],[-99.357934,29.711033],[-99.358085,29.712375],[-99.35747,29.71419],[-99.357007,29.714929],[-99.353984,29.717688],[-99.352359,29.718364],[-99.35174,29.718164],[-99.351269,29.717627],[-99.34958,29.717362],[-99.348181,29.716694],[-99.345724,29.716496],[-99.343257,29.715964],[-99.340515,29.715902],[-99.339032,29.715567],[-99.338649,29.715836],[-99.338181,29.7155],[-99.337577,29.715451],[-99.335723,29.715776],[-99.335109,29.716246],[-99.334111,29.716383],[-99.333799,29.716653],[-99.334121,29.718337],[-99.333661,29.718272],[-99.332888,29.717202],[-99.331103,29.716332],[-99.330754,29.715001],[-99.328842,29.714021],[-99.328697,29.713481],[-99.327972,29.712662],[-99.325924,29.711243],[-99.325993,29.710307],[-99.325609,29.709422],[-99.324978,29.708954],[-99.324304,29.707832],[-99.323535,29.70743],[-99.323516,29.706137],[-99.320176,29.704614],[-99.318972,29.703348],[-99.318726,29.702622],[-99.318868,29.701576],[-99.318448,29.697946],[-99.317414,29.695823],[-99.315882,29.69364],[-99.312954,29.692091],[-99.311161,29.691664],[-99.309461,29.69058],[-99.306139,29.690177],[-99.30219,29.689092],[-99.299355,29.68263],[-99.296633,29.681219],[-99.295952,29.680479],[-99.291758,29.6817],[-99.261162,29.688857],[-99.25477,29.69101],[-99.242769,29.693796],[-99.24384,29.696581],[-99.239097,29.698186],[-99.228754,29.698275],[-99.228757,29.699467],[-99.212415,29.699351],[-99.213948,29.697956],[-99.214117,29.697487],[-99.214132,29.697101],[-99.213475,29.695846],[-99.215956,29.693164],[-99.215466,29.691782],[-99.215643,29.689877],[-99.216334,29.686898],[-99.217616,29.684082],[-99.217652,29.678845],[-99.217995,29.676407],[-99.214083,29.676756],[-99.209121,29.678457],[-99.200771,29.680289],[-99.196354,29.682166],[-99.194429,29.682705],[-99.191457,29.682947],[-99.186496,29.682609],[-99.185976,29.681698],[-99.18603,29.681395],[-99.186732,29.681022],[-99.18707,29.68031],[-99.187843,29.679528],[-99.190281,29.677958],[-99.191221,29.677042],[-99.191772,29.676098],[-99.192446,29.675721],[-99.193849,29.673024],[-99.193477,29.671665],[-99.193767,29.670581],[-99.194674,29.669047],[-99.194577,29.668856],[-99.195687,29.669022],[-99.196566,29.668715],[-99.196885,29.668316],[-99.195493,29.667788],[-99.195715,29.664429],[-99.195248,29.662288],[-99.194519,29.66167],[-99.191,29.65565],[-99.190354,29.653574],[-99.190379,29.651844],[-99.189821,29.650593],[-99.189296,29.648247],[-99.188871,29.648017],[-99.187637,29.648098],[-99.18617,29.646142],[-99.187282,29.646452],[-99.189211,29.646053],[-99.190671,29.646415],[-99.195741,29.647014],[-99.193691,29.645854],[-99.193514,29.644103],[-99.193243,29.643531],[-99.192307,29.642768],[-99.190187,29.641643],[-99.189259,29.640459],[-99.185687,29.638056],[-99.184925,29.636007],[-99.183643,29.633898],[-99.18468,29.63343],[-99.186041,29.633351],[-99.186655,29.633068],[-99.187089,29.6327],[-99.187139,29.632115],[-99.187621,29.63169],[-99.188113,29.631291],[-99.190411,29.630568],[-99.191167,29.629364],[-99.192451,29.629298],[-99.195324,29.628651],[-99.197278,29.628584],[-99.197801,29.628879],[-99.198126,29.629707],[-99.19922,29.630175],[-99.199604,29.630914],[-99.200484,29.631299],[-99.2015,29.631271],[-99.203803,29.632991],[-99.204379,29.633774],[-99.205177,29.633754],[-99.206481,29.634266],[-99.208402,29.635806],[-99.209661,29.636094],[-99.210268,29.635996],[-99.211459,29.635577],[-99.212396,29.634836],[-99.213335,29.633458],[-99.213821,29.633541],[-99.214343,29.633289],[-99.214248,29.63192],[-99.214963,29.630755],[-99.215079,29.62961],[-99.212842,29.628212],[-99.211776,29.626806],[-99.210759,29.626396],[-99.210446,29.625487],[-99.22586,29.625702],[-99.250317,29.625558],[-99.273876,29.625838],[-99.313503,29.626772],[-99.334571,29.626833],[-99.359579,29.627341],[-99.404947,29.627538],[-99.406032,29.628897],[-99.409171,29.631307],[-99.410262,29.633925],[-99.410913,29.634668],[-99.414291,29.635706],[-99.415881,29.636534],[-99.415907,29.636728],[-99.41428,29.637498],[-99.414097,29.638323],[-99.415425,29.641415],[-99.415715,29.642582],[-99.415671,29.644023],[-99.417131,29.64832],[-99.417722,29.6521],[-99.420405,29.656171],[-99.42048,29.65687],[-99.421418,29.658697],[-99.422968,29.660667],[-99.423068,29.661228],[-99.422344,29.662972],[-99.422526,29.664127],[-99.423471,29.665486],[-99.424442,29.66585],[-99.4237,29.667472],[-99.423894,29.668211],[-99.423525,29.671224],[-99.422603,29.673872],[-99.425115,29.675059],[-99.426254,29.675949],[-99.4268,29.678305],[-99.428176,29.680018],[-99.429686,29.681254],[-99.430666,29.683164],[-99.431427,29.686167],[-99.431282,29.688101],[-99.43153,29.689903],[-99.433172,29.691041],[-99.43388,29.692404],[-99.435467,29.694305],[-99.438353,29.69694],[-99.440406,29.704492],[-99.441386,29.705565],[-99.442407,29.706169],[-99.44257,29.706534],[-99.442416,29.708275],[-99.442597,29.709791],[-99.443399,29.709693],[-99.450965,29.734747],[-99.434179,29.738305]]]}},{"type":"Feature","properties":{"PRECINCT":"409","VTD":"0409"},"geometry":{"type":"Polygon","coordinates":[[[-99.033807,29.706329],[-99.032768,29.704076],[-99.031537,29.699537],[-99.02613,29.694613],[-99.036789,29.68533],[-99.034335,29.68448],[-99.032261,29.682621],[-99.028335,29.682067],[-99.027464,29.681352],[-99.026086,29.679261],[-99.025494,29.678869],[-99.024858,29.678962],[-99.023939,29.679656],[-99.021641,29.679325],[-99.01883,29.676447],[-99.017973,29.676069],[-99.017487,29.675351],[-99.016064,29.674989],[-99.014941,29.674163],[-99.014049,29.672813],[-99.013297,29.67228],[-99.013398,29.670051],[-99.012811,29.669849],[-99.01062,29.669795],[-99.00882,29.670512],[-99.00938,29.669893],[-99.00916,29.6698],[-99.008725,29.670421],[-99.007439,29.670712],[-99.007263,29.670547],[-99.006683,29.670828],[-99.004471,29.672345],[-99.003639,29.673511],[-99.002612,29.673846],[-99.000205,29.674142],[-98.998617,29.673939],[-98.997477,29.674743],[-98.994975,29.673875],[-98.993117,29.674288],[-98.99245,29.675257],[-98.992041,29.676577],[-98.991266,29.677007],[-98.99063,29.676892],[-98.990024,29.675687],[-98.990748,29.673404],[-98.990842,29.672248],[-98.990322,29.667264],[-98.990517,29.666565],[-98.991475,29.665981],[-98.992664,29.664451],[-98.992827,29.663169],[-98.992581,29.662058],[-98.992222,29.661783],[-98.990654,29.662598],[-98.990144,29.662598],[-98.989495,29.662269],[-98.989034,29.660096],[-98.989254,29.659369],[-98.990293,29.659319],[-98.991099,29.658978],[-98.991193,29.658026],[-98.989977,29.6568],[-98.988295,29.656586],[-98.987148,29.656119],[-98.986261,29.654938],[-98.987522,29.653109],[-98.987785,29.651886],[-98.987437,29.65105],[-98.986586,29.650175],[-98.984895,29.649349],[-98.98209,29.64924],[-98.979732,29.648343],[-98.975931,29.647774],[-98.973031,29.646667],[-98.972222,29.646068],[-98.971837,29.645242],[-98.970037,29.643208],[-98.969603,29.642121],[-98.96944,29.640762],[-98.968727,29.639274],[-98.968589,29.636478],[-98.967079,29.634134],[-98.967454,29.634002],[-98.967095,29.633311],[-98.966918,29.631982],[-98.967802,29.630025],[-98.968285,29.629569],[-98.96955,29.628859],[-98.970996,29.628465],[-98.973608,29.628225],[-98.976165,29.629362],[-98.977267,29.629378],[-98.978119,29.629635],[-98.977569,29.630707],[-98.97414,29.62946],[-98.971385,29.6298],[-98.969254,29.630712],[-98.97169,29.629875],[-98.973274,29.629925],[-98.975262,29.630725],[-98.975595,29.631017],[-98.975176,29.631333],[-98.975311,29.631507],[-98.976107,29.631166],[-98.976816,29.631594],[-98.976149,29.632599],[-98.976447,29.632705],[-98.976958,29.632047],[-98.977484,29.631998],[-98.978352,29.63024],[-98.978909,29.630199],[-98.981516,29.631175],[-98.98172,29.631586],[-98.981472,29.632052],[-98.978591,29.63108],[-98.977904,29.632641],[-98.978241,29.632835],[-98.97957,29.633363],[-98.9824,29.63378],[-98.986063,29.633063],[-98.986376,29.634026],[-98.988179,29.634675],[-98.989097,29.635316],[-98.988926,29.634721],[-98.986878,29.633815],[-98.98667,29.633466],[-98.98647,29.632746],[-98.987266,29.631582],[-98.988893,29.6316],[-98.987485,29.631194],[-98.988053,29.629467],[-98.988034,29.628195],[-98.987402,29.626324],[-98.985463,29.623456],[-98.9937,29.623522],[-99.000309,29.623224],[-99.066812,29.623773],[-99.066935,29.635546],[-99.068287,29.646563],[-99.068604,29.654409],[-99.068424,29.653792],[-99.068458,29.656751],[-99.068201,29.658224],[-99.067333,29.660023],[-99.060194,29.66872],[-99.059366,29.670075],[-99.058875,29.671574],[-99.058712,29.673014],[-99.058873,29.686258],[-99.059259,29.696814],[-99.055978,29.695837],[-99.057043,29.695119],[-99.057332,29.694529],[-99.055564,29.693209],[-99.055168,29.693181],[-99.051935,29.69441],[-99.051122,29.695018],[-99.050648,29.695786],[-99.050021,29.696191],[-99.050954,29.69789],[-99.04784,29.699361],[-99.047566,29.698733],[-99.046593,29.698424],[-99.046617,29.6981],[-99.047049,29.697937],[-99.045905,29.695775],[-99.045102,29.695766],[-99.044112,29.696828],[-99.043967,29.697477],[-99.045442,29.698468],[-99.046784,29.698952],[-99.047168,29.699453],[-99.046891,29.69992],[-99.046034,29.7003],[-99.045838,29.699827],[-99.042719,29.70014],[-99.041881,29.700415],[-99.041061,29.701427],[-99.040929,29.701988],[-99.039725,29.70289],[-99.039662,29.703325],[-99.040116,29.70431],[-99.039592,29.70486],[-99.037273,29.705118],[-99.036246,29.705772],[-99.033807,29.706329]]]}},{"type":"Feature","properties":{"PRECINCT":"410","VTD":"0410"},"geometry":{"type":"Polygon","coordinates":[[[-99.498983,29.906691],[-99.498969,29.89758],[-99.495297,29.897577],[-99.495366,29.885439],[-99.498336,29.885425],[-99.498281,29.871929],[-99.49457,29.871925],[-99.494571,29.858011],[-99.498283,29.858012],[-99.498283,29.854721],[-99.494727,29.85472],[-99.494728,29.840347],[-99.491557,29.827586],[-99.47492,29.819537],[-99.478619,29.814119],[-99.480063,29.811327],[-99.484528,29.804608],[-99.464585,29.794608],[-99.466324,29.79154],[-99.461864,29.778211],[-99.483063,29.773177],[-99.481995,29.769934],[-99.479191,29.77003],[-99.477553,29.769491],[-99.476562,29.768846],[-99.475656,29.767287],[-99.47528,29.764341],[-99.474226,29.762964],[-99.464783,29.759567],[-99.463703,29.75924],[-99.462803,29.759226],[-99.460465,29.759624],[-99.458809,29.760429],[-99.45718,29.76192],[-99.452908,29.748312],[-99.467051,29.744622],[-99.465199,29.738913],[-99.453317,29.741861],[-99.443399,29.709693],[-99.442597,29.709791],[-99.442416,29.708275],[-99.44257,29.706534],[-99.442407,29.706169],[-99.441386,29.705565],[-99.440406,29.704492],[-99.438353,29.69694],[-99.435467,29.694305],[-99.43388,29.692404],[-99.433172,29.691041],[-99.43153,29.689903],[-99.431282,29.688101],[-99.431427,29.686167],[-99.430666,29.683164],[-99.429686,29.681254],[-99.428176,29.680018],[-99.4268,29.678305],[-99.426254,29.675949],[-99.425115,29.675059],[-99.422603,29.673872],[-99.423525,29.671224],[-99.423894,29.668211],[-99.4237,29.667472],[-99.424442,29.66585],[-99.423471,29.665486],[-99.422526,29.664127],[-99.422344,29.662972],[-99.423068,29.661228],[-99.422968,29.660667],[-99.421418,29.658697],[-99.42048,29.65687],[-99.420405,29.656171],[-99.417722,29.6521],[-99.417131,29.64832],[-99.415671,29.644023],[-99.415715,29.642582],[-99.415425,29.641415],[-99.414097,29.638323],[-99.41428,29.637498],[-99.415907,29.636728],[-99.415881,29.636534],[-99.414291,29.635706],[-99.410913,29.634668],[-99.410262,29.633925],[-99.409171,29.631307],[-99.406032,29.628897],[-99.404947,29.627538],[-99.490464,29.627691],[-99.60313,29.627181],[-99.603323,29.742889],[-99.603042,29.750223],[-99.602712,29.848624],[-99.602776,29.907679],[-99.498983,29.906691]]]}}]}