{"type":"FeatureCollection","features":[{"type":"Feature","properties":{"PRECINCT":"fort-bend:2016","COUNTY":"Fort Bend"},"geometry":{"type":"Polygon","coordinates":[[[-95.60539,29.64599],[-95.60775,29.64548],[-95.60924,29.64566],[-95.6111,29.64628],[-95.61278,29.64746],[-95.6135,29.64845],[-95.61504,29.64985],[-95.61655,29.65059],[-95.619,29.65106],[-95.6192,29.66199],[-95.59784,29.6606],[-95.59781,29.64819],[-95.60304,29.64711],[-95.60539,29.64599]]]}},{"type":"Feature","properties":{"PRECINCT":"fort-bend:2022","COUNTY":"Fort Bend"},"geometry":{"type":"Polygon","coordinates":[[[-95.597,29.66078],[-95.5885,29.65693],[-95.58313,29.65413],[-95.57127,29.64871],[-95.57674,29.64363],[-95.58026,29.6455],[-95.58204,29.64591],[-95.58397,29.64726],[-95.59782,29.64681],[-95.59784,29.6606],[-95.5971,29.66047],[-95.597,29.66078]]]}},{"type":"Feature","properties":{"PRECINCT":"fort-bend:2043","COUNTY":"Fort Bend"},"geometry":{"type":"Polygon","coordinates":[[[-95.59707,29.66057],[-95.623,29.6622],[-95.62323,29.67354],[-95.62185,29.67357],[-95.60992,29.66693],[-95.597,29.66078],[-95.59707,29.66057]]]}},{"type":"Feature","properties":{"PRECINCT":"fort-bend:2066","COUNTY":"Fort Bend"},"geometry":{"type":"Polygon","coordinates":[[[-95.65218,29.68955],[-95.65222,29.68644],[-95.65609,29.68627],[-95.65597,29.67999],[-95.66418,29.67985],[-95.67131,29.68208],[-95.67233,29.68175],[-95.67295,29.68103],[-95.67371,29.68064],[-95.68005,29.68038],[-95.68015,29.68226],[-95.68056,29.68294],[-95.68163,29.6834],[-95.68656,29.68349],[-95.6875,29.6841],[-95.68787,29.68521],[-95.68786,29.68589],[-95.68699,29.68547],[-95.6853,29.6851],[-95.6844,29.68551],[-95.68146,29.68783],[-95.67926,29.6884],[-95.67422,29.68872],[-95.65707,29.68894],[-95.65257,29.68955],[-95.65218,29.68955]]]}},{"type":"Feature","properties":{"PRECINCT":"fort-bend:2096","COUNTY":"Fort Bend"},"geometry":{"type":"Polygon","coordinates":[[[-95.57674,29.64363],[-95.59246,29.62898],[-95.59271,29.62904],[-95.59269,29.62926],[-95.58979,29.63176],[-95.59139,29.63307],[-95.59778,29.63302],[-95.59782,29.64681],[-95.58397,29.64726],[-95.58204,29.64591],[-95.58026,29.6455],[-95.57674,29.64363]]]}},{"type":"Feature","properties":{"PRECINCT":"fort-bend:2099","COUNTY":"Fort Bend"},"geometry":{"type":"Polygon","coordinates":[[[-95.63467,29.68072],[-95.62185,29.67357],[-95.62323,29.67354],[-95.6234,29.67186],[-95.63406,29.67161],[-95.63408,29.67332],[-95.63722,29.67325],[-95.6377,29.67272],[-95.63893,29.67324],[-95.64105,29.67326],[-95.64109,29.67249],[-95.64329,29.67242],[-95.6434,29.67725],[-95.64526,29.67711],[-95.64524,29.67793],[-95.64698,29.67827],[-95.65324,29.67812],[-95.65597,29.67999],[-95.65609,29.68627],[-95.65218,29.68648],[-95.65219,29.69096],[-95.63467,29.68072]]]}},{"type":"Feature","properties":{"PRECINCT":"fort-bend:2100","COUNTY":"Fort Bend"},"geometry":{"type":"Polygon","coordinates":[[[-95.67084,29.70097],[-95.65426,29.69166],[-95.65219,29.69096],[-95.65218,29.68955],[-95.65707,29.68894],[-95.67148,29.68876],[-95.67171,29.69098],[-95.6735,29.69096],[-95.67363,29.69659],[-95.67274,29.69658],[-95.67283,29.69732],[-95.6707,29.69756],[-95.67084,29.70097]]]}},{"type":"Feature","properties":{"PRECINCT":"fort-bend:2101","COUNTY":"Fort Bend"},"geometry":{"type":"Polygon","coordinates":[[[-95.67274,29.69658],[-95.67363,29.69659],[-95.67355,29.69114],[-95.6735,29.69096],[-95.67171,29.69098],[-95.67148,29.68876],[-95.67464,29.68871],[-95.68039,29.6882],[-95.68146,29.68783],[-95.6844,29.68551],[-95.6853,29.6851],[-95.68699,29.68547],[-95.68786,29.68589],[-95.68814,29.70508],[-95.68794,29.70943],[-95.68708,29.71008],[-95.67084,29.70097],[-95.6707,29.69756],[-95.67283,29.69732],[-95.67274,29.69658]]]}},{"type":"Feature","properties":{"PRECINCT":"fort-bend:2106","COUNTY":"Fort Bend"},"geometry":{"type":"Polygon","coordinates":[[[-95.71514,29.68339],[-95.71546,29.70539],[-95.69217,29.7073],[-95.69071,29.70779],[-95.68794,29.70943],[-95.68814,29.70508],[-95.68788,29.6841],[-95.70572,29.68393],[-95.71514,29.68339]]]}},{"type":"Feature","properties":{"PRECINCT":"fort-bend:3009","COUNTY":"Fort Bend"},"geometry":{"type":"Polygon","coordinates":[[[-95.59139,29.63307],[-95.58979,29.63176],[-95.59269,29.62926],[-95.59271,29.62904],[-95.59246,29.62898],[-95.59034,29.63096],[-95.5905,29.62895],[-95.5903,29.62415],[-95.58949,29.62414],[-95.58936,29.62374],[-95.58869,29.62391],[-95.58656,29.62193],[-95.58651,29.6236],[-95.58262,29.62383],[-95.58247,29.60832],[-95.58242,29.60647],[-95.58222,29.60622],[-95.59163,29.60724],[-95.59217,29.6071],[-95.59233,29.60763],[-95.59291,29.60809],[-95.5936,29.60826],[-95.5947,29.60801],[-95.59602,29.60492],[-95.59746,29.60381],[-95.60068,29.60318],[-95.60124,29.60326],[-95.60337,29.60504],[-95.60445,29.60565],[-95.60674,29.60594],[-95.60789,29.60559],[-95.60994,29.60355],[-95.61373,29.6072],[-95.61188,29.60895],[-95.60713,29.61453],[-95.60459,29.61864],[-95.60307,29.62044],[-95.6018,29.62164],[-95.59649,29.62528],[-95.59308,29.62841],[-95.59466,29.62811],[-95.59471,29.63233],[-95.5978,29.63249],[-95.59778,29.63302],[-95.59139,29.63307]]]}},{"type":"Feature","properties":{"PRECINCT":"fort-bend:3032","COUNTY":"Fort Bend"},"geometry":{"type":"Polygon","coordinates":[[[-95.65324,29.67812],[-95.64723,29.67829],[-95.64541,29.678],[-95.64517,29.67785],[-95.64526,29.67711],[-95.6434,29.67725],[-95.64329,29.67242],[-95.64109,29.67249],[-95.64105,29.67326],[-95.63893,29.67324],[-95.6377,29.67272],[-95.63722,29.67325],[-95.63408,29.67332],[-95.63406,29.67161],[-95.62859,29.67172],[-95.62855,29.66894],[-95.63049,29.66614],[-95.63433,29.66593],[-95.63421,29.6624],[-95.63968,29.66228],[-95.63979,29.66842],[-95.65234,29.66827],[-95.65766,29.66865],[-95.65597,29.67999],[-95.65324,29.67812]]]}},{"type":"Feature","properties":{"PRECINCT":"fort-bend:3053","COUNTY":"Fort Bend"},"geometry":{"type":"Polygon","coordinates":[[[-95.60924,29.64566],[-95.60775,29.64548],[-95.60614,29.64578],[-95.60304,29.64711],[-95.59781,29.64819],[-95.59781,29.63177],[-95.6032,29.63182],[-95.60311,29.62734],[-95.60331,29.62697],[-95.60492,29.62583],[-95.61874,29.62304],[-95.61895,29.62368],[-95.61866,29.62478],[-95.61861,29.62779],[-95.619,29.65106],[-95.61731,29.6508],[-95.61561,29.65019],[-95.61457,29.6495],[-95.61207,29.64685],[-95.6111,29.64628],[-95.60924,29.64566]]]}},{"type":"Feature","properties":{"PRECINCT":"fort-bend:3069","COUNTY":"Fort Bend"},"geometry":{"type":"Polygon","coordinates":[[[-95.58257,29.62756],[-95.58262,29.62383],[-95.58651,29.6236],[-95.58656,29.62193],[-95.58869,29.62391],[-95.58936,29.62374],[-95.58949,29.62414],[-95.5903,29.62415],[-95.59049,29.62872],[-95.58738,29.6287],[-95.58445,29.62818],[-95.58257,29.62756]]]}},{"type":"Feature","properties":{"PRECINCT":"fort-bend:3083","COUNTY":"Fort Bend"},"geometry":{"type":"Polygon","coordinates":[[[-95.74046,29.68892],[-95.73923,29.68442],[-95.74265,29.6848],[-95.75319,29.68489],[-95.76282,29.68528],[-95.76263,29.67915],[-95.76536,29.68093],[-95.76677,29.68269],[-95.76721,29.68407],[-95.76762,29.68746],[-95.76816,29.68917],[-95.76936,29.69112],[-95.77215,29.69387],[-95.77464,29.69724],[-95.77529,29.69883],[-95.77548,29.70074],[-95.77124,29.70083],[-95.74286,29.70315],[-95.74246,29.69971],[-95.74131,29.69664],[-95.74116,29.69363],[-95.74046,29.68892]]]}},{"type":"Feature","properties":{"PRECINCT":"fort-bend:3098","COUNTY":"Fort Bend"},"geometry":{"type":"Polygon","coordinates":[[[-95.62332,29.67197],[-95.623,29.6622],[-95.6192,29.66199],[-95.61897,29.64928],[-95.62492,29.6492],[-95.62498,29.64654],[-95.62725,29.64605],[-95.62749,29.64806],[-95.62631,29.64831],[-95.62631,29.64977],[-95.62814,29.64972],[-95.62818,29.65112],[-95.63147,29.65114],[-95.63158,29.65692],[-95.63954,29.65687],[-95.63968,29.66228],[-95.63421,29.6624],[-95.63433,29.66593],[-95.63093,29.66601],[-95.63032,29.66626],[-95.62852,29.66901],[-95.62859,29.67172],[-95.62352,29.67182],[-95.62332,29.67197]]]}},{"type":"Feature","properties":{"PRECINCT":"fort-bend:3113","COUNTY":"Fort Bend"},"geometry":{"type":"Polygon","coordinates":[[[-95.68656,29.68349],[-95.68108,29.68325],[-95.68056,29.68294],[-95.68015,29.68226],[-95.68005,29.68038],[-95.67371,29.68064],[-95.67295,29.68103],[-95.67233,29.68175],[-95.67131,29.68208],[-95.66418,29.67985],[-95.65597,29.67999],[-95.65766,29.66865],[-95.66288,29.66816],[-95.66744,29.6681],[-95.66799,29.66756],[-95.67383,29.66746],[-95.67493,29.66755],[-95.67505,29.66928],[-95.67536,29.66943],[-95.6798,29.66936],[-95.67964,29.6684],[-95.67982,29.66838],[-95.69695,29.66828],[-95.69721,29.66794],[-95.69708,29.66147],[-95.69727,29.66117],[-95.71488,29.66093],[-95.71527,29.68338],[-95.70572,29.68393],[-95.68788,29.6841],[-95.68787,29.68521],[-95.6875,29.6841],[-95.68656,29.68349]]]}},{"type":"Feature","properties":{"PRECINCT":"fort-bend:3150","COUNTY":"Fort Bend"},"geometry":{"type":"Polygon","coordinates":[[[-95.71546,29.70539],[-95.71499,29.66505],[-95.71962,29.66495],[-95.72069,29.67872],[-95.71803,29.67864],[-95.71805,29.67915],[-95.72049,29.67927],[-95.72062,29.67982],[-95.72026,29.68012],[-95.72087,29.68217],[-95.71961,29.68241],[-95.71964,29.68311],[-95.72565,29.6828],[-95.73923,29.68442],[-95.74046,29.68892],[-95.74116,29.69363],[-95.74131,29.69664],[-95.74246,29.69971],[-95.74286,29.70315],[-95.71546,29.70539]]]}},{"type":"Feature","properties":{"PRECINCT":"fort-bend:4020","COUNTY":"Fort Bend"},"geometry":{"type":"Polygon","coordinates":[[[-95.61897,29.64928],[-95.6188,29.63679],[-95.62651,29.63529],[-95.6271,29.63459],[-95.62715,29.63743],[-95.62817,29.63758],[-95.62852,29.63893],[-95.63108,29.63847],[-95.63256,29.6387],[-95.63628,29.63803],[-95.63703,29.64188],[-95.63737,29.64242],[-95.63887,29.64362],[-95.63921,29.64449],[-95.63928,29.6465],[-95.6359,29.64657],[-95.63522,29.64622],[-95.6351,29.64452],[-95.62498,29.64654],[-95.62499,29.64912],[-95.62483,29.64922],[-95.61897,29.64928]]]}},{"type":"Feature","properties":{"PRECINCT":"fort-bend:4027","COUNTY":"Fort Bend"},"geometry":{"type":"Polygon","coordinates":[[[-95.59778,29.62728],[-95.60492,29.62583],[-95.60331,29.62697],[-95.60311,29.62734],[-95.6032,29.63182],[-95.59781,29.63177],[-95.59778,29.62728]]]}},{"type":"Feature","properties":{"PRECINCT":"fort-bend:4029","COUNTY":"Fort Bend"},"geometry":{"type":"Polygon","coordinates":[[[-95.6188,29.63679],[-95.61865,29.62507],[-95.61895,29.62368],[-95.61874,29.62304],[-95.63382,29.62014],[-95.63442,29.6215],[-95.63439,29.62239],[-95.63469,29.62269],[-95.63446,29.62761],[-95.63546,29.62954],[-95.63481,29.63011],[-95.6364,29.63144],[-95.63418,29.63302],[-95.6271,29.63459],[-95.62651,29.63529],[-95.6188,29.63679]]]}},{"type":"Feature","properties":{"PRECINCT":"fort-bend:4035","COUNTY":"Fort Bend"},"geometry":{"type":"Polygon","coordinates":[[[-95.63158,29.65692],[-95.63147,29.65114],[-95.62818,29.65112],[-95.62814,29.64972],[-95.62631,29.64977],[-95.62631,29.64831],[-95.62749,29.64806],[-95.62725,29.64605],[-95.6351,29.64452],[-95.63522,29.64622],[-95.6359,29.64657],[-95.63928,29.6465],[-95.63954,29.65687],[-95.63158,29.65692]]]}},{"type":"Feature","properties":{"PRECINCT":"fort-bend:4039","COUNTY":"Fort Bend"},"geometry":{"type":"Polygon","coordinates":[[[-95.69628,29.5971],[-95.69663,29.59589],[-95.69634,29.5959],[-95.69465,29.59615],[-95.69442,29.59429],[-95.69321,29.59445],[-95.69315,29.58991],[-95.69337,29.58924],[-95.6933,29.58636],[-95.69366,29.58492],[-95.6944,29.58422],[-95.69506,29.58399],[-95.69643,29.58397],[-95.69642,29.58362],[-95.69707,29.58363],[-95.697,29.57881],[-95.69464,29.57824],[-95.69324,29.57905],[-95.69238,29.57831],[-95.68961,29.57729],[-95.68916,29.57691],[-95.69144,29.5748],[-95.69303,29.57282],[-95.69429,29.57184],[-95.69585,29.57133],[-95.69651,29.57151],[-95.69789,29.57241],[-95.70033,29.57484],[-95.70279,29.57604],[-95.70406,29.57612],[-95.70538,29.57585],[-95.70713,29.57489],[-95.70836,29.57391],[-95.70868,29.57548],[-95.70928,29.57581],[-95.71001,29.57697],[-95.71034,29.57859],[-95.71255,29.57906],[-95.71285,29.57934],[-95.71283,29.5799],[-95.71357,29.58061],[-95.71491,29.58056],[-95.71575,29.58123],[-95.71543,29.58284],[-95.71567,29.58388],[-95.71417,29.58585],[-95.71355,29.58769],[-95.71377,29.58834],[-95.71435,29.58892],[-95.71532,29.5892],[-95.7155,29.59838],[-95.69486,29.6006],[-95.69475,29.59871],[-95.69628,29.5971]]]}},{"type":"Feature","properties":{"PRECINCT":"fort-bend:4045","COUNTY":"Fort Bend"},"geometry":{"type":"Polygon","coordinates":[[[-95.66857,29.64291],[-95.66856,29.64257],[-95.66683,29.64248],[-95.66677,29.64108],[-95.66635,29.64024],[-95.66561,29.64062],[-95.66592,29.64117],[-95.66581,29.64256],[-95.66425,29.64257],[-95.66424,29.64105],[-95.66259,29.64083],[-95.66396,29.63876],[-95.66481,29.63671],[-95.67014,29.63523],[-95.67446,29.63347],[-95.68291,29.63335],[-95.68256,29.6363],[-95.6809,29.63951],[-95.67793,29.63845],[-95.6718,29.63849],[-95.6719,29.64074],[-95.67173,29.64146],[-95.67103,29.64247],[-95.67061,29.6429],[-95.66857,29.64291]]]}},{"type":"Feature","properties":{"PRECINCT":"fort-bend:4046","COUNTY":"Fort Bend"},"geometry":{"type":"Polygon","coordinates":[[[-95.59378,29.60318],[-95.59382,29.60221],[-95.59314,29.60016],[-95.59462,29.60008],[-95.59444,29.59712],[-95.59383,29.595],[-95.59393,29.59384],[-95.59438,29.5927],[-95.59599,29.59087],[-95.5969,29.58916],[-95.61631,29.59627],[-95.61537,29.59797],[-95.61392,29.59894],[-95.61249,29.59926],[-95.6091,29.59953],[-95.60683,29.60062],[-95.60994,29.60355],[-95.60789,29.60559],[-95.60674,29.60594],[-95.60445,29.60565],[-95.60337,29.60504],[-95.60124,29.60326],[-95.60068,29.60318],[-95.59746,29.60381],[-95.59655,29.60436],[-95.59602,29.60492],[-95.5947,29.60801],[-95.5936,29.60826],[-95.59291,29.60809],[-95.59233,29.60763],[-95.59211,29.60627],[-95.59239,29.60507],[-95.59378,29.60318]]]}},{"type":"Feature","properties":{"PRECINCT":"fort-bend:4071","COUNTY":"Fort Bend"},"geometry":{"type":"Polygon","coordinates":[[[-95.68263,29.66686],[-95.68334,29.66635],[-95.68298,29.66583],[-95.6858,29.66337],[-95.68858,29.66206],[-95.6913,29.66138],[-95.69134,29.66312],[-95.69097,29.66312],[-95.69093,29.6639],[-95.69142,29.66391],[-95.6914,29.66605],[-95.69101,29.66634],[-95.69103,29.66695],[-95.69139,29.66696],[-95.6914,29.66831],[-95.68301,29.66836],[-95.68263,29.66686]]]}},{"type":"Feature","properties":{"PRECINCT":"fort-bend:4086","COUNTY":"Fort Bend"},"geometry":{"type":"Polygon","coordinates":[[[-95.63921,29.64449],[-95.65152,29.64439],[-95.65154,29.64609],[-95.65111,29.64891],[-95.64934,29.65284],[-95.6455,29.65782],[-95.64401,29.66066],[-95.64323,29.66397],[-95.64328,29.66831],[-95.63979,29.66842],[-95.63921,29.64449]]]}},{"type":"Feature","properties":{"PRECINCT":"fort-bend:4105","COUNTY":"Fort Bend"},"geometry":{"type":"Polygon","coordinates":[[[-95.63685,29.6402],[-95.63628,29.63803],[-95.63578,29.63805],[-95.63256,29.6387],[-95.63108,29.63847],[-95.62865,29.63895],[-95.62843,29.63881],[-95.62817,29.63758],[-95.62715,29.63743],[-95.6271,29.63459],[-95.63385,29.63314],[-95.63494,29.63264],[-95.6364,29.63144],[-95.63481,29.63011],[-95.63546,29.62954],[-95.63446,29.62761],[-95.63469,29.62269],[-95.63439,29.62239],[-95.63442,29.6215],[-95.63382,29.62014],[-95.63544,29.61986],[-95.63834,29.61882],[-95.64962,29.61336],[-95.65002,29.61621],[-95.65023,29.62526],[-95.6511,29.629],[-95.65142,29.63165],[-95.65152,29.64439],[-95.63921,29.64449],[-95.63887,29.64362],[-95.63737,29.64242],[-95.63703,29.64188],[-95.63685,29.6402]]]}},{"type":"Feature","properties":{"PRECINCT":"fort-bend:4107","COUNTY":"Fort Bend"},"geometry":{"type":"Polygon","coordinates":[[[-95.59471,29.63233],[-95.59466,29.62811],[-95.59308,29.62841],[-95.59649,29.62528],[-95.60243,29.62109],[-95.60459,29.61864],[-95.60624,29.61578],[-95.60953,29.6116],[-95.61188,29.60895],[-95.61901,29.60207],[-95.61939,29.60301],[-95.61925,29.60436],[-95.61769,29.60726],[-95.61729,29.60877],[-95.61744,29.60975],[-95.61822,29.61039],[-95.61888,29.61055],[-95.62036,29.61041],[-95.62281,29.60861],[-95.62362,29.60834],[-95.6265,29.60913],[-95.62801,29.61088],[-95.6289,29.61307],[-95.63185,29.61648],[-95.63382,29.62014],[-95.59778,29.62728],[-95.5978,29.63249],[-95.59471,29.63233]]]}},{"type":"Feature","properties":{"PRECINCT":"fort-bend:4117","COUNTY":"Fort Bend"},"geometry":{"type":"Polygon","coordinates":[[[-95.74265,29.6848],[-95.72565,29.6828],[-95.71964,29.68311],[-95.71961,29.68241],[-95.72087,29.68217],[-95.72026,29.68012],[-95.72062,29.67982],[-95.72049,29.67927],[-95.71805,29.67915],[-95.71803,29.67864],[-95.72069,29.67872],[-95.71962,29.66495],[-95.74386,29.66456],[-95.75351,29.67309],[-95.76263,29.67915],[-95.76282,29.68528],[-95.75319,29.68489],[-95.74265,29.6848]]]}},{"type":"Feature","properties":{"PRECINCT":"fort-bend:4121","COUNTY":"Fort Bend"},"geometry":{"type":"Polygon","coordinates":[[[-95.61537,29.59797],[-95.61631,29.59627],[-95.62255,29.59852],[-95.61373,29.6072],[-95.60683,29.60062],[-95.6091,29.59953],[-95.61249,29.59926],[-95.61392,29.59894],[-95.61537,29.59797]]]}},{"type":"Feature","properties":{"PRECINCT":"fort-bend:4124","COUNTY":"Fort Bend"},"geometry":{"type":"Polygon","coordinates":[[[-95.68871,29.6189],[-95.68696,29.61878],[-95.68381,29.61913],[-95.68359,29.60558],[-95.68395,29.60438],[-95.68356,29.60392],[-95.68334,29.60031],[-95.681,29.59554],[-95.67765,29.58976],[-95.67712,29.58786],[-95.67718,29.58663],[-95.67815,29.58227],[-95.68054,29.58338],[-95.68198,29.58343],[-95.68336,29.58309],[-95.68506,29.58169],[-95.68742,29.57855],[-95.68916,29.57691],[-95.68961,29.57729],[-95.69238,29.57831],[-95.69324,29.57905],[-95.69464,29.57824],[-95.697,29.57881],[-95.69707,29.58363],[-95.69642,29.58362],[-95.69643,29.58397],[-95.69506,29.58399],[-95.69393,29.58455],[-95.6933,29.58636],[-95.69321,29.59445],[-95.69442,29.59429],[-95.69472,29.59618],[-95.69663,29.59589],[-95.69628,29.5971],[-95.69475,29.59871],[-95.69486,29.6006],[-95.71356,29.59858],[-95.71425,29.63083],[-95.71186,29.63162],[-95.71062,29.63231],[-95.7079,29.63477],[-95.70714,29.63578],[-95.70142,29.63917],[-95.7001,29.63941],[-95.69769,29.63928],[-95.69576,29.63873],[-95.69513,29.63807],[-95.69394,29.63596],[-95.69387,29.63469],[-95.69416,29.63335],[-95.69448,29.63289],[-95.6978,29.63022],[-95.69747,29.6278],[-95.69562,29.62576],[-95.6942,29.62513],[-95.69221,29.62467],[-95.69131,29.62394],[-95.69053,29.6226],[-95.68992,29.61951],[-95.68871,29.6189]]]}},{"type":"Feature","properties":{"PRECINCT":"fort-bend:4125","COUNTY":"Fort Bend"},"geometry":{"type":"Polygon","coordinates":[[[-95.65611,29.6444],[-95.65152,29.64439],[-95.65142,29.63165],[-95.6511,29.629],[-95.65023,29.62526],[-95.65002,29.61621],[-95.64962,29.61336],[-95.65896,29.60876],[-95.67396,29.60326],[-95.67682,29.60255],[-95.68342,29.60161],[-95.68356,29.60392],[-95.68395,29.60438],[-95.68359,29.60558],[-95.68382,29.6195],[-95.68291,29.63335],[-95.67446,29.63347],[-95.67014,29.63523],[-95.66488,29.63668],[-95.66396,29.63876],[-95.66249,29.64106],[-95.66206,29.64525],[-95.6577,29.64512],[-95.65611,29.6444]]]}},{"type":"Feature","properties":{"PRECINCT":"fort-bend:4126","COUNTY":"Fort Bend"},"geometry":{"type":"Polygon","coordinates":[[[-95.67505,29.66928],[-95.67497,29.66765],[-95.67465,29.66746],[-95.66799,29.66756],[-95.66744,29.6681],[-95.66288,29.66816],[-95.65766,29.66865],[-95.65815,29.65708],[-95.6596,29.65403],[-95.65951,29.64874],[-95.66205,29.64528],[-95.66259,29.64083],[-95.66424,29.64105],[-95.66425,29.64257],[-95.66581,29.64256],[-95.66592,29.64117],[-95.66561,29.64062],[-95.66635,29.64024],[-95.66677,29.64108],[-95.66687,29.64252],[-95.66856,29.64257],[-95.66857,29.64291],[-95.67061,29.6429],[-95.67178,29.64131],[-95.67199,29.64024],[-95.6718,29.63849],[-95.67765,29.63843],[-95.67865,29.6386],[-95.6809,29.63951],[-95.6794,29.64208],[-95.67907,29.64304],[-95.67909,29.64903],[-95.68101,29.65437],[-95.68666,29.66293],[-95.68518,29.6638],[-95.68298,29.66583],[-95.68334,29.66635],[-95.68263,29.66686],[-95.68301,29.66836],[-95.67964,29.6684],[-95.6798,29.66936],[-95.67536,29.66943],[-95.67505,29.66928]]]}},{"type":"Feature","properties":{"PRECINCT":"fort-bend:4140","COUNTY":"Fort Bend"},"geometry":{"type":"Polygon","coordinates":[[[-95.59145,29.60721],[-95.58222,29.60622],[-95.58184,29.59366],[-95.58091,29.58851],[-95.58041,29.58695],[-95.58031,29.58545],[-95.58103,29.58272],[-95.58277,29.58055],[-95.59348,29.58778],[-95.5969,29.58916],[-95.59599,29.59087],[-95.59438,29.5927],[-95.59407,29.59336],[-95.59383,29.595],[-95.59444,29.59712],[-95.59462,29.60008],[-95.59314,29.60016],[-95.59382,29.60221],[-95.59378,29.60318],[-95.59239,29.60507],[-95.59217,29.6071],[-95.59145,29.60721]]]}},{"type":"Feature","properties":{"PRECINCT":"fort-bend:4147","COUNTY":"Fort Bend"},"geometry":{"type":"Polygon","coordinates":[[[-95.69139,29.66696],[-95.69103,29.66695],[-95.69101,29.66634],[-95.6914,29.66605],[-95.69142,29.66391],[-95.69093,29.6639],[-95.69097,29.66312],[-95.69134,29.66312],[-95.6913,29.66138],[-95.689,29.66192],[-95.68666,29.66293],[-95.68101,29.65437],[-95.67909,29.64903],[-95.67898,29.64372],[-95.67917,29.64264],[-95.68266,29.63594],[-95.68381,29.61913],[-95.68696,29.61878],[-95.68871,29.6189],[-95.68962,29.61922],[-95.69017,29.62],[-95.69053,29.6226],[-95.69131,29.62394],[-95.69221,29.62467],[-95.6942,29.62513],[-95.69562,29.62576],[-95.69747,29.6278],[-95.6978,29.63022],[-95.69448,29.63289],[-95.69416,29.63335],[-95.69387,29.63469],[-95.69394,29.63596],[-95.69496,29.63779],[-95.69576,29.63873],[-95.69644,29.63905],[-95.7001,29.63941],[-95.70193,29.63894],[-95.70714,29.63578],[-95.7079,29.63477],[-95.71062,29.63231],[-95.71186,29.63162],[-95.71425,29.63083],[-95.71488,29.66093],[-95.69727,29.66117],[-95.69708,29.66147],[-95.69711,29.6682],[-95.6914,29.66831],[-95.69139,29.66696]]]}},{"type":"Feature","properties":{"PRECINCT":"fort-bend:4155","COUNTY":"Fort Bend"},"geometry":{"type":"Polygon","coordinates":[[[-95.64328,29.66831],[-95.64331,29.66312],[-95.64401,29.66066],[-95.6455,29.65782],[-95.64877,29.65367],[-95.65019,29.65124],[-95.65111,29.64891],[-95.65154,29.64609],[-95.65152,29.64439],[-95.65598,29.64438],[-95.6577,29.64512],[-95.66206,29.64525],[-95.65949,29.64881],[-95.6596,29.65403],[-95.65815,29.65708],[-95.65768,29.66863],[-95.65234,29.66827],[-95.64328,29.66831]]]}}]}