{"type":"FeatureCollection","features":[{"type":"Feature","properties":{"PRECINCT":"12","VTD":"0012"},"geometry":{"type":"Polygon","coordinates":[[[-97.963444,28.951971],[-97.963177,28.950964],[-97.963394,28.948789],[-97.964197,28.947471],[-97.964191,28.947018],[-97.962634,28.946259],[-97.961666,28.945492],[-97.958467,28.942531],[-97.956466,28.940258],[-97.954516,28.939089],[-97.954284,28.93802],[-97.954339,28.934889],[-97.954205,28.934252],[-97.953912,28.934011],[-97.952533,28.933951],[-97.948782,28.937222],[-97.947665,28.937372],[-97.946602,28.936848],[-97.946134,28.935852],[-97.946321,28.934261],[-97.947113,28.932766],[-97.947256,28.931914],[-97.946869,28.930974],[-97.946117,28.930665],[-97.943911,28.931426],[-97.941566,28.931193],[-97.940014,28.931436],[-97.935681,28.933317],[-97.932612,28.935557],[-97.931844,28.935549],[-97.930715,28.934801],[-97.92924,28.931803],[-97.931434,28.931963],[-97.931534,28.931265],[-97.932134,28.931001],[-97.933329,28.929708],[-97.934111,28.929554],[-97.934383,28.929268],[-97.930951,28.926894],[-97.929679,28.925758],[-97.928889,28.924616],[-97.923383,28.905747],[-97.922594,28.904024],[-97.912063,28.893219],[-97.91097,28.891093],[-97.910336,28.888041],[-97.909922,28.888124],[-97.908852,28.886271],[-97.908865,28.885766],[-97.906269,28.88397],[-97.903311,28.882663],[-97.903206,28.884998],[-97.897943,28.884836],[-97.898035,28.882855],[-97.896957,28.882827],[-97.896912,28.883873],[-97.895646,28.883829],[-97.894133,28.88254],[-97.893286,28.882199],[-97.89338,28.863301],[-97.893017,28.861754],[-97.893224,28.861714],[-97.90123,28.870647],[-97.901233,28.87092],[-97.903247,28.873074],[-97.904403,28.874708],[-97.907654,28.874774],[-97.907468,28.876602],[-97.907619,28.879168],[-97.912486,28.879041],[-97.91466,28.878519],[-97.916836,28.877415],[-97.939257,28.858718],[-97.941555,28.857167],[-97.97445,28.84635],[-97.977803,28.844969],[-97.977946,28.848816],[-97.981677,28.848858],[-97.981774,28.859556],[-97.981585,28.85971],[-97.98016,28.859686],[-97.979968,28.860073],[-97.980088,28.877001],[-97.991033,28.876336],[-97.989495,28.9117],[-97.987363,28.91155],[-97.986325,28.910343],[-97.98505,28.910118],[-97.983672,28.910489],[-97.982452,28.911273],[-97.981046,28.911575],[-97.976652,28.91159],[-97.975611,28.933485],[-97.974317,28.934396],[-97.974649,28.93564],[-97.974418,28.937114],[-97.974168,28.937439],[-97.974344,28.937851],[-97.973725,28.938715],[-97.972074,28.938815],[-97.969265,28.938403],[-97.968433,28.938447],[-97.967514,28.938948],[-97.966345,28.938849],[-97.966739,28.940015],[-97.968722,28.942221],[-97.970893,28.942595],[-97.973746,28.944836],[-97.971694,28.947617],[-97.971052,28.947329],[-97.970159,28.947276],[-97.969448,28.947717],[-97.969342,28.948278],[-97.970106,28.949978],[-97.969835,28.950874],[-97.969035,28.951666],[-97.967179,28.951864],[-97.964753,28.952576],[-97.96403,28.952504],[-97.963444,28.951971]]]}},{"type":"Feature","properties":{"PRECINCT":"1","VTD":"0001"},"geometry":{"type":"Polygon","coordinates":[[[-97.851274,28.95119],[-97.854079,28.949098],[-97.854818,28.947484],[-97.854813,28.946784],[-97.853633,28.944563],[-97.851278,28.94394],[-97.849234,28.942223],[-97.848554,28.942248],[-97.847532,28.942765],[-97.844649,28.944856],[-97.843506,28.944329],[-97.842817,28.944276],[-97.841135,28.944539],[-97.838902,28.944506],[-97.837718,28.944079],[-97.837737,28.941874],[-97.836266,28.940255],[-97.834866,28.937964],[-97.834152,28.937624],[-97.831738,28.936868],[-97.830167,28.93689],[-97.829618,28.937023],[-97.829042,28.937644],[-97.827951,28.938199],[-97.824874,28.939001],[-97.821529,28.938311],[-97.820451,28.937749],[-97.819983,28.937123],[-97.819976,28.936273],[-97.819491,28.934795],[-97.819614,28.933618],[-97.820003,28.933375],[-97.823839,28.932609],[-97.82521,28.931762],[-97.8252,28.930814],[-97.824297,28.930008],[-97.824023,28.928711],[-97.823396,28.928223],[-97.822401,28.927893],[-97.820751,28.92789],[-97.819029,28.92713],[-97.818508,28.927257],[-97.818134,28.927885],[-97.818036,28.92911],[-97.817307,28.929923],[-97.816237,28.932017],[-97.816027,28.934911],[-97.814921,28.936215],[-97.813906,28.936741],[-97.813226,28.936247],[-97.812678,28.935372],[-97.811974,28.932029],[-97.813519,28.929738],[-97.813421,28.928938],[-97.809156,28.920592],[-97.807824,28.919199],[-97.80662,28.918828],[-97.819691,28.906798],[-97.820152,28.906902],[-97.851806,28.87922],[-97.86366,28.86853],[-97.862689,28.867485],[-97.860413,28.862905],[-97.860787,28.863597],[-97.870213,28.855348],[-97.870638,28.855365],[-97.872428,28.856872],[-97.872855,28.856869],[-97.880199,28.850246],[-97.891218,28.859908],[-97.893017,28.861754],[-97.89338,28.863301],[-97.893286,28.882199],[-97.894133,28.88254],[-97.895646,28.883829],[-97.896912,28.883873],[-97.896957,28.882827],[-97.898035,28.882855],[-97.897943,28.884836],[-97.903206,28.884998],[-97.903311,28.882663],[-97.906269,28.88397],[-97.908865,28.885766],[-97.908852,28.886271],[-97.909922,28.888124],[-97.910336,28.888041],[-97.91097,28.891093],[-97.912063,28.893219],[-97.922594,28.904024],[-97.923383,28.905747],[-97.928889,28.924616],[-97.929679,28.925758],[-97.930951,28.926894],[-97.934383,28.929268],[-97.934111,28.929554],[-97.933329,28.929708],[-97.932134,28.931001],[-97.931534,28.931265],[-97.931434,28.931963],[-97.92924,28.931803],[-97.928272,28.930905],[-97.927074,28.930558],[-97.925298,28.930749],[-97.922556,28.93164],[-97.922055,28.932098],[-97.921502,28.933944],[-97.922187,28.937451],[-97.921839,28.938014],[-97.92109,28.938506],[-97.919189,28.939039],[-97.918317,28.938837],[-97.917702,28.938007],[-97.918028,28.936573],[-97.91788,28.935809],[-97.917258,28.935271],[-97.916622,28.935319],[-97.912932,28.937939],[-97.910214,28.938889],[-97.907912,28.93903],[-97.906948,28.939413],[-97.905581,28.940859],[-97.905099,28.941789],[-97.903734,28.942751],[-97.902337,28.944389],[-97.901462,28.944847],[-97.900302,28.944996],[-97.899203,28.944744],[-97.896177,28.94296],[-97.895382,28.943547],[-97.895296,28.9445],[-97.894926,28.945007],[-97.89368,28.945528],[-97.8925,28.946568],[-97.889289,28.948222],[-97.886491,28.948436],[-97.883337,28.948225],[-97.881531,28.947681],[-97.877359,28.946953],[-97.875137,28.947452],[-97.87442,28.948178],[-97.874671,28.950513],[-97.87514,28.952201],[-97.874664,28.95278],[-97.873248,28.952972],[-97.872308,28.952641],[-97.870899,28.952494],[-97.869036,28.952816],[-97.865536,28.951791],[-97.862543,28.951922],[-97.860736,28.950787],[-97.860106,28.95092],[-97.857028,28.952742],[-97.853313,28.953597],[-97.85202,28.952923],[-97.851419,28.952287],[-97.851195,28.951908],[-97.851274,28.95119]]]}},{"type":"Feature","properties":{"PRECINCT":"15","VTD":"0015"},"geometry":{"type":"Polygon","coordinates":[[[-97.85864,28.858913],[-97.856521,28.845524],[-97.85602,28.844522],[-97.854955,28.84323],[-97.849462,28.837635],[-97.848623,28.836397],[-97.848411,28.834097],[-97.849543,28.829247],[-97.847163,28.829645],[-97.847186,28.82885],[-97.847647,28.827596],[-97.846823,28.826655],[-97.846629,28.826012],[-97.846853,28.825362],[-97.84744,28.824713],[-97.847053,28.824268],[-97.844789,28.824743],[-97.84467,28.824229],[-97.846674,28.823452],[-97.846174,28.822271],[-97.848625,28.821232],[-97.851041,28.820511],[-97.850183,28.818648],[-97.852265,28.817885],[-97.854368,28.822352],[-97.858519,28.825834],[-97.857059,28.827067],[-97.855726,28.827851],[-97.856114,28.82849],[-97.857064,28.828545],[-97.859524,28.830606],[-97.85979,28.830368],[-97.860023,28.830433],[-97.862862,28.832737],[-97.864495,28.831321],[-97.867947,28.834354],[-97.869462,28.8361],[-97.873568,28.844171],[-97.880199,28.850246],[-97.872855,28.856869],[-97.872324,28.856812],[-97.870638,28.855365],[-97.87011,28.855413],[-97.860787,28.863597],[-97.85864,28.858913]]]}},{"type":"Feature","properties":{"PRECINCT":"11","VTD":"0011"},"geometry":{"type":"Polygon","coordinates":[[[-97.907654,28.874774],[-97.904403,28.874708],[-97.903247,28.873074],[-97.901233,28.87092],[-97.90123,28.870647],[-97.893224,28.861714],[-97.893017,28.861754],[-97.891218,28.859908],[-97.874123,28.8448],[-97.872811,28.843011],[-97.869462,28.8361],[-97.867947,28.834354],[-97.864495,28.831321],[-97.862862,28.832737],[-97.860023,28.830433],[-97.85979,28.830368],[-97.859524,28.830606],[-97.857064,28.828545],[-97.856114,28.82849],[-97.855726,28.827851],[-97.857059,28.827067],[-97.858519,28.825834],[-97.854368,28.822352],[-97.852265,28.817885],[-97.854351,28.817135],[-97.856059,28.816102],[-97.87372,28.800428],[-97.881773,28.795562],[-97.89404,28.783867],[-97.902019,28.774273],[-97.937002,28.742691],[-97.937336,28.743001],[-97.937644,28.742791],[-97.937616,28.74214],[-97.950629,28.730448],[-97.993827,28.699011],[-97.996899,28.695888],[-97.99826,28.693645],[-97.99885,28.692205],[-98.005252,28.690239],[-98.057311,28.743841],[-98.093906,28.782531],[-98.104272,28.792918],[-98.091247,28.795056],[-98.088658,28.796109],[-98.058667,28.818331],[-98.056636,28.819622],[-98.055202,28.820251],[-97.978789,28.844643],[-97.97445,28.84635],[-97.941555,28.857167],[-97.939257,28.858718],[-97.917249,28.8771],[-97.91466,28.878519],[-97.912486,28.879041],[-97.907619,28.879168],[-97.907468,28.876602],[-97.907654,28.874774]]]}},{"type":"Feature","properties":{"PRECINCT":"4","VTD":"0004"},"geometry":{"type":"Polygon","coordinates":[[[-97.814732,28.817431],[-97.807517,28.806913],[-97.7902,28.792128],[-97.801982,28.781389],[-97.806778,28.785459],[-97.816677,28.776477],[-97.81333,28.773476],[-97.813158,28.7694],[-97.812824,28.768596],[-97.79248,28.751469],[-97.801003,28.748214],[-97.801107,28.746419],[-97.801798,28.746469],[-97.801867,28.747723],[-97.802435,28.748323],[-97.802966,28.748389],[-97.803353,28.74813],[-97.803827,28.747255],[-97.805232,28.746799],[-97.80497,28.746023],[-97.805887,28.745176],[-97.807067,28.744791],[-97.807573,28.744907],[-97.807592,28.745198],[-97.807785,28.744731],[-97.80826,28.744335],[-97.808528,28.744395],[-97.809034,28.74374],[-97.811144,28.743366],[-97.811443,28.742767],[-97.811618,28.742833],[-97.8113,28.743168],[-97.812923,28.743031],[-97.813772,28.741485],[-97.814427,28.741056],[-97.81477,28.741111],[-97.815095,28.741579],[-97.815807,28.741166],[-97.817789,28.740916],[-97.815161,28.738636],[-97.819663,28.734504],[-97.818358,28.733274],[-97.818539,28.732981],[-97.818256,28.732601],[-97.818385,28.73194],[-97.819764,28.730625],[-97.820088,28.729668],[-97.821174,28.72937],[-97.822504,28.728111],[-97.822903,28.727401],[-97.816751,28.7039],[-97.82359,28.701627],[-97.825604,28.700126],[-97.814406,28.673572],[-97.823217,28.670821],[-97.822964,28.670563],[-97.825312,28.670341],[-97.825844,28.670822],[-97.826399,28.672638],[-97.826312,28.673122],[-97.825563,28.67348],[-97.826056,28.674602],[-97.828489,28.677226],[-97.829687,28.678007],[-97.830417,28.678001],[-97.830891,28.6776],[-97.831515,28.675889],[-97.832457,28.675498],[-97.833991,28.675591],[-97.834253,28.675927],[-97.833945,28.677261],[-97.834279,28.677693],[-97.835152,28.67805],[-97.835415,28.680152],[-97.835727,28.680405],[-97.837435,28.680577],[-97.837573,28.679664],[-97.838103,28.679347],[-97.838715,28.679645],[-97.838834,28.680839],[-97.839289,28.681279],[-97.839751,28.681274],[-97.841054,28.680492],[-97.842377,28.681631],[-97.84355,28.681509],[-97.846059,28.683049],[-97.847363,28.68339],[-97.850613,28.683692],[-97.852173,28.684803],[-97.852922,28.685089],[-97.85475,28.685308],[-97.856023,28.684956],[-97.857133,28.684163],[-97.858175,28.684267],[-97.860228,28.685438],[-97.86137,28.685675],[-97.862961,28.686444],[-97.864678,28.687654],[-97.865789,28.688842],[-97.866775,28.689414],[-97.867798,28.689639],[-97.870674,28.689517],[-97.872827,28.690275],[-97.87357,28.691227],[-97.875792,28.691428],[-97.875754,28.692016],[-97.876721,28.692534],[-97.876721,28.693502],[-97.877425,28.693668],[-97.877544,28.693096],[-97.879391,28.693718],[-97.879441,28.694114],[-97.879029,28.694488],[-97.879228,28.694846],[-97.879003,28.695357],[-97.879408,28.695897],[-97.880095,28.695705],[-97.880145,28.694978],[-97.880707,28.694577],[-97.881231,28.695001],[-97.880818,28.695991],[-97.881367,28.696508],[-97.882079,28.696448],[-97.882509,28.695865],[-97.883677,28.695453],[-97.884257,28.695734],[-97.884338,28.695948],[-97.883932,28.696262],[-97.883932,28.696889],[-97.884287,28.698171],[-97.884655,28.698529],[-97.885534,28.698441],[-97.885647,28.698012],[-97.885953,28.697952],[-97.886414,28.698898],[-97.887231,28.698976],[-97.889078,28.699906],[-97.889515,28.699873],[-97.889789,28.699395],[-97.890788,28.699731],[-97.89105,28.699137],[-97.891593,28.69972],[-97.892105,28.699164],[-97.89266,28.699759],[-97.89334,28.699968],[-97.893439,28.700551],[-97.892683,28.701386],[-97.892926,28.70192],[-97.891778,28.702657],[-97.891914,28.703251],[-97.892576,28.703873],[-97.892807,28.703477],[-97.893094,28.703428],[-97.893043,28.704621],[-97.893349,28.705012],[-97.894528,28.704759],[-97.894622,28.704154],[-97.89509,28.703984],[-97.89582,28.704645],[-97.896619,28.704613],[-97.896743,28.705317],[-97.897773,28.705664],[-97.898333,28.708645],[-97.899406,28.710253],[-97.90028,28.710202],[-97.900879,28.710588],[-97.900885,28.710791],[-97.900373,28.711056],[-97.900398,28.711337],[-97.900754,28.711711],[-97.901291,28.711788],[-97.901971,28.712916],[-97.904174,28.712845],[-97.905004,28.713484],[-97.905578,28.713115],[-97.907107,28.713303],[-97.908224,28.714178],[-97.909397,28.714508],[-97.910863,28.716401],[-97.912392,28.717683],[-97.914027,28.718547],[-97.914126,28.719136],[-97.914526,28.719521],[-97.915106,28.719648],[-97.916024,28.71923],[-97.916242,28.718658],[-97.916673,28.718355],[-97.916972,28.718322],[-97.918139,28.719156],[-97.944021,28.710356],[-97.986294,28.696549],[-97.99885,28.692205],[-97.99826,28.693645],[-97.996899,28.695888],[-97.993827,28.699011],[-97.94975,28.731199],[-97.937616,28.74214],[-97.937644,28.742791],[-97.937336,28.743001],[-97.937002,28.742691],[-97.901665,28.774608],[-97.89404,28.783867],[-97.881773,28.795562],[-97.87372,28.800428],[-97.855482,28.816536],[-97.854351,28.817135],[-97.849136,28.819029],[-97.847347,28.815121],[-97.850284,28.808517],[-97.851135,28.804037],[-97.843721,28.804091],[-97.843923,28.805838],[-97.844239,28.805886],[-97.844283,28.807441],[-97.845346,28.807441],[-97.845357,28.807901],[-97.844447,28.808113],[-97.843516,28.810071],[-97.840854,28.810079],[-97.840479,28.807477],[-97.83922,28.807433],[-97.838845,28.804755],[-97.838479,28.804532],[-97.83782,28.804563],[-97.838295,28.807983],[-97.834404,28.808203],[-97.834361,28.806698],[-97.833128,28.806765],[-97.832512,28.807379],[-97.833055,28.808818],[-97.835886,28.808775],[-97.836003,28.817083],[-97.835605,28.817226],[-97.832593,28.815758],[-97.832883,28.815485],[-97.831209,28.815518],[-97.817594,28.818735],[-97.81589,28.818151],[-97.814732,28.817431]]]}},{"type":"Feature","properties":{"PRECINCT":"13","VTD":"0013"},"geometry":{"type":"Polygon","coordinates":[[[-98.040233,28.87509],[-98.034905,28.869491],[-98.025416,28.873653],[-98.021548,28.874419],[-97.980088,28.877001],[-97.979968,28.860073],[-97.98016,28.859686],[-97.981585,28.85971],[-97.981774,28.859556],[-97.981709,28.849005],[-97.981469,28.848782],[-97.977946,28.848816],[-97.977803,28.844969],[-98.055837,28.819997],[-98.058667,28.818331],[-98.088658,28.796109],[-98.091247,28.795056],[-98.104272,28.792918],[-98.127956,28.81715],[-98.115906,28.825987],[-98.115396,28.82728],[-98.085437,28.849529],[-98.085251,28.849833],[-98.085395,28.850222],[-98.090215,28.855304],[-98.074416,28.868507],[-98.073961,28.868665],[-98.073422,28.869426],[-98.061652,28.879265],[-98.061453,28.879301],[-98.060533,28.87834],[-98.040233,28.87509]]]}},{"type":"Feature","properties":{"PRECINCT":"2","VTD":"0002"},"geometry":{"type":"Polygon","coordinates":[[[-97.814854,29.037508],[-97.815345,29.033986],[-97.824111,29.033936],[-97.824403,29.032127],[-97.825457,29.031123],[-97.832099,29.035626],[-97.835548,29.032059],[-97.835921,29.03195],[-97.83829,29.035481],[-97.846561,29.031207],[-97.844144,29.027014],[-97.844203,29.026426],[-97.860922,29.01832],[-97.852173,29.004661],[-97.843446,28.994494],[-97.862843,28.972936],[-97.860294,28.972908],[-97.861502,28.970317],[-97.860813,28.968926],[-97.860925,28.967616],[-97.860606,28.967094],[-97.860969,28.966703],[-97.860349,28.965284],[-97.861656,28.964777],[-97.861775,28.964266],[-97.861143,28.963716],[-97.860549,28.964271],[-97.859841,28.963403],[-97.860778,28.960635],[-97.860365,28.959975],[-97.860515,28.959155],[-97.860196,28.958666],[-97.860534,28.958434],[-97.860677,28.957791],[-97.860189,28.957521],[-97.860245,28.956493],[-97.859663,28.956322],[-97.859488,28.955932],[-97.85865,28.956526],[-97.85835,28.956455],[-97.858156,28.955998],[-97.858725,28.95558],[-97.859212,28.954721],[-97.858874,28.953297],[-97.858636,28.953038],[-97.857566,28.953215],[-97.857028,28.952742],[-97.860106,28.95092],[-97.861056,28.950904],[-97.862543,28.951922],[-97.865536,28.951791],[-97.869036,28.952816],[-97.870899,28.952494],[-97.872308,28.952641],[-97.873248,28.952972],[-97.874103,28.952866],[-97.875123,28.95245],[-97.874671,28.950513],[-97.874457,28.948002],[-97.875137,28.947452],[-97.875863,28.947223],[-97.877359,28.946953],[-97.884306,28.948318],[-97.886491,28.948436],[-97.889289,28.948222],[-97.8925,28.946568],[-97.89368,28.945528],[-97.894926,28.945007],[-97.895296,28.9445],[-97.895382,28.943547],[-97.896177,28.94296],[-97.899203,28.944744],[-97.900302,28.944996],[-97.901462,28.944847],[-97.902337,28.944389],[-97.903734,28.942751],[-97.905099,28.941789],[-97.905581,28.940859],[-97.906948,28.939413],[-97.907912,28.93903],[-97.910214,28.938889],[-97.912932,28.937939],[-97.916622,28.935319],[-97.917258,28.935271],[-97.91788,28.935809],[-97.918028,28.936573],[-97.917702,28.938007],[-97.918317,28.938837],[-97.919189,28.939039],[-97.92109,28.938506],[-97.921839,28.938014],[-97.922187,28.937451],[-97.921502,28.933944],[-97.922055,28.932098],[-97.922556,28.93164],[-97.923936,28.931109],[-97.926216,28.930569],[-97.927074,28.930558],[-97.928272,28.930905],[-97.92924,28.931803],[-97.930715,28.934801],[-97.931844,28.935549],[-97.932877,28.935462],[-97.935681,28.933317],[-97.940014,28.931436],[-97.941566,28.931193],[-97.943911,28.931426],[-97.946117,28.930665],[-97.946869,28.930974],[-97.947256,28.931914],[-97.947113,28.932766],[-97.946321,28.934261],[-97.946134,28.935852],[-97.946602,28.936848],[-97.947665,28.937372],[-97.948782,28.937222],[-97.952533,28.933951],[-97.954084,28.934107],[-97.954339,28.934889],[-97.954284,28.93802],[-97.954516,28.939089],[-97.956466,28.940258],[-97.958467,28.942531],[-97.961666,28.945492],[-97.962634,28.946259],[-97.964191,28.947018],[-97.964197,28.947471],[-97.963394,28.948789],[-97.963177,28.950964],[-97.963444,28.951971],[-97.96403,28.952504],[-97.965114,28.952509],[-97.967179,28.951864],[-97.968679,28.951832],[-97.969474,28.951349],[-97.970106,28.949978],[-97.969342,28.948278],[-97.969448,28.947717],[-97.970159,28.947276],[-97.971052,28.947329],[-97.971694,28.947617],[-97.973746,28.944836],[-97.975516,28.945993],[-97.977725,28.948975],[-97.978343,28.948967],[-97.981493,28.954588],[-97.979474,28.954094],[-97.978082,28.954484],[-97.940872,28.972642],[-97.940339,28.972863],[-97.940189,28.972742],[-97.939121,28.970912],[-97.921175,28.979672],[-97.924007,28.982935],[-97.925906,28.986383],[-97.927185,28.987785],[-97.928266,28.988593],[-97.929309,28.9885],[-97.930325,28.988042],[-97.930887,28.988306],[-97.930509,28.989575],[-97.930565,28.990648],[-97.930916,28.991231],[-97.930715,28.991628],[-97.92932,28.992277],[-97.928494,28.992106],[-97.927286,28.992342],[-97.926917,28.992227],[-97.926191,28.99111],[-97.925538,28.991707],[-97.929545,29.001635],[-97.929956,29.004124],[-97.930472,29.011949],[-97.927062,29.013731],[-97.925942,29.015024],[-97.920657,29.01764],[-97.919534,29.016992],[-97.918882,29.016901],[-97.91401,29.018642],[-97.913517,29.018954],[-97.912384,29.020714],[-97.907307,29.022654],[-97.906164,29.017829],[-97.904443,29.01513],[-97.901103,29.011055],[-97.874347,29.02467],[-97.873026,29.028321],[-97.871635,29.029776],[-97.853471,29.038602],[-97.851881,29.039839],[-97.836285,29.047402],[-97.83368,29.048938],[-97.82552,29.052859],[-97.824596,29.053079],[-97.823293,29.053115],[-97.820708,29.052515],[-97.816075,29.050062],[-97.816115,29.03987],[-97.814854,29.037508]]]}},{"type":"Feature","properties":{"PRECINCT":"8","VTD":"0008"},"geometry":{"type":"Polygon","coordinates":[[[-97.773227,29.100539],[-97.764754,29.092213],[-97.753656,29.09214],[-97.750516,29.086333],[-97.750113,29.085936],[-97.749573,29.085812],[-97.707675,29.099301],[-97.700318,29.082079],[-97.696542,29.082705],[-97.695681,29.082407],[-97.695237,29.081743],[-97.693593,29.081193],[-97.693306,29.080437],[-97.691428,29.079887],[-97.690488,29.078626],[-97.68814,29.076838],[-97.686627,29.075027],[-97.68385,29.07554],[-97.680339,29.075462],[-97.680965,29.074363],[-97.68086,29.073837],[-97.677101,29.065548],[-97.679669,29.064759],[-97.679633,29.06299],[-97.679192,29.062511],[-97.745589,29.013546],[-97.75511,29.007113],[-97.720068,28.969507],[-97.788498,28.968774],[-97.787834,28.966252],[-97.788165,28.966004],[-97.788065,28.965662],[-97.787139,28.965107],[-97.785795,28.962928],[-97.785952,28.961431],[-97.78659,28.961063],[-97.786759,28.960689],[-97.785859,28.958609],[-97.78584,28.956535],[-97.786523,28.955045],[-97.787312,28.952288],[-97.787212,28.951425],[-97.786893,28.951139],[-97.786549,28.949829],[-97.788408,28.946221],[-97.790603,28.944736],[-97.790629,28.944257],[-97.791072,28.944301],[-97.79071,28.943025],[-97.790016,28.942315],[-97.788559,28.942766],[-97.786076,28.94276],[-97.784225,28.941967],[-97.783781,28.941114],[-97.782974,28.941285],[-97.782317,28.941131],[-97.781924,28.940877],[-97.781842,28.940261],[-97.783625,28.93832],[-97.783794,28.937698],[-97.783363,28.937181],[-97.782538,28.936752],[-97.781024,28.936641],[-97.779599,28.936146],[-97.776635,28.933229],[-97.775541,28.933328],[-97.774359,28.934345],[-97.773327,28.934433],[-97.771845,28.933585],[-97.771039,28.932683],[-97.770201,28.932336],[-97.769688,28.931885],[-97.769582,28.931368],[-97.770327,28.929954],[-97.772948,28.927072],[-97.773368,28.925576],[-97.776038,28.924135],[-97.776758,28.922221],[-97.776783,28.921748],[-97.776546,28.921495],[-97.774051,28.92112],[-97.772669,28.920564],[-97.772515,28.92021],[-97.774754,28.919273],[-97.776432,28.919308],[-97.784874,28.910573],[-97.791421,28.904491],[-97.793166,28.906506],[-97.796354,28.907645],[-97.796913,28.908058],[-97.797733,28.909236],[-97.79875,28.90947],[-97.798977,28.90999],[-97.798916,28.910595],[-97.798353,28.911412],[-97.796213,28.912629],[-97.794455,28.913031],[-97.79308,28.914092],[-97.792927,28.914739],[-97.793438,28.916026],[-97.794134,28.91631],[-97.800918,28.917289],[-97.803,28.918135],[-97.807466,28.919027],[-97.809156,28.920592],[-97.813421,28.928938],[-97.813519,28.929738],[-97.811974,28.932029],[-97.812678,28.935372],[-97.813226,28.936247],[-97.813906,28.936741],[-97.814921,28.936215],[-97.816027,28.934911],[-97.816237,28.932017],[-97.817307,28.929923],[-97.818036,28.92911],[-97.818348,28.927463],[-97.819029,28.92713],[-97.820751,28.92789],[-97.822401,28.927893],[-97.823735,28.928412],[-97.824023,28.928711],[-97.824297,28.930008],[-97.82498,28.930512],[-97.8253,28.931195],[-97.825025,28.931995],[-97.823839,28.932609],[-97.820003,28.933375],[-97.819614,28.933618],[-97.819491,28.934795],[-97.819976,28.936273],[-97.819983,28.937123],[-97.820968,28.938095],[-97.824022,28.938947],[-97.824874,28.939001],[-97.827951,28.938199],[-97.829042,28.937644],[-97.829618,28.937023],[-97.831738,28.936868],[-97.834866,28.937964],[-97.836266,28.940255],[-97.837737,28.941874],[-97.83761,28.94385],[-97.838037,28.9443],[-97.839994,28.944588],[-97.843506,28.944329],[-97.844649,28.944856],[-97.847532,28.942765],[-97.848912,28.94219],[-97.849696,28.942451],[-97.851278,28.94394],[-97.853313,28.944349],[-97.853851,28.944889],[-97.854813,28.946784],[-97.854818,28.947484],[-97.854079,28.949098],[-97.851274,28.95119],[-97.851195,28.951908],[-97.85202,28.952923],[-97.853313,28.953597],[-97.857028,28.952742],[-97.857566,28.953215],[-97.858636,28.953038],[-97.858874,28.953297],[-97.859212,28.954721],[-97.858725,28.95558],[-97.858249,28.955817],[-97.858187,28.95624],[-97.858525,28.956565],[-97.859557,28.955943],[-97.859663,28.956322],[-97.860195,28.956399],[-97.860189,28.957521],[-97.860677,28.957791],[-97.860534,28.958434],[-97.860196,28.958666],[-97.860515,28.959155],[-97.860365,28.959975],[-97.860778,28.960635],[-97.859841,28.963403],[-97.860549,28.964271],[-97.861143,28.963716],[-97.861775,28.964266],[-97.861656,28.964777],[-97.860349,28.965284],[-97.860969,28.966703],[-97.860606,28.967094],[-97.860925,28.967616],[-97.860813,28.968926],[-97.861502,28.970317],[-97.860294,28.972908],[-97.862843,28.972936],[-97.843746,28.993997],[-97.843455,28.9946],[-97.852026,29.004461],[-97.860922,29.01832],[-97.844203,29.026426],[-97.844144,29.027014],[-97.846561,29.031207],[-97.83829,29.035481],[-97.835921,29.03195],[-97.835548,29.032059],[-97.832099,29.035626],[-97.825457,29.031123],[-97.824403,29.032127],[-97.824111,29.033936],[-97.815345,29.033986],[-97.814839,29.037426],[-97.816104,29.039719],[-97.816075,29.050062],[-97.81885,29.051597],[-97.819722,29.053624],[-97.819159,29.056033],[-97.816142,29.060323],[-97.815196,29.061542],[-97.812919,29.063209],[-97.81184,29.064775],[-97.809211,29.071084],[-97.792645,29.071151],[-97.790016,29.078845],[-97.787526,29.089746],[-97.784923,29.0907],[-97.784152,29.092553],[-97.783525,29.092619],[-97.782874,29.092212],[-97.782304,29.092553],[-97.782009,29.093307],[-97.781039,29.092822],[-97.77983,29.093003],[-97.779235,29.093625],[-97.778977,29.094797],[-97.779447,29.096392],[-97.778119,29.096832],[-97.776571,29.096947],[-97.776195,29.097216],[-97.775788,29.098074],[-97.774886,29.098195],[-97.774266,29.09885],[-97.772881,29.099322],[-97.772743,29.099531],[-97.773301,29.10012],[-97.773227,29.100539]]]}},{"type":"Feature","properties":{"PRECINCT":"14","VTD":"0014"},"geometry":{"type":"Polygon","coordinates":[[[-97.798909,28.909675],[-97.797733,28.909236],[-97.796913,28.908058],[-97.796354,28.907645],[-97.793166,28.906506],[-97.791757,28.904801],[-97.789984,28.90348],[-97.787578,28.90343],[-97.786627,28.902859],[-97.786362,28.901593],[-97.786763,28.900939],[-97.790353,28.899028],[-97.790895,28.898069],[-97.791126,28.897347],[-97.791205,28.893895],[-97.790999,28.892767],[-97.789904,28.891371],[-97.789667,28.889964],[-97.788409,28.888798],[-97.787372,28.8871],[-97.785629,28.885071],[-97.784203,28.884763],[-97.782291,28.885546],[-97.780347,28.885896],[-97.778856,28.887655],[-97.777135,28.888333],[-97.774834,28.886731],[-97.774293,28.886106],[-97.773626,28.88496],[-97.773382,28.883561],[-97.772957,28.883004],[-97.769311,28.882946],[-97.768382,28.882189],[-97.768139,28.881438],[-97.768267,28.880771],[-97.769031,28.879566],[-97.770905,28.878148],[-97.772474,28.877275],[-97.77336,28.876266],[-97.773727,28.874685],[-97.773469,28.873282],[-97.772731,28.872924],[-97.771526,28.873517],[-97.770024,28.873295],[-97.768061,28.874893],[-97.765878,28.878144],[-97.764683,28.879272],[-97.763501,28.880033],[-97.761284,28.88075],[-97.759464,28.880872],[-97.756901,28.880565],[-97.756038,28.879861],[-97.754725,28.878136],[-97.754461,28.877494],[-97.75475,28.877037],[-97.754454,28.876218],[-97.754618,28.875036],[-97.754369,28.874846],[-97.75333,28.875101],[-97.752966,28.874769],[-97.752935,28.874274],[-97.753396,28.873901],[-97.755001,28.874173],[-97.755889,28.874575],[-97.756641,28.874159],[-97.757138,28.873512],[-97.757093,28.872803],[-97.755388,28.869459],[-97.757062,28.864813],[-97.757105,28.863886],[-97.756768,28.86337],[-97.755842,28.862874],[-97.754156,28.862869],[-97.753092,28.862526],[-97.750944,28.860826],[-97.749376,28.858799],[-97.749073,28.855916],[-97.748337,28.855063],[-97.7479,28.853892],[-97.748177,28.853345],[-97.750331,28.853388],[-97.75133,28.852014],[-97.751753,28.851896],[-97.75296,28.852143],[-97.753712,28.851743],[-97.753618,28.849418],[-97.752408,28.84795],[-97.751789,28.847694],[-97.751147,28.84778],[-97.748935,28.848547],[-97.748691,28.848771],[-97.748736,28.8493],[-97.749219,28.84982],[-97.749378,28.850428],[-97.748831,28.850881],[-97.744932,28.851853],[-97.743279,28.851581],[-97.740313,28.851725],[-97.73991,28.851974],[-97.739663,28.852745],[-97.740728,28.854145],[-97.740733,28.854725],[-97.736032,28.855396],[-97.735054,28.854787],[-97.734125,28.853299],[-97.736007,28.851399],[-97.737833,28.850026],[-97.738086,28.849326],[-97.736534,28.848226],[-97.734619,28.845161],[-97.73363,28.844568],[-97.723056,28.842017],[-97.722202,28.841605],[-97.721976,28.841271],[-97.721371,28.833695],[-97.723278,28.831962],[-97.727466,28.829976],[-97.728703,28.828751],[-97.728861,28.828054],[-97.728427,28.824071],[-97.727697,28.821688],[-97.72709,28.816431],[-97.726415,28.813244],[-97.725436,28.811058],[-97.72342,28.808561],[-97.723927,28.807834],[-97.724564,28.807427],[-97.724532,28.806866],[-97.725263,28.807102],[-97.725638,28.806508],[-97.726137,28.80642],[-97.726044,28.805963],[-97.72653,28.804896],[-97.725462,28.804533],[-97.725281,28.804027],[-97.725474,28.803422],[-97.72608,28.803532],[-97.726599,28.803334],[-97.726924,28.803906],[-97.729266,28.803608],[-97.729378,28.803399],[-97.728978,28.803025],[-97.728016,28.802926],[-97.727991,28.802475],[-97.730227,28.80232],[-97.732263,28.801478],[-97.733112,28.801626],[-97.733237,28.802275],[-97.7336,28.802671],[-97.734524,28.80288],[-97.736135,28.802104],[-97.736579,28.802516],[-97.736317,28.803319],[-97.736461,28.803561],[-97.736979,28.80363],[-97.740301,28.806703],[-97.763664,28.785399],[-97.767923,28.787718],[-97.800023,28.801274],[-97.802033,28.802294],[-97.807906,28.807343],[-97.814287,28.816997],[-97.815575,28.818001],[-97.817594,28.818735],[-97.831209,28.815518],[-97.832883,28.815485],[-97.832593,28.815758],[-97.835605,28.817226],[-97.836003,28.817083],[-97.835886,28.808775],[-97.833055,28.808818],[-97.832512,28.807379],[-97.833128,28.806765],[-97.834361,28.806698],[-97.834404,28.808203],[-97.838295,28.807983],[-97.83782,28.804563],[-97.838479,28.804532],[-97.838845,28.804755],[-97.83922,28.807433],[-97.840479,28.807477],[-97.840854,28.810079],[-97.843516,28.810071],[-97.844447,28.808113],[-97.845357,28.807901],[-97.845346,28.807441],[-97.844283,28.807441],[-97.844239,28.805886],[-97.843923,28.805838],[-97.843721,28.804091],[-97.851135,28.804037],[-97.850284,28.808517],[-97.847347,28.815121],[-97.849136,28.819029],[-97.850183,28.818648],[-97.851041,28.820511],[-97.848625,28.821232],[-97.846174,28.822271],[-97.846674,28.823452],[-97.84467,28.824229],[-97.844789,28.824743],[-97.847053,28.824268],[-97.84744,28.824713],[-97.846853,28.825362],[-97.846629,28.826012],[-97.846823,28.826655],[-97.847647,28.827596],[-97.847186,28.82885],[-97.847163,28.829645],[-97.849543,28.829247],[-97.848411,28.834097],[-97.848623,28.836397],[-97.849462,28.837635],[-97.854955,28.84323],[-97.85602,28.844522],[-97.856521,28.845524],[-97.85864,28.858913],[-97.862156,28.866479],[-97.862689,28.867485],[-97.86366,28.86853],[-97.851806,28.87922],[-97.820152,28.906902],[-97.819691,28.906798],[-97.80662,28.918828],[-97.803,28.918135],[-97.800918,28.917289],[-97.794134,28.91631],[-97.793438,28.916026],[-97.792927,28.914739],[-97.79308,28.914092],[-97.794455,28.913031],[-97.796213,28.912629],[-97.798353,28.911412],[-97.798916,28.910595],[-97.798909,28.909675]]]}},{"type":"Feature","properties":{"PRECINCT":"7","VTD":"0007"},"geometry":{"type":"Polygon","coordinates":[[[-97.995302,29.026104],[-97.95639,28.965072],[-97.977415,28.954814],[-97.978624,28.956141],[-97.980238,28.957022],[-97.980652,28.957957],[-97.980795,28.961144],[-97.981201,28.962645],[-97.982391,28.96427],[-97.984816,28.969076],[-97.985945,28.969809],[-97.987331,28.970263],[-97.988571,28.973348],[-97.991143,28.974502],[-97.99391,28.97671],[-97.995448,28.977147],[-97.997836,28.976899],[-97.999635,28.977142],[-98.002027,28.978609],[-98.003898,28.979215],[-98.004473,28.979737],[-98.005894,28.979331],[-98.008798,28.977682],[-98.010644,28.977215],[-98.014798,28.977013],[-98.017063,28.977982],[-98.019002,28.977884],[-98.020504,28.977477],[-98.021236,28.976559],[-98.021268,28.974853],[-98.020987,28.973555],[-98.021301,28.972905],[-98.020444,28.972207],[-98.0203,28.971464],[-98.021077,28.969236],[-98.024013,28.964423],[-98.024914,28.963565],[-98.026241,28.963169],[-98.02781,28.963819],[-98.031181,28.968331],[-98.031713,28.968705],[-98.034178,28.968722],[-98.037431,28.966808],[-98.038489,28.96523],[-98.039327,28.9649],[-98.040572,28.964828],[-98.04223,28.963932],[-98.043695,28.961721],[-98.045196,28.96073],[-98.044471,28.959113],[-98.044321,28.95749],[-98.042951,28.95601],[-98.042758,28.955091],[-98.043521,28.951878],[-98.044485,28.950805],[-98.047595,28.948928],[-98.049732,28.947319],[-98.053679,28.945451],[-98.057803,28.942577],[-98.06102,28.941783],[-98.064058,28.940626],[-98.066472,28.938988],[-98.067561,28.939165],[-98.068097,28.939638],[-98.070205,28.939187],[-98.070925,28.938477],[-98.071362,28.938571],[-98.071888,28.938208],[-98.071588,28.937988],[-98.0708,28.938021],[-98.070693,28.937493],[-98.07097,28.937053],[-98.069923,28.936253],[-98.068568,28.933593],[-98.068542,28.93176],[-98.067812,28.929789],[-98.06869,28.927864],[-98.068577,28.925774],[-98.067937,28.925546],[-98.061294,28.925654],[-98.061362,28.924877],[-98.060987,28.924178],[-98.061312,28.924052],[-98.062431,28.924294],[-98.062475,28.923606],[-98.062869,28.923155],[-98.063288,28.923364],[-98.063388,28.923056],[-98.063119,28.921455],[-98.062588,28.921708],[-98.062663,28.922088],[-98.062019,28.921895],[-98.062644,28.920751],[-98.062388,28.920256],[-98.062056,28.920327],[-98.06165,28.920058],[-98.061819,28.919447],[-98.062482,28.91888],[-98.063488,28.919155],[-98.06417,28.919095],[-98.065127,28.91849],[-98.065027,28.918182],[-98.065302,28.917576],[-98.06699,28.917345],[-98.066659,28.916608],[-98.06634,28.916531],[-98.066452,28.916118],[-98.067865,28.916146],[-98.068641,28.915684],[-98.069041,28.916014],[-98.069929,28.916036],[-98.070148,28.914638],[-98.070811,28.914534],[-98.071004,28.913384],[-98.071348,28.912982],[-98.070829,28.912355],[-98.069872,28.912036],[-98.07061,28.910853],[-98.069904,28.910545],[-98.069367,28.909728],[-98.068381,28.910034],[-98.067236,28.910805],[-98.060568,28.910762],[-98.060256,28.910098],[-98.059944,28.910122],[-98.059501,28.910672],[-98.058886,28.910744],[-98.059243,28.898737],[-98.037148,28.897782],[-98.0368,28.897987],[-98.036777,28.898812],[-98.03431,28.899662],[-98.032539,28.899638],[-98.029074,28.900372],[-98.023759,28.900416],[-98.023082,28.900875],[-98.023051,28.908505],[-98.009803,28.90852],[-98.01021,28.907611],[-98.012087,28.906511],[-98.012295,28.906259],[-98.012139,28.905686],[-98.013077,28.90548],[-98.015006,28.903349],[-98.015006,28.902959],[-98.011777,28.899817],[-98.010892,28.899336],[-98.009928,28.899198],[-98.009043,28.898579],[-98.00695,28.898286],[-98.005857,28.875408],[-98.020821,28.874504],[-98.024864,28.873814],[-98.034905,28.869491],[-98.040233,28.87509],[-98.060533,28.87834],[-98.061581,28.879305],[-98.073422,28.869426],[-98.073961,28.868665],[-98.074416,28.868507],[-98.090215,28.855304],[-98.085395,28.850222],[-98.085251,28.849833],[-98.085437,28.849529],[-98.115396,28.82728],[-98.115906,28.825987],[-98.127956,28.81715],[-98.152557,28.844104],[-98.15339,28.84525],[-98.155498,28.84697],[-98.168427,28.861505],[-98.176297,28.868729],[-98.184393,28.875267],[-98.190991,28.882333],[-98.125284,28.928957],[-98.115763,28.936717],[-98.08616,28.959213],[-98.075008,28.967224],[-98.073314,28.968783],[-98.068391,28.972078],[-98.067735,28.972817],[-98.0553,28.98178],[-97.995302,29.026104]]]}},{"type":"Feature","properties":{"PRECINCT":"6","VTD":"0006"},"geometry":{"type":"Polygon","coordinates":[[[-97.811001,29.099978],[-97.818702,29.096067],[-97.806924,29.096009],[-97.801759,29.101389],[-97.79867,29.101479],[-97.803947,29.0907],[-97.80634,29.087198],[-97.805327,29.084461],[-97.804928,29.081023],[-97.805657,29.076741],[-97.80725,29.071198],[-97.809211,29.071084],[-97.812063,29.064429],[-97.812919,29.063209],[-97.815414,29.061329],[-97.819159,29.056033],[-97.819734,29.053516],[-97.81885,29.051597],[-97.820708,29.052515],[-97.822017,29.052875],[-97.823293,29.053115],[-97.824596,29.053079],[-97.82552,29.052859],[-97.833103,29.049223],[-97.836285,29.047402],[-97.851881,29.039839],[-97.853471,29.038602],[-97.871635,29.029776],[-97.873026,29.028321],[-97.874347,29.02467],[-97.901103,29.011055],[-97.904443,29.01513],[-97.906164,29.017829],[-97.907307,29.022654],[-97.912384,29.020714],[-97.913517,29.018954],[-97.91401,29.018642],[-97.918882,29.016901],[-97.919534,29.016992],[-97.920657,29.01764],[-97.926086,29.014937],[-97.927062,29.013731],[-97.930472,29.011949],[-97.929956,29.004124],[-97.929545,29.001635],[-97.925538,28.991707],[-97.926191,28.99111],[-97.926917,28.992227],[-97.927286,28.992342],[-97.928494,28.992106],[-97.92932,28.992277],[-97.930715,28.991628],[-97.930916,28.991231],[-97.930565,28.990648],[-97.930509,28.989575],[-97.930887,28.988306],[-97.930325,28.988042],[-97.929309,28.9885],[-97.928266,28.988593],[-97.927185,28.987785],[-97.925906,28.986383],[-97.924007,28.982935],[-97.921175,28.979672],[-97.939121,28.970912],[-97.940339,28.972863],[-97.95639,28.965072],[-97.995302,29.026104],[-97.837739,29.141606],[-97.836198,29.137672],[-97.811001,29.099978]]]}},{"type":"Feature","properties":{"PRECINCT":"3","VTD":"0003"},"geometry":{"type":"Polygon","coordinates":[[[-97.624957,29.100801],[-97.630208,29.098363],[-97.66131,29.075286],[-97.679192,29.062511],[-97.679633,29.06299],[-97.679669,29.064759],[-97.677101,29.065548],[-97.68086,29.073837],[-97.680965,29.074363],[-97.680339,29.075462],[-97.68385,29.07554],[-97.686627,29.075027],[-97.68814,29.076838],[-97.690488,29.078626],[-97.691428,29.079887],[-97.693306,29.080437],[-97.693593,29.081193],[-97.695237,29.081743],[-97.695681,29.082407],[-97.696542,29.082705],[-97.700318,29.082079],[-97.707675,29.099301],[-97.749717,29.085811],[-97.750516,29.086333],[-97.753656,29.09214],[-97.764754,29.092213],[-97.773227,29.100539],[-97.773301,29.10012],[-97.772743,29.099531],[-97.772881,29.099322],[-97.774266,29.09885],[-97.774886,29.098195],[-97.775788,29.098074],[-97.776195,29.097216],[-97.776571,29.096947],[-97.778119,29.096832],[-97.779447,29.096392],[-97.778977,29.094797],[-97.779235,29.093625],[-97.77983,29.093003],[-97.781039,29.092822],[-97.782009,29.093307],[-97.782304,29.092553],[-97.782874,29.092212],[-97.783525,29.092619],[-97.784152,29.092553],[-97.784923,29.0907],[-97.787526,29.089746],[-97.790016,29.078845],[-97.792645,29.071151],[-97.799187,29.071207],[-97.800914,29.071006],[-97.80725,29.071198],[-97.805657,29.076741],[-97.804928,29.081023],[-97.805327,29.084461],[-97.80634,29.087198],[-97.803947,29.0907],[-97.79867,29.101479],[-97.801759,29.101389],[-97.806924,29.096009],[-97.818702,29.096067],[-97.811001,29.099978],[-97.836198,29.137672],[-97.837739,29.141606],[-97.728443,29.221748],[-97.62912,29.125268],[-97.625298,29.121338],[-97.613132,29.109765],[-97.624957,29.100801]]]}},{"type":"Feature","properties":{"PRECINCT":"9","VTD":"0009"},"geometry":{"type":"Polygon","coordinates":[[[-97.721702,28.807046],[-97.720399,28.806603],[-97.718678,28.806782],[-97.71565,28.807752],[-97.714195,28.807748],[-97.712809,28.807022],[-97.712198,28.806303],[-97.711957,28.805479],[-97.712341,28.80542],[-97.713234,28.805751],[-97.714028,28.805511],[-97.715601,28.803875],[-97.716027,28.802751],[-97.714805,28.801145],[-97.713536,28.800035],[-97.712848,28.798616],[-97.711174,28.796537],[-97.708001,28.793851],[-97.70545,28.792423],[-97.704955,28.784767],[-97.704078,28.781784],[-97.704047,28.779054],[-97.70322,28.777546],[-97.702541,28.776929],[-97.701318,28.776756],[-97.699816,28.776199],[-97.69843,28.776367],[-97.697731,28.776211],[-97.697327,28.774388],[-97.69637,28.773907],[-97.69392,28.773387],[-97.693046,28.772623],[-97.693372,28.768579],[-97.693875,28.76764],[-97.696019,28.765527],[-97.69634,28.764434],[-97.695894,28.762489],[-97.693852,28.758628],[-97.693287,28.755795],[-97.691271,28.753507],[-97.690347,28.75191],[-97.689128,28.750573],[-97.687872,28.75009],[-97.682899,28.750048],[-97.680349,28.750622],[-97.679968,28.751486],[-97.68051,28.753832],[-97.680279,28.757092],[-97.67964,28.75845],[-97.678459,28.760118],[-97.677043,28.761237],[-97.675632,28.761863],[-97.669795,28.763181],[-97.668064,28.763338],[-97.662993,28.762854],[-97.659009,28.761864],[-97.656506,28.760741],[-97.654622,28.758872],[-97.653782,28.756962],[-97.706914,28.719297],[-97.77853,28.668027],[-97.780088,28.669636],[-97.781165,28.670191],[-97.781983,28.669985],[-97.782937,28.670491],[-97.784485,28.670731],[-97.78481,28.671782],[-97.785246,28.672272],[-97.784971,28.672811],[-97.785564,28.673334],[-97.786231,28.673318],[-97.786369,28.673763],[-97.787055,28.674055],[-97.786942,28.674776],[-97.787441,28.675563],[-97.788327,28.675849],[-97.789019,28.675502],[-97.789525,28.675777],[-97.789899,28.675596],[-97.791889,28.67695],[-97.792369,28.676477],[-97.793523,28.67607],[-97.794104,28.674931],[-97.794449,28.674852],[-97.794759,28.673743],[-97.795231,28.673398],[-97.822964,28.670563],[-97.823217,28.670821],[-97.814406,28.673572],[-97.825604,28.700126],[-97.82359,28.701627],[-97.816751,28.7039],[-97.822903,28.727401],[-97.822504,28.728111],[-97.821174,28.72937],[-97.820088,28.729668],[-97.819764,28.730625],[-97.818385,28.73194],[-97.818256,28.732601],[-97.818539,28.732981],[-97.818358,28.733274],[-97.819663,28.734504],[-97.815161,28.738636],[-97.817789,28.740916],[-97.815807,28.741166],[-97.815095,28.741579],[-97.81477,28.741111],[-97.814427,28.741056],[-97.813772,28.741485],[-97.812923,28.743031],[-97.8113,28.743168],[-97.811618,28.742833],[-97.811443,28.742767],[-97.811144,28.743366],[-97.809034,28.74374],[-97.808528,28.744395],[-97.80826,28.744335],[-97.807785,28.744731],[-97.807592,28.745198],[-97.807573,28.744907],[-97.807067,28.744791],[-97.805887,28.745176],[-97.80497,28.746023],[-97.805232,28.746799],[-97.803827,28.747255],[-97.803353,28.74813],[-97.802966,28.748389],[-97.802435,28.748323],[-97.801867,28.747723],[-97.801798,28.746469],[-97.801107,28.746419],[-97.801003,28.748214],[-97.79248,28.751469],[-97.812824,28.768596],[-97.813158,28.7694],[-97.81333,28.773476],[-97.816677,28.776477],[-97.806778,28.785459],[-97.801982,28.781389],[-97.7902,28.792128],[-97.801753,28.802122],[-97.767923,28.787718],[-97.763664,28.785399],[-97.740301,28.806703],[-97.736979,28.80363],[-97.736461,28.803561],[-97.736317,28.803319],[-97.736579,28.802516],[-97.73621,28.802131],[-97.735473,28.802291],[-97.734737,28.80288],[-97.734074,28.802803],[-97.733337,28.802429],[-97.733112,28.801626],[-97.73265,28.801439],[-97.730227,28.80232],[-97.727991,28.802475],[-97.728016,28.802926],[-97.728978,28.803025],[-97.729378,28.803399],[-97.729266,28.803608],[-97.726924,28.803906],[-97.726599,28.803334],[-97.72608,28.803532],[-97.725474,28.803422],[-97.725281,28.804027],[-97.725462,28.804533],[-97.72653,28.804896],[-97.726044,28.805963],[-97.726137,28.80642],[-97.725638,28.806508],[-97.725263,28.807102],[-97.724532,28.806866],[-97.724564,28.807427],[-97.723927,28.807834],[-97.72342,28.808561],[-97.721702,28.807046]]]}},{"type":"Feature","properties":{"PRECINCT":"5","VTD":"0005"},"geometry":{"type":"Polygon","coordinates":[[[-97.720068,28.969507],[-97.574639,28.8133],[-97.653782,28.756962],[-97.654622,28.758872],[-97.656506,28.760741],[-97.659009,28.761864],[-97.662006,28.76264],[-97.668591,28.763355],[-97.675632,28.761863],[-97.677043,28.761237],[-97.678203,28.760395],[-97.680098,28.75757],[-97.68056,28.754982],[-97.68051,28.753832],[-97.679991,28.752025],[-97.68016,28.750754],[-97.682899,28.750048],[-97.687872,28.75009],[-97.689128,28.750573],[-97.690347,28.75191],[-97.691271,28.753507],[-97.693287,28.755795],[-97.693852,28.758628],[-97.695894,28.762489],[-97.696337,28.76483],[-97.695798,28.765786],[-97.693875,28.76764],[-97.693372,28.768579],[-97.693046,28.772623],[-97.69392,28.773387],[-97.69637,28.773907],[-97.697327,28.774388],[-97.697731,28.776211],[-97.69843,28.776367],[-97.699816,28.776199],[-97.701318,28.776756],[-97.702541,28.776929],[-97.70322,28.777546],[-97.70395,28.778707],[-97.704078,28.781784],[-97.704955,28.784767],[-97.70545,28.792423],[-97.708001,28.793851],[-97.711174,28.796537],[-97.712848,28.798616],[-97.713536,28.800035],[-97.714805,28.801145],[-97.716027,28.802751],[-97.715601,28.803875],[-97.714028,28.805511],[-97.713234,28.805751],[-97.712341,28.80542],[-97.711957,28.805479],[-97.712198,28.806303],[-97.713416,28.807444],[-97.714195,28.807748],[-97.715125,28.807796],[-97.716398,28.807592],[-97.718678,28.806782],[-97.721071,28.806719],[-97.722544,28.807607],[-97.724651,28.809994],[-97.726037,28.812115],[-97.72709,28.816431],[-97.727496,28.820408],[-97.728427,28.824071],[-97.728861,28.828054],[-97.728703,28.828751],[-97.727466,28.829976],[-97.723278,28.831962],[-97.721371,28.833695],[-97.721812,28.839954],[-97.722202,28.841605],[-97.723056,28.842017],[-97.724997,28.842383],[-97.727753,28.843245],[-97.73363,28.844568],[-97.734619,28.845161],[-97.736534,28.848226],[-97.738086,28.849326],[-97.737833,28.850026],[-97.736007,28.851399],[-97.734125,28.853299],[-97.735054,28.854787],[-97.736032,28.855396],[-97.740733,28.854725],[-97.740728,28.854145],[-97.739663,28.852745],[-97.73991,28.851974],[-97.740313,28.851725],[-97.743279,28.851581],[-97.744932,28.851853],[-97.748831,28.850881],[-97.749378,28.850428],[-97.749219,28.84982],[-97.748736,28.8493],[-97.748691,28.848771],[-97.748935,28.848547],[-97.751147,28.84778],[-97.751789,28.847694],[-97.752408,28.84795],[-97.753618,28.849418],[-97.753712,28.851743],[-97.75296,28.852143],[-97.751753,28.851896],[-97.75133,28.852014],[-97.750331,28.853388],[-97.748177,28.853345],[-97.7479,28.853892],[-97.748337,28.855063],[-97.749073,28.855916],[-97.749376,28.858799],[-97.750944,28.860826],[-97.753092,28.862526],[-97.754156,28.862869],[-97.755842,28.862874],[-97.756768,28.86337],[-97.757105,28.863886],[-97.757062,28.864813],[-97.755388,28.869459],[-97.757093,28.872803],[-97.757138,28.873512],[-97.756641,28.874159],[-97.755889,28.874575],[-97.755001,28.874173],[-97.753396,28.873901],[-97.752981,28.874136],[-97.752914,28.874559],[-97.75333,28.875101],[-97.754369,28.874846],[-97.754618,28.875036],[-97.754454,28.876218],[-97.75475,28.877037],[-97.754488,28.877681],[-97.756038,28.879861],[-97.757286,28.880679],[-97.759464,28.880872],[-97.761284,28.88075],[-97.763501,28.880033],[-97.765515,28.878533],[-97.768061,28.874893],[-97.769735,28.873492],[-97.770222,28.873258],[-97.771526,28.873517],[-97.772535,28.872971],[-97.772926,28.872968],[-97.773469,28.873282],[-97.773696,28.873966],[-97.77336,28.876266],[-97.772474,28.877275],[-97.769421,28.879152],[-97.768605,28.880124],[-97.768139,28.881438],[-97.768793,28.882668],[-97.769633,28.882992],[-97.772957,28.883004],[-97.773382,28.883561],[-97.773626,28.88496],[-97.774293,28.886106],[-97.774834,28.886731],[-97.777135,28.888333],[-97.778856,28.887655],[-97.780347,28.885896],[-97.782291,28.885546],[-97.784203,28.884763],[-97.785629,28.885071],[-97.787372,28.8871],[-97.788409,28.888798],[-97.789667,28.889964],[-97.789904,28.891371],[-97.790779,28.892344],[-97.79111,28.893149],[-97.791126,28.897347],[-97.790895,28.898069],[-97.790353,28.899028],[-97.787517,28.900397],[-97.786763,28.900939],[-97.786362,28.901593],[-97.786627,28.902859],[-97.787239,28.903317],[-97.789984,28.90348],[-97.791421,28.904491],[-97.784874,28.910573],[-97.776432,28.919308],[-97.774754,28.919273],[-97.772515,28.92021],[-97.772669,28.920564],[-97.774051,28.92112],[-97.776546,28.921495],[-97.776783,28.921748],[-97.776758,28.922221],[-97.776038,28.924135],[-97.773368,28.925576],[-97.772948,28.927072],[-97.770327,28.929954],[-97.769582,28.931368],[-97.769688,28.931885],[-97.770201,28.932336],[-97.771039,28.932683],[-97.771845,28.933585],[-97.773327,28.934433],[-97.774359,28.934345],[-97.775541,28.933328],[-97.776635,28.933229],[-97.779599,28.936146],[-97.781024,28.936641],[-97.782538,28.936752],[-97.783363,28.937181],[-97.783794,28.937698],[-97.783625,28.93832],[-97.781842,28.940261],[-97.781924,28.940877],[-97.782317,28.941131],[-97.782974,28.941285],[-97.783781,28.941114],[-97.784225,28.941967],[-97.786076,28.94276],[-97.788559,28.942766],[-97.790016,28.942315],[-97.79071,28.943025],[-97.791072,28.944301],[-97.790629,28.944257],[-97.790603,28.944736],[-97.788408,28.946221],[-97.786549,28.949829],[-97.786893,28.951139],[-97.787212,28.951425],[-97.787312,28.952288],[-97.786523,28.955045],[-97.78584,28.956535],[-97.785859,28.958609],[-97.786759,28.960689],[-97.78659,28.961063],[-97.785952,28.961431],[-97.785795,28.962928],[-97.787139,28.965107],[-97.788065,28.965662],[-97.788165,28.966004],[-97.787834,28.966252],[-97.788498,28.968774],[-97.720068,28.969507]]]}},{"type":"Feature","properties":{"PRECINCT":"10","VTD":"0010"},"geometry":{"type":"Polygon","coordinates":[[[-97.999635,28.977142],[-97.997836,28.976899],[-97.995448,28.977147],[-97.99391,28.97671],[-97.991143,28.974502],[-97.988571,28.973348],[-97.987331,28.970263],[-97.985945,28.969809],[-97.984816,28.969076],[-97.982391,28.96427],[-97.981201,28.962645],[-97.980795,28.961144],[-97.980652,28.957957],[-97.980238,28.957022],[-97.978624,28.956141],[-97.977415,28.954814],[-97.979195,28.954108],[-97.980074,28.954147],[-97.981493,28.954588],[-97.978343,28.948967],[-97.977725,28.948975],[-97.975516,28.945993],[-97.972576,28.944074],[-97.970893,28.942595],[-97.968528,28.942061],[-97.966739,28.940015],[-97.966345,28.938849],[-97.967514,28.938948],[-97.968433,28.938447],[-97.969265,28.938403],[-97.972074,28.938815],[-97.973725,28.938715],[-97.974344,28.937851],[-97.974168,28.937439],[-97.974418,28.937114],[-97.974649,28.93564],[-97.974317,28.934396],[-97.975611,28.933485],[-97.976652,28.91159],[-97.981046,28.911575],[-97.982452,28.911273],[-97.983672,28.910489],[-97.98505,28.910118],[-97.986325,28.910343],[-97.987363,28.91155],[-97.989495,28.9117],[-97.991033,28.876336],[-98.005857,28.875408],[-98.00695,28.898286],[-98.009043,28.898579],[-98.009928,28.899198],[-98.010892,28.899336],[-98.011777,28.899817],[-98.015006,28.902959],[-98.015006,28.903349],[-98.013077,28.90548],[-98.012139,28.905686],[-98.012295,28.906259],[-98.012087,28.906511],[-98.01021,28.907611],[-98.009803,28.90852],[-98.023051,28.908505],[-98.023082,28.900875],[-98.023759,28.900416],[-98.029074,28.900372],[-98.032539,28.899638],[-98.03431,28.899662],[-98.036777,28.898812],[-98.0368,28.897987],[-98.037148,28.897782],[-98.059243,28.898737],[-98.058886,28.910744],[-98.059501,28.910672],[-98.059944,28.910122],[-98.060256,28.910098],[-98.060568,28.910762],[-98.067236,28.910805],[-98.068381,28.910034],[-98.069367,28.909728],[-98.069904,28.910545],[-98.07061,28.910853],[-98.069872,28.912036],[-98.070829,28.912355],[-98.071348,28.912982],[-98.071004,28.913384],[-98.070811,28.914534],[-98.070148,28.914638],[-98.069929,28.916036],[-98.069041,28.916014],[-98.068641,28.915684],[-98.067865,28.916146],[-98.066452,28.916118],[-98.06634,28.916531],[-98.066659,28.916608],[-98.06699,28.917345],[-98.065302,28.917576],[-98.065027,28.918182],[-98.065127,28.91849],[-98.06417,28.919095],[-98.063488,28.919155],[-98.062482,28.91888],[-98.061819,28.919447],[-98.06165,28.920058],[-98.062056,28.920327],[-98.062388,28.920256],[-98.062644,28.920751],[-98.062019,28.921895],[-98.062663,28.922088],[-98.062588,28.921708],[-98.063119,28.921455],[-98.063388,28.923056],[-98.063288,28.923364],[-98.062869,28.923155],[-98.062475,28.923606],[-98.062431,28.924294],[-98.061312,28.924052],[-98.060987,28.924178],[-98.061362,28.924877],[-98.061294,28.925654],[-98.067937,28.925546],[-98.068577,28.925774],[-98.06869,28.927864],[-98.067812,28.929789],[-98.068542,28.93176],[-98.068568,28.933593],[-98.069923,28.936253],[-98.07097,28.937053],[-98.070693,28.937493],[-98.0708,28.938021],[-98.071588,28.937988],[-98.071888,28.938208],[-98.071362,28.938571],[-98.070925,28.938477],[-98.070205,28.939187],[-98.068097,28.939638],[-98.067561,28.939165],[-98.066472,28.938988],[-98.064058,28.940626],[-98.06102,28.941783],[-98.057803,28.942577],[-98.053679,28.945451],[-98.049732,28.947319],[-98.047595,28.948928],[-98.044485,28.950805],[-98.043521,28.951878],[-98.042758,28.955091],[-98.042951,28.95601],[-98.044321,28.95749],[-98.044471,28.959113],[-98.045196,28.96073],[-98.043695,28.961721],[-98.04223,28.963932],[-98.040572,28.964828],[-98.039327,28.9649],[-98.038489,28.96523],[-98.037431,28.966808],[-98.034178,28.968722],[-98.031713,28.968705],[-98.031181,28.968331],[-98.02781,28.963819],[-98.026241,28.963169],[-98.024914,28.963565],[-98.024013,28.964423],[-98.021077,28.969236],[-98.0203,28.971464],[-98.020444,28.972207],[-98.021301,28.972905],[-98.020987,28.973555],[-98.021268,28.974853],[-98.021236,28.976559],[-98.020504,28.977477],[-98.019002,28.977884],[-98.017231,28.97801],[-98.014798,28.977013],[-98.010644,28.977215],[-98.008798,28.977682],[-98.005894,28.979331],[-98.004473,28.979737],[-98.003898,28.979215],[-98.002027,28.978609],[-97.999635,28.977142]]]}}]}