{"type":"FeatureCollection","features":[{"type":"Feature","properties":{"PRECINCT":"1","VTD":"0001"},"geometry":{"type":"Polygon","coordinates":[[[-99.397054,32.51511],[-99.398461,32.51315],[-99.399701,32.512303],[-99.400034,32.509152],[-99.400411,32.507811],[-99.399898,32.506991],[-99.400204,32.506051],[-99.402534,32.50565],[-99.403177,32.504649],[-99.404621,32.503999],[-99.407707,32.501972],[-99.408415,32.500504],[-99.409698,32.499888],[-99.410247,32.499142],[-99.410514,32.498436],[-99.410339,32.497959],[-99.410902,32.497031],[-99.410523,32.496478],[-99.410871,32.496092],[-99.412525,32.495557],[-99.413864,32.495582],[-99.414231,32.495299],[-99.413894,32.493875],[-99.41285,32.492082],[-99.413117,32.490806],[-99.414773,32.489233],[-99.414674,32.488458],[-99.414892,32.487822],[-99.416991,32.485687],[-99.417556,32.484785],[-99.41886,32.484142],[-99.419548,32.483136],[-99.419944,32.482944],[-99.41984,32.481866],[-99.419068,32.481008],[-99.418783,32.479308],[-99.418933,32.479011],[-99.419679,32.478946],[-99.42108,32.478269],[-99.423066,32.475811],[-99.425596,32.474415],[-99.428379,32.473634],[-99.430338,32.474195],[-99.430961,32.474096],[-99.431162,32.473442],[-99.430085,32.472326],[-99.429456,32.471149],[-99.429651,32.47067],[-99.430805,32.470027],[-99.431441,32.468322],[-99.432291,32.467805],[-99.432998,32.46808],[-99.433485,32.468696],[-99.433705,32.470252],[-99.433562,32.472364],[-99.433764,32.47265],[-99.435327,32.472458],[-99.437435,32.471143],[-99.438551,32.471275],[-99.440192,32.471066],[-99.441367,32.471264],[-99.443027,32.471083],[-99.4433,32.470621],[-99.443222,32.470131],[-99.442035,32.46841],[-99.441794,32.467673],[-99.442573,32.466012],[-99.442449,32.465105],[-99.442735,32.464033],[-99.443507,32.463818],[-99.444311,32.464093],[-99.444778,32.463983],[-99.445855,32.464742],[-99.446037,32.464505],[-99.445887,32.463956],[-99.446335,32.463923],[-99.447068,32.46472],[-99.447425,32.464137],[-99.447828,32.464058],[-99.448099,32.463699],[-99.448845,32.461761],[-99.45094,32.461018],[-99.450752,32.460227],[-99.451407,32.460155],[-99.451082,32.459462],[-99.451478,32.458236],[-99.453508,32.457873],[-99.45445,32.457386],[-99.454767,32.407209],[-99.471875,32.409399],[-99.472088,32.402861],[-99.493391,32.40584],[-99.493433,32.405535],[-99.489852,32.404921],[-99.490194,32.402837],[-99.489811,32.400929],[-99.489839,32.397421],[-99.498538,32.397481],[-99.498104,32.400282],[-99.498923,32.400599],[-99.498895,32.401469],[-99.503115,32.401638],[-99.503101,32.406933],[-99.528941,32.410732],[-99.53165,32.410802],[-99.547115,32.409563],[-99.551763,32.409489],[-99.561921,32.410851],[-99.562346,32.357695],[-99.575757,32.357704],[-99.587451,32.357977],[-99.58927,32.357745],[-99.630715,32.357709],[-99.630171,32.386913],[-99.629764,32.430752],[-99.629838,32.47456],[-99.629579,32.514657],[-99.505451,32.514784],[-99.497223,32.514948],[-99.402685,32.514961],[-99.397054,32.51511]]]}},{"type":"Feature","properties":{"PRECINCT":"2","VTD":"0002"},"geometry":{"type":"Polygon","coordinates":[[[-99.519274,32.409377],[-99.503101,32.406933],[-99.503115,32.401638],[-99.507744,32.401701],[-99.50808,32.396228],[-99.506565,32.396176],[-99.505466,32.396487],[-99.503838,32.396464],[-99.501896,32.396066],[-99.502659,32.39429],[-99.507898,32.394365],[-99.507999,32.387002],[-99.508485,32.38031],[-99.509899,32.373024],[-99.509697,32.372424],[-99.509381,32.372493],[-99.508214,32.371439],[-99.5078,32.370665],[-99.508213,32.362441],[-99.508303,32.343083],[-99.507333,32.340647],[-99.507295,32.338433],[-99.50758,32.308292],[-99.507463,32.281696],[-99.507971,32.277118],[-99.502054,32.276014],[-99.504225,32.266958],[-99.497373,32.26678],[-99.496751,32.266436],[-99.496594,32.264672],[-99.496865,32.264167],[-99.49719,32.264076],[-99.500659,32.264173],[-99.500776,32.25707],[-99.502279,32.250513],[-99.517048,32.250977],[-99.518909,32.251427],[-99.538743,32.257974],[-99.54183,32.258407],[-99.552836,32.258557],[-99.556069,32.259044],[-99.558701,32.259853],[-99.579079,32.267927],[-99.593173,32.271174],[-99.595423,32.272031],[-99.597625,32.273185],[-99.599657,32.274648],[-99.601209,32.276105],[-99.603587,32.279454],[-99.630555,32.331118],[-99.630843,32.341347],[-99.630715,32.357709],[-99.58927,32.357745],[-99.587451,32.357977],[-99.575757,32.357704],[-99.562346,32.357695],[-99.561921,32.410851],[-99.551763,32.409489],[-99.547115,32.409563],[-99.530605,32.410809],[-99.519274,32.409377]]]}},{"type":"Feature","properties":{"PRECINCT":"3","VTD":"0003"},"geometry":{"type":"Polygon","coordinates":[[[-99.297423,32.515127],[-99.297879,32.512593],[-99.297397,32.511331],[-99.298049,32.510781],[-99.298271,32.509313],[-99.299088,32.508257],[-99.300309,32.50821],[-99.300872,32.507742],[-99.300347,32.50397],[-99.300261,32.497587],[-99.300298,32.464173],[-99.299548,32.463298],[-99.299385,32.46256],[-99.298331,32.454644],[-99.295309,32.455488],[-99.292648,32.455246],[-99.284747,32.455974],[-99.284194,32.455475],[-99.283723,32.454289],[-99.282554,32.453031],[-99.282818,32.45227],[-99.282457,32.45154],[-99.28151,32.450537],[-99.281062,32.450443],[-99.282804,32.447972],[-99.283721,32.447445],[-99.284964,32.446047],[-99.288127,32.443298],[-99.289724,32.44094],[-99.289643,32.439065],[-99.288292,32.43719],[-99.288265,32.436733],[-99.288832,32.435291],[-99.289318,32.434721],[-99.289345,32.434172],[-99.289967,32.43328],[-99.289859,32.432342],[-99.290399,32.431314],[-99.2904,32.429506],[-99.295049,32.428781],[-99.295288,32.42857],[-99.295203,32.409634],[-99.295,32.408594],[-99.294563,32.391679],[-99.294593,32.391385],[-99.298512,32.391391],[-99.298542,32.385452],[-99.297697,32.380443],[-99.29802,32.378106],[-99.288011,32.375705],[-99.285593,32.375646],[-99.286142,32.374942],[-99.28665,32.375459],[-99.286863,32.37541],[-99.286676,32.375157],[-99.28691,32.374898],[-99.287571,32.37497],[-99.288102,32.374772],[-99.288219,32.373958],[-99.289224,32.373243],[-99.288712,32.373024],[-99.289211,32.372792],[-99.289094,32.372358],[-99.289405,32.371929],[-99.289107,32.371791],[-99.289185,32.371461],[-99.288343,32.371384],[-99.28855,32.370939],[-99.288939,32.370966],[-99.288771,32.370339],[-99.289127,32.369971],[-99.288959,32.369603],[-99.289277,32.368558],[-99.288855,32.368354],[-99.288836,32.367837],[-99.289374,32.367568],[-99.290495,32.368112],[-99.291,32.367739],[-99.289795,32.367166],[-99.290346,32.365616],[-99.28955,32.364945],[-99.289213,32.365209],[-99.289517,32.364554],[-99.289453,32.363768],[-99.291008,32.363158],[-99.291235,32.363301],[-99.291098,32.363587],[-99.291915,32.363466],[-99.292245,32.363026],[-99.292401,32.363251],[-99.293004,32.362949],[-99.292828,32.362734],[-99.291206,32.362331],[-99.290099,32.362684],[-99.28866,32.362608],[-99.288701,32.360446],[-99.288261,32.359283],[-99.287501,32.358586],[-99.286664,32.358976],[-99.284046,32.359525],[-99.282722,32.360671],[-99.28067,32.361793],[-99.279941,32.361632],[-99.278889,32.360738],[-99.277809,32.360761],[-99.274731,32.362066],[-99.273165,32.362432],[-99.272139,32.363326],[-99.269959,32.362171],[-99.269142,32.361139],[-99.270676,32.360623],[-99.271882,32.359716],[-99.272045,32.358105],[-99.27154,32.357148],[-99.27187,32.356774],[-99.271521,32.355168],[-99.272053,32.354118],[-99.271916,32.353549],[-99.273951,32.353563],[-99.274139,32.353112],[-99.274584,32.352843],[-99.27531,32.353259],[-99.276475,32.353289],[-99.278377,32.352349],[-99.278137,32.351705],[-99.278245,32.351235],[-99.27431,32.350996],[-99.274304,32.348799],[-99.274629,32.348157],[-99.275654,32.347745],[-99.275655,32.347287],[-99.27473,32.34707],[-99.274417,32.346744],[-99.274073,32.345423],[-99.273525,32.344771],[-99.273404,32.3409],[-99.27201,32.340081],[-99.27229,32.317941],[-99.272102,32.296171],[-99.274901,32.296334],[-99.293682,32.296203],[-99.295587,32.296716],[-99.297083,32.297891],[-99.297912,32.299626],[-99.297885,32.301764],[-99.297186,32.304593],[-99.297164,32.305694],[-99.297942,32.307651],[-99.298636,32.307692],[-99.299309,32.308138],[-99.301006,32.307318],[-99.301045,32.306708],[-99.300708,32.306713],[-99.300851,32.306169],[-99.30155,32.30596],[-99.301951,32.305559],[-99.302437,32.305625],[-99.302813,32.305355],[-99.302476,32.304778],[-99.303253,32.304156],[-99.303888,32.304354],[-99.303648,32.305245],[-99.304606,32.305064],[-99.304801,32.304547],[-99.306063,32.305234],[-99.306536,32.305751],[-99.308336,32.305432],[-99.308595,32.30513],[-99.308453,32.304723],[-99.309709,32.304454],[-99.309838,32.304206],[-99.310421,32.30403],[-99.311043,32.305158],[-99.311289,32.305328],[-99.311904,32.305245],[-99.312357,32.305713],[-99.312849,32.305652],[-99.313601,32.305927],[-99.314449,32.305438],[-99.315854,32.306411],[-99.316592,32.306422],[-99.317667,32.306912],[-99.318727,32.306845],[-99.319001,32.307146],[-99.322539,32.307006],[-99.326861,32.306293],[-99.327968,32.305466],[-99.329931,32.304792],[-99.330507,32.30402],[-99.333208,32.304316],[-99.334352,32.304054],[-99.335299,32.304484],[-99.335914,32.304473],[-99.337779,32.303032],[-99.33818,32.302411],[-99.338685,32.302235],[-99.339242,32.303021],[-99.339885,32.302872],[-99.341016,32.303866],[-99.340235,32.305722],[-99.340748,32.307441],[-99.340182,32.308587],[-99.337781,32.310306],[-99.33913,32.310558],[-99.340398,32.31113],[-99.340534,32.313032],[-99.340886,32.313307],[-99.342701,32.313764],[-99.347329,32.314036],[-99.347978,32.31431],[-99.348467,32.31486],[-99.348849,32.316028],[-99.349364,32.316555],[-99.352289,32.317263],[-99.35329,32.31772],[-99.356457,32.317581],[-99.359353,32.317876],[-99.360412,32.319066],[-99.3622,32.320324],[-99.364015,32.321194],[-99.366099,32.321742],[-99.36794,32.321901],[-99.367876,32.324523],[-99.368233,32.32494],[-99.385617,32.325061],[-99.385105,32.35405],[-99.384525,32.355804],[-99.382982,32.357997],[-99.381165,32.363605],[-99.381427,32.364853],[-99.384496,32.369847],[-99.384993,32.371109],[-99.384946,32.383595],[-99.385384,32.385381],[-99.411724,32.385686],[-99.411709,32.39474],[-99.416281,32.394136],[-99.419759,32.392553],[-99.420754,32.39282],[-99.421778,32.394253],[-99.422992,32.394489],[-99.43018,32.391547],[-99.437489,32.389129],[-99.449507,32.387679],[-99.453677,32.386501],[-99.489934,32.386909],[-99.489811,32.400929],[-99.490194,32.402837],[-99.489833,32.404855],[-99.490078,32.405049],[-99.493433,32.405535],[-99.493391,32.40584],[-99.472088,32.402861],[-99.471875,32.409399],[-99.454767,32.407209],[-99.45445,32.457386],[-99.453508,32.457873],[-99.451478,32.458236],[-99.451082,32.459462],[-99.451407,32.460155],[-99.450752,32.460227],[-99.45094,32.461018],[-99.448845,32.461761],[-99.448099,32.463699],[-99.447828,32.464058],[-99.447425,32.464137],[-99.447068,32.46472],[-99.446335,32.463923],[-99.445887,32.463956],[-99.446037,32.464505],[-99.445855,32.464742],[-99.444778,32.463983],[-99.444311,32.464093],[-99.443507,32.463818],[-99.442735,32.464033],[-99.442449,32.465105],[-99.442573,32.466012],[-99.441794,32.467673],[-99.442035,32.46841],[-99.443222,32.470131],[-99.4433,32.470621],[-99.443027,32.471083],[-99.441367,32.471264],[-99.440192,32.471066],[-99.438551,32.471275],[-99.437435,32.471143],[-99.435327,32.472458],[-99.433764,32.47265],[-99.433562,32.472364],[-99.433705,32.470252],[-99.433485,32.468696],[-99.432998,32.46808],[-99.432291,32.467805],[-99.431441,32.468322],[-99.430805,32.470027],[-99.429651,32.47067],[-99.429456,32.471149],[-99.430085,32.472326],[-99.431162,32.473442],[-99.430961,32.474096],[-99.430338,32.474195],[-99.428379,32.473634],[-99.425596,32.474415],[-99.423066,32.475811],[-99.42108,32.478269],[-99.419679,32.478946],[-99.418933,32.479011],[-99.418783,32.479308],[-99.419068,32.481008],[-99.41984,32.481866],[-99.419944,32.482944],[-99.419548,32.483136],[-99.41886,32.484142],[-99.417556,32.484785],[-99.416991,32.485687],[-99.414892,32.487822],[-99.414674,32.488458],[-99.414773,32.489233],[-99.413117,32.490806],[-99.41285,32.492082],[-99.413894,32.493875],[-99.414231,32.495299],[-99.413864,32.495582],[-99.412525,32.495557],[-99.410871,32.496092],[-99.410523,32.496478],[-99.410902,32.497031],[-99.410339,32.497959],[-99.410514,32.498436],[-99.410247,32.499142],[-99.409698,32.499888],[-99.408415,32.500504],[-99.407707,32.501972],[-99.404621,32.503999],[-99.403177,32.504649],[-99.402534,32.50565],[-99.400204,32.506051],[-99.399898,32.506991],[-99.400411,32.507811],[-99.400034,32.509152],[-99.399701,32.512303],[-99.398461,32.51315],[-99.397054,32.51511],[-99.375357,32.514946],[-99.297423,32.515127]]]}},{"type":"Feature","properties":{"PRECINCT":"4","VTD":"0004"},"geometry":{"type":"Polygon","coordinates":[[[-99.22203,32.331742],[-99.221065,32.331698],[-99.221181,32.331215],[-99.220462,32.330929],[-99.220515,32.332095],[-99.220236,32.332243],[-99.219608,32.332106],[-99.21931,32.331402],[-99.218442,32.331276],[-99.218092,32.330665],[-99.21756,32.330303],[-99.217716,32.329879],[-99.218305,32.329648],[-99.21824,32.328631],[-99.2187,32.327789],[-99.218576,32.327465],[-99.219179,32.327091],[-99.218427,32.326744],[-99.218291,32.326167],[-99.218511,32.326062],[-99.218919,32.32648],[-99.219373,32.326574],[-99.219554,32.326321],[-99.218459,32.325105],[-99.217863,32.325293],[-99.217941,32.32471],[-99.218465,32.32411],[-99.218906,32.324484],[-99.219236,32.324231],[-99.21853,32.323582],[-99.217215,32.323489],[-99.218011,32.322807],[-99.218179,32.322317],[-99.218056,32.322141],[-99.217273,32.322356],[-99.217027,32.321883],[-99.217512,32.320948],[-99.21678,32.320596],[-99.21667,32.320206],[-99.21621,32.320332],[-99.216203,32.319755],[-99.215666,32.319832],[-99.214986,32.319409],[-99.2145,32.318656],[-99.215218,32.318062],[-99.214668,32.317677],[-99.214208,32.316742],[-99.215982,32.316076],[-99.215872,32.315334],[-99.2149,32.314465],[-99.215437,32.314212],[-99.214861,32.314124],[-99.214472,32.313613],[-99.213598,32.313442],[-99.21297,32.313558],[-99.212788,32.312354],[-99.212497,32.312519],[-99.211357,32.310803],[-99.21168,32.308834],[-99.212787,32.308779],[-99.212554,32.308488],[-99.211906,32.308312],[-99.211822,32.307729],[-99.211174,32.307151],[-99.211407,32.306739],[-99.211181,32.306294],[-99.211349,32.305639],[-99.21107,32.305507],[-99.210591,32.305711],[-99.210274,32.305507],[-99.210319,32.30482],[-99.209866,32.30471],[-99.210014,32.304413],[-99.209645,32.304435],[-99.208862,32.303616],[-99.208765,32.303132],[-99.209166,32.302824],[-99.208926,32.302444],[-99.209237,32.302026],[-99.208687,32.302153],[-99.208389,32.302648],[-99.207437,32.301867],[-99.206634,32.301752],[-99.206465,32.301592],[-99.206627,32.301323],[-99.206278,32.301163],[-99.205779,32.301268],[-99.205792,32.300988],[-99.2053,32.300553],[-99.205721,32.300509],[-99.205701,32.30008],[-99.206251,32.299459],[-99.206038,32.299173],[-99.204717,32.299085],[-99.205519,32.298711],[-99.205364,32.298491],[-99.204976,32.298606],[-99.204775,32.298216],[-99.205079,32.297979],[-99.204457,32.29771],[-99.204391,32.297149],[-99.203169,32.297616],[-99.202091,32.298599],[-99.201795,32.299355],[-99.201768,32.300799],[-99.203279,32.301944],[-99.203603,32.303388],[-99.199476,32.307536],[-99.19899,32.30772],[-99.198154,32.307468],[-99.195401,32.306139],[-99.194133,32.306185],[-99.191435,32.308316],[-99.190167,32.309782],[-99.189467,32.310034],[-99.186667,32.309895],[-99.185885,32.310169],[-99.184647,32.310192],[-99.182923,32.310877],[-99.181857,32.310745],[-99.180689,32.310945],[-99.178265,32.311952],[-99.177134,32.31179],[-99.176031,32.311194],[-99.17428,32.311238],[-99.174061,32.310033],[-99.174068,32.306807],[-99.174656,32.305163],[-99.175599,32.303937],[-99.175125,32.303502],[-99.172935,32.303318],[-99.165364,32.303335],[-99.165295,32.288882],[-99.153351,32.288834],[-99.153134,32.28807],[-99.141202,32.288098],[-99.141008,32.288287],[-99.141008,32.290099],[-99.140772,32.290279],[-99.128157,32.29026],[-99.127971,32.290617],[-99.126177,32.290742],[-99.125965,32.306545],[-99.116979,32.306622],[-99.117552,32.250133],[-99.11732,32.249247],[-99.117613,32.187128],[-99.118366,32.129737],[-99.118613,32.125458],[-99.118403,32.124485],[-99.118665,32.079585],[-99.12534,32.079187],[-99.147918,32.079242],[-99.155625,32.079467],[-99.210605,32.079123],[-99.246832,32.079356],[-99.250342,32.080065],[-99.422906,32.080154],[-99.423059,32.084045],[-99.422359,32.100175],[-99.422317,32.138372],[-99.422018,32.155859],[-99.424885,32.191102],[-99.424731,32.194505],[-99.424058,32.196984],[-99.42236,32.200252],[-99.40608,32.221409],[-99.404982,32.223343],[-99.404096,32.225737],[-99.401752,32.235282],[-99.401467,32.259949],[-99.401227,32.261805],[-99.40038,32.263678],[-99.397761,32.267692],[-99.388038,32.284577],[-99.387396,32.286345],[-99.388705,32.298536],[-99.387828,32.302201],[-99.387669,32.305301],[-99.385735,32.310606],[-99.384015,32.313722],[-99.38366,32.31532],[-99.383889,32.316977],[-99.385588,32.32089],[-99.385617,32.325061],[-99.368233,32.32494],[-99.367876,32.324523],[-99.36794,32.321901],[-99.366099,32.321742],[-99.364015,32.321194],[-99.3622,32.320324],[-99.360412,32.319066],[-99.359353,32.317876],[-99.356457,32.317581],[-99.35329,32.31772],[-99.352289,32.317263],[-99.349364,32.316555],[-99.348849,32.316028],[-99.348467,32.31486],[-99.347978,32.31431],[-99.347329,32.314036],[-99.342701,32.313764],[-99.340886,32.313307],[-99.340534,32.313032],[-99.340398,32.31113],[-99.33913,32.310558],[-99.337781,32.310306],[-99.340182,32.308587],[-99.340748,32.307441],[-99.340235,32.305722],[-99.341016,32.303866],[-99.339885,32.302872],[-99.339242,32.303021],[-99.338685,32.302235],[-99.33818,32.302411],[-99.337779,32.303032],[-99.335914,32.304473],[-99.335299,32.304484],[-99.334352,32.304054],[-99.333208,32.304316],[-99.330507,32.30402],[-99.329931,32.304792],[-99.327968,32.305466],[-99.326861,32.306293],[-99.322539,32.307006],[-99.319001,32.307146],[-99.318727,32.306845],[-99.317667,32.306912],[-99.316592,32.306422],[-99.315854,32.306411],[-99.314449,32.305438],[-99.313601,32.305927],[-99.312849,32.305652],[-99.312357,32.305713],[-99.311904,32.305245],[-99.311289,32.305328],[-99.311043,32.305158],[-99.310421,32.30403],[-99.309838,32.304206],[-99.309709,32.304454],[-99.308453,32.304723],[-99.308595,32.30513],[-99.308336,32.305432],[-99.306536,32.305751],[-99.306063,32.305234],[-99.304801,32.304547],[-99.304606,32.305064],[-99.303648,32.305245],[-99.303888,32.304354],[-99.303253,32.304156],[-99.302476,32.304778],[-99.302813,32.305355],[-99.302437,32.305625],[-99.301951,32.305559],[-99.30155,32.30596],[-99.300851,32.306169],[-99.300708,32.306713],[-99.301045,32.306708],[-99.301006,32.307318],[-99.299309,32.308138],[-99.298636,32.307692],[-99.297942,32.307651],[-99.297164,32.305694],[-99.297186,32.304593],[-99.297885,32.301764],[-99.297912,32.299626],[-99.297083,32.297891],[-99.295587,32.296716],[-99.293682,32.296203],[-99.274901,32.296334],[-99.272102,32.296171],[-99.272205,32.303451],[-99.237248,32.303746],[-99.23714,32.304708],[-99.23679,32.305236],[-99.234551,32.305924],[-99.233715,32.30691],[-99.233447,32.310048],[-99.233879,32.311102],[-99.232989,32.311973],[-99.232936,32.313119],[-99.23183,32.314769],[-99.231291,32.315182],[-99.231048,32.315251],[-99.229833,32.313647],[-99.228888,32.313556],[-99.228565,32.313281],[-99.227568,32.313072],[-99.226058,32.313893],[-99.225115,32.312567],[-99.223082,32.311929],[-99.222547,32.311518],[-99.222196,32.311724],[-99.221981,32.312595],[-99.222413,32.314085],[-99.222441,32.316422],[-99.222994,32.317583],[-99.221896,32.320578],[-99.221744,32.321621],[-99.222719,32.324152],[-99.222707,32.325613],[-99.221971,32.327309],[-99.220796,32.327575],[-99.220951,32.3295],[-99.221389,32.32999],[-99.221316,32.330545],[-99.222706,32.331159],[-99.222964,32.331626],[-99.222535,32.331803],[-99.22273,32.332495],[-99.222102,32.332248],[-99.22203,32.331742]]]}},{"type":"Feature","properties":{"PRECINCT":"5","VTD":"0005"},"geometry":{"type":"Polygon","coordinates":[[[-99.125344,32.514993],[-99.114293,32.514811],[-99.114049,32.500126],[-99.114652,32.495353],[-99.115065,32.462242],[-99.115078,32.438033],[-99.115521,32.405797],[-99.116379,32.375129],[-99.116174,32.374726],[-99.116979,32.323509],[-99.116979,32.306622],[-99.125965,32.306545],[-99.126101,32.290822],[-99.126372,32.290653],[-99.127971,32.290617],[-99.128157,32.29026],[-99.140772,32.290279],[-99.141008,32.290099],[-99.141022,32.288172],[-99.141344,32.288089],[-99.153134,32.28807],[-99.153351,32.288834],[-99.165186,32.288822],[-99.165364,32.303335],[-99.172935,32.303318],[-99.175125,32.303502],[-99.175599,32.303937],[-99.174656,32.305163],[-99.174068,32.306807],[-99.174061,32.310033],[-99.17428,32.311238],[-99.176031,32.311194],[-99.177134,32.31179],[-99.178265,32.311952],[-99.180689,32.310945],[-99.181857,32.310745],[-99.182923,32.310877],[-99.184647,32.310192],[-99.185885,32.310169],[-99.186667,32.309895],[-99.189467,32.310034],[-99.190167,32.309782],[-99.191435,32.308316],[-99.194133,32.306185],[-99.195401,32.306139],[-99.198154,32.307468],[-99.19899,32.30772],[-99.199476,32.307536],[-99.203603,32.303388],[-99.203279,32.301944],[-99.201768,32.300799],[-99.201795,32.299355],[-99.202091,32.298599],[-99.203169,32.297616],[-99.204391,32.297149],[-99.204457,32.29771],[-99.205079,32.297979],[-99.204775,32.298216],[-99.204976,32.298606],[-99.205364,32.298491],[-99.205519,32.298711],[-99.204717,32.299085],[-99.206038,32.299173],[-99.206251,32.299459],[-99.205701,32.30008],[-99.205721,32.300509],[-99.2053,32.300553],[-99.205792,32.300988],[-99.205779,32.301268],[-99.206278,32.301163],[-99.206627,32.301323],[-99.206465,32.301592],[-99.206634,32.301752],[-99.207437,32.301867],[-99.208389,32.302648],[-99.208687,32.302153],[-99.209237,32.302026],[-99.208926,32.302444],[-99.209166,32.302824],[-99.208765,32.303132],[-99.208862,32.303616],[-99.209645,32.304435],[-99.210014,32.304413],[-99.209866,32.30471],[-99.210319,32.30482],[-99.210274,32.305507],[-99.210591,32.305711],[-99.21107,32.305507],[-99.211349,32.305639],[-99.211181,32.306294],[-99.211407,32.306739],[-99.211174,32.307151],[-99.211822,32.307729],[-99.211906,32.308312],[-99.212554,32.308488],[-99.212787,32.308779],[-99.21168,32.308834],[-99.211357,32.310803],[-99.212497,32.312519],[-99.212788,32.312354],[-99.21297,32.313558],[-99.213598,32.313442],[-99.214472,32.313613],[-99.214861,32.314124],[-99.215437,32.314212],[-99.2149,32.314465],[-99.215872,32.315334],[-99.215982,32.316076],[-99.214208,32.316742],[-99.214668,32.317677],[-99.215218,32.318062],[-99.2145,32.318656],[-99.214986,32.319409],[-99.215666,32.319832],[-99.216203,32.319755],[-99.21621,32.320332],[-99.21667,32.320206],[-99.21678,32.320596],[-99.217512,32.320948],[-99.217027,32.321883],[-99.217273,32.322356],[-99.218056,32.322141],[-99.218179,32.322317],[-99.218011,32.322807],[-99.217215,32.323489],[-99.21853,32.323582],[-99.219236,32.324231],[-99.218906,32.324484],[-99.218465,32.32411],[-99.217941,32.32471],[-99.217863,32.325293],[-99.218459,32.325105],[-99.219554,32.326321],[-99.219373,32.326574],[-99.218919,32.32648],[-99.218511,32.326062],[-99.218291,32.326167],[-99.218427,32.326744],[-99.219179,32.327091],[-99.218576,32.327465],[-99.2187,32.327789],[-99.21824,32.328631],[-99.218305,32.329648],[-99.217716,32.329879],[-99.21756,32.330303],[-99.218092,32.330665],[-99.218442,32.331276],[-99.21931,32.331402],[-99.219608,32.332106],[-99.220443,32.332194],[-99.220378,32.330962],[-99.22076,32.330923],[-99.22124,32.331341],[-99.221065,32.331698],[-99.22203,32.331742],[-99.222102,32.332248],[-99.22273,32.332495],[-99.222535,32.331803],[-99.222964,32.331626],[-99.222706,32.331159],[-99.221316,32.330545],[-99.221389,32.32999],[-99.220951,32.3295],[-99.220796,32.327575],[-99.221971,32.327309],[-99.222707,32.325613],[-99.222719,32.324152],[-99.221744,32.321621],[-99.221896,32.320578],[-99.222994,32.317583],[-99.222441,32.316422],[-99.222413,32.314085],[-99.221981,32.312595],[-99.22198,32.312022],[-99.222547,32.311518],[-99.223082,32.311929],[-99.225371,32.312727],[-99.226058,32.313893],[-99.227568,32.313072],[-99.228565,32.313281],[-99.228888,32.313556],[-99.229833,32.313647],[-99.231048,32.315251],[-99.231291,32.315182],[-99.23183,32.314769],[-99.232936,32.313119],[-99.232989,32.311973],[-99.233879,32.311102],[-99.233447,32.310048],[-99.233715,32.30691],[-99.234551,32.305924],[-99.23679,32.305236],[-99.23714,32.304708],[-99.237248,32.303746],[-99.272205,32.303451],[-99.27229,32.317941],[-99.27201,32.340081],[-99.273404,32.3409],[-99.273525,32.344771],[-99.274073,32.345423],[-99.274417,32.346744],[-99.27473,32.34707],[-99.275655,32.347287],[-99.275654,32.347745],[-99.274629,32.348157],[-99.274304,32.348799],[-99.27431,32.350996],[-99.278245,32.351235],[-99.278137,32.351705],[-99.278377,32.352349],[-99.276475,32.353289],[-99.27531,32.353259],[-99.274584,32.352843],[-99.274139,32.353112],[-99.273951,32.353563],[-99.271916,32.353549],[-99.272053,32.354118],[-99.271521,32.355168],[-99.27187,32.356774],[-99.27154,32.357148],[-99.272045,32.358105],[-99.271882,32.359716],[-99.270676,32.360623],[-99.269142,32.361139],[-99.269959,32.362171],[-99.272139,32.363326],[-99.273165,32.362432],[-99.274731,32.362066],[-99.277809,32.360761],[-99.278889,32.360738],[-99.279941,32.361632],[-99.28067,32.361793],[-99.282722,32.360671],[-99.284046,32.359525],[-99.286664,32.358976],[-99.287501,32.358586],[-99.288261,32.359283],[-99.288701,32.360446],[-99.28866,32.362608],[-99.290099,32.362684],[-99.291206,32.362331],[-99.292828,32.362734],[-99.293004,32.362949],[-99.292401,32.363251],[-99.292245,32.363026],[-99.291915,32.363466],[-99.291098,32.363587],[-99.291235,32.363301],[-99.291008,32.363158],[-99.289453,32.363768],[-99.289517,32.364554],[-99.289213,32.365209],[-99.28955,32.364945],[-99.290346,32.365616],[-99.289795,32.367166],[-99.291,32.367739],[-99.290495,32.368112],[-99.289374,32.367568],[-99.288836,32.367837],[-99.288855,32.368354],[-99.289277,32.368558],[-99.288959,32.369603],[-99.289127,32.369971],[-99.288771,32.370339],[-99.288939,32.370966],[-99.28855,32.370939],[-99.288343,32.371384],[-99.289185,32.371461],[-99.289107,32.371791],[-99.289405,32.371929],[-99.289094,32.372358],[-99.289211,32.372792],[-99.288712,32.373024],[-99.289224,32.373243],[-99.288219,32.373958],[-99.288102,32.374772],[-99.287571,32.37497],[-99.28691,32.374898],[-99.286676,32.375157],[-99.286863,32.37541],[-99.28665,32.375459],[-99.286142,32.374942],[-99.285593,32.375646],[-99.288011,32.375705],[-99.29802,32.378106],[-99.297697,32.380443],[-99.298542,32.385452],[-99.298512,32.391391],[-99.294593,32.391385],[-99.294563,32.391679],[-99.295,32.408594],[-99.295203,32.409634],[-99.295288,32.42857],[-99.295049,32.428781],[-99.2904,32.429506],[-99.290399,32.431314],[-99.289859,32.432342],[-99.289967,32.43328],[-99.289345,32.434172],[-99.289318,32.434721],[-99.288832,32.435291],[-99.288265,32.436733],[-99.288292,32.43719],[-99.289643,32.439065],[-99.289724,32.44094],[-99.288127,32.443298],[-99.284964,32.446047],[-99.283721,32.447445],[-99.282804,32.447972],[-99.281062,32.450443],[-99.28151,32.450537],[-99.282457,32.45154],[-99.282818,32.45227],[-99.282554,32.453031],[-99.283723,32.454289],[-99.284194,32.455475],[-99.284747,32.455974],[-99.292648,32.455246],[-99.295309,32.455488],[-99.298331,32.454644],[-99.299385,32.46256],[-99.299548,32.463298],[-99.300298,32.464173],[-99.300261,32.497587],[-99.300347,32.50397],[-99.300872,32.507742],[-99.300309,32.50821],[-99.299088,32.508257],[-99.298271,32.509313],[-99.298049,32.510781],[-99.297397,32.511331],[-99.297879,32.512593],[-99.297423,32.515127],[-99.250353,32.51527],[-99.184205,32.514983],[-99.125344,32.514993]]]}},{"type":"Feature","properties":{"PRECINCT":"6","VTD":"0006"},"geometry":{"type":"Polygon","coordinates":[[[-99.507744,32.401701],[-99.498895,32.401469],[-99.498923,32.400599],[-99.498104,32.400282],[-99.498538,32.397481],[-99.489839,32.397421],[-99.489934,32.386909],[-99.453677,32.386501],[-99.449507,32.387679],[-99.437489,32.389129],[-99.43018,32.391547],[-99.422992,32.394489],[-99.421778,32.394253],[-99.420754,32.39282],[-99.419759,32.392553],[-99.416281,32.394136],[-99.411709,32.39474],[-99.411724,32.385686],[-99.385384,32.385381],[-99.384946,32.383595],[-99.384993,32.371109],[-99.384496,32.369847],[-99.381427,32.364853],[-99.381168,32.363907],[-99.381371,32.362635],[-99.382982,32.357997],[-99.384689,32.355492],[-99.385136,32.353591],[-99.385668,32.321629],[-99.385499,32.320631],[-99.383759,32.316572],[-99.383682,32.314891],[-99.384015,32.313722],[-99.385735,32.310606],[-99.387669,32.305301],[-99.387828,32.302201],[-99.388705,32.298536],[-99.388678,32.296845],[-99.387359,32.287246],[-99.387549,32.285682],[-99.397761,32.267692],[-99.40055,32.26338],[-99.401317,32.261431],[-99.401752,32.235282],[-99.403526,32.227926],[-99.448722,32.236589],[-99.479201,32.249395],[-99.480405,32.249733],[-99.481975,32.249964],[-99.502279,32.250513],[-99.500776,32.25707],[-99.500659,32.264173],[-99.49719,32.264076],[-99.496865,32.264167],[-99.496594,32.264672],[-99.496751,32.266436],[-99.497373,32.26678],[-99.504225,32.266958],[-99.502054,32.276014],[-99.507971,32.277118],[-99.507463,32.281696],[-99.50758,32.308292],[-99.507295,32.338433],[-99.507333,32.340647],[-99.508303,32.343083],[-99.508213,32.362441],[-99.5078,32.370665],[-99.508214,32.371439],[-99.509381,32.372493],[-99.509697,32.372424],[-99.509899,32.373024],[-99.508485,32.38031],[-99.507999,32.387002],[-99.507898,32.394365],[-99.502659,32.39429],[-99.501896,32.396066],[-99.503838,32.396464],[-99.505466,32.396487],[-99.506565,32.396176],[-99.50808,32.396228],[-99.507744,32.401701]]]}},{"type":"Feature","properties":{"PRECINCT":"7","VTD":"0007"},"geometry":{"type":"Polygon","coordinates":[[[-99.553571,32.258613],[-99.541194,32.258363],[-99.5379,32.257773],[-99.518909,32.251427],[-99.516591,32.250916],[-99.481975,32.249964],[-99.480405,32.249733],[-99.479201,32.249395],[-99.448722,32.236589],[-99.403526,32.227926],[-99.404447,32.224609],[-99.405745,32.221912],[-99.42236,32.200252],[-99.424058,32.196984],[-99.424813,32.193902],[-99.424885,32.191102],[-99.422018,32.155859],[-99.422317,32.138372],[-99.422359,32.100175],[-99.423059,32.084045],[-99.422906,32.080154],[-99.499452,32.080035],[-99.500348,32.079874],[-99.631413,32.081274],[-99.631505,32.112434],[-99.630669,32.237187],[-99.630666,32.249092],[-99.63095,32.250163],[-99.631123,32.259942],[-99.630555,32.331118],[-99.603939,32.28008],[-99.602417,32.277576],[-99.600166,32.275088],[-99.597625,32.273185],[-99.594145,32.271514],[-99.591519,32.27074],[-99.579079,32.267927],[-99.55718,32.259348],[-99.553571,32.258613]]]}}]}