{"type":"FeatureCollection","features":[{"type":"Feature","properties":{"PRECINCT":"harris:1004","COUNTY":"Harris"},"geometry":{"type":"Polygon","coordinates":[[[-95.45659,29.83841],[-95.45549,29.83746],[-95.45452,29.83606],[-95.45345,29.83517],[-95.45316,29.83443],[-95.45312,29.83259],[-95.45567,29.83254],[-95.45674,29.83091],[-95.46114,29.83081],[-95.46144,29.83136],[-95.46149,29.83254],[-95.46019,29.8325],[-95.46021,29.83346],[-95.46252,29.8335],[-95.46264,29.83519],[-95.46023,29.83516],[-95.45995,29.83773],[-95.46161,29.83774],[-95.46173,29.83845],[-95.4629,29.83846],[-95.46286,29.83802],[-95.46501,29.83801],[-95.46503,29.8391],[-95.46296,29.83912],[-95.46304,29.84231],[-95.45802,29.84234],[-95.45659,29.83841]]]}},{"type":"Feature","properties":{"PRECINCT":"harris:109","COUNTY":"Harris"},"geometry":{"type":"Polygon","coordinates":[[[-95.45588,29.88998],[-95.44035,29.87423],[-95.43435,29.86865],[-95.42817,29.86359],[-95.44673,29.86348],[-95.44909,29.86314],[-95.45049,29.86317],[-95.45047,29.86389],[-95.45136,29.8639],[-95.45138,29.86526],[-95.4491,29.86529],[-95.44909,29.8662],[-95.44913,29.87072],[-95.45143,29.87067],[-95.45145,29.87308],[-95.45055,29.87308],[-95.45058,29.8811],[-95.45468,29.88112],[-95.45469,29.88186],[-95.45843,29.88189],[-95.45842,29.88249],[-95.46184,29.88251],[-95.46185,29.88298],[-95.46364,29.88297],[-95.46351,29.88419],[-95.46537,29.88412],[-95.46555,29.88465],[-95.46737,29.88463],[-95.46723,29.88329],[-95.46764,29.88329],[-95.46803,29.88491],[-95.46689,29.8873],[-95.4672,29.89009],[-95.46774,29.89171],[-95.4673,29.89256],[-95.46727,29.89334],[-95.46798,29.8943],[-95.46475,29.89459],[-95.4617,29.89551],[-95.45853,29.8921],[-95.45588,29.88998]]]}},{"type":"Feature","properties":{"PRECINCT":"harris:113","COUNTY":"Harris"},"geometry":{"type":"Polygon","coordinates":[[[-95.50353,29.97852],[-95.50115,29.97955],[-95.49716,29.97417],[-95.49647,29.97478],[-95.49536,29.97328],[-95.49425,29.97291],[-95.49823,29.96302],[-95.49847,29.96116],[-95.50125,29.9598],[-95.50249,29.95947],[-95.5041,29.96346],[-95.50675,29.96741],[-95.50989,29.97567],[-95.51313,29.97974],[-95.50256,29.98559],[-95.50082,29.98321],[-95.50171,29.9827],[-95.50187,29.98225],[-95.5007,29.9806],[-95.50383,29.97891],[-95.50353,29.97852]]]}},{"type":"Feature","properties":{"PRECINCT":"harris:122","COUNTY":"Harris"},"geometry":{"type":"Polygon","coordinates":[[[-95.38976,29.84136],[-95.38678,29.8369],[-95.38447,29.83394],[-95.38451,29.83284],[-95.38535,29.83389],[-95.39008,29.83381],[-95.3921,29.83511],[-95.39233,29.8347],[-95.39236,29.83333],[-95.39287,29.83242],[-95.39288,29.83155],[-95.39773,29.83155],[-95.39773,29.83192],[-95.40224,29.83191],[-95.40287,29.8334],[-95.40298,29.84177],[-95.3989,29.84187],[-95.39852,29.84009],[-95.39452,29.84012],[-95.39433,29.8415],[-95.3904,29.84167],[-95.38976,29.84136]]]}},{"type":"Feature","properties":{"PRECINCT":"harris:147","COUNTY":"Harris"},"geometry":{"type":"Polygon","coordinates":[[[-95.46555,29.88465],[-95.46537,29.88412],[-95.46351,29.88419],[-95.46364,29.88297],[-95.46185,29.88298],[-95.46184,29.88251],[-95.45842,29.88249],[-95.45843,29.88189],[-95.45469,29.88186],[-95.45468,29.88112],[-95.45058,29.8811],[-95.45055,29.87308],[-95.45145,29.87308],[-95.45143,29.87067],[-95.44913,29.87072],[-95.44909,29.8662],[-95.4491,29.86529],[-95.45138,29.86526],[-95.45136,29.8639],[-95.45047,29.86389],[-95.45049,29.86317],[-95.45382,29.86346],[-95.45883,29.86345],[-95.45903,29.87372],[-95.46462,29.87395],[-95.46461,29.87222],[-95.46705,29.87221],[-95.46784,29.87254],[-95.46753,29.87311],[-95.4675,29.87419],[-95.46631,29.875],[-95.46611,29.87561],[-95.46823,29.87768],[-95.46832,29.87858],[-95.46896,29.87964],[-95.46776,29.88129],[-95.46764,29.88329],[-95.46723,29.88329],[-95.46737,29.88463],[-95.46555,29.88465]]]}},{"type":"Feature","properties":{"PRECINCT":"harris:157","COUNTY":"Harris"},"geometry":{"type":"Polygon","coordinates":[[[-95.45953,29.86506],[-95.45949,29.86345],[-95.45382,29.86346],[-95.44909,29.86314],[-95.44696,29.86347],[-95.4367,29.86352],[-95.43665,29.85774],[-95.44281,29.85789],[-95.44278,29.85458],[-95.45462,29.85447],[-95.45459,29.85143],[-95.46366,29.85132],[-95.46365,29.8519],[-95.46301,29.85263],[-95.46303,29.85319],[-95.46436,29.85397],[-95.46455,29.85485],[-95.462,29.85733],[-95.46192,29.85785],[-95.46236,29.85834],[-95.46461,29.8592],[-95.46589,29.86025],[-95.46693,29.86182],[-95.46683,29.86332],[-95.46156,29.86345],[-95.46155,29.86502],[-95.45953,29.86506]]]}},{"type":"Feature","properties":{"PRECINCT":"harris:169","COUNTY":"Harris"},"geometry":{"type":"Polygon","coordinates":[[[-95.42998,29.88564],[-95.4299,29.88202],[-95.42825,29.88206],[-95.4282,29.8779],[-95.42724,29.8779],[-95.42712,29.87686],[-95.42488,29.87428],[-95.4246,29.87292],[-95.42374,29.87149],[-95.42366,29.8704],[-95.41465,29.87033],[-95.4146,29.86849],[-95.42817,29.86359],[-95.43435,29.86865],[-95.44035,29.87423],[-95.45036,29.88437],[-95.44018,29.88475],[-95.44019,29.88529],[-95.42998,29.88564]]]}},{"type":"Feature","properties":{"PRECINCT":"harris:189","COUNTY":"Harris"},"geometry":{"type":"Polygon","coordinates":[[[-95.42969,29.8331],[-95.42952,29.82126],[-95.43276,29.82124],[-95.43291,29.82184],[-95.43348,29.82236],[-95.43677,29.82329],[-95.43824,29.82336],[-95.43955,29.82314],[-95.4406,29.82715],[-95.43749,29.82749],[-95.43742,29.82926],[-95.43934,29.83048],[-95.43869,29.83124],[-95.43726,29.83217],[-95.43613,29.8325],[-95.4318,29.83305],[-95.42969,29.8331]]]}},{"type":"Feature","properties":{"PRECINCT":"harris:192","COUNTY":"Harris"},"geometry":{"type":"Polygon","coordinates":[[[-95.39008,29.83381],[-95.38535,29.83389],[-95.38164,29.82903],[-95.38009,29.82335],[-95.37882,29.8204],[-95.37852,29.82035],[-95.37805,29.81939],[-95.38325,29.81938],[-95.38371,29.82324],[-95.38524,29.82306],[-95.38522,29.82241],[-95.38542,29.82228],[-95.39962,29.82221],[-95.39981,29.82797],[-95.40024,29.82904],[-95.40224,29.83191],[-95.39773,29.83192],[-95.39773,29.83155],[-95.39288,29.83155],[-95.39287,29.83242],[-95.39236,29.83333],[-95.39233,29.8347],[-95.3921,29.83511],[-95.39008,29.83381]]]}},{"type":"Feature","properties":{"PRECINCT":"harris:195","COUNTY":"Harris"},"geometry":{"type":"Polygon","coordinates":[[[-95.38371,29.82324],[-95.38325,29.81938],[-95.37805,29.81939],[-95.37563,29.81401],[-95.39313,29.81383],[-95.397,29.81302],[-95.3994,29.8129],[-95.39959,29.82051],[-95.39614,29.82053],[-95.39618,29.82219],[-95.38542,29.82228],[-95.38522,29.82241],[-95.38524,29.82306],[-95.38371,29.82324]]]}},{"type":"Feature","properties":{"PRECINCT":"harris:197","COUNTY":"Harris"},"geometry":{"type":"Polygon","coordinates":[[[-95.42176,29.88831],[-95.41033,29.87349],[-95.40813,29.86987],[-95.41145,29.86964],[-95.4146,29.86849],[-95.41465,29.87033],[-95.42366,29.8704],[-95.42374,29.87149],[-95.4246,29.87292],[-95.42488,29.87428],[-95.42712,29.87686],[-95.42724,29.8779],[-95.4282,29.8779],[-95.42825,29.88206],[-95.4299,29.88202],[-95.42998,29.88564],[-95.43126,29.88558],[-95.43128,29.88626],[-95.42586,29.88642],[-95.42425,29.88689],[-95.42176,29.88831]]]}},{"type":"Feature","properties":{"PRECINCT":"harris:322","COUNTY":"Harris"},"geometry":{"type":"Polygon","coordinates":[[[-95.48162,29.86576],[-95.47206,29.84889],[-95.47329,29.84888],[-95.47323,29.84667],[-95.47402,29.84661],[-95.47542,29.84658],[-95.47708,29.8471],[-95.47842,29.84719],[-95.47844,29.84836],[-95.47739,29.84837],[-95.47662,29.84944],[-95.47855,29.85022],[-95.48106,29.85057],[-95.48888,29.85057],[-95.48863,29.86049],[-95.4883,29.86166],[-95.48697,29.86437],[-95.48677,29.86575],[-95.48162,29.86576]]]}},{"type":"Feature","properties":{"PRECINCT":"harris:324","COUNTY":"Harris"},"geometry":{"type":"Polygon","coordinates":[[[-95.41642,29.84107],[-95.41626,29.83081],[-95.4195,29.83077],[-95.41969,29.82773],[-95.42187,29.82854],[-95.42336,29.8288],[-95.42616,29.82872],[-95.42962,29.82829],[-95.42972,29.83725],[-95.42893,29.83914],[-95.42884,29.84104],[-95.41642,29.84107]]]}},{"type":"Feature","properties":{"PRECINCT":"harris:327","COUNTY":"Harris"},"geometry":{"type":"Polygon","coordinates":[[[-95.42885,29.847],[-95.42918,29.86213],[-95.42942,29.86358],[-95.42817,29.86359],[-95.4146,29.86849],[-95.41421,29.84704],[-95.42885,29.847]]]}},{"type":"Feature","properties":{"PRECINCT":"harris:365","COUNTY":"Harris"},"geometry":{"type":"Polygon","coordinates":[[[-95.4109,29.84115],[-95.42884,29.84104],[-95.42894,29.847],[-95.41421,29.84704],[-95.41441,29.85176],[-95.41142,29.84912],[-95.41097,29.84686],[-95.4109,29.84115]]]}},{"type":"Feature","properties":{"PRECINCT":"harris:367","COUNTY":"Harris"},"geometry":{"type":"Polygon","coordinates":[[[-95.39971,29.8272],[-95.39962,29.82221],[-95.39618,29.82219],[-95.39614,29.82053],[-95.39959,29.82051],[-95.39956,29.81919],[-95.41044,29.81909],[-95.41085,29.83882],[-95.40687,29.83893],[-95.40694,29.84173],[-95.40298,29.84177],[-95.40281,29.83307],[-95.39994,29.82842],[-95.39971,29.8272]]]}},{"type":"Feature","properties":{"PRECINCT":"harris:448","COUNTY":"Harris"},"geometry":{"type":"Polygon","coordinates":[[[-95.42973,29.83681],[-95.42969,29.8331],[-95.4318,29.83305],[-95.43613,29.8325],[-95.43726,29.83217],[-95.43869,29.83124],[-95.43934,29.83048],[-95.43742,29.82926],[-95.43749,29.82749],[-95.4406,29.82715],[-95.43955,29.82314],[-95.44176,29.82278],[-95.44742,29.82255],[-95.44701,29.82101],[-95.44699,29.81974],[-95.44872,29.81978],[-95.44963,29.82148],[-95.45339,29.82446],[-95.45425,29.82546],[-95.45461,29.82752],[-95.45114,29.82756],[-95.45097,29.82918],[-95.45353,29.82916],[-95.45406,29.82936],[-95.45253,29.83099],[-95.45211,29.83259],[-95.44479,29.83275],[-95.44443,29.83429],[-95.44258,29.8367],[-95.43873,29.83675],[-95.43893,29.83616],[-95.43714,29.83576],[-95.43563,29.83592],[-95.43577,29.83676],[-95.42973,29.83681]]]}},{"type":"Feature","properties":{"PRECINCT":"harris:450","COUNTY":"Harris"},"geometry":{"type":"Polygon","coordinates":[[[-95.47789,29.86329],[-95.47341,29.8633],[-95.47317,29.86476],[-95.47118,29.86443],[-95.47031,29.86331],[-95.46683,29.86332],[-95.46693,29.86182],[-95.46589,29.86025],[-95.46461,29.8592],[-95.46236,29.85834],[-95.46192,29.85785],[-95.462,29.85733],[-95.46455,29.85485],[-95.46454,29.85425],[-95.46303,29.85319],[-95.46301,29.85263],[-95.46365,29.8519],[-95.4637,29.85138],[-95.4612,29.84916],[-95.46096,29.8483],[-95.46105,29.84706],[-95.46029,29.84593],[-95.45983,29.84439],[-95.45865,29.84234],[-95.46708,29.8423],[-95.46717,29.84386],[-95.4685,29.84372],[-95.46925,29.84513],[-95.46793,29.84558],[-95.46803,29.8464],[-95.46886,29.84802],[-95.46891,29.84891],[-95.47206,29.84889],[-95.48162,29.86576],[-95.48038,29.86566],[-95.47879,29.86367],[-95.47789,29.86329]]]}},{"type":"Feature","properties":{"PRECINCT":"harris:465","COUNTY":"Harris"},"geometry":{"type":"Polygon","coordinates":[[[-95.46315,30.03174],[-95.45051,30.01428],[-95.46379,30.00703],[-95.47367,30.02092],[-95.47637,30.02437],[-95.47541,30.02476],[-95.47408,30.02625],[-95.47253,30.02738],[-95.47137,30.02735],[-95.47075,30.02689],[-95.46906,30.02632],[-95.46762,30.02642],[-95.46718,30.02728],[-95.46719,30.02848],[-95.46538,30.02998],[-95.46509,30.03141],[-95.46454,30.03253],[-95.46355,30.03297],[-95.46315,30.03174]]]}},{"type":"Feature","properties":{"PRECINCT":"harris:466","COUNTY":"Harris"},"geometry":{"type":"Polygon","coordinates":[[[-95.47637,30.02437],[-95.46379,30.00703],[-95.47168,30.00286],[-95.48649,29.99443],[-95.48728,29.99565],[-95.48769,29.99707],[-95.49648,30.00935],[-95.49621,30.01094],[-95.49529,30.01074],[-95.49482,30.01143],[-95.49326,30.01269],[-95.49375,30.01321],[-95.49414,30.013],[-95.49422,30.01438],[-95.49487,30.01548],[-95.49537,30.01581],[-95.49509,30.01607],[-95.49361,30.01583],[-95.4929,30.01509],[-95.49221,30.01522],[-95.49114,30.01656],[-95.49108,30.01772],[-95.49057,30.01866],[-95.49032,30.01993],[-95.48808,30.02049],[-95.4883,30.02112],[-95.48817,30.0215],[-95.48716,30.02207],[-95.48573,30.02451],[-95.48522,30.02448],[-95.48433,30.02382],[-95.48413,30.02335],[-95.48481,30.02134],[-95.48463,30.02091],[-95.48371,30.02015],[-95.48143,30.02012],[-95.48017,30.01983],[-95.47908,30.02098],[-95.47886,30.02176],[-95.47754,30.02262],[-95.47729,30.02397],[-95.47637,30.02437]]]}},{"type":"Feature","properties":{"PRECINCT":"harris:467","COUNTY":"Harris"},"geometry":{"type":"Polygon","coordinates":[[[-95.47078,29.90511],[-95.46473,29.89873],[-95.46734,29.89878],[-95.46858,29.89907],[-95.46904,29.89727],[-95.46898,29.89656],[-95.46873,29.895],[-95.46798,29.8943],[-95.47085,29.89409],[-95.47086,29.89528],[-95.4793,29.89531],[-95.47946,29.89602],[-95.48067,29.89603],[-95.4808,29.89677],[-95.48313,29.89679],[-95.48308,29.89379],[-95.48516,29.89387],[-95.4878,29.89432],[-95.49175,29.89611],[-95.49326,29.8963],[-95.49565,29.89622],[-95.49569,29.89968],[-95.48043,29.89975],[-95.48023,29.91012],[-95.47999,29.9113],[-95.47086,29.90551],[-95.47078,29.90511]]]}},{"type":"Feature","properties":{"PRECINCT":"harris:498","COUNTY":"Harris"},"geometry":{"type":"Polygon","coordinates":[[[-95.48697,29.86437],[-95.4883,29.86166],[-95.48863,29.86049],[-95.48887,29.84148],[-95.49273,29.84143],[-95.50551,29.84882],[-95.50564,29.84857],[-95.50784,29.84982],[-95.51023,29.85121],[-95.50986,29.85129],[-95.52436,29.85943],[-95.52454,29.86555],[-95.48677,29.86575],[-95.48697,29.86437]]]}},{"type":"Feature","properties":{"PRECINCT":"harris:549","COUNTY":"Harris"},"geometry":{"type":"Polygon","coordinates":[[[-95.46065,29.96433],[-95.45846,29.96429],[-95.4585,29.96354],[-95.45959,29.96264],[-95.45592,29.95924],[-95.45226,29.95914],[-95.45218,29.95626],[-95.45237,29.95588],[-95.45149,29.95549],[-95.45166,29.95415],[-95.45222,29.95282],[-95.45455,29.94945],[-95.45684,29.94963],[-95.46467,29.94953],[-95.46502,29.96464],[-95.46071,29.96479],[-95.46065,29.96433]]]}},{"type":"Feature","properties":{"PRECINCT":"harris:576","COUNTY":"Harris"},"geometry":{"type":"Polygon","coordinates":[[[-95.42918,29.86213],[-95.42884,29.84246],[-95.45865,29.84234],[-95.45983,29.84439],[-95.46029,29.84593],[-95.46105,29.84706],[-95.46096,29.8483],[-95.4612,29.84916],[-95.46366,29.85132],[-95.45459,29.85143],[-95.45462,29.85447],[-95.44278,29.85458],[-95.44281,29.85789],[-95.43665,29.85774],[-95.4367,29.86352],[-95.42942,29.86358],[-95.42918,29.86213]]]}},{"type":"Feature","properties":{"PRECINCT":"harris:578","COUNTY":"Harris"},"geometry":{"type":"Polygon","coordinates":[[[-95.42884,29.84246],[-95.42883,29.83969],[-95.42973,29.83681],[-95.43577,29.83676],[-95.43563,29.83592],[-95.43714,29.83576],[-95.43893,29.83616],[-95.43873,29.83675],[-95.44258,29.8367],[-95.44443,29.83429],[-95.44479,29.83275],[-95.45312,29.83259],[-95.45325,29.83482],[-95.45452,29.83606],[-95.45549,29.83746],[-95.45659,29.83841],[-95.45802,29.84234],[-95.42884,29.84246]]]}},{"type":"Feature","properties":{"PRECINCT":"harris:592","COUNTY":"Harris"},"geometry":{"type":"Polygon","coordinates":[[[-95.49384,29.98181],[-95.48321,29.96787],[-95.48954,29.96437],[-95.49068,29.96582],[-95.4933,29.96434],[-95.49594,29.96217],[-95.49847,29.96116],[-95.49823,29.96302],[-95.49316,29.97568],[-95.49376,29.97589],[-95.49354,29.97683],[-95.49567,29.97978],[-95.49739,29.9788],[-95.49794,29.97954],[-95.49384,29.98181]]]}},{"type":"Feature","properties":{"PRECINCT":"harris:594","COUNTY":"Harris"},"geometry":{"type":"Polygon","coordinates":[[[-95.47482,29.88434],[-95.47279,29.88428],[-95.46937,29.88334],[-95.46764,29.88329],[-95.46776,29.88129],[-95.46896,29.87964],[-95.46832,29.87858],[-95.46823,29.87768],[-95.46611,29.87561],[-95.46676,29.87457],[-95.46894,29.87344],[-95.47037,29.87139],[-95.47042,29.87042],[-95.46934,29.86826],[-95.47388,29.86641],[-95.47426,29.86744],[-95.47582,29.86786],[-95.47667,29.86988],[-95.47847,29.87053],[-95.48044,29.87066],[-95.48051,29.87433],[-95.4829,29.8767],[-95.48368,29.87606],[-95.48431,29.87636],[-95.48569,29.87622],[-95.4866,29.87754],[-95.48778,29.87672],[-95.49231,29.8847],[-95.48529,29.88476],[-95.48514,29.87984],[-95.48121,29.88095],[-95.48125,29.88362],[-95.48211,29.88372],[-95.48207,29.88473],[-95.47826,29.88483],[-95.47482,29.88434]]]}},{"type":"Feature","properties":{"PRECINCT":"harris:613","COUNTY":"Harris"},"geometry":{"type":"Polygon","coordinates":[[[-95.48177,29.95001],[-95.48145,29.94927],[-95.48142,29.94559],[-95.46996,29.94432],[-95.46823,29.94392],[-95.46596,29.9419],[-95.46416,29.94083],[-95.46276,29.94111],[-95.45833,29.93542],[-95.45959,29.9354],[-95.45979,29.9349],[-95.46012,29.93476],[-95.4622,29.93472],[-95.46412,29.93474],[-95.46445,29.93533],[-95.4647,29.93539],[-95.49783,29.93503],[-95.49809,29.94955],[-95.48177,29.95001]]]}},{"type":"Feature","properties":{"PRECINCT":"harris:614","COUNTY":"Harris"},"geometry":{"type":"Polygon","coordinates":[[[-95.48156,29.98717],[-95.48073,29.9873],[-95.47954,29.98791],[-95.47906,29.98682],[-95.47882,29.98453],[-95.47833,29.9832],[-95.47542,29.97924],[-95.47367,29.97791],[-95.47436,29.9772],[-95.47906,29.97464],[-95.48037,29.97448],[-95.48193,29.9749],[-95.4828,29.97397],[-95.48463,29.97297],[-95.48655,29.97223],[-95.49384,29.98181],[-95.49794,29.97954],[-95.49739,29.9788],[-95.49567,29.97978],[-95.49354,29.97683],[-95.49376,29.97589],[-95.49316,29.97568],[-95.49425,29.97291],[-95.49536,29.97328],[-95.49647,29.97478],[-95.49716,29.97417],[-95.50115,29.97955],[-95.50345,29.97842],[-95.50383,29.97891],[-95.5007,29.9806],[-95.50187,29.98225],[-95.50171,29.9827],[-95.50082,29.98321],[-95.50256,29.98559],[-95.48494,29.99524],[-95.48688,29.99112],[-95.48561,29.99055],[-95.48269,29.98766],[-95.48156,29.98717]]]}},{"type":"Feature","properties":{"PRECINCT":"harris:660","COUNTY":"Harris"},"geometry":{"type":"Polygon","coordinates":[[[-95.46872,29.97776],[-95.46817,29.97503],[-95.46587,29.97289],[-95.453,29.97317],[-95.45267,29.97328],[-95.45259,29.97392],[-95.44982,29.97403],[-95.44998,29.96745],[-95.45055,29.96714],[-95.45059,29.96507],[-95.46473,29.96487],[-95.4805,29.96432],[-95.48655,29.97223],[-95.48432,29.97313],[-95.48364,29.97226],[-95.48282,29.97271],[-95.4822,29.97317],[-95.4828,29.97397],[-95.48193,29.9749],[-95.47981,29.97448],[-95.47997,29.97397],[-95.47846,29.97337],[-95.47798,29.97364],[-95.4788,29.97477],[-95.47436,29.9772],[-95.47367,29.97791],[-95.47214,29.97656],[-95.47134,29.97705],[-95.47065,29.97787],[-95.46911,29.97818],[-95.46872,29.97776]]]}},{"type":"Feature","properties":{"PRECINCT":"harris:678","COUNTY":"Harris"},"geometry":{"type":"Polygon","coordinates":[[[-95.43727,29.98103],[-95.42449,29.96983],[-95.42337,29.96796],[-95.42828,29.96787],[-95.42831,29.96946],[-95.42946,29.97008],[-95.43003,29.97008],[-95.43011,29.96803],[-95.43658,29.96805],[-95.43657,29.96542],[-95.45059,29.96507],[-95.45055,29.96714],[-95.44998,29.96745],[-95.44982,29.97403],[-95.44312,29.97394],[-95.44046,29.97305],[-95.43779,29.97252],[-95.43583,29.97241],[-95.43519,29.97269],[-95.43721,29.97462],[-95.43815,29.9765],[-95.4382,29.97897],[-95.43727,29.98103]]]}},{"type":"Feature","properties":{"PRECINCT":"harris:697","COUNTY":"Harris"},"geometry":{"type":"Polygon","coordinates":[[[-95.47256,29.9353],[-95.47216,29.93411],[-95.47063,29.93269],[-95.47048,29.92968],[-95.47457,29.92962],[-95.47447,29.92289],[-95.47038,29.92294],[-95.46949,29.92127],[-95.46938,29.91953],[-95.48326,29.91948],[-95.48494,29.91976],[-95.48606,29.92023],[-95.4917,29.92374],[-95.49154,29.92561],[-95.49208,29.92739],[-95.49308,29.92874],[-95.49587,29.93096],[-95.49689,29.93204],[-95.49764,29.93358],[-95.49783,29.93503],[-95.47256,29.9353]]]}},{"type":"Feature","properties":{"PRECINCT":"harris:698","COUNTY":"Harris"},"geometry":{"type":"Polygon","coordinates":[[[-95.46969,29.9502],[-95.46838,29.94846],[-95.46692,29.94926],[-95.46547,29.94951],[-95.45684,29.94963],[-95.45455,29.94945],[-95.45502,29.94593],[-95.45125,29.94598],[-95.45124,29.93816],[-95.45166,29.93709],[-95.45618,29.93605],[-95.45821,29.93786],[-95.46102,29.94132],[-95.46416,29.94083],[-95.46596,29.9419],[-95.46835,29.94396],[-95.47062,29.9444],[-95.47233,29.94445],[-95.47529,29.94497],[-95.48142,29.94559],[-95.48145,29.94927],[-95.48177,29.95001],[-95.46969,29.9502]]]}},{"type":"Feature","properties":{"PRECINCT":"harris:717","COUNTY":"Harris"},"geometry":{"type":"Polygon","coordinates":[[[-95.4638,29.96488],[-95.46502,29.96464],[-95.46467,29.94953],[-95.46692,29.94926],[-95.46838,29.94846],[-95.47799,29.96104],[-95.47311,29.9639],[-95.47126,29.96455],[-95.47161,29.96454],[-95.4638,29.96488]]]}},{"type":"Feature","properties":{"PRECINCT":"harris:723","COUNTY":"Harris"},"geometry":{"type":"Polygon","coordinates":[[[-95.4807,29.89671],[-95.48067,29.89603],[-95.47946,29.89602],[-95.4793,29.89531],[-95.47086,29.89528],[-95.47085,29.89409],[-95.48006,29.89369],[-95.47968,29.89232],[-95.47885,29.89102],[-95.47557,29.88848],[-95.47771,29.88684],[-95.47872,29.88668],[-95.47891,29.88481],[-95.48207,29.88473],[-95.48211,29.88372],[-95.48125,29.88362],[-95.48124,29.8809],[-95.48514,29.87984],[-95.48523,29.89349],[-95.49086,29.89427],[-95.49071,29.89031],[-95.49278,29.89032],[-95.49279,29.89133],[-95.49467,29.8913],[-95.49559,29.89357],[-95.49565,29.89622],[-95.49208,29.89618],[-95.49052,29.89569],[-95.48754,29.89424],[-95.48308,29.89379],[-95.48313,29.89679],[-95.4807,29.89671]]]}},{"type":"Feature","properties":{"PRECINCT":"harris:73","COUNTY":"Harris"},"geometry":{"type":"Polygon","coordinates":[[[-95.4109,29.84115],[-95.41044,29.81909],[-95.42027,29.81928],[-95.42029,29.82425],[-95.41958,29.82844],[-95.4195,29.83077],[-95.41623,29.83085],[-95.41642,29.84107],[-95.4109,29.84115]]]}},{"type":"Feature","properties":{"PRECINCT":"harris:757","COUNTY":"Harris"},"geometry":{"type":"Polygon","coordinates":[[[-95.46379,30.00703],[-95.45495,29.99623],[-95.43727,29.98103],[-95.4382,29.97897],[-95.43817,29.97659],[-95.43721,29.97462],[-95.43519,29.97269],[-95.43546,29.97252],[-95.43779,29.97252],[-95.44046,29.97305],[-95.44267,29.97388],[-95.44613,29.9741],[-95.45244,29.97396],[-95.45269,29.97375],[-95.45267,29.97328],[-95.453,29.97317],[-95.46587,29.97289],[-95.46817,29.97503],[-95.46857,29.97616],[-95.46872,29.97776],[-95.46911,29.97818],[-95.47065,29.97787],[-95.47134,29.97705],[-95.47214,29.97656],[-95.47542,29.97924],[-95.47844,29.9834],[-95.47882,29.98453],[-95.47906,29.98682],[-95.47954,29.98791],[-95.48103,29.98721],[-95.48211,29.9873],[-95.48561,29.99055],[-95.48688,29.99112],[-95.48494,29.99524],[-95.47168,30.00286],[-95.46379,30.00703]]]}},{"type":"Feature","properties":{"PRECINCT":"harris:825","COUNTY":"Harris"},"geometry":{"type":"Polygon","coordinates":[[[-95.47846,29.97337],[-95.47997,29.97397],[-95.47981,29.97448],[-95.4788,29.97477],[-95.47798,29.97364],[-95.47846,29.97337]]]}},{"type":"Feature","properties":{"PRECINCT":"harris:848","COUNTY":"Harris"},"geometry":{"type":"Polygon","coordinates":[[[-95.4866,29.87754],[-95.48569,29.87622],[-95.48431,29.87636],[-95.48368,29.87606],[-95.4829,29.8767],[-95.48051,29.87433],[-95.48044,29.87066],[-95.47847,29.87053],[-95.47667,29.86988],[-95.47582,29.86786],[-95.47426,29.86744],[-95.47388,29.86641],[-95.46934,29.86826],[-95.47042,29.87042],[-95.47045,29.87101],[-95.46995,29.87211],[-95.46844,29.87378],[-95.4675,29.87419],[-95.46753,29.87311],[-95.46784,29.87254],[-95.46705,29.87221],[-95.46461,29.87222],[-95.46462,29.87395],[-95.45903,29.87372],[-95.45883,29.86345],[-95.45949,29.86345],[-95.45953,29.86506],[-95.46155,29.86502],[-95.46156,29.86345],[-95.47031,29.86331],[-95.47118,29.86443],[-95.47317,29.86476],[-95.47341,29.8633],[-95.47839,29.86341],[-95.47918,29.86405],[-95.48038,29.86566],[-95.48162,29.86576],[-95.48778,29.87672],[-95.4866,29.87754]]]}},{"type":"Feature","properties":{"PRECINCT":"harris:855","COUNTY":"Harris"},"geometry":{"type":"Polygon","coordinates":[[[-95.46734,29.89878],[-95.46473,29.89873],[-95.4617,29.89551],[-95.46475,29.89459],[-95.46798,29.8943],[-95.46873,29.895],[-95.46904,29.89727],[-95.46858,29.89907],[-95.46734,29.89878]]]}},{"type":"Feature","properties":{"PRECINCT":"harris:859","COUNTY":"Harris"},"geometry":{"type":"Polygon","coordinates":[[[-95.48523,29.89349],[-95.48529,29.88476],[-95.49231,29.8847],[-95.49443,29.88847],[-95.49467,29.8913],[-95.49279,29.89133],[-95.49278,29.89032],[-95.49071,29.89031],[-95.49086,29.89427],[-95.48523,29.89349]]]}},{"type":"Feature","properties":{"PRECINCT":"harris:861","COUNTY":"Harris"},"geometry":{"type":"Polygon","coordinates":[[[-95.46803,29.88453],[-95.46764,29.88329],[-95.46937,29.88334],[-95.47279,29.88428],[-95.47891,29.88481],[-95.47872,29.88668],[-95.47771,29.88684],[-95.47557,29.88848],[-95.47885,29.89102],[-95.47968,29.89232],[-95.48006,29.89369],[-95.46798,29.8943],[-95.46727,29.89334],[-95.4673,29.89256],[-95.46774,29.89171],[-95.4672,29.89009],[-95.46689,29.88722],[-95.46789,29.88547],[-95.46803,29.88453]]]}},{"type":"Feature","properties":{"PRECINCT":"harris:870","COUNTY":"Harris"},"geometry":{"type":"Polygon","coordinates":[[[-95.49442,29.88919],[-95.49443,29.88847],[-95.49491,29.8892],[-95.49442,29.88919]]]}},{"type":"Feature","properties":{"PRECINCT":"harris:873","COUNTY":"Harris"},"geometry":{"type":"Polygon","coordinates":[[[-95.49806,29.94869],[-95.49784,29.93524],[-95.49989,29.93525],[-95.49989,29.93627],[-95.50051,29.93642],[-95.50069,29.93627],[-95.50069,29.93525],[-95.50154,29.93525],[-95.50154,29.93629],[-95.50199,29.9364],[-95.50234,29.93625],[-95.50233,29.93524],[-95.50316,29.93523],[-95.50319,29.93628],[-95.5038,29.93638],[-95.50398,29.93625],[-95.504,29.93523],[-95.50744,29.93515],[-95.50743,29.93663],[-95.51064,29.9365],[-95.51065,29.93509],[-95.51352,29.93503],[-95.51621,29.93707],[-95.5164,29.93773],[-95.51638,29.94396],[-95.51217,29.94636],[-95.50813,29.94605],[-95.50523,29.94688],[-95.50249,29.94666],[-95.49957,29.94767],[-95.49889,29.94853],[-95.49806,29.94869]]]}},{"type":"Feature","properties":{"PRECINCT":"harris:884","COUNTY":"Harris"},"geometry":{"type":"Polygon","coordinates":[[[-95.49995,29.93636],[-95.49989,29.93525],[-95.49784,29.93524],[-95.49764,29.93358],[-95.49794,29.93355],[-95.49785,29.92293],[-95.49949,29.92437],[-95.49953,29.92423],[-95.50033,29.92472],[-95.50489,29.92816],[-95.51352,29.93503],[-95.51065,29.93509],[-95.51064,29.9365],[-95.50743,29.93663],[-95.50744,29.93515],[-95.504,29.93523],[-95.50398,29.93625],[-95.5038,29.93638],[-95.50319,29.93628],[-95.50316,29.93523],[-95.50233,29.93524],[-95.50223,29.93639],[-95.50156,29.93633],[-95.50154,29.93525],[-95.50069,29.93525],[-95.50069,29.93627],[-95.50051,29.93642],[-95.49995,29.93636]]]}},{"type":"Feature","properties":{"PRECINCT":"harris:957","COUNTY":"Harris"},"geometry":{"type":"Polygon","coordinates":[[[-95.45366,29.96492],[-95.45326,29.96306],[-95.45209,29.96135],[-95.45167,29.96027],[-95.45149,29.95549],[-95.45237,29.95588],[-95.45218,29.95626],[-95.45226,29.95914],[-95.45592,29.95924],[-95.45959,29.96264],[-95.4585,29.96354],[-95.45846,29.96429],[-95.46065,29.96423],[-95.46071,29.96479],[-95.45366,29.96492]]]}},{"type":"Feature","properties":{"PRECINCT":"harris:961","COUNTY":"Harris"},"geometry":{"type":"Polygon","coordinates":[[[-95.48344,29.9195],[-95.46938,29.91953],[-95.46928,29.91344],[-95.46988,29.91026],[-95.46983,29.90505],[-95.47011,29.9044],[-95.47078,29.90511],[-95.47086,29.90551],[-95.49402,29.92009],[-95.49785,29.92293],[-95.49794,29.93355],[-95.49764,29.93358],[-95.49699,29.93218],[-95.49624,29.93128],[-95.49334,29.92898],[-95.49239,29.9279],[-95.49159,29.92591],[-95.4917,29.92374],[-95.48606,29.92023],[-95.48494,29.91976],[-95.48344,29.9195]]]}},{"type":"Feature","properties":{"PRECINCT":"harris:975","COUNTY":"Harris"},"geometry":{"type":"Polygon","coordinates":[[[-95.4685,29.84372],[-95.46717,29.84386],[-95.46708,29.8423],[-95.4683,29.8423],[-95.47206,29.84889],[-95.46891,29.84891],[-95.46886,29.84802],[-95.46803,29.8464],[-95.46793,29.84558],[-95.46925,29.84513],[-95.4685,29.84372]]]}},{"type":"Feature","properties":{"PRECINCT":"harris:981","COUNTY":"Harris"},"geometry":{"type":"Polygon","coordinates":[[[-95.4822,29.97317],[-95.48364,29.97226],[-95.48432,29.97313],[-95.4828,29.97397],[-95.4822,29.97317]]]}},{"type":"Feature","properties":{"PRECINCT":"harris:987","COUNTY":"Harris"},"geometry":{"type":"Polygon","coordinates":[[[-95.42586,29.88642],[-95.43163,29.88632],[-95.43171,29.89316],[-95.43214,29.89538],[-95.43212,29.89803],[-95.42931,29.89803],[-95.42176,29.88831],[-95.42425,29.88689],[-95.42586,29.88642]]]}},{"type":"Feature","properties":{"PRECINCT":"harris:990","COUNTY":"Harris"},"geometry":{"type":"Polygon","coordinates":[[[-95.47038,29.92294],[-95.47447,29.92289],[-95.47457,29.92962],[-95.47048,29.92968],[-95.47038,29.92294]]]}}]}