{"type":"FeatureCollection","features":[{"type":"Feature","properties":{"PRECINCT":"42","VTD":"0042"},"geometry":{"type":"Polygon","coordinates":[[[-97.167381,27.562816],[-97.199816,27.500319],[-97.250264,27.392308],[-97.256726,27.375321],[-97.288337,27.277584],[-97.37021,27.278096],[-97.425724,27.277956],[-97.508863,27.266636],[-97.625388,27.280222],[-97.641577,27.28238],[-97.641687,27.286454],[-97.642714,27.293472],[-97.642786,27.295703],[-97.64374,27.298696],[-97.643922,27.300482],[-97.644817,27.302352],[-97.645458,27.304713],[-97.64801,27.309723],[-97.652491,27.315512],[-97.653782,27.317714],[-97.662372,27.325641],[-97.672461,27.336327],[-97.6807,27.346935],[-97.684406,27.35311],[-97.694564,27.368587],[-97.696712,27.37138],[-97.703193,27.37655],[-97.711623,27.387476],[-97.722589,27.400454],[-97.728665,27.404631],[-97.730895,27.413213],[-97.733061,27.417678],[-97.736566,27.421863],[-97.737593,27.422329],[-97.742477,27.421851],[-97.745524,27.422633],[-97.750207,27.428563],[-97.751546,27.42925],[-97.759579,27.431788],[-97.764855,27.433098],[-97.765857,27.433924],[-97.767573,27.442236],[-97.769431,27.449692],[-97.770831,27.452748],[-97.772277,27.45456],[-97.772462,27.45522],[-97.772209,27.456326],[-97.773177,27.456591],[-97.77346,27.457201],[-97.773312,27.457675],[-97.773949,27.459125],[-97.773555,27.462622],[-97.772925,27.464626],[-97.770169,27.469334],[-97.77013,27.470711],[-97.771104,27.472217],[-97.771819,27.472593],[-97.773293,27.472734],[-97.774735,27.47259],[-97.775856,27.472784],[-97.779503,27.474448],[-97.784027,27.477114],[-97.78558,27.478361],[-97.786759,27.479846],[-97.787899,27.481913],[-97.78806,27.482841],[-97.787924,27.483837],[-97.7869,27.485933],[-97.786967,27.486973],[-97.789601,27.489923],[-97.789735,27.490459],[-97.7895,27.490892],[-97.791252,27.494228],[-97.79073,27.494766],[-97.791149,27.495305],[-97.792007,27.495543],[-97.791896,27.497857],[-97.792349,27.499025],[-97.792938,27.499309],[-97.793711,27.500983],[-97.793867,27.502535],[-97.793536,27.503895],[-97.793588,27.510372],[-97.794106,27.511088],[-97.795383,27.511017],[-97.795967,27.511303],[-97.796885,27.513135],[-97.797912,27.514073],[-97.798093,27.515018],[-97.799963,27.515198],[-97.800002,27.516658],[-97.800486,27.517369],[-97.803178,27.518325],[-97.804924,27.518476],[-97.80475,27.518811],[-97.803113,27.519886],[-97.802792,27.52059],[-97.803434,27.521829],[-97.80502,27.523259],[-97.804082,27.525455],[-97.804421,27.525713],[-97.805199,27.525587],[-97.807254,27.524591],[-97.807581,27.524811],[-97.807557,27.525824],[-97.808162,27.527172],[-97.807841,27.527474],[-97.806581,27.527661],[-97.806014,27.528058],[-97.805748,27.528723],[-97.805304,27.528784],[-97.805223,27.529351],[-97.80605,27.529587],[-97.809384,27.528162],[-97.811748,27.528465],[-97.81234,27.528245],[-97.812692,27.527684],[-97.81313,27.528014],[-97.813247,27.528949],[-97.812501,27.530055],[-97.811945,27.52978],[-97.811667,27.529907],[-97.812568,27.531898],[-97.813173,27.53268],[-97.813649,27.53285],[-97.814149,27.532647],[-97.815037,27.532999],[-97.814519,27.533428],[-97.815624,27.533835],[-97.816303,27.533648],[-97.816599,27.532218],[-97.817402,27.532355],[-97.817963,27.531816],[-97.818599,27.531607],[-97.818358,27.531249],[-97.817556,27.531205],[-97.817667,27.530193],[-97.817118,27.529538],[-97.817303,27.529197],[-97.819494,27.529923],[-97.819877,27.529114],[-97.820117,27.529092],[-97.820241,27.529868],[-97.820494,27.530027],[-97.821265,27.529406],[-97.822222,27.529378],[-97.822031,27.528921],[-97.822586,27.52874],[-97.823086,27.529147],[-97.822802,27.530176],[-97.821469,27.531612],[-97.821531,27.532256],[-97.822253,27.532625],[-97.821957,27.533334],[-97.822358,27.533945],[-97.822451,27.534947],[-97.823673,27.535282],[-97.826543,27.535029],[-97.827167,27.535183],[-97.8275,27.534688],[-97.828667,27.534671],[-97.828753,27.534368],[-97.828426,27.534104],[-97.828784,27.533714],[-97.829716,27.533812],[-97.830049,27.534236],[-97.831512,27.534357],[-97.831704,27.534495],[-97.831599,27.534814],[-97.832216,27.535127],[-97.832148,27.53549],[-97.831722,27.535645],[-97.83163,27.536123],[-97.83171,27.536492],[-97.832433,27.537207],[-97.832421,27.537627],[-97.833755,27.536871],[-97.83377,27.535758],[-97.83663,27.533303],[-97.837743,27.530689],[-97.832795,27.530843],[-97.832405,27.523116],[-97.856173,27.522846],[-97.856214,27.535245],[-97.855624,27.53682],[-97.853979,27.538403],[-97.854886,27.538337],[-97.845928,27.546104],[-97.845695,27.545904],[-97.831426,27.558402],[-97.642385,27.559476],[-97.606887,27.560348],[-97.551638,27.560354],[-97.518998,27.560015],[-97.50083,27.560458],[-97.486351,27.560252],[-97.470032,27.56048],[-97.461013,27.560174],[-97.390917,27.560011],[-97.325216,27.560896],[-97.242122,27.582924],[-97.222257,27.576365],[-97.165097,27.5683],[-97.167381,27.562816]]]}},{"type":"Feature","properties":{"PRECINCT":"12","VTD":"0012"},"geometry":{"type":"Polygon","coordinates":[[[-97.804924,27.518476],[-97.803178,27.518325],[-97.800486,27.517369],[-97.800002,27.516658],[-97.799963,27.515198],[-97.798093,27.515018],[-97.797912,27.514073],[-97.796885,27.513135],[-97.795967,27.511303],[-97.795383,27.511017],[-97.794106,27.511088],[-97.793588,27.510372],[-97.793536,27.503895],[-97.793867,27.502535],[-97.793711,27.500983],[-97.792938,27.499309],[-97.792349,27.499025],[-97.791896,27.497857],[-97.792007,27.495543],[-97.791149,27.495305],[-97.79073,27.494766],[-97.791252,27.494228],[-97.7895,27.490892],[-97.789735,27.490459],[-97.789601,27.489923],[-97.786967,27.486973],[-97.7869,27.485933],[-97.787924,27.483837],[-97.78806,27.482841],[-97.787899,27.481913],[-97.786759,27.479846],[-97.78558,27.478361],[-97.784027,27.477114],[-97.779503,27.474448],[-97.775856,27.472784],[-97.774735,27.47259],[-97.773293,27.472734],[-97.771819,27.472593],[-97.771104,27.472217],[-97.77013,27.470711],[-97.770169,27.469334],[-97.772925,27.464626],[-97.773555,27.462622],[-97.773949,27.459125],[-97.773312,27.457675],[-97.77346,27.457201],[-97.773177,27.456591],[-97.772209,27.456326],[-97.772462,27.45522],[-97.772277,27.45456],[-97.770831,27.452748],[-97.769431,27.449692],[-97.767573,27.442236],[-97.765857,27.433924],[-97.764855,27.433098],[-97.759579,27.431788],[-97.751546,27.42925],[-97.750207,27.428563],[-97.745524,27.422633],[-97.742477,27.421851],[-97.737593,27.422329],[-97.736566,27.421863],[-97.733061,27.417678],[-97.730895,27.413213],[-97.728665,27.404631],[-97.722589,27.400454],[-97.711623,27.387476],[-97.702626,27.375927],[-97.706349,27.377197],[-97.711377,27.378367],[-97.71557,27.377808],[-97.719271,27.376302],[-97.723235,27.375468],[-97.730462,27.375739],[-97.732262,27.376184],[-97.734982,27.378226],[-97.736458,27.378659],[-97.738193,27.37849],[-97.739071,27.378078],[-97.740583,27.378717],[-97.740294,27.37952],[-97.740467,27.379977],[-97.742329,27.38166],[-97.742502,27.381187],[-97.742909,27.381676],[-97.743414,27.381236],[-97.744548,27.381263],[-97.744542,27.381532],[-97.743346,27.381775],[-97.743532,27.382754],[-97.743279,27.383547],[-97.742977,27.383184],[-97.742837,27.383965],[-97.798625,27.383473],[-97.797095,27.370591],[-97.797295,27.369176],[-97.797743,27.368998],[-97.799946,27.36914],[-97.800521,27.368478],[-97.80115,27.36628],[-97.802103,27.365185],[-97.802293,27.364244],[-97.803954,27.36282],[-97.804449,27.361747],[-97.804878,27.361526],[-97.812271,27.361793],[-97.833289,27.361583],[-97.858363,27.446677],[-97.858234,27.449015],[-97.857816,27.451054],[-97.855517,27.456275],[-97.854934,27.458402],[-97.854915,27.467955],[-97.847515,27.468135],[-97.84746,27.471736],[-97.840042,27.468295],[-97.839996,27.468528],[-97.847739,27.472066],[-97.84773,27.475963],[-97.841692,27.475933],[-97.841683,27.47832],[-97.841736,27.48022],[-97.84441,27.480259],[-97.844448,27.483637],[-97.85068,27.483581],[-97.851093,27.483733],[-97.849541,27.486513],[-97.848021,27.488677],[-97.847915,27.48715],[-97.847254,27.486934],[-97.846674,27.487443],[-97.839997,27.48752],[-97.840034,27.491543],[-97.830004,27.49156],[-97.83,27.4918],[-97.831445,27.492376],[-97.840126,27.497491],[-97.840145,27.499212],[-97.838318,27.499238],[-97.838464,27.506951],[-97.824199,27.507101],[-97.824268,27.512283],[-97.822523,27.513311],[-97.822332,27.51429],[-97.821783,27.514736],[-97.820931,27.514967],[-97.820943,27.515396],[-97.820394,27.516002],[-97.82011,27.515991],[-97.819863,27.51631],[-97.816117,27.517102],[-97.815395,27.51702],[-97.814673,27.516277],[-97.81384,27.516987],[-97.813667,27.518726],[-97.813303,27.519182],[-97.813365,27.519611],[-97.81292,27.519826],[-97.812501,27.519633],[-97.812211,27.519089],[-97.810723,27.519089],[-97.809557,27.518522],[-97.808847,27.518852],[-97.807643,27.519958],[-97.806656,27.52015],[-97.804924,27.518476]]]}},{"type":"Feature","properties":{"PRECINCT":"11","VTD":"0011"},"geometry":{"type":"Polygon","coordinates":[[[-97.840145,27.499212],[-97.840126,27.497491],[-97.831445,27.492376],[-97.83,27.4918],[-97.830004,27.49156],[-97.840034,27.491543],[-97.839997,27.48752],[-97.846674,27.487443],[-97.847254,27.486934],[-97.847915,27.48715],[-97.848021,27.488677],[-97.849541,27.486513],[-97.851093,27.483733],[-97.85068,27.483581],[-97.844448,27.483637],[-97.84441,27.480259],[-97.841736,27.48022],[-97.841692,27.475933],[-97.84773,27.475963],[-97.847739,27.472066],[-97.839996,27.468528],[-97.840042,27.468295],[-97.84746,27.471736],[-97.847515,27.468135],[-97.854915,27.467955],[-97.854992,27.473372],[-97.854736,27.475885],[-97.853397,27.4758],[-97.85426,27.477081],[-97.85558,27.478337],[-97.855911,27.499026],[-97.861608,27.498962],[-97.861249,27.498086],[-97.864053,27.496482],[-97.86438,27.497012],[-97.864437,27.498327],[-97.867957,27.498304],[-97.867874,27.502237],[-97.867674,27.502789],[-97.855947,27.502887],[-97.855986,27.506783],[-97.838464,27.506951],[-97.838318,27.499238],[-97.840145,27.499212]]]}},{"type":"Feature","properties":{"PRECINCT":"31","VTD":"0031"},"geometry":{"type":"Polygon","coordinates":[[[-97.855911,27.499026],[-97.85558,27.478337],[-97.85426,27.477081],[-97.853397,27.4758],[-97.854736,27.475885],[-97.854888,27.47502],[-97.854934,27.458402],[-97.855517,27.456275],[-97.857816,27.451054],[-97.858234,27.449015],[-97.858264,27.447218],[-97.858635,27.448226],[-97.859403,27.448885],[-97.860127,27.451309],[-97.859987,27.452439],[-97.860459,27.452419],[-97.867441,27.476356],[-97.867695,27.479284],[-97.867957,27.498304],[-97.864437,27.498327],[-97.86438,27.497012],[-97.864053,27.496482],[-97.861249,27.498086],[-97.861608,27.498962],[-97.855911,27.499026]]]}},{"type":"Feature","properties":{"PRECINCT":"13","VTD":"0013"},"geometry":{"type":"Polygon","coordinates":[[[-97.840301,27.514913],[-97.832099,27.514888],[-97.824268,27.512283],[-97.824199,27.507101],[-97.855986,27.506783],[-97.856084,27.513718],[-97.847843,27.513806],[-97.847785,27.511577],[-97.846192,27.511595],[-97.845294,27.51194],[-97.844464,27.512972],[-97.842516,27.512153],[-97.840376,27.512068],[-97.840301,27.514913]]]}},{"type":"Feature","properties":{"PRECINCT":"34","VTD":"0034"},"geometry":{"type":"Polygon","coordinates":[[[-97.742837,27.383965],[-97.742977,27.383184],[-97.743279,27.383547],[-97.743532,27.382754],[-97.743346,27.381775],[-97.744542,27.381532],[-97.744548,27.381263],[-97.743414,27.381236],[-97.742909,27.381676],[-97.742502,27.381187],[-97.742329,27.38166],[-97.740467,27.379977],[-97.740294,27.37952],[-97.740583,27.378717],[-97.739071,27.378078],[-97.738193,27.37849],[-97.736458,27.378659],[-97.734982,27.378226],[-97.732262,27.376184],[-97.730462,27.375739],[-97.728442,27.375542],[-97.723235,27.375468],[-97.719271,27.376302],[-97.71557,27.377808],[-97.711377,27.378367],[-97.706349,27.377197],[-97.702626,27.375927],[-97.701518,27.375318],[-97.696712,27.37138],[-97.694564,27.368587],[-97.684406,27.35311],[-97.6807,27.346935],[-97.672461,27.336327],[-97.662372,27.325641],[-97.653782,27.317714],[-97.652491,27.315512],[-97.64801,27.309723],[-97.645458,27.304713],[-97.644817,27.302352],[-97.643922,27.300482],[-97.64374,27.298696],[-97.642786,27.295703],[-97.642714,27.293472],[-97.641687,27.286454],[-97.641577,27.28238],[-97.650497,27.283488],[-97.727403,27.26599],[-97.729082,27.265848],[-97.730498,27.266045],[-97.724927,27.268307],[-97.724517,27.269529],[-97.723767,27.26995],[-97.721764,27.270526],[-97.72152,27.270906],[-97.720067,27.271483],[-97.718794,27.272313],[-97.720067,27.271715],[-97.720121,27.272015],[-97.721714,27.272834],[-97.723558,27.272263],[-97.725845,27.27331],[-97.72668,27.273426],[-97.726798,27.287975],[-97.743252,27.287853],[-97.74347,27.310673],[-97.776347,27.31042],[-97.776578,27.332554],[-97.793011,27.33242],[-97.793038,27.334004],[-97.792747,27.334296],[-97.793254,27.33769],[-97.79427,27.338994],[-97.796038,27.339735],[-97.826798,27.339528],[-97.833289,27.361583],[-97.812271,27.361793],[-97.804878,27.361526],[-97.804449,27.361747],[-97.803954,27.36282],[-97.802293,27.364244],[-97.802103,27.365185],[-97.80115,27.36628],[-97.800521,27.368478],[-97.799946,27.36914],[-97.797743,27.368998],[-97.797295,27.369176],[-97.797095,27.370591],[-97.798625,27.383473],[-97.742837,27.383965]]]}},{"type":"Feature","properties":{"PRECINCT":"41","VTD":"0041"},"geometry":{"type":"Polygon","coordinates":[[[-97.831704,27.534495],[-97.830111,27.534253],[-97.829716,27.533812],[-97.828784,27.533714],[-97.828426,27.534104],[-97.828753,27.534368],[-97.828667,27.534671],[-97.8275,27.534688],[-97.827167,27.535183],[-97.826543,27.535029],[-97.823673,27.535282],[-97.822451,27.534947],[-97.822358,27.533945],[-97.821957,27.533334],[-97.822253,27.532625],[-97.821531,27.532256],[-97.821469,27.531612],[-97.822802,27.530176],[-97.823086,27.529147],[-97.822586,27.52874],[-97.822031,27.528921],[-97.822222,27.529378],[-97.821265,27.529406],[-97.820494,27.530027],[-97.820241,27.529868],[-97.820117,27.529092],[-97.819877,27.529114],[-97.819494,27.529923],[-97.817303,27.529197],[-97.817118,27.529538],[-97.817667,27.530193],[-97.817556,27.531205],[-97.818358,27.531249],[-97.818599,27.531607],[-97.817963,27.531816],[-97.817402,27.532355],[-97.816599,27.532218],[-97.816346,27.533571],[-97.815735,27.53383],[-97.814568,27.533494],[-97.815037,27.532999],[-97.814149,27.532647],[-97.813649,27.53285],[-97.813173,27.53268],[-97.812568,27.531898],[-97.811667,27.529907],[-97.811945,27.52978],[-97.812501,27.530055],[-97.813247,27.528949],[-97.81313,27.528014],[-97.812692,27.527684],[-97.81234,27.528245],[-97.811748,27.528465],[-97.809384,27.528162],[-97.806415,27.529477],[-97.805476,27.529532],[-97.805186,27.529306],[-97.805236,27.528965],[-97.805748,27.528723],[-97.806014,27.528058],[-97.806581,27.527661],[-97.808118,27.527309],[-97.807557,27.525824],[-97.807631,27.524987],[-97.807057,27.524602],[-97.805199,27.525587],[-97.804205,27.525636],[-97.80407,27.525163],[-97.80502,27.523259],[-97.804304,27.522769],[-97.803027,27.521328],[-97.802792,27.52059],[-97.803021,27.519991],[-97.804943,27.518584],[-97.806292,27.519925],[-97.80686,27.520184],[-97.807643,27.519958],[-97.808847,27.518852],[-97.809557,27.518522],[-97.810723,27.519089],[-97.812211,27.519089],[-97.812501,27.519633],[-97.812957,27.519815],[-97.813365,27.519611],[-97.813303,27.519182],[-97.813667,27.518726],[-97.81384,27.516987],[-97.814673,27.516277],[-97.815395,27.51702],[-97.815883,27.517113],[-97.819863,27.51631],[-97.8209,27.515451],[-97.820931,27.514967],[-97.821783,27.514736],[-97.822332,27.51429],[-97.822523,27.513311],[-97.824268,27.512283],[-97.832099,27.514888],[-97.846917,27.514806],[-97.846947,27.517137],[-97.848202,27.517115],[-97.848173,27.51478],[-97.850426,27.514769],[-97.850468,27.51683],[-97.856115,27.516759],[-97.856173,27.522846],[-97.832405,27.523116],[-97.832795,27.530843],[-97.837743,27.530689],[-97.83663,27.533303],[-97.83377,27.535758],[-97.833755,27.536871],[-97.832421,27.537627],[-97.832433,27.537207],[-97.83171,27.536492],[-97.83163,27.536123],[-97.831722,27.535645],[-97.832148,27.53549],[-97.832265,27.535199],[-97.831599,27.534814],[-97.831704,27.534495]]]}},{"type":"Feature","properties":{"PRECINCT":"43","VTD":"0043"},"geometry":{"type":"Polygon","coordinates":[[[-97.856162,27.518875],[-97.855947,27.502887],[-97.868071,27.502818],[-97.868038,27.506671],[-97.868303,27.506673],[-97.868263,27.511913],[-97.868689,27.51768],[-97.867672,27.517702],[-97.867666,27.518728],[-97.856162,27.518875]]]}},{"type":"Feature","properties":{"PRECINCT":"14","VTD":"0014"},"geometry":{"type":"Polygon","coordinates":[[[-97.846947,27.517137],[-97.846917,27.514806],[-97.840304,27.514882],[-97.840376,27.512068],[-97.842516,27.512153],[-97.844464,27.512972],[-97.84491,27.51227],[-97.845737,27.511724],[-97.847785,27.511577],[-97.847843,27.513806],[-97.856084,27.513718],[-97.856115,27.516759],[-97.850468,27.51683],[-97.850426,27.514769],[-97.848173,27.51478],[-97.848202,27.517115],[-97.846947,27.517137]]]}},{"type":"Feature","properties":{"PRECINCT":"32","VTD":"0032"},"geometry":{"type":"Polygon","coordinates":[[[-97.904661,27.512843],[-97.903082,27.512392],[-97.902952,27.512766],[-97.902384,27.513024],[-97.901415,27.512727],[-97.901169,27.512215],[-97.901484,27.510828],[-97.902768,27.510499],[-97.902731,27.509998],[-97.90241,27.509635],[-97.901114,27.509574],[-97.899904,27.510421],[-97.898386,27.509655],[-97.89801,27.508753],[-97.898177,27.508566],[-97.898677,27.508616],[-97.899029,27.507433],[-97.898918,27.506772],[-97.89811,27.506524],[-97.897499,27.505506],[-97.896944,27.505324],[-97.895956,27.505814],[-97.894672,27.505885],[-97.892728,27.506352],[-97.892339,27.506374],[-97.892028,27.505996],[-97.889381,27.506302],[-97.889413,27.510109],[-97.893019,27.51014],[-97.892941,27.514614],[-97.892674,27.514247],[-97.874869,27.514487],[-97.874838,27.512507],[-97.868302,27.51258],[-97.868071,27.502818],[-97.867674,27.502789],[-97.867874,27.502237],[-97.867957,27.498304],[-97.86754,27.476916],[-97.860459,27.452419],[-97.872942,27.452258],[-97.873218,27.469356],[-97.874161,27.46965],[-97.874753,27.469556],[-97.874709,27.470517],[-97.875965,27.469723],[-97.877903,27.469022],[-97.878726,27.469152],[-97.879713,27.468861],[-97.881076,27.468845],[-97.88379,27.469672],[-97.884524,27.470134],[-97.886257,27.470564],[-97.886646,27.470845],[-97.886831,27.471846],[-97.887361,27.47254],[-97.888922,27.472364],[-97.889773,27.471935],[-97.890563,27.472145],[-97.891414,27.473152],[-97.892974,27.473576],[-97.893733,27.473599],[-97.895856,27.472934],[-97.896374,27.473077],[-97.896331,27.473567],[-97.896676,27.474392],[-97.897662,27.475504],[-97.898705,27.475405],[-97.898952,27.475119],[-97.898391,27.474635],[-97.898508,27.473837],[-97.89894,27.474151],[-97.899828,27.474228],[-97.900741,27.474811],[-97.901586,27.474938],[-97.901765,27.476716],[-97.90261,27.477283],[-97.903239,27.477327],[-97.904177,27.477751],[-97.904713,27.47829],[-97.905145,27.479341],[-97.905212,27.480976],[-97.905792,27.481433],[-97.907826,27.481938],[-97.912594,27.475723],[-97.912781,27.475164],[-97.915633,27.471776],[-97.916676,27.470005],[-97.921537,27.467221],[-97.929011,27.47747],[-97.929679,27.477914],[-97.925928,27.488563],[-97.926393,27.489938],[-97.925917,27.490808],[-97.924857,27.490361],[-97.90949,27.499359],[-97.902435,27.502765],[-97.909104,27.511946],[-97.905188,27.516087],[-97.904161,27.515077],[-97.904019,27.514576],[-97.904661,27.512843]]]}},{"type":"Feature","properties":{"PRECINCT":"45","VTD":"0045"},"geometry":{"type":"Polygon","coordinates":[[[-97.856134,27.52669],[-97.856162,27.518875],[-97.867666,27.518728],[-97.867672,27.517702],[-97.868689,27.51768],[-97.868532,27.523682],[-97.867543,27.526725],[-97.856134,27.52669]]]}},{"type":"Feature","properties":{"PRECINCT":"21","VTD":"0021"},"geometry":{"type":"Polygon","coordinates":[[[-97.856134,27.526812],[-97.867543,27.526725],[-97.867219,27.5274],[-97.865873,27.528685],[-97.854886,27.538337],[-97.853979,27.538403],[-97.855624,27.53682],[-97.856214,27.535245],[-97.856134,27.526812]]]}},{"type":"Feature","properties":{"PRECINCT":"23","VTD":"0023"},"geometry":{"type":"Polygon","coordinates":[[[-97.880904,27.612058],[-97.879637,27.61219],[-97.879366,27.611954],[-97.87928,27.611215],[-97.879947,27.610517],[-97.879398,27.609262],[-97.8787,27.60892],[-97.877353,27.609068],[-97.876644,27.608375],[-97.876749,27.607494],[-97.876342,27.606669],[-97.877399,27.60591],[-97.877189,27.604826],[-97.877443,27.603648],[-97.877122,27.603252],[-97.876424,27.602966],[-97.876431,27.602267],[-97.875863,27.601656],[-97.875198,27.598728],[-97.877398,27.596451],[-97.876985,27.595466],[-97.87583,27.594667],[-97.875541,27.593363],[-97.875948,27.593039],[-97.8759,27.592103],[-97.874418,27.59052],[-97.873793,27.587726],[-97.872922,27.586922],[-97.871742,27.586593],[-97.871378,27.586664],[-97.870655,27.587314],[-97.870094,27.587397],[-97.869185,27.585493],[-97.868277,27.585323],[-97.868215,27.584888],[-97.867727,27.584701],[-97.865354,27.582281],[-97.864385,27.582854],[-97.864286,27.58243],[-97.863625,27.582309],[-97.863662,27.581913],[-97.863014,27.581633],[-97.862421,27.581022],[-97.860173,27.58181],[-97.860142,27.581458],[-97.859679,27.580979],[-97.857931,27.580655],[-97.857968,27.58027],[-97.858635,27.579851],[-97.858462,27.579593],[-97.858344,27.57978],[-97.857714,27.579428],[-97.858017,27.578762],[-97.858338,27.578707],[-97.858307,27.57841],[-97.857782,27.578151],[-97.857238,27.578179],[-97.85667,27.577244],[-97.855435,27.576501],[-97.8552,27.576617],[-97.855225,27.576876],[-97.854854,27.576975],[-97.854113,27.576689],[-97.853934,27.576298],[-97.853533,27.576524],[-97.853175,27.576425],[-97.852501,27.575693],[-97.852767,27.575132],[-97.852415,27.574934],[-97.852421,27.574527],[-97.851334,27.574835],[-97.851402,27.574092],[-97.851105,27.573768],[-97.850981,27.573063],[-97.850179,27.573306],[-97.849024,27.572954],[-97.849024,27.572706],[-97.849647,27.572387],[-97.849283,27.571567],[-97.849789,27.571341],[-97.849357,27.57034],[-97.849004,27.569983],[-97.848313,27.570131],[-97.847516,27.569653],[-97.847571,27.568464],[-97.846787,27.568679],[-97.846417,27.568228],[-97.845478,27.568184],[-97.845762,27.567683],[-97.847083,27.566748],[-97.846756,27.566197],[-97.845861,27.566143],[-97.845552,27.566814],[-97.844879,27.567287],[-97.844564,27.567001],[-97.84478,27.566308],[-97.844045,27.565851],[-97.843502,27.565774],[-97.842847,27.566033],[-97.841563,27.565571],[-97.841618,27.56507],[-97.8421,27.564762],[-97.841915,27.564476],[-97.839877,27.564994],[-97.839815,27.56391],[-97.838914,27.563442],[-97.838852,27.562886],[-97.839315,27.562567],[-97.839679,27.562776],[-97.840204,27.562622],[-97.84021,27.562028],[-97.839407,27.561736],[-97.839031,27.561852],[-97.838574,27.561544],[-97.838919,27.561071],[-97.839956,27.560432],[-97.839981,27.560151],[-97.839086,27.559876],[-97.838826,27.559183],[-97.839141,27.558594],[-97.839808,27.558935],[-97.840678,27.558358],[-97.831426,27.558402],[-97.845695,27.545904],[-97.845928,27.546104],[-97.853246,27.539782],[-97.867219,27.5274],[-97.868252,27.524959],[-97.868577,27.522708],[-97.877827,27.522598],[-97.878615,27.575541],[-97.883734,27.609366],[-97.883615,27.610586],[-97.8825,27.613867],[-97.881947,27.613599],[-97.880904,27.612058]]]}},{"type":"Feature","properties":{"PRECINCT":"22","VTD":"0022"},"geometry":{"type":"Polygon","coordinates":[[[-97.868577,27.522708],[-97.868697,27.518752],[-97.877754,27.518622],[-97.877783,27.520114],[-97.879309,27.520081],[-97.879584,27.519728],[-97.879569,27.518568],[-97.882249,27.518551],[-97.882212,27.515487],[-97.881966,27.515458],[-97.881968,27.514387],[-97.892674,27.514247],[-97.892941,27.514614],[-97.892943,27.518446],[-97.895004,27.51854],[-97.894945,27.522357],[-97.868577,27.522708]]]}},{"type":"Feature","properties":{"PRECINCT":"44","VTD":"0044"},"geometry":{"type":"Polygon","coordinates":[[[-97.877783,27.520114],[-97.877754,27.518622],[-97.868697,27.518752],[-97.868302,27.51258],[-97.874838,27.512507],[-97.874869,27.514487],[-97.881968,27.514387],[-97.881966,27.515458],[-97.882212,27.515487],[-97.882249,27.518551],[-97.879569,27.518568],[-97.879584,27.519728],[-97.879309,27.520081],[-97.877783,27.520114]]]}},{"type":"Feature","properties":{"PRECINCT":"24","VTD":"0024"},"geometry":{"type":"Polygon","coordinates":[[[-97.932261,27.635834],[-97.931798,27.634271],[-97.932045,27.633385],[-97.931674,27.633209],[-97.931576,27.632582],[-97.930136,27.631272],[-97.928505,27.630986],[-97.928054,27.630232],[-97.926843,27.629352],[-97.926714,27.628922],[-97.925935,27.628603],[-97.924638,27.627271],[-97.925034,27.626243],[-97.924848,27.625483],[-97.925247,27.624814],[-97.924982,27.624517],[-97.924308,27.62477],[-97.923184,27.624588],[-97.92324,27.624258],[-97.921967,27.62373],[-97.921504,27.623201],[-97.921244,27.623306],[-97.921109,27.622904],[-97.920701,27.623322],[-97.919391,27.622959],[-97.9186,27.623173],[-97.917952,27.622689],[-97.917414,27.622975],[-97.916809,27.622854],[-97.913195,27.62364],[-97.912719,27.623315],[-97.91207,27.623282],[-97.911626,27.622677],[-97.910384,27.622209],[-97.909915,27.62244],[-97.909871,27.62321],[-97.909142,27.623359],[-97.90879,27.624024],[-97.907597,27.624376],[-97.906862,27.624013],[-97.906282,27.622466],[-97.905695,27.622186],[-97.904565,27.622234],[-97.902693,27.621789],[-97.901383,27.622629],[-97.900914,27.622673],[-97.898004,27.621704],[-97.897819,27.621186],[-97.896676,27.620961],[-97.895756,27.620466],[-97.894069,27.620972],[-97.893594,27.620955],[-97.892618,27.620443],[-97.890931,27.621163],[-97.888411,27.620051],[-97.888578,27.619181],[-97.887615,27.618504],[-97.88714,27.617755],[-97.887196,27.6172],[-97.887845,27.616545],[-97.887338,27.615819],[-97.885961,27.614937],[-97.8825,27.613867],[-97.883615,27.610586],[-97.883707,27.609],[-97.878567,27.574834],[-97.877827,27.522598],[-97.894945,27.522357],[-97.895004,27.51854],[-97.892943,27.518446],[-97.893019,27.51014],[-97.889413,27.510109],[-97.889381,27.506302],[-97.892028,27.505996],[-97.892339,27.506374],[-97.892728,27.506352],[-97.894672,27.505885],[-97.895956,27.505814],[-97.896944,27.505324],[-97.897413,27.505446],[-97.89811,27.506524],[-97.898918,27.506772],[-97.899029,27.507433],[-97.898677,27.508616],[-97.898177,27.508566],[-97.89801,27.508753],[-97.898386,27.509655],[-97.899904,27.510421],[-97.901114,27.509574],[-97.902484,27.50969],[-97.902768,27.510499],[-97.901515,27.510801],[-97.901261,27.51128],[-97.90115,27.512149],[-97.901347,27.512639],[-97.902384,27.513024],[-97.902952,27.512766],[-97.903162,27.512359],[-97.9046,27.512744],[-97.904668,27.513146],[-97.904019,27.514576],[-97.904161,27.515077],[-97.905188,27.516087],[-97.909104,27.511946],[-97.902435,27.502765],[-97.90949,27.499359],[-97.924857,27.490361],[-97.925917,27.490808],[-97.926393,27.489938],[-97.925928,27.488563],[-97.929679,27.477914],[-97.944803,27.479102],[-97.946048,27.479479],[-97.948339,27.479662],[-97.95539,27.473346],[-97.955914,27.473168],[-97.963139,27.473157],[-97.964496,27.47349],[-97.966132,27.473535],[-97.967962,27.473088],[-97.973003,27.473002],[-97.975121,27.473159],[-97.995335,27.472918],[-97.995574,27.473102],[-98.03408,27.472999],[-98.034196,27.472903],[-98.033975,27.472862],[-98.038447,27.469371],[-98.052436,27.469368],[-98.052464,27.470409],[-98.053902,27.470394],[-98.054027,27.470085],[-98.058119,27.470059],[-98.058234,27.467901],[-98.057893,27.467781],[-98.057927,27.467446],[-98.058233,27.467129],[-98.05893,27.467134],[-98.0598,27.635869],[-98.017984,27.635671],[-97.955912,27.635967],[-97.932261,27.635834]]]}},{"type":"Feature","properties":{"PRECINCT":"35","VTD":"0035"},"geometry":{"type":"Polygon","coordinates":[[[-97.904177,27.477751],[-97.903239,27.477327],[-97.90261,27.477283],[-97.901765,27.476716],[-97.901586,27.474938],[-97.900741,27.474811],[-97.900192,27.474366],[-97.89894,27.474151],[-97.898508,27.473837],[-97.898391,27.474635],[-97.898952,27.475119],[-97.898705,27.475405],[-97.897755,27.47552],[-97.896762,27.474541],[-97.896331,27.473567],[-97.896374,27.473077],[-97.896109,27.472972],[-97.893733,27.473599],[-97.892974,27.473576],[-97.891414,27.473152],[-97.890563,27.472145],[-97.890001,27.471963],[-97.889267,27.472056],[-97.888922,27.472364],[-97.887361,27.47254],[-97.886831,27.471846],[-97.886591,27.470768],[-97.881631,27.468944],[-97.879713,27.468861],[-97.878726,27.469152],[-97.877903,27.469022],[-97.875965,27.469723],[-97.874709,27.470517],[-97.874753,27.469556],[-97.874161,27.46965],[-97.873218,27.469356],[-97.872942,27.452258],[-97.859987,27.452439],[-97.860127,27.451309],[-97.859403,27.448885],[-97.858397,27.447744],[-97.858363,27.446677],[-97.823052,27.326741],[-97.824039,27.326469],[-97.824249,27.325605],[-97.823583,27.324724],[-97.824064,27.323888],[-97.824594,27.323816],[-97.825043,27.323139],[-97.826337,27.32304],[-97.82651,27.322765],[-97.82622,27.322424],[-97.826583,27.321566],[-97.82736,27.321048],[-97.828518,27.320724],[-97.830095,27.320613],[-97.830613,27.322803],[-97.831697,27.323486],[-97.833225,27.323056],[-97.834297,27.322247],[-97.835726,27.321785],[-97.837525,27.320376],[-97.839724,27.319897],[-97.84146,27.320115],[-97.841631,27.318599],[-97.840639,27.317471],[-97.840664,27.315545],[-97.841093,27.314683],[-97.842103,27.314268],[-97.846699,27.314472],[-97.862744,27.313931],[-97.873146,27.315213],[-97.880284,27.313895],[-97.88335,27.314685],[-97.886126,27.313737],[-97.887445,27.313597],[-97.897164,27.315341],[-97.900697,27.315301],[-97.903452,27.316485],[-97.918707,27.31926],[-97.921696,27.319093],[-97.921531,27.284094],[-97.921234,27.282993],[-97.921176,27.278732],[-97.919641,27.276851],[-97.919478,27.276266],[-97.921244,27.26169],[-97.922068,27.25928],[-97.921885,27.257555],[-97.986011,27.256809],[-97.986076,27.260494],[-98.000279,27.260676],[-98.009952,27.260498],[-98.058078,27.260981],[-98.059088,27.469652],[-98.05893,27.467134],[-98.058233,27.467129],[-98.057893,27.467781],[-98.058234,27.467901],[-98.058119,27.470059],[-98.054027,27.470085],[-98.053902,27.470394],[-98.052464,27.470409],[-98.052436,27.469368],[-98.038447,27.469371],[-98.033975,27.472862],[-98.034196,27.472903],[-98.03408,27.472999],[-97.995574,27.473102],[-97.995335,27.472918],[-97.975121,27.473159],[-97.973003,27.473002],[-97.967962,27.473088],[-97.966132,27.473535],[-97.964496,27.47349],[-97.963139,27.473157],[-97.955914,27.473168],[-97.955246,27.47347],[-97.948664,27.479504],[-97.948108,27.479679],[-97.946048,27.479479],[-97.944803,27.479102],[-97.929318,27.477782],[-97.921537,27.467221],[-97.916676,27.470005],[-97.915633,27.471776],[-97.912781,27.475164],[-97.912594,27.475723],[-97.907826,27.481938],[-97.905792,27.481433],[-97.905212,27.480976],[-97.905145,27.479341],[-97.904713,27.47829],[-97.904177,27.477751]]]}},{"type":"Feature","properties":{"PRECINCT":"33","VTD":"0033"},"geometry":{"type":"Polygon","coordinates":[[[-97.793021,27.334071],[-97.793011,27.33242],[-97.776578,27.332554],[-97.776347,27.31042],[-97.74347,27.310673],[-97.743252,27.287853],[-97.726798,27.287975],[-97.72668,27.273426],[-97.725845,27.27331],[-97.723558,27.272263],[-97.721714,27.272834],[-97.720121,27.272015],[-97.720067,27.271715],[-97.719083,27.272318],[-97.71886,27.272217],[-97.72152,27.270906],[-97.721764,27.270526],[-97.723767,27.26995],[-97.724517,27.269529],[-97.724927,27.268307],[-97.730498,27.266045],[-97.734001,27.268258],[-97.736457,27.270487],[-97.737704,27.272906],[-97.738314,27.273543],[-97.740046,27.278281],[-97.747212,27.277266],[-97.74854,27.278419],[-97.752732,27.2803],[-97.754614,27.282349],[-97.755189,27.282628],[-97.757872,27.283123],[-97.759343,27.283021],[-97.761914,27.282094],[-97.762834,27.281261],[-97.763704,27.279967],[-97.76434,27.279454],[-97.765155,27.27917],[-97.767891,27.279754],[-97.769181,27.280781],[-97.773645,27.28258],[-97.775425,27.282807],[-97.777673,27.28379],[-97.780091,27.284001],[-97.785102,27.283714],[-97.788896,27.282003],[-97.792153,27.281561],[-97.793932,27.280443],[-97.793843,27.279676],[-97.795012,27.277641],[-97.795605,27.274939],[-97.796552,27.272614],[-97.797131,27.27159],[-97.797626,27.271386],[-97.799751,27.271599],[-97.801407,27.272992],[-97.802363,27.273221],[-97.803597,27.272683],[-97.804374,27.271515],[-97.805498,27.270496],[-97.806795,27.270042],[-97.808022,27.270332],[-97.809417,27.271307],[-97.810469,27.271669],[-97.814172,27.27195],[-97.815616,27.271632],[-97.817052,27.269874],[-97.817396,27.268972],[-97.8173,27.268491],[-97.815877,27.266395],[-97.815192,27.264235],[-97.81557,27.26066],[-97.81555,27.256575],[-97.816347,27.254139],[-97.818091,27.253376],[-97.819841,27.25357],[-97.82046,27.253327],[-97.821927,27.252319],[-97.822597,27.251066],[-97.824017,27.250343],[-97.825741,27.249787],[-97.827875,27.249888],[-97.829833,27.249578],[-97.834015,27.246833],[-97.834731,27.246657],[-97.836087,27.246745],[-97.838722,27.246173],[-97.839484,27.245695],[-97.840569,27.244271],[-97.841069,27.243986],[-97.842479,27.244134],[-97.844854,27.244808],[-97.845165,27.245517],[-97.845155,27.246828],[-97.846076,27.247984],[-97.848805,27.249609],[-97.85184,27.24957],[-97.854227,27.251973],[-97.855397,27.252424],[-97.856068,27.251637],[-97.856754,27.249827],[-97.854506,27.247896],[-97.854333,27.246856],[-97.854684,27.245992],[-97.856333,27.243741],[-97.858081,27.243339],[-97.858623,27.24341],[-97.859011,27.244027],[-97.85847,27.244858],[-97.858525,27.245452],[-97.859415,27.246119],[-97.860305,27.246276],[-97.861801,27.245785],[-97.863657,27.244416],[-97.865805,27.241995],[-97.868316,27.240241],[-97.870702,27.240394],[-97.870564,27.242035],[-97.870964,27.24233],[-97.872404,27.241937],[-97.874459,27.242068],[-97.877732,27.241732],[-97.878828,27.241179],[-97.880224,27.238752],[-97.883912,27.236768],[-97.884827,27.235764],[-97.885852,27.236047],[-97.887333,27.237302],[-97.887828,27.238035],[-97.887923,27.239342],[-97.888501,27.240681],[-97.890416,27.240894],[-97.890824,27.240641],[-97.891435,27.240641],[-97.892032,27.239924],[-97.894369,27.238973],[-97.894743,27.239109],[-97.895156,27.239763],[-97.895623,27.241959],[-97.896103,27.242366],[-97.896745,27.242544],[-97.89738,27.242363],[-97.901703,27.238302],[-97.905715,27.240865],[-97.909106,27.240904],[-97.909683,27.240716],[-97.910589,27.239563],[-97.911679,27.238828],[-97.91269,27.237473],[-97.913676,27.237329],[-97.915042,27.237494],[-97.916504,27.237835],[-97.916921,27.23827],[-97.917312,27.239115],[-97.917069,27.240415],[-97.917577,27.24196],[-97.918514,27.242558],[-97.919011,27.243162],[-97.919393,27.243162],[-97.920162,27.242189],[-97.921419,27.241242],[-97.921684,27.239498],[-97.922158,27.238762],[-97.922103,27.237782],[-97.92238,27.237089],[-97.922731,27.237089],[-97.923776,27.237744],[-97.92739,27.237816],[-97.928246,27.237513],[-97.929317,27.237607],[-97.930585,27.238322],[-97.931613,27.238597],[-97.933115,27.238135],[-97.933903,27.237607],[-97.934033,27.236584],[-97.933676,27.236],[-97.933749,27.235521],[-97.936089,27.234674],[-97.937117,27.234559],[-97.938964,27.235258],[-97.941069,27.235263],[-97.941814,27.2355],[-97.942534,27.235081],[-97.943796,27.233392],[-97.94576,27.232682],[-97.94786,27.232456],[-97.94962,27.232508],[-97.950821,27.23354],[-97.951701,27.233496],[-97.952286,27.23173],[-97.952261,27.230464],[-97.952643,27.229727],[-97.952575,27.227509],[-97.953707,27.226287],[-97.954218,27.224933],[-97.954803,27.224102],[-97.956268,27.223981],[-97.956926,27.223524],[-97.956908,27.222787],[-97.956243,27.222215],[-97.955479,27.222039],[-97.954876,27.22156],[-97.954667,27.220647],[-97.954802,27.22008],[-97.955842,27.218737],[-97.956261,27.218781],[-97.956956,27.219331],[-97.958144,27.219116],[-97.959652,27.217102],[-97.959541,27.216706],[-97.95847,27.215671],[-97.957928,27.214483],[-97.958162,27.213845],[-97.958981,27.213003],[-97.959935,27.213063],[-97.960778,27.21396],[-97.96063,27.214549],[-97.961264,27.215],[-97.962779,27.215341],[-97.963905,27.214163],[-97.963874,27.212919],[-97.964452,27.212451],[-97.965437,27.212127],[-97.967407,27.21277],[-97.967955,27.213243],[-97.968484,27.213232],[-97.969358,27.211355],[-97.969265,27.210805],[-97.970404,27.210678],[-97.971518,27.210216],[-97.972004,27.210106],[-97.972521,27.210287],[-97.973715,27.211178],[-97.975475,27.210941],[-97.976196,27.210572],[-97.977365,27.210374],[-97.979728,27.210379],[-97.980953,27.210676],[-97.982523,27.211798],[-97.983096,27.211974],[-97.983329,27.211055],[-97.984332,27.210427],[-97.985175,27.209387],[-97.985887,27.209308],[-97.986011,27.256809],[-97.921885,27.257555],[-97.922068,27.25928],[-97.921244,27.26169],[-97.919478,27.276266],[-97.919641,27.276851],[-97.921176,27.278732],[-97.921234,27.282993],[-97.921531,27.284094],[-97.921696,27.319093],[-97.918707,27.31926],[-97.903452,27.316485],[-97.900697,27.315301],[-97.897164,27.315341],[-97.887445,27.313597],[-97.886126,27.313737],[-97.88335,27.314685],[-97.880284,27.313895],[-97.873146,27.315213],[-97.862744,27.313931],[-97.846699,27.314472],[-97.841969,27.314279],[-97.841093,27.314683],[-97.840664,27.315545],[-97.840639,27.317471],[-97.841631,27.318599],[-97.84146,27.320115],[-97.839724,27.319897],[-97.837525,27.320376],[-97.835726,27.321785],[-97.834297,27.322247],[-97.833225,27.323056],[-97.831697,27.323486],[-97.830613,27.322803],[-97.830095,27.320613],[-97.828518,27.320724],[-97.826842,27.321362],[-97.826306,27.322072],[-97.82622,27.322424],[-97.82651,27.322765],[-97.826337,27.32304],[-97.825043,27.323139],[-97.824594,27.323816],[-97.824064,27.323888],[-97.823694,27.324471],[-97.823602,27.324928],[-97.824095,27.325368],[-97.824249,27.325852],[-97.824015,27.326524],[-97.823052,27.326741],[-97.826798,27.339528],[-97.796038,27.339735],[-97.79427,27.338994],[-97.793315,27.337831],[-97.792747,27.334296],[-97.793021,27.334071]]]}}]}