{"type":"FeatureCollection","features":[{"type":"Feature","properties":{"PRECINCT":"1","VTD":"0001"},"geometry":{"type":"Polygon","coordinates":[[[-98.757725,32.515468],[-98.759039,32.485223],[-98.758759,32.470134],[-98.759062,32.468857],[-98.759739,32.452219],[-98.759979,32.450977],[-98.759522,32.450411],[-98.760066,32.448191],[-98.760821,32.428977],[-98.760864,32.421535],[-98.760513,32.419924],[-98.760976,32.419784],[-98.760992,32.418644],[-98.761173,32.418534],[-98.760853,32.418305],[-98.759851,32.418748],[-98.759769,32.418601],[-98.759605,32.413639],[-98.759792,32.39743],[-98.763071,32.397436],[-98.763371,32.390059],[-98.76836,32.383969],[-98.769879,32.379259],[-98.770471,32.378406],[-98.771766,32.377255],[-98.772075,32.376357],[-98.771739,32.375367],[-98.771014,32.374304],[-98.771155,32.373155],[-98.77037,32.372336],[-98.770399,32.371915],[-98.768824,32.371912],[-98.768914,32.371709],[-98.768539,32.37134],[-98.768019,32.371771],[-98.768152,32.366389],[-98.766584,32.357379],[-98.766458,32.337612],[-98.759184,32.33244],[-98.756423,32.332545],[-98.756559,32.319729],[-98.77518,32.320097],[-98.775412,32.290724],[-98.766894,32.290598],[-98.766731,32.288805],[-98.767106,32.276134],[-98.790265,32.276237],[-98.794834,32.276034],[-98.833871,32.275802],[-98.839433,32.282073],[-98.840467,32.282635],[-98.841918,32.282913],[-98.866949,32.283014],[-98.868385,32.28252],[-98.869699,32.281246],[-98.870032,32.280672],[-98.870028,32.278489],[-98.872677,32.278623],[-98.887198,32.278475],[-98.88722,32.311967],[-98.885832,32.314625],[-98.887177,32.316658],[-98.887324,32.317942],[-98.887346,32.371041],[-98.886581,32.373543],[-98.885739,32.37364],[-98.883035,32.37478],[-98.878596,32.37509],[-98.832881,32.375159],[-98.830811,32.375805],[-98.830821,32.379081],[-98.830551,32.380404],[-98.828252,32.384571],[-98.829001,32.384622],[-98.829137,32.384963],[-98.829714,32.384869],[-98.830116,32.385177],[-98.83055,32.384968],[-98.8316,32.385183],[-98.833382,32.384577],[-98.833907,32.384616],[-98.834626,32.385045],[-98.835133,32.385598],[-98.834908,32.385984],[-98.835223,32.386496],[-98.835042,32.387761],[-98.836429,32.389482],[-98.837214,32.389708],[-98.837577,32.390236],[-98.837305,32.390686],[-98.838125,32.39138],[-98.844654,32.391356],[-98.843586,32.391509],[-98.843457,32.394521],[-98.843153,32.394714],[-98.843878,32.395584],[-98.843937,32.39693],[-98.841033,32.396897],[-98.841022,32.401033],[-98.84469,32.401026],[-98.846288,32.400687],[-98.84987,32.397818],[-98.851115,32.39734],[-98.852508,32.397203],[-98.87458,32.397403],[-98.876532,32.396988],[-98.883753,32.394128],[-98.884147,32.39487],[-98.885317,32.395907],[-98.886669,32.397623],[-98.886907,32.404038],[-98.895125,32.404063],[-98.895148,32.404987],[-98.896057,32.406589],[-98.89614,32.407218],[-98.895947,32.410256],[-98.896189,32.414083],[-98.895339,32.427076],[-98.894452,32.436194],[-98.894612,32.44843],[-98.893327,32.467055],[-98.892885,32.491788],[-98.892077,32.498818],[-98.891009,32.514922],[-98.850472,32.515249],[-98.826264,32.515],[-98.757725,32.515468]]]}},{"type":"Feature","properties":{"PRECINCT":"2","VTD":"0002"},"geometry":{"type":"Polygon","coordinates":[[[-98.744316,32.515296],[-98.721159,32.515237],[-98.721768,32.494811],[-98.721819,32.485093],[-98.721639,32.442098],[-98.7213,32.441696],[-98.722173,32.428022],[-98.721759,32.419314],[-98.721435,32.419476],[-98.721204,32.395765],[-98.721497,32.38014],[-98.722155,32.379264],[-98.723688,32.378189],[-98.725554,32.375781],[-98.728014,32.377099],[-98.729111,32.378073],[-98.732328,32.379158],[-98.731416,32.378451],[-98.730976,32.377783],[-98.724212,32.362076],[-98.724601,32.362885],[-98.725359,32.36306],[-98.725605,32.362714],[-98.725916,32.363099],[-98.726402,32.36273],[-98.72753,32.363071],[-98.728742,32.363527],[-98.730725,32.364813],[-98.732099,32.364983],[-98.732092,32.365467],[-98.732403,32.365126],[-98.732371,32.365505],[-98.732922,32.365731],[-98.733459,32.365395],[-98.734633,32.366137],[-98.735793,32.367819],[-98.73503,32.36948],[-98.734836,32.370525],[-98.735458,32.371658],[-98.734888,32.372016],[-98.735809,32.372048],[-98.737623,32.372697],[-98.738058,32.372658],[-98.738647,32.371948],[-98.738375,32.372487],[-98.738906,32.37213],[-98.739178,32.372201],[-98.739315,32.372448],[-98.738978,32.372531],[-98.739153,32.37291],[-98.739826,32.372547],[-98.739885,32.372206],[-98.741472,32.371612],[-98.7435,32.371083],[-98.744401,32.371258],[-98.745088,32.371923],[-98.745296,32.372875],[-98.744629,32.373579],[-98.744376,32.373387],[-98.743722,32.373469],[-98.744461,32.373728],[-98.744461,32.373964],[-98.744862,32.373859],[-98.744811,32.374948],[-98.742051,32.374724],[-98.741928,32.375202],[-98.742538,32.376236],[-98.745825,32.377318],[-98.745844,32.37751],[-98.750138,32.377602],[-98.750488,32.377437],[-98.750852,32.3762],[-98.75233,32.374061],[-98.752253,32.373654],[-98.751754,32.373412],[-98.751755,32.372213],[-98.75127,32.371031],[-98.752294,32.370349],[-98.752314,32.369898],[-98.751672,32.369452],[-98.752079,32.368876],[-98.752939,32.369622],[-98.755855,32.370212],[-98.757287,32.369291],[-98.757596,32.369575],[-98.757084,32.371146],[-98.759298,32.372837],[-98.760799,32.375271],[-98.761689,32.375501],[-98.76323,32.374198],[-98.765155,32.374347],[-98.765556,32.373865],[-98.766563,32.375429],[-98.767967,32.375453],[-98.768019,32.371771],[-98.768539,32.37134],[-98.768914,32.371709],[-98.768824,32.371912],[-98.770399,32.371915],[-98.77037,32.372336],[-98.771155,32.373155],[-98.771014,32.374304],[-98.772064,32.376242],[-98.771766,32.377255],[-98.770471,32.378406],[-98.769879,32.379259],[-98.76836,32.383969],[-98.763371,32.390059],[-98.763071,32.397436],[-98.759792,32.39743],[-98.759605,32.413639],[-98.759769,32.418601],[-98.759851,32.418748],[-98.760853,32.418305],[-98.761173,32.418534],[-98.760992,32.418644],[-98.760976,32.419784],[-98.760513,32.419924],[-98.760864,32.421535],[-98.760821,32.428977],[-98.760066,32.448191],[-98.759522,32.450411],[-98.759979,32.450977],[-98.759739,32.452219],[-98.759062,32.468857],[-98.758759,32.470134],[-98.759039,32.485223],[-98.757725,32.515468],[-98.750338,32.515618],[-98.744316,32.515296]]]}},{"type":"Feature","properties":{"PRECINCT":"3","VTD":"0003"},"geometry":{"type":"Polygon","coordinates":[[[-98.543428,32.514356],[-98.500409,32.513388],[-98.495775,32.513026],[-98.475177,32.513039],[-98.475124,32.460365],[-98.475573,32.433014],[-98.475158,32.392342],[-98.475557,32.375133],[-98.475232,32.373379],[-98.475194,32.368402],[-98.567508,32.36583],[-98.568272,32.36607],[-98.568861,32.365442],[-98.570403,32.365464],[-98.571918,32.364982],[-98.574432,32.364706],[-98.576394,32.364891],[-98.578085,32.365603],[-98.579875,32.364709],[-98.580472,32.364618],[-98.581556,32.365007],[-98.582451,32.364732],[-98.585838,32.364594],[-98.588142,32.364112],[-98.589661,32.364754],[-98.601621,32.364674],[-98.63005,32.367058],[-98.644976,32.367389],[-98.675218,32.366518],[-98.675696,32.371319],[-98.676065,32.372183],[-98.676702,32.37278],[-98.675796,32.373219],[-98.675594,32.374161],[-98.675117,32.374619],[-98.675542,32.375795],[-98.675032,32.376387],[-98.674974,32.377014],[-98.675752,32.377574],[-98.675685,32.388547],[-98.680015,32.388235],[-98.689125,32.388222],[-98.691024,32.388471],[-98.694015,32.388261],[-98.709716,32.388391],[-98.711417,32.38906],[-98.712558,32.390448],[-98.712773,32.391437],[-98.712683,32.395648],[-98.721204,32.395765],[-98.721435,32.419476],[-98.721759,32.419314],[-98.722173,32.428022],[-98.7213,32.441696],[-98.721639,32.442098],[-98.721819,32.485093],[-98.721768,32.494811],[-98.721159,32.515237],[-98.572653,32.515267],[-98.543428,32.514356]]]}},{"type":"Feature","properties":{"PRECINCT":"4","VTD":"0004"},"geometry":{"type":"Polygon","coordinates":[[[-98.475194,32.368402],[-98.474685,32.299084],[-98.500329,32.286627],[-98.554911,32.259587],[-98.5722,32.250136],[-98.62203,32.224579],[-98.625331,32.223094],[-98.644125,32.213054],[-98.644527,32.22248],[-98.66518,32.275871],[-98.666095,32.275115],[-98.666098,32.275745],[-98.696996,32.27551],[-98.69701,32.281018],[-98.69744,32.282114],[-98.698544,32.282656],[-98.704155,32.282758],[-98.704958,32.283179],[-98.705299,32.28362],[-98.705513,32.30484],[-98.704475,32.305328],[-98.703946,32.306199],[-98.703882,32.312943],[-98.70348,32.313551],[-98.702226,32.31436],[-98.701837,32.315067],[-98.70165,32.322009],[-98.701401,32.322511],[-98.7008,32.322955],[-98.69824,32.32333],[-98.697271,32.324236],[-98.697085,32.331282],[-98.696523,32.332305],[-98.695199,32.332749],[-98.689391,32.332726],[-98.689517,32.333007],[-98.691002,32.333968],[-98.691652,32.335153],[-98.691718,32.341767],[-98.681601,32.341674],[-98.679992,32.342214],[-98.678879,32.343273],[-98.678408,32.344881],[-98.678226,32.358247],[-98.678025,32.358977],[-98.675396,32.363207],[-98.675553,32.365245],[-98.675218,32.366518],[-98.644976,32.367389],[-98.63005,32.367058],[-98.601621,32.364674],[-98.589661,32.364754],[-98.588142,32.364112],[-98.585838,32.364594],[-98.582451,32.364732],[-98.581556,32.365007],[-98.580472,32.364618],[-98.579875,32.364709],[-98.578085,32.365603],[-98.576394,32.364891],[-98.574432,32.364706],[-98.571918,32.364982],[-98.570403,32.365464],[-98.568861,32.365442],[-98.568272,32.36607],[-98.567508,32.36583],[-98.475194,32.368402]]]}},{"type":"Feature","properties":{"PRECINCT":"5","VTD":"0005"},"geometry":{"type":"Polygon","coordinates":[[[-98.66518,32.275871],[-98.644527,32.22248],[-98.644125,32.213054],[-98.660818,32.204142],[-98.745486,32.163785],[-98.745533,32.182812],[-98.745384,32.183268],[-98.744379,32.184191],[-98.742978,32.184993],[-98.745145,32.185715],[-98.745042,32.193277],[-98.745496,32.206645],[-98.745385,32.229216],[-98.744035,32.238376],[-98.743653,32.238631],[-98.741267,32.238593],[-98.740995,32.23889],[-98.740972,32.256034],[-98.741357,32.257672],[-98.741783,32.264379],[-98.741233,32.268233],[-98.740875,32.269057],[-98.740888,32.275828],[-98.723433,32.275362],[-98.666098,32.275745],[-98.666095,32.275115],[-98.66518,32.275871]]]}},{"type":"Feature","properties":{"PRECINCT":"6","VTD":"0006"},"geometry":{"type":"Polygon","coordinates":[[[-98.841404,32.282875],[-98.839433,32.282073],[-98.833871,32.275802],[-98.794834,32.276034],[-98.790265,32.276237],[-98.740888,32.275828],[-98.740875,32.269057],[-98.741233,32.268233],[-98.741783,32.264379],[-98.741357,32.257672],[-98.740972,32.256034],[-98.740995,32.23889],[-98.741267,32.238593],[-98.743653,32.238631],[-98.744035,32.238376],[-98.745385,32.229216],[-98.745496,32.206645],[-98.745042,32.193277],[-98.745145,32.185715],[-98.742978,32.184993],[-98.744379,32.184191],[-98.745384,32.183268],[-98.745533,32.182812],[-98.745486,32.163785],[-98.750333,32.161508],[-98.756302,32.158235],[-98.792033,32.140776],[-98.800217,32.149181],[-98.811522,32.162345],[-98.869985,32.226757],[-98.869796,32.25388],[-98.869971,32.255718],[-98.8697,32.268351],[-98.870009,32.269719],[-98.870032,32.280672],[-98.868757,32.282278],[-98.866949,32.283014],[-98.841404,32.282875]]]}},{"type":"Feature","properties":{"PRECINCT":"7","VTD":"0007"},"geometry":{"type":"Polygon","coordinates":[[[-98.841022,32.401033],[-98.841033,32.396897],[-98.843937,32.39693],[-98.843878,32.395584],[-98.843153,32.394714],[-98.843457,32.394521],[-98.843586,32.391509],[-98.844654,32.391356],[-98.838125,32.39138],[-98.837305,32.390686],[-98.837577,32.390236],[-98.837214,32.389708],[-98.836429,32.389482],[-98.835042,32.387761],[-98.835223,32.386496],[-98.834908,32.385984],[-98.835133,32.385598],[-98.834626,32.385045],[-98.833907,32.384616],[-98.833382,32.384577],[-98.8316,32.385183],[-98.83055,32.384968],[-98.830116,32.385177],[-98.829714,32.384869],[-98.829137,32.384963],[-98.829001,32.384622],[-98.828252,32.384571],[-98.830551,32.380404],[-98.830821,32.379081],[-98.830811,32.375805],[-98.832881,32.375159],[-98.834089,32.375058],[-98.878596,32.37509],[-98.883035,32.37478],[-98.885739,32.37364],[-98.886581,32.373543],[-98.887346,32.371041],[-98.887324,32.317942],[-98.887177,32.316658],[-98.885832,32.314625],[-98.88722,32.311967],[-98.887198,32.278475],[-98.872677,32.278623],[-98.870028,32.278489],[-98.870009,32.269719],[-98.8697,32.268351],[-98.869971,32.255718],[-98.869796,32.25388],[-98.869985,32.226757],[-98.811522,32.162345],[-98.800217,32.149181],[-98.792033,32.140776],[-98.811786,32.131616],[-98.82457,32.125139],[-98.860613,32.109153],[-98.875335,32.10166],[-98.924401,32.078018],[-98.996735,32.07931],[-99.000392,32.079182],[-99.000392,32.07868],[-99.118665,32.079585],[-99.118403,32.124485],[-99.118613,32.125458],[-99.118366,32.129737],[-99.117613,32.187128],[-99.11732,32.249247],[-99.117552,32.250133],[-99.117219,32.278184],[-99.107194,32.27826],[-99.107162,32.276675],[-99.084825,32.276643],[-99.084313,32.27699],[-99.0841,32.278837],[-99.07988,32.27888],[-99.079833,32.271665],[-99.060017,32.272382],[-98.993581,32.272504],[-98.975256,32.271081],[-98.958191,32.27098],[-98.957124,32.33763],[-98.95728,32.339854],[-98.958027,32.342648],[-98.959437,32.345396],[-98.968286,32.35684],[-98.96929,32.358427],[-98.969927,32.360876],[-98.970463,32.373928],[-98.971228,32.37571],[-98.976194,32.383316],[-98.971825,32.385383],[-98.970752,32.383735],[-98.970037,32.383662],[-98.95761,32.389469],[-98.95685,32.389653],[-98.952491,32.389818],[-98.950063,32.389555],[-98.929449,32.3896],[-98.918563,32.390023],[-98.912178,32.389755],[-98.904564,32.389774],[-98.90456,32.389976],[-98.894567,32.389876],[-98.89311,32.390239],[-98.887288,32.392498],[-98.887299,32.392724],[-98.875672,32.397235],[-98.874067,32.397423],[-98.851827,32.39724],[-98.850577,32.397435],[-98.84992,32.397784],[-98.847247,32.400104],[-98.84601,32.400787],[-98.84469,32.401026],[-98.841022,32.401033]]]}},{"type":"Feature","properties":{"PRECINCT":"8","VTD":"0008"},"geometry":{"type":"Polygon","coordinates":[[[-98.891009,32.514922],[-98.892077,32.498818],[-98.892885,32.491788],[-98.893327,32.467055],[-98.894612,32.44843],[-98.894452,32.436194],[-98.896161,32.41477],[-98.895947,32.410256],[-98.89614,32.407218],[-98.896057,32.406589],[-98.895148,32.404987],[-98.895125,32.404063],[-98.886907,32.404038],[-98.886669,32.397623],[-98.885317,32.395907],[-98.884147,32.39487],[-98.883753,32.394128],[-98.887299,32.392724],[-98.887288,32.392498],[-98.89311,32.390239],[-98.894947,32.389847],[-98.90456,32.389976],[-98.904564,32.389774],[-98.914024,32.389767],[-98.918563,32.390023],[-98.929449,32.3896],[-98.950063,32.389555],[-98.952491,32.389818],[-98.95685,32.389653],[-98.95761,32.389469],[-98.970037,32.383662],[-98.970752,32.383735],[-98.971825,32.385383],[-98.976194,32.383316],[-98.971228,32.37571],[-98.970463,32.373928],[-98.969927,32.360876],[-98.96929,32.358427],[-98.968286,32.35684],[-98.959437,32.345396],[-98.958027,32.342648],[-98.95728,32.339854],[-98.957124,32.33763],[-98.958191,32.27098],[-98.975256,32.271081],[-98.993581,32.272504],[-99.060017,32.272382],[-99.079833,32.271665],[-99.07988,32.27888],[-99.0841,32.278837],[-99.084313,32.27699],[-99.084825,32.276643],[-99.107162,32.276675],[-99.107194,32.27826],[-99.117219,32.278184],[-99.116979,32.323509],[-99.116174,32.374726],[-99.116379,32.375129],[-99.116014,32.382517],[-99.115499,32.407122],[-99.114652,32.495353],[-99.114049,32.500126],[-99.114293,32.514811],[-99.00127,32.51469],[-99.000346,32.515009],[-98.891009,32.514922]]]}},{"type":"Feature","properties":{"PRECINCT":"9","VTD":"0009"},"geometry":{"type":"Polygon","coordinates":[[[-98.721204,32.395765],[-98.712683,32.395648],[-98.712773,32.391437],[-98.712558,32.390448],[-98.711417,32.38906],[-98.709716,32.388391],[-98.694015,32.388261],[-98.691024,32.388471],[-98.689125,32.388222],[-98.680015,32.388235],[-98.675685,32.388547],[-98.675752,32.377574],[-98.674974,32.377014],[-98.675032,32.376387],[-98.675542,32.375795],[-98.675117,32.374619],[-98.675594,32.374161],[-98.675796,32.373219],[-98.676702,32.37278],[-98.675933,32.371975],[-98.675655,32.37107],[-98.675218,32.366518],[-98.675553,32.365245],[-98.675346,32.363437],[-98.678025,32.358977],[-98.678226,32.358247],[-98.678408,32.344881],[-98.678623,32.343786],[-98.679758,32.342365],[-98.681318,32.341716],[-98.691718,32.341767],[-98.691652,32.335153],[-98.691002,32.333968],[-98.689517,32.333007],[-98.689391,32.332726],[-98.69546,32.332731],[-98.696523,32.332305],[-98.696913,32.33184],[-98.69723,32.32432],[-98.698147,32.323372],[-98.700704,32.322996],[-98.701582,32.322186],[-98.701837,32.315067],[-98.702226,32.31436],[-98.70348,32.313551],[-98.703882,32.312943],[-98.703946,32.306199],[-98.704475,32.305328],[-98.705513,32.30484],[-98.705428,32.283956],[-98.704958,32.283179],[-98.704155,32.282758],[-98.698544,32.282656],[-98.69744,32.282114],[-98.69701,32.281018],[-98.696996,32.27551],[-98.723433,32.275362],[-98.740888,32.275828],[-98.767106,32.276134],[-98.766731,32.288805],[-98.766894,32.290598],[-98.775412,32.290724],[-98.77518,32.320097],[-98.756559,32.319729],[-98.756423,32.332545],[-98.759184,32.33244],[-98.766458,32.337612],[-98.766584,32.357379],[-98.768152,32.366389],[-98.767967,32.375453],[-98.766563,32.375429],[-98.765556,32.373865],[-98.765155,32.374347],[-98.76323,32.374198],[-98.761689,32.375501],[-98.760799,32.375271],[-98.759298,32.372837],[-98.757084,32.371146],[-98.757596,32.369575],[-98.757465,32.369419],[-98.75693,32.369432],[-98.755855,32.370212],[-98.752939,32.369622],[-98.752079,32.368876],[-98.751672,32.369452],[-98.752314,32.369898],[-98.752294,32.370349],[-98.75127,32.371031],[-98.751755,32.372213],[-98.751754,32.373412],[-98.752253,32.373654],[-98.75233,32.374061],[-98.750852,32.3762],[-98.750488,32.377437],[-98.750138,32.377602],[-98.745844,32.37751],[-98.745825,32.377318],[-98.742538,32.376236],[-98.741928,32.375202],[-98.742051,32.374724],[-98.744811,32.374948],[-98.744862,32.373859],[-98.744461,32.373964],[-98.744461,32.373728],[-98.743722,32.373469],[-98.744376,32.373387],[-98.744629,32.373579],[-98.745296,32.372875],[-98.745088,32.371923],[-98.744401,32.371258],[-98.7435,32.371083],[-98.741472,32.371612],[-98.739885,32.372206],[-98.739826,32.372547],[-98.739153,32.37291],[-98.738978,32.372531],[-98.739315,32.372448],[-98.739178,32.372201],[-98.738906,32.37213],[-98.738375,32.372487],[-98.738647,32.371948],[-98.738058,32.372658],[-98.737623,32.372697],[-98.735809,32.372048],[-98.734888,32.372016],[-98.735458,32.371658],[-98.734836,32.370525],[-98.73503,32.36948],[-98.735793,32.367819],[-98.734633,32.366137],[-98.733459,32.365395],[-98.732922,32.365731],[-98.732371,32.365505],[-98.732403,32.365126],[-98.732092,32.365467],[-98.732099,32.364983],[-98.730725,32.364813],[-98.728742,32.363527],[-98.72753,32.363071],[-98.726402,32.36273],[-98.725916,32.363099],[-98.725605,32.362714],[-98.725359,32.36306],[-98.724601,32.362885],[-98.724303,32.362148],[-98.724061,32.362119],[-98.730976,32.377783],[-98.731416,32.378451],[-98.732328,32.379158],[-98.729111,32.378073],[-98.727822,32.376977],[-98.725687,32.375835],[-98.72534,32.375899],[-98.723688,32.378189],[-98.722393,32.379058],[-98.721511,32.380019],[-98.721204,32.395765]]]}}]}