{"type":"FeatureCollection","features":[{"type":"Feature","properties":{"PRECINCT":"1","VTD":"0001"},"geometry":{"type":"Polygon","coordinates":[[[-95.946955,30.642228],[-95.945424,30.638725],[-95.943619,30.632622],[-95.942795,30.631016],[-95.941845,30.630268],[-95.941188,30.629321],[-95.940557,30.622727],[-95.939962,30.619087],[-95.937559,30.614059],[-95.938274,30.610797],[-95.935942,30.605269],[-95.935672,30.601547],[-95.93777,30.597834],[-95.938446,30.594184],[-95.93843,30.592954],[-95.931599,30.577488],[-95.930811,30.576384],[-95.927977,30.574387],[-95.92718,30.573233],[-95.925517,30.559456],[-95.924919,30.557981],[-95.920747,30.550916],[-95.920857,30.549675],[-95.923647,30.545932],[-95.923777,30.544847],[-95.922289,30.541704],[-95.921073,30.538191],[-95.91961,30.532804],[-95.917534,30.526632],[-95.916835,30.525208],[-95.915625,30.523575],[-95.915172,30.522375],[-95.915186,30.514079],[-95.914163,30.510367],[-95.910336,30.502992],[-95.910319,30.501923],[-95.911228,30.498538],[-95.911053,30.496997],[-95.910052,30.493398],[-95.905289,30.491275],[-95.904332,30.491055],[-95.904078,30.490652],[-95.897979,30.487989],[-95.891502,30.485565],[-95.88745,30.484816],[-95.882004,30.485171],[-95.879309,30.485755],[-95.874168,30.485078],[-95.873622,30.484914],[-95.87061,30.482921],[-95.868925,30.482267],[-95.858361,30.480599],[-95.85111,30.479806],[-95.847526,30.479108],[-95.847437,30.48026],[-95.846729,30.481598],[-95.846496,30.483026],[-95.845578,30.484939],[-95.845568,30.488448],[-95.828841,30.488582],[-95.828671,30.488924],[-95.828755,30.49352],[-95.826762,30.492504],[-95.81684,30.492638],[-95.814638,30.463365],[-95.814339,30.462462],[-95.814171,30.459944],[-95.813864,30.459147],[-95.813948,30.455742],[-95.811929,30.431532],[-95.812981,30.432492],[-95.813229,30.433184],[-95.814028,30.434168],[-95.814123,30.435042],[-95.813793,30.43541],[-95.813476,30.436729],[-95.825236,30.436919],[-95.825355,30.441848],[-95.826639,30.443395],[-95.828041,30.443829],[-95.828536,30.444092],[-95.82872,30.444483],[-95.829474,30.444175],[-95.830026,30.443422],[-95.83099,30.443713],[-95.832253,30.443366],[-95.833134,30.443762],[-95.834263,30.443712],[-95.835202,30.444053],[-95.83545,30.444459],[-95.836084,30.444157],[-95.836332,30.444421],[-95.837036,30.444327],[-95.837308,30.444547],[-95.837499,30.444404],[-95.837981,30.444734],[-95.838171,30.44447],[-95.838824,30.444393],[-95.839193,30.444915],[-95.839491,30.444772],[-95.840068,30.445211],[-95.84074,30.444881],[-95.841171,30.444315],[-95.841863,30.444469],[-95.842395,30.444034],[-95.842909,30.444221],[-95.842617,30.443529],[-95.843258,30.443485],[-95.843791,30.442748],[-95.844526,30.442676],[-95.845046,30.442852],[-95.845116,30.443154],[-95.845408,30.442956],[-95.845966,30.443138],[-95.846569,30.442956],[-95.84693,30.44267],[-95.84712,30.44167],[-95.848217,30.441417],[-95.84993,30.441586],[-95.850488,30.44185],[-95.850305,30.442279],[-95.851231,30.442597],[-95.851599,30.442081],[-95.851967,30.442311],[-95.852423,30.442108],[-95.854764,30.442431],[-95.855418,30.443266],[-95.856648,30.443244],[-95.857454,30.4437],[-95.858602,30.443688],[-95.858989,30.443342],[-95.859972,30.443539],[-95.860283,30.443187],[-95.860194,30.44299],[-95.860631,30.442995],[-95.860872,30.442709],[-95.861335,30.442775],[-95.861342,30.443077],[-95.861704,30.443374],[-95.862687,30.443846],[-95.863682,30.443496],[-95.865383,30.443674],[-95.86712,30.44264],[-95.867564,30.442019],[-95.867424,30.441112],[-95.869008,30.439397],[-95.871032,30.439946],[-95.871387,30.439638],[-95.87282,30.439565],[-95.873473,30.438631],[-95.874082,30.438768],[-95.874221,30.438438],[-95.874545,30.438647],[-95.875248,30.438212],[-95.875736,30.438388],[-95.876681,30.438163],[-95.87715,30.439219],[-95.877746,30.439543],[-95.87727,30.439757],[-95.877314,30.440027],[-95.877682,30.440049],[-95.877727,30.439878],[-95.878012,30.440049],[-95.878164,30.439829],[-95.878526,30.44],[-95.878742,30.439796],[-95.879331,30.440049],[-95.879826,30.439841],[-95.880346,30.44038],[-95.880841,30.440545],[-95.881437,30.440001],[-95.882351,30.439913],[-95.882801,30.43949],[-95.883676,30.439661],[-95.884444,30.439469],[-95.88478,30.43904],[-95.88752,30.439151],[-95.88804,30.439673],[-95.890241,30.440009],[-95.890082,30.440801],[-95.891027,30.44112],[-95.89156,30.440972],[-95.892346,30.441609],[-95.892156,30.441988],[-95.89291,30.442143],[-95.892904,30.44256],[-95.893177,30.442808],[-95.893982,30.442786],[-95.894372,30.443388],[-95.894563,30.443086],[-95.895661,30.442769],[-95.895568,30.439294],[-95.898865,30.439224],[-95.902479,30.440286],[-95.902002,30.431146],[-95.901299,30.429932],[-95.898147,30.426958],[-95.895016,30.421461],[-95.91714,30.421232],[-95.916651,30.421626],[-95.905342,30.421739],[-95.905514,30.423501],[-95.90815,30.425245],[-95.908723,30.426421],[-95.91167,30.424385],[-95.913464,30.423943],[-95.914004,30.424632],[-95.914946,30.424918],[-95.922835,30.424582],[-95.923447,30.423224],[-95.924533,30.422035],[-95.925192,30.421714],[-95.926772,30.421715],[-95.927734,30.423721],[-95.928544,30.421961],[-95.931046,30.421995],[-95.931652,30.422408],[-95.932203,30.42354],[-95.933381,30.422474],[-95.934709,30.425233],[-95.935698,30.425364],[-95.936446,30.425716],[-95.936434,30.426541],[-95.936763,30.427035],[-95.936402,30.427585],[-95.936415,30.428041],[-95.936998,30.428728],[-95.938469,30.429162],[-95.938565,30.430723],[-95.939389,30.432267],[-95.939637,30.433762],[-95.940087,30.434229],[-95.939624,30.43513],[-95.939897,30.436251],[-95.939643,30.436922],[-95.939878,30.437295],[-95.939263,30.438433],[-95.939358,30.439296],[-95.940766,30.441571],[-95.94213,30.442478],[-95.943671,30.442653],[-95.943475,30.443758],[-95.943773,30.443945],[-95.943754,30.444939],[-95.944382,30.445214],[-95.944699,30.444923],[-95.94494,30.445038],[-95.944985,30.445577],[-95.945552,30.445601],[-95.962018,30.440183],[-95.962711,30.440604],[-95.96317,30.442129],[-95.964167,30.443677],[-95.966171,30.448327],[-95.9665,30.448381],[-95.967191,30.448045],[-95.96768,30.44821],[-95.968308,30.447941],[-95.968872,30.448276],[-95.969424,30.448133],[-95.969514,30.448512],[-95.969805,30.448287],[-95.970268,30.448468],[-95.971365,30.447841],[-95.971301,30.447264],[-95.971834,30.447022],[-95.971974,30.447626],[-95.972576,30.447549],[-95.973166,30.447752],[-95.973559,30.447527],[-95.973401,30.447274],[-95.973769,30.446747],[-95.974269,30.446422],[-95.974739,30.446477],[-95.97491,30.446735],[-95.976394,30.446559],[-95.976325,30.44713],[-95.976699,30.447454],[-95.97708,30.44702],[-95.978228,30.447284],[-95.978659,30.446684],[-95.979693,30.446684],[-95.979629,30.446277],[-95.980441,30.446195],[-95.980366,30.446641],[-95.980796,30.446771],[-95.981031,30.446205],[-95.981671,30.446387],[-95.982147,30.446079],[-95.981481,30.445859],[-95.981747,30.445238],[-95.981995,30.445738],[-95.984018,30.4451],[-95.98422,30.444786],[-95.984588,30.444929],[-95.985229,30.444791],[-95.985286,30.445368],[-95.986066,30.445049],[-95.986422,30.445643],[-95.986999,30.44578],[-95.987265,30.444911],[-95.987557,30.444944],[-95.98757,30.445367],[-95.988375,30.445433],[-95.988121,30.444801],[-95.988501,30.44462],[-95.988571,30.444021],[-95.989269,30.444158],[-95.989364,30.444449],[-95.989681,30.444092],[-95.990531,30.444371],[-95.991437,30.443514],[-95.991748,30.443937],[-95.993017,30.44359],[-95.994026,30.444139],[-95.99499,30.444177],[-95.995421,30.444523],[-95.994762,30.444523],[-95.994191,30.445134],[-95.995029,30.445699],[-95.995219,30.446073],[-95.995809,30.446199],[-95.995543,30.446996],[-95.995696,30.447787],[-95.995271,30.448287],[-95.995519,30.44909],[-95.998024,30.448649],[-95.999179,30.448703],[-96.00027,30.448142],[-96.000808,30.448835],[-96.003199,30.449589],[-96.003655,30.450128],[-96.003725,30.450677],[-96.004543,30.451266],[-96.005334,30.45286],[-96.006127,30.453525],[-96.007655,30.454174],[-96.008226,30.45423],[-96.009584,30.453675],[-96.011233,30.453385],[-96.013168,30.452506],[-96.014602,30.452425],[-96.015439,30.4527],[-96.016162,30.452063],[-96.017805,30.452475],[-96.019384,30.453548],[-96.020152,30.45335],[-96.021534,30.453812],[-96.022048,30.453609],[-96.022524,30.453845],[-96.02312,30.453516],[-96.023583,30.453664],[-96.024592,30.453555],[-96.024801,30.45394],[-96.024668,30.45428],[-96.025321,30.455143],[-96.025238,30.455737],[-96.024376,30.457295],[-96.022847,30.459044],[-96.02429,30.461708],[-96.024004,30.462084],[-96.02408,30.462529],[-96.023376,30.46288],[-96.023204,30.463617],[-96.023299,30.463826],[-96.023705,30.463727],[-96.024022,30.464024],[-96.023565,30.464491],[-96.02352,30.465568],[-96.024523,30.466046],[-96.023659,30.466634],[-96.023951,30.467376],[-96.023614,30.467821],[-96.02376,30.468315],[-96.024072,30.468396],[-96.024001,30.468695],[-96.024719,30.470148],[-96.051457,30.460818],[-96.053463,30.45987],[-96.053875,30.460216],[-96.055781,30.460438],[-96.058858,30.459567],[-96.058748,30.460296],[-96.058134,30.460983],[-96.055949,30.461719],[-96.05494,30.46253],[-96.054321,30.463724],[-96.054305,30.464275],[-96.05521,30.468171],[-96.058495,30.475688],[-96.058169,30.478329],[-96.057527,30.48034],[-96.06002,30.486221],[-96.062194,30.485576],[-96.062939,30.485719],[-96.065425,30.490518],[-96.065919,30.490847],[-96.071843,30.491204],[-96.074683,30.491005],[-96.075891,30.492352],[-96.076516,30.492687],[-96.078497,30.492446],[-96.086931,30.489616],[-96.088416,30.489433],[-96.089109,30.490132],[-96.090586,30.493565],[-96.092731,30.495411],[-96.095015,30.499416],[-96.096665,30.501553],[-96.098214,30.504297],[-96.099769,30.507854],[-96.099851,30.509526],[-96.1004,30.509175],[-96.101435,30.509186],[-96.102254,30.508834],[-96.10318,30.507823],[-96.105389,30.507564],[-96.106099,30.506827],[-96.108035,30.505864],[-96.108822,30.506029],[-96.109215,30.505161],[-96.109938,30.505089],[-96.11089,30.504209],[-96.110972,30.503698],[-96.111511,30.503297],[-96.11245,30.501378],[-96.113763,30.500927],[-96.114638,30.500312],[-96.116653,30.499765],[-96.118921,30.498778],[-96.118952,30.497201],[-96.120646,30.49564],[-96.122684,30.496051],[-96.123616,30.495798],[-96.124188,30.496028],[-96.126189,30.495529],[-96.128797,30.495585],[-96.12935,30.493953],[-96.130766,30.493586],[-96.132514,30.491857],[-96.133232,30.492395],[-96.134135,30.491867],[-96.134647,30.491839],[-96.134976,30.49331],[-96.135226,30.493483],[-96.136102,30.493021],[-96.136585,30.493207],[-96.136061,30.494197],[-96.136032,30.494975],[-96.136668,30.495394],[-96.13772,30.495428],[-96.137955,30.49572],[-96.137852,30.496995],[-96.136604,30.499378],[-96.136836,30.500077],[-96.137819,30.501184],[-96.138342,30.501417],[-96.139522,30.500156],[-96.139897,30.500252],[-96.140285,30.500792],[-96.140741,30.500816],[-96.141996,30.500319],[-96.14253,30.500989],[-96.142913,30.502442],[-96.143093,30.502623],[-96.144127,30.502645],[-96.144663,30.503108],[-96.144688,30.503893],[-96.144152,30.504453],[-96.142481,30.503719],[-96.142248,30.503928],[-96.142561,30.50598],[-96.141061,30.506389],[-96.141009,30.50785],[-96.140187,30.508407],[-96.140079,30.508997],[-96.140334,30.509215],[-96.141584,30.509175],[-96.142569,30.510503],[-96.143473,30.511118],[-96.144798,30.510675],[-96.144783,30.511692],[-96.143677,30.512759],[-96.143606,30.51347],[-96.144276,30.514002],[-96.145955,30.514696],[-96.1463,30.515634],[-96.146713,30.515797],[-96.147294,30.515498],[-96.148898,30.51762],[-96.150154,30.518337],[-96.150315,30.519006],[-96.149167,30.519675],[-96.149014,30.520191],[-96.149196,30.520585],[-96.150011,30.520848],[-96.151493,30.519904],[-96.152123,30.520059],[-96.152643,30.520855],[-96.152453,30.521672],[-96.151637,30.522295],[-96.151839,30.52327],[-96.151592,30.523742],[-96.150046,30.523559],[-96.148947,30.524008],[-96.149138,30.524555],[-96.15007,30.52481],[-96.150381,30.525169],[-96.149315,30.52615],[-96.149496,30.527269],[-96.148672,30.527574],[-96.148258,30.528428],[-96.149091,30.52924],[-96.151591,30.530177],[-96.152001,30.530945],[-96.151767,30.531462],[-96.152468,30.532082],[-96.153587,30.532227],[-96.154291,30.53191],[-96.155032,30.531256],[-96.155221,30.530361],[-96.155479,30.53014],[-96.157004,30.530285],[-96.1571,30.531304],[-96.156077,30.532116],[-96.155815,30.532851],[-96.156051,30.533704],[-96.156932,30.534646],[-96.158387,30.535197],[-96.158477,30.534299],[-96.159713,30.533559],[-96.16098,30.533668],[-96.161231,30.533919],[-96.161171,30.535164],[-96.160335,30.537144],[-96.160604,30.538455],[-96.160297,30.540332],[-96.160551,30.541211],[-96.161089,30.541379],[-96.161536,30.541834],[-96.161568,30.542748],[-96.16105,30.543672],[-96.161756,30.544669],[-96.160962,30.545498],[-96.161529,30.546152],[-96.161885,30.547093],[-96.161847,30.547341],[-96.160843,30.548027],[-96.159634,30.552066],[-96.159826,30.55344],[-96.160291,30.554432],[-96.16052,30.556307],[-96.160368,30.556688],[-96.158764,30.557989],[-96.158604,30.55864],[-96.160285,30.559776],[-96.160831,30.561527],[-96.161433,30.562419],[-96.161063,30.563644],[-96.161586,30.565443],[-96.161302,30.56645],[-96.160072,30.566826],[-96.159764,30.567302],[-96.160816,30.568173],[-96.162223,30.568374],[-96.162518,30.568611],[-96.162572,30.569091],[-96.161736,30.569699],[-96.16205,30.570645],[-96.164107,30.570991],[-96.164797,30.570481],[-96.165311,30.570467],[-96.167843,30.571698],[-96.167763,30.572338],[-96.16599,30.572604],[-96.165498,30.572952],[-96.165517,30.573266],[-96.166404,30.574609],[-96.166608,30.574729],[-96.167208,30.574351],[-96.167432,30.574446],[-96.167788,30.574831],[-96.167806,30.575554],[-96.168709,30.575598],[-96.168975,30.575765],[-96.169133,30.576564],[-96.170238,30.577474],[-96.171417,30.577755],[-96.172125,30.578231],[-96.171629,30.579775],[-96.172097,30.5805],[-96.17257,30.580607],[-96.17311,30.580307],[-96.173823,30.580493],[-96.175689,30.58153],[-96.175749,30.581826],[-96.175128,30.58236],[-96.17509,30.583137],[-96.175375,30.583596],[-96.176232,30.584095],[-96.177206,30.585063],[-96.177771,30.585282],[-96.178862,30.585268],[-96.180661,30.58596],[-96.181236,30.586465],[-96.182038,30.586228],[-96.182599,30.586349],[-96.18365,30.586983],[-96.184795,30.588191],[-96.183466,30.589005],[-96.183723,30.589823],[-96.182512,30.59259],[-96.182475,30.595072],[-96.184121,30.596064],[-96.184658,30.596696],[-96.185094,30.597529],[-96.185014,30.598554],[-96.185249,30.598846],[-96.187765,30.598737],[-96.188305,30.599335],[-96.187359,30.601379],[-96.187425,30.60176],[-96.188178,30.602162],[-96.188155,30.602684],[-96.187482,30.603242],[-96.186375,30.603208],[-96.186111,30.603393],[-96.186163,30.604497],[-96.186749,30.605698],[-96.186668,30.606023],[-96.185079,30.606622],[-96.183407,30.60659],[-96.182448,30.606798],[-96.181776,30.607579],[-96.173677,30.60389],[-96.171443,30.603417],[-96.158469,30.603568],[-96.137928,30.605072],[-96.135204,30.604747],[-96.120837,30.601717],[-96.110089,30.602248],[-96.108356,30.602162],[-96.106,30.601555],[-96.090557,30.595199],[-96.087916,30.594631],[-96.067679,30.594695],[-96.031726,30.595653],[-95.986876,30.591725],[-95.986959,30.592406],[-95.986618,30.592908],[-95.986671,30.593271],[-95.986857,30.593798],[-95.987625,30.59453],[-95.986858,30.595492],[-95.988948,30.596125],[-95.989559,30.59711],[-95.990588,30.599912],[-95.993125,30.601423],[-95.996555,30.602257],[-95.995507,30.604885],[-95.99484,30.605485],[-95.994816,30.607545],[-95.994429,30.608013],[-95.994366,30.609293],[-95.99478,30.610123],[-95.995511,30.610771],[-95.996033,30.612705],[-95.996643,30.613347],[-95.996855,30.61571],[-95.996163,30.616771],[-95.995821,30.618404],[-95.996451,30.619574],[-95.996439,30.620893],[-95.994405,30.620069],[-95.993877,30.619152],[-95.994029,30.618641],[-95.993762,30.618207],[-95.990483,30.616983],[-95.99038,30.615758],[-95.989674,30.614758],[-95.98798,30.614055],[-95.987403,30.615437],[-95.987324,30.616307],[-95.987404,30.621298],[-95.98777,30.625108],[-95.98621,30.62513],[-95.984359,30.624669],[-95.981699,30.625022],[-95.981298,30.625226],[-95.980869,30.625899],[-95.981006,30.626194],[-95.980347,30.626849],[-95.980474,30.627272],[-95.980252,30.627415],[-95.97961,30.627168],[-95.978777,30.627465],[-95.977221,30.627388],[-95.976026,30.626614],[-95.974056,30.626922],[-95.973808,30.626686],[-95.974087,30.626527],[-95.974208,30.626005],[-95.973166,30.625626],[-95.973261,30.62584],[-95.972734,30.625857],[-95.972105,30.626362],[-95.972264,30.627132],[-95.972035,30.627527],[-95.972601,30.628005],[-95.972588,30.628428],[-95.973142,30.629489],[-95.972837,30.629703],[-95.973117,30.630967],[-95.972284,30.631099],[-95.971293,30.63183],[-95.970823,30.632507],[-95.970041,30.63221],[-95.969857,30.631776],[-95.969552,30.631765],[-95.969419,30.632655],[-95.969095,30.633062],[-95.969127,30.633853],[-95.968936,30.633617],[-95.968066,30.633705],[-95.967716,30.633348],[-95.967316,30.633332],[-95.967074,30.633672],[-95.96654,30.633387],[-95.966356,30.63381],[-95.965841,30.633964],[-95.965791,30.634288],[-95.96532,30.634404],[-95.964844,30.634871],[-95.965009,30.635151],[-95.964787,30.635602],[-95.964183,30.635662],[-95.963827,30.635954],[-95.963471,30.635371],[-95.962061,30.635361],[-95.961514,30.63469],[-95.960859,30.634899],[-95.959881,30.635592],[-95.959462,30.636411],[-95.960288,30.636779],[-95.960104,30.637284],[-95.959519,30.637235],[-95.958909,30.63751],[-95.958509,30.6374],[-95.957231,30.637845],[-95.95521,30.637961],[-95.95453,30.63823],[-95.95406,30.637989],[-95.953742,30.63822],[-95.953272,30.638088],[-95.95291,30.638505],[-95.952636,30.6385],[-95.952617,30.638159],[-95.952217,30.637994],[-95.95099,30.639061],[-95.951493,30.63922],[-95.95141,30.639638],[-95.951836,30.639693],[-95.950794,30.639978],[-95.950095,30.640764],[-95.949592,30.640891],[-95.949815,30.641374],[-95.949682,30.641803],[-95.948938,30.642386],[-95.948525,30.642182],[-95.947596,30.642912],[-95.946955,30.642228]]]}},{"type":"Feature","properties":{"PRECINCT":"2","VTD":"0002"},"geometry":{"type":"Polygon","coordinates":[[[-96.013687,30.842624],[-96.014051,30.84192],[-96.014854,30.842201],[-96.015121,30.841816],[-96.017045,30.840894],[-96.019096,30.840384],[-96.019918,30.839757],[-96.020714,30.840016],[-96.021994,30.84006],[-96.023064,30.839165],[-96.02393,30.839303],[-96.024338,30.838721],[-96.024555,30.838781],[-96.024523,30.839446],[-96.025121,30.839221],[-96.025287,30.840018],[-96.026388,30.83993],[-96.026223,30.839479],[-96.026586,30.839331],[-96.026739,30.838765],[-96.02723,30.838809],[-96.028045,30.838079],[-96.028803,30.838282],[-96.029994,30.837722],[-96.030777,30.838036],[-96.030796,30.837569],[-96.031344,30.837277],[-96.031962,30.835843],[-96.032682,30.835888],[-96.032752,30.835338],[-96.033313,30.834673],[-96.033619,30.832871],[-96.033868,30.832871],[-96.034059,30.832453],[-96.033773,30.830651],[-96.034321,30.829849],[-96.034168,30.829398],[-96.034583,30.828074],[-96.034519,30.82709],[-96.035099,30.826348],[-96.034527,30.824678],[-96.034986,30.822013],[-96.034171,30.821023],[-96.033866,30.820215],[-96.033089,30.819677],[-96.032714,30.818336],[-96.033714,30.817127],[-96.033422,30.81633],[-96.033562,30.815946],[-96.034371,30.815567],[-96.035065,30.814231],[-96.036109,30.813913],[-96.036918,30.813358],[-96.036969,30.81271],[-96.037823,30.81199],[-96.037849,30.810814],[-96.038784,30.810721],[-96.03909,30.810237],[-96.039619,30.810144],[-96.039733,30.809726],[-96.039371,30.8091],[-96.037569,30.808242],[-96.037818,30.806506],[-96.038633,30.805792],[-96.039238,30.804429],[-96.038755,30.802917],[-96.038246,30.802329],[-96.038507,30.801791],[-96.038227,30.801516],[-96.038717,30.800472],[-96.038132,30.800291],[-96.037725,30.798884],[-96.036777,30.797702],[-96.037446,30.796158],[-96.037808,30.795883],[-96.036581,30.793284],[-96.036632,30.792756],[-96.037179,30.792317],[-96.037243,30.791564],[-96.03795,30.791438],[-96.037453,30.790992],[-96.037206,30.790113],[-96.03746,30.789437],[-96.036945,30.788618],[-96.037365,30.787981],[-96.037149,30.786871],[-96.037461,30.785646],[-96.037277,30.784926],[-96.035947,30.783299],[-96.035903,30.78265],[-96.035483,30.782013],[-96.035712,30.781458],[-96.035025,30.781309],[-96.03428,30.781512],[-96.034134,30.780809],[-96.033415,30.780622],[-96.034453,30.779858],[-96.034262,30.779336],[-96.034593,30.779281],[-96.034848,30.778649],[-96.034192,30.778111],[-96.033658,30.777182],[-96.033104,30.776973],[-96.033385,30.775901],[-96.034123,30.775594],[-96.034104,30.77533],[-96.03385,30.774846],[-96.033003,30.774797],[-96.032971,30.774522],[-96.032583,30.774319],[-96.032329,30.773143],[-96.031604,30.772615],[-96.031279,30.773027],[-96.030414,30.772746],[-96.030095,30.773186],[-96.029764,30.772982],[-96.028969,30.773378],[-96.0286,30.77318],[-96.028644,30.772779],[-96.027849,30.77174],[-96.027862,30.771399],[-96.026984,30.771481],[-96.026678,30.771251],[-96.026768,30.770965],[-96.026469,30.770547],[-96.026119,30.770701],[-96.02393,30.770145],[-96.023084,30.768914],[-96.022498,30.768798],[-96.021805,30.769144],[-96.019851,30.768704],[-96.019481,30.76839],[-96.013834,30.739],[-96.013109,30.738214],[-96.013122,30.73728],[-96.012594,30.737027],[-96.012595,30.736554],[-96.012201,30.736142],[-96.012245,30.735691],[-96.012767,30.735164],[-96.012399,30.73501],[-96.011986,30.734279],[-96.012113,30.733878],[-96.011586,30.732965],[-96.01177,30.732636],[-96.011147,30.731965],[-96.011314,30.730443],[-96.010881,30.730031],[-96.010774,30.729327],[-96.008613,30.726606],[-96.007862,30.72643],[-96.007512,30.726122],[-96.007697,30.725726],[-96.006591,30.724511],[-96.006573,30.723758],[-96.007005,30.723506],[-96.006974,30.722874],[-96.007381,30.722484],[-96.006739,30.722044],[-96.006924,30.721016],[-96.007453,30.720451],[-96.007135,30.719978],[-96.007199,30.719341],[-96.007861,30.718967],[-96.007587,30.718626],[-96.008548,30.717544],[-96.008173,30.717335],[-96.008498,30.716962],[-96.008084,30.716896],[-96.008358,30.716225],[-96.008079,30.715401],[-96.008258,30.714747],[-96.007278,30.714334],[-96.006948,30.7139],[-96.007165,30.713389],[-96.006809,30.712944],[-96.006363,30.712988],[-96.006097,30.712663],[-96.006001,30.712257],[-96.006472,30.711949],[-96.006415,30.711339],[-96.005964,30.710614],[-96.005398,30.710597],[-96.005112,30.710344],[-96.005368,30.708838],[-96.004891,30.7083],[-96.004058,30.708118],[-96.004218,30.707195],[-96.003613,30.707387],[-96.003538,30.706601],[-96.003856,30.706227],[-96.003341,30.705864],[-96.003723,30.705799],[-96.003704,30.705414],[-96.00413,30.705255],[-96.003323,30.704699],[-96.003819,30.704639],[-96.003845,30.703661],[-96.003572,30.7031],[-96.003909,30.702897],[-96.003865,30.701699],[-96.003433,30.700748],[-96.001972,30.699451],[-96.002258,30.698709],[-96.001565,30.698494],[-96.001604,30.69806],[-96.000803,30.697428],[-96.000937,30.697027],[-96.000581,30.696829],[-96.000492,30.696384],[-96.001134,30.69656],[-96.00109,30.696049],[-96.001694,30.695785],[-96.001408,30.695494],[-96.001949,30.695351],[-96.001288,30.694648],[-96.001791,30.694648],[-96.00211,30.694169],[-96.003667,30.693528],[-96.004081,30.693187],[-96.004164,30.692742],[-96.004653,30.692808],[-96.004934,30.692083],[-96.005544,30.691721],[-96.006899,30.691683],[-96.007141,30.690644],[-96.008985,30.690689],[-96.00943,30.690382],[-96.009475,30.690019],[-96.010283,30.68953],[-96.010334,30.688481],[-96.011409,30.687673],[-96.011174,30.687497],[-96.0105,30.687728],[-96.010653,30.687338],[-96.010316,30.687123],[-96.010552,30.686327],[-96.011092,30.686267],[-96.010895,30.686047],[-96.011156,30.685733],[-96.010616,30.68553],[-96.010553,30.684541],[-96.011101,30.682541],[-96.011941,30.68159],[-96.011947,30.681217],[-96.012768,30.680915],[-96.013181,30.680464],[-96.013753,30.680547],[-96.014262,30.680113],[-96.015775,30.679855],[-96.016399,30.679405],[-96.016584,30.678416],[-96.016196,30.677998],[-96.016171,30.677487],[-96.015707,30.6773],[-96.015186,30.67586],[-96.015473,30.675069],[-96.016242,30.675229],[-96.016331,30.674613],[-96.016821,30.674371],[-96.016046,30.674058],[-96.016383,30.673717],[-96.01595,30.673497],[-96.016256,30.672563],[-96.016479,30.672552],[-96.016567,30.673058],[-96.017025,30.672822],[-96.017165,30.672432],[-96.017585,30.67236],[-96.017636,30.672707],[-96.017992,30.672767],[-96.018742,30.672482],[-96.01892,30.672603],[-96.01878,30.673119],[-96.019384,30.673065],[-96.019288,30.673427],[-96.019848,30.673339],[-96.020318,30.673702],[-96.0207,30.673345],[-96.021227,30.673527],[-96.021635,30.67195],[-96.021311,30.67151],[-96.021845,30.670807],[-96.022812,30.669829],[-96.023359,30.66989],[-96.023797,30.670291],[-96.024159,30.670187],[-96.024001,30.66939],[-96.024599,30.669165],[-96.024542,30.668731],[-96.025057,30.668165],[-96.025693,30.668],[-96.02451,30.667335],[-96.024987,30.666989],[-96.025337,30.666274],[-96.025,30.665983],[-96.025204,30.665351],[-96.025776,30.665758],[-96.026386,30.665626],[-96.026456,30.666115],[-96.026958,30.66622],[-96.026863,30.666901],[-96.027499,30.666429],[-96.027804,30.666517],[-96.027772,30.666885],[-96.028408,30.666704],[-96.028942,30.665946],[-96.029044,30.664479],[-96.028892,30.663978],[-96.028542,30.664017],[-96.028129,30.6635],[-96.028682,30.663363],[-96.028326,30.663033],[-96.027487,30.663082],[-96.026426,30.662247],[-96.025714,30.662147],[-96.025619,30.661851],[-96.025918,30.661653],[-96.026305,30.661543],[-96.027087,30.661873],[-96.030739,30.661842],[-96.074977,30.660554],[-96.071013,30.706975],[-96.092443,30.713132],[-96.09691,30.712976],[-96.103325,30.711515],[-96.12139,30.71683],[-96.127113,30.716376],[-96.129634,30.715455],[-96.133882,30.713395],[-96.140164,30.711662],[-96.154771,30.71593],[-96.156763,30.717117],[-96.15792,30.718244],[-96.159234,30.719033],[-96.162939,30.719841],[-96.165759,30.719352],[-96.167897,30.720654],[-96.165721,30.721216],[-96.164549,30.721978],[-96.164696,30.72383],[-96.164236,30.724373],[-96.163327,30.724739],[-96.16305,30.725592],[-96.162499,30.726309],[-96.162064,30.727836],[-96.16221,30.728857],[-96.161953,30.729863],[-96.162573,30.730825],[-96.162499,30.731677],[-96.162329,30.732033],[-96.161698,30.732189],[-96.161427,30.732564],[-96.162172,30.734291],[-96.160224,30.735165],[-96.161233,30.735259],[-96.162072,30.73583],[-96.162203,30.736407],[-96.16149,30.737216],[-96.162628,30.737496],[-96.162083,30.738711],[-96.162587,30.739797],[-96.165044,30.740715],[-96.165451,30.741199],[-96.165659,30.742476],[-96.166775,30.743135],[-96.16506,30.744422],[-96.166498,30.745295],[-96.167675,30.746434],[-96.168502,30.746832],[-96.170145,30.748855],[-96.170555,30.750226],[-96.170472,30.752868],[-96.169904,30.75308],[-96.168717,30.753086],[-96.168088,30.754347],[-96.169843,30.755141],[-96.169752,30.755551],[-96.16848,30.756402],[-96.168167,30.757012],[-96.16851,30.757168],[-96.169022,30.756755],[-96.169578,30.756663],[-96.169747,30.756996],[-96.169455,30.757993],[-96.16851,30.758541],[-96.16656,30.758653],[-96.166209,30.759244],[-96.16652,30.760319],[-96.165864,30.76038],[-96.16534,30.75985],[-96.164965,30.759911],[-96.164306,30.760631],[-96.164589,30.761745],[-96.16444,30.762219],[-96.163366,30.762589],[-96.162839,30.763039],[-96.162753,30.763558],[-96.16314,30.764136],[-96.164007,30.764525],[-96.164589,30.764207],[-96.16489,30.764667],[-96.163603,30.766269],[-96.163693,30.767831],[-96.163018,30.768381],[-96.163591,30.768733],[-96.163794,30.769228],[-96.163469,30.769541],[-96.162644,30.769509],[-96.164521,30.772245],[-96.164608,30.772701],[-96.164338,30.773351],[-96.165103,30.77431],[-96.166102,30.774571],[-96.166659,30.774171],[-96.166352,30.773338],[-96.165249,30.772779],[-96.165347,30.772372],[-96.165787,30.772115],[-96.167185,30.772509],[-96.167236,30.773405],[-96.168153,30.773659],[-96.168062,30.775027],[-96.167445,30.775425],[-96.166362,30.775221],[-96.166013,30.776303],[-96.167371,30.77694],[-96.168206,30.7779],[-96.169249,30.780202],[-96.169801,30.780287],[-96.170542,30.779507],[-96.170947,30.780086],[-96.171487,30.78171],[-96.171036,30.783158],[-96.172033,30.783551],[-96.172193,30.784139],[-96.171726,30.784854],[-96.171931,30.785215],[-96.172366,30.785329],[-96.172695,30.785076],[-96.172987,30.784095],[-96.174378,30.784582],[-96.174742,30.785089],[-96.175656,30.785359],[-96.175461,30.786185],[-96.177008,30.786491],[-96.17938,30.789198],[-96.179503,30.790311],[-96.179951,30.790632],[-96.180178,30.791785],[-96.181817,30.79227],[-96.182924,30.792255],[-96.182986,30.792567],[-96.181933,30.792888],[-96.181698,30.793398],[-96.181992,30.793837],[-96.183032,30.793933],[-96.183414,30.794351],[-96.183615,30.795594],[-96.18289,30.796122],[-96.183314,30.797587],[-96.18297,30.797766],[-96.182696,30.797451],[-96.181908,30.797538],[-96.180995,30.798096],[-96.18009,30.797626],[-96.179471,30.797756],[-96.179907,30.798399],[-96.179311,30.79882],[-96.17934,30.799882],[-96.178485,30.800224],[-96.17815,30.801092],[-96.177607,30.800984],[-96.177174,30.799368],[-96.176977,30.799204],[-96.176264,30.799269],[-96.17648,30.800336],[-96.176308,30.801242],[-96.17606,30.801281],[-96.175627,30.800858],[-96.173915,30.801083],[-96.173768,30.801407],[-96.173991,30.801654],[-96.173692,30.801935],[-96.173545,30.802665],[-96.172851,30.802627],[-96.172463,30.803028],[-96.172488,30.803962],[-96.173303,30.803792],[-96.173698,30.803979],[-96.173659,30.805084],[-96.173175,30.805892],[-96.171564,30.805946],[-96.170908,30.806743],[-96.172831,30.807342],[-96.172398,30.808584],[-96.173423,30.808694],[-96.175575,30.809541],[-96.175536,30.810925],[-96.174713,30.811577],[-96.173929,30.811315],[-96.174286,30.812895],[-96.17315,30.813527],[-96.172737,30.814211],[-96.172747,30.815436],[-96.173912,30.815172],[-96.174184,30.815472],[-96.174055,30.81592],[-96.172955,30.817404],[-96.17017,30.819359],[-96.168629,30.822037],[-96.16837,30.822997],[-96.125235,30.826603],[-96.125235,30.827393],[-96.118499,30.827677],[-96.013687,30.842624]]]}},{"type":"Feature","properties":{"PRECINCT":"3","VTD":"0003"},"geometry":{"type":"Polygon","coordinates":[[[-96.096193,30.41306],[-96.091551,30.41152],[-96.091139,30.41196],[-96.085259,30.409945],[-96.083661,30.409005],[-96.085902,30.405125],[-96.08727,30.403247],[-96.08754,30.395538],[-96.087836,30.394276],[-96.091273,30.391397],[-96.088214,30.388439],[-96.088082,30.38852],[-96.086361,30.3863],[-96.081733,30.375856],[-96.072328,30.376216],[-96.063982,30.376259],[-96.063934,30.374932],[-96.0636,30.374929],[-96.063588,30.374181],[-96.06481,30.373974],[-96.064761,30.373745],[-96.065294,30.373746],[-96.065321,30.373898],[-96.072982,30.373669],[-96.072993,30.372796],[-96.079052,30.372667],[-96.079127,30.37289],[-96.079994,30.373044],[-96.100097,30.372988],[-96.100072,30.372742],[-96.106503,30.372746],[-96.106613,30.377295],[-96.10733,30.377277],[-96.107321,30.378299],[-96.108287,30.377756],[-96.108354,30.379196],[-96.107279,30.379613],[-96.10726,30.381854],[-96.106854,30.381849],[-96.106673,30.399034],[-96.106908,30.401583],[-96.106182,30.401655],[-96.106208,30.401922],[-96.09902,30.40186],[-96.101911,30.408948],[-96.100483,30.409169],[-96.102254,30.413289],[-96.104278,30.416066],[-96.10452,30.417332],[-96.106177,30.418865],[-96.106439,30.421218],[-96.105637,30.420431],[-96.105664,30.420187],[-96.102748,30.417717],[-96.096193,30.41306]]]}},{"type":"Feature","properties":{"PRECINCT":"4","VTD":"0004"},"geometry":{"type":"Polygon","coordinates":[[[-95.840068,30.445211],[-95.839491,30.444772],[-95.839193,30.444915],[-95.838824,30.444393],[-95.838171,30.44447],[-95.837981,30.444734],[-95.837499,30.444404],[-95.837308,30.444547],[-95.837036,30.444327],[-95.836332,30.444421],[-95.836084,30.444157],[-95.83545,30.444459],[-95.835202,30.444053],[-95.834263,30.443712],[-95.833134,30.443762],[-95.832253,30.443366],[-95.83099,30.443713],[-95.830026,30.443422],[-95.829474,30.444175],[-95.828656,30.444472],[-95.828466,30.444054],[-95.826639,30.443395],[-95.825355,30.441848],[-95.825236,30.436919],[-95.813476,30.436729],[-95.813793,30.43541],[-95.814123,30.435042],[-95.814028,30.434168],[-95.813229,30.433184],[-95.812981,30.432492],[-95.811929,30.431532],[-95.804351,30.3378],[-95.804306,30.24557],[-95.805054,30.245632],[-95.805268,30.246128],[-95.805806,30.250237],[-95.806711,30.250457],[-95.807047,30.250298],[-95.807699,30.250562],[-95.809105,30.250292],[-95.809611,30.250798],[-95.809187,30.25104],[-95.809161,30.251298],[-95.809877,30.251645],[-95.810206,30.252233],[-95.810187,30.253574],[-95.809757,30.254464],[-95.808781,30.254382],[-95.807591,30.254997],[-95.807078,30.255745],[-95.805939,30.256261],[-95.805945,30.256822],[-95.806793,30.258174],[-95.808009,30.258223],[-95.809376,30.260312],[-95.809497,30.260873],[-95.810206,30.261219],[-95.810491,30.260719],[-95.810972,30.26062],[-95.81253,30.261065],[-95.813251,30.260702],[-95.813884,30.26084],[-95.814454,30.260351],[-95.814929,30.260263],[-95.815113,30.259647],[-95.816303,30.259685],[-95.816835,30.261433],[-95.81724,30.261527],[-95.817538,30.261323],[-95.81807,30.261703],[-95.817595,30.262049],[-95.817683,30.262368],[-95.819323,30.262956],[-95.819938,30.263725],[-95.819938,30.264319],[-95.82102,30.26461],[-95.821191,30.265561],[-95.820622,30.26688],[-95.820704,30.267627],[-95.821635,30.268386],[-95.822604,30.270227],[-95.823332,30.273041],[-95.824067,30.273508],[-95.824504,30.274151],[-95.825809,30.274486],[-95.826708,30.274316],[-95.827271,30.274805],[-95.827411,30.276267],[-95.827107,30.27725],[-95.827057,30.278745],[-95.825094,30.279696],[-95.825189,30.281587],[-95.826196,30.284368],[-95.827514,30.284874],[-95.828445,30.285522],[-95.828851,30.287149],[-95.82956,30.288138],[-95.829668,30.288902],[-95.829237,30.289869],[-95.829016,30.291568],[-95.829542,30.293557],[-95.830803,30.295228],[-95.831759,30.295843],[-95.833096,30.297354],[-95.834255,30.298135],[-95.835864,30.298755],[-95.838474,30.299425],[-95.838943,30.300118],[-95.841128,30.299458],[-95.842844,30.299606],[-95.843604,30.299325],[-95.844086,30.299627],[-95.844618,30.300677],[-95.844042,30.30204],[-95.8441,30.302694],[-95.846209,30.304111],[-95.847806,30.305842],[-95.849759,30.309178],[-95.852851,30.310606],[-95.853554,30.311298],[-95.854967,30.311457],[-95.855721,30.312231],[-95.856652,30.31272],[-95.857153,30.313374],[-95.858262,30.31355],[-95.859041,30.313236],[-95.861632,30.313751],[-95.86269,30.313372],[-95.863045,30.314119],[-95.864021,30.314525],[-95.864395,30.315284],[-95.864205,30.315702],[-95.863217,30.315652],[-95.863249,30.316158],[-95.864725,30.316262],[-95.865257,30.317196],[-95.867051,30.317882],[-95.868761,30.318085],[-95.869382,30.318029],[-95.869743,30.317667],[-95.869876,30.318205],[-95.8707,30.31893],[-95.87134,30.318875],[-95.871993,30.31932],[-95.872366,30.319133],[-95.872531,30.318682],[-95.873437,30.318385],[-95.875494,30.319571],[-95.877736,30.319132],[-95.877867,30.318706],[-95.878373,30.319162],[-95.879137,30.319155],[-95.880683,30.318386],[-95.881424,30.318919],[-95.882507,30.319073],[-95.883883,30.318217],[-95.883921,30.317733],[-95.884707,30.317151],[-95.886525,30.316569],[-95.887139,30.316783],[-95.887729,30.316712],[-95.889381,30.317669],[-95.890484,30.317576],[-95.891079,30.317829],[-95.892726,30.317598],[-95.89488,30.31844],[-95.894823,30.318803],[-95.89671,30.319144],[-95.897157,30.319685],[-95.898069,30.319],[-95.898565,30.31889],[-95.914464,30.318458],[-95.914501,30.329557],[-95.914113,30.329885],[-95.912293,30.329905],[-95.911446,30.330189],[-95.911431,30.335101],[-95.910607,30.337116],[-95.912081,30.339769],[-95.913034,30.340225],[-95.920867,30.341067],[-95.922891,30.340968],[-95.925659,30.340458],[-95.925907,30.343938],[-95.92686,30.347706],[-95.926961,30.352148],[-95.927807,30.354061],[-95.927835,30.359355],[-95.928861,30.360035],[-95.928789,30.36054],[-95.928335,30.36041],[-95.927948,30.362242],[-95.92837,30.377818],[-95.929307,30.379413],[-95.935459,30.384627],[-95.93628,30.38628],[-95.936446,30.391859],[-95.936292,30.397262],[-95.936856,30.403428],[-95.936698,30.404401],[-95.936042,30.405589],[-95.93473,30.406657],[-95.930061,30.407858],[-95.930173,30.411203],[-95.927129,30.414196],[-95.927837,30.414658],[-95.928313,30.415604],[-95.929385,30.416752],[-95.929854,30.417811],[-95.93102,30.418258],[-95.931493,30.420259],[-95.932793,30.421141],[-95.933381,30.422474],[-95.932203,30.42354],[-95.931756,30.422547],[-95.931212,30.422071],[-95.929445,30.421892],[-95.928544,30.421961],[-95.927734,30.423721],[-95.926772,30.421715],[-95.925192,30.421714],[-95.924533,30.422035],[-95.923447,30.423224],[-95.922835,30.424582],[-95.914946,30.424918],[-95.914004,30.424632],[-95.913464,30.423943],[-95.91167,30.424385],[-95.908723,30.426421],[-95.90815,30.425245],[-95.905514,30.423501],[-95.905342,30.421739],[-95.916651,30.421626],[-95.91714,30.421232],[-95.895016,30.421461],[-95.898147,30.426958],[-95.901299,30.429932],[-95.902002,30.431146],[-95.902479,30.440286],[-95.898865,30.439224],[-95.895568,30.439294],[-95.895661,30.442769],[-95.894563,30.443086],[-95.894372,30.443388],[-95.893982,30.442786],[-95.893177,30.442808],[-95.892904,30.44256],[-95.89291,30.442143],[-95.892156,30.441988],[-95.892346,30.441609],[-95.89156,30.440972],[-95.891027,30.44112],[-95.890082,30.440801],[-95.890241,30.440009],[-95.88804,30.439673],[-95.88752,30.439151],[-95.88478,30.43904],[-95.884444,30.439469],[-95.883676,30.439661],[-95.882801,30.43949],[-95.882351,30.439913],[-95.881437,30.440001],[-95.880841,30.440545],[-95.880346,30.44038],[-95.879826,30.439841],[-95.879331,30.440049],[-95.878742,30.439796],[-95.878526,30.44],[-95.878164,30.439829],[-95.878012,30.440049],[-95.877727,30.439878],[-95.877682,30.440049],[-95.877314,30.440027],[-95.87727,30.439757],[-95.877746,30.439543],[-95.87715,30.439219],[-95.876852,30.438229],[-95.875736,30.438388],[-95.875387,30.438196],[-95.874545,30.438647],[-95.874221,30.438438],[-95.874082,30.438768],[-95.873473,30.438631],[-95.87282,30.439565],[-95.871387,30.439638],[-95.871032,30.439946],[-95.869008,30.439397],[-95.867424,30.441112],[-95.867564,30.442019],[-95.86712,30.44264],[-95.865383,30.443674],[-95.863682,30.443496],[-95.862687,30.443846],[-95.861704,30.443374],[-95.861342,30.443077],[-95.861335,30.442775],[-95.860872,30.442709],[-95.860631,30.442995],[-95.860194,30.44299],[-95.860283,30.443187],[-95.859972,30.443539],[-95.858989,30.443342],[-95.858602,30.443688],[-95.857454,30.4437],[-95.856648,30.443244],[-95.855418,30.443266],[-95.854764,30.442431],[-95.852423,30.442108],[-95.851967,30.442311],[-95.851599,30.442081],[-95.851231,30.442597],[-95.850305,30.442279],[-95.850488,30.44185],[-95.84993,30.441586],[-95.848217,30.441417],[-95.84712,30.44167],[-95.84693,30.44267],[-95.846423,30.443022],[-95.845966,30.443138],[-95.84549,30.442945],[-95.845116,30.443154],[-95.845046,30.442852],[-95.844526,30.442676],[-95.843791,30.442748],[-95.843258,30.443485],[-95.842617,30.443529],[-95.842909,30.444221],[-95.842395,30.444034],[-95.841863,30.444469],[-95.841171,30.444315],[-95.84074,30.444881],[-95.840068,30.445211]]]}},{"type":"Feature","properties":{"PRECINCT":"5","VTD":"0005"},"geometry":{"type":"Polygon","coordinates":[[[-96.106177,30.418865],[-96.104371,30.417068],[-96.104278,30.416066],[-96.102254,30.413289],[-96.100483,30.409169],[-96.101911,30.408948],[-96.09902,30.40186],[-96.106208,30.401922],[-96.106182,30.401655],[-96.106908,30.401583],[-96.106673,30.399034],[-96.106854,30.381849],[-96.10726,30.381854],[-96.107279,30.379613],[-96.108354,30.379196],[-96.108287,30.377756],[-96.107321,30.378299],[-96.10733,30.377277],[-96.106613,30.377295],[-96.106503,30.372746],[-96.100072,30.372742],[-96.100097,30.372988],[-96.079994,30.373044],[-96.079127,30.37289],[-96.079052,30.372667],[-96.072993,30.372796],[-96.072982,30.373669],[-96.065321,30.373898],[-96.065294,30.373746],[-96.064761,30.373745],[-96.06481,30.373974],[-96.063588,30.374181],[-96.0636,30.374929],[-96.063934,30.374932],[-96.063982,30.376259],[-96.044296,30.374144],[-96.041454,30.373633],[-96.035527,30.371921],[-96.024582,30.36945],[-96.022143,30.368573],[-96.004397,30.358319],[-95.997871,30.353999],[-95.995384,30.353161],[-95.992699,30.352986],[-95.990915,30.350815],[-95.987077,30.348754],[-95.982137,30.346656],[-95.980245,30.34478],[-95.979643,30.343239],[-95.979045,30.325588],[-95.978552,30.324612],[-95.976687,30.323158],[-95.975939,30.321953],[-95.975807,30.315533],[-95.973971,30.310399],[-95.973762,30.305825],[-95.973944,30.301737],[-95.973724,30.301189],[-95.972544,30.299906],[-95.972258,30.299131],[-95.971899,30.277303],[-95.970967,30.273611],[-95.970182,30.263832],[-95.970258,30.261247],[-95.969957,30.259862],[-95.968727,30.257822],[-95.961229,30.249595],[-95.957349,30.245981],[-95.954972,30.242932],[-95.952095,30.239928],[-95.950349,30.236906],[-95.953773,30.236964],[-95.99633,30.234178],[-96.069319,30.229964],[-96.072849,30.229491],[-96.088941,30.228718],[-96.08991,30.227433],[-96.091453,30.225994],[-96.093165,30.225187],[-96.094114,30.227008],[-96.09557,30.22876],[-96.098248,30.230439],[-96.101477,30.23076],[-96.104367,30.231473],[-96.105379,30.23287],[-96.103145,30.238681],[-96.101346,30.24088],[-96.098571,30.242736],[-96.096936,30.243007],[-96.094423,30.242386],[-96.090396,30.238883],[-96.087671,30.23777],[-96.083327,30.238312],[-96.081741,30.240882],[-96.081144,30.242534],[-96.080839,30.244305],[-96.08228,30.246795],[-96.083911,30.250354],[-96.084578,30.251253],[-96.08605,30.252541],[-96.089438,30.253041],[-96.094873,30.252392],[-96.0981,30.253867],[-96.09912,30.255174],[-96.099253,30.258049],[-96.09886,30.259704],[-96.098039,30.261674],[-96.095514,30.265597],[-96.094859,30.268309],[-96.094683,30.271205],[-96.093256,30.275503],[-96.091737,30.278013],[-96.090602,30.279071],[-96.086737,30.281369],[-96.085089,30.282607],[-96.084382,30.28376],[-96.084049,30.285065],[-96.084068,30.286456],[-96.084382,30.28766],[-96.084794,30.28822],[-96.086855,30.289407],[-96.087691,30.289623],[-96.089809,30.289668],[-96.09393,30.289078],[-96.096933,30.289],[-96.098424,30.289585],[-96.099316,30.290258],[-96.100321,30.291809],[-96.10058,30.292805],[-96.100402,30.294802],[-96.100046,30.29669],[-96.099345,30.298466],[-96.097614,30.300984],[-96.095342,30.302824],[-96.093637,30.305195],[-96.093513,30.306532],[-96.093829,30.308171],[-96.094404,30.309371],[-96.095613,30.310493],[-96.096515,30.310851],[-96.097193,30.311112],[-96.098587,30.311021],[-96.10408,30.30882],[-96.115056,30.306001],[-96.117372,30.304195],[-96.119506,30.304821],[-96.120477,30.305689],[-96.122703,30.309368],[-96.125273,30.311563],[-96.126191,30.311878],[-96.131635,30.312434],[-96.135057,30.313508],[-96.136547,30.314752],[-96.137078,30.316669],[-96.137044,30.319254],[-96.137298,30.321058],[-96.137944,30.321859],[-96.138866,30.322453],[-96.147462,30.324168],[-96.150568,30.326058],[-96.152789,30.32801],[-96.15463,30.330288],[-96.154268,30.330647],[-96.154171,30.332094],[-96.154438,30.333234],[-96.154167,30.333832],[-96.153627,30.334276],[-96.150813,30.335088],[-96.148346,30.335397],[-96.145703,30.336207],[-96.143496,30.337286],[-96.141546,30.339083],[-96.140259,30.339654],[-96.139812,30.340291],[-96.140093,30.341723],[-96.140997,30.342766],[-96.145874,30.343225],[-96.148465,30.345],[-96.148542,30.346564],[-96.149693,30.349892],[-96.149758,30.352225],[-96.149069,30.353116],[-96.14762,30.353278],[-96.14536,30.352165],[-96.143597,30.352102],[-96.142423,30.352905],[-96.141639,30.355356],[-96.141778,30.356308],[-96.142469,30.35732],[-96.142623,30.35806],[-96.142511,30.361131],[-96.141712,30.362947],[-96.141609,30.36551],[-96.14215,30.367815],[-96.142617,30.368367],[-96.144657,30.369365],[-96.1455,30.370874],[-96.14548,30.371828],[-96.144249,30.374493],[-96.144134,30.37698],[-96.145035,30.378137],[-96.146243,30.379009],[-96.147067,30.380284],[-96.147412,30.381353],[-96.147255,30.38284],[-96.146023,30.383993],[-96.14591,30.384444],[-96.145251,30.384822],[-96.143641,30.384238],[-96.138971,30.383138],[-96.13786,30.383217],[-96.136528,30.383621],[-96.135024,30.384464],[-96.134193,30.384583],[-96.1337,30.386271],[-96.132247,30.387902],[-96.12941,30.388324],[-96.126735,30.38804],[-96.126016,30.387775],[-96.122444,30.384078],[-96.121478,30.383999],[-96.120898,30.386047],[-96.120004,30.386766],[-96.119669,30.387469],[-96.12025,30.389109],[-96.121515,30.390278],[-96.121683,30.390834],[-96.121524,30.391891],[-96.120956,30.392253],[-96.119319,30.392115],[-96.117595,30.391278],[-96.117152,30.39145],[-96.116756,30.392229],[-96.116755,30.392802],[-96.117654,30.394881],[-96.118416,30.398448],[-96.118262,30.39932],[-96.117367,30.399791],[-96.116317,30.399332],[-96.115672,30.398342],[-96.114443,30.397486],[-96.114046,30.396912],[-96.114076,30.394845],[-96.113772,30.394337],[-96.113067,30.394102],[-96.112343,30.394433],[-96.111445,30.395211],[-96.11118,30.39682],[-96.111932,30.398324],[-96.113234,30.399887],[-96.11355,30.401183],[-96.112698,30.402295],[-96.110011,30.404167],[-96.108193,30.406208],[-96.107914,30.406987],[-96.108147,30.407425],[-96.10862,30.407622],[-96.109564,30.407538],[-96.11096,30.407053],[-96.1116,30.407357],[-96.112373,30.409849],[-96.113342,30.411377],[-96.113601,30.413186],[-96.111926,30.415893],[-96.10736,30.417582],[-96.106743,30.418294],[-96.106528,30.418263],[-96.106177,30.418865]]]}},{"type":"Feature","properties":{"PRECINCT":"6","VTD":"0006"},"geometry":{"type":"Polygon","coordinates":[[[-96.07728,30.403858],[-96.073047,30.400879],[-96.07231,30.401523],[-96.071167,30.402042],[-96.069069,30.397772],[-96.064574,30.399379],[-96.064127,30.398315],[-96.069345,30.396304],[-96.067593,30.391725],[-96.065134,30.392019],[-96.064632,30.388918],[-96.063959,30.386741],[-96.066599,30.385818],[-96.065627,30.378562],[-96.063925,30.378541],[-96.063982,30.376259],[-96.072328,30.376216],[-96.081733,30.375856],[-96.086361,30.3863],[-96.088082,30.38852],[-96.088214,30.388439],[-96.091273,30.391397],[-96.087836,30.394276],[-96.08754,30.395538],[-96.08727,30.403247],[-96.08396,30.408426],[-96.075081,30.404443],[-96.07728,30.403858]]]}},{"type":"Feature","properties":{"PRECINCT":"7","VTD":"0007"},"geometry":{"type":"Polygon","coordinates":[[[-95.863059,30.864125],[-95.845544,30.737228],[-95.846805,30.737485],[-95.847202,30.734032],[-95.909272,30.681062],[-95.916416,30.688143],[-95.916957,30.691602],[-95.917304,30.69206],[-95.917774,30.699624],[-95.919765,30.714176],[-95.943951,30.713931],[-95.943989,30.713217],[-95.943683,30.712816],[-95.9439,30.712283],[-95.989915,30.712484],[-95.990386,30.711989],[-95.990914,30.712016],[-95.991021,30.710522],[-95.991167,30.710857],[-95.991371,30.710686],[-95.99174,30.711076],[-95.992191,30.710944],[-95.992464,30.710329],[-95.993393,30.710531],[-95.993246,30.709619],[-95.992909,30.7094],[-95.99357,30.708844],[-95.993678,30.708465],[-95.992851,30.708191],[-95.993188,30.70763],[-95.992348,30.70663],[-95.99257,30.706361],[-95.992245,30.705746],[-95.992722,30.705663],[-95.992652,30.704789],[-95.992263,30.704273],[-95.992746,30.703762],[-95.993287,30.70364],[-95.993758,30.703794],[-95.993853,30.703475],[-95.994139,30.703547],[-95.994298,30.703189],[-95.994711,30.703008],[-95.99375,30.702135],[-95.993476,30.701134],[-95.993209,30.70119],[-95.993113,30.700909],[-95.992636,30.700954],[-95.993011,30.699178],[-95.994155,30.699024],[-95.994066,30.698645],[-95.9935,30.698288],[-95.994179,30.697172],[-95.99402,30.696595],[-95.994357,30.696628],[-95.993899,30.696227],[-95.993899,30.695787],[-95.995018,30.69571],[-95.994687,30.694908],[-95.995322,30.694386],[-95.995977,30.694902],[-95.996969,30.694517],[-95.997663,30.695016],[-95.998623,30.69479],[-95.998889,30.694092],[-95.9995,30.69385],[-95.99976,30.693955],[-95.999894,30.693729],[-96.001155,30.694202],[-96.001778,30.694164],[-96.001791,30.694648],[-96.001295,30.694735],[-96.001949,30.695351],[-96.001408,30.695494],[-96.001694,30.695785],[-96.00109,30.696049],[-96.001134,30.69656],[-96.000486,30.696417],[-96.000581,30.696829],[-96.000937,30.697027],[-96.000803,30.697428],[-96.001604,30.69806],[-96.001565,30.698494],[-96.002258,30.698709],[-96.002035,30.69955],[-96.003433,30.700748],[-96.003865,30.701699],[-96.003909,30.702897],[-96.003572,30.7031],[-96.003845,30.703661],[-96.003819,30.704639],[-96.003323,30.704699],[-96.00413,30.705255],[-96.003704,30.705414],[-96.003723,30.705799],[-96.003341,30.705864],[-96.003856,30.706227],[-96.003576,30.706436],[-96.003588,30.70731],[-96.004218,30.707195],[-96.004058,30.708118],[-96.004891,30.7083],[-96.005368,30.708838],[-96.005112,30.710344],[-96.005398,30.710597],[-96.005964,30.710614],[-96.006415,30.711339],[-96.006472,30.711949],[-96.006001,30.712257],[-96.006097,30.712663],[-96.006363,30.712988],[-96.006809,30.712944],[-96.007165,30.713389],[-96.006948,30.7139],[-96.007278,30.714334],[-96.008258,30.714747],[-96.008079,30.715401],[-96.008358,30.716225],[-96.008084,30.716896],[-96.008498,30.716962],[-96.008173,30.717335],[-96.008548,30.717544],[-96.007587,30.718626],[-96.007861,30.718967],[-96.007199,30.719341],[-96.007135,30.719978],[-96.007453,30.720451],[-96.006924,30.721016],[-96.006739,30.722044],[-96.007381,30.722484],[-96.006974,30.722874],[-96.007005,30.723506],[-96.006573,30.723758],[-96.006591,30.724511],[-96.007697,30.725726],[-96.007512,30.726122],[-96.007862,30.72643],[-96.008613,30.726606],[-96.010774,30.729327],[-96.010881,30.730031],[-96.011314,30.730443],[-96.011147,30.731965],[-96.01177,30.732636],[-96.011586,30.732965],[-96.012113,30.733878],[-96.011986,30.734279],[-96.012399,30.73501],[-96.012767,30.735164],[-96.012245,30.735691],[-96.012201,30.736142],[-96.012595,30.736554],[-96.012594,30.737027],[-96.013122,30.73728],[-96.013109,30.738214],[-96.013834,30.739],[-96.019481,30.76839],[-96.019851,30.768704],[-96.021805,30.769144],[-96.022498,30.768798],[-96.023084,30.768914],[-96.02393,30.770145],[-96.026119,30.770701],[-96.026469,30.770547],[-96.026768,30.770965],[-96.026678,30.771251],[-96.026984,30.771481],[-96.027862,30.771399],[-96.027849,30.77174],[-96.028644,30.772779],[-96.0286,30.77318],[-96.028969,30.773378],[-96.029764,30.772982],[-96.030095,30.773186],[-96.030414,30.772746],[-96.031279,30.773027],[-96.031527,30.772609],[-96.032329,30.773143],[-96.032583,30.774319],[-96.03306,30.774835],[-96.03385,30.774846],[-96.034104,30.77533],[-96.034123,30.775594],[-96.033353,30.775956],[-96.033123,30.777028],[-96.033658,30.777182],[-96.034192,30.778111],[-96.034848,30.778649],[-96.034593,30.779281],[-96.034262,30.779336],[-96.034453,30.779858],[-96.033415,30.780622],[-96.034134,30.780809],[-96.03428,30.781512],[-96.035025,30.781309],[-96.035712,30.781458],[-96.035483,30.782013],[-96.035903,30.78265],[-96.035947,30.783299],[-96.037277,30.784926],[-96.037461,30.785646],[-96.037149,30.786871],[-96.037365,30.787981],[-96.036945,30.788618],[-96.03746,30.789437],[-96.037206,30.790113],[-96.037453,30.790992],[-96.03795,30.791438],[-96.037243,30.791564],[-96.037179,30.792317],[-96.036632,30.792756],[-96.036581,30.793284],[-96.037808,30.795883],[-96.037446,30.796158],[-96.036777,30.797702],[-96.037725,30.798884],[-96.038132,30.800291],[-96.038717,30.800472],[-96.038227,30.801516],[-96.038507,30.801791],[-96.038246,30.802329],[-96.038755,30.802917],[-96.039238,30.804429],[-96.038633,30.805792],[-96.037818,30.806506],[-96.037569,30.808242],[-96.039371,30.8091],[-96.039733,30.809726],[-96.039619,30.810144],[-96.03909,30.810237],[-96.038784,30.810721],[-96.037849,30.810814],[-96.037823,30.81199],[-96.036969,30.81271],[-96.036918,30.813358],[-96.036109,30.813913],[-96.035065,30.814231],[-96.034371,30.815567],[-96.033562,30.815946],[-96.033422,30.81633],[-96.033714,30.817127],[-96.032714,30.818336],[-96.033089,30.819677],[-96.033866,30.820215],[-96.034171,30.821023],[-96.034986,30.822013],[-96.034527,30.824678],[-96.035099,30.826348],[-96.034462,30.827337],[-96.034583,30.828074],[-96.034168,30.829398],[-96.034321,30.829849],[-96.033741,30.831052],[-96.034123,30.832184],[-96.033868,30.832871],[-96.033619,30.832871],[-96.033313,30.834673],[-96.032752,30.835338],[-96.032682,30.835888],[-96.032001,30.835821],[-96.031612,30.836294],[-96.031625,30.836849],[-96.031223,30.837409],[-96.030796,30.837569],[-96.030841,30.837981],[-96.029994,30.837722],[-96.028803,30.838282],[-96.027969,30.838112],[-96.02723,30.838809],[-96.026714,30.838793],[-96.026586,30.839331],[-96.026223,30.839479],[-96.026388,30.83993],[-96.025287,30.840018],[-96.025121,30.839221],[-96.024841,30.839473],[-96.024478,30.839396],[-96.024421,30.838709],[-96.02393,30.839303],[-96.023064,30.839165],[-96.021994,30.84006],[-96.020714,30.840016],[-96.020033,30.839724],[-96.018612,30.840576],[-96.017045,30.840894],[-96.015121,30.841816],[-96.014854,30.842201],[-96.014051,30.84192],[-96.013687,30.842624],[-95.915146,30.856533],[-95.875228,30.862672],[-95.873019,30.862635],[-95.863059,30.864125]]]}},{"type":"Feature","properties":{"PRECINCT":"8","VTD":"0008"},"geometry":{"type":"Polygon","coordinates":[[[-95.845544,30.737228],[-95.83007,30.629045],[-95.826891,30.596272],[-95.831053,30.596183],[-95.833526,30.596393],[-95.835376,30.596993],[-95.839708,30.591662],[-95.848068,30.588616],[-95.849652,30.585165],[-95.851121,30.584051],[-95.851867,30.583062],[-95.861567,30.579613],[-95.874081,30.575802],[-95.874226,30.575325],[-95.873718,30.574804],[-95.873234,30.572974],[-95.873443,30.572353],[-95.873309,30.571292],[-95.873791,30.570819],[-95.873904,30.569434],[-95.873497,30.567758],[-95.871832,30.566874],[-95.871756,30.566462],[-95.870911,30.566221],[-95.870758,30.565946],[-95.868516,30.565557],[-95.868789,30.565414],[-95.870961,30.565347],[-95.87246,30.564923],[-95.873317,30.5649],[-95.874277,30.565614],[-95.875325,30.566064],[-95.875878,30.566043],[-95.876322,30.566499],[-95.876894,30.566488],[-95.877408,30.566747],[-95.877376,30.567571],[-95.877909,30.567808],[-95.877877,30.56839],[-95.878747,30.568709],[-95.879172,30.569188],[-95.880354,30.568886],[-95.880925,30.569199],[-95.881897,30.569161],[-95.882099,30.570063],[-95.881667,30.570475],[-95.881839,30.570744],[-95.883103,30.570365],[-95.883598,30.570772],[-95.884239,30.570822],[-95.8845,30.571355],[-95.884379,30.571608],[-95.884658,30.571553],[-95.884861,30.57202],[-95.886214,30.572548],[-95.886989,30.572477],[-95.887612,30.571576],[-95.889079,30.570669],[-95.889422,30.569889],[-95.892478,30.568736],[-95.893932,30.568951],[-95.894701,30.568193],[-95.89545,30.568066],[-95.896112,30.56594],[-95.89587,30.565412],[-95.89603,30.563703],[-95.896436,30.563615],[-95.89676,30.563984],[-95.897472,30.563852],[-95.897916,30.564226],[-95.898824,30.564121],[-95.898684,30.56372],[-95.899412,30.563479],[-95.900122,30.565286],[-95.901317,30.566094],[-95.924919,30.557981],[-95.925639,30.560063],[-95.92718,30.573233],[-95.927977,30.574387],[-95.930811,30.576384],[-95.931599,30.577488],[-95.93843,30.592954],[-95.938446,30.594184],[-95.93777,30.597834],[-95.935701,30.601426],[-95.935745,30.603562],[-95.936048,30.605576],[-95.938274,30.610797],[-95.937559,30.614059],[-95.939962,30.619087],[-95.940557,30.622727],[-95.941149,30.629187],[-95.94168,30.630052],[-95.940815,30.629977],[-95.940542,30.629758],[-95.940071,30.629851],[-95.939328,30.630796],[-95.939633,30.631357],[-95.939417,30.632071],[-95.938146,30.632582],[-95.936494,30.632368],[-95.933431,30.631285],[-95.93317,30.631472],[-95.932439,30.631263],[-95.932204,30.631769],[-95.931054,30.631719],[-95.930075,30.632071],[-95.929529,30.631829],[-95.929242,30.632329],[-95.928931,30.632291],[-95.927482,30.633357],[-95.926522,30.633373],[-95.925836,30.632835],[-95.925105,30.633137],[-95.924972,30.633527],[-95.923904,30.633522],[-95.923866,30.633071],[-95.923383,30.633648],[-95.922836,30.633813],[-95.92114,30.632972],[-95.920803,30.633345],[-95.920504,30.633318],[-95.920434,30.633746],[-95.918947,30.6344],[-95.918559,30.634845],[-95.918006,30.634851],[-95.917898,30.635422],[-95.917244,30.635334],[-95.916729,30.635543],[-95.916513,30.635235],[-95.916163,30.635186],[-95.913686,30.677265],[-95.847202,30.734032],[-95.846805,30.737485],[-95.845544,30.737228]]]}},{"type":"Feature","properties":{"PRECINCT":"9","VTD":"0009"},"geometry":{"type":"Polygon","coordinates":[[[-95.833677,30.59642],[-95.826891,30.596272],[-95.81684,30.492638],[-95.826762,30.492504],[-95.828755,30.49352],[-95.828671,30.488924],[-95.828841,30.488582],[-95.845568,30.488448],[-95.845578,30.484939],[-95.846496,30.483026],[-95.846729,30.481598],[-95.847437,30.48026],[-95.847526,30.479108],[-95.85111,30.479806],[-95.858361,30.480599],[-95.868925,30.482267],[-95.87061,30.482921],[-95.873622,30.484914],[-95.874168,30.485078],[-95.879309,30.485755],[-95.882004,30.485171],[-95.88745,30.484816],[-95.891502,30.485565],[-95.897979,30.487989],[-95.904078,30.490652],[-95.904332,30.491055],[-95.905289,30.491275],[-95.910052,30.493398],[-95.911053,30.496997],[-95.911228,30.498538],[-95.910319,30.501923],[-95.910336,30.502992],[-95.914163,30.510367],[-95.915186,30.514079],[-95.915172,30.522375],[-95.915625,30.523575],[-95.916835,30.525208],[-95.917534,30.526632],[-95.91961,30.532804],[-95.921073,30.538191],[-95.922289,30.541704],[-95.923777,30.544847],[-95.923647,30.545932],[-95.920857,30.549675],[-95.920747,30.550916],[-95.924919,30.557981],[-95.901317,30.566094],[-95.900122,30.565286],[-95.899412,30.563479],[-95.898684,30.56372],[-95.898824,30.564121],[-95.897916,30.564226],[-95.897472,30.563852],[-95.89676,30.563984],[-95.896436,30.563615],[-95.89603,30.563703],[-95.89587,30.565412],[-95.896112,30.56594],[-95.89545,30.568066],[-95.894701,30.568193],[-95.893932,30.568951],[-95.892478,30.568736],[-95.889422,30.569889],[-95.889079,30.570669],[-95.887612,30.571576],[-95.886989,30.572477],[-95.886214,30.572548],[-95.884861,30.57202],[-95.884658,30.571553],[-95.884379,30.571608],[-95.8845,30.571355],[-95.884239,30.570822],[-95.883598,30.570772],[-95.883103,30.570365],[-95.881839,30.570744],[-95.881667,30.570475],[-95.882099,30.570063],[-95.881897,30.569161],[-95.880925,30.569199],[-95.880354,30.568886],[-95.879172,30.569188],[-95.878747,30.568709],[-95.877877,30.56839],[-95.877909,30.567808],[-95.877376,30.567571],[-95.877408,30.566747],[-95.876894,30.566488],[-95.876322,30.566499],[-95.875878,30.566043],[-95.875325,30.566064],[-95.874277,30.565614],[-95.873317,30.5649],[-95.87246,30.564923],[-95.870961,30.565347],[-95.868789,30.565414],[-95.868516,30.565557],[-95.870758,30.565946],[-95.870911,30.566221],[-95.871756,30.566462],[-95.871832,30.566874],[-95.873497,30.567758],[-95.873904,30.569434],[-95.873791,30.570819],[-95.873309,30.571292],[-95.873443,30.572353],[-95.873234,30.572974],[-95.873718,30.574804],[-95.874226,30.575325],[-95.874081,30.575802],[-95.861567,30.579613],[-95.851867,30.583062],[-95.851121,30.584051],[-95.849652,30.585165],[-95.848068,30.588616],[-95.839708,30.591662],[-95.835376,30.596993],[-95.833677,30.59642]]]}},{"type":"Feature","properties":{"PRECINCT":"10","VTD":"0010"},"geometry":{"type":"Polygon","coordinates":[[[-96.165828,30.719379],[-96.162939,30.719841],[-96.159234,30.719033],[-96.15792,30.718244],[-96.156763,30.717117],[-96.154771,30.71593],[-96.140164,30.711662],[-96.133882,30.713395],[-96.129634,30.715455],[-96.127113,30.716376],[-96.12139,30.71683],[-96.103325,30.711515],[-96.09691,30.712976],[-96.092443,30.713132],[-96.071013,30.706975],[-96.074977,30.660554],[-96.027087,30.661873],[-96.027475,30.661637],[-96.027126,30.661324],[-96.027259,30.661175],[-96.027946,30.66139],[-96.025064,30.622255],[-96.013369,30.622638],[-96.00965,30.622964],[-96.006959,30.622273],[-96.006512,30.623606],[-96.005972,30.624205],[-96.005578,30.624313],[-96.00162,30.62463],[-96.000268,30.624922],[-95.98777,30.625108],[-95.987404,30.621298],[-95.987324,30.616307],[-95.987403,30.615437],[-95.98798,30.614055],[-95.989674,30.614758],[-95.99038,30.615758],[-95.990483,30.616983],[-95.993826,30.618256],[-95.994049,30.618811],[-95.993877,30.619152],[-95.994558,30.620212],[-95.996439,30.620893],[-95.996579,30.620607],[-95.996406,30.619425],[-95.995821,30.618404],[-95.996163,30.616771],[-95.996855,30.61571],[-95.996643,30.613347],[-95.996033,30.612705],[-95.995511,30.610771],[-95.99478,30.610123],[-95.994366,30.609293],[-95.994429,30.608013],[-95.994816,30.607545],[-95.99484,30.605485],[-95.995507,30.604885],[-95.996555,30.602257],[-95.993125,30.601423],[-95.990588,30.599912],[-95.989559,30.59711],[-95.988948,30.596125],[-95.986858,30.595492],[-95.987625,30.59453],[-95.986857,30.593798],[-95.986671,30.593271],[-95.986618,30.592908],[-95.986959,30.592406],[-95.986876,30.591725],[-96.031726,30.595653],[-96.067679,30.594695],[-96.087916,30.594631],[-96.090557,30.595199],[-96.106,30.601555],[-96.108356,30.602162],[-96.110089,30.602248],[-96.120837,30.601717],[-96.135204,30.604747],[-96.137928,30.605072],[-96.158469,30.603568],[-96.171443,30.603417],[-96.173677,30.60389],[-96.181776,30.607579],[-96.181497,30.608126],[-96.181675,30.609224],[-96.1813,30.609894],[-96.181232,30.611281],[-96.181996,30.611761],[-96.182011,30.612241],[-96.182601,30.612271],[-96.182717,30.612521],[-96.181649,30.613245],[-96.181473,30.613843],[-96.181634,30.614464],[-96.181168,30.615412],[-96.181309,30.615748],[-96.181942,30.615681],[-96.182288,30.615913],[-96.182553,30.616759],[-96.182313,30.617635],[-96.180587,30.617996],[-96.179807,30.617386],[-96.179095,30.618161],[-96.179229,30.618403],[-96.180404,30.618471],[-96.17977,30.619076],[-96.180248,30.61999],[-96.180405,30.621317],[-96.180164,30.621705],[-96.17872,30.622085],[-96.178059,30.621942],[-96.177519,30.623205],[-96.177194,30.623337],[-96.175055,30.62298],[-96.174416,30.622601],[-96.173597,30.622704],[-96.174151,30.623617],[-96.173916,30.623936],[-96.174077,30.6244],[-96.173663,30.625158],[-96.174283,30.625916],[-96.173795,30.626472],[-96.173886,30.627622],[-96.173102,30.627962],[-96.173224,30.628831],[-96.172138,30.629657],[-96.170938,30.629672],[-96.170624,30.629365],[-96.170358,30.629886],[-96.169117,30.630137],[-96.169338,30.630493],[-96.170463,30.630812],[-96.170576,30.631528],[-96.169933,30.632462],[-96.1702,30.632807],[-96.170641,30.632793],[-96.171164,30.633199],[-96.171076,30.633724],[-96.171664,30.634163],[-96.170742,30.635844],[-96.171025,30.636088],[-96.172046,30.635127],[-96.172543,30.635122],[-96.172959,30.635535],[-96.172552,30.637246],[-96.171911,30.638199],[-96.169809,30.638676],[-96.168404,30.638697],[-96.169373,30.639236],[-96.169638,30.639734],[-96.168892,30.640241],[-96.169111,30.641539],[-96.168963,30.641981],[-96.168126,30.642553],[-96.167053,30.643833],[-96.166153,30.643096],[-96.165759,30.642975],[-96.165537,30.643184],[-96.165784,30.64403],[-96.166331,30.644489],[-96.165758,30.647063],[-96.166926,30.647024],[-96.167365,30.647218],[-96.16769,30.647732],[-96.167151,30.649144],[-96.167363,30.649568],[-96.167781,30.649986],[-96.169282,30.649893],[-96.169508,30.650318],[-96.169165,30.651238],[-96.168848,30.651372],[-96.168106,30.650997],[-96.167245,30.652281],[-96.167173,30.65499],[-96.166891,30.655024],[-96.166486,30.654239],[-96.165944,30.654375],[-96.165406,30.657601],[-96.163978,30.658997],[-96.164057,30.659223],[-96.164689,30.659477],[-96.165476,30.660793],[-96.164458,30.661182],[-96.164391,30.662275],[-96.165217,30.663128],[-96.165987,30.663136],[-96.166632,30.662727],[-96.167117,30.662703],[-96.169297,30.663656],[-96.167754,30.664831],[-96.16749,30.66527],[-96.167663,30.665737],[-96.168537,30.665944],[-96.168772,30.666356],[-96.168772,30.667882],[-96.168083,30.669144],[-96.168364,30.66957],[-96.169062,30.669912],[-96.168651,30.670336],[-96.168439,30.67112],[-96.168791,30.67184],[-96.168741,30.67226],[-96.169141,30.672707],[-96.170745,30.672082],[-96.171364,30.672122],[-96.170142,30.67368],[-96.171712,30.67584],[-96.17201,30.677123],[-96.171925,30.678191],[-96.172736,30.679843],[-96.172498,30.680248],[-96.171867,30.680407],[-96.170623,30.680211],[-96.169999,30.681358],[-96.170247,30.68154],[-96.17092,30.681437],[-96.171485,30.682109],[-96.171201,30.684121],[-96.170491,30.685337],[-96.170478,30.686224],[-96.170822,30.68719],[-96.169786,30.688212],[-96.170935,30.688419],[-96.170383,30.689544],[-96.171483,30.690103],[-96.171954,30.691453],[-96.173034,30.691924],[-96.172156,30.693618],[-96.172527,30.693724],[-96.173287,30.693464],[-96.173645,30.69389],[-96.174102,30.693978],[-96.175378,30.696055],[-96.176603,30.696497],[-96.176896,30.696838],[-96.176295,30.697933],[-96.175373,30.697767],[-96.175647,30.698707],[-96.174884,30.699077],[-96.17565,30.699564],[-96.175983,30.700094],[-96.176629,30.700362],[-96.176589,30.701953],[-96.176086,30.702033],[-96.175496,30.701591],[-96.175113,30.702033],[-96.175645,30.70358],[-96.176477,30.703115],[-96.176968,30.703081],[-96.177537,30.703938],[-96.177141,30.705141],[-96.177824,30.706141],[-96.177558,30.706271],[-96.176603,30.705993],[-96.176293,30.706442],[-96.177176,30.707175],[-96.177254,30.708217],[-96.177946,30.709513],[-96.177696,30.70985],[-96.177223,30.709971],[-96.176339,30.709787],[-96.175227,30.709191],[-96.174142,30.709528],[-96.174083,30.710004],[-96.175094,30.71084],[-96.175142,30.711155],[-96.174625,30.711844],[-96.173099,30.711497],[-96.173035,30.712089],[-96.172061,30.712256],[-96.171722,30.714089],[-96.172079,30.715165],[-96.170736,30.716151],[-96.170674,30.716631],[-96.171415,30.716969],[-96.171259,30.717367],[-96.170296,30.71801],[-96.169717,30.717425],[-96.16875,30.717173],[-96.169186,30.718483],[-96.168804,30.719246],[-96.168092,30.719669],[-96.168138,30.720415],[-96.167897,30.720654],[-96.165828,30.719379]]]}},{"type":"Feature","properties":{"PRECINCT":"11","VTD":"0011"},"geometry":{"type":"Polygon","coordinates":[[[-95.919765,30.714176],[-95.917774,30.699624],[-95.917304,30.69206],[-95.916957,30.691602],[-95.916416,30.688143],[-95.909272,30.681062],[-95.913686,30.677265],[-95.916163,30.635186],[-95.916513,30.635235],[-95.916729,30.635543],[-95.917244,30.635334],[-95.917898,30.635422],[-95.918006,30.634851],[-95.918559,30.634845],[-95.918947,30.6344],[-95.920434,30.633746],[-95.920504,30.633318],[-95.920803,30.633345],[-95.92114,30.632972],[-95.922836,30.633813],[-95.923383,30.633648],[-95.923866,30.633071],[-95.923904,30.633522],[-95.924972,30.633527],[-95.925105,30.633137],[-95.925836,30.632835],[-95.926522,30.633373],[-95.927482,30.633357],[-95.928931,30.632291],[-95.929242,30.632329],[-95.929529,30.631829],[-95.930075,30.632071],[-95.931054,30.631719],[-95.932204,30.631769],[-95.932439,30.631263],[-95.93317,30.631472],[-95.933431,30.631285],[-95.936494,30.632368],[-95.938146,30.632582],[-95.939417,30.632071],[-95.939633,30.631357],[-95.939328,30.630796],[-95.939951,30.629939],[-95.940542,30.629758],[-95.940815,30.629977],[-95.94168,30.630052],[-95.943122,30.631554],[-95.943757,30.632988],[-95.94572,30.6395],[-95.946955,30.642228],[-95.947596,30.642912],[-95.948525,30.642182],[-95.948938,30.642386],[-95.949682,30.641803],[-95.949815,30.641374],[-95.949548,30.64094],[-95.950095,30.640764],[-95.950794,30.639978],[-95.951836,30.639693],[-95.95141,30.639638],[-95.951493,30.63922],[-95.95099,30.639061],[-95.952217,30.637994],[-95.952617,30.638159],[-95.952636,30.6385],[-95.95291,30.638505],[-95.953272,30.638088],[-95.953742,30.63822],[-95.95406,30.637989],[-95.95453,30.63823],[-95.95521,30.637961],[-95.957231,30.637845],[-95.958509,30.6374],[-95.958909,30.63751],[-95.959519,30.637235],[-95.960104,30.637284],[-95.960288,30.636779],[-95.959462,30.636411],[-95.959881,30.635592],[-95.960859,30.634899],[-95.961514,30.63469],[-95.962061,30.635361],[-95.963471,30.635371],[-95.963827,30.635954],[-95.964183,30.635662],[-95.964787,30.635602],[-95.965009,30.635151],[-95.964844,30.634871],[-95.96532,30.634404],[-95.965791,30.634288],[-95.965841,30.633964],[-95.966356,30.63381],[-95.96654,30.633387],[-95.967074,30.633672],[-95.967316,30.633332],[-95.967716,30.633348],[-95.968066,30.633705],[-95.968936,30.633617],[-95.969127,30.633853],[-95.969095,30.633062],[-95.969419,30.632655],[-95.969552,30.631765],[-95.969857,30.631776],[-95.970041,30.63221],[-95.970823,30.632507],[-95.971293,30.63183],[-95.972284,30.631099],[-95.973117,30.630967],[-95.972837,30.629703],[-95.973142,30.629489],[-95.972588,30.628428],[-95.972601,30.628005],[-95.972035,30.627527],[-95.972264,30.627132],[-95.972105,30.626362],[-95.972734,30.625857],[-95.973261,30.62584],[-95.973242,30.625604],[-95.974208,30.626005],[-95.974087,30.626527],[-95.973808,30.626686],[-95.974056,30.626922],[-95.976026,30.626614],[-95.977221,30.627388],[-95.978777,30.627465],[-95.97961,30.627168],[-95.980252,30.627415],[-95.980474,30.627272],[-95.980347,30.626849],[-95.981006,30.626194],[-95.980869,30.625899],[-95.981374,30.625149],[-95.983495,30.624743],[-95.984543,30.624678],[-95.986397,30.62514],[-96.000268,30.624922],[-96.005903,30.624244],[-96.006512,30.623606],[-96.006959,30.622273],[-96.00965,30.622964],[-96.013369,30.622638],[-96.025064,30.622255],[-96.027946,30.66139],[-96.027367,30.661137],[-96.027126,30.661324],[-96.027475,30.661593],[-96.027265,30.661824],[-96.026305,30.661543],[-96.025663,30.661801],[-96.025612,30.662038],[-96.026426,30.662247],[-96.027487,30.663082],[-96.027894,30.662934],[-96.028542,30.663176],[-96.028682,30.663401],[-96.028129,30.663549],[-96.029,30.664182],[-96.028942,30.665946],[-96.02835,30.666764],[-96.027772,30.666885],[-96.027804,30.666517],[-96.027562,30.666423],[-96.026863,30.666901],[-96.026958,30.66622],[-96.026456,30.666115],[-96.026386,30.665626],[-96.025776,30.665758],[-96.025204,30.665351],[-96.025,30.665983],[-96.025337,30.666274],[-96.024987,30.666989],[-96.02451,30.667335],[-96.025693,30.668],[-96.025057,30.668165],[-96.024542,30.668731],[-96.024599,30.669165],[-96.024001,30.66939],[-96.024159,30.670187],[-96.023797,30.670291],[-96.023359,30.66989],[-96.022812,30.669829],[-96.021845,30.670807],[-96.021311,30.67151],[-96.021635,30.67195],[-96.021227,30.673527],[-96.0207,30.673345],[-96.020318,30.673702],[-96.019848,30.673339],[-96.019288,30.673427],[-96.019384,30.673065],[-96.01878,30.673119],[-96.01892,30.672603],[-96.018742,30.672482],[-96.017992,30.672767],[-96.017636,30.672707],[-96.017585,30.67236],[-96.017165,30.672432],[-96.017025,30.672822],[-96.016567,30.673058],[-96.016479,30.672552],[-96.016256,30.672563],[-96.01595,30.673497],[-96.016383,30.673717],[-96.016046,30.674058],[-96.016821,30.674371],[-96.016331,30.674613],[-96.016242,30.675229],[-96.015473,30.675069],[-96.015186,30.67586],[-96.015707,30.6773],[-96.016171,30.677487],[-96.016196,30.677998],[-96.016584,30.678416],[-96.016399,30.679405],[-96.015775,30.679855],[-96.014262,30.680113],[-96.013753,30.680547],[-96.013181,30.680464],[-96.012768,30.680915],[-96.011884,30.681288],[-96.011941,30.68159],[-96.011075,30.682601],[-96.010559,30.684403],[-96.010616,30.68553],[-96.011156,30.685733],[-96.010895,30.686047],[-96.011092,30.686267],[-96.010552,30.686327],[-96.010316,30.687123],[-96.010653,30.687338],[-96.0105,30.687728],[-96.011174,30.687497],[-96.011397,30.687756],[-96.010334,30.688481],[-96.010334,30.689448],[-96.010009,30.689838],[-96.009475,30.690019],[-96.009328,30.690481],[-96.008756,30.690733],[-96.007084,30.690672],[-96.006956,30.691644],[-96.005404,30.69177],[-96.004666,30.692352],[-96.004653,30.692808],[-96.004164,30.692742],[-96.004081,30.693187],[-96.003667,30.693528],[-96.001905,30.694379],[-96.001594,30.694093],[-96.001155,30.694202],[-95.999894,30.693729],[-95.99976,30.693955],[-95.9995,30.69385],[-95.998889,30.694092],[-95.998623,30.69479],[-95.997663,30.695016],[-95.996969,30.694517],[-95.995977,30.694902],[-95.995322,30.694386],[-95.994687,30.694908],[-95.995018,30.69571],[-95.993899,30.695787],[-95.993899,30.696227],[-95.994357,30.696628],[-95.99402,30.696595],[-95.994179,30.697172],[-95.9935,30.698288],[-95.994066,30.698645],[-95.994155,30.699024],[-95.993011,30.699178],[-95.992636,30.700954],[-95.993113,30.700909],[-95.993209,30.70119],[-95.993476,30.701134],[-95.99375,30.702135],[-95.994711,30.703008],[-95.994298,30.703189],[-95.994139,30.703547],[-95.993853,30.703475],[-95.993758,30.703794],[-95.993287,30.70364],[-95.992746,30.703762],[-95.992263,30.704273],[-95.992652,30.704789],[-95.992722,30.705663],[-95.992245,30.705746],[-95.99257,30.706361],[-95.992348,30.70663],[-95.993188,30.70763],[-95.992851,30.708191],[-95.993678,30.708465],[-95.99357,30.708844],[-95.992909,30.7094],[-95.993246,30.709619],[-95.993355,30.710603],[-95.993018,30.71057],[-95.992865,30.710306],[-95.992464,30.710329],[-95.992191,30.710944],[-95.99174,30.711076],[-95.991371,30.710686],[-95.991167,30.710857],[-95.991021,30.710522],[-95.990914,30.712016],[-95.990386,30.711989],[-95.989915,30.712484],[-95.9439,30.712283],[-95.943683,30.712816],[-95.943989,30.713217],[-95.943951,30.713931],[-95.919765,30.714176]]]}},{"type":"Feature","properties":{"PRECINCT":"12","VTD":"0012"},"geometry":{"type":"Polygon","coordinates":[[[-96.099851,30.509526],[-96.099769,30.507854],[-96.098214,30.504297],[-96.096665,30.501553],[-96.095015,30.499416],[-96.092731,30.495411],[-96.090586,30.493565],[-96.089109,30.490132],[-96.088416,30.489433],[-96.086931,30.489616],[-96.078497,30.492446],[-96.076516,30.492687],[-96.075891,30.492352],[-96.074683,30.491005],[-96.071843,30.491204],[-96.065919,30.490847],[-96.065425,30.490518],[-96.062939,30.485719],[-96.062194,30.485576],[-96.06002,30.486221],[-96.057527,30.48034],[-96.058169,30.478329],[-96.058495,30.475688],[-96.05521,30.468171],[-96.054305,30.464275],[-96.054321,30.463724],[-96.05494,30.46253],[-96.055949,30.461719],[-96.058134,30.460983],[-96.058748,30.460296],[-96.058858,30.459567],[-96.055781,30.460438],[-96.053875,30.460216],[-96.053463,30.45987],[-96.051457,30.460818],[-96.024719,30.470148],[-96.024001,30.468695],[-96.024072,30.468396],[-96.02376,30.468315],[-96.023614,30.467821],[-96.023951,30.467376],[-96.023659,30.466634],[-96.024523,30.466046],[-96.02352,30.465568],[-96.023565,30.464491],[-96.024022,30.464024],[-96.023705,30.463727],[-96.023299,30.463826],[-96.023204,30.463617],[-96.023376,30.46288],[-96.02408,30.462529],[-96.024004,30.462084],[-96.02429,30.461708],[-96.022847,30.459044],[-96.024376,30.457295],[-96.025238,30.455737],[-96.025321,30.455143],[-96.024668,30.45428],[-96.024801,30.45394],[-96.024592,30.453555],[-96.023583,30.453664],[-96.02312,30.453516],[-96.022524,30.453845],[-96.022048,30.453609],[-96.021534,30.453812],[-96.020152,30.45335],[-96.019384,30.453548],[-96.017805,30.452475],[-96.016162,30.452063],[-96.015439,30.4527],[-96.014602,30.452425],[-96.013168,30.452506],[-96.011233,30.453385],[-96.009584,30.453675],[-96.008226,30.45423],[-96.007655,30.454174],[-96.006127,30.453525],[-96.005334,30.45286],[-96.004543,30.451266],[-96.003725,30.450677],[-96.003655,30.450128],[-96.003199,30.449589],[-96.000808,30.448835],[-96.00027,30.448142],[-95.999179,30.448703],[-95.998024,30.448649],[-95.995519,30.44909],[-95.995271,30.448287],[-95.995696,30.447787],[-95.995543,30.446996],[-95.995809,30.446199],[-95.995219,30.446073],[-95.995029,30.445699],[-95.994191,30.445134],[-95.994762,30.444523],[-95.995421,30.444523],[-95.99499,30.444177],[-95.994026,30.444139],[-95.993017,30.44359],[-95.991748,30.443937],[-95.991437,30.443514],[-95.990531,30.444371],[-95.989681,30.444092],[-95.989364,30.444449],[-95.989269,30.444158],[-95.988571,30.444021],[-95.988501,30.44462],[-95.988121,30.444801],[-95.988375,30.445433],[-95.98757,30.445367],[-95.987557,30.444944],[-95.987265,30.444911],[-95.986999,30.44578],[-95.986422,30.445643],[-95.986066,30.445049],[-95.985286,30.445368],[-95.985229,30.444791],[-95.984588,30.444929],[-95.98422,30.444786],[-95.984018,30.4451],[-95.981995,30.445738],[-95.981747,30.445238],[-95.981481,30.445859],[-95.982147,30.446079],[-95.981671,30.446387],[-95.981031,30.446205],[-95.980796,30.446771],[-95.980366,30.446641],[-95.980441,30.446195],[-95.979629,30.446277],[-95.979693,30.446684],[-95.978659,30.446684],[-95.978228,30.447284],[-95.97708,30.44702],[-95.976699,30.447454],[-95.976325,30.44713],[-95.976394,30.446559],[-95.97491,30.446735],[-95.974739,30.446477],[-95.974269,30.446422],[-95.973769,30.446747],[-95.973401,30.447274],[-95.973559,30.447527],[-95.973166,30.447752],[-95.972576,30.447549],[-95.971974,30.447626],[-95.971834,30.447022],[-95.971301,30.447264],[-95.971365,30.447841],[-95.970268,30.448468],[-95.969805,30.448287],[-95.969514,30.448512],[-95.969424,30.448133],[-95.968872,30.448276],[-95.968308,30.447941],[-95.96768,30.44821],[-95.967191,30.448045],[-95.9665,30.448381],[-95.966171,30.448327],[-95.964167,30.443677],[-95.96317,30.442129],[-95.962711,30.440604],[-95.962018,30.440183],[-95.945552,30.445601],[-95.944985,30.445577],[-95.94494,30.445038],[-95.944699,30.444923],[-95.944382,30.445214],[-95.943754,30.444939],[-95.943773,30.443945],[-95.943475,30.443758],[-95.943671,30.442653],[-95.94213,30.442478],[-95.940766,30.441571],[-95.939358,30.439296],[-95.939263,30.438433],[-95.939878,30.437295],[-95.939643,30.436922],[-95.939897,30.436251],[-95.939624,30.43513],[-95.940087,30.434229],[-95.939637,30.433762],[-95.939389,30.432267],[-95.938565,30.430723],[-95.938469,30.429162],[-95.936998,30.428728],[-95.936415,30.428041],[-95.936402,30.427585],[-95.936763,30.427035],[-95.936434,30.426541],[-95.936421,30.425672],[-95.934709,30.425233],[-95.932793,30.421141],[-95.931443,30.420193],[-95.93102,30.418258],[-95.929854,30.417811],[-95.929385,30.416752],[-95.928313,30.415604],[-95.927837,30.414658],[-95.927129,30.414196],[-95.930173,30.411203],[-95.930061,30.407858],[-95.934035,30.406963],[-95.934985,30.406505],[-95.936428,30.405004],[-95.936856,30.403428],[-95.936323,30.398161],[-95.936446,30.391859],[-95.936157,30.385831],[-95.935216,30.384378],[-95.929307,30.379413],[-95.928334,30.377657],[-95.927948,30.362242],[-95.928335,30.36041],[-95.941612,30.362189],[-95.943955,30.362147],[-95.945477,30.361831],[-95.952755,30.359404],[-95.959329,30.359176],[-95.961742,30.358805],[-95.967659,30.355918],[-95.970876,30.354919],[-95.973327,30.354695],[-95.984905,30.354694],[-95.991511,30.353125],[-95.994462,30.35302],[-95.996233,30.353354],[-95.998288,30.354223],[-96.004397,30.358319],[-96.018954,30.36688],[-96.021336,30.368192],[-96.023888,30.36922],[-96.034577,30.371687],[-96.043076,30.373946],[-96.063982,30.376259],[-96.063925,30.378541],[-96.065627,30.378562],[-96.066599,30.385818],[-96.063959,30.386741],[-96.064632,30.388918],[-96.065134,30.392019],[-96.067593,30.391725],[-96.069345,30.396304],[-96.064127,30.398315],[-96.064574,30.399379],[-96.069069,30.397772],[-96.071167,30.402042],[-96.07231,30.401523],[-96.073047,30.400879],[-96.07728,30.403858],[-96.075081,30.404443],[-96.08396,30.408426],[-96.083661,30.409005],[-96.085259,30.409945],[-96.091139,30.41196],[-96.091551,30.41152],[-96.096193,30.41306],[-96.102748,30.417717],[-96.105664,30.420187],[-96.105637,30.420431],[-96.106533,30.421322],[-96.106341,30.421933],[-96.105601,30.422125],[-96.103759,30.421408],[-96.103052,30.420419],[-96.103516,30.419345],[-96.103456,30.418892],[-96.101321,30.41739],[-96.100592,30.417425],[-96.098259,30.419841],[-96.09746,30.420027],[-96.095537,30.419696],[-96.095338,30.418817],[-96.095878,30.418195],[-96.095818,30.417429],[-96.095309,30.416926],[-96.094498,30.416651],[-96.091697,30.416471],[-96.087926,30.417293],[-96.086653,30.418299],[-96.082934,30.422949],[-96.082812,30.42364],[-96.083347,30.424985],[-96.082887,30.42606],[-96.082524,30.428255],[-96.082094,30.428615],[-96.080777,30.428937],[-96.080216,30.429422],[-96.079969,30.43003],[-96.080126,30.430784],[-96.080975,30.43129],[-96.081496,30.431234],[-96.085383,30.430026],[-96.086791,30.42989],[-96.087431,30.430756],[-96.087328,30.431409],[-96.085882,30.433865],[-96.086,30.435559],[-96.086571,30.436069],[-96.088471,30.436779],[-96.090585,30.438024],[-96.092821,30.440101],[-96.093651,30.440047],[-96.094352,30.438887],[-96.09558,30.438846],[-96.096234,30.437566],[-96.09689,30.437409],[-96.09732,30.437586],[-96.097592,30.438259],[-96.099056,30.440058],[-96.100629,30.440693],[-96.102248,30.438976],[-96.103185,30.438347],[-96.103808,30.437507],[-96.104669,30.437032],[-96.105196,30.437023],[-96.105709,30.437608],[-96.106526,30.440015],[-96.106217,30.44028],[-96.104993,30.440548],[-96.104766,30.440835],[-96.104598,30.443787],[-96.10534,30.444408],[-96.106775,30.443648],[-96.108706,30.443801],[-96.111013,30.443155],[-96.111887,30.442693],[-96.112195,30.441357],[-96.113073,30.440607],[-96.114222,30.441275],[-96.115132,30.440451],[-96.115909,30.440427],[-96.117474,30.441153],[-96.118987,30.441512],[-96.119176,30.441737],[-96.119062,30.4424],[-96.119354,30.442696],[-96.119644,30.442619],[-96.119972,30.441859],[-96.120453,30.441921],[-96.121095,30.443029],[-96.121976,30.443579],[-96.1218,30.444834],[-96.122177,30.445047],[-96.122238,30.445701],[-96.123164,30.446118],[-96.12288,30.446714],[-96.123016,30.447038],[-96.124507,30.448197],[-96.125902,30.448769],[-96.126509,30.449508],[-96.126396,30.449827],[-96.125683,30.450215],[-96.12589,30.450884],[-96.125398,30.451479],[-96.124367,30.451274],[-96.12371,30.451799],[-96.12353,30.453286],[-96.122784,30.454464],[-96.123073,30.455139],[-96.123638,30.455544],[-96.124356,30.455586],[-96.124795,30.455121],[-96.124795,30.453969],[-96.128129,30.453441],[-96.128918,30.452538],[-96.129821,30.452384],[-96.130018,30.452555],[-96.129903,30.454093],[-96.129403,30.455314],[-96.128739,30.456024],[-96.126619,30.456492],[-96.12614,30.457276],[-96.126602,30.45801],[-96.127166,30.457773],[-96.128057,30.458213],[-96.128363,30.458983],[-96.129276,30.459519],[-96.129709,30.460115],[-96.129655,30.460787],[-96.128808,30.461745],[-96.130283,30.463871],[-96.129431,30.465829],[-96.129483,30.466248],[-96.130138,30.466608],[-96.130572,30.466289],[-96.131014,30.466297],[-96.132395,30.467246],[-96.133409,30.467531],[-96.134453,30.467282],[-96.135187,30.466149],[-96.136151,30.466286],[-96.136457,30.467084],[-96.135812,30.46893],[-96.135892,30.469241],[-96.137328,30.470225],[-96.137983,30.471037],[-96.13975,30.471545],[-96.139988,30.472262],[-96.13878,30.473921],[-96.138803,30.474204],[-96.139731,30.474797],[-96.141041,30.475122],[-96.140952,30.475498],[-96.139885,30.475598],[-96.139499,30.476014],[-96.139124,30.477646],[-96.139567,30.478764],[-96.139329,30.479179],[-96.137724,30.47916],[-96.137529,30.478531],[-96.137775,30.477463],[-96.137646,30.477032],[-96.136907,30.476453],[-96.136253,30.476741],[-96.136155,30.477672],[-96.136976,30.478499],[-96.136996,30.478836],[-96.135553,30.47947],[-96.135281,30.479857],[-96.135445,30.480363],[-96.13674,30.48086],[-96.137004,30.481359],[-96.135604,30.483317],[-96.133907,30.483344],[-96.133113,30.483868],[-96.132896,30.48557],[-96.133038,30.486226],[-96.132554,30.488708],[-96.13276,30.48954],[-96.1321,30.49054],[-96.132556,30.491103],[-96.132514,30.491857],[-96.130766,30.493586],[-96.12935,30.493953],[-96.12886,30.495536],[-96.127762,30.495689],[-96.126189,30.495529],[-96.124188,30.496028],[-96.123616,30.495798],[-96.122684,30.496051],[-96.120646,30.49564],[-96.118952,30.497201],[-96.118921,30.498778],[-96.116653,30.499765],[-96.114638,30.500312],[-96.113763,30.500927],[-96.11245,30.501378],[-96.111511,30.503297],[-96.110972,30.503698],[-96.11089,30.504209],[-96.109938,30.505089],[-96.109215,30.505161],[-96.108822,30.506029],[-96.108035,30.505864],[-96.106099,30.506827],[-96.105389,30.507564],[-96.10318,30.507823],[-96.102254,30.508834],[-96.101435,30.509186],[-96.1004,30.509175],[-96.099851,30.509526]]]}},{"type":"Feature","properties":{"PRECINCT":"14","VTD":"0014"},"geometry":{"type":"Polygon","coordinates":[[[-95.87602,30.319604],[-95.875171,30.319477],[-95.873513,30.318396],[-95.872531,30.318682],[-95.872366,30.319133],[-95.871993,30.31932],[-95.87134,30.318875],[-95.8707,30.31893],[-95.869876,30.318205],[-95.869743,30.317667],[-95.869382,30.318029],[-95.868761,30.318085],[-95.867051,30.317882],[-95.865435,30.317317],[-95.864725,30.316262],[-95.863939,30.316334],[-95.863166,30.316065],[-95.863217,30.315652],[-95.864205,30.315702],[-95.864395,30.315284],[-95.864179,30.314696],[-95.863045,30.314119],[-95.862607,30.313344],[-95.861632,30.313751],[-95.859041,30.313236],[-95.858262,30.31355],[-95.857153,30.313374],[-95.856652,30.31272],[-95.855721,30.312231],[-95.854967,30.311457],[-95.853554,30.311298],[-95.852851,30.310606],[-95.849638,30.309095],[-95.847806,30.305842],[-95.846209,30.304111],[-95.8441,30.302694],[-95.844042,30.30204],[-95.844618,30.300677],[-95.844523,30.300166],[-95.84375,30.299374],[-95.842844,30.299606],[-95.841128,30.299458],[-95.838943,30.300118],[-95.838474,30.299425],[-95.836599,30.299008],[-95.834255,30.298135],[-95.83283,30.297157],[-95.831759,30.295843],[-95.830803,30.295228],[-95.829472,30.293453],[-95.829016,30.291568],[-95.829237,30.289869],[-95.829668,30.288902],[-95.82956,30.288138],[-95.828851,30.287149],[-95.828445,30.285522],[-95.827514,30.284874],[-95.826196,30.284368],[-95.825189,30.281587],[-95.825094,30.279696],[-95.827057,30.278745],[-95.827107,30.27725],[-95.827411,30.276267],[-95.827271,30.274805],[-95.826708,30.274316],[-95.825809,30.274486],[-95.824504,30.274151],[-95.824067,30.273508],[-95.823332,30.273041],[-95.822604,30.270227],[-95.821635,30.268386],[-95.820704,30.267627],[-95.820622,30.26688],[-95.821191,30.265561],[-95.82102,30.26461],[-95.819938,30.264319],[-95.819938,30.263725],[-95.819323,30.262956],[-95.817683,30.262368],[-95.817595,30.262049],[-95.81807,30.261703],[-95.817538,30.261323],[-95.81724,30.261527],[-95.816835,30.261433],[-95.816303,30.259685],[-95.815113,30.259647],[-95.814929,30.260263],[-95.814454,30.260351],[-95.813884,30.26084],[-95.813251,30.260702],[-95.81253,30.261065],[-95.810972,30.26062],[-95.810491,30.260719],[-95.810206,30.261219],[-95.809497,30.260873],[-95.809376,30.260312],[-95.808009,30.258223],[-95.806793,30.258174],[-95.805945,30.256822],[-95.805939,30.256261],[-95.807078,30.255745],[-95.807591,30.254997],[-95.808781,30.254382],[-95.809757,30.254464],[-95.810187,30.253574],[-95.810225,30.252337],[-95.809877,30.251645],[-95.809161,30.251298],[-95.809187,30.25104],[-95.809611,30.250798],[-95.809105,30.250292],[-95.807699,30.250562],[-95.807047,30.250298],[-95.806034,30.250369],[-95.805623,30.250001],[-95.805534,30.247265],[-95.805054,30.245632],[-95.814501,30.24484],[-95.821199,30.24475],[-95.842138,30.243445],[-95.8521,30.242456],[-95.907832,30.238443],[-95.911538,30.238236],[-95.912002,30.23867],[-95.91221,30.24034],[-95.912501,30.240736],[-95.912419,30.241945],[-95.913394,30.242781],[-95.913292,30.243957],[-95.913919,30.2446],[-95.913602,30.245138],[-95.914007,30.245441],[-95.914007,30.24604],[-95.914957,30.24649],[-95.915482,30.24726],[-95.916221,30.252137],[-95.917101,30.254072],[-95.918113,30.258161],[-95.918321,30.260117],[-95.918251,30.263157],[-95.913921,30.263284],[-95.913691,30.263538],[-95.914138,30.274244],[-95.915503,30.277766],[-95.915606,30.278555],[-95.916016,30.298186],[-95.916801,30.31802],[-95.916522,30.318238],[-95.91479,30.318281],[-95.914464,30.318458],[-95.898565,30.31889],[-95.898069,30.319],[-95.897157,30.319685],[-95.89671,30.319144],[-95.894823,30.318803],[-95.89488,30.31844],[-95.892726,30.317598],[-95.891079,30.317829],[-95.890484,30.317576],[-95.889381,30.317669],[-95.887729,30.316712],[-95.887139,30.316783],[-95.886525,30.316569],[-95.884707,30.317151],[-95.883921,30.317733],[-95.883883,30.318217],[-95.882507,30.319073],[-95.881424,30.318919],[-95.880683,30.318386],[-95.879137,30.319155],[-95.878373,30.319162],[-95.877867,30.318706],[-95.877736,30.319132],[-95.87602,30.319604]]]}},{"type":"Feature","properties":{"PRECINCT":"15","VTD":"0015"},"geometry":{"type":"Polygon","coordinates":[[[-95.925907,30.343938],[-95.925659,30.340458],[-95.922891,30.340968],[-95.920867,30.341067],[-95.913034,30.340225],[-95.912081,30.339769],[-95.910589,30.337034],[-95.911431,30.335101],[-95.911446,30.330189],[-95.912293,30.329905],[-95.914113,30.329885],[-95.914501,30.329557],[-95.914464,30.318458],[-95.91479,30.318281],[-95.916522,30.318238],[-95.916829,30.317848],[-95.916016,30.298186],[-95.915606,30.278555],[-95.915503,30.277766],[-95.914138,30.274244],[-95.913691,30.263538],[-95.913921,30.263284],[-95.918251,30.263157],[-95.918411,30.262051],[-95.918113,30.258161],[-95.917101,30.254072],[-95.916221,30.252137],[-95.915482,30.24726],[-95.914957,30.24649],[-95.913963,30.245968],[-95.914007,30.245441],[-95.913602,30.245138],[-95.913919,30.2446],[-95.913292,30.243957],[-95.913463,30.242934],[-95.912419,30.241945],[-95.912501,30.240736],[-95.91221,30.24034],[-95.912002,30.23867],[-95.911538,30.238236],[-95.923283,30.237284],[-95.932006,30.237633],[-95.934105,30.237539],[-95.934476,30.237228],[-95.934879,30.237526],[-95.93859,30.237559],[-95.950349,30.236906],[-95.951877,30.239669],[-95.954972,30.242932],[-95.957043,30.245647],[-95.962295,30.250727],[-95.968727,30.257822],[-95.969806,30.259358],[-95.970258,30.261247],[-95.970182,30.263832],[-95.970967,30.273611],[-95.971899,30.277303],[-95.972258,30.299131],[-95.972544,30.299906],[-95.973724,30.301189],[-95.973944,30.301737],[-95.973762,30.305825],[-95.973971,30.310399],[-95.975807,30.315533],[-95.975939,30.321953],[-95.976687,30.323158],[-95.978552,30.324612],[-95.979045,30.325588],[-95.979725,30.343724],[-95.980245,30.34478],[-95.982137,30.346656],[-95.987077,30.348754],[-95.990484,30.350535],[-95.991109,30.350984],[-95.992699,30.352986],[-95.984905,30.354694],[-95.973327,30.354695],[-95.970876,30.354919],[-95.967659,30.355918],[-95.961742,30.358805],[-95.959329,30.359176],[-95.952755,30.359404],[-95.945477,30.361831],[-95.943955,30.362147],[-95.941612,30.362189],[-95.929234,30.360654],[-95.928789,30.36054],[-95.928801,30.359896],[-95.927835,30.359355],[-95.927807,30.354061],[-95.926961,30.352148],[-95.92686,30.347706],[-95.925907,30.343938]]]}}]}