{"type":"FeatureCollection","features":[{"type":"Feature","properties":{"PRECINCT":"harris:1012","COUNTY":"Harris"},"geometry":{"type":"Polygon","coordinates":[[[-95.45833,29.93542],[-95.44879,29.92316],[-95.45515,29.92313],[-95.45509,29.92022],[-95.45852,29.91937],[-95.45883,29.92308],[-95.47038,29.92294],[-95.47056,29.93243],[-95.47107,29.93324],[-95.47216,29.93411],[-95.47256,29.9353],[-95.4647,29.93539],[-95.46445,29.93533],[-95.46412,29.93474],[-95.4622,29.93472],[-95.46012,29.93476],[-95.45979,29.9349],[-95.45959,29.9354],[-95.45833,29.93542]]]}},{"type":"Feature","properties":{"PRECINCT":"harris:105","COUNTY":"Harris"},"geometry":{"type":"Polygon","coordinates":[[[-95.36284,29.85928],[-95.36197,29.85921],[-95.35882,29.84654],[-95.36091,29.84627],[-95.36869,29.84619],[-95.37164,29.84566],[-95.38448,29.84552],[-95.38454,29.84946],[-95.37616,29.84969],[-95.37623,29.85386],[-95.37191,29.85389],[-95.37206,29.86234],[-95.36364,29.86251],[-95.36284,29.85928]]]}},{"type":"Feature","properties":{"PRECINCT":"harris:107","COUNTY":"Harris"},"geometry":{"type":"Polygon","coordinates":[[[-95.33396,29.85153],[-95.33365,29.84076],[-95.34281,29.84044],[-95.34285,29.84288],[-95.3449,29.84466],[-95.34484,29.83776],[-95.34821,29.83773],[-95.34811,29.83484],[-95.34548,29.83484],[-95.3454,29.83123],[-95.35093,29.83115],[-95.35087,29.8287],[-95.35431,29.82881],[-95.35919,29.84792],[-95.35416,29.84799],[-95.35377,29.8477],[-95.35207,29.84804],[-95.3429,29.84815],[-95.34236,29.84942],[-95.33484,29.86191],[-95.33359,29.86134],[-95.33396,29.85153]]]}},{"type":"Feature","properties":{"PRECINCT":"harris:152","COUNTY":"Harris"},"geometry":{"type":"Polygon","coordinates":[[[-95.32967,29.87191],[-95.33019,29.87104],[-95.32977,29.87105],[-95.33226,29.86685],[-95.33291,29.86531],[-95.33326,29.86118],[-95.33484,29.86191],[-95.34236,29.84942],[-95.3429,29.84815],[-95.35207,29.84804],[-95.35377,29.8477],[-95.35416,29.84799],[-95.35919,29.84792],[-95.36197,29.85921],[-95.36165,29.85924],[-95.36244,29.86243],[-95.35298,29.86256],[-95.35299,29.86492],[-95.34997,29.86497],[-95.34997,29.86532],[-95.34319,29.86535],[-95.34309,29.86728],[-95.34258,29.86847],[-95.34116,29.86846],[-95.34158,29.86983],[-95.3411,29.87107],[-95.33483,29.87102],[-95.3348,29.87187],[-95.32967,29.87191]]]}},{"type":"Feature","properties":{"PRECINCT":"harris:171","COUNTY":"Harris"},"geometry":{"type":"Polygon","coordinates":[[[-95.33784,29.83842],[-95.33777,29.83297],[-95.33494,29.83299],[-95.33522,29.83166],[-95.33466,29.83166],[-95.3352,29.82921],[-95.33467,29.82921],[-95.33386,29.83299],[-95.33096,29.83287],[-95.33243,29.82922],[-95.33164,29.82923],[-95.33549,29.81989],[-95.35208,29.81974],[-95.35259,29.82178],[-95.35084,29.82181],[-95.35087,29.82622],[-95.34843,29.82613],[-95.34734,29.82642],[-95.34591,29.82645],[-95.34589,29.82487],[-95.34258,29.82491],[-95.34281,29.84044],[-95.33701,29.84064],[-95.33698,29.83843],[-95.33784,29.83842]]]}},{"type":"Feature","properties":{"PRECINCT":"harris:185","COUNTY":"Harris"},"geometry":{"type":"Polygon","coordinates":[[[-95.41263,29.9125],[-95.41209,29.87798],[-95.41164,29.8761],[-95.41023,29.8736],[-95.42921,29.89792],[-95.41694,29.89808],[-95.41697,29.89932],[-95.41664,29.89931],[-95.41668,29.90026],[-95.415,29.90029],[-95.41511,29.90454],[-95.41399,29.9047],[-95.41276,29.90525],[-95.41286,29.91131],[-95.41263,29.9125]]]}},{"type":"Feature","properties":{"PRECINCT":"harris:212","COUNTY":"Harris"},"geometry":{"type":"Polygon","coordinates":[[[-95.32333,29.86386],[-95.32184,29.86379],[-95.3214,29.86355],[-95.31807,29.8629],[-95.32714,29.84041],[-95.33087,29.84082],[-95.33365,29.84076],[-95.33396,29.85138],[-95.33359,29.86134],[-95.33211,29.86074],[-95.33114,29.86122],[-95.33014,29.86222],[-95.32968,29.86226],[-95.32848,29.86181],[-95.32684,29.86267],[-95.32533,29.86435],[-95.32449,29.86441],[-95.32333,29.86386]]]}},{"type":"Feature","properties":{"PRECINCT":"harris:241","COUNTY":"Harris"},"geometry":{"type":"Polygon","coordinates":[[[-95.3581,29.93146],[-95.35185,29.93136],[-95.34958,29.93055],[-95.3471,29.93036],[-95.34704,29.92839],[-95.34545,29.92382],[-95.34237,29.9212],[-95.34093,29.92068],[-95.3412,29.92013],[-95.34113,29.91793],[-95.34133,29.91748],[-95.34128,29.91317],[-95.34111,29.9094],[-95.34049,29.90856],[-95.34047,29.90548],[-95.33637,29.90546],[-95.33638,29.90493],[-95.33973,29.90488],[-95.33981,29.90416],[-95.34067,29.90415],[-95.34071,29.903],[-95.34127,29.90295],[-95.34153,29.90312],[-95.34155,29.90526],[-95.34831,29.90519],[-95.34821,29.9024],[-95.35505,29.90234],[-95.35474,29.89454],[-95.35593,29.89441],[-95.35704,29.89477],[-95.35984,29.89357],[-95.36166,29.89247],[-95.3642,29.89234],[-95.36532,29.89176],[-95.36537,29.89139],[-95.3657,29.8913],[-95.36699,29.89188],[-95.36797,29.89198],[-95.36869,29.89264],[-95.37054,29.89255],[-95.3713,29.89567],[-95.37192,29.89563],[-95.37232,29.89909],[-95.37512,29.9107],[-95.37634,29.91348],[-95.37664,29.91665],[-95.3763,29.91666],[-95.37668,29.9184],[-95.38035,29.93267],[-95.37651,29.93329],[-95.37209,29.93344],[-95.3581,29.93146]]]}},{"type":"Feature","properties":{"PRECINCT":"harris:254","COUNTY":"Harris"},"geometry":{"type":"Polygon","coordinates":[[[-95.30089,29.89931],[-95.30084,29.89522],[-95.30289,29.89515],[-95.30289,29.89424],[-95.30277,29.88716],[-95.30085,29.88718],[-95.30063,29.88179],[-95.31019,29.88172],[-95.31807,29.8629],[-95.3214,29.86355],[-95.32184,29.86379],[-95.32284,29.86372],[-95.32449,29.86441],[-95.32504,29.86441],[-95.32547,29.86428],[-95.32703,29.86253],[-95.32848,29.86181],[-95.32968,29.86226],[-95.33014,29.86222],[-95.33182,29.86081],[-95.33226,29.86075],[-95.33326,29.86118],[-95.33291,29.86531],[-95.33226,29.86685],[-95.31825,29.89096],[-95.30971,29.89115],[-95.30979,29.89463],[-95.30605,29.89469],[-95.30728,29.89118],[-95.30659,29.89119],[-95.30329,29.89932],[-95.30089,29.89931]]]}},{"type":"Feature","properties":{"PRECINCT":"harris:261","COUNTY":"Harris"},"geometry":{"type":"Polygon","coordinates":[[[-95.38474,29.86172],[-95.38455,29.85026],[-95.38823,29.85023],[-95.38812,29.84823],[-95.38933,29.84827],[-95.38935,29.85021],[-95.39091,29.85022],[-95.39084,29.84554],[-95.39241,29.84553],[-95.395,29.84921],[-95.39503,29.85332],[-95.39786,29.85323],[-95.40212,29.85954],[-95.38652,29.85968],[-95.38661,29.86168],[-95.38474,29.86172]]]}},{"type":"Feature","properties":{"PRECINCT":"harris:320","COUNTY":"Harris"},"geometry":{"type":"Polygon","coordinates":[[[-95.39485,29.88945],[-95.39029,29.8819],[-95.38665,29.88187],[-95.3866,29.88106],[-95.38975,29.88102],[-95.38645,29.8756],[-95.40149,29.87545],[-95.40147,29.87393],[-95.40069,29.87382],[-95.40063,29.86988],[-95.40813,29.86987],[-95.41102,29.87441],[-95.41023,29.8736],[-95.4119,29.87686],[-95.41211,29.87856],[-95.41224,29.88906],[-95.40877,29.88883],[-95.40494,29.88887],[-95.39485,29.88945]]]}},{"type":"Feature","properties":{"PRECINCT":"harris:321","COUNTY":"Harris"},"geometry":{"type":"Polygon","coordinates":[[[-95.37222,29.88956],[-95.36919,29.88941],[-95.3657,29.87575],[-95.36615,29.87574],[-95.36534,29.87253],[-95.3649,29.87253],[-95.36438,29.87074],[-95.36844,29.87024],[-95.40063,29.86988],[-95.40069,29.87382],[-95.40147,29.87393],[-95.40149,29.87545],[-95.38645,29.8756],[-95.38975,29.88102],[-95.3866,29.88106],[-95.38665,29.88187],[-95.39029,29.8819],[-95.39485,29.88945],[-95.37222,29.88956]]]}},{"type":"Feature","properties":{"PRECINCT":"harris:326","COUNTY":"Harris"},"geometry":{"type":"Polygon","coordinates":[[[-95.37643,29.86456],[-95.3763,29.85941],[-95.37977,29.85936],[-95.37996,29.86075],[-95.38472,29.86068],[-95.38491,29.87005],[-95.37194,29.87021],[-95.37211,29.86463],[-95.37643,29.86456]]]}},{"type":"Feature","properties":{"PRECINCT":"harris:366","COUNTY":"Harris"},"geometry":{"type":"Polygon","coordinates":[[[-95.44884,29.92317],[-95.42931,29.89803],[-95.46351,29.89747],[-95.47011,29.9044],[-95.46983,29.90505],[-95.46988,29.91026],[-95.46928,29.91344],[-95.46929,29.91468],[-95.46942,29.92102],[-95.47038,29.92294],[-95.45883,29.92308],[-95.45852,29.91937],[-95.45509,29.92022],[-95.45515,29.92313],[-95.44884,29.92317]]]}},{"type":"Feature","properties":{"PRECINCT":"harris:397","COUNTY":"Harris"},"geometry":{"type":"Polygon","coordinates":[[[-95.30007,29.93071],[-95.30279,29.9248],[-95.30712,29.91843],[-95.31004,29.9185],[-95.31221,29.91916],[-95.31516,29.91913],[-95.31745,29.91955],[-95.32671,29.91927],[-95.3278,29.91955],[-95.32972,29.92061],[-95.33349,29.92066],[-95.33657,29.92141],[-95.3384,29.92119],[-95.33975,29.92058],[-95.34144,29.92076],[-95.34237,29.9212],[-95.34539,29.92373],[-95.34715,29.92917],[-95.3471,29.93036],[-95.34224,29.93037],[-95.33481,29.92989],[-95.33156,29.93016],[-95.30007,29.93071]]]}},{"type":"Feature","properties":{"PRECINCT":"harris:408","COUNTY":"Harris"},"geometry":{"type":"Polygon","coordinates":[[[-95.41217,29.91511],[-95.41203,29.9074],[-95.40858,29.9078],[-95.40854,29.90572],[-95.40367,29.90595],[-95.40353,29.90628],[-95.40185,29.9064],[-95.40089,29.90372],[-95.39259,29.90384],[-95.39242,29.90355],[-95.391,29.90355],[-95.39101,29.89849],[-95.39897,29.89837],[-95.39715,29.89336],[-95.39485,29.88945],[-95.40494,29.88887],[-95.40877,29.88883],[-95.41224,29.88906],[-95.41269,29.91507],[-95.41217,29.91511]]]}},{"type":"Feature","properties":{"PRECINCT":"harris:409","COUNTY":"Harris"},"geometry":{"type":"Polygon","coordinates":[[[-95.37313,29.90221],[-95.39097,29.90209],[-95.39105,29.91521],[-95.39075,29.91673],[-95.39097,29.93191],[-95.38403,29.932],[-95.38035,29.93267],[-95.3763,29.91666],[-95.37664,29.91665],[-95.37634,29.91348],[-95.37512,29.9107],[-95.37313,29.90221]]]}},{"type":"Feature","properties":{"PRECINCT":"harris:411","COUNTY":"Harris"},"geometry":{"type":"Polygon","coordinates":[[[-95.31174,29.90275],[-95.31386,29.89846],[-95.32618,29.87718],[-95.32787,29.8774],[-95.3279,29.88006],[-95.32766,29.88171],[-95.32622,29.88172],[-95.32625,29.8837],[-95.3272,29.88368],[-95.32726,29.88754],[-95.33053,29.8875],[-95.33053,29.8869],[-95.33305,29.88674],[-95.34296,29.88674],[-95.34395,29.88737],[-95.34436,29.88815],[-95.35493,29.88808],[-95.35474,29.89425],[-95.35505,29.90234],[-95.33118,29.90251],[-95.31354,29.90295],[-95.31174,29.90275]]]}},{"type":"Feature","properties":{"PRECINCT":"harris:423","COUNTY":"Harris"},"geometry":{"type":"Polygon","coordinates":[[[-95.40212,29.93177],[-95.40272,29.92938],[-95.40244,29.92693],[-95.40192,29.92701],[-95.40161,29.92527],[-95.39896,29.92225],[-95.39887,29.92001],[-95.39907,29.91898],[-95.39853,29.9177],[-95.39707,29.91841],[-95.39695,29.91818],[-95.39683,29.91553],[-95.40499,29.91543],[-95.40681,29.91521],[-95.41269,29.91507],[-95.41198,29.9318],[-95.40212,29.93177]]]}},{"type":"Feature","properties":{"PRECINCT":"harris:494","COUNTY":"Harris"},"geometry":{"type":"Polygon","coordinates":[[[-95.43212,29.89803],[-95.43212,29.8952],[-95.43171,29.89316],[-95.43163,29.88632],[-95.43128,29.88626],[-95.43126,29.88558],[-95.44019,29.88529],[-95.44018,29.88475],[-95.45036,29.88437],[-95.45588,29.88998],[-95.45853,29.8921],[-95.46351,29.89747],[-95.43279,29.89803],[-95.43212,29.89803]]]}},{"type":"Feature","properties":{"PRECINCT":"harris:571","COUNTY":"Harris"},"geometry":{"type":"Polygon","coordinates":[[[-95.34419,29.88771],[-95.34303,29.88687],[-95.34256,29.88507],[-95.3428,29.8831],[-95.34447,29.88106],[-95.34387,29.8794],[-95.34413,29.87839],[-95.34403,29.87721],[-95.34175,29.8747],[-95.33495,29.87475],[-95.33483,29.87102],[-95.3411,29.87107],[-95.34158,29.86983],[-95.34116,29.86846],[-95.34258,29.86847],[-95.34309,29.86728],[-95.34319,29.86535],[-95.34997,29.86532],[-95.34997,29.86497],[-95.35299,29.86492],[-95.35301,29.86737],[-95.35002,29.86742],[-95.35032,29.86835],[-95.34557,29.86838],[-95.34562,29.8723],[-95.34894,29.87226],[-95.34896,29.87349],[-95.35321,29.87345],[-95.35525,29.87747],[-95.35493,29.88808],[-95.34436,29.88815],[-95.34419,29.88771]]]}},{"type":"Feature","properties":{"PRECINCT":"harris:579","COUNTY":"Harris"},"geometry":{"type":"Polygon","coordinates":[[[-95.39121,29.86997],[-95.39114,29.86439],[-95.39773,29.86432],[-95.39774,29.8653],[-95.39797,29.86537],[-95.39926,29.86529],[-95.39926,29.86431],[-95.40452,29.86425],[-95.40123,29.85801],[-95.39569,29.85017],[-95.39639,29.85037],[-95.3965,29.85015],[-95.39836,29.85278],[-95.39952,29.8523],[-95.40047,29.85385],[-95.40304,29.85374],[-95.40304,29.85487],[-95.40624,29.85487],[-95.40625,29.85567],[-95.4015,29.85571],[-95.40068,29.85604],[-95.40278,29.85933],[-95.40462,29.85884],[-95.40948,29.85876],[-95.40967,29.86986],[-95.39121,29.86997]]]}},{"type":"Feature","properties":{"PRECINCT":"harris:591","COUNTY":"Harris"},"geometry":{"type":"Polygon","coordinates":[[[-95.32726,29.88754],[-95.3272,29.88368],[-95.32625,29.8837],[-95.32622,29.88172],[-95.32766,29.88171],[-95.3279,29.88006],[-95.32787,29.8774],[-95.32618,29.87718],[-95.32977,29.87105],[-95.33019,29.87104],[-95.32967,29.87191],[-95.3348,29.87187],[-95.33495,29.87475],[-95.34175,29.8747],[-95.34403,29.87721],[-95.34413,29.87839],[-95.34387,29.8794],[-95.34449,29.88097],[-95.34267,29.88344],[-95.34256,29.88507],[-95.34296,29.88674],[-95.33305,29.88674],[-95.33053,29.8869],[-95.33053,29.8875],[-95.32726,29.88754]]]}},{"type":"Feature","properties":{"PRECINCT":"harris:595","COUNTY":"Harris"},"geometry":{"type":"Polygon","coordinates":[[[-95.41269,29.91507],[-95.41276,29.90525],[-95.41399,29.9047],[-95.41511,29.90454],[-95.415,29.90029],[-95.41668,29.90026],[-95.41664,29.89931],[-95.41697,29.89932],[-95.41694,29.89808],[-95.42596,29.89793],[-95.42921,29.89792],[-95.44216,29.91459],[-95.41444,29.91505],[-95.41269,29.91507]]]}},{"type":"Feature","properties":{"PRECINCT":"harris:608","COUNTY":"Harris"},"geometry":{"type":"Polygon","coordinates":[[[-95.37313,29.90221],[-95.37232,29.89909],[-95.37192,29.89563],[-95.3713,29.89567],[-95.37054,29.89255],[-95.37,29.89263],[-95.36919,29.88941],[-95.37222,29.88956],[-95.39485,29.88945],[-95.39715,29.89336],[-95.39897,29.89837],[-95.39101,29.89849],[-95.39097,29.90209],[-95.37313,29.90221]]]}},{"type":"Feature","properties":{"PRECINCT":"harris:61","COUNTY":"Harris"},"geometry":{"type":"Polygon","coordinates":[[[-95.39097,29.93191],[-95.39075,29.91673],[-95.391,29.91573],[-95.39683,29.91553],[-95.39695,29.91818],[-95.39707,29.91841],[-95.39853,29.9177],[-95.39907,29.91898],[-95.39887,29.92001],[-95.39896,29.92225],[-95.40161,29.92527],[-95.40192,29.92701],[-95.40244,29.92693],[-95.40272,29.92938],[-95.40212,29.93177],[-95.39097,29.93191]]]}},{"type":"Feature","properties":{"PRECINCT":"harris:664","COUNTY":"Harris"},"geometry":{"type":"Polygon","coordinates":[[[-95.34123,29.91307],[-95.33671,29.91289],[-95.33353,29.91146],[-95.33138,29.91123],[-95.33129,29.9066],[-95.32699,29.90664],[-95.32701,29.90739],[-95.32357,29.90744],[-95.32355,29.9067],[-95.32114,29.90671],[-95.31839,29.90677],[-95.31638,29.90754],[-95.313,29.90758],[-95.31298,29.90292],[-95.33118,29.90251],[-95.34821,29.9024],[-95.34831,29.90519],[-95.34155,29.90526],[-95.34153,29.90312],[-95.34127,29.90295],[-95.34071,29.903],[-95.34067,29.90415],[-95.33981,29.90416],[-95.33973,29.90488],[-95.33638,29.90493],[-95.33637,29.90546],[-95.34047,29.90548],[-95.34049,29.90856],[-95.34111,29.9094],[-95.34123,29.91307]]]}},{"type":"Feature","properties":{"PRECINCT":"harris:677","COUNTY":"Harris"},"geometry":{"type":"Polygon","coordinates":[[[-95.38491,29.87005],[-95.38474,29.86172],[-95.38661,29.86168],[-95.38652,29.85968],[-95.38778,29.85967],[-95.40212,29.85954],[-95.40452,29.86425],[-95.39926,29.86431],[-95.39926,29.86529],[-95.39797,29.86537],[-95.39774,29.8653],[-95.39773,29.86432],[-95.39114,29.86439],[-95.39121,29.86997],[-95.38491,29.87005]]]}},{"type":"Feature","properties":{"PRECINCT":"harris:683","COUNTY":"Harris"},"geometry":{"type":"Polygon","coordinates":[[[-95.38455,29.85026],[-95.38442,29.84161],[-95.38728,29.84159],[-95.38735,29.84551],[-95.39084,29.84554],[-95.39091,29.85022],[-95.38935,29.85021],[-95.38933,29.84827],[-95.38812,29.84823],[-95.38823,29.85023],[-95.38455,29.85026]]]}},{"type":"Feature","properties":{"PRECINCT":"harris:702","COUNTY":"Harris"},"geometry":{"type":"Polygon","coordinates":[[[-95.34278,29.8379],[-95.34258,29.82491],[-95.34589,29.82487],[-95.34591,29.82645],[-95.34734,29.82642],[-95.34843,29.82613],[-95.35087,29.82622],[-95.35084,29.82181],[-95.35259,29.82178],[-95.35431,29.82881],[-95.35087,29.8287],[-95.35093,29.83115],[-95.3454,29.83123],[-95.34548,29.83484],[-95.34811,29.83484],[-95.34821,29.83773],[-95.34278,29.8379]]]}},{"type":"Feature","properties":{"PRECINCT":"harris:714","COUNTY":"Harris"},"geometry":{"type":"Polygon","coordinates":[[[-95.34896,29.87349],[-95.34894,29.87226],[-95.34562,29.8723],[-95.34557,29.86838],[-95.35032,29.86835],[-95.35002,29.86742],[-95.35301,29.86737],[-95.35298,29.86256],[-95.36244,29.86243],[-95.36165,29.85924],[-95.36222,29.8592],[-95.36508,29.87073],[-95.35189,29.87099],[-95.35321,29.87345],[-95.34896,29.87349]]]}},{"type":"Feature","properties":{"PRECINCT":"harris:77","COUNTY":"Harris"},"geometry":{"type":"Polygon","coordinates":[[[-95.3833,29.85926],[-95.38471,29.85944],[-95.38472,29.86068],[-95.3798,29.86064],[-95.37977,29.85936],[-95.3833,29.85926]]]}},{"type":"Feature","properties":{"PRECINCT":"harris:775","COUNTY":"Harris"},"geometry":{"type":"Polygon","coordinates":[[[-95.34278,29.8379],[-95.34484,29.83776],[-95.3449,29.84466],[-95.34285,29.84288],[-95.34278,29.8379]]]}},{"type":"Feature","properties":{"PRECINCT":"harris:778","COUNTY":"Harris"},"geometry":{"type":"Polygon","coordinates":[[[-95.35208,29.81974],[-95.35237,29.81973],[-95.35406,29.82634],[-95.35502,29.82782],[-95.35517,29.82894],[-95.35431,29.82881],[-95.35208,29.81974]]]}},{"type":"Feature","properties":{"PRECINCT":"harris:779","COUNTY":"Harris"},"geometry":{"type":"Polygon","coordinates":[[[-95.35613,29.89443],[-95.35474,29.89454],[-95.35522,29.87721],[-95.35189,29.87099],[-95.36438,29.87074],[-95.3649,29.87253],[-95.36534,29.87253],[-95.36615,29.87574],[-95.3657,29.87575],[-95.36583,29.87631],[-95.37,29.89263],[-95.36869,29.89264],[-95.36797,29.89198],[-95.36699,29.89188],[-95.36553,29.8913],[-95.36532,29.89176],[-95.3642,29.89234],[-95.36166,29.89247],[-95.35984,29.89357],[-95.35711,29.89475],[-95.35613,29.89443]]]}},{"type":"Feature","properties":{"PRECINCT":"harris:780","COUNTY":"Harris"},"geometry":{"type":"Polygon","coordinates":[[[-95.391,29.9157],[-95.391,29.90355],[-95.39242,29.90355],[-95.39259,29.90384],[-95.40089,29.90372],[-95.40185,29.9064],[-95.40353,29.90628],[-95.40367,29.90595],[-95.40854,29.90572],[-95.40858,29.9078],[-95.41203,29.9074],[-95.41217,29.91511],[-95.391,29.9157]]]}},{"type":"Feature","properties":{"PRECINCT":"harris:787","COUNTY":"Harris"},"geometry":{"type":"Polygon","coordinates":[[[-95.36508,29.87073],[-95.36252,29.86053],[-95.3642,29.86474],[-95.37034,29.86465],[-95.3703,29.86236],[-95.37114,29.86235],[-95.37119,29.86464],[-95.37211,29.86463],[-95.37194,29.87021],[-95.36814,29.87026],[-95.36508,29.87073]]]}},{"type":"Feature","properties":{"PRECINCT":"harris:792","COUNTY":"Harris"},"geometry":{"type":"Polygon","coordinates":[[[-95.33421,29.9208],[-95.32972,29.92061],[-95.3278,29.91955],[-95.32671,29.91927],[-95.31745,29.91955],[-95.31516,29.91913],[-95.31221,29.91916],[-95.31004,29.9185],[-95.30712,29.91843],[-95.30868,29.91537],[-95.31174,29.90275],[-95.31298,29.90292],[-95.313,29.90758],[-95.31638,29.90754],[-95.31839,29.90677],[-95.32114,29.90671],[-95.32355,29.9067],[-95.32357,29.90744],[-95.32701,29.90739],[-95.32699,29.90664],[-95.33129,29.9066],[-95.33138,29.91123],[-95.33384,29.91155],[-95.33711,29.91298],[-95.34123,29.91307],[-95.34133,29.91748],[-95.34113,29.91793],[-95.34108,29.92054],[-95.3396,29.9206],[-95.3384,29.92119],[-95.3373,29.9214],[-95.33567,29.9213],[-95.33421,29.9208]]]}},{"type":"Feature","properties":{"PRECINCT":"harris:795","COUNTY":"Harris"},"geometry":{"type":"Polygon","coordinates":[[[-95.37203,29.86019],[-95.37191,29.85389],[-95.37623,29.85386],[-95.37616,29.84969],[-95.38454,29.84946],[-95.38471,29.85944],[-95.38342,29.85926],[-95.3763,29.85941],[-95.37632,29.86016],[-95.37203,29.86019]]]}},{"type":"Feature","properties":{"PRECINCT":"harris:835","COUNTY":"Harris"},"geometry":{"type":"Polygon","coordinates":[[[-95.37203,29.86019],[-95.37632,29.86016],[-95.37643,29.86456],[-95.37211,29.86463],[-95.37203,29.86019]]]}},{"type":"Feature","properties":{"PRECINCT":"harris:864","COUNTY":"Harris"},"geometry":{"type":"Polygon","coordinates":[[[-95.43434,29.93512],[-95.4342,29.93206],[-95.41784,29.9322],[-95.41772,29.92852],[-95.41231,29.92859],[-95.41297,29.91828],[-95.41293,29.91505],[-95.44216,29.91459],[-95.45763,29.93453],[-95.43434,29.93512]]]}},{"type":"Feature","properties":{"PRECINCT":"harris:909","COUNTY":"Harris"},"geometry":{"type":"Polygon","coordinates":[[[-95.37114,29.86235],[-95.37206,29.86234],[-95.37211,29.86463],[-95.37119,29.86464],[-95.37114,29.86235]]]}},{"type":"Feature","properties":{"PRECINCT":"harris:910","COUNTY":"Harris"},"geometry":{"type":"Polygon","coordinates":[[[-95.3642,29.86474],[-95.36222,29.8592],[-95.3628,29.85916],[-95.36364,29.86251],[-95.3703,29.86236],[-95.37034,29.86465],[-95.3642,29.86474]]]}},{"type":"Feature","properties":{"PRECINCT":"harris:930","COUNTY":"Harris"},"geometry":{"type":"Polygon","coordinates":[[[-95.33087,29.84082],[-95.32714,29.84041],[-95.33164,29.82923],[-95.33243,29.82922],[-95.33096,29.83287],[-95.33386,29.83299],[-95.33467,29.82921],[-95.3352,29.82921],[-95.33466,29.83166],[-95.33522,29.83166],[-95.33494,29.83299],[-95.33777,29.83297],[-95.33784,29.83842],[-95.33698,29.83843],[-95.33701,29.84064],[-95.33087,29.84082]]]}},{"type":"Feature","properties":{"PRECINCT":"harris:937","COUNTY":"Harris"},"geometry":{"type":"Polygon","coordinates":[[[-95.3162,29.86667],[-95.31651,29.86667],[-95.31504,29.87031],[-95.31477,29.87031],[-95.3162,29.86667]]]}},{"type":"Feature","properties":{"PRECINCT":"harris:959","COUNTY":"Harris"},"geometry":{"type":"Polygon","coordinates":[[[-95.41198,29.9318],[-95.41269,29.91507],[-95.41293,29.91505],[-95.41297,29.91828],[-95.41231,29.92859],[-95.41772,29.92852],[-95.41771,29.93172],[-95.41198,29.9318]]]}},{"type":"Feature","properties":{"PRECINCT":"harris:989","COUNTY":"Harris"},"geometry":{"type":"Polygon","coordinates":[[[-95.39503,29.85332],[-95.395,29.84921],[-95.39786,29.85323],[-95.39503,29.85332]]]}}]}