{"type":"FeatureCollection","features":[{"type":"Feature","properties":{"PRECINCT":"dallas:1004","COUNTY":"Dallas"},"geometry":{"type":"Polygon","coordinates":[[[-96.73795,32.90248],[-96.73835,32.90042],[-96.74558,32.90048],[-96.7469,32.90086],[-96.74899,32.90255],[-96.74952,32.90269],[-96.74594,32.91191],[-96.74339,32.91692],[-96.73553,32.91154],[-96.73565,32.90808],[-96.73609,32.90752],[-96.73752,32.90672],[-96.73792,32.906],[-96.73795,32.90248]]]}},{"type":"Feature","properties":{"PRECINCT":"dallas:1039","COUNTY":"Dallas"},"geometry":{"type":"Polygon","coordinates":[[[-96.71776,32.89456],[-96.71789,32.89614],[-96.71371,32.89743],[-96.71159,32.89462],[-96.71776,32.89456]]]}},{"type":"Feature","properties":{"PRECINCT":"dallas:1040","COUNTY":"Dallas"},"geometry":{"type":"Polygon","coordinates":[[[-96.72586,32.90085],[-96.72466,32.89994],[-96.72244,32.89988],[-96.72041,32.89956],[-96.7198,32.89931],[-96.71911,32.89862],[-96.71853,32.89916],[-96.71772,32.90058],[-96.71627,32.89966],[-96.71371,32.89743],[-96.71789,32.89614],[-96.71789,32.89456],[-96.71513,32.89455],[-96.71519,32.89306],[-96.71791,32.89302],[-96.71792,32.89253],[-96.72035,32.89255],[-96.72121,32.89222],[-96.72432,32.89218],[-96.72601,32.89083],[-96.72967,32.88883],[-96.73063,32.88733],[-96.7306,32.88607],[-96.73354,32.88593],[-96.73301,32.88737],[-96.73192,32.88879],[-96.73202,32.88915],[-96.73144,32.88973],[-96.73081,32.89119],[-96.73105,32.89187],[-96.73088,32.89265],[-96.7313,32.89316],[-96.72993,32.89478],[-96.72937,32.8949],[-96.72899,32.89526],[-96.72902,32.89639],[-96.72969,32.89671],[-96.72987,32.89704],[-96.72911,32.89748],[-96.72913,32.89834],[-96.72846,32.89953],[-96.72756,32.90025],[-96.72639,32.90016],[-96.72586,32.90085]]]}},{"type":"Feature","properties":{"PRECINCT":"dallas:1041","COUNTY":"Dallas"},"geometry":{"type":"Polygon","coordinates":[[[-96.72685,32.90603],[-96.71772,32.90058],[-96.71853,32.89916],[-96.71911,32.89862],[-96.7198,32.89931],[-96.72041,32.89956],[-96.72244,32.89988],[-96.72466,32.89994],[-96.72586,32.90085],[-96.72639,32.90016],[-96.72716,32.9003],[-96.72797,32.90161],[-96.72735,32.90204],[-96.72733,32.90229],[-96.72832,32.90279],[-96.72811,32.9032],[-96.72824,32.90378],[-96.72765,32.90445],[-96.72768,32.9048],[-96.72687,32.90537],[-96.72685,32.90603]]]}},{"type":"Feature","properties":{"PRECINCT":"dallas:1043","COUNTY":"Dallas"},"geometry":{"type":"Polygon","coordinates":[[[-96.72987,32.89704],[-96.72899,32.89633],[-96.72899,32.89526],[-96.73012,32.8945],[-96.7339,32.89445],[-96.73676,32.89299],[-96.73791,32.89268],[-96.73919,32.8927],[-96.74088,32.89317],[-96.73946,32.89619],[-96.73805,32.90153],[-96.73786,32.90619],[-96.73736,32.90685],[-96.736,32.90759],[-96.7356,32.90824],[-96.73553,32.91154],[-96.72685,32.90603],[-96.72687,32.90537],[-96.72768,32.9048],[-96.72765,32.90445],[-96.72824,32.90378],[-96.72811,32.9032],[-96.72832,32.90279],[-96.72733,32.90229],[-96.72735,32.90204],[-96.72797,32.90161],[-96.72716,32.9003],[-96.72761,32.90023],[-96.72843,32.89958],[-96.72913,32.89834],[-96.72911,32.89748],[-96.72987,32.89704]]]}},{"type":"Feature","properties":{"PRECINCT":"dallas:1703","COUNTY":"Dallas"},"geometry":{"type":"Polygon","coordinates":[[[-96.6678,32.93123],[-96.66488,32.93088],[-96.66488,32.92887],[-96.66532,32.92688],[-96.66533,32.91636],[-96.6787,32.91655],[-96.68308,32.91726],[-96.68322,32.93034],[-96.68301,32.93128],[-96.6678,32.93123]]]}},{"type":"Feature","properties":{"PRECINCT":"dallas:1704","COUNTY":"Dallas"},"geometry":{"type":"Polygon","coordinates":[[[-96.68304,32.93118],[-96.68322,32.93034],[-96.68318,32.92389],[-96.7001,32.92401],[-96.70003,32.92797],[-96.69732,32.92794],[-96.69739,32.92701],[-96.69216,32.92705],[-96.69206,32.93139],[-96.68304,32.93118]]]}},{"type":"Feature","properties":{"PRECINCT":"dallas:1705","COUNTY":"Dallas"},"geometry":{"type":"Polygon","coordinates":[[[-96.69206,32.93139],[-96.69216,32.92705],[-96.69739,32.92701],[-96.69732,32.92794],[-96.70003,32.92797],[-96.70025,32.91664],[-96.70588,32.91671],[-96.70591,32.93133],[-96.70574,32.93149],[-96.70315,32.93131],[-96.69206,32.93139]]]}},{"type":"Feature","properties":{"PRECINCT":"dallas:1706","COUNTY":"Dallas"},"geometry":{"type":"Polygon","coordinates":[[[-96.68318,32.92389],[-96.68304,32.90931],[-96.70054,32.90917],[-96.7001,32.92401],[-96.68318,32.92389]]]}},{"type":"Feature","properties":{"PRECINCT":"dallas:1707","COUNTY":"Dallas"},"geometry":{"type":"Polygon","coordinates":[[[-96.67934,32.91665],[-96.66533,32.91636],[-96.66569,32.89778],[-96.66554,32.87155],[-96.66792,32.86829],[-96.67119,32.86995],[-96.67716,32.87139],[-96.67956,32.87232],[-96.68131,32.87341],[-96.68631,32.87766],[-96.68792,32.87869],[-96.68318,32.8788],[-96.68316,32.88594],[-96.6907,32.88596],[-96.69078,32.88995],[-96.69367,32.88999],[-96.69367,32.89457],[-96.69188,32.89457],[-96.69197,32.90405],[-96.69798,32.90227],[-96.69784,32.90889],[-96.70055,32.90895],[-96.70054,32.90917],[-96.68304,32.90931],[-96.68308,32.91726],[-96.67934,32.91665]]]}},{"type":"Feature","properties":{"PRECINCT":"dallas:1732","COUNTY":"Dallas"},"geometry":{"type":"Polygon","coordinates":[[[-96.65346,32.95159],[-96.64873,32.94756],[-96.64831,32.94685],[-96.64796,32.94518],[-96.66198,32.94534],[-96.66531,32.94471],[-96.66549,32.9515],[-96.65387,32.95139],[-96.65346,32.95159]]]}},{"type":"Feature","properties":{"PRECINCT":"dallas:1733","COUNTY":"Dallas"},"geometry":{"type":"Polygon","coordinates":[[[-96.64816,32.94518],[-96.64832,32.93117],[-96.64969,32.93081],[-96.657,32.9308],[-96.65894,32.93049],[-96.66254,32.93054],[-96.66488,32.93088],[-96.66524,32.93244],[-96.66531,32.94471],[-96.66198,32.94534],[-96.64816,32.94518]]]}},{"type":"Feature","properties":{"PRECINCT":"dallas:1748","COUNTY":"Dallas"},"geometry":{"type":"Polygon","coordinates":[[[-96.68277,32.96068],[-96.67386,32.9607],[-96.67388,32.95146],[-96.67356,32.95148],[-96.67358,32.94587],[-96.67319,32.94487],[-96.68291,32.94532],[-96.68277,32.96068]]]}},{"type":"Feature","properties":{"PRECINCT":"dallas:1749","COUNTY":"Dallas"},"geometry":{"type":"Polygon","coordinates":[[[-96.64289,32.965],[-96.65624,32.95387],[-96.65346,32.95159],[-96.65361,32.95144],[-96.66549,32.9515],[-96.66531,32.94471],[-96.67319,32.94487],[-96.67358,32.94587],[-96.67356,32.95148],[-96.67388,32.95146],[-96.67386,32.9607],[-96.66965,32.96076],[-96.6675,32.95955],[-96.66409,32.95956],[-96.66241,32.9589],[-96.64866,32.97039],[-96.64199,32.96625],[-96.64289,32.965]]]}},{"type":"Feature","properties":{"PRECINCT":"dallas:1750","COUNTY":"Dallas"},"geometry":{"type":"Polygon","coordinates":[[[-96.68291,32.94532],[-96.66531,32.94471],[-96.66524,32.93244],[-96.66488,32.93088],[-96.6678,32.93123],[-96.68301,32.93128],[-96.68291,32.94532]]]}},{"type":"Feature","properties":{"PRECINCT":"dallas:2017","COUNTY":"Dallas"},"geometry":{"type":"Polygon","coordinates":[[[-96.76921,32.92122],[-96.76938,32.90935],[-96.7718,32.9094],[-96.77375,32.90971],[-96.77415,32.91031],[-96.77528,32.91095],[-96.77597,32.91225],[-96.77567,32.917],[-96.77604,32.9177],[-96.777,32.91856],[-96.77717,32.91916],[-96.77702,32.92007],[-96.77488,32.91994],[-96.77395,32.92061],[-96.77248,32.92122],[-96.76921,32.92122]]]}},{"type":"Feature","properties":{"PRECINCT":"dallas:2020","COUNTY":"Dallas"},"geometry":{"type":"Polygon","coordinates":[[[-96.77421,32.90975],[-96.77134,32.90937],[-96.76705,32.90934],[-96.76712,32.90688],[-96.76854,32.90689],[-96.76867,32.8987],[-96.76946,32.89872],[-96.76949,32.89637],[-96.77229,32.89594],[-96.77384,32.89534],[-96.77447,32.89482],[-96.77507,32.89318],[-96.77508,32.89002],[-96.77702,32.88995],[-96.77735,32.89114],[-96.77863,32.89275],[-96.78173,32.89075],[-96.78187,32.89126],[-96.78257,32.89187],[-96.77955,32.89387],[-96.77962,32.89544],[-96.7794,32.89606],[-96.77973,32.89674],[-96.77444,32.89856],[-96.77483,32.90108],[-96.78832,32.89961],[-96.78837,32.90322],[-96.78663,32.90628],[-96.78653,32.90986],[-96.77421,32.90975]]]}},{"type":"Feature","properties":{"PRECINCT":"dallas:2058","COUNTY":"Dallas"},"geometry":{"type":"Polygon","coordinates":[[[-96.77797,32.93482],[-96.77419,32.93019],[-96.77457,32.92903],[-96.76913,32.92693],[-96.7693,32.92442],[-96.78068,32.92434],[-96.78631,32.92487],[-96.78627,32.93324],[-96.78378,32.9332],[-96.78252,32.93222],[-96.77797,32.93482]]]}},{"type":"Feature","properties":{"PRECINCT":"dallas:2080","COUNTY":"Dallas"},"geometry":{"type":"Polygon","coordinates":[[[-96.76904,32.93288],[-96.76913,32.92693],[-96.77457,32.92903],[-96.77416,32.9299],[-96.77442,32.93059],[-96.77115,32.93261],[-96.76904,32.93288]]]}},{"type":"Feature","properties":{"PRECINCT":"dallas:2090","COUNTY":"Dallas"},"geometry":{"type":"Polygon","coordinates":[[[-96.77659,32.94665],[-96.7768,32.94612],[-96.77838,32.94611],[-96.77859,32.94667],[-96.77861,32.95035],[-96.77496,32.95067],[-96.77497,32.9498],[-96.77686,32.94972],[-96.77659,32.94665]]]}},{"type":"Feature","properties":{"PRECINCT":"dallas:2091","COUNTY":"Dallas"},"geometry":{"type":"Polygon","coordinates":[[[-96.77416,32.93776],[-96.77354,32.93696],[-96.77153,32.93753],[-96.77036,32.93848],[-96.76901,32.93859],[-96.76904,32.93288],[-96.77115,32.93261],[-96.77442,32.93059],[-96.77917,32.93639],[-96.77917,32.93715],[-96.77799,32.94153],[-96.77805,32.94309],[-96.77304,32.94306],[-96.77305,32.9399],[-96.77416,32.93989],[-96.77416,32.93776]]]}},{"type":"Feature","properties":{"PRECINCT":"dallas:2092","COUNTY":"Dallas"},"geometry":{"type":"Polygon","coordinates":[[[-96.76117,32.89793],[-96.75348,32.89352],[-96.75471,32.89118],[-96.75669,32.88904],[-96.75743,32.88968],[-96.75912,32.89053],[-96.75917,32.89149],[-96.75983,32.89209],[-96.7605,32.89328],[-96.76029,32.89461],[-96.7617,32.89532],[-96.76188,32.89583],[-96.76149,32.89666],[-96.76218,32.89746],[-96.76286,32.89758],[-96.76333,32.89851],[-96.76117,32.89793]]]}},{"type":"Feature","properties":{"PRECINCT":"dallas:2108","COUNTY":"Dallas"},"geometry":{"type":"Polygon","coordinates":[[[-96.76899,32.95085],[-96.76902,32.94585],[-96.77347,32.94598],[-96.77304,32.94306],[-96.77805,32.94309],[-96.77807,32.94544],[-96.77831,32.94599],[-96.7768,32.94612],[-96.77654,32.9468],[-96.77686,32.94972],[-96.77497,32.9498],[-96.77496,32.95067],[-96.77073,32.95063],[-96.76899,32.95085]]]}},{"type":"Feature","properties":{"PRECINCT":"dallas:2119","COUNTY":"Dallas"},"geometry":{"type":"Polygon","coordinates":[[[-96.77347,32.94598],[-96.76902,32.94585],[-96.76901,32.93859],[-96.77054,32.93842],[-96.77146,32.93756],[-96.77354,32.93696],[-96.77416,32.93776],[-96.77417,32.93934],[-96.77416,32.93989],[-96.77305,32.9399],[-96.77305,32.94398],[-96.77347,32.94598]]]}},{"type":"Feature","properties":{"PRECINCT":"dallas:2120","COUNTY":"Dallas"},"geometry":{"type":"Polygon","coordinates":[[[-96.71815,32.9254],[-96.71809,32.92305],[-96.71764,32.92068],[-96.71763,32.91376],[-96.71807,32.91105],[-96.71772,32.90955],[-96.72582,32.90966],[-96.72815,32.90925],[-96.72846,32.90996],[-96.72822,32.91051],[-96.72834,32.91107],[-96.7278,32.91201],[-96.72881,32.91288],[-96.729,32.91347],[-96.72863,32.91442],[-96.72932,32.91466],[-96.72989,32.91564],[-96.73075,32.91612],[-96.73024,32.91686],[-96.73062,32.91845],[-96.73013,32.91915],[-96.7305,32.91942],[-96.73036,32.92011],[-96.72963,32.92138],[-96.73049,32.92258],[-96.73048,32.92339],[-96.72977,32.92395],[-96.72938,32.92556],[-96.71815,32.9254]]]}},{"type":"Feature","properties":{"PRECINCT":"dallas:2121","COUNTY":"Dallas"},"geometry":{"type":"Polygon","coordinates":[[[-96.72149,32.90403],[-96.72236,32.90337],[-96.73211,32.90923],[-96.72801,32.90925],[-96.72582,32.90966],[-96.71789,32.90955],[-96.71781,32.90862],[-96.71996,32.90788],[-96.72028,32.90642],[-96.72101,32.90595],[-96.72064,32.9054],[-96.72149,32.90403]]]}},{"type":"Feature","properties":{"PRECINCT":"dallas:2122","COUNTY":"Dallas"},"geometry":{"type":"Polygon","coordinates":[[[-96.70886,32.91032],[-96.7087,32.90915],[-96.71479,32.90919],[-96.71597,32.90951],[-96.71772,32.90955],[-96.71807,32.91105],[-96.71763,32.91376],[-96.71764,32.92068],[-96.71796,32.92298],[-96.71521,32.9217],[-96.71153,32.9195],[-96.70886,32.91032]]]}},{"type":"Feature","properties":{"PRECINCT":"dallas:2123","COUNTY":"Dallas"},"geometry":{"type":"Polygon","coordinates":[[[-96.74838,32.93414],[-96.74412,32.93398],[-96.74319,32.93489],[-96.74123,32.93473],[-96.74043,32.93596],[-96.73825,32.93604],[-96.73537,32.93511],[-96.74041,32.92307],[-96.73879,32.92311],[-96.73881,32.922],[-96.73924,32.9205],[-96.73902,32.91991],[-96.73792,32.91899],[-96.73781,32.91853],[-96.73807,32.91797],[-96.73882,32.91768],[-96.7388,32.91685],[-96.73553,32.91677],[-96.73552,32.92302],[-96.73594,32.92387],[-96.73399,32.92493],[-96.7325,32.92533],[-96.73256,32.92551],[-96.72938,32.92556],[-96.72977,32.92395],[-96.73048,32.92339],[-96.73049,32.92258],[-96.72963,32.92138],[-96.73036,32.92011],[-96.7305,32.91942],[-96.73013,32.91915],[-96.73062,32.91845],[-96.73024,32.91686],[-96.73075,32.91612],[-96.72989,32.91564],[-96.72932,32.91466],[-96.72863,32.91442],[-96.729,32.91347],[-96.72881,32.91288],[-96.7278,32.91201],[-96.72834,32.91107],[-96.72822,32.91051],[-96.72846,32.90996],[-96.72815,32.90925],[-96.73211,32.90923],[-96.74339,32.91692],[-96.74371,32.91634],[-96.74807,32.91901],[-96.74534,32.91791],[-96.7537,32.92224],[-96.75718,32.92341],[-96.75886,32.92372],[-96.76131,32.92394],[-96.76427,32.92387],[-96.76185,32.92691],[-96.75996,32.92876],[-96.74808,32.93831],[-96.74838,32.93414]]]}},{"type":"Feature","properties":{"PRECINCT":"dallas:2124","COUNTY":"Dallas"},"geometry":{"type":"Polygon","coordinates":[[[-96.70041,32.90893],[-96.69784,32.90889],[-96.69798,32.90227],[-96.69197,32.90405],[-96.69188,32.89457],[-96.69367,32.89457],[-96.69367,32.88999],[-96.69078,32.88995],[-96.6907,32.88596],[-96.68316,32.88594],[-96.68318,32.8788],[-96.68792,32.87869],[-96.69698,32.88412],[-96.70611,32.88881],[-96.70955,32.89178],[-96.71293,32.89658],[-96.71458,32.8983],[-96.71656,32.89987],[-96.72236,32.90337],[-96.72149,32.90403],[-96.72064,32.9054],[-96.72101,32.90595],[-96.72028,32.90642],[-96.71996,32.90788],[-96.71781,32.90862],[-96.71789,32.90955],[-96.71597,32.90951],[-96.71479,32.90919],[-96.70685,32.90914],[-96.70585,32.90888],[-96.70415,32.90913],[-96.70054,32.90917],[-96.70041,32.90893]]]}},{"type":"Feature","properties":{"PRECINCT":"dallas:2125","COUNTY":"Dallas"},"geometry":{"type":"Polygon","coordinates":[[[-96.76,32.92385],[-96.75718,32.92341],[-96.75275,32.92183],[-96.74534,32.91791],[-96.74807,32.91901],[-96.74371,32.91634],[-96.74588,32.91204],[-96.74698,32.90924],[-96.76938,32.90935],[-96.76931,32.92398],[-96.76,32.92385]]]}},{"type":"Feature","properties":{"PRECINCT":"dallas:2126","COUNTY":"Dallas"},"geometry":{"type":"Polygon","coordinates":[[[-96.73554,32.92316],[-96.73553,32.91677],[-96.73874,32.91679],[-96.73882,32.91768],[-96.73807,32.91797],[-96.73781,32.91853],[-96.73792,32.91899],[-96.73902,32.91991],[-96.73924,32.9205],[-96.73881,32.922],[-96.73879,32.92311],[-96.74041,32.92307],[-96.74031,32.92328],[-96.73836,32.92333],[-96.73704,32.92361],[-96.73623,32.92546],[-96.73256,32.92551],[-96.7325,32.92533],[-96.73399,32.92493],[-96.73594,32.92387],[-96.73554,32.92316]]]}},{"type":"Feature","properties":{"PRECINCT":"dallas:2127","COUNTY":"Dallas"},"geometry":{"type":"Polygon","coordinates":[[[-96.7059,32.93123],[-96.70588,32.91671],[-96.70025,32.91664],[-96.70054,32.90917],[-96.70415,32.90913],[-96.70585,32.90888],[-96.70642,32.90911],[-96.7087,32.90915],[-96.70886,32.91032],[-96.71153,32.9195],[-96.71521,32.9217],[-96.71809,32.92305],[-96.71813,32.93129],[-96.7059,32.93123]]]}},{"type":"Feature","properties":{"PRECINCT":"dallas:2128","COUNTY":"Dallas"},"geometry":{"type":"Polygon","coordinates":[[[-96.74698,32.90924],[-96.74925,32.9031],[-96.75091,32.90042],[-96.75133,32.89653],[-96.75348,32.89352],[-96.76117,32.89793],[-96.76333,32.89851],[-96.76446,32.90078],[-96.76587,32.90145],[-96.76653,32.90255],[-96.76655,32.90333],[-96.76739,32.90458],[-96.76782,32.90506],[-96.76854,32.90535],[-96.76854,32.90689],[-96.76712,32.90688],[-96.76705,32.90934],[-96.74698,32.90924]]]}},{"type":"Feature","properties":{"PRECINCT":"dallas:2129","COUNTY":"Dallas"},"geometry":{"type":"Polygon","coordinates":[[[-96.7612,32.93068],[-96.76119,32.92851],[-96.76095,32.92842],[-96.76001,32.92922],[-96.75996,32.92876],[-96.76185,32.92691],[-96.76427,32.92387],[-96.76931,32.92398],[-96.76908,32.93026],[-96.76709,32.93016],[-96.76591,32.92985],[-96.76568,32.93052],[-96.76534,32.93068],[-96.7612,32.93068]]]}},{"type":"Feature","properties":{"PRECINCT":"dallas:2130","COUNTY":"Dallas"},"geometry":{"type":"Polygon","coordinates":[[[-96.74814,32.93997],[-96.74808,32.93831],[-96.75996,32.92876],[-96.76001,32.92922],[-96.76111,32.92842],[-96.76119,32.93271],[-96.76294,32.93277],[-96.76472,32.93372],[-96.76471,32.93444],[-96.76405,32.93645],[-96.76398,32.93984],[-96.74814,32.93997]]]}},{"type":"Feature","properties":{"PRECINCT":"dallas:2131","COUNTY":"Dallas"},"geometry":{"type":"Polygon","coordinates":[[[-96.76941,32.89162],[-96.77004,32.88773],[-96.77029,32.88777],[-96.76991,32.89031],[-96.77276,32.89029],[-96.77314,32.88985],[-96.77339,32.89001],[-96.77508,32.89002],[-96.77507,32.89318],[-96.77456,32.89471],[-96.77384,32.89534],[-96.77229,32.89594],[-96.76949,32.89637],[-96.76946,32.89786],[-96.76941,32.89162]]]}},{"type":"Feature","properties":{"PRECINCT":"dallas:2132","COUNTY":"Dallas"},"geometry":{"type":"Polygon","coordinates":[[[-96.76398,32.93984],[-96.76405,32.93645],[-96.76471,32.93444],[-96.76472,32.93372],[-96.76294,32.93277],[-96.76119,32.93271],[-96.7612,32.93068],[-96.76534,32.93068],[-96.76568,32.93052],[-96.76591,32.92985],[-96.76709,32.93016],[-96.76908,32.93026],[-96.76899,32.93987],[-96.76398,32.93984]]]}},{"type":"Feature","properties":{"PRECINCT":"dallas:2511","COUNTY":"Dallas"},"geometry":{"type":"Polygon","coordinates":[[[-96.69988,32.95309],[-96.69997,32.96058],[-96.68754,32.96052],[-96.68754,32.96066],[-96.68277,32.96068],[-96.68285,32.95308],[-96.69988,32.95309]]]}},{"type":"Feature","properties":{"PRECINCT":"dallas:2512","COUNTY":"Dallas"},"geometry":{"type":"Polygon","coordinates":[[[-96.68291,32.94532],[-96.69995,32.94532],[-96.69998,32.95309],[-96.68285,32.95308],[-96.68291,32.94532]]]}},{"type":"Feature","properties":{"PRECINCT":"dallas:2513","COUNTY":"Dallas"},"geometry":{"type":"Polygon","coordinates":[[[-96.6829,32.94516],[-96.68302,32.93124],[-96.70001,32.93141],[-96.69995,32.94532],[-96.6829,32.94516]]]}},{"type":"Feature","properties":{"PRECINCT":"dallas:2514","COUNTY":"Dallas"},"geometry":{"type":"Polygon","coordinates":[[[-96.70862,32.94536],[-96.69995,32.94532],[-96.70001,32.93141],[-96.70315,32.93131],[-96.70574,32.93149],[-96.7059,32.93123],[-96.713,32.93136],[-96.7151,32.94836],[-96.71274,32.94815],[-96.70862,32.94536]]]}},{"type":"Feature","properties":{"PRECINCT":"dallas:2517","COUNTY":"Dallas"},"geometry":{"type":"Polygon","coordinates":[[[-96.73095,32.9389],[-96.72852,32.9384],[-96.71962,32.93838],[-96.71843,32.93799],[-96.71856,32.93784],[-96.71832,32.93794],[-96.7178,32.93768],[-96.71352,32.93541],[-96.713,32.93136],[-96.71219,32.93125],[-96.71813,32.93129],[-96.71814,32.92933],[-96.71876,32.92933],[-96.71885,32.93019],[-96.72121,32.93021],[-96.72113,32.93082],[-96.72041,32.93176],[-96.72303,32.93311],[-96.73281,32.9332],[-96.73454,32.92928],[-96.73317,32.92917],[-96.7333,32.92718],[-96.73546,32.92718],[-96.73704,32.92361],[-96.73836,32.92333],[-96.74031,32.92328],[-96.73369,32.93895],[-96.73095,32.9389]]]}},{"type":"Feature","properties":{"PRECINCT":"dallas:2518","COUNTY":"Dallas"},"geometry":{"type":"Polygon","coordinates":[[[-96.72119,32.93068],[-96.72121,32.93021],[-96.71885,32.93019],[-96.71876,32.92933],[-96.71814,32.92933],[-96.71815,32.92543],[-96.73623,32.92546],[-96.73546,32.92718],[-96.7333,32.92718],[-96.73317,32.92917],[-96.73454,32.92928],[-96.73281,32.9332],[-96.72303,32.93311],[-96.72041,32.93176],[-96.72119,32.93068]]]}},{"type":"Feature","properties":{"PRECINCT":"dallas:2519","COUNTY":"Dallas"},"geometry":{"type":"Polygon","coordinates":[[[-96.75315,32.95122],[-96.75308,32.94976],[-96.7523,32.9489],[-96.75306,32.94816],[-96.75445,32.9478],[-96.75443,32.94717],[-96.75495,32.94575],[-96.75499,32.94388],[-96.75613,32.94246],[-96.75644,32.94161],[-96.75656,32.93997],[-96.76899,32.93987],[-96.76898,32.95099],[-96.76603,32.95128],[-96.75315,32.95122]]]}},{"type":"Feature","properties":{"PRECINCT":"dallas:2520","COUNTY":"Dallas"},"geometry":{"type":"Polygon","coordinates":[[[-96.72982,32.94832],[-96.7151,32.94836],[-96.71352,32.93541],[-96.7178,32.93768],[-96.71832,32.93794],[-96.71856,32.93784],[-96.71843,32.93799],[-96.71962,32.93838],[-96.72852,32.9384],[-96.73119,32.93894],[-96.73369,32.93895],[-96.73537,32.93511],[-96.73869,32.9361],[-96.74043,32.93596],[-96.74123,32.93473],[-96.74319,32.93489],[-96.74364,32.93426],[-96.74433,32.93392],[-96.74838,32.93414],[-96.74813,32.93761],[-96.7456,32.93946],[-96.74551,32.93976],[-96.74594,32.94],[-96.73772,32.94669],[-96.73647,32.94811],[-96.73482,32.95066],[-96.72982,32.94832]]]}},{"type":"Feature","properties":{"PRECINCT":"dallas:2521","COUNTY":"Dallas"},"geometry":{"type":"Polygon","coordinates":[[[-96.73474,32.95079],[-96.73647,32.94811],[-96.73772,32.94669],[-96.74594,32.94],[-96.74551,32.93976],[-96.7456,32.93946],[-96.74813,32.93761],[-96.74814,32.93997],[-96.75656,32.93997],[-96.75644,32.94161],[-96.75613,32.94246],[-96.75499,32.94388],[-96.75495,32.94575],[-96.75443,32.94717],[-96.75445,32.9478],[-96.75306,32.94816],[-96.7523,32.9489],[-96.75308,32.94976],[-96.75315,32.95122],[-96.73506,32.95076],[-96.73484,32.95109],[-96.73474,32.95079]]]}}]}