{"type":"FeatureCollection","features":[{"type":"Feature","properties":{"PRECINCT":"1","VTD":"0001"},"geometry":{"type":"Polygon","coordinates":[[[-96.645238,28.620032],[-96.637768,28.614641],[-96.631148,28.61921],[-96.625453,28.612756],[-96.628323,28.610754],[-96.627614,28.609974],[-96.629683,28.608424],[-96.637192,28.600309],[-96.644864,28.609589],[-96.645065,28.610178],[-96.646874,28.610339],[-96.648914,28.608987],[-96.649086,28.609251],[-96.646403,28.611234],[-96.646536,28.611318],[-96.647406,28.610835],[-96.655853,28.611791],[-96.655945,28.611132],[-96.657751,28.611292],[-96.652862,28.614677],[-96.651329,28.612802],[-96.643196,28.618258],[-96.645454,28.619874],[-96.645238,28.620032]]]}},{"type":"Feature","properties":{"PRECINCT":"2","VTD":"0002"},"geometry":{"type":"Polygon","coordinates":[[[-96.637192,28.600309],[-96.628101,28.58916],[-96.623011,28.592377],[-96.6203,28.593686],[-96.616771,28.589442],[-96.615628,28.589583],[-96.614214,28.588951],[-96.613223,28.587791],[-96.61326,28.587494],[-96.612456,28.587054],[-96.612294,28.586559],[-96.612705,28.586493],[-96.612238,28.58646],[-96.610799,28.584147],[-96.60831,28.583573],[-96.609177,28.582816],[-96.609221,28.582343],[-96.60866,28.582904],[-96.60717,28.583389],[-96.602712,28.582453],[-96.603141,28.582091],[-96.606529,28.581277],[-96.609925,28.581897],[-96.610846,28.581451],[-96.611033,28.580885],[-96.610821,28.580605],[-96.610647,28.581308],[-96.609632,28.581611],[-96.607999,28.581095],[-96.60605,28.581035],[-96.602306,28.58207],[-96.594719,28.583429],[-96.593012,28.583254],[-96.592096,28.582946],[-96.591547,28.582088],[-96.591485,28.581055],[-96.590899,28.579509],[-96.590836,28.577557],[-96.591116,28.575935],[-96.592044,28.574093],[-96.595245,28.572481],[-96.595681,28.572008],[-96.592691,28.570881],[-96.592143,28.570167],[-96.592049,28.56756],[-96.592161,28.567247],[-96.592784,28.566933],[-96.592572,28.566235],[-96.592889,28.566075],[-96.593556,28.566323],[-96.594365,28.56541],[-96.594278,28.56525],[-96.59378,28.565465],[-96.593967,28.565129],[-96.59363,28.564717],[-96.59401,28.564437],[-96.594284,28.564624],[-96.594309,28.564981],[-96.594502,28.564788],[-96.594701,28.564909],[-96.595293,28.564722],[-96.595119,28.563848],[-96.596227,28.563683],[-96.596588,28.563023],[-96.597236,28.562583],[-96.597242,28.562011],[-96.597578,28.561719],[-96.598276,28.561648],[-96.599297,28.560757],[-96.600187,28.560625],[-96.599645,28.559102],[-96.600673,28.559332],[-96.601146,28.558936],[-96.601663,28.558947],[-96.601875,28.558738],[-96.602373,28.559007],[-96.604191,28.558094],[-96.60398,28.557621],[-96.604789,28.556851],[-96.605244,28.556697],[-96.605256,28.556087],[-96.604577,28.555378],[-96.604346,28.554613],[-96.605771,28.550951],[-96.606125,28.549405],[-96.62309,28.538262],[-96.575017,28.480934],[-96.57402,28.480232],[-96.572882,28.47978],[-96.55914,28.475644],[-96.557928,28.475121],[-96.555875,28.473674],[-96.558251,28.470689],[-96.561682,28.468149],[-96.575635,28.462109],[-96.578347,28.46198],[-96.579095,28.462353],[-96.579407,28.462264],[-96.580084,28.460972],[-96.581478,28.459249],[-96.582908,28.459166],[-96.584515,28.459918],[-96.589021,28.463665],[-96.590197,28.465267],[-96.590368,28.466542],[-96.591368,28.467041],[-96.592049,28.467054],[-96.594253,28.466315],[-96.594912,28.465672],[-96.595242,28.464825],[-96.596474,28.465012],[-96.597196,28.465616],[-96.59836,28.465352],[-96.599549,28.465726],[-96.600208,28.465341],[-96.600612,28.464428],[-96.601564,28.463751],[-96.603026,28.463212],[-96.605312,28.463429],[-96.605791,28.463686],[-96.606329,28.465077],[-96.6077,28.465883],[-96.609773,28.467659],[-96.611889,28.467768],[-96.612293,28.467471],[-96.612704,28.467652],[-96.613233,28.468263],[-96.614414,28.471345],[-96.615422,28.472043],[-96.617408,28.472339],[-96.618587,28.472894],[-96.620388,28.47213],[-96.621056,28.472067],[-96.623731,28.473678],[-96.62528,28.47399],[-96.626351,28.475182],[-96.626318,28.476905],[-96.626115,28.477287],[-96.6271,28.478445],[-96.632226,28.479058],[-96.631901,28.479547],[-96.631882,28.48041],[-96.632342,28.480916],[-96.632429,28.481626],[-96.633449,28.482973],[-96.634009,28.483194],[-96.633996,28.483793],[-96.633728,28.483941],[-96.633908,28.484277],[-96.634251,28.484338],[-96.634891,28.485009],[-96.634897,28.485361],[-96.635563,28.485652],[-96.635631,28.485916],[-96.635283,28.486444],[-96.635686,28.488358],[-96.635157,28.488721],[-96.634964,28.489205],[-96.634615,28.489034],[-96.634428,28.490095],[-96.635205,28.490997],[-96.63485,28.491283],[-96.634632,28.491959],[-96.634818,28.494132],[-96.637717,28.496008],[-96.638595,28.496294],[-96.639466,28.497175],[-96.640275,28.497631],[-96.641507,28.498765],[-96.641768,28.499447],[-96.643409,28.501137],[-96.644667,28.501814],[-96.646883,28.502242],[-96.645698,28.506968],[-96.633727,28.566143],[-96.634554,28.567333],[-96.646719,28.5751],[-96.65039,28.578042],[-96.651229,28.579024],[-96.652724,28.578156],[-96.653769,28.578145],[-96.65432,28.57849],[-96.65496,28.578547],[-96.657071,28.581328],[-96.652121,28.584607],[-96.645783,28.590263],[-96.644652,28.591684],[-96.648994,28.592967],[-96.649499,28.593885],[-96.649255,28.59443],[-96.649448,28.595276],[-96.650183,28.595766],[-96.650201,28.596448],[-96.649409,28.597111],[-96.648883,28.597361],[-96.648598,28.597279],[-96.646081,28.598935],[-96.642468,28.594584],[-96.637192,28.600309]]]}},{"type":"Feature","properties":{"PRECINCT":"3","VTD":"0003"},"geometry":{"type":"Polygon","coordinates":[[[-96.59468,28.633074],[-96.573353,28.602264],[-96.57035,28.597389],[-96.500252,28.544256],[-96.460278,28.521816],[-96.484119,28.510878],[-96.484768,28.508574],[-96.486765,28.509496],[-96.487761,28.510348],[-96.488172,28.510332],[-96.488508,28.509325],[-96.488836,28.509387],[-96.490494,28.507953],[-96.504385,28.500278],[-96.505697,28.498711],[-96.511985,28.493143],[-96.517615,28.489309],[-96.521032,28.487306],[-96.523296,28.486259],[-96.528031,28.484771],[-96.533618,28.483716],[-96.536223,28.483453],[-96.541804,28.483422],[-96.548775,28.484092],[-96.549786,28.484089],[-96.551073,28.483505],[-96.553422,28.481748],[-96.555359,28.479197],[-96.555346,28.4787],[-96.554189,28.47775],[-96.55405,28.476807],[-96.554612,28.475498],[-96.555875,28.473674],[-96.557928,28.475121],[-96.55914,28.475644],[-96.572882,28.47978],[-96.57402,28.480232],[-96.575017,28.480934],[-96.62309,28.538262],[-96.606125,28.549405],[-96.605771,28.550951],[-96.604346,28.554613],[-96.604577,28.555378],[-96.605256,28.556087],[-96.605244,28.556697],[-96.604789,28.556851],[-96.60398,28.557621],[-96.604191,28.558094],[-96.602373,28.559007],[-96.601875,28.558738],[-96.601663,28.558947],[-96.601146,28.558936],[-96.600673,28.559332],[-96.599645,28.559102],[-96.600187,28.560625],[-96.599297,28.560757],[-96.598276,28.561648],[-96.597578,28.561719],[-96.597242,28.562011],[-96.597236,28.562583],[-96.596588,28.563023],[-96.596227,28.563683],[-96.595119,28.563848],[-96.595293,28.564722],[-96.594701,28.564909],[-96.594502,28.564788],[-96.594309,28.564981],[-96.594284,28.564624],[-96.59401,28.564437],[-96.59363,28.564717],[-96.593967,28.565129],[-96.59378,28.565465],[-96.594278,28.56525],[-96.594365,28.56541],[-96.593612,28.566284],[-96.592889,28.566075],[-96.592572,28.566235],[-96.592784,28.566933],[-96.592161,28.567247],[-96.592049,28.56756],[-96.592018,28.569523],[-96.592242,28.570376],[-96.592953,28.571013],[-96.595681,28.572008],[-96.595245,28.572481],[-96.592044,28.574093],[-96.591116,28.575935],[-96.590836,28.577612],[-96.590899,28.579509],[-96.591485,28.581055],[-96.591604,28.582226],[-96.591971,28.58288],[-96.59341,28.58332],[-96.594719,28.583429],[-96.597285,28.583039],[-96.602306,28.58207],[-96.60605,28.581035],[-96.607999,28.581095],[-96.609632,28.581611],[-96.610647,28.581308],[-96.610927,28.580649],[-96.610846,28.581451],[-96.609925,28.581897],[-96.606529,28.581277],[-96.603141,28.582091],[-96.602712,28.582453],[-96.60717,28.583389],[-96.60866,28.582904],[-96.609221,28.582343],[-96.609177,28.582816],[-96.60831,28.583573],[-96.610799,28.584147],[-96.612238,28.58646],[-96.611385,28.588979],[-96.611722,28.591025],[-96.611374,28.591322],[-96.610807,28.5913],[-96.610969,28.592141],[-96.611605,28.592333],[-96.611742,28.592014],[-96.612066,28.59219],[-96.614078,28.59142],[-96.614414,28.592008],[-96.614496,28.594323],[-96.614833,28.595412],[-96.619942,28.595102],[-96.620092,28.596042],[-96.614927,28.59655],[-96.614603,28.597056],[-96.614697,28.597496],[-96.61441,28.597617],[-96.614043,28.596798],[-96.613388,28.596407],[-96.612907,28.592938],[-96.612701,28.592872],[-96.612203,28.593175],[-96.611643,28.594033],[-96.61155,28.597167],[-96.612716,28.59787],[-96.613408,28.598904],[-96.613577,28.601576],[-96.613864,28.602099],[-96.613802,28.602401],[-96.613216,28.602792],[-96.614107,28.602539],[-96.614905,28.604034],[-96.615192,28.603979],[-96.615491,28.604501],[-96.615878,28.604633],[-96.616632,28.60642],[-96.617019,28.606959],[-96.617424,28.606942],[-96.617705,28.607376],[-96.617905,28.609383],[-96.618204,28.609994],[-96.618784,28.61029],[-96.620025,28.611956],[-96.619489,28.613463],[-96.619057,28.613887],[-96.617894,28.613782],[-96.61772,28.614013],[-96.617898,28.614426],[-96.618537,28.614612],[-96.619639,28.614337],[-96.619309,28.614101],[-96.620057,28.613523],[-96.620081,28.613089],[-96.62043,28.612885],[-96.620823,28.613572],[-96.620119,28.614244],[-96.620879,28.61382],[-96.62116,28.614111],[-96.62007,28.614678],[-96.619577,28.614684],[-96.619739,28.615063],[-96.620444,28.615228],[-96.62045,28.615613],[-96.619902,28.615833],[-96.620425,28.616141],[-96.621728,28.615794],[-96.621777,28.615013],[-96.622039,28.614859],[-96.622625,28.615826],[-96.622077,28.616145],[-96.621354,28.616206],[-96.620893,28.616564],[-96.620993,28.616866],[-96.6228,28.616041],[-96.623255,28.616854],[-96.622077,28.617355],[-96.621909,28.617207],[-96.621255,28.617619],[-96.621361,28.617883],[-96.61971,28.618934],[-96.619816,28.619231],[-96.606733,28.626232],[-96.59468,28.633074]]]}},{"type":"Feature","properties":{"PRECINCT":"4","VTD":"0004"},"geometry":{"type":"Polygon","coordinates":[[[-96.633514,28.623215],[-96.617304,28.60491],[-96.616333,28.605617],[-96.615878,28.604633],[-96.615491,28.604501],[-96.615192,28.603979],[-96.614905,28.604034],[-96.614107,28.602539],[-96.613216,28.602792],[-96.613802,28.602401],[-96.613864,28.602099],[-96.613577,28.601576],[-96.613408,28.598904],[-96.612716,28.59787],[-96.61155,28.597167],[-96.611643,28.594033],[-96.612203,28.593175],[-96.612882,28.592883],[-96.613388,28.596407],[-96.614043,28.596798],[-96.61441,28.597617],[-96.614697,28.597496],[-96.614603,28.597056],[-96.614927,28.59655],[-96.620092,28.596042],[-96.62011,28.595591],[-96.619792,28.59508],[-96.614758,28.595368],[-96.614496,28.594323],[-96.614414,28.592008],[-96.614078,28.59142],[-96.612066,28.59219],[-96.611742,28.592014],[-96.611605,28.592333],[-96.610969,28.592141],[-96.610807,28.5913],[-96.611374,28.591322],[-96.611722,28.591025],[-96.611385,28.588979],[-96.612275,28.586438],[-96.612705,28.586493],[-96.612294,28.586559],[-96.612456,28.587054],[-96.61326,28.587494],[-96.613223,28.587791],[-96.614214,28.588951],[-96.615628,28.589583],[-96.616771,28.589442],[-96.6203,28.593686],[-96.623011,28.592377],[-96.628101,28.58916],[-96.637192,28.600309],[-96.629683,28.608424],[-96.627614,28.609974],[-96.628323,28.610754],[-96.625453,28.612756],[-96.631148,28.61921],[-96.637768,28.614641],[-96.639767,28.616042],[-96.639207,28.617572],[-96.638679,28.621112],[-96.638236,28.622439],[-96.633594,28.629706],[-96.633116,28.629104],[-96.633167,28.627696],[-96.631765,28.626376],[-96.631609,28.62598],[-96.632208,28.625402],[-96.63234,28.624441],[-96.633514,28.623215]]]}},{"type":"Feature","properties":{"PRECINCT":"5","VTD":"0005"},"geometry":{"type":"Polygon","coordinates":[[[-96.62527,28.717349],[-96.625255,28.678581],[-96.603702,28.646226],[-96.611712,28.640448],[-96.611971,28.640787],[-96.611646,28.641052],[-96.611803,28.641677],[-96.612337,28.641877],[-96.612734,28.642567],[-96.613725,28.642097],[-96.613905,28.642652],[-96.613637,28.64257],[-96.613702,28.64294],[-96.615203,28.643859],[-96.615534,28.644599],[-96.616788,28.645687],[-96.617093,28.646264],[-96.619742,28.644883],[-96.61748,28.646682],[-96.618421,28.64672],[-96.620953,28.647769],[-96.62225,28.648621],[-96.623079,28.648819],[-96.623272,28.649248],[-96.624195,28.648983],[-96.627015,28.64998],[-96.629196,28.65118],[-96.631128,28.652649],[-96.632866,28.654481],[-96.633844,28.656136],[-96.634316,28.658072],[-96.634352,28.659573],[-96.648334,28.651101],[-96.648546,28.650033],[-96.644964,28.645533],[-96.644459,28.644494],[-96.644073,28.642135],[-96.643675,28.641656],[-96.643794,28.64104],[-96.643109,28.639104],[-96.64124,28.637322],[-96.63899,28.635837],[-96.638018,28.63478],[-96.637452,28.633603],[-96.637446,28.632652],[-96.636873,28.63153],[-96.635708,28.63087],[-96.634549,28.630528],[-96.633594,28.629706],[-96.638236,28.622439],[-96.6396,28.616352],[-96.639767,28.616042],[-96.645238,28.620032],[-96.645454,28.619874],[-96.643196,28.618258],[-96.651329,28.612802],[-96.652862,28.614677],[-96.657751,28.611292],[-96.655945,28.611132],[-96.655853,28.611791],[-96.647406,28.610835],[-96.646633,28.611302],[-96.646403,28.611234],[-96.652394,28.606853],[-96.674601,28.592952],[-96.708786,28.614809],[-96.710595,28.615134],[-96.710263,28.616062],[-96.711913,28.616642],[-96.713295,28.617422],[-96.715285,28.614474],[-96.715378,28.614694],[-96.716631,28.615002],[-96.717148,28.615382],[-96.718239,28.615497],[-96.719105,28.61647],[-96.719174,28.616877],[-96.719978,28.617383],[-96.721387,28.617031],[-96.722702,28.617333],[-96.723599,28.616898],[-96.724714,28.616695],[-96.725157,28.615875],[-96.725854,28.615336],[-96.726852,28.615523],[-96.727157,28.615281],[-96.728223,28.61544],[-96.729531,28.614895],[-96.730853,28.615379],[-96.731027,28.616121],[-96.732062,28.617292],[-96.733134,28.617765],[-96.733714,28.618293],[-96.73483,28.61849],[-96.736163,28.618385],[-96.736188,28.619007],[-96.736438,28.619199],[-96.737909,28.618742],[-96.738731,28.619429],[-96.73956,28.619237],[-96.740626,28.619511],[-96.740832,28.620039],[-96.742858,28.621001],[-96.742815,28.621892],[-96.743039,28.622392],[-96.743787,28.622925],[-96.743414,28.623437],[-96.744268,28.624756],[-96.745284,28.624618],[-96.745876,28.6248],[-96.746449,28.624448],[-96.748444,28.626841],[-96.750677,28.627722],[-96.750963,28.628536],[-96.75027,28.630774],[-96.751379,28.631484],[-96.751528,28.632688],[-96.752151,28.634151],[-96.75331,28.634333],[-96.753559,28.635103],[-96.754488,28.63518],[-96.754169,28.636071],[-96.754692,28.636737],[-96.755085,28.636918],[-96.755665,28.636842],[-96.756076,28.637793],[-96.758376,28.638135],[-96.759903,28.638653],[-96.760439,28.638581],[-96.760363,28.639566],[-96.760687,28.640154],[-96.762171,28.640424],[-96.762769,28.640133],[-96.763555,28.640249],[-96.764253,28.639969],[-96.765281,28.639997],[-96.765936,28.640453],[-96.76596,28.640833],[-96.766496,28.641542],[-96.767575,28.64113],[-96.768273,28.641499],[-96.769021,28.641593],[-96.769918,28.642797],[-96.770086,28.644348],[-96.770821,28.644865],[-96.771413,28.645679],[-96.77155,28.646279],[-96.772448,28.646285],[-96.774486,28.646978],[-96.77625,28.647232],[-96.777528,28.646858],[-96.778619,28.64693],[-96.780327,28.646347],[-96.781668,28.646298],[-96.782983,28.645364],[-96.783139,28.644346],[-96.784131,28.644187],[-96.785627,28.643412],[-96.78607,28.642763],[-96.786238,28.641834],[-96.787136,28.641586],[-96.789642,28.641609],[-96.791731,28.641103],[-96.795446,28.642083],[-96.796611,28.642677],[-96.80075,28.64392],[-96.801442,28.64469],[-96.802889,28.644355],[-96.803817,28.644377],[-96.806342,28.643717],[-96.807537,28.643858],[-96.807293,28.647372],[-96.757933,28.66031],[-96.722814,28.669759],[-96.665707,28.705705],[-96.664561,28.704755],[-96.662132,28.703762],[-96.661517,28.70319],[-96.661094,28.702154],[-96.660599,28.702259],[-96.659789,28.701671],[-96.658766,28.702407],[-96.657949,28.70261],[-96.657038,28.703457],[-96.654206,28.704789],[-96.643442,28.712105],[-96.641822,28.71219],[-96.641372,28.712421],[-96.639956,28.712343],[-96.638278,28.712865],[-96.637923,28.712755],[-96.635795,28.713694],[-96.634691,28.713617],[-96.633849,28.713979],[-96.633786,28.714359],[-96.633088,28.714259],[-96.629681,28.715456],[-96.628983,28.715896],[-96.628309,28.715901],[-96.62527,28.717349]]]}},{"type":"Feature","properties":{"PRECINCT":"6","VTD":"0006"},"geometry":{"type":"Polygon","coordinates":[[[-96.619921,28.631268],[-96.6185,28.630823],[-96.618244,28.630488],[-96.618755,28.629778],[-96.61941,28.629668],[-96.619235,28.629426],[-96.619995,28.628997],[-96.620474,28.628232],[-96.621134,28.625944],[-96.620791,28.625593],[-96.620915,28.625186],[-96.620529,28.624697],[-96.620554,28.62424],[-96.621687,28.622766],[-96.621575,28.622612],[-96.622342,28.622832],[-96.621682,28.623992],[-96.622336,28.624273],[-96.62314,28.622997],[-96.624523,28.623628],[-96.624262,28.624041],[-96.624698,28.624228],[-96.624966,28.623749],[-96.625386,28.623608],[-96.625055,28.623547],[-96.625237,28.622942],[-96.624448,28.62205],[-96.624236,28.622045],[-96.624105,28.622771],[-96.623519,28.622502],[-96.623637,28.621688],[-96.622353,28.621116],[-96.621692,28.620385],[-96.620832,28.620276],[-96.622365,28.618625],[-96.622203,28.618306],[-96.620078,28.619643],[-96.619885,28.61949],[-96.61971,28.618934],[-96.621361,28.617883],[-96.621255,28.617619],[-96.621909,28.617207],[-96.622077,28.617355],[-96.623124,28.616975],[-96.623274,28.61675],[-96.6228,28.616041],[-96.620993,28.616866],[-96.620893,28.616564],[-96.621354,28.616206],[-96.622077,28.616145],[-96.622625,28.615826],[-96.622039,28.614859],[-96.621777,28.615013],[-96.621728,28.615794],[-96.620425,28.616141],[-96.619902,28.615833],[-96.62045,28.615613],[-96.620444,28.615228],[-96.619739,28.615063],[-96.619577,28.614684],[-96.62007,28.614678],[-96.62116,28.614111],[-96.620879,28.61382],[-96.620119,28.614244],[-96.620823,28.613572],[-96.62043,28.612885],[-96.620081,28.613089],[-96.620057,28.613523],[-96.619309,28.614101],[-96.619646,28.614238],[-96.61954,28.614392],[-96.618231,28.614624],[-96.617789,28.614228],[-96.617894,28.613782],[-96.619109,28.61386],[-96.62005,28.612225],[-96.618784,28.61029],[-96.618204,28.609994],[-96.617905,28.609383],[-96.617705,28.607376],[-96.617424,28.606942],[-96.617019,28.606959],[-96.616595,28.606354],[-96.616333,28.605617],[-96.617304,28.60491],[-96.629008,28.618112],[-96.626826,28.619645],[-96.628443,28.621451],[-96.626311,28.623017],[-96.625946,28.62261],[-96.621737,28.63195],[-96.620762,28.633418],[-96.620049,28.632877],[-96.619921,28.631268]]]}},{"type":"Feature","properties":{"PRECINCT":"7","VTD":"0007"},"geometry":{"type":"Polygon","coordinates":[[[-96.58793,28.726081],[-96.587544,28.726175],[-96.587887,28.725135],[-96.58687,28.725311],[-96.58536,28.724734],[-96.584443,28.723129],[-96.583045,28.721512],[-96.582478,28.720132],[-96.582228,28.720022],[-96.581898,28.720341],[-96.581386,28.72033],[-96.581205,28.719907],[-96.580513,28.719439],[-96.580637,28.718818],[-96.581242,28.718202],[-96.580868,28.717927],[-96.580899,28.717636],[-96.580088,28.716558],[-96.579657,28.712335],[-96.578828,28.710499],[-96.578491,28.70858],[-96.577798,28.707475],[-96.577611,28.706397],[-96.577898,28.704577],[-96.576806,28.705105],[-96.577711,28.704445],[-96.577929,28.703147],[-96.578733,28.702223],[-96.579363,28.700447],[-96.579918,28.698643],[-96.579862,28.698044],[-96.580255,28.697819],[-96.579188,28.696933],[-96.577991,28.696835],[-96.577155,28.697082],[-96.576558,28.697758],[-96.575649,28.697753],[-96.57568,28.700271],[-96.57462,28.705503],[-96.563462,28.7052],[-96.562818,28.704984],[-96.56147,28.704968],[-96.528909,28.705632],[-96.528672,28.703785],[-96.529527,28.702575],[-96.529328,28.701932],[-96.530189,28.700343],[-96.530594,28.70014],[-96.530619,28.699409],[-96.531805,28.698397],[-96.531699,28.697193],[-96.530651,28.697],[-96.531057,28.696813],[-96.530377,28.696582],[-96.530091,28.695532],[-96.529155,28.695543],[-96.528252,28.694349],[-96.528271,28.693107],[-96.528832,28.692057],[-96.52983,28.690979],[-96.529669,28.690017],[-96.529189,28.689241],[-96.528827,28.689054],[-96.528566,28.688339],[-96.527842,28.687674],[-96.527955,28.68664],[-96.52828,28.686052],[-96.529234,28.685739],[-96.529265,28.685337],[-96.529901,28.684947],[-96.530631,28.683452],[-96.531423,28.682792],[-96.532141,28.68271],[-96.533462,28.682958],[-96.534697,28.682485],[-96.535875,28.682524],[-96.536555,28.683035],[-96.53648,28.684003],[-96.536704,28.68452],[-96.536667,28.683607],[-96.536973,28.683151],[-96.536512,28.68204],[-96.537029,28.681507],[-96.535913,28.681853],[-96.535121,28.681067],[-96.535172,28.680341],[-96.535714,28.679753],[-96.535995,28.678972],[-96.535858,28.67774],[-96.535578,28.677647],[-96.53526,28.676723],[-96.534805,28.676222],[-96.53286,28.675336],[-96.532655,28.674297],[-96.532037,28.674467],[-96.531595,28.674286],[-96.531277,28.673054],[-96.530666,28.672339],[-96.532101,28.669678],[-96.533087,28.668364],[-96.533797,28.667864],[-96.534016,28.666275],[-96.533542,28.665692],[-96.533325,28.664147],[-96.532065,28.664653],[-96.533375,28.66357],[-96.53234,28.66374],[-96.531255,28.663201],[-96.529491,28.66292],[-96.528712,28.66237],[-96.528663,28.661561],[-96.528052,28.661341],[-96.527179,28.661743],[-96.525707,28.663716],[-96.525315,28.663776],[-96.523661,28.662704],[-96.523309,28.662749],[-96.52243,28.663473],[-96.521875,28.663523],[-96.521228,28.663308],[-96.520133,28.66206],[-96.519765,28.661988],[-96.517994,28.662235],[-96.517568,28.662612],[-96.517067,28.662699],[-96.515502,28.661852],[-96.515002,28.66113],[-96.515127,28.660838],[-96.516024,28.660786],[-96.5172,28.659934],[-96.517803,28.660005],[-96.518803,28.659576],[-96.51823,28.657729],[-96.518336,28.657259],[-96.517814,28.657102],[-96.517441,28.656352],[-96.516923,28.65601],[-96.516171,28.655933],[-96.515669,28.655455],[-96.517085,28.654375],[-96.516858,28.65369],[-96.51621,28.653399],[-96.514119,28.648961],[-96.513412,28.646292],[-96.513073,28.643626],[-96.513384,28.640007],[-96.51781,28.633681],[-96.530002,28.622617],[-96.557324,28.587516],[-96.57035,28.597389],[-96.573353,28.602264],[-96.59468,28.633074],[-96.606733,28.626232],[-96.619816,28.619231],[-96.620078,28.619643],[-96.622078,28.618235],[-96.622365,28.618625],[-96.620832,28.620276],[-96.621692,28.620385],[-96.622353,28.621116],[-96.623637,28.621688],[-96.623519,28.622502],[-96.624105,28.622771],[-96.624236,28.622045],[-96.624448,28.62205],[-96.625237,28.622942],[-96.625055,28.623547],[-96.625386,28.62363],[-96.624966,28.623749],[-96.624698,28.624228],[-96.624262,28.624041],[-96.624523,28.623628],[-96.62314,28.622997],[-96.622666,28.623492],[-96.622802,28.623614],[-96.622386,28.624273],[-96.622212,28.62424],[-96.621682,28.623992],[-96.622342,28.622832],[-96.621675,28.622508],[-96.621687,28.622766],[-96.620585,28.624119],[-96.620529,28.624697],[-96.620915,28.625186],[-96.620791,28.625593],[-96.621134,28.625944],[-96.620474,28.628232],[-96.619995,28.628997],[-96.619235,28.629426],[-96.61941,28.629668],[-96.618755,28.629778],[-96.618232,28.630565],[-96.619921,28.631268],[-96.620049,28.632877],[-96.620762,28.633418],[-96.621737,28.63195],[-96.625946,28.62261],[-96.626311,28.623017],[-96.628443,28.621451],[-96.626826,28.619645],[-96.629008,28.618112],[-96.633514,28.623215],[-96.63234,28.624441],[-96.632208,28.625402],[-96.631609,28.62598],[-96.631765,28.626376],[-96.633167,28.627696],[-96.63316,28.62928],[-96.634549,28.630528],[-96.635708,28.63087],[-96.636873,28.63153],[-96.637446,28.632652],[-96.637452,28.633603],[-96.638018,28.63478],[-96.63899,28.635837],[-96.64124,28.637322],[-96.643109,28.639104],[-96.643794,28.64104],[-96.643675,28.641656],[-96.644073,28.642135],[-96.644036,28.642778],[-96.644621,28.644846],[-96.648546,28.650033],[-96.648334,28.651101],[-96.634352,28.659573],[-96.634316,28.658072],[-96.633844,28.656136],[-96.632866,28.654481],[-96.631128,28.652649],[-96.629196,28.65118],[-96.627015,28.64998],[-96.624195,28.648983],[-96.623272,28.649248],[-96.623079,28.648819],[-96.62225,28.648621],[-96.620953,28.647769],[-96.618421,28.64672],[-96.61748,28.646682],[-96.619742,28.644883],[-96.617093,28.646264],[-96.616788,28.645687],[-96.615534,28.644599],[-96.615203,28.643859],[-96.613702,28.64294],[-96.613637,28.64257],[-96.613905,28.642652],[-96.613725,28.642097],[-96.612734,28.642567],[-96.612337,28.641877],[-96.611803,28.641677],[-96.611646,28.641052],[-96.611971,28.640787],[-96.611712,28.640448],[-96.603702,28.646226],[-96.625255,28.678581],[-96.62527,28.717349],[-96.624823,28.717256],[-96.621413,28.718116],[-96.616798,28.719569],[-96.61356,28.71979],[-96.612469,28.72023],[-96.612326,28.720703],[-96.611646,28.721132],[-96.609369,28.721612],[-96.606874,28.721794],[-96.606868,28.72203],[-96.606656,28.72186],[-96.606132,28.722195],[-96.60582,28.722003],[-96.605252,28.722366],[-96.604454,28.722113],[-96.602807,28.722664],[-96.602152,28.722532],[-96.601716,28.72279],[-96.599788,28.722978],[-96.596089,28.724018],[-96.595197,28.724535],[-96.595029,28.72498],[-96.594624,28.724936],[-96.594218,28.724551],[-96.589022,28.725025],[-96.588099,28.725608],[-96.588174,28.726422],[-96.58793,28.726081]]]}},{"type":"Feature","properties":{"PRECINCT":"8","VTD":"0008"},"geometry":{"type":"Polygon","coordinates":[[[-96.39954,28.730231],[-96.40008,28.689879],[-96.404279,28.689875],[-96.404445,28.674409],[-96.381108,28.67494],[-96.356457,28.675053],[-96.323522,28.675597],[-96.322731,28.642944],[-96.322918,28.641875],[-96.364263,28.455779],[-96.397778,28.480711],[-96.424057,28.496643],[-96.461517,28.521247],[-96.460278,28.521816],[-96.500252,28.544256],[-96.557324,28.587516],[-96.530002,28.622617],[-96.51781,28.633681],[-96.513384,28.640007],[-96.513073,28.643626],[-96.513412,28.646292],[-96.514119,28.648961],[-96.51621,28.653399],[-96.516858,28.65369],[-96.517085,28.654375],[-96.515669,28.655455],[-96.516171,28.655933],[-96.516923,28.65601],[-96.517441,28.656352],[-96.517814,28.657102],[-96.518336,28.657259],[-96.51823,28.657729],[-96.518803,28.659576],[-96.517803,28.660005],[-96.516774,28.66011],[-96.516024,28.660786],[-96.515127,28.660838],[-96.515157,28.661527],[-96.517067,28.662699],[-96.517568,28.662612],[-96.517994,28.662235],[-96.519765,28.661988],[-96.520133,28.66206],[-96.521228,28.663308],[-96.521875,28.663523],[-96.52243,28.663473],[-96.523309,28.662749],[-96.523661,28.662704],[-96.525315,28.663776],[-96.525707,28.663716],[-96.527179,28.661743],[-96.528052,28.661341],[-96.528663,28.661561],[-96.528712,28.66237],[-96.529491,28.66292],[-96.531255,28.663201],[-96.53234,28.66374],[-96.533337,28.663537],[-96.532065,28.664653],[-96.53325,28.664048],[-96.533542,28.665692],[-96.534016,28.666275],[-96.533797,28.667864],[-96.533087,28.668364],[-96.532101,28.669678],[-96.530666,28.672339],[-96.531277,28.673054],[-96.531595,28.674286],[-96.532037,28.674467],[-96.532655,28.674297],[-96.53286,28.675336],[-96.534805,28.676222],[-96.53526,28.676723],[-96.535578,28.677647],[-96.535858,28.67774],[-96.535995,28.678972],[-96.535714,28.679753],[-96.535172,28.680341],[-96.535121,28.681067],[-96.535913,28.681853],[-96.537029,28.681507],[-96.536512,28.68204],[-96.536973,28.683151],[-96.536667,28.683607],[-96.536704,28.68452],[-96.53648,28.684003],[-96.536555,28.683035],[-96.535875,28.682524],[-96.534697,28.682485],[-96.533462,28.682958],[-96.532141,28.68271],[-96.531423,28.682792],[-96.530631,28.683452],[-96.529901,28.684947],[-96.529265,28.685337],[-96.529234,28.685739],[-96.52828,28.686052],[-96.527955,28.68664],[-96.527842,28.687674],[-96.528566,28.688339],[-96.528827,28.689054],[-96.529189,28.689241],[-96.529669,28.690017],[-96.52983,28.690979],[-96.528832,28.692057],[-96.528271,28.693107],[-96.528252,28.694349],[-96.529155,28.695543],[-96.530091,28.695532],[-96.530377,28.696582],[-96.531057,28.696813],[-96.530651,28.697],[-96.531699,28.697193],[-96.531805,28.698397],[-96.530619,28.699409],[-96.530594,28.70014],[-96.530189,28.700343],[-96.529328,28.701932],[-96.529527,28.702575],[-96.528672,28.703785],[-96.528909,28.705632],[-96.475509,28.70675],[-96.474958,28.706343],[-96.474638,28.705227],[-96.476192,28.703683],[-96.478081,28.702535],[-96.428394,28.703523],[-96.428578,28.71372],[-96.420469,28.71361],[-96.407534,28.730278],[-96.39954,28.730231]]]}},{"type":"Feature","properties":{"PRECINCT":"9","VTD":"0009"},"geometry":{"type":"Polygon","coordinates":[[[-96.77625,28.647232],[-96.774486,28.646978],[-96.772448,28.646285],[-96.771494,28.646246],[-96.771413,28.645679],[-96.770821,28.644865],[-96.770086,28.644348],[-96.769918,28.642797],[-96.769021,28.641593],[-96.768273,28.641499],[-96.767575,28.64113],[-96.766496,28.641542],[-96.76596,28.640833],[-96.765936,28.640453],[-96.765281,28.639997],[-96.764253,28.639969],[-96.763555,28.640249],[-96.762769,28.640133],[-96.762171,28.640424],[-96.760687,28.640154],[-96.760363,28.639566],[-96.760439,28.638581],[-96.759903,28.638653],[-96.758376,28.638135],[-96.756076,28.637793],[-96.755665,28.636842],[-96.755085,28.636918],[-96.754692,28.636737],[-96.754169,28.636071],[-96.754488,28.63518],[-96.753559,28.635103],[-96.75331,28.634333],[-96.752151,28.634151],[-96.751528,28.632688],[-96.751379,28.631484],[-96.75027,28.630774],[-96.750963,28.628536],[-96.750677,28.627722],[-96.748444,28.626841],[-96.746449,28.624448],[-96.745876,28.6248],[-96.745284,28.624618],[-96.744268,28.624756],[-96.743414,28.623437],[-96.743787,28.622925],[-96.743039,28.622392],[-96.742815,28.621892],[-96.742858,28.621001],[-96.740832,28.620039],[-96.740626,28.619511],[-96.73956,28.619237],[-96.738731,28.619429],[-96.737909,28.618742],[-96.736438,28.619199],[-96.736188,28.619007],[-96.736163,28.618385],[-96.73483,28.61849],[-96.733714,28.618293],[-96.733134,28.617765],[-96.732062,28.617292],[-96.731027,28.616121],[-96.730853,28.615379],[-96.729531,28.614895],[-96.728223,28.61544],[-96.727157,28.615281],[-96.726852,28.615523],[-96.725854,28.615336],[-96.725157,28.615875],[-96.724714,28.616695],[-96.723599,28.616898],[-96.722702,28.617333],[-96.721387,28.617031],[-96.719978,28.617383],[-96.719174,28.616877],[-96.719105,28.61647],[-96.718239,28.615497],[-96.717148,28.615382],[-96.716631,28.615002],[-96.715378,28.614694],[-96.715285,28.614474],[-96.713295,28.617422],[-96.711913,28.616642],[-96.710263,28.616062],[-96.710595,28.615134],[-96.708786,28.614809],[-96.674601,28.592952],[-96.652394,28.606853],[-96.649086,28.609251],[-96.648914,28.608987],[-96.646874,28.610339],[-96.645065,28.610178],[-96.644864,28.609589],[-96.637192,28.600309],[-96.642468,28.594584],[-96.646081,28.598935],[-96.648598,28.597279],[-96.648883,28.597361],[-96.649409,28.597111],[-96.650201,28.596448],[-96.650183,28.595766],[-96.649641,28.59554],[-96.64928,28.594848],[-96.649499,28.593885],[-96.648994,28.592967],[-96.644652,28.591684],[-96.645783,28.590263],[-96.652121,28.584607],[-96.657071,28.581328],[-96.65496,28.578547],[-96.65432,28.57849],[-96.653769,28.578145],[-96.652724,28.578156],[-96.651229,28.579024],[-96.65039,28.578042],[-96.646719,28.5751],[-96.638645,28.569922],[-96.639749,28.568846],[-96.659608,28.555996],[-96.660882,28.55544],[-96.662481,28.555278],[-96.663764,28.555526],[-96.664884,28.556041],[-96.696043,28.574421],[-96.698386,28.575582],[-96.724167,28.517928],[-96.725188,28.515722],[-96.726191,28.514387],[-96.751672,28.49756],[-96.758814,28.491262],[-96.764382,28.487542],[-96.760772,28.482804],[-96.773473,28.476001],[-96.779981,28.471932],[-96.793895,28.466934],[-96.799611,28.460738],[-96.800675,28.460892],[-96.801385,28.459088],[-96.801466,28.459358],[-96.801739,28.459077],[-96.802654,28.459039],[-96.803345,28.458665],[-96.804745,28.45861],[-96.805847,28.457016],[-96.807583,28.457049],[-96.808193,28.455822],[-96.808019,28.455778],[-96.808486,28.455437],[-96.809419,28.455333],[-96.810894,28.455586],[-96.812281,28.456714],[-96.812313,28.457269],[-96.812618,28.456989],[-96.813097,28.456961],[-96.81301,28.456708],[-96.813402,28.456923],[-96.814223,28.456939],[-96.814715,28.457242],[-96.815169,28.456648],[-96.815866,28.456725],[-96.816445,28.456967],[-96.81665,28.457968],[-96.817291,28.457302],[-96.817384,28.456092],[-96.817907,28.455003],[-96.817963,28.453804],[-96.823152,28.451141],[-96.82906,28.447713],[-96.82999,28.448383],[-96.830971,28.449547],[-96.83235,28.452243],[-96.833657,28.453831],[-96.834451,28.454549],[-96.83793,28.456656],[-96.839559,28.45812],[-96.839969,28.459166],[-96.839718,28.4622],[-96.840605,28.466002],[-96.842233,28.468966],[-96.843664,28.47083],[-96.844447,28.471274],[-96.847301,28.471661],[-96.848458,28.472205],[-96.848798,28.47307],[-96.848381,28.475748],[-96.848653,28.476396],[-96.849555,28.476976],[-96.850076,28.476948],[-96.852331,28.474927],[-96.853906,28.474349],[-96.855359,28.474209],[-96.85881,28.474746],[-96.860338,28.475324],[-96.861322,28.476012],[-96.86256,28.477512],[-96.86306,28.479181],[-96.862546,28.48262],[-96.863143,28.486963],[-96.863724,28.488812],[-96.864821,28.490235],[-96.867233,28.491252],[-96.86992,28.491782],[-96.873263,28.49372],[-96.876843,28.494911],[-96.87918,28.496097],[-96.880511,28.497625],[-96.880699,28.498173],[-96.879991,28.501697],[-96.880018,28.502418],[-96.880505,28.503708],[-96.883034,28.5055],[-96.885893,28.506318],[-96.886466,28.506229],[-96.890951,28.507178],[-96.891655,28.507996],[-96.891853,28.508927],[-96.891353,28.509736],[-96.891383,28.510484],[-96.89238,28.511771],[-96.892667,28.513288],[-96.893071,28.514031],[-96.8936,28.514134],[-96.894732,28.513462],[-96.895786,28.513609],[-96.896247,28.514191],[-96.89659,28.515476],[-96.898634,28.517308],[-96.89909,28.518179],[-96.899015,28.518648],[-96.898451,28.519151],[-96.897346,28.519505],[-96.897062,28.519972],[-96.897471,28.523718],[-96.898108,28.524183],[-96.900127,28.523729],[-96.902028,28.523925],[-96.902312,28.524315],[-96.902185,28.52504],[-96.901822,28.525558],[-96.900421,28.526587],[-96.900307,28.527169],[-96.902734,28.528466],[-96.903826,28.53005],[-96.905238,28.531273],[-96.905923,28.532393],[-96.905612,28.533019],[-96.904146,28.533581],[-96.903185,28.535341],[-96.901504,28.536586],[-96.901759,28.538722],[-96.900918,28.540506],[-96.900657,28.542307],[-96.897602,28.544874],[-96.897079,28.545959],[-96.895519,28.547881],[-96.895139,28.548863],[-96.895201,28.54943],[-96.896147,28.550546],[-96.897018,28.552299],[-96.897623,28.552714],[-96.898957,28.552746],[-96.900619,28.553208],[-96.901846,28.554693],[-96.90174,28.555432],[-96.900935,28.556761],[-96.899508,28.557966],[-96.898021,28.55998],[-96.899106,28.560403],[-96.900387,28.56049],[-96.901527,28.559907],[-96.902709,28.560339],[-96.903091,28.560755],[-96.903055,28.561276],[-96.902499,28.561794],[-96.901072,28.562486],[-96.90076,28.562889],[-96.900958,28.563505],[-96.901797,28.563932],[-96.90218,28.564431],[-96.902159,28.565842],[-96.90283,28.566604],[-96.903795,28.567033],[-96.90447,28.566927],[-96.90559,28.566355],[-96.907026,28.566327],[-96.907932,28.566719],[-96.908202,28.567076],[-96.908257,28.56786],[-96.906784,28.569203],[-96.905974,28.570955],[-96.906169,28.571872],[-96.90786,28.572745],[-96.909214,28.57285],[-96.910325,28.57143],[-96.911201,28.570757],[-96.910991,28.569396],[-96.911169,28.568932],[-96.913435,28.569088],[-96.914971,28.569517],[-96.916885,28.570983],[-96.917818,28.573537],[-96.922478,28.580107],[-96.923483,28.580825],[-96.925114,28.581468],[-96.925401,28.581967],[-96.9253,28.582933],[-96.925907,28.583759],[-96.928424,28.585785],[-96.929805,28.586274],[-96.930367,28.586728],[-96.853757,28.635199],[-96.807293,28.647372],[-96.807537,28.643858],[-96.806342,28.643717],[-96.803817,28.644377],[-96.802889,28.644355],[-96.801442,28.64469],[-96.80075,28.64392],[-96.791999,28.641103],[-96.789642,28.641609],[-96.787136,28.641586],[-96.786238,28.641834],[-96.78607,28.642763],[-96.785627,28.643412],[-96.784131,28.644187],[-96.783139,28.644346],[-96.782983,28.645364],[-96.781668,28.646298],[-96.780327,28.646347],[-96.778619,28.64693],[-96.777528,28.646858],[-96.77625,28.647232]]]}},{"type":"Feature","properties":{"PRECINCT":"10","VTD":"0010"},"geometry":{"type":"Polygon","coordinates":[[[-96.662481,28.555278],[-96.660882,28.55544],[-96.659608,28.555996],[-96.639749,28.568846],[-96.638645,28.569922],[-96.634554,28.567333],[-96.633897,28.566622],[-96.633705,28.56593],[-96.633906,28.56456],[-96.645698,28.506968],[-96.646883,28.502242],[-96.639058,28.479457],[-96.636724,28.47158],[-96.635585,28.468967],[-96.635042,28.466905],[-96.634861,28.465003],[-96.633951,28.464065],[-96.634476,28.46356],[-96.627345,28.457107],[-96.627403,28.456784],[-96.630093,28.454991],[-96.63026,28.454575],[-96.629137,28.453153],[-96.628116,28.451472],[-96.628104,28.450977],[-96.625256,28.446273],[-96.624928,28.446104],[-96.621751,28.440046],[-96.578354,28.36536],[-96.576222,28.361204],[-96.502556,28.234354],[-96.510049,28.23068],[-96.531,28.221164],[-96.556661,28.20648],[-96.596507,28.182998],[-96.618785,28.169522],[-96.640749,28.15539],[-96.666137,28.137684],[-96.683417,28.12529],[-96.715078,28.10227],[-96.730685,28.091268],[-96.746251,28.079622],[-96.764373,28.064574],[-96.815905,28.022835],[-96.852682,28.060448],[-96.853723,28.061717],[-96.853988,28.063105],[-96.853688,28.063904],[-96.851567,28.065307],[-96.849713,28.066905],[-96.847129,28.070604],[-96.847034,28.074091],[-96.846044,28.076095],[-96.845627,28.079595],[-96.844416,28.082806],[-96.844083,28.084351],[-96.842277,28.08789],[-96.840098,28.09061],[-96.837646,28.094673],[-96.837538,28.095425],[-96.838022,28.096999],[-96.837736,28.099491],[-96.83724,28.100408],[-96.835926,28.101326],[-96.834182,28.103307],[-96.832365,28.106006],[-96.831816,28.106359],[-96.831669,28.106934],[-96.830861,28.108],[-96.830433,28.109619],[-96.827682,28.125153],[-96.813733,28.198027],[-96.796549,28.287458],[-96.794829,28.295237],[-96.791583,28.312699],[-96.791482,28.314256],[-96.79075,28.316281],[-96.790468,28.318161],[-96.790686,28.318512],[-96.79063,28.318881],[-96.790437,28.318853],[-96.790605,28.319068],[-96.790226,28.319804],[-96.790499,28.320519],[-96.790163,28.322125],[-96.790554,28.32295],[-96.790305,28.324281],[-96.790722,28.324611],[-96.790858,28.326866],[-96.790559,28.328939],[-96.791031,28.329693],[-96.790894,28.330435],[-96.79159,28.330947],[-96.792186,28.335165],[-96.792099,28.335996],[-96.792975,28.33769],[-96.793359,28.340198],[-96.793459,28.340511],[-96.794111,28.340902],[-96.794111,28.341936],[-96.794403,28.341919],[-96.794764,28.34275],[-96.794813,28.344015],[-96.794309,28.345202],[-96.794061,28.345444],[-96.793159,28.345378],[-96.793029,28.345653],[-96.794303,28.346104],[-96.794725,28.346759],[-96.795167,28.346819],[-96.79462,28.347039],[-96.794197,28.346918],[-96.793613,28.346203],[-96.793227,28.346396],[-96.793756,28.347221],[-96.794265,28.347259],[-96.794676,28.347732],[-96.79442,28.350653],[-96.791552,28.357284],[-96.791938,28.358032],[-96.791943,28.359787],[-96.793087,28.360881],[-96.793416,28.361574],[-96.794367,28.36235],[-96.794753,28.363472],[-96.794553,28.364473],[-96.795001,28.364682],[-96.790025,28.375888],[-96.779909,28.400587],[-96.779506,28.400448],[-96.77996,28.401224],[-96.779668,28.401878],[-96.779848,28.402307],[-96.779381,28.402918],[-96.778933,28.402917],[-96.778634,28.404259],[-96.778267,28.404336],[-96.778062,28.404732],[-96.777851,28.404584],[-96.777042,28.405117],[-96.77706,28.405403],[-96.776444,28.405656],[-96.775586,28.406447],[-96.774939,28.406458],[-96.77474,28.406832],[-96.77408,28.406953],[-96.772886,28.407843],[-96.767027,28.410683],[-96.765257,28.411672],[-96.764257,28.412641],[-96.764405,28.413802],[-96.764735,28.414269],[-96.764175,28.414984],[-96.764908,28.415826],[-96.765026,28.416376],[-96.76599,28.417284],[-96.765648,28.417558],[-96.765517,28.418394],[-96.765809,28.419027],[-96.766405,28.419549],[-96.76643,28.420154],[-96.767537,28.420237],[-96.769454,28.41954],[-96.769603,28.420084],[-96.768987,28.420342],[-96.769832,28.421503],[-96.770504,28.421597],[-96.771537,28.421311],[-96.772184,28.421916],[-96.771505,28.422301],[-96.771617,28.42295],[-96.771194,28.422724],[-96.770709,28.422823],[-96.770528,28.423599],[-96.769744,28.423505],[-96.76939,28.423763],[-96.768419,28.423741],[-96.767816,28.4228],[-96.768046,28.422454],[-96.769477,28.421921],[-96.769583,28.421635],[-96.768477,28.420205],[-96.766872,28.42049],[-96.766455,28.421128],[-96.766212,28.421139],[-96.766461,28.421601],[-96.765739,28.422233],[-96.765135,28.422431],[-96.765558,28.42303],[-96.765272,28.423371],[-96.765489,28.423575],[-96.765421,28.424009],[-96.764742,28.42463],[-96.76468,28.425384],[-96.764263,28.425857],[-96.764381,28.426352],[-96.764125,28.426555],[-96.765083,28.42688],[-96.766389,28.427914],[-96.76782,28.427673],[-96.769655,28.427756],[-96.770333,28.428042],[-96.770408,28.428647],[-96.770675,28.428768],[-96.77172,28.428532],[-96.771409,28.42917],[-96.772143,28.430253],[-96.772472,28.430413],[-96.77241,28.43093],[-96.772876,28.43159],[-96.773753,28.43192],[-96.774263,28.432921],[-96.77468,28.432894],[-96.775339,28.433703],[-96.776235,28.434082],[-96.778536,28.436503],[-96.779033,28.437322],[-96.778853,28.437746],[-96.779157,28.438461],[-96.779705,28.439445],[-96.780128,28.439627],[-96.780569,28.440259],[-96.780867,28.441315],[-96.781452,28.442218],[-96.781402,28.442767],[-96.782092,28.444154],[-96.782048,28.444934],[-96.78272,28.445303],[-96.783137,28.446013],[-96.784282,28.446876],[-96.785128,28.447009],[-96.785726,28.44742],[-96.786647,28.447283],[-96.787533,28.447446],[-96.789883,28.446996],[-96.791527,28.445538],[-96.793519,28.444199],[-96.798035,28.441776],[-96.798475,28.441224],[-96.799151,28.438792],[-96.800252,28.438648],[-96.800841,28.437804],[-96.801986,28.437029],[-96.802945,28.43559],[-96.804054,28.435351],[-96.807334,28.432053],[-96.808248,28.431703],[-96.809428,28.430748],[-96.811455,28.430966],[-96.813494,28.430261],[-96.814396,28.430483],[-96.815309,28.431319],[-96.81913,28.436868],[-96.81989,28.438923],[-96.820309,28.44106],[-96.821377,28.443234],[-96.822755,28.44483],[-96.823485,28.445582],[-96.825315,28.446611],[-96.827847,28.447014],[-96.82906,28.447713],[-96.823152,28.451141],[-96.817963,28.453804],[-96.817907,28.455003],[-96.817384,28.456092],[-96.817291,28.457302],[-96.81665,28.457968],[-96.816445,28.456967],[-96.815866,28.456725],[-96.815169,28.456648],[-96.814715,28.457242],[-96.814223,28.456939],[-96.813402,28.456923],[-96.81301,28.456708],[-96.813097,28.456961],[-96.812618,28.456989],[-96.812313,28.457269],[-96.812281,28.456714],[-96.810894,28.455586],[-96.809419,28.455333],[-96.808486,28.455437],[-96.808019,28.455778],[-96.808193,28.455822],[-96.807583,28.457049],[-96.805847,28.457016],[-96.804745,28.45861],[-96.803345,28.458665],[-96.802654,28.459039],[-96.801739,28.459077],[-96.801466,28.459358],[-96.801385,28.459088],[-96.800675,28.460892],[-96.799611,28.460738],[-96.793895,28.466934],[-96.779981,28.471932],[-96.773473,28.476001],[-96.760772,28.482804],[-96.764382,28.487542],[-96.758814,28.491262],[-96.751672,28.49756],[-96.726191,28.514387],[-96.725188,28.515722],[-96.724167,28.517928],[-96.698386,28.575582],[-96.696043,28.574421],[-96.664884,28.556041],[-96.663764,28.555526],[-96.662481,28.555278]]]}},{"type":"Feature","properties":{"PRECINCT":"11","VTD":"0011"},"geometry":{"type":"Polygon","coordinates":[[[-96.461517,28.521247],[-96.438538,28.506302],[-96.424057,28.496643],[-96.397778,28.480711],[-96.364263,28.455779],[-96.38154,28.375281],[-96.382069,28.368525],[-96.395198,28.279736],[-96.402403,28.278056],[-96.425807,28.268687],[-96.455074,28.255279],[-96.472806,28.247723],[-96.502556,28.234354],[-96.576222,28.361204],[-96.578354,28.36536],[-96.621751,28.440046],[-96.624928,28.446104],[-96.625256,28.446273],[-96.628104,28.450977],[-96.628116,28.451472],[-96.629137,28.453153],[-96.63026,28.454575],[-96.630093,28.454991],[-96.627403,28.456784],[-96.627345,28.457107],[-96.634476,28.46356],[-96.633951,28.464065],[-96.634861,28.465003],[-96.635042,28.466905],[-96.635585,28.468967],[-96.636724,28.47158],[-96.639058,28.479457],[-96.646883,28.502242],[-96.644667,28.501814],[-96.643409,28.501137],[-96.641768,28.499447],[-96.641507,28.498765],[-96.640275,28.497631],[-96.639466,28.497175],[-96.638595,28.496294],[-96.637717,28.496008],[-96.634818,28.494132],[-96.634632,28.491959],[-96.63485,28.491283],[-96.635205,28.490997],[-96.634428,28.490095],[-96.634615,28.489034],[-96.634964,28.489205],[-96.635157,28.488721],[-96.635686,28.488358],[-96.635283,28.486444],[-96.635631,28.485916],[-96.635563,28.485652],[-96.634897,28.485361],[-96.634891,28.485009],[-96.634251,28.484338],[-96.633908,28.484277],[-96.633728,28.483941],[-96.633996,28.483793],[-96.634009,28.483194],[-96.633449,28.482973],[-96.632429,28.481626],[-96.632342,28.480916],[-96.631882,28.48041],[-96.631901,28.479547],[-96.632226,28.479058],[-96.6271,28.478445],[-96.626115,28.477287],[-96.626318,28.476905],[-96.626351,28.475182],[-96.62528,28.47399],[-96.623731,28.473678],[-96.621056,28.472067],[-96.620388,28.47213],[-96.618587,28.472894],[-96.617408,28.472339],[-96.615422,28.472043],[-96.614414,28.471345],[-96.613233,28.468263],[-96.612704,28.467652],[-96.612293,28.467471],[-96.611889,28.467768],[-96.609773,28.467659],[-96.6077,28.465883],[-96.606329,28.465077],[-96.605791,28.463686],[-96.605312,28.463429],[-96.603026,28.463212],[-96.601564,28.463751],[-96.600612,28.464428],[-96.600208,28.465341],[-96.599549,28.465726],[-96.59836,28.465352],[-96.597196,28.465616],[-96.596474,28.465012],[-96.595242,28.464825],[-96.594912,28.465672],[-96.594253,28.466315],[-96.592049,28.467054],[-96.591368,28.467041],[-96.590368,28.466542],[-96.590197,28.465267],[-96.589021,28.463665],[-96.584515,28.459918],[-96.582908,28.459166],[-96.581478,28.459249],[-96.580084,28.460972],[-96.579407,28.462264],[-96.579095,28.462353],[-96.578347,28.46198],[-96.575635,28.462109],[-96.561682,28.468149],[-96.558251,28.470689],[-96.556485,28.472752],[-96.554612,28.475498],[-96.55405,28.476807],[-96.554189,28.47775],[-96.555346,28.4787],[-96.555359,28.479197],[-96.553422,28.481748],[-96.551073,28.483505],[-96.549786,28.484089],[-96.548775,28.484092],[-96.541804,28.483422],[-96.536223,28.483453],[-96.533618,28.483716],[-96.528031,28.484771],[-96.523296,28.486259],[-96.521032,28.487306],[-96.517615,28.489309],[-96.511985,28.493143],[-96.505697,28.498711],[-96.504385,28.500278],[-96.490494,28.507953],[-96.488836,28.509387],[-96.488508,28.509325],[-96.488172,28.510332],[-96.487761,28.510348],[-96.486765,28.509496],[-96.484768,28.508574],[-96.484119,28.510878],[-96.461517,28.521247]]]}}]}