{"type":"FeatureCollection","features":[{"type":"Feature","properties":{"PRECINCT":"hays:110","COUNTY":"Hays"},"geometry":{"type":"Polygon","coordinates":[[[-97.89535,29.87757],[-97.89558,29.87427],[-97.89693,29.86504],[-97.89919,29.85841],[-97.89924,29.85758],[-97.899,29.85722],[-97.89701,29.85732],[-97.89677,29.85708],[-97.89561,29.85733],[-97.89282,29.85653],[-97.88961,29.85641],[-97.88882,29.85678],[-97.88787,29.85776],[-97.8874,29.85866],[-97.88706,29.86081],[-97.88604,29.86227],[-97.88435,29.86246],[-97.88098,29.86083],[-97.87601,29.86056],[-97.87462,29.85985],[-97.87445,29.85917],[-97.87508,29.85881],[-97.87526,29.85821],[-97.94356,29.80691],[-97.99927,29.75244],[-98.01294,29.79473],[-98.00723,29.79723],[-98.00518,29.79892],[-97.99841,29.80122],[-97.99744,29.80147],[-97.99107,29.80133],[-97.98916,29.80153],[-97.98308,29.8035],[-97.98223,29.8043],[-97.99683,29.8167],[-97.99086,29.82216],[-97.98889,29.82045],[-97.98596,29.82305],[-97.98398,29.82146],[-97.98121,29.82385],[-97.9832,29.82562],[-97.983,29.82576],[-97.98201,29.82495],[-97.97828,29.82831],[-97.97785,29.82793],[-97.97796,29.82776],[-97.98156,29.82454],[-97.97986,29.82356],[-97.976,29.82032],[-97.97948,29.81722],[-97.97715,29.81524],[-97.97576,29.81648],[-97.97794,29.81834],[-97.97586,29.8202],[-97.96837,29.81382],[-97.96803,29.81366],[-97.96739,29.81399],[-97.96687,29.81355],[-97.95712,29.81926],[-97.96601,29.82672],[-97.96162,29.83057],[-97.96238,29.83132],[-97.96023,29.83326],[-97.95901,29.833],[-97.9573,29.83456],[-97.96227,29.83876],[-97.95771,29.84262],[-97.95533,29.84071],[-97.95732,29.83898],[-97.95339,29.83551],[-97.95449,29.83457],[-97.95073,29.83122],[-97.9509,29.83096],[-97.9488,29.82919],[-97.94661,29.83071],[-97.94524,29.8291],[-97.94474,29.82939],[-97.94411,29.82865],[-97.94245,29.8288],[-97.93782,29.83095],[-97.92903,29.83437],[-97.93396,29.8395],[-97.93705,29.83729],[-97.93817,29.83788],[-97.93999,29.8394],[-97.94121,29.83841],[-97.94055,29.84476],[-97.93973,29.84498],[-97.94048,29.84556],[-97.94066,29.84629],[-97.94401,29.84931],[-97.93778,29.85501],[-97.93357,29.85045],[-97.92938,29.85351],[-97.93256,29.85636],[-97.93307,29.85735],[-97.93397,29.85834],[-97.93351,29.8587],[-97.93322,29.85841],[-97.93352,29.8582],[-97.93329,29.85796],[-97.93277,29.85832],[-97.93236,29.85788],[-97.9329,29.85751],[-97.93208,29.85605],[-97.9282,29.85285],[-97.92169,29.85823],[-97.92195,29.85855],[-97.92193,29.85938],[-97.92269,29.86009],[-97.92266,29.86046],[-97.92198,29.86094],[-97.92206,29.86201],[-97.92317,29.86154],[-97.91564,29.86843],[-97.91814,29.87118],[-97.91654,29.87189],[-97.91565,29.87134],[-97.91532,29.87219],[-97.91364,29.87366],[-97.91319,29.87432],[-97.91343,29.87522],[-97.91398,29.87594],[-97.91493,29.87578],[-97.91548,29.87635],[-97.91538,29.8769],[-97.91446,29.878],[-97.91246,29.87862],[-97.91084,29.87963],[-97.90637,29.87734],[-97.9055,29.8774],[-97.90092,29.87908],[-97.8939,29.88373],[-97.89468,29.88202],[-97.89453,29.88159],[-97.89535,29.87757]]]}},{"type":"Feature","properties":{"PRECINCT":"hays:111","COUNTY":"Hays"},"geometry":{"type":"Polygon","coordinates":[[[-97.94668,29.87749],[-97.9458,29.87671],[-97.94628,29.87633],[-97.94773,29.87749],[-97.94836,29.87694],[-97.94778,29.87652],[-97.95017,29.87438],[-97.95121,29.87536],[-97.94535,29.8804],[-97.94446,29.88176],[-97.94125,29.88214],[-97.94138,29.88303],[-97.94016,29.8832],[-97.93968,29.88024],[-97.94407,29.87974],[-97.94668,29.87749]]]}},{"type":"Feature","properties":{"PRECINCT":"hays:112","COUNTY":"Hays"},"geometry":{"type":"Polygon","coordinates":[[[-97.9248,29.87982],[-97.93903,29.86921],[-97.93906,29.8694],[-97.95323,29.85693],[-97.95922,29.86216],[-97.96049,29.86109],[-97.96122,29.86107],[-97.96281,29.86244],[-97.96344,29.86351],[-97.96404,29.86365],[-97.96213,29.86817],[-97.96112,29.86927],[-97.95878,29.87076],[-97.95504,29.87397],[-97.95392,29.87298],[-97.95121,29.87536],[-97.95017,29.87438],[-97.94778,29.87652],[-97.94836,29.87694],[-97.94773,29.87749],[-97.94618,29.87639],[-97.9458,29.87671],[-97.94668,29.87749],[-97.94407,29.87974],[-97.93968,29.88024],[-97.93918,29.87724],[-97.93122,29.88157],[-97.92731,29.8845],[-97.9249,29.88525],[-97.92182,29.88252],[-97.9248,29.87982]]]}},{"type":"Feature","properties":{"PRECINCT":"hays:113","COUNTY":"Hays"},"geometry":{"type":"Polygon","coordinates":[[[-97.91493,29.87578],[-97.91398,29.87594],[-97.91343,29.87522],[-97.91319,29.87432],[-97.91364,29.87366],[-97.91532,29.87219],[-97.91565,29.87134],[-97.91654,29.87189],[-97.91814,29.87118],[-97.91564,29.86843],[-97.92317,29.86154],[-97.92206,29.86201],[-97.92198,29.86094],[-97.92266,29.86046],[-97.92269,29.86009],[-97.92193,29.85938],[-97.92195,29.85855],[-97.92169,29.85823],[-97.9282,29.85285],[-97.93208,29.85605],[-97.9329,29.85751],[-97.93236,29.85788],[-97.93277,29.85832],[-97.93329,29.85796],[-97.93352,29.8582],[-97.93322,29.85841],[-97.93351,29.8587],[-97.93397,29.85834],[-97.93307,29.85735],[-97.93256,29.85636],[-97.92938,29.85351],[-97.93357,29.85045],[-97.93778,29.85501],[-97.93993,29.85288],[-97.93866,29.86563],[-97.93908,29.86916],[-97.93167,29.87478],[-97.93145,29.87454],[-97.92903,29.87637],[-97.92864,29.87461],[-97.92843,29.87081],[-97.92696,29.8692],[-97.92637,29.86906],[-97.91306,29.88066],[-97.91084,29.87963],[-97.91246,29.87862],[-97.91446,29.878],[-97.91538,29.8769],[-97.91548,29.87635],[-97.91493,29.87578]]]}},{"type":"Feature","properties":{"PRECINCT":"hays:114","COUNTY":"Hays"},"geometry":{"type":"Polygon","coordinates":[[[-97.94401,29.84931],[-97.95323,29.85693],[-97.93906,29.8694],[-97.93866,29.86563],[-97.93992,29.85308],[-97.94401,29.84931]]]}},{"type":"Feature","properties":{"PRECINCT":"hays:115","COUNTY":"Hays"},"geometry":{"type":"Polygon","coordinates":[[[-97.9531,29.85682],[-97.94066,29.84629],[-97.94048,29.84556],[-97.93973,29.84498],[-97.94055,29.84476],[-97.94121,29.83841],[-97.93999,29.8394],[-97.93817,29.83788],[-97.93705,29.83729],[-97.93396,29.8395],[-97.92898,29.83441],[-97.93782,29.83095],[-97.94245,29.8288],[-97.94411,29.82865],[-97.94474,29.82939],[-97.94524,29.8291],[-97.94661,29.83071],[-97.9488,29.82919],[-97.9509,29.83096],[-97.95073,29.83122],[-97.95449,29.83457],[-97.95339,29.83551],[-97.95732,29.83898],[-97.95533,29.84071],[-97.95771,29.84262],[-97.96227,29.83876],[-97.9573,29.83456],[-97.95901,29.833],[-97.96023,29.83326],[-97.96238,29.83132],[-97.96162,29.83057],[-97.96601,29.82672],[-97.95712,29.81926],[-97.96687,29.81355],[-97.96739,29.81399],[-97.96803,29.81366],[-97.96837,29.81382],[-97.97586,29.8202],[-97.97794,29.81834],[-97.97576,29.81648],[-97.97715,29.81524],[-97.97948,29.81722],[-97.976,29.82032],[-97.97986,29.82356],[-97.98156,29.82454],[-97.97796,29.82776],[-97.97785,29.82793],[-97.97828,29.82831],[-97.98201,29.82495],[-97.983,29.82576],[-97.9832,29.82562],[-97.98121,29.82385],[-97.98398,29.82146],[-97.98596,29.82305],[-97.98889,29.82045],[-97.99086,29.82216],[-97.99683,29.8167],[-97.98223,29.8043],[-97.98245,29.80407],[-97.98308,29.8035],[-97.98423,29.80309],[-97.99011,29.80136],[-97.99744,29.80147],[-97.99841,29.80122],[-98.00518,29.79892],[-98.00723,29.79723],[-98.01294,29.79473],[-98.01504,29.80106],[-97.9531,29.85682]]]}},{"type":"Feature","properties":{"PRECINCT":"hays:120","COUNTY":"Hays"},"geometry":{"type":"Polygon","coordinates":[[[-97.84918,29.916],[-97.87587,29.89733],[-97.89002,29.88641],[-97.90006,29.87956],[-97.90129,29.87892],[-97.90597,29.87728],[-97.91084,29.87963],[-97.90912,29.881],[-97.90767,29.88364],[-97.90688,29.88435],[-97.90648,29.88586],[-97.90564,29.8865],[-97.90545,29.88689],[-97.90417,29.88767],[-97.90262,29.88769],[-97.89987,29.88944],[-97.89952,29.88989],[-97.89914,29.89196],[-97.89921,29.89332],[-97.89967,29.89427],[-97.90064,29.89461],[-97.90092,29.89493],[-97.90156,29.89678],[-97.90156,29.89744],[-97.90126,29.89825],[-97.90045,29.89922],[-97.89751,29.90104],[-97.89727,29.90139],[-97.89725,29.90564],[-97.89704,29.90612],[-97.89631,29.90562],[-97.89584,29.90597],[-97.89472,29.90752],[-97.89372,29.90983],[-97.89369,29.91054],[-97.89453,29.91226],[-97.89532,29.91235],[-97.89826,29.91193],[-97.88026,29.94695],[-97.87553,29.94288],[-97.87811,29.94043],[-97.87816,29.94003],[-97.86314,29.92744],[-97.86066,29.92582],[-97.84918,29.916]]]}},{"type":"Feature","properties":{"PRECINCT":"hays:121","COUNTY":"Hays"},"geometry":{"type":"Polygon","coordinates":[[[-97.89472,29.90752],[-97.89608,29.90572],[-97.89631,29.90562],[-97.89704,29.90612],[-97.89725,29.90564],[-97.89727,29.90139],[-97.89751,29.90104],[-97.90045,29.89922],[-97.90126,29.89825],[-97.90156,29.89678],[-97.90064,29.89461],[-97.90106,29.89428],[-97.90054,29.89344],[-97.90152,29.8934],[-97.90336,29.89288],[-97.90573,29.89088],[-97.90629,29.89071],[-97.90867,29.8916],[-97.91045,29.89278],[-97.91225,29.89302],[-97.90527,29.90038],[-97.90353,29.90258],[-97.90138,29.9059],[-97.89826,29.91193],[-97.89487,29.91238],[-97.89414,29.91171],[-97.89369,29.91054],[-97.89372,29.90983],[-97.89472,29.90752]]]}},{"type":"Feature","properties":{"PRECINCT":"hays:122","COUNTY":"Hays"},"geometry":{"type":"Polygon","coordinates":[[[-97.89914,29.89196],[-97.89952,29.88989],[-97.89987,29.88944],[-97.90262,29.88769],[-97.90417,29.88767],[-97.90545,29.88689],[-97.90564,29.8865],[-97.90648,29.88586],[-97.90688,29.88435],[-97.90767,29.88364],[-97.90912,29.881],[-97.91084,29.87963],[-97.91518,29.88154],[-97.91759,29.88191],[-97.92065,29.8819],[-97.92182,29.88252],[-97.91225,29.89302],[-97.91045,29.89278],[-97.90867,29.8916],[-97.90629,29.89071],[-97.90573,29.89088],[-97.90336,29.89288],[-97.90152,29.8934],[-97.90054,29.89344],[-97.90109,29.89438],[-97.90064,29.89461],[-97.89939,29.89398],[-97.89914,29.89196]]]}},{"type":"Feature","properties":{"PRECINCT":"hays:123","COUNTY":"Hays"},"geometry":{"type":"Polygon","coordinates":[[[-97.92018,29.88185],[-97.91789,29.88192],[-97.91587,29.8817],[-97.91306,29.88066],[-97.92539,29.86979],[-97.92621,29.86913],[-97.92664,29.86906],[-97.92843,29.87081],[-97.92864,29.87461],[-97.92903,29.87637],[-97.93145,29.87454],[-97.93167,29.87478],[-97.9248,29.87982],[-97.92182,29.88252],[-97.92103,29.88203],[-97.92018,29.88185]]]}},{"type":"Feature","properties":{"PRECINCT":"hays:125","COUNTY":"Hays"},"geometry":{"type":"Polygon","coordinates":[[[-97.81055,30.03173],[-97.80017,30.023],[-97.80156,30.02173],[-97.80288,30.02288],[-97.81696,30.01022],[-97.81731,30.00655],[-97.81798,30.00463],[-97.81936,30.00255],[-97.81986,29.99988],[-97.8202,29.99927],[-97.82295,30.00196],[-97.82749,30.00511],[-97.82767,30.00557],[-97.83079,30.00809],[-97.8342,30.00501],[-97.83384,30.00459],[-97.83722,30.00165],[-97.84234,29.9928],[-97.84714,29.99677],[-97.84904,29.99689],[-97.85231,29.99962],[-97.85264,30.00007],[-97.85283,30.00143],[-97.86217,30.00948],[-97.85867,30.01514],[-97.85525,30.02004],[-97.84792,30.01735],[-97.84714,30.01747],[-97.8467,30.01781],[-97.84582,30.0193],[-97.84508,30.01952],[-97.84515,30.01986],[-97.84569,30.02009],[-97.84343,30.02464],[-97.83131,30.02175],[-97.83137,30.022],[-97.83303,30.02239],[-97.83241,30.02496],[-97.83329,30.02558],[-97.83368,30.03189],[-97.82847,30.03194],[-97.82751,30.0317],[-97.82562,30.03063],[-97.82464,30.03039],[-97.81285,30.03053],[-97.81158,30.0309],[-97.81055,30.03173]]]}},{"type":"Feature","properties":{"PRECINCT":"hays:126","COUNTY":"Hays"},"geometry":{"type":"Polygon","coordinates":[[[-97.8548,29.99083],[-97.85488,29.9901],[-97.85569,29.98923],[-97.85572,29.98886],[-97.85496,29.98856],[-97.85446,29.98776],[-97.85459,29.98744],[-97.8554,29.98739],[-97.85606,29.98668],[-97.85609,29.98636],[-97.85569,29.98595],[-97.85477,29.98581],[-97.85359,29.98425],[-97.85353,29.98386],[-97.85424,29.98334],[-97.85423,29.98296],[-97.85158,29.98033],[-97.84961,29.97974],[-97.8491,29.97925],[-97.84802,29.97902],[-97.84746,29.97854],[-97.84591,29.97878],[-97.84503,29.97956],[-97.84458,29.9796],[-97.84411,29.97907],[-97.84397,29.97849],[-97.84418,29.97665],[-97.84208,29.97299],[-97.84144,29.97248],[-97.84134,29.97158],[-97.84061,29.97079],[-97.84038,29.97013],[-97.83948,29.97023],[-97.83815,29.9711],[-97.83679,29.97118],[-97.83611,29.97104],[-97.83611,29.97018],[-97.83525,29.96953],[-97.83469,29.96973],[-97.83432,29.97059],[-97.83391,29.97068],[-97.83304,29.97035],[-97.83231,29.96967],[-97.83296,29.96919],[-97.83314,29.96862],[-97.83191,29.96801],[-97.83141,29.96652],[-97.83053,29.96613],[-97.83016,29.96522],[-97.83024,29.96489],[-97.8308,29.96452],[-97.83101,29.96359],[-97.82983,29.9625],[-97.82973,29.96176],[-97.82922,29.96152],[-97.82822,29.96175],[-97.82763,29.96167],[-97.82701,29.96226],[-97.8265,29.96236],[-97.82513,29.96077],[-97.82509,29.95982],[-97.82477,29.9595],[-97.8242,29.95934],[-97.82274,29.95962],[-97.82167,29.95809],[-97.82053,29.9579],[-97.81964,29.95908],[-97.81797,29.96014],[-97.81642,29.96017],[-97.81522,29.95945],[-97.81486,29.95962],[-97.81231,29.95713],[-97.79647,29.9436],[-97.80313,29.94108],[-97.80345,29.94124],[-97.81784,29.93443],[-97.83331,29.94759],[-97.84053,29.9562],[-97.84441,29.96004],[-97.85213,29.96679],[-97.8697,29.98152],[-97.86864,29.9879],[-97.86601,29.98405],[-97.85823,29.99114],[-97.85751,29.99088],[-97.85683,29.99154],[-97.85601,29.99182],[-97.85527,29.99145],[-97.8548,29.99083]]]}},{"type":"Feature","properties":{"PRECINCT":"hays:127","COUNTY":"Hays"},"geometry":{"type":"Polygon","coordinates":[[[-97.84878,29.99676],[-97.84714,29.99677],[-97.84234,29.9928],[-97.84221,29.99247],[-97.8287,29.98078],[-97.82793,29.98042],[-97.82553,29.97769],[-97.82192,29.97457],[-97.82953,29.96765],[-97.82817,29.96656],[-97.82841,29.96637],[-97.82786,29.96591],[-97.82766,29.96608],[-97.82661,29.96545],[-97.82349,29.96824],[-97.81486,29.95962],[-97.81522,29.95945],[-97.81642,29.96017],[-97.81797,29.96014],[-97.81964,29.95908],[-97.82053,29.9579],[-97.82167,29.95809],[-97.822,29.95834],[-97.82227,29.95913],[-97.82274,29.95962],[-97.8242,29.95934],[-97.82477,29.9595],[-97.82509,29.95982],[-97.82513,29.96077],[-97.8265,29.96236],[-97.82701,29.96226],[-97.82763,29.96167],[-97.82947,29.96157],[-97.82973,29.96176],[-97.82983,29.9625],[-97.83101,29.96359],[-97.8308,29.96452],[-97.83024,29.96489],[-97.83016,29.96522],[-97.83053,29.96613],[-97.83141,29.96652],[-97.83191,29.96801],[-97.83314,29.96862],[-97.83296,29.96919],[-97.83231,29.96967],[-97.83304,29.97035],[-97.83391,29.97068],[-97.83432,29.97059],[-97.83469,29.96973],[-97.83525,29.96953],[-97.83611,29.97018],[-97.83611,29.97104],[-97.83679,29.97118],[-97.83815,29.9711],[-97.83948,29.97023],[-97.84038,29.97013],[-97.84061,29.97079],[-97.84134,29.97158],[-97.84144,29.97248],[-97.84208,29.97299],[-97.84418,29.97665],[-97.84397,29.97849],[-97.84411,29.97907],[-97.84458,29.9796],[-97.84503,29.97956],[-97.84591,29.97878],[-97.84746,29.97854],[-97.84802,29.97902],[-97.8491,29.97925],[-97.84961,29.97974],[-97.85106,29.98004],[-97.85298,29.98155],[-97.85424,29.98299],[-97.85424,29.98334],[-97.85353,29.98386],[-97.85385,29.98469],[-97.85461,29.98538],[-97.85477,29.98581],[-97.85569,29.98595],[-97.85609,29.98636],[-97.85606,29.98668],[-97.8554,29.98739],[-97.85459,29.98744],[-97.85446,29.98776],[-97.85496,29.98856],[-97.85572,29.98886],[-97.85569,29.98923],[-97.85488,29.9901],[-97.8548,29.99083],[-97.85527,29.99145],[-97.85601,29.99182],[-97.85683,29.99154],[-97.85751,29.99088],[-97.85823,29.99114],[-97.85055,29.99814],[-97.84878,29.99676]]]}},{"type":"Feature","properties":{"PRECINCT":"hays:128","COUNTY":"Hays"},"geometry":{"type":"Polygon","coordinates":[[[-97.8697,29.98152],[-97.84441,29.96004],[-97.84053,29.9562],[-97.83331,29.94759],[-97.81784,29.93443],[-97.82736,29.92909],[-97.83661,29.92228],[-97.84918,29.916],[-97.86066,29.92582],[-97.86314,29.92744],[-97.87816,29.94003],[-97.87811,29.94043],[-97.87553,29.94288],[-97.88026,29.94695],[-97.87823,29.95249],[-97.87649,29.96081],[-97.8757,29.9615],[-97.87514,29.96357],[-97.8746,29.96679],[-97.87409,29.97251],[-97.87358,29.97209],[-97.87276,29.98083],[-97.86993,29.98068],[-97.87171,29.9791],[-97.87087,29.97829],[-97.86863,29.98013],[-97.86974,29.98107],[-97.8697,29.98152]]]}},{"type":"Feature","properties":{"PRECINCT":"hays:129","COUNTY":"Hays"},"geometry":{"type":"Polygon","coordinates":[[[-97.82819,30.03766],[-97.8282,30.03255],[-97.82879,30.03234],[-97.82905,30.03196],[-97.83368,30.03189],[-97.83329,30.02558],[-97.83241,30.02496],[-97.83303,30.02239],[-97.83137,30.022],[-97.83131,30.02175],[-97.84343,30.02464],[-97.84569,30.02009],[-97.84515,30.01986],[-97.84508,30.01952],[-97.84582,30.0193],[-97.84689,30.01762],[-97.84792,30.01735],[-97.85525,30.02004],[-97.8602,30.01267],[-97.86064,30.01282],[-97.84737,30.03166],[-97.84536,30.03558],[-97.84289,30.03525],[-97.84169,30.03762],[-97.82819,30.03766]]]}},{"type":"Feature","properties":{"PRECINCT":"hays:130","COUNTY":"Hays"},"geometry":{"type":"Polygon","coordinates":[[[-97.85055,29.99814],[-97.86601,29.98405],[-97.86864,29.9879],[-97.86974,29.98107],[-97.86863,29.98013],[-97.87087,29.97829],[-97.87171,29.9791],[-97.86993,29.98068],[-97.87276,29.98083],[-97.87358,29.97209],[-97.87409,29.97251],[-97.87485,29.96502],[-97.8757,29.9615],[-97.87649,29.96081],[-97.87478,29.96934],[-97.87341,29.98242],[-97.87126,29.99298],[-97.86917,29.99811],[-97.86064,30.01282],[-97.8602,30.01267],[-97.86217,30.00948],[-97.85323,30.00183],[-97.85283,30.00143],[-97.85254,29.99986],[-97.85055,29.99814]]]}},{"type":"Feature","properties":{"PRECINCT":"hays:220","COUNTY":"Hays"},"geometry":{"type":"Polygon","coordinates":[[[-97.88984,30.02255],[-97.88894,30.02229],[-97.88631,30.02247],[-97.88394,30.02162],[-97.88283,30.02185],[-97.88227,30.02167],[-97.88045,30.0205],[-97.87926,30.01928],[-97.87816,30.01892],[-97.8759,30.01624],[-97.87341,30.01452],[-97.87265,30.01375],[-97.87768,30.00943],[-97.88162,30.00546],[-97.88264,30.00544],[-97.88415,30.00471],[-97.88489,30.00491],[-97.88686,30.00605],[-97.88879,30.00668],[-97.8903,30.01099],[-97.89167,30.01228],[-97.89073,30.01353],[-97.88961,30.01824],[-97.88984,30.02255]]]}},{"type":"Feature","properties":{"PRECINCT":"hays:221","COUNTY":"Hays"},"geometry":{"type":"Polygon","coordinates":[[[-97.84418,30.05789],[-97.84463,30.05676],[-97.8447,30.04671],[-97.84292,30.04669],[-97.84211,30.04634],[-97.84024,30.04631],[-97.84276,30.04081],[-97.84011,30.0408],[-97.8402,30.04055],[-97.82827,30.04069],[-97.82819,30.03766],[-97.84169,30.03762],[-97.84289,30.03525],[-97.84488,30.03557],[-97.85231,30.03605],[-97.85265,30.03549],[-97.85332,30.03188],[-97.85461,30.02828],[-97.86686,30.0282],[-97.86882,30.01954],[-97.87158,30.00532],[-97.87422,30.0041],[-97.87529,30.00393],[-97.87735,30.00482],[-97.87909,30.00484],[-97.88033,30.0053],[-97.88162,30.00546],[-97.87768,30.00943],[-97.87265,30.01375],[-97.87341,30.01452],[-97.8759,30.01624],[-97.87816,30.01892],[-97.87926,30.01928],[-97.88045,30.0205],[-97.88227,30.02167],[-97.88283,30.02185],[-97.88394,30.02162],[-97.88631,30.02247],[-97.88894,30.02229],[-97.88984,30.02255],[-97.88991,30.0244],[-97.88957,30.02793],[-97.88875,30.03054],[-97.88762,30.03562],[-97.88337,30.04651],[-97.88039,30.04939],[-97.87885,30.05008],[-97.86974,30.0503],[-97.86811,30.0506],[-97.86676,30.05158],[-97.8624,30.05616],[-97.86111,30.05703],[-97.85902,30.05789],[-97.85676,30.05771],[-97.84418,30.05789]]]}},{"type":"Feature","properties":{"PRECINCT":"hays:222","COUNTY":"Hays"},"geometry":{"type":"Polygon","coordinates":[[[-97.81302,30.09861],[-97.81593,30.09244],[-97.8111,30.09252],[-97.81102,30.0875],[-97.81666,30.08734],[-97.81656,30.08468],[-97.8205,30.08457],[-97.82421,30.07722],[-97.82336,30.07909],[-97.82438,30.0795],[-97.82545,30.07711],[-97.84477,30.0769],[-97.84514,30.07697],[-97.84521,30.07747],[-97.84446,30.0789],[-97.84701,30.07888],[-97.84801,30.07849],[-97.85114,30.07631],[-97.85371,30.07385],[-97.85598,30.07238],[-97.85677,30.07117],[-97.85695,30.06865],[-97.85848,30.06864],[-97.8585,30.06915],[-97.85704,30.0692],[-97.8571,30.07148],[-97.85747,30.07377],[-97.86511,30.07596],[-97.8649,30.07663],[-97.85712,30.07657],[-97.85697,30.07203],[-97.85664,30.07171],[-97.8558,30.07265],[-97.85322,30.07445],[-97.85142,30.0763],[-97.85074,30.0778],[-97.84972,30.07809],[-97.84837,30.08038],[-97.84768,30.08254],[-97.85021,30.08602],[-97.84912,30.08523],[-97.84859,30.08645],[-97.84924,30.08747],[-97.8494,30.08819],[-97.84874,30.08994],[-97.84841,30.08973],[-97.84842,30.08931],[-97.84728,30.0893],[-97.84742,30.08914],[-97.84583,30.088],[-97.84383,30.08939],[-97.83997,30.08941],[-97.84118,30.08489],[-97.841,30.08493],[-97.84053,30.08664],[-97.83844,30.08675],[-97.83854,30.08767],[-97.83969,30.08768],[-97.83971,30.08973],[-97.83833,30.09456],[-97.83474,30.09305],[-97.83558,30.08952],[-97.83319,30.08913],[-97.83275,30.08786],[-97.83289,30.08884],[-97.8325,30.08917],[-97.83066,30.08945],[-97.83063,30.0882],[-97.82452,30.08907],[-97.82451,30.08925],[-97.82299,30.08949],[-97.82299,30.0902],[-97.82202,30.09019],[-97.822,30.0894],[-97.81906,30.08984],[-97.81841,30.09102],[-97.82198,30.09004],[-97.82193,30.092],[-97.82141,30.09187],[-97.82141,30.09155],[-97.8183,30.09121],[-97.81701,30.09318],[-97.82013,30.09455],[-97.81883,30.09554],[-97.81759,30.09549],[-97.8177,30.095],[-97.81706,30.09474],[-97.81683,30.09548],[-97.81549,30.09574],[-97.81394,30.09915],[-97.81302,30.09861]]]}},{"type":"Feature","properties":{"PRECINCT":"hays:223","COUNTY":"Hays"},"geometry":{"type":"Polygon","coordinates":[[[-97.85201,30.03604],[-97.84536,30.03558],[-97.84737,30.03166],[-97.85991,30.01404],[-97.86917,29.99811],[-97.87105,29.99368],[-97.87234,29.98809],[-97.87537,29.98855],[-97.876,29.98466],[-97.877,29.98483],[-97.87725,29.98409],[-97.87827,29.98314],[-97.87733,29.98222],[-97.87865,29.98102],[-97.88274,29.98427],[-97.88289,29.98439],[-97.88268,29.9846],[-97.88419,29.98588],[-97.88232,29.98755],[-97.88152,29.98762],[-97.88117,29.98938],[-97.88305,29.98963],[-97.88305,29.99082],[-97.88879,30.00668],[-97.88686,30.00605],[-97.88489,30.00491],[-97.88415,30.00471],[-97.88264,30.00544],[-97.88162,30.00546],[-97.88033,30.0053],[-97.87909,30.00484],[-97.87735,30.00482],[-97.87529,30.00393],[-97.87422,30.0041],[-97.87158,30.00532],[-97.86882,30.01954],[-97.86686,30.0282],[-97.85461,30.02828],[-97.85332,30.03188],[-97.85251,30.0359],[-97.85201,30.03604]]]}},{"type":"Feature","properties":{"PRECINCT":"hays:224","COUNTY":"Hays"},"geometry":{"type":"Polygon","coordinates":[[[-97.85805,30.11409],[-97.85772,30.10218],[-97.84798,30.10239],[-97.84839,30.10101],[-97.8482,30.09962],[-97.85012,30.09913],[-97.85012,30.09705],[-97.85085,30.09428],[-97.85156,30.09357],[-97.8531,30.093],[-97.85386,30.09303],[-97.85427,30.09333],[-97.85461,30.09425],[-97.85506,30.09449],[-97.85629,30.09425],[-97.85773,30.09451],[-97.85812,30.09265],[-97.86032,30.09265],[-97.86111,30.09289],[-97.86135,30.09322],[-97.86094,30.09374],[-97.8608,30.09416],[-97.86098,30.09423],[-97.86171,30.09397],[-97.86322,30.09404],[-97.86548,30.09457],[-97.86789,30.09483],[-97.86859,30.09524],[-97.87041,30.09563],[-97.87044,30.09693],[-97.87224,30.09792],[-97.87297,30.09874],[-97.87613,30.09696],[-97.8772,30.09657],[-97.87816,30.09638],[-97.88268,30.09632],[-97.88276,30.1038],[-97.87795,30.10386],[-97.87793,30.10346],[-97.87672,30.10229],[-97.8771,30.10191],[-97.87497,30.1007],[-97.87494,30.10015],[-97.87285,30.10055],[-97.86968,30.10061],[-97.8696,30.10041],[-97.86796,30.10064],[-97.8643,30.1007],[-97.86433,30.10473],[-97.86212,30.10478],[-97.86235,30.1141],[-97.85805,30.11409]]]}},{"type":"Feature","properties":{"PRECINCT":"hays:225","COUNTY":"Hays"},"geometry":{"type":"Polygon","coordinates":[[[-97.88093,30.05938],[-97.87774,30.05848],[-97.8758,30.05927],[-97.87519,30.05907],[-97.87396,30.058],[-97.87466,30.05031],[-97.87843,30.05014],[-97.87991,30.04969],[-97.88298,30.04693],[-97.8838,30.04576],[-97.88719,30.03714],[-97.88957,30.02793],[-97.88992,30.02369],[-97.88953,30.01882],[-97.89073,30.01353],[-97.89167,30.01228],[-97.90553,30.02389],[-97.90978,30.02774],[-97.91078,30.02823],[-97.91248,30.02844],[-97.92549,30.02824],[-97.92684,30.02846],[-97.93291,30.03254],[-97.93953,30.03549],[-97.94537,30.03877],[-97.95123,30.03931],[-97.95941,30.04215],[-97.96363,30.04384],[-97.98085,30.04648],[-97.9808,30.04932],[-97.97861,30.05721],[-97.98004,30.0577],[-97.98093,30.05695],[-97.9813,30.05693],[-97.98134,30.0582],[-97.98065,30.05953],[-97.97901,30.06062],[-97.97833,30.06069],[-97.97719,30.06042],[-97.97625,30.05894],[-97.97511,30.05794],[-97.97245,30.05661],[-97.97022,30.0545],[-97.96886,30.05352],[-97.96736,30.0528],[-97.9647,30.05221],[-97.95499,30.05163],[-97.94675,30.05366],[-97.94524,30.05336],[-97.94293,30.05108],[-97.94179,30.05032],[-97.94014,30.04977],[-97.93887,30.0498],[-97.93778,30.05027],[-97.93769,30.05156],[-97.9372,30.05254],[-97.93621,30.05354],[-97.93407,30.05512],[-97.93239,30.05681],[-97.93107,30.05879],[-97.92992,30.05984],[-97.9259,30.06228],[-97.92591,30.0608],[-97.92614,30.06084],[-97.92618,30.06023],[-97.92783,30.05989],[-97.92763,30.05172],[-97.90335,30.05198],[-97.90128,30.05356],[-97.90019,30.0556],[-97.89954,30.05617],[-97.89681,30.05714],[-97.8963,30.05762],[-97.89612,30.05994],[-97.89542,30.061],[-97.89301,30.06188],[-97.89231,30.06168],[-97.89107,30.06001],[-97.89066,30.05867],[-97.88998,30.05407],[-97.88948,30.05353],[-97.88829,30.05404],[-97.88803,30.05511],[-97.88663,30.05574],[-97.88528,30.05722],[-97.8852,30.05786],[-97.88614,30.06073],[-97.88581,30.06148],[-97.88391,30.06246],[-97.88338,30.0624],[-97.88189,30.06132],[-97.88161,30.05999],[-97.88093,30.05938]]]}},{"type":"Feature","properties":{"PRECINCT":"hays:226","COUNTY":"Hays"},"geometry":{"type":"Polygon","coordinates":[[[-97.85722,30.13124],[-97.82446,30.10761],[-97.82137,30.10498],[-97.82073,30.10404],[-97.81394,30.09915],[-97.81549,30.09574],[-97.81683,30.09548],[-97.81706,30.09474],[-97.8177,30.095],[-97.81759,30.09549],[-97.81883,30.09554],[-97.82013,30.09455],[-97.81701,30.09318],[-97.8183,30.09121],[-97.82141,30.09155],[-97.82141,30.09187],[-97.82193,30.092],[-97.82198,30.09004],[-97.81841,30.09102],[-97.81906,30.08984],[-97.822,30.0894],[-97.82202,30.09019],[-97.82299,30.0902],[-97.82299,30.08949],[-97.82451,30.08925],[-97.82452,30.08907],[-97.83063,30.0882],[-97.83066,30.08945],[-97.8325,30.08917],[-97.83289,30.08884],[-97.83275,30.08786],[-97.83319,30.08913],[-97.83558,30.08952],[-97.83474,30.09305],[-97.83833,30.09456],[-97.83971,30.08973],[-97.83969,30.08768],[-97.83854,30.08767],[-97.83844,30.08675],[-97.84053,30.08664],[-97.841,30.08493],[-97.84118,30.08489],[-97.83997,30.08941],[-97.84383,30.08939],[-97.84583,30.088],[-97.84742,30.08914],[-97.84728,30.0893],[-97.84842,30.08931],[-97.84828,30.09451],[-97.84464,30.09505],[-97.84306,30.09551],[-97.84303,30.10347],[-97.84444,30.10102],[-97.8464,30.10072],[-97.8482,30.09962],[-97.84839,30.10101],[-97.84798,30.10239],[-97.85772,30.10218],[-97.85805,30.11409],[-97.86235,30.1141],[-97.86212,30.10478],[-97.86433,30.10473],[-97.8643,30.1007],[-97.86796,30.10064],[-97.8696,30.10041],[-97.86968,30.10061],[-97.87285,30.10055],[-97.87494,30.10015],[-97.87525,30.10999],[-97.87512,30.1147],[-97.87531,30.11475],[-97.87526,30.11881],[-97.87552,30.12016],[-97.87546,30.12599],[-97.87186,30.1259],[-97.8694,30.12621],[-97.86906,30.12432],[-97.86862,30.12484],[-97.86607,30.12485],[-97.8654,30.12467],[-97.86331,30.12492],[-97.86226,30.12546],[-97.85885,30.12856],[-97.85837,30.12926],[-97.85809,30.13032],[-97.85722,30.13124]]]}},{"type":"Feature","properties":{"PRECINCT":"hays:227","COUNTY":"Hays"},"geometry":{"type":"Polygon","coordinates":[[[-97.82425,30.07724],[-97.82326,30.07907],[-97.82167,30.07848],[-97.82156,30.07203],[-97.82098,30.07096],[-97.82019,30.07046],[-97.81865,30.07028],[-97.80875,30.07049],[-97.80701,30.07037],[-97.8063,30.07001],[-97.80555,30.06918],[-97.8053,30.06793],[-97.80509,30.06261],[-97.80373,30.05868],[-97.8315,30.05834],[-97.8339,30.05807],[-97.83542,30.05866],[-97.83701,30.05983],[-97.8374,30.06165],[-97.83886,30.06529],[-97.83942,30.06607],[-97.84074,30.06686],[-97.84232,30.06701],[-97.84392,30.06692],[-97.8438,30.05908],[-97.84418,30.05789],[-97.85676,30.05771],[-97.85902,30.05789],[-97.85771,30.05871],[-97.85715,30.05946],[-97.85684,30.06042],[-97.85695,30.06882],[-97.85687,30.07072],[-97.85656,30.07162],[-97.85598,30.07238],[-97.85371,30.07385],[-97.85144,30.07606],[-97.84801,30.07849],[-97.84654,30.07897],[-97.84458,30.07898],[-97.84521,30.07747],[-97.84514,30.07697],[-97.84477,30.0769],[-97.82545,30.07711],[-97.82438,30.0795],[-97.82336,30.07909],[-97.82425,30.07724]]]}},{"type":"Feature","properties":{"PRECINCT":"hays:228","COUNTY":"Hays"},"geometry":{"type":"Polygon","coordinates":[[[-97.81302,30.09861],[-97.75148,30.05435],[-97.75627,30.05005],[-97.75616,30.04971],[-97.7544,30.04884],[-97.75414,30.04847],[-97.76941,30.03464],[-97.76911,30.03329],[-97.77467,30.03279],[-97.77662,30.03297],[-97.77763,30.03333],[-97.78246,30.03614],[-97.79,30.04225],[-97.79182,30.04058],[-97.79321,30.04178],[-97.79159,30.04336],[-97.79354,30.04458],[-97.7958,30.0449],[-97.80149,30.04484],[-97.80273,30.04533],[-97.80341,30.04624],[-97.80379,30.05931],[-97.80509,30.06261],[-97.8053,30.06793],[-97.80555,30.06918],[-97.8063,30.07001],[-97.80701,30.07037],[-97.80875,30.07049],[-97.81865,30.07028],[-97.82019,30.07046],[-97.82098,30.07096],[-97.82156,30.07203],[-97.82167,30.07848],[-97.82326,30.07907],[-97.8205,30.08457],[-97.81656,30.08468],[-97.81666,30.08734],[-97.81102,30.0875],[-97.8111,30.09252],[-97.81593,30.09244],[-97.81302,30.09861]]]}},{"type":"Feature","properties":{"PRECINCT":"hays:229","COUNTY":"Hays"},"geometry":{"type":"Polygon","coordinates":[[[-97.77846,30.02104],[-97.74934,29.99601],[-97.7532,29.99402],[-97.75699,29.99048],[-97.75941,29.98917],[-97.76071,29.98812],[-97.76133,29.98732],[-97.76469,29.98045],[-97.76479,29.97984],[-97.77468,29.96757],[-97.77464,29.96652],[-97.77692,29.96347],[-97.78581,29.9572],[-97.78854,29.95375],[-97.78975,29.95062],[-97.79033,29.94785],[-97.79146,29.94637],[-97.79259,29.94506],[-97.79647,29.9436],[-97.81231,29.95713],[-97.82349,29.96824],[-97.82661,29.96545],[-97.82766,29.96608],[-97.82786,29.96591],[-97.82841,29.96637],[-97.82817,29.96656],[-97.82953,29.96765],[-97.82192,29.97457],[-97.82553,29.97769],[-97.82793,29.98042],[-97.8287,29.98078],[-97.84221,29.99247],[-97.84234,29.9928],[-97.83722,30.00165],[-97.83384,30.00459],[-97.8342,30.00501],[-97.83079,30.00809],[-97.82767,30.00557],[-97.82749,30.00511],[-97.82295,30.00196],[-97.8202,29.99927],[-97.81986,29.99988],[-97.81936,30.00255],[-97.81798,30.00463],[-97.81731,30.00655],[-97.81696,30.01022],[-97.80288,30.02288],[-97.80156,30.02173],[-97.79887,30.02397],[-97.79528,30.02136],[-97.79478,30.02126],[-97.79053,30.02499],[-97.78876,30.02542],[-97.78607,30.02783],[-97.77846,30.02104]]]}},{"type":"Feature","properties":{"PRECINCT":"hays:230","COUNTY":"Hays"},"geometry":{"type":"Polygon","coordinates":[[[-97.90394,30.16448],[-97.87746,30.14559],[-97.87793,30.14483],[-97.87429,30.14337],[-97.85722,30.13124],[-97.85809,30.13032],[-97.85837,30.12926],[-97.85885,30.12856],[-97.86226,30.12546],[-97.86331,30.12492],[-97.8654,30.12467],[-97.86607,30.12485],[-97.86862,30.12484],[-97.86906,30.12432],[-97.8694,30.12621],[-97.87186,30.1259],[-97.87546,30.12599],[-97.87552,30.12016],[-97.87526,30.11881],[-97.87548,30.11473],[-97.87885,30.11461],[-97.88133,30.11569],[-97.88071,30.11728],[-97.87934,30.1189],[-97.87882,30.11999],[-97.87957,30.12112],[-97.88249,30.12268],[-97.88351,30.1225],[-97.88459,30.12133],[-97.88488,30.12038],[-97.88616,30.11818],[-97.89019,30.11789],[-97.89002,30.11342],[-97.89363,30.11337],[-97.8937,30.11588],[-97.89424,30.11729],[-97.89481,30.11805],[-97.8963,30.11855],[-97.89932,30.11878],[-97.8991,30.116],[-97.89852,30.11379],[-97.89836,30.10751],[-97.89717,30.10529],[-97.89714,30.10417],[-97.89898,30.10424],[-97.90163,30.10545],[-97.90511,30.10583],[-97.90522,30.10306],[-97.90479,30.09947],[-97.90499,30.09763],[-97.90478,30.09541],[-97.92633,30.09521],[-97.9279,30.09535],[-97.93032,30.09647],[-97.93702,30.10075],[-97.9509,30.11377],[-97.9525,30.1139],[-97.95257,30.11489],[-97.95666,30.11698],[-97.95663,30.12086],[-97.91609,30.15439],[-97.9069,30.16233],[-97.90394,30.16448]]]}},{"type":"Feature","properties":{"PRECINCT":"hays:231","COUNTY":"Hays"},"geometry":{"type":"Polygon","coordinates":[[[-97.82883,30.05839],[-97.80373,30.05868],[-97.80349,30.04749],[-97.80341,30.04624],[-97.80303,30.04562],[-97.80159,30.04485],[-97.79452,30.04485],[-97.79354,30.04458],[-97.79259,30.04402],[-97.79797,30.03918],[-97.80069,30.03866],[-97.80424,30.03859],[-97.8045,30.03716],[-97.80524,30.03636],[-97.79669,30.02923],[-97.79418,30.02841],[-97.80017,30.023],[-97.81055,30.03173],[-97.81158,30.0309],[-97.81285,30.03053],[-97.82464,30.03039],[-97.82562,30.03063],[-97.82774,30.03178],[-97.82905,30.03196],[-97.82879,30.03234],[-97.8282,30.03255],[-97.82807,30.03306],[-97.82883,30.05839]]]}},{"type":"Feature","properties":{"PRECINCT":"hays:232","COUNTY":"Hays"},"geometry":{"type":"Polygon","coordinates":[[[-97.87921,30.11467],[-97.87631,30.11462],[-97.87548,30.11473],[-97.87532,30.11493],[-97.87512,30.1147],[-97.87525,30.10999],[-97.87497,30.1007],[-97.8771,30.10191],[-97.87672,30.10229],[-97.87793,30.10346],[-97.87795,30.10386],[-97.88276,30.1038],[-97.88268,30.09632],[-97.87771,30.09645],[-97.87647,30.0968],[-97.87483,30.09768],[-97.87467,30.08548],[-97.87003,30.08559],[-97.86992,30.08098],[-97.86871,30.08101],[-97.86882,30.08561],[-97.85733,30.08583],[-97.85742,30.08876],[-97.85299,30.08905],[-97.85211,30.08785],[-97.85077,30.087],[-97.84768,30.08254],[-97.84837,30.08038],[-97.84972,30.07809],[-97.85074,30.0778],[-97.85142,30.0763],[-97.85322,30.07445],[-97.8558,30.07265],[-97.85664,30.07171],[-97.85697,30.07203],[-97.85712,30.07657],[-97.86499,30.07652],[-97.86511,30.07596],[-97.85747,30.07377],[-97.8571,30.07148],[-97.85704,30.0692],[-97.8585,30.06915],[-97.85848,30.06864],[-97.85695,30.06865],[-97.85684,30.06042],[-97.85715,30.05946],[-97.85771,30.05871],[-97.85854,30.0581],[-97.862,30.05648],[-97.86676,30.05158],[-97.86811,30.0506],[-97.86974,30.0503],[-97.87469,30.05022],[-97.87396,30.058],[-97.87519,30.05907],[-97.8758,30.05927],[-97.87774,30.05848],[-97.88093,30.05938],[-97.88161,30.05999],[-97.88189,30.06132],[-97.88295,30.0622],[-97.88391,30.06246],[-97.88581,30.06148],[-97.88614,30.06073],[-97.8852,30.05786],[-97.88551,30.05678],[-97.88663,30.05574],[-97.88803,30.05511],[-97.88829,30.05404],[-97.88948,30.05353],[-97.88998,30.05407],[-97.89066,30.05867],[-97.89107,30.06001],[-97.89231,30.06168],[-97.89301,30.06188],[-97.89542,30.061],[-97.89612,30.05994],[-97.8963,30.05762],[-97.89681,30.05714],[-97.89954,30.05617],[-97.90019,30.0556],[-97.90128,30.05356],[-97.90335,30.05198],[-97.92763,30.05172],[-97.92783,30.05989],[-97.92618,30.06023],[-97.92614,30.06084],[-97.92591,30.0608],[-97.9259,30.06228],[-97.92992,30.05984],[-97.93107,30.05879],[-97.93239,30.05681],[-97.93407,30.05512],[-97.93621,30.05354],[-97.9372,30.05254],[-97.93769,30.05156],[-97.93778,30.05027],[-97.93887,30.0498],[-97.94014,30.04977],[-97.94179,30.05032],[-97.94293,30.05108],[-97.94524,30.05336],[-97.94675,30.05366],[-97.95499,30.05163],[-97.9647,30.05221],[-97.96736,30.0528],[-97.96886,30.05352],[-97.97022,30.0545],[-97.97245,30.05661],[-97.97511,30.05794],[-97.97625,30.05894],[-97.97719,30.06042],[-97.97833,30.06069],[-97.97901,30.06062],[-97.98176,30.06224],[-97.98272,30.06338],[-97.98295,30.06387],[-97.98269,30.06485],[-97.98205,30.06585],[-97.98106,30.06712],[-97.97837,30.06932],[-97.97793,30.07012],[-97.97822,30.07263],[-97.97931,30.0745],[-97.97948,30.0761],[-97.97924,30.07733],[-97.9786,30.07833],[-97.97713,30.07923],[-97.9747,30.08134],[-97.97426,30.08305],[-97.9745,30.0841],[-97.9752,30.08501],[-97.97663,30.08613],[-97.97785,30.08797],[-97.9789,30.08895],[-97.98014,30.0895],[-97.98186,30.08928],[-97.98364,30.08864],[-97.98576,30.08751],[-97.98628,30.11738],[-97.98533,30.11712],[-97.98359,30.11708],[-97.96118,30.11731],[-97.95767,30.11724],[-97.95661,30.11697],[-97.95257,30.11489],[-97.9525,30.1139],[-97.9509,30.11377],[-97.93702,30.10075],[-97.92902,30.09571],[-97.9279,30.09535],[-97.92633,30.09521],[-97.90478,30.09541],[-97.90499,30.09763],[-97.90479,30.09947],[-97.90522,30.10306],[-97.90511,30.10583],[-97.90163,30.10545],[-97.89898,30.10424],[-97.89714,30.10417],[-97.89717,30.10529],[-97.89836,30.10751],[-97.89852,30.11379],[-97.8991,30.116],[-97.89932,30.11878],[-97.8963,30.11855],[-97.89481,30.11805],[-97.89424,30.11729],[-97.8937,30.11588],[-97.89363,30.11337],[-97.89002,30.11342],[-97.89019,30.11789],[-97.88616,30.11818],[-97.88488,30.12038],[-97.88459,30.12133],[-97.88351,30.1225],[-97.88249,30.12268],[-97.87957,30.12112],[-97.87895,30.12045],[-97.87882,30.11999],[-97.87906,30.11939],[-97.88071,30.11728],[-97.88133,30.11569],[-97.87921,30.11467]]]}},{"type":"Feature","properties":{"PRECINCT":"hays:233","COUNTY":"Hays"},"geometry":{"type":"Polygon","coordinates":[[[-97.83421,30.05819],[-97.82883,30.05839],[-97.82822,30.04078],[-97.8402,30.04055],[-97.84011,30.0408],[-97.84276,30.04081],[-97.84024,30.04631],[-97.84211,30.04634],[-97.84292,30.04669],[-97.8447,30.04671],[-97.84463,30.05676],[-97.8438,30.05908],[-97.84392,30.06692],[-97.84114,30.06695],[-97.83956,30.0662],[-97.83895,30.06546],[-97.83837,30.06411],[-97.8374,30.06165],[-97.83707,30.05992],[-97.83542,30.05866],[-97.83421,30.05819]]]}},{"type":"Feature","properties":{"PRECINCT":"hays:234","COUNTY":"Hays"},"geometry":{"type":"Polygon","coordinates":[[[-97.75148,30.05435],[-97.70955,30.02397],[-97.71151,30.02223],[-97.71167,30.02112],[-97.74753,29.99533],[-97.74874,29.99628],[-97.74934,29.99601],[-97.76667,30.01109],[-97.78004,30.02238],[-97.78172,30.02412],[-97.78607,30.02783],[-97.78876,30.02542],[-97.79053,30.02499],[-97.79478,30.02126],[-97.7951,30.02125],[-97.79762,30.02294],[-97.799,30.02396],[-97.79418,30.02841],[-97.79669,30.02923],[-97.80524,30.03636],[-97.8045,30.03716],[-97.80424,30.03859],[-97.80069,30.03866],[-97.79797,30.03918],[-97.79259,30.04402],[-97.79159,30.04336],[-97.79321,30.04178],[-97.79182,30.04058],[-97.79,30.04225],[-97.78246,30.03614],[-97.77763,30.03333],[-97.77662,30.03297],[-97.77467,30.03279],[-97.76911,30.03329],[-97.76941,30.03464],[-97.75414,30.04847],[-97.7544,30.04884],[-97.75616,30.04971],[-97.75627,30.05005],[-97.75148,30.05435]]]}},{"type":"Feature","properties":{"PRECINCT":"hays:235","COUNTY":"Hays"},"geometry":{"type":"Polygon","coordinates":[[[-97.84828,30.09451],[-97.84841,30.08973],[-97.84874,30.08994],[-97.8494,30.08819],[-97.84924,30.08747],[-97.84859,30.08645],[-97.84912,30.08523],[-97.85021,30.08602],[-97.85096,30.08718],[-97.85211,30.08785],[-97.85299,30.08905],[-97.85742,30.08876],[-97.85733,30.08583],[-97.86882,30.08561],[-97.86871,30.08101],[-97.86992,30.08098],[-97.87003,30.08559],[-97.87467,30.08548],[-97.87483,30.09768],[-97.87297,30.09874],[-97.87224,30.09792],[-97.87044,30.09693],[-97.87041,30.09563],[-97.86859,30.09524],[-97.86789,30.09483],[-97.86548,30.09457],[-97.86322,30.09404],[-97.86171,30.09397],[-97.86098,30.09423],[-97.8608,30.09416],[-97.86094,30.09374],[-97.86135,30.09337],[-97.86111,30.09289],[-97.85884,30.09254],[-97.85812,30.09265],[-97.85773,30.09451],[-97.85629,30.09425],[-97.85506,30.09449],[-97.85438,30.09395],[-97.85427,30.09333],[-97.85386,30.09303],[-97.8531,30.093],[-97.85156,30.09357],[-97.85085,30.09428],[-97.85012,30.09705],[-97.85012,30.09913],[-97.84876,30.09934],[-97.8464,30.10072],[-97.84444,30.10102],[-97.84305,30.10349],[-97.84306,30.09551],[-97.84464,30.09505],[-97.84828,30.09451]]]}},{"type":"Feature","properties":{"PRECINCT":"hays:236","COUNTY":"Hays"},"geometry":{"type":"Polygon","coordinates":[[[-97.97222,30.1523],[-97.97204,30.12839],[-97.95653,30.12852],[-97.95666,30.11698],[-97.95767,30.11724],[-97.96118,30.11731],[-97.98533,30.11712],[-97.98636,30.1174],[-97.9878,30.11826],[-97.99275,30.12186],[-97.99507,30.12252],[-98.00017,30.1227],[-98.00182,30.12337],[-98.0104,30.13192],[-98.00942,30.13293],[-98.00816,30.13512],[-98.00694,30.13644],[-98.0032,30.13904],[-98.00163,30.13983],[-97.99548,30.14129],[-97.99401,30.14201],[-97.99014,30.14513],[-97.98878,30.14579],[-97.98279,30.14808],[-97.97747,30.1506],[-97.97422,30.15122],[-97.97222,30.1523]]]}},{"type":"Feature","properties":{"PRECINCT":"hays:238","COUNTY":"Hays"},"geometry":{"type":"Polygon","coordinates":[[[-97.91581,30.17285],[-97.90394,30.16448],[-97.9069,30.16233],[-97.91552,30.15489],[-97.9161,30.15562],[-97.9188,30.15783],[-97.91762,30.15811],[-97.91859,30.15919],[-97.91862,30.16312],[-97.91799,30.16513],[-97.91603,30.16516],[-97.91612,30.16956],[-97.91875,30.16952],[-97.91876,30.17181],[-97.91593,30.17185],[-97.91581,30.17285]]]}},{"type":"Feature","properties":{"PRECINCT":"hays:301","COUNTY":"Hays"},"geometry":{"type":"Polygon","coordinates":[[[-98.00971,29.80589],[-98.01504,29.80106],[-98.01518,29.80148],[-98.01,29.80617],[-98.00971,29.80589]]]}},{"type":"Feature","properties":{"PRECINCT":"hays:315","COUNTY":"Hays"},"geometry":{"type":"Polygon","coordinates":[[[-98.11458,29.91631],[-98.11104,29.9163],[-98.1088,29.91605],[-98.10211,29.91067],[-98.09846,29.90702],[-98.09426,29.90552],[-98.09302,29.90467],[-98.09086,29.90369],[-98.08965,29.90245],[-98.08957,29.90133],[-98.08788,29.90044],[-98.08467,29.90012],[-98.08118,29.90076],[-98.07894,29.90161],[-98.07831,29.9017],[-98.07775,29.90142],[-98.07628,29.8998],[-98.07678,29.89672],[-98.07499,29.8948],[-98.07397,29.89441],[-98.06647,29.89308],[-98.06578,29.89256],[-98.0651,29.89077],[-98.06444,29.89026],[-98.06173,29.88932],[-98.06123,29.88896],[-98.06113,29.88829],[-98.06152,29.88779],[-98.0635,29.88747],[-98.06515,29.88666],[-98.06597,29.88595],[-98.06673,29.88426],[-98.06663,29.88327],[-98.06307,29.88041],[-98.06055,29.87997],[-98.05979,29.87951],[-98.05892,29.87935],[-98.05582,29.88041],[-98.05305,29.88171],[-98.05116,29.88297],[-98.04898,29.88405],[-98.04427,29.88708],[-98.0414,29.88944],[-98.03867,29.88978],[-98.03643,29.88934],[-98.03517,29.88959],[-98.03422,29.88911],[-98.03385,29.88817],[-98.03409,29.88691],[-98.03462,29.88602],[-98.03583,29.8851],[-98.04059,29.88336],[-98.04119,29.88267],[-98.04125,29.88178],[-98.04064,29.88022],[-98.04009,29.87995],[-98.03851,29.87979],[-98.03385,29.88272],[-98.03022,29.88634],[-98.02891,29.88813],[-98.02701,29.88948],[-98.02643,29.88955],[-98.02499,29.88925],[-98.01684,29.88439],[-98.01499,29.88358],[-98.01265,29.88124],[-98.01266,29.87946],[-98.01331,29.87865],[-98.01505,29.87772],[-98.01708,29.87712],[-98.0175,29.87671],[-98.0175,29.87607],[-98.0165,29.8748],[-98.01174,29.87337],[-98.01047,29.87275],[-98.00379,29.87245],[-98.00274,29.87266],[-98.00198,29.87321],[-98.00156,29.87417],[-98.00127,29.87588],[-98.00062,29.87631],[-97.99869,29.87555],[-97.99738,29.8742],[-97.99635,29.87362],[-97.99496,29.87339],[-97.9939,29.87374],[-97.99146,29.87595],[-97.9902,29.87671],[-97.98799,29.87703],[-97.98631,29.8766],[-97.98847,29.87848],[-97.98871,29.87893],[-97.9911,29.88072],[-97.9922,29.88206],[-97.99237,29.88266],[-97.99123,29.88306],[-97.9907,29.88386],[-97.98934,29.88475],[-97.98839,29.88725],[-97.98303,29.88708],[-97.98228,29.88784],[-97.97744,29.8837],[-97.98046,29.88114],[-97.9808,29.88049],[-97.98192,29.8802],[-97.98296,29.87914],[-97.98466,29.87818],[-97.98184,29.87435],[-97.98005,29.87579],[-97.98005,29.87608],[-97.97962,29.87645],[-97.97876,29.87617],[-97.97695,29.87603],[-97.97677,29.87558],[-97.97633,29.87564],[-97.97478,29.8729],[-97.9745,29.87172],[-97.97076,29.87511],[-97.96954,29.87408],[-97.96828,29.87507],[-97.96526,29.87242],[-97.96473,29.87277],[-97.96386,29.87282],[-97.96367,29.87301],[-97.96313,29.87248],[-97.97024,29.86623],[-97.9707,29.86661],[-97.9719,29.86583],[-97.97248,29.86524],[-97.97193,29.86472],[-97.97476,29.8618],[-97.97759,29.85976],[-97.97364,29.85665],[-97.97469,29.85563],[-97.97436,29.85556],[-97.97457,29.85516],[-97.97377,29.8545],[-97.97312,29.85488],[-97.97254,29.8545],[-97.97233,29.85491],[-97.97204,29.85472],[-97.97323,29.85271],[-97.97571,29.85067],[-97.97727,29.8488],[-97.97983,29.84672],[-97.98303,29.84283],[-97.98783,29.83908],[-97.99056,29.83596],[-97.9938,29.83329],[-97.99699,29.83153],[-97.99952,29.82949],[-98.00495,29.82397],[-98.01866,29.81217],[-98.03052,29.84854],[-98.12127,29.91284],[-98.12124,29.91644],[-98.12145,29.91748],[-98.11858,29.91773],[-98.11673,29.91686],[-98.11458,29.91631]]]}},{"type":"Feature","properties":{"PRECINCT":"hays:316","COUNTY":"Hays"},"geometry":{"type":"Polygon","coordinates":[[[-97.96641,29.87777],[-97.96432,29.87942],[-97.95979,29.8755],[-97.95931,29.87552],[-97.95719,29.87368],[-97.95901,29.87207],[-97.95824,29.87123],[-97.96189,29.86855],[-97.96404,29.86365],[-97.96344,29.86351],[-97.96281,29.86244],[-97.96122,29.86107],[-97.96049,29.86109],[-97.95922,29.86216],[-97.9531,29.85682],[-98.00971,29.80589],[-98.01,29.80617],[-98.01518,29.80148],[-98.01866,29.81217],[-98.00495,29.82397],[-97.99952,29.82949],[-97.99699,29.83153],[-97.9938,29.83329],[-97.99056,29.83596],[-97.98783,29.83908],[-97.98303,29.84283],[-97.97983,29.84672],[-97.97727,29.8488],[-97.97571,29.85067],[-97.97314,29.85281],[-97.97204,29.85472],[-97.97233,29.85491],[-97.97254,29.8545],[-97.97312,29.85488],[-97.97377,29.8545],[-97.97457,29.85516],[-97.97436,29.85556],[-97.97469,29.85563],[-97.97364,29.85665],[-97.97759,29.85976],[-97.97476,29.8618],[-97.97193,29.86472],[-97.97248,29.86524],[-97.9719,29.86583],[-97.9707,29.86661],[-97.97024,29.86623],[-97.96313,29.87248],[-97.96367,29.87301],[-97.96386,29.87282],[-97.96473,29.87277],[-97.96526,29.87242],[-97.96828,29.87507],[-97.96769,29.87502],[-97.96727,29.87614],[-97.97113,29.87952],[-97.96874,29.88158],[-97.9679,29.88078],[-97.96892,29.87987],[-97.96641,29.87777]]]}},{"type":"Feature","properties":{"PRECINCT":"hays:317","COUNTY":"Hays"},"geometry":{"type":"Polygon","coordinates":[[[-97.96617,29.88386],[-97.95504,29.87397],[-97.95824,29.87123],[-97.95901,29.87207],[-97.95724,29.87357],[-97.95725,29.87376],[-97.95941,29.87559],[-97.95979,29.8755],[-97.96432,29.87942],[-97.96641,29.87777],[-97.96892,29.87987],[-97.9679,29.88078],[-97.96874,29.88158],[-97.96617,29.88386]]]}},{"type":"Feature","properties":{"PRECINCT":"hays:318","COUNTY":"Hays"},"geometry":{"type":"Polygon","coordinates":[[[-97.95236,29.87644],[-97.95128,29.87528],[-97.95392,29.87298],[-97.95594,29.87474],[-97.95426,29.87614],[-97.95341,29.87545],[-97.95236,29.87644]]]}},{"type":"Feature","properties":{"PRECINCT":"hays:330","COUNTY":"Hays"},"geometry":{"type":"Polygon","coordinates":[[[-97.95137,29.88519],[-97.94961,29.88521],[-97.94849,29.88434],[-97.94695,29.88574],[-97.94612,29.88597],[-97.94572,29.88365],[-97.94161,29.88414],[-97.94125,29.88214],[-97.94446,29.88176],[-97.94535,29.8804],[-97.95121,29.87536],[-97.95236,29.87644],[-97.95341,29.87545],[-97.95426,29.87614],[-97.95594,29.87474],[-97.96617,29.88386],[-97.95719,29.89171],[-97.95504,29.8896],[-97.95419,29.8879],[-97.95306,29.88631],[-97.95137,29.88519]]]}},{"type":"Feature","properties":{"PRECINCT":"hays:332","COUNTY":"Hays"},"geometry":{"type":"Polygon","coordinates":[[[-97.99987,29.99683],[-97.99801,29.99468],[-97.99759,29.99447],[-97.99792,29.99445],[-97.99809,29.99362],[-97.99865,29.99309],[-97.99945,29.99343],[-97.99985,29.99318],[-98.00049,29.99328],[-98.00071,29.99367],[-98.0011,29.99365],[-98.00204,29.99494],[-98.0034,29.99572],[-98.00422,29.99583],[-98.00477,29.99497],[-98.00486,29.99442],[-98.00396,29.99264],[-98.00439,29.99014],[-98.00425,29.98838],[-98.00482,29.98767],[-98.00506,29.98682],[-98.00494,29.9863],[-98.00427,29.98562],[-98.00428,29.98375],[-98.00374,29.98321],[-98.00121,29.98207],[-98.00105,29.98177],[-98.00141,29.98124],[-98.00003,29.97982],[-97.99971,29.97865],[-97.99684,29.97811],[-97.99087,29.9711],[-97.98936,29.96989],[-97.98737,29.96662],[-97.98297,29.96444],[-97.98192,29.96428],[-97.97947,29.9647],[-97.97876,29.96451],[-97.97529,29.9605],[-97.97305,29.95853],[-97.97196,29.9576],[-97.96943,29.95602],[-97.96581,29.95245],[-97.963,29.95092],[-97.96123,29.94939],[-97.95825,29.94487],[-97.95824,29.94036],[-97.95414,29.93688],[-97.95361,29.93603],[-97.9523,29.93252],[-97.95007,29.92922],[-97.94905,29.92809],[-97.94787,29.92608],[-97.9471,29.92529],[-97.94288,29.92283],[-97.94186,29.92254],[-97.94035,29.92246],[-97.93713,29.92144],[-97.93551,29.92122],[-97.9342,29.91925],[-97.93217,29.91353],[-97.93129,29.91241],[-97.92918,29.91086],[-97.92873,29.91014],[-97.92885,29.90845],[-97.93009,29.90601],[-97.9299,29.90448],[-97.92585,29.89916],[-97.92184,29.89659],[-97.92389,29.89474],[-97.92715,29.89693],[-97.92908,29.89516],[-97.92999,29.89555],[-97.93031,29.89545],[-97.93068,29.89484],[-97.93232,29.89372],[-97.93287,29.89291],[-97.93376,29.89223],[-97.93416,29.8912],[-97.93557,29.89012],[-97.93666,29.89046],[-97.93647,29.89159],[-97.93739,29.89224],[-97.93815,29.89167],[-97.93849,29.89192],[-97.93868,29.89175],[-97.93827,29.89124],[-97.93835,29.89101],[-97.9391,29.89157],[-97.94053,29.89132],[-97.94185,29.89159],[-97.94298,29.89214],[-97.94424,29.89232],[-97.9455,29.89199],[-97.94687,29.89067],[-97.94859,29.89012],[-97.95012,29.88912],[-97.9505,29.88922],[-97.95362,29.89186],[-97.95553,29.89017],[-97.96034,29.89483],[-97.95998,29.89564],[-97.95889,29.89554],[-97.958,29.89624],[-97.95717,29.89581],[-97.95639,29.89576],[-97.95519,29.89659],[-97.95428,29.89847],[-97.9535,29.89903],[-97.95288,29.90301],[-97.9524,29.9026],[-97.95103,29.90378],[-97.94912,29.90195],[-97.9475,29.9035],[-97.94769,29.90367],[-97.94752,29.90382],[-97.94972,29.90585],[-97.94774,29.90742],[-97.94799,29.90771],[-97.94775,29.9111],[-97.94681,29.91192],[-97.94591,29.91598],[-97.94686,29.91671],[-97.9501,29.91653],[-97.95091,29.91571],[-97.95178,29.91541],[-97.95281,29.91465],[-97.95488,29.91449],[-97.9556,29.91559],[-97.9556,29.91621],[-97.95541,29.91676],[-97.95441,29.91786],[-97.95444,29.91919],[-97.95612,29.92116],[-97.95718,29.92185],[-97.95846,29.9221],[-97.96083,29.9232],[-97.96131,29.92359],[-97.96188,29.92483],[-97.96278,29.92526],[-97.96436,29.92556],[-97.96533,29.92613],[-97.96683,29.92625],[-97.97859,29.93781],[-97.9915,29.94884],[-98.01068,29.96473],[-98.01068,29.97241],[-98.02947,29.9722],[-98.02909,29.97269],[-98.02729,29.9738],[-98.02591,29.97558],[-98.02244,29.97797],[-98.02219,29.97885],[-98.02141,29.97901],[-98.02021,29.97857],[-98.01931,29.97881],[-98.01821,29.98237],[-98.01756,29.98303],[-98.01621,29.98372],[-98.01545,29.98359],[-98.01428,29.98375],[-98.01327,29.98419],[-98.00947,29.98636],[-98.00741,29.98789],[-98.00633,29.98945],[-98.00615,29.99057],[-98.00687,29.99468],[-98.00693,29.99674],[-98.00651,29.99807],[-98.00543,29.99917],[-98.00393,29.99965],[-98.00275,29.99937],[-98.00172,29.99855],[-98.00065,29.9971],[-97.99987,29.99683]]]}},{"type":"Feature","properties":{"PRECINCT":"hays:334","COUNTY":"Hays"},"geometry":{"type":"Polygon","coordinates":[[[-97.94135,29.89146],[-97.94116,29.88978],[-97.94158,29.88974],[-97.9427,29.88983],[-97.94355,29.88941],[-97.94416,29.88997],[-97.94468,29.88939],[-97.94346,29.88827],[-97.94474,29.88761],[-97.94454,29.88714],[-97.94344,29.88732],[-97.94308,29.88514],[-97.93919,29.88563],[-97.9393,29.8867],[-97.9381,29.88685],[-97.93766,29.88469],[-97.94033,29.88432],[-97.94016,29.8832],[-97.94138,29.88303],[-97.94161,29.88414],[-97.94572,29.88365],[-97.94612,29.88597],[-97.94695,29.88574],[-97.94849,29.88434],[-97.94961,29.88521],[-97.95154,29.88521],[-97.95293,29.88618],[-97.95362,29.88701],[-97.95483,29.88931],[-97.95553,29.89017],[-97.95362,29.89186],[-97.9505,29.88922],[-97.95012,29.88912],[-97.94859,29.89012],[-97.94687,29.89067],[-97.9455,29.89199],[-97.94424,29.89232],[-97.94298,29.89214],[-97.94135,29.89146]]]}},{"type":"Feature","properties":{"PRECINCT":"hays:336","COUNTY":"Hays"},"geometry":{"type":"Polygon","coordinates":[[[-98.00028,29.92543],[-97.99933,29.92527],[-97.99814,29.92566],[-97.99365,29.92984],[-97.99302,29.92997],[-97.9913,29.92965],[-97.99004,29.92872],[-97.98954,29.92794],[-97.98941,29.92709],[-97.98957,29.92376],[-97.99104,29.92062],[-97.99143,29.91906],[-97.99043,29.91877],[-97.99004,29.91893],[-97.98493,29.92244],[-97.98215,29.92273],[-97.98062,29.92115],[-97.9798,29.91953],[-97.97846,29.91827],[-97.97688,29.91893],[-97.9757,29.91891],[-97.97451,29.91916],[-97.97369,29.91885],[-97.97296,29.91889],[-97.97193,29.91944],[-97.97059,29.92095],[-97.96899,29.92457],[-97.96833,29.92551],[-97.96744,29.9262],[-97.96533,29.92613],[-97.96436,29.92556],[-97.96278,29.92526],[-97.96188,29.92483],[-97.96131,29.92359],[-97.96083,29.9232],[-97.95846,29.9221],[-97.95654,29.92153],[-97.95478,29.91972],[-97.95444,29.91919],[-97.95441,29.91786],[-97.95541,29.91676],[-97.9556,29.91621],[-97.9556,29.91559],[-97.95488,29.91449],[-97.95281,29.91465],[-97.95178,29.91541],[-97.95091,29.91571],[-97.9501,29.91653],[-97.94686,29.91671],[-97.94591,29.91598],[-97.94681,29.91192],[-97.94775,29.9111],[-97.94799,29.90771],[-97.94774,29.90742],[-97.94972,29.90585],[-97.94752,29.90382],[-97.94769,29.90367],[-97.9475,29.9035],[-97.94912,29.90195],[-97.95103,29.90378],[-97.9524,29.9026],[-97.95288,29.90301],[-97.95355,29.89889],[-97.95428,29.89847],[-97.9549,29.89691],[-97.95622,29.89581],[-97.95717,29.89581],[-97.958,29.89624],[-97.95889,29.89554],[-97.95998,29.89564],[-97.96034,29.89483],[-97.96199,29.89566],[-97.96847,29.89703],[-97.97295,29.89883],[-97.98021,29.89932],[-97.98387,29.90042],[-97.98464,29.90029],[-97.98537,29.89986],[-97.98051,29.88801],[-97.97947,29.88633],[-97.9781,29.88478],[-97.97633,29.88343],[-97.97157,29.8806],[-97.97083,29.87978],[-97.97113,29.87952],[-97.96727,29.87614],[-97.96769,29.87502],[-97.96828,29.87507],[-97.96954,29.87408],[-97.97076,29.87511],[-97.9745,29.87172],[-97.97478,29.8729],[-97.97633,29.87564],[-97.97677,29.87558],[-97.97695,29.87603],[-97.97876,29.87617],[-97.97962,29.87645],[-97.98005,29.87608],[-97.98005,29.87579],[-97.98184,29.87435],[-97.98466,29.87818],[-97.98296,29.87914],[-97.98192,29.8802],[-97.9808,29.88049],[-97.98046,29.88114],[-97.97744,29.8837],[-97.98228,29.88784],[-97.98303,29.88708],[-97.98839,29.88725],[-97.98934,29.88475],[-97.9907,29.88386],[-97.99123,29.88306],[-97.99237,29.88266],[-97.9922,29.88206],[-97.9911,29.88072],[-97.98871,29.87893],[-97.98847,29.87848],[-97.98631,29.8766],[-97.98799,29.87703],[-97.9902,29.87671],[-97.99146,29.87595],[-97.9939,29.87374],[-97.99496,29.87339],[-97.99635,29.87362],[-97.99738,29.8742],[-97.99869,29.87555],[-98.00062,29.87631],[-98.00127,29.87588],[-98.00156,29.87417],[-98.00198,29.87321],[-98.00274,29.87266],[-98.00379,29.87245],[-98.01047,29.87275],[-98.01174,29.87337],[-98.0165,29.8748],[-98.0175,29.87607],[-98.0175,29.87671],[-98.01708,29.87712],[-98.01505,29.87772],[-98.01331,29.87865],[-98.01266,29.87946],[-98.01265,29.88124],[-98.01499,29.88358],[-98.01684,29.88439],[-98.02499,29.88925],[-98.02643,29.88955],[-98.02701,29.88948],[-98.02891,29.88813],[-98.03022,29.88634],[-98.03385,29.88272],[-98.03851,29.87979],[-98.04009,29.87995],[-98.04064,29.88022],[-98.04125,29.88178],[-98.04119,29.88267],[-98.04059,29.88336],[-98.03583,29.8851],[-98.03462,29.88602],[-98.03409,29.88691],[-98.03385,29.88817],[-98.03422,29.88911],[-98.03517,29.88959],[-98.03643,29.88934],[-98.03867,29.88978],[-98.0414,29.88944],[-98.04427,29.88708],[-98.04898,29.88405],[-98.05116,29.88297],[-98.05305,29.88171],[-98.05582,29.88041],[-98.05892,29.87935],[-98.05979,29.87951],[-98.06055,29.87997],[-98.06307,29.88041],[-98.06663,29.88327],[-98.06673,29.88426],[-98.06597,29.88595],[-98.06515,29.88666],[-98.0635,29.88747],[-98.06152,29.88779],[-98.06113,29.88829],[-98.06123,29.88896],[-98.06173,29.88932],[-98.06444,29.89026],[-98.0651,29.89077],[-98.066,29.89283],[-98.07044,29.89388],[-98.07397,29.89441],[-98.07499,29.8948],[-98.07678,29.89672],[-98.07628,29.8998],[-98.07775,29.90142],[-98.07831,29.9017],[-98.08118,29.90076],[-98.08467,29.90012],[-98.08788,29.90044],[-98.08957,29.90133],[-98.08965,29.90245],[-98.09086,29.90369],[-98.09302,29.90467],[-98.09426,29.90552],[-98.08925,29.90406],[-98.08188,29.90387],[-98.07651,29.90704],[-98.07582,29.90714],[-98.07448,29.90665],[-98.07373,29.90661],[-98.06791,29.90886],[-98.06409,29.90922],[-98.06024,29.91169],[-98.05466,29.91482],[-98.05085,29.91549],[-98.04871,29.91608],[-98.0484,29.91649],[-98.04406,29.91744],[-98.0428,29.91752],[-98.0403,29.91712],[-98.03473,29.91517],[-98.03382,29.91579],[-98.03276,29.91581],[-98.02977,29.91489],[-98.02869,29.91432],[-98.02777,29.91437],[-98.02693,29.9154],[-98.02672,29.91628],[-98.02627,29.91681],[-98.02577,29.91948],[-98.02506,29.92079],[-98.02304,29.92054],[-98.02149,29.91986],[-98.02091,29.91991],[-98.01936,29.92085],[-98.01784,29.92272],[-98.01752,29.9238],[-98.01652,29.92459],[-98.01474,29.92498],[-98.01035,29.92417],[-98.00967,29.92422],[-98.00842,29.92481],[-98.00738,29.92685],[-98.00747,29.92882],[-98.00879,29.93092],[-98.00899,29.93163],[-98.00761,29.9327],[-98.00618,29.93311],[-98.00429,29.93288],[-98.00318,29.93245],[-98.00281,29.93208],[-98.00203,29.92784],[-98.00155,29.92649],[-98.00028,29.92543]]]}},{"type":"Feature","properties":{"PRECINCT":"hays:340","COUNTY":"Hays"},"geometry":{"type":"Polygon","coordinates":[[[-97.97849,29.89915],[-97.97295,29.89883],[-97.96728,29.89668],[-97.96199,29.89566],[-97.96013,29.8947],[-97.95719,29.89171],[-97.97083,29.87978],[-97.97157,29.8806],[-97.97633,29.88343],[-97.9781,29.88478],[-97.97947,29.88633],[-97.98051,29.88801],[-97.98537,29.89986],[-97.98464,29.90029],[-97.98387,29.90042],[-97.98115,29.89951],[-97.97849,29.89915]]]}},{"type":"Feature","properties":{"PRECINCT":"hays:413","COUNTY":"Hays"},"geometry":{"type":"Polygon","coordinates":[[[-97.92715,29.89693],[-97.92389,29.89474],[-97.92477,29.89394],[-97.92493,29.89346],[-97.92694,29.89254],[-97.92658,29.8921],[-97.93229,29.88931],[-97.93433,29.88901],[-97.93428,29.88823],[-97.93457,29.888],[-97.9346,29.88745],[-97.93544,29.88706],[-97.93581,29.88637],[-97.9356,29.88387],[-97.94016,29.8832],[-97.94033,29.88432],[-97.93766,29.88469],[-97.9381,29.88685],[-97.9393,29.8867],[-97.93919,29.88563],[-97.94308,29.88514],[-97.94344,29.88732],[-97.94454,29.88714],[-97.94474,29.88761],[-97.94346,29.88827],[-97.94468,29.88939],[-97.94416,29.88997],[-97.94355,29.88941],[-97.94259,29.88986],[-97.94116,29.88978],[-97.94135,29.89146],[-97.94025,29.8913],[-97.9391,29.89157],[-97.93835,29.89101],[-97.93827,29.89124],[-97.93868,29.89175],[-97.93849,29.89192],[-97.93815,29.89167],[-97.93739,29.89224],[-97.93647,29.89159],[-97.93666,29.89046],[-97.93557,29.89012],[-97.93416,29.8912],[-97.93376,29.89223],[-97.93287,29.89291],[-97.93232,29.89372],[-97.93068,29.89484],[-97.93017,29.89553],[-97.92908,29.89516],[-97.92715,29.89693]]]}},{"type":"Feature","properties":{"PRECINCT":"hays:414","COUNTY":"Hays"},"geometry":{"type":"Polygon","coordinates":[[[-97.91949,29.89276],[-97.91225,29.89302],[-97.92182,29.88252],[-97.9249,29.88525],[-97.92611,29.885],[-97.92772,29.88425],[-97.93138,29.88148],[-97.93918,29.87724],[-97.94016,29.8832],[-97.9356,29.88387],[-97.93581,29.88637],[-97.93544,29.88706],[-97.9346,29.88745],[-97.93457,29.888],[-97.93428,29.88823],[-97.93433,29.88901],[-97.93229,29.88931],[-97.92658,29.8921],[-97.92694,29.89254],[-97.92493,29.89346],[-97.92456,29.89415],[-97.91887,29.89916],[-97.91656,29.89711],[-97.92048,29.89363],[-97.91949,29.89276]]]}},{"type":"Feature","properties":{"PRECINCT":"hays:415","COUNTY":"Hays"},"geometry":{"type":"Polygon","coordinates":[[[-97.89505,29.92906],[-97.89579,29.92817],[-97.8965,29.92787],[-97.89726,29.9278],[-97.89779,29.92817],[-97.89884,29.92835],[-97.89942,29.92819],[-97.9,29.92767],[-97.90197,29.92372],[-97.90192,29.92276],[-97.90116,29.92063],[-97.89995,29.91944],[-97.89995,29.91561],[-97.90028,29.91455],[-97.90037,29.91293],[-97.89974,29.91212],[-97.89826,29.91193],[-97.90239,29.90422],[-97.90527,29.90038],[-97.91225,29.89302],[-97.91952,29.8927],[-97.92048,29.89363],[-97.91656,29.89711],[-97.91887,29.89916],[-97.913,29.90422],[-97.91161,29.9059],[-97.91148,29.90659],[-97.91206,29.91408],[-97.91174,29.91523],[-97.90915,29.91795],[-97.90656,29.91951],[-97.9061,29.92011],[-97.90591,29.921],[-97.90612,29.92463],[-97.90534,29.92782],[-97.90334,29.93025],[-97.90185,29.93312],[-97.89846,29.93622],[-97.8976,29.93676],[-97.89551,29.93698],[-97.89437,29.93614],[-97.89398,29.93552],[-97.89358,29.93195],[-97.89505,29.92906]]]}},{"type":"Feature","properties":{"PRECINCT":"hays:416","COUNTY":"Hays"},"geometry":{"type":"Polygon","coordinates":[[[-97.87493,29.97546],[-97.87492,29.97325],[-97.8743,29.97389],[-97.87497,29.9682],[-97.87798,29.95355],[-97.87931,29.94911],[-97.89826,29.91193],[-97.89931,29.91196],[-97.90008,29.91242],[-97.90037,29.91293],[-97.90028,29.91455],[-97.89995,29.91561],[-97.89995,29.91944],[-97.90116,29.92063],[-97.90192,29.92276],[-97.90176,29.92434],[-97.90081,29.92574],[-97.9,29.92767],[-97.89942,29.92819],[-97.89884,29.92835],[-97.89779,29.92817],[-97.89726,29.9278],[-97.8965,29.92787],[-97.89579,29.92817],[-97.89505,29.92906],[-97.89387,29.93108],[-97.89358,29.93195],[-97.89357,29.93323],[-97.89398,29.9343],[-97.89398,29.93552],[-97.89491,29.93663],[-97.89569,29.93708],[-97.88459,29.9506],[-97.88093,29.94749],[-97.88016,29.94866],[-97.87961,29.9498],[-97.87925,29.95293],[-97.87811,29.95567],[-97.87584,29.9664],[-97.87574,29.96699],[-97.88225,29.97242],[-97.88237,29.97258],[-97.88147,29.97365],[-97.88754,29.97877],[-97.88419,29.98178],[-97.87928,29.98146],[-97.87455,29.9774],[-97.87493,29.97546]]]}},{"type":"Feature","properties":{"PRECINCT":"hays:417","COUNTY":"Hays"},"geometry":{"type":"Polygon","coordinates":[[[-97.87925,29.95293],[-97.87968,29.94956],[-97.88093,29.94749],[-97.88459,29.9506],[-97.89569,29.93708],[-97.89723,29.9377],[-97.89897,29.93797],[-97.89952,29.93825],[-97.90132,29.94008],[-97.9038,29.94176],[-97.90656,29.94311],[-97.90691,29.94371],[-97.90678,29.9449],[-97.90633,29.94561],[-97.90355,29.94776],[-97.9025,29.95109],[-97.90229,29.95214],[-97.90251,29.95388],[-97.90354,29.95556],[-97.90414,29.95609],[-97.89988,29.95977],[-97.89958,29.96144],[-97.89851,29.96434],[-97.89846,29.96553],[-97.89272,29.98025],[-97.89122,29.98166],[-97.89086,29.98159],[-97.88147,29.97365],[-97.88237,29.97258],[-97.88225,29.97242],[-97.87574,29.96699],[-97.87811,29.95567],[-97.87925,29.95293]]]}},{"type":"Feature","properties":{"PRECINCT":"hays:418","COUNTY":"Hays"},"geometry":{"type":"Polygon","coordinates":[[[-97.87234,29.98809],[-97.8736,29.98109],[-97.8743,29.97389],[-97.87492,29.97325],[-97.87493,29.97546],[-97.87455,29.9774],[-97.87865,29.98102],[-97.87733,29.98222],[-97.87827,29.98314],[-97.87725,29.98409],[-97.877,29.98483],[-97.876,29.98466],[-97.87537,29.98855],[-97.87234,29.98809]]]}},{"type":"Feature","properties":{"PRECINCT":"hays:419","COUNTY":"Hays"},"geometry":{"type":"Polygon","coordinates":[[[-97.88117,29.98938],[-97.88152,29.98762],[-97.88232,29.98755],[-97.88419,29.98588],[-97.88268,29.9846],[-97.88289,29.98439],[-97.87928,29.98146],[-97.88419,29.98178],[-97.88754,29.97877],[-97.89086,29.98159],[-97.89146,29.98155],[-97.89269,29.98029],[-97.8919,29.98476],[-97.89223,29.99091],[-97.89349,29.9945],[-97.89304,29.99636],[-97.89357,29.99972],[-97.89598,30.00705],[-97.89642,30.00775],[-97.8963,30.00814],[-97.89552,30.00864],[-97.89167,30.01228],[-97.8906,30.01139],[-97.89006,30.01052],[-97.88305,29.99082],[-97.88305,29.98963],[-97.88117,29.98938]]]}},{"type":"Feature","properties":{"PRECINCT":"hays:420","COUNTY":"Hays"},"geometry":{"type":"Polygon","coordinates":[[[-97.94956,30.03906],[-97.94625,30.03892],[-97.94461,30.03847],[-97.93985,30.03565],[-97.93291,30.03254],[-97.92684,30.02846],[-97.92549,30.02824],[-97.91187,30.02843],[-97.91026,30.02802],[-97.89167,30.01228],[-97.89552,30.00864],[-97.8963,30.00814],[-97.89642,30.00775],[-97.89598,30.00705],[-97.89357,29.99972],[-97.89304,29.99636],[-97.89349,29.9945],[-97.89223,29.99091],[-97.8919,29.98476],[-97.89269,29.98029],[-97.89846,29.96553],[-97.89851,29.96434],[-97.89958,29.96144],[-97.89988,29.95977],[-97.90414,29.95609],[-97.90512,29.95622],[-97.9062,29.95799],[-97.90762,29.96074],[-97.90751,29.96193],[-97.90801,29.96273],[-97.90812,29.96358],[-97.90754,29.96509],[-97.90591,29.96681],[-97.90375,29.96821],[-97.90332,29.96945],[-97.90338,29.9711],[-97.90396,29.97227],[-97.90412,29.97474],[-97.90397,29.97687],[-97.90463,29.97875],[-97.9055,29.97985],[-97.90603,29.98123],[-97.9069,29.98153],[-97.90759,29.98144],[-97.90933,29.98047],[-97.9097,29.97914],[-97.91228,29.9763],[-97.9123,29.97531],[-97.91253,29.97492],[-97.91425,29.97314],[-97.91488,29.97286],[-97.91569,29.97289],[-97.91663,29.97323],[-97.9181,29.97337],[-97.91907,29.97394],[-97.91959,29.97548],[-97.91862,29.97924],[-97.91851,29.98135],[-97.9178,29.98428],[-97.91777,29.98547],[-97.91851,29.98769],[-97.91893,29.98815],[-97.92096,29.98914],[-97.92412,29.98957],[-97.92514,29.99029],[-97.92656,29.99187],[-97.92804,29.99469],[-97.92964,29.99588],[-97.93078,29.99783],[-97.93294,30.00273],[-97.93565,30.00777],[-97.9371,30.01276],[-97.93826,30.01343],[-97.94068,30.01272],[-97.94131,30.01347],[-97.94163,30.0143],[-97.94139,30.01547],[-97.93826,30.01765],[-97.93813,30.01797],[-97.93813,30.01836],[-97.94002,30.01971],[-97.94002,30.02019],[-97.93931,30.02134],[-97.93926,30.02244],[-97.93994,30.02353],[-97.9396,30.0248],[-97.93976,30.02633],[-97.9411,30.02693],[-97.94563,30.02711],[-97.94729,30.02817],[-97.94806,30.02894],[-97.94861,30.03002],[-97.94866,30.03321],[-97.94911,30.03438],[-97.94993,30.03543],[-97.95251,30.03653],[-97.95409,30.03637],[-97.95472,30.03591],[-97.95635,30.03208],[-97.95807,30.02929],[-97.95841,30.02725],[-97.95922,30.02617],[-97.96044,30.02599],[-97.96125,30.02638],[-97.96199,30.02697],[-97.96286,30.02835],[-97.96294,30.03045],[-97.96225,30.03224],[-97.96223,30.03327],[-97.96278,30.03424],[-97.96285,30.04361],[-97.95948,30.04217],[-97.95233,30.03967],[-97.94956,30.03906]]]}},{"type":"Feature","properties":{"PRECINCT":"hays:421","COUNTY":"Hays"},"geometry":{"type":"Polygon","coordinates":[[[-97.97861,30.05713],[-97.98082,30.04916],[-97.98085,30.04648],[-97.96844,30.0447],[-97.96285,30.04361],[-97.96278,30.03424],[-97.96223,30.03327],[-97.96225,30.03224],[-97.96294,30.03045],[-97.96296,30.0288],[-97.96199,30.02697],[-97.96044,30.02599],[-97.95922,30.02617],[-97.95841,30.02725],[-97.95807,30.02929],[-97.95635,30.03208],[-97.95472,30.03591],[-97.95409,30.03637],[-97.9533,30.03651],[-97.95251,30.03653],[-97.9514,30.03621],[-97.94993,30.03543],[-97.9489,30.03399],[-97.94866,30.03321],[-97.94861,30.03002],[-97.94806,30.02894],[-97.94729,30.02817],[-97.94563,30.02711],[-97.9411,30.02693],[-97.93976,30.02633],[-97.9396,30.0248],[-97.93994,30.02353],[-97.93926,30.02244],[-97.93931,30.02134],[-97.94002,30.02019],[-97.94002,30.01971],[-97.93813,30.01836],[-97.93813,30.01797],[-97.93826,30.01765],[-97.94139,30.01547],[-97.94163,30.0143],[-97.94131,30.01347],[-97.94068,30.01272],[-97.9436,30.00905],[-97.94561,30.00786],[-97.9505,30.00628],[-97.95414,30.0043],[-97.95545,30.00444],[-97.95656,30.00531],[-97.95775,30.00859],[-97.95867,30.01022],[-97.9598,30.01122],[-97.96191,30.01196],[-97.9657,30.01198],[-97.96741,30.01129],[-97.97123,30.00797],[-97.97212,30.00749],[-97.97289,30.00721],[-97.97605,30.00694],[-97.98355,30.00519],[-97.98637,30.00478],[-97.98916,30.00381],[-97.99111,30.00274],[-97.9943,30.00021],[-97.99479,29.99811],[-97.99461,29.9975],[-97.99408,29.9969],[-97.99408,29.99651],[-97.99518,29.99431],[-97.99639,29.99406],[-97.99801,29.99468],[-97.99887,29.99586],[-98.00022,29.99694],[-98.00022,30.0018],[-98.00821,30.01009],[-98.00813,30.01273],[-98.00868,30.01315],[-98.00786,30.01486],[-98.00801,30.01616],[-98.00867,30.01804],[-98.00796,30.01966],[-98.00791,30.02065],[-98.00814,30.02145],[-98.0103,30.02117],[-98.01042,30.04363],[-98.01194,30.04395],[-98.01368,30.0439],[-98.01499,30.0441],[-98.01551,30.04501],[-98.01533,30.0466],[-98.01284,30.04634],[-98.005,30.04648],[-98.00399,30.04663],[-98.00029,30.04793],[-97.98862,30.04739],[-97.98915,30.05247],[-97.98788,30.05214],[-97.98749,30.05175],[-97.9853,30.05147],[-97.98318,30.05287],[-97.98257,30.05359],[-97.98171,30.054],[-97.98095,30.0553],[-97.98071,30.05715],[-97.98004,30.0577],[-97.97861,30.05713]]]}},{"type":"Feature","properties":{"PRECINCT":"hays:442","COUNTY":"Hays"},"geometry":{"type":"Polygon","coordinates":[[[-97.91876,30.17181],[-97.91875,30.16952],[-97.91612,30.16956],[-97.91603,30.16516],[-97.91799,30.16513],[-97.91862,30.16312],[-97.91859,30.15919],[-97.91762,30.15811],[-97.9188,30.15783],[-97.9161,30.15562],[-97.91552,30.15489],[-97.95663,30.12086],[-97.95653,30.12852],[-97.97204,30.12839],[-97.97222,30.1523],[-97.96527,30.15732],[-97.9618,30.15816],[-97.9579,30.15824],[-97.95681,30.15854],[-97.95289,30.16177],[-97.95916,30.16722],[-97.96099,30.17149],[-97.9634,30.17531],[-97.96524,30.17762],[-97.96597,30.17992],[-97.96815,30.18288],[-97.96879,30.18419],[-97.97096,30.19033],[-97.97213,30.195],[-97.97202,30.20312],[-97.9731,30.20663],[-97.97293,30.20878],[-97.96908,30.21093],[-97.95146,30.19865],[-97.91581,30.17285],[-97.91593,30.17185],[-97.91876,30.17181]]]}},{"type":"Feature","properties":{"PRECINCT":"hays:443","COUNTY":"Hays"},"geometry":{"type":"Polygon","coordinates":[[[-97.96995,30.18722],[-97.96831,30.18316],[-97.96597,30.17992],[-97.96524,30.17762],[-97.9634,30.17531],[-97.96531,30.17417],[-97.96634,30.17401],[-97.96756,30.17325],[-97.96869,30.17674],[-97.97042,30.17806],[-97.97101,30.17882],[-97.97314,30.17959],[-97.97328,30.18133],[-97.9729,30.18209],[-97.97328,30.18272],[-97.97364,30.18263],[-97.97366,30.17669],[-97.99817,30.17643],[-97.99838,30.18649],[-98.00069,30.18646],[-98.00066,30.18814],[-97.99991,30.1903],[-97.99753,30.19186],[-97.99724,30.19241],[-97.99788,30.19434],[-97.99731,30.19631],[-97.99739,30.19684],[-97.99432,30.19808],[-97.97293,30.20878],[-97.9731,30.20663],[-97.97202,30.20312],[-97.97213,30.195],[-97.96995,30.18722]]]}},{"type":"Feature","properties":{"PRECINCT":"hays:446","COUNTY":"Hays"},"geometry":{"type":"Polygon","coordinates":[[[-97.99838,30.18649],[-97.99817,30.17643],[-97.97366,30.17669],[-97.97364,30.18263],[-97.97328,30.18272],[-97.9729,30.18209],[-97.97328,30.18133],[-97.97314,30.17959],[-97.97101,30.17882],[-97.97042,30.17806],[-97.96869,30.17674],[-97.96756,30.17325],[-97.96634,30.17401],[-97.96531,30.17417],[-97.9634,30.17531],[-97.96076,30.17107],[-97.95973,30.16822],[-97.95888,30.16685],[-97.95289,30.16177],[-97.95681,30.15854],[-97.9579,30.15824],[-97.9618,30.15816],[-97.96473,30.15754],[-97.96659,30.15648],[-97.97147,30.15275],[-97.97422,30.15122],[-97.97716,30.15072],[-97.98279,30.14808],[-97.98599,30.14685],[-97.99057,30.1488],[-97.99285,30.15027],[-97.99366,30.15153],[-97.99409,30.15362],[-97.99434,30.15379],[-98.00878,30.15347],[-98.00892,30.15756],[-98.00861,30.16041],[-98.00856,30.16556],[-98.00813,30.16786],[-98.00727,30.16941],[-98.00516,30.17196],[-98.00447,30.17404],[-98.00298,30.17664],[-98.00219,30.17929],[-98.00188,30.18185],[-98.00069,30.18646],[-97.99838,30.18649]]]}},{"type":"Feature","properties":{"PRECINCT":"hays:447","COUNTY":"Hays"},"geometry":{"type":"Polygon","coordinates":[[[-97.93599,30.00866],[-97.92964,29.99588],[-97.92804,29.99469],[-97.92656,29.99187],[-97.92514,29.99029],[-97.92412,29.98957],[-97.92096,29.98914],[-97.91893,29.98815],[-97.91851,29.98769],[-97.91777,29.98547],[-97.9178,29.98428],[-97.91851,29.98135],[-97.91862,29.97924],[-97.91959,29.97548],[-97.91933,29.97436],[-97.91884,29.97375],[-97.9181,29.97337],[-97.91663,29.97323],[-97.91569,29.97289],[-97.91488,29.97286],[-97.91425,29.97314],[-97.91253,29.97492],[-97.91214,29.97654],[-97.9097,29.97914],[-97.90946,29.98022],[-97.90901,29.98079],[-97.90759,29.98144],[-97.9069,29.98153],[-97.90603,29.98123],[-97.9055,29.97985],[-97.90431,29.97811],[-97.90397,29.97687],[-97.90412,29.97474],[-97.90396,29.97227],[-97.90338,29.9711],[-97.90332,29.96945],[-97.90375,29.96821],[-97.90591,29.96681],[-97.90754,29.96509],[-97.90812,29.96358],[-97.90801,29.96273],[-97.90751,29.96193],[-97.90762,29.96074],[-97.90528,29.95641],[-97.90478,29.95609],[-97.90393,29.956],[-97.90282,29.95457],[-97.9024,29.9535],[-97.90229,29.95214],[-97.90355,29.94776],[-97.90633,29.94561],[-97.90678,29.9449],[-97.90691,29.94371],[-97.90656,29.94311],[-97.9038,29.94176],[-97.90132,29.94008],[-97.89952,29.93825],[-97.89897,29.93797],[-97.89723,29.9377],[-97.89551,29.93698],[-97.89792,29.93662],[-97.90101,29.93399],[-97.90185,29.93312],[-97.90342,29.93014],[-97.90534,29.92782],[-97.90612,29.92463],[-97.90591,29.921],[-97.9061,29.92011],[-97.90656,29.91951],[-97.90965,29.91751],[-97.9115,29.91564],[-97.91188,29.91494],[-97.91201,29.91291],[-97.91148,29.90659],[-97.9118,29.90559],[-97.913,29.90422],[-97.92184,29.89659],[-97.92585,29.89916],[-97.9299,29.90448],[-97.93009,29.90601],[-97.92885,29.90845],[-97.92873,29.91014],[-97.92918,29.91086],[-97.93129,29.91241],[-97.93217,29.91353],[-97.93408,29.91896],[-97.93528,29.92095],[-97.93551,29.92122],[-97.93713,29.92144],[-97.94035,29.92246],[-97.94186,29.92254],[-97.94288,29.92283],[-97.94628,29.92469],[-97.94769,29.92587],[-97.9523,29.93252],[-97.95361,29.93603],[-97.95414,29.93688],[-97.95824,29.94036],[-97.95825,29.94487],[-97.96123,29.94939],[-97.963,29.95092],[-97.96581,29.95245],[-97.96943,29.95602],[-97.97196,29.9576],[-97.97305,29.95853],[-97.97529,29.9605],[-97.97876,29.96451],[-97.97947,29.9647],[-97.98192,29.96428],[-97.98297,29.96444],[-97.98737,29.96662],[-97.98936,29.96989],[-97.99087,29.9711],[-97.99684,29.97811],[-97.99971,29.97865],[-98.00003,29.97982],[-98.00141,29.98124],[-98.00105,29.98177],[-98.00121,29.98207],[-98.00407,29.98347],[-98.00439,29.984],[-98.00427,29.98562],[-98.00506,29.98661],[-98.00482,29.98767],[-98.00425,29.98838],[-98.00439,29.99014],[-98.00396,29.99264],[-98.00489,29.99456],[-98.00422,29.99583],[-98.00278,29.99547],[-98.00186,29.99477],[-98.0011,29.99365],[-98.00071,29.99367],[-98.00049,29.99328],[-98.00007,29.99315],[-97.99945,29.99343],[-97.99865,29.99309],[-97.99809,29.99362],[-97.99792,29.99445],[-97.99639,29.99406],[-97.99518,29.99431],[-97.99408,29.99651],[-97.99408,29.9969],[-97.99461,29.9975],[-97.99479,29.99811],[-97.9943,30.00021],[-97.99111,30.00274],[-97.98916,30.00381],[-97.98637,30.00478],[-97.98355,30.00519],[-97.97605,30.00694],[-97.97289,30.00721],[-97.97212,30.00749],[-97.97123,30.00797],[-97.96741,30.01129],[-97.9657,30.01198],[-97.96191,30.01196],[-97.9598,30.01122],[-97.95867,30.01022],[-97.95775,30.00859],[-97.95656,30.00531],[-97.95545,30.00444],[-97.95414,30.0043],[-97.9505,30.00628],[-97.94561,30.00786],[-97.9446,30.00836],[-97.94289,30.00983],[-97.94068,30.01272],[-97.93826,30.01343],[-97.93747,30.01313],[-97.93689,30.0124],[-97.93599,30.00866]]]}}]}