{"type":"FeatureCollection","features":[{"type":"Feature","properties":{"PRECINCT":"4","VTD":"0004A+0004B"},"geometry":{"type":"MultiPolygon","coordinates":[[[[-102.647252,34.06267],[-102.647238,34.064521],[-102.646725,34.064582],[-102.615344,34.064303],[-102.615591,33.941926],[-102.615447,33.825121],[-102.75049,33.824791],[-102.827936,33.824802],[-102.82744,33.873765],[-102.831849,33.873924],[-102.829821,33.987838],[-102.829246,34.049687],[-102.801789,34.049264],[-102.801624,34.064527],[-102.647252,34.06267]]],[[[-102.720483,34.230079],[-102.721955,34.228393],[-102.716952,34.225377],[-102.714927,34.227684],[-102.711861,34.227783],[-102.711943,34.22321],[-102.710766,34.2232],[-102.710766,34.222414],[-102.711563,34.222166],[-102.714356,34.218617],[-102.714766,34.21889],[-102.716841,34.216743],[-102.719567,34.218528],[-102.721906,34.216041],[-102.723813,34.217396],[-102.724046,34.217277],[-102.725899,34.218499],[-102.727507,34.216662],[-102.729208,34.217657],[-102.731824,34.214746],[-102.732395,34.215148],[-102.732091,34.216293],[-102.731366,34.217608],[-102.729785,34.219514],[-102.730827,34.220139],[-102.729315,34.221818],[-102.730359,34.222445],[-102.727399,34.225807],[-102.728404,34.226392],[-102.727671,34.22728],[-102.728685,34.227887],[-102.725221,34.231727],[-102.725775,34.232128],[-102.725494,34.233379],[-102.725633,34.235275],[-102.723656,34.235219],[-102.723602,34.238835],[-102.723421,34.239022],[-102.720483,34.230079]]]]}},{"type":"Feature","properties":{"PRECINCT":"1","VTD":"0001"},"geometry":{"type":"Polygon","coordinates":[[[-102.827225,34.312834],[-102.61515,34.312891],[-102.615432,34.248594],[-102.615344,34.064303],[-102.646725,34.064582],[-102.647238,34.064521],[-102.647252,34.06267],[-102.737262,34.063689],[-102.736834,34.099768],[-102.735659,34.104959],[-102.732444,34.214896],[-102.732395,34.215148],[-102.731824,34.214746],[-102.729208,34.217657],[-102.727507,34.216662],[-102.725899,34.218499],[-102.724046,34.217277],[-102.723813,34.217396],[-102.721906,34.216041],[-102.719567,34.218528],[-102.716841,34.216743],[-102.714766,34.21889],[-102.714356,34.218617],[-102.711563,34.222166],[-102.710766,34.222414],[-102.710766,34.2232],[-102.711943,34.22321],[-102.711861,34.227783],[-102.714927,34.227684],[-102.716952,34.225377],[-102.721955,34.228393],[-102.720483,34.230079],[-102.723421,34.239022],[-102.723602,34.238835],[-102.723656,34.235219],[-102.725633,34.235275],[-102.725494,34.233379],[-102.725775,34.232128],[-102.725221,34.231727],[-102.72795,34.228735],[-102.732957,34.231754],[-102.73254,34.232324],[-102.73234,34.242581],[-102.74333,34.242602],[-102.743651,34.242486],[-102.743784,34.239338],[-102.75035,34.243295],[-102.756063,34.242337],[-102.758251,34.242231],[-102.759512,34.243026],[-102.761564,34.242861],[-102.783522,34.243127],[-102.791793,34.243586],[-102.797816,34.243353],[-102.828288,34.243678],[-102.827603,34.287165],[-102.823626,34.287165],[-102.827625,34.289769],[-102.827225,34.312834]]]}},{"type":"Feature","properties":{"PRECINCT":"2","VTD":"0002"},"geometry":{"type":"Polygon","coordinates":[[[-102.993085,34.312277],[-102.875497,34.312878],[-102.827225,34.312834],[-102.827625,34.289769],[-102.823626,34.287165],[-102.827603,34.287165],[-102.828288,34.243678],[-102.797816,34.243353],[-102.791793,34.243586],[-102.783522,34.243127],[-102.761564,34.242861],[-102.759512,34.243026],[-102.758251,34.242231],[-102.756063,34.242337],[-102.751072,34.243183],[-102.745637,34.239914],[-102.746482,34.238591],[-102.745858,34.238329],[-102.746388,34.237522],[-102.738733,34.23433],[-102.740425,34.231505],[-102.735252,34.229272],[-102.736663,34.227621],[-102.734693,34.226347],[-102.736199,34.22462],[-102.737208,34.225205],[-102.738774,34.223399],[-102.732712,34.219733],[-102.733451,34.218877],[-102.73188,34.217922],[-102.73267,34.216606],[-102.733075,34.214292],[-102.733828,34.199142],[-102.73505,34.162789],[-102.735428,34.162684],[-102.736245,34.132778],[-102.782428,34.133121],[-102.828541,34.134],[-102.829154,34.064941],[-102.875003,34.065497],[-102.875036,34.061549],[-102.875402,34.061545],[-103.025379,34.062859],[-103.024995,34.09265],[-103.043797,34.092865],[-103.043762,34.31275],[-102.993085,34.312277]]]}},{"type":"Feature","properties":{"PRECINCT":"3","VTD":"0003"},"geometry":{"type":"Polygon","coordinates":[[[-102.75035,34.243295],[-102.743784,34.239338],[-102.743651,34.242486],[-102.74333,34.242602],[-102.73234,34.242581],[-102.73254,34.232324],[-102.732957,34.231754],[-102.72795,34.228735],[-102.728685,34.227887],[-102.727671,34.22728],[-102.728404,34.226392],[-102.727399,34.225807],[-102.730359,34.222445],[-102.729315,34.221818],[-102.730827,34.220139],[-102.729785,34.219514],[-102.731774,34.216936],[-102.732528,34.214285],[-102.735659,34.104959],[-102.736834,34.099768],[-102.737262,34.063689],[-102.801624,34.064527],[-102.801789,34.049264],[-102.829246,34.049687],[-102.829821,33.987838],[-102.831849,33.873924],[-102.82744,33.873765],[-102.827936,33.824802],[-102.953888,33.824627],[-103.047409,33.824674],[-103.043651,34.003639],[-103.043797,34.092865],[-103.024995,34.09265],[-103.025379,34.062859],[-102.875402,34.061545],[-102.875036,34.061549],[-102.875003,34.065497],[-102.829154,34.064941],[-102.828541,34.134],[-102.782428,34.133121],[-102.736245,34.132778],[-102.735428,34.162684],[-102.73505,34.162789],[-102.733828,34.199142],[-102.733075,34.214292],[-102.73267,34.216606],[-102.73188,34.217922],[-102.733451,34.218877],[-102.732712,34.219733],[-102.738774,34.223399],[-102.737208,34.225205],[-102.736199,34.22462],[-102.734693,34.226347],[-102.736663,34.227621],[-102.735252,34.229272],[-102.740425,34.231505],[-102.738733,34.23433],[-102.746388,34.237522],[-102.745858,34.238329],[-102.746482,34.238591],[-102.745637,34.239914],[-102.751072,34.243183],[-102.75035,34.243295]]]}}]}