{"type":"FeatureCollection","features":[{"type":"Feature","properties":{"PRECINCT":"harris:115","COUNTY":"Harris"},"geometry":{"type":"Polygon","coordinates":[[[-95.25468,29.84835],[-95.25285,29.84775],[-95.25278,29.84717],[-95.25183,29.84669],[-95.25059,29.84728],[-95.25019,29.84726],[-95.24988,29.84537],[-95.24917,29.84436],[-95.24741,29.84414],[-95.24485,29.84518],[-95.24403,29.84466],[-95.24285,29.84482],[-95.24251,29.84412],[-95.24116,29.84342],[-95.24052,29.84346],[-95.24031,29.84328],[-95.24069,29.84162],[-95.24039,29.84099],[-95.23982,29.84068],[-95.23831,29.84054],[-95.23772,29.83953],[-95.23683,29.83912],[-95.23642,29.83819],[-95.23487,29.83833],[-95.23418,29.83809],[-95.23112,29.83536],[-95.2302,29.83421],[-95.23026,29.83263],[-95.23179,29.83032],[-95.23181,29.82996],[-95.23056,29.82832],[-95.23038,29.82586],[-95.22992,29.82456],[-95.24068,29.81975],[-95.26161,29.81092],[-95.26233,29.81274],[-95.26237,29.81368],[-95.2624,29.81753],[-95.26191,29.82068],[-95.26188,29.82308],[-95.26232,29.8481],[-95.25981,29.84727],[-95.25899,29.84733],[-95.25632,29.84639],[-95.25574,29.84668],[-95.25589,29.84727],[-95.25511,29.84827],[-95.25468,29.84835]]]}},{"type":"Feature","properties":{"PRECINCT":"harris:118","COUNTY":"Harris"},"geometry":{"type":"Polygon","coordinates":[[[-95.20794,29.93364],[-95.20596,29.93232],[-95.24068,29.89864],[-95.24107,29.89912],[-95.24053,29.90288],[-95.2371,29.90608],[-95.23689,29.90703],[-95.23853,29.90846],[-95.2398,29.91079],[-95.24183,29.91212],[-95.24318,29.91369],[-95.24371,29.91549],[-95.24424,29.92046],[-95.24457,29.92107],[-95.24576,29.92208],[-95.24925,29.9229],[-95.25101,29.92288],[-95.25261,29.92202],[-95.25933,29.91744],[-95.26275,29.91667],[-95.26518,29.91542],[-95.26649,29.91544],[-95.27254,29.91674],[-95.27258,29.92114],[-95.27779,29.92115],[-95.27756,29.92194],[-95.27648,29.92281],[-95.27625,29.92452],[-95.28329,29.92449],[-95.28318,29.92588],[-95.28244,29.92687],[-95.28405,29.92785],[-95.2875,29.92795],[-95.28755,29.93157],[-95.27364,29.93152],[-95.27365,29.932],[-95.2729,29.93249],[-95.26919,29.93291],[-95.26742,29.93274],[-95.26653,29.93244],[-95.26468,29.93048],[-95.26438,29.93053],[-95.26372,29.92982],[-95.26307,29.92957],[-95.26169,29.92942],[-95.26095,29.92951],[-95.2609,29.92969],[-95.25901,29.92974],[-95.25824,29.92914],[-95.25778,29.92922],[-95.25757,29.9288],[-95.25723,29.92895],[-95.25659,29.92838],[-95.25641,29.92852],[-95.25602,29.92822],[-95.25444,29.92971],[-95.25272,29.93066],[-95.2528,29.93088],[-95.25234,29.931],[-95.25238,29.93121],[-95.25184,29.93124],[-95.25186,29.93156],[-95.24953,29.93407],[-95.2495,29.9351],[-95.24265,29.93502],[-95.23569,29.93435],[-95.21274,29.93479],[-95.20955,29.93436],[-95.20794,29.93364]]]}},{"type":"Feature","properties":{"PRECINCT":"harris:138","COUNTY":"Harris"},"geometry":{"type":"Polygon","coordinates":[[[-95.33338,29.80007],[-95.32409,29.80016],[-95.324,29.79395],[-95.32503,29.79366],[-95.32491,29.78939],[-95.32743,29.78942],[-95.32764,29.79193],[-95.33094,29.7919],[-95.33093,29.79137],[-95.33118,29.79111],[-95.332,29.79246],[-95.3359,29.7924],[-95.3359,29.79118],[-95.33636,29.7911],[-95.33635,29.78993],[-95.3374,29.78994],[-95.3374,29.79108],[-95.33719,29.7911],[-95.33722,29.79392],[-95.33994,29.7939],[-95.34011,29.80151],[-95.33537,29.80028],[-95.33338,29.80007]]]}},{"type":"Feature","properties":{"PRECINCT":"harris:144","COUNTY":"Harris"},"geometry":{"type":"Polygon","coordinates":[[[-95.32423,29.80907],[-95.32409,29.80016],[-95.33486,29.80017],[-95.34011,29.80151],[-95.33996,29.8028],[-95.33932,29.80429],[-95.33625,29.80826],[-95.33208,29.80804],[-95.32423,29.80907]]]}},{"type":"Feature","properties":{"PRECINCT":"harris:145","COUNTY":"Harris"},"geometry":{"type":"Polygon","coordinates":[[[-95.30205,29.83901],[-95.30191,29.81115],[-95.31037,29.81403],[-95.31037,29.82089],[-95.31355,29.82083],[-95.31367,29.82734],[-95.31351,29.82756],[-95.31377,29.82771],[-95.30205,29.83901]]]}},{"type":"Feature","properties":{"PRECINCT":"harris:159","COUNTY":"Harris"},"geometry":{"type":"Polygon","coordinates":[[[-95.33575,29.7759],[-95.3355,29.76172],[-95.33793,29.76222],[-95.34064,29.76133],[-95.34343,29.76216],[-95.34515,29.76195],[-95.34584,29.762],[-95.34636,29.7623],[-95.34652,29.76612],[-95.34719,29.7666],[-95.34768,29.76651],[-95.3465,29.76714],[-95.3426,29.76856],[-95.34149,29.76927],[-95.34089,29.77009],[-95.34052,29.77122],[-95.34034,29.7746],[-95.33776,29.77599],[-95.33575,29.7759]]]}},{"type":"Feature","properties":{"PRECINCT":"harris:160","COUNTY":"Harris"},"geometry":{"type":"Polygon","coordinates":[[[-95.32712,29.7827],[-95.32708,29.78234],[-95.32488,29.78268],[-95.32485,29.77835],[-95.32661,29.77826],[-95.32641,29.77616],[-95.33776,29.77599],[-95.34034,29.7746],[-95.3406,29.7709],[-95.34103,29.76983],[-95.34195,29.7689],[-95.34325,29.76828],[-95.34344,29.7687],[-95.34875,29.76863],[-95.34881,29.77456],[-95.34667,29.77454],[-95.32712,29.7827]]]}},{"type":"Feature","properties":{"PRECINCT":"harris:161","COUNTY":"Harris"},"geometry":{"type":"Polygon","coordinates":[[[-95.3159,29.78414],[-95.31587,29.77835],[-95.31523,29.77574],[-95.31515,29.77386],[-95.31746,29.77384],[-95.31747,29.77442],[-95.32119,29.77438],[-95.32294,29.77416],[-95.32641,29.77291],[-95.32661,29.77826],[-95.32485,29.77835],[-95.32488,29.78268],[-95.32392,29.7827],[-95.32392,29.78339],[-95.31749,29.7833],[-95.31737,29.78413],[-95.3159,29.78414]]]}},{"type":"Feature","properties":{"PRECINCT":"harris:186","COUNTY":"Harris"},"geometry":{"type":"Polygon","coordinates":[[[-95.324,29.79395],[-95.32394,29.78766],[-95.33056,29.78492],[-95.33425,29.78486],[-95.33431,29.78873],[-95.33389,29.7888],[-95.33379,29.78964],[-95.33108,29.78966],[-95.33118,29.79111],[-95.33093,29.79137],[-95.33094,29.7919],[-95.32764,29.79193],[-95.32743,29.78942],[-95.32491,29.78939],[-95.32503,29.79366],[-95.324,29.79395]]]}},{"type":"Feature","properties":{"PRECINCT":"harris:201","COUNTY":"Harris"},"geometry":{"type":"Polygon","coordinates":[[[-95.32547,29.78479],[-95.32543,29.78337],[-95.33578,29.77918],[-95.33586,29.78777],[-95.33429,29.78776],[-95.33425,29.78486],[-95.33056,29.78492],[-95.32394,29.78766],[-95.32392,29.78627],[-95.32494,29.78625],[-95.32491,29.78502],[-95.32547,29.78479]]]}},{"type":"Feature","properties":{"PRECINCT":"harris:202","COUNTY":"Harris"},"geometry":{"type":"Polygon","coordinates":[[[-95.31747,29.77442],[-95.31746,29.77384],[-95.31354,29.77368],[-95.31355,29.77266],[-95.31255,29.77288],[-95.31252,29.76534],[-95.31335,29.7645],[-95.31405,29.76423],[-95.31548,29.76468],[-95.31548,29.76363],[-95.32005,29.75612],[-95.32298,29.75733],[-95.32549,29.75983],[-95.32887,29.75984],[-95.32794,29.76102],[-95.32745,29.76244],[-95.32749,29.76635],[-95.32642,29.76994],[-95.32641,29.77291],[-95.32241,29.77424],[-95.31747,29.77442]]]}},{"type":"Feature","properties":{"PRECINCT":"harris:251","COUNTY":"Harris"},"geometry":{"type":"Polygon","coordinates":[[[-95.05202,29.88891],[-95.03585,29.8884],[-95.03567,29.86712],[-95.03527,29.86554],[-95.03521,29.86346],[-95.06038,29.86351],[-95.07115,29.86375],[-95.09387,29.86481],[-95.09355,29.86816],[-95.09361,29.86963],[-95.09455,29.87409],[-95.09424,29.87619],[-95.08835,29.87757],[-95.08213,29.87961],[-95.06535,29.88419],[-95.06452,29.88456],[-95.06339,29.88571],[-95.06164,29.88873],[-95.06005,29.88822],[-95.0599,29.88872],[-95.05925,29.88883],[-95.05202,29.88891]]]}},{"type":"Feature","properties":{"PRECINCT":"harris:253","COUNTY":"Harris"},"geometry":{"type":"Polygon","coordinates":[[[-95.27698,29.8371],[-95.27697,29.83619],[-95.27015,29.83617],[-95.27009,29.83145],[-95.28036,29.83136],[-95.28034,29.82867],[-95.27731,29.82869],[-95.27742,29.81685],[-95.28437,29.81693],[-95.28437,29.81749],[-95.28789,29.81749],[-95.28788,29.82375],[-95.28851,29.82944],[-95.28847,29.83132],[-95.28692,29.83133],[-95.28696,29.837],[-95.27698,29.8371]]]}},{"type":"Feature","properties":{"PRECINCT":"harris:259","COUNTY":"Harris"},"geometry":{"type":"Polygon","coordinates":[[[-95.26546,29.76938],[-95.26494,29.74598],[-95.27523,29.7457],[-95.27632,29.746],[-95.28108,29.749],[-95.28123,29.75413],[-95.28085,29.7548],[-95.27971,29.75516],[-95.27946,29.75547],[-95.2794,29.75912],[-95.27821,29.76057],[-95.27832,29.76682],[-95.27883,29.76762],[-95.2797,29.76799],[-95.28381,29.76793],[-95.28384,29.76913],[-95.28408,29.7796],[-95.28393,29.7824],[-95.28329,29.78358],[-95.27755,29.79011],[-95.26802,29.79181],[-95.2647,29.78393],[-95.26346,29.7802],[-95.26355,29.77822],[-95.26546,29.76938]]]}},{"type":"Feature","properties":{"PRECINCT":"harris:344","COUNTY":"Harris"},"geometry":{"type":"Polygon","coordinates":[[[-95.33549,29.81989],[-95.33529,29.81081],[-95.33551,29.80962],[-95.33625,29.80826],[-95.33891,29.80882],[-95.35029,29.81241],[-95.35208,29.81974],[-95.33549,29.81989]]]}},{"type":"Feature","properties":{"PRECINCT":"harris:353","COUNTY":"Harris"},"geometry":{"type":"Polygon","coordinates":[[[-95.18479,29.80599],[-95.18735,29.80566],[-95.19094,29.80606],[-95.20078,29.80594],[-95.20537,29.80666],[-95.20955,29.8068],[-95.21111,29.80637],[-95.2128,29.80521],[-95.21408,29.80614],[-95.21423,29.80664],[-95.21322,29.80786],[-95.21262,29.80988],[-95.20913,29.81353],[-95.20704,29.81666],[-95.20786,29.81809],[-95.20555,29.81887],[-95.20263,29.82063],[-95.18902,29.82676],[-95.18747,29.82766],[-95.16751,29.83642],[-95.17864,29.80621],[-95.18479,29.80599]]]}},{"type":"Feature","properties":{"PRECINCT":"harris:363","COUNTY":"Harris"},"geometry":{"type":"Polygon","coordinates":[[[-95.21389,29.97798],[-95.21234,29.97795],[-95.21231,29.97425],[-95.21036,29.96435],[-95.20547,29.96439],[-95.20548,29.9631],[-95.20668,29.9621],[-95.20848,29.96207],[-95.21014,29.9608],[-95.21062,29.96011],[-95.2105,29.95853],[-95.21139,29.95668],[-95.21258,29.95597],[-95.21444,29.95609],[-95.21532,29.95471],[-95.21649,29.95356],[-95.21683,29.95214],[-95.21852,29.95115],[-95.21903,29.93748],[-95.21894,29.9347],[-95.23419,29.93438],[-95.23432,29.93517],[-95.23529,29.93607],[-95.23591,29.93741],[-95.23599,29.94492],[-95.24074,29.94886],[-95.24146,29.94902],[-95.24328,29.94877],[-95.24777,29.94956],[-95.24965,29.95117],[-95.248,29.9561],[-95.24802,29.96197],[-95.24585,29.96205],[-95.24454,29.96251],[-95.22984,29.97259],[-95.21743,29.97934],[-95.21602,29.97849],[-95.21389,29.97798]]]}},{"type":"Feature","properties":{"PRECINCT":"harris:373","COUNTY":"Harris"},"geometry":{"type":"Polygon","coordinates":[[[-95.29176,29.78762],[-95.3119,29.78742],[-95.31175,29.78762],[-95.31353,29.78801],[-95.3158,29.78766],[-95.28875,29.79929],[-95.28014,29.80247],[-95.27066,29.79616],[-95.26933,29.79456],[-95.26802,29.79181],[-95.29176,29.78762]]]}},{"type":"Feature","properties":{"PRECINCT":"harris:374","COUNTY":"Harris"},"geometry":{"type":"Polygon","coordinates":[[[-95.26227,29.79205],[-95.26443,29.79199],[-95.26457,29.79582],[-95.26566,29.79737],[-95.26324,29.79965],[-95.26336,29.80636],[-95.25879,29.81153],[-95.25795,29.81217],[-95.25806,29.81243],[-95.24068,29.81975],[-95.24046,29.80124],[-95.24049,29.80001],[-95.24098,29.79886],[-95.24416,29.79497],[-95.24728,29.79489],[-95.26227,29.79205]]]}},{"type":"Feature","properties":{"PRECINCT":"harris:376","COUNTY":"Harris"},"geometry":{"type":"Polygon","coordinates":[[[-95.18494,29.84332],[-95.18442,29.8434],[-95.18186,29.83987],[-95.1776,29.83584],[-95.17566,29.83328],[-95.17038,29.83571],[-95.16735,29.83685],[-95.16751,29.83642],[-95.18747,29.82766],[-95.18902,29.82676],[-95.20263,29.82063],[-95.20555,29.81887],[-95.20786,29.81809],[-95.20704,29.81666],[-95.20913,29.81353],[-95.21262,29.80988],[-95.21288,29.81074],[-95.21341,29.81093],[-95.21499,29.80959],[-95.21596,29.8102],[-95.21644,29.81023],[-95.21694,29.81],[-95.21805,29.80885],[-95.2187,29.80865],[-95.21997,29.8095],[-95.22267,29.81075],[-95.22313,29.812],[-95.22462,29.81218],[-95.22492,29.81397],[-95.22538,29.81441],[-95.22577,29.81436],[-95.2264,29.81341],[-95.2281,29.81351],[-95.22988,29.81313],[-95.23066,29.81348],[-95.23088,29.81497],[-95.22897,29.81567],[-95.22855,29.81631],[-95.22874,29.81649],[-95.23016,29.81658],[-95.23084,29.81752],[-95.23085,29.81827],[-95.22994,29.81947],[-95.22978,29.82074],[-95.22875,29.82124],[-95.22839,29.82171],[-95.22992,29.82456],[-95.18517,29.84371],[-95.18494,29.84332]]]}},{"type":"Feature","properties":{"PRECINCT":"harris:380","COUNTY":"Harris"},"geometry":{"type":"Polygon","coordinates":[[[-95.16951,29.93722],[-95.17058,29.93725],[-95.17233,29.93544],[-95.1705,29.93699],[-95.14809,29.94021],[-95.14044,29.92672],[-95.13292,29.91948],[-95.14398,29.91428],[-95.1452,29.91401],[-95.14741,29.91278],[-95.15949,29.88578],[-95.16104,29.88462],[-95.16111,29.88347],[-95.19719,29.88321],[-95.20139,29.88819],[-95.20227,29.89026],[-95.20249,29.8922],[-95.2026,29.90097],[-95.1993,29.92273],[-95.19938,29.92457],[-95.19612,29.92477],[-95.19287,29.92419],[-95.19119,29.92413],[-95.18803,29.92452],[-95.18434,29.92459],[-95.18159,29.92532],[-95.18017,29.92605],[-95.17871,29.92716],[-95.17758,29.92846],[-95.17678,29.92979],[-95.17623,29.93171],[-95.1762,29.93466],[-95.17557,29.9405],[-95.17181,29.94048],[-95.17184,29.94139],[-95.17021,29.94161],[-95.17032,29.94118],[-95.16997,29.94077],[-95.16991,29.93992],[-95.16903,29.93804],[-95.16951,29.93722]]]}},{"type":"Feature","properties":{"PRECINCT":"harris:382","COUNTY":"Harris"},"geometry":{"type":"Polygon","coordinates":[[[-95.13238,29.91883],[-95.12755,29.91672],[-95.12545,29.91545],[-95.12478,29.91468],[-95.12401,29.91328],[-95.1238,29.91226],[-95.12507,29.90596],[-95.12344,29.90384],[-95.12055,29.90127],[-95.119,29.90045],[-95.11753,29.89925],[-95.11712,29.89858],[-95.116,29.89446],[-95.11414,29.89179],[-95.11289,29.89085],[-95.11088,29.89103],[-95.10867,29.89231],[-95.10667,29.893],[-95.10515,29.89337],[-95.10369,29.89337],[-95.10189,29.89259],[-95.09937,29.89065],[-95.0974,29.8885],[-95.09701,29.88768],[-95.09651,29.88167],[-95.09554,29.88034],[-95.09423,29.87938],[-95.09366,29.87818],[-95.09424,29.87619],[-95.10254,29.87449],[-95.11018,29.87441],[-95.10978,29.8755],[-95.10816,29.87631],[-95.10659,29.87759],[-95.1663,29.85176],[-95.16081,29.8776],[-95.16111,29.88447],[-95.15949,29.88578],[-95.14776,29.9123],[-95.14661,29.91335],[-95.14476,29.91421],[-95.14398,29.91428],[-95.13292,29.91948],[-95.13238,29.91883]]]}},{"type":"Feature","properties":{"PRECINCT":"harris:406","COUNTY":"Harris"},"geometry":{"type":"Polygon","coordinates":[[[-95.31697,29.80025],[-95.32409,29.80016],[-95.32423,29.80907],[-95.31721,29.80925],[-95.31697,29.80025]]]}},{"type":"Feature","properties":{"PRECINCT":"harris:412","COUNTY":"Harris"},"geometry":{"type":"Polygon","coordinates":[[[-95.3125,29.7856],[-95.31255,29.77288],[-95.31355,29.77266],[-95.31354,29.77368],[-95.31515,29.7737],[-95.31523,29.77574],[-95.31587,29.77835],[-95.31591,29.78676],[-95.31433,29.78735],[-95.3119,29.78742],[-95.3124,29.78647],[-95.3125,29.7856]]]}},{"type":"Feature","properties":{"PRECINCT":"harris:42","COUNTY":"Harris"},"geometry":{"type":"Polygon","coordinates":[[[-95.29428,29.80425],[-95.28857,29.80425],[-95.28854,29.79937],[-95.28994,29.79879],[-95.29003,29.79896],[-95.29329,29.79756],[-95.2938,29.79757],[-95.29515,29.79807],[-95.29697,29.79784],[-95.29805,29.79953],[-95.29891,29.80009],[-95.2998,29.80034],[-95.31697,29.80025],[-95.31721,29.80925],[-95.30813,29.80942],[-95.30564,29.80923],[-95.30423,29.80868],[-95.29769,29.80517],[-95.29636,29.80466],[-95.29428,29.80425]]]}},{"type":"Feature","properties":{"PRECINCT":"harris:421","COUNTY":"Harris"},"geometry":{"type":"Polygon","coordinates":[[[-95.17572,29.93794],[-95.1762,29.93466],[-95.17626,29.93151],[-95.17718,29.92907],[-95.17839,29.92749],[-95.17986,29.92625],[-95.18179,29.92524],[-95.18395,29.92465],[-95.18803,29.92452],[-95.1914,29.92412],[-95.19287,29.92419],[-95.19612,29.92477],[-95.19938,29.92457],[-95.1998,29.92607],[-95.20084,29.92788],[-95.20218,29.92929],[-95.20596,29.93232],[-95.2041,29.93415],[-95.18585,29.935],[-95.18594,29.93677],[-95.18458,29.93702],[-95.1827,29.93783],[-95.17572,29.93794]]]}},{"type":"Feature","properties":{"PRECINCT":"harris:45","COUNTY":"Harris"},"geometry":{"type":"Polygon","coordinates":[[[-95.19719,29.88321],[-95.18904,29.87381],[-95.18784,29.87222],[-95.1872,29.8709],[-95.18688,29.86978],[-95.18666,29.86663],[-95.18635,29.84845],[-95.18596,29.84587],[-95.18517,29.84371],[-95.22992,29.82456],[-95.23038,29.82586],[-95.23056,29.82832],[-95.23181,29.82996],[-95.23179,29.83032],[-95.23026,29.83263],[-95.2302,29.83421],[-95.23112,29.83536],[-95.23418,29.83809],[-95.23407,29.83878],[-95.23368,29.83927],[-95.23243,29.83959],[-95.23162,29.84032],[-95.23142,29.84126],[-95.2319,29.84238],[-95.23161,29.84288],[-95.23004,29.8441],[-95.22889,29.84424],[-95.22859,29.8447],[-95.22835,29.84639],[-95.22855,29.84856],[-95.22824,29.85274],[-95.22853,29.8531],[-95.22855,29.85424],[-95.22834,29.85641],[-95.22879,29.85742],[-95.23102,29.85838],[-95.23138,29.85876],[-95.23168,29.85975],[-95.23105,29.86081],[-95.23043,29.86115],[-95.23067,29.86212],[-95.23368,29.86644],[-95.23516,29.86725],[-95.23547,29.86757],[-95.23565,29.86856],[-95.23689,29.86935],[-95.2383,29.87225],[-95.23865,29.87448],[-95.23822,29.87767],[-95.23766,29.87829],[-95.23633,29.87852],[-95.23589,29.87883],[-95.23599,29.87931],[-95.2367,29.88006],[-95.23702,29.88106],[-95.23655,29.88265],[-95.23675,29.8831],[-95.23333,29.88274],[-95.19719,29.88321]]]}},{"type":"Feature","properties":{"PRECINCT":"harris:455","COUNTY":"Harris"},"geometry":{"type":"Polygon","coordinates":[[[-95.29766,29.79907],[-95.29697,29.79784],[-95.29515,29.79807],[-95.29329,29.79756],[-95.30649,29.79192],[-95.30659,29.79456],[-95.31234,29.79447],[-95.31303,29.79398],[-95.31299,29.79179],[-95.31645,29.79175],[-95.31644,29.79113],[-95.31754,29.79112],[-95.31754,29.79044],[-95.32127,29.79032],[-95.32128,29.79106],[-95.32202,29.79102],[-95.32207,29.79394],[-95.324,29.79395],[-95.32409,29.80016],[-95.30061,29.80039],[-95.29891,29.80009],[-95.29766,29.79907]]]}},{"type":"Feature","properties":{"PRECINCT":"harris:460","COUNTY":"Harris"},"geometry":{"type":"Polygon","coordinates":[[[-95.14338,29.8463],[-95.14326,29.8385],[-95.14142,29.83789],[-95.12757,29.83583],[-95.12716,29.82051],[-95.13431,29.81843],[-95.14887,29.81331],[-95.15183,29.81197],[-95.15654,29.81049],[-95.17187,29.80661],[-95.17356,29.80636],[-95.17864,29.80621],[-95.16735,29.83685],[-95.16118,29.8394],[-95.159,29.84065],[-95.15657,29.84156],[-95.15615,29.84085],[-95.14338,29.8463]]]}},{"type":"Feature","properties":{"PRECINCT":"harris:48","COUNTY":"Harris"},"geometry":{"type":"Polygon","coordinates":[[[-95.32641,29.77616],[-95.32642,29.76994],[-95.32746,29.76657],[-95.32744,29.7625],[-95.32771,29.76152],[-95.32887,29.75984],[-95.32964,29.75983],[-95.33047,29.75951],[-95.33193,29.75851],[-95.33256,29.75836],[-95.3331,29.75861],[-95.33341,29.75908],[-95.33354,29.76133],[-95.3355,29.76172],[-95.33575,29.7759],[-95.32641,29.77616]]]}},{"type":"Feature","properties":{"PRECINCT":"harris:544","COUNTY":"Harris"},"geometry":{"type":"Polygon","coordinates":[[[-95.33981,29.80326],[-95.34012,29.80131],[-95.33994,29.7939],[-95.3502,29.79345],[-95.3505,29.80331],[-95.34786,29.8031],[-95.35029,29.81241],[-95.33891,29.80882],[-95.33625,29.80826],[-95.339,29.80479],[-95.33981,29.80326]]]}},{"type":"Feature","properties":{"PRECINCT":"harris:562","COUNTY":"Harris"},"geometry":{"type":"Polygon","coordinates":[[[-95.29228,29.79771],[-95.31675,29.78727],[-95.32378,29.78424],[-95.324,29.79395],[-95.32207,29.79394],[-95.32202,29.79102],[-95.32128,29.79106],[-95.32127,29.79032],[-95.31754,29.79044],[-95.31754,29.79112],[-95.31644,29.79113],[-95.31645,29.79175],[-95.31299,29.79179],[-95.31303,29.79398],[-95.31234,29.79447],[-95.30659,29.79456],[-95.30649,29.79192],[-95.29003,29.79896],[-95.28994,29.79879],[-95.29228,29.79771]]]}},{"type":"Feature","properties":{"PRECINCT":"harris:580","COUNTY":"Harris"},"geometry":{"type":"Polygon","coordinates":[[[-95.31367,29.82734],[-95.31355,29.82083],[-95.31037,29.82089],[-95.31037,29.81403],[-95.30191,29.81115],[-95.30188,29.80742],[-95.30454,29.80883],[-95.30626,29.80936],[-95.32423,29.80907],[-95.32437,29.81891],[-95.32719,29.81986],[-95.32977,29.81999],[-95.32583,29.82038],[-95.32378,29.82084],[-95.32169,29.82178],[-95.31845,29.82341],[-95.31665,29.82485],[-95.31377,29.82771],[-95.31351,29.82756],[-95.31367,29.82734]]]}},{"type":"Feature","properties":{"PRECINCT":"harris:581","COUNTY":"Harris"},"geometry":{"type":"Polygon","coordinates":[[[-95.29375,29.83399],[-95.29374,29.83135],[-95.29196,29.83134],[-95.29202,29.81167],[-95.29172,29.80832],[-95.29151,29.80741],[-95.29073,29.80718],[-95.28948,29.80619],[-95.28857,29.80425],[-95.29349,29.80421],[-95.29533,29.80439],[-95.29769,29.80517],[-95.30188,29.80742],[-95.30203,29.83401],[-95.29375,29.83399]]]}},{"type":"Feature","properties":{"PRECINCT":"harris:582","COUNTY":"Harris"},"geometry":{"type":"Polygon","coordinates":[[[-95.26224,29.83704],[-95.26191,29.82068],[-95.2624,29.81753],[-95.26237,29.81368],[-95.26233,29.81274],[-95.26161,29.81092],[-95.2697,29.80705],[-95.28014,29.80247],[-95.28854,29.79937],[-95.28857,29.80425],[-95.28948,29.80619],[-95.29073,29.80718],[-95.29151,29.80741],[-95.29172,29.80832],[-95.29202,29.81167],[-95.29196,29.83134],[-95.28847,29.83132],[-95.28851,29.82944],[-95.28788,29.82375],[-95.28789,29.81749],[-95.28437,29.81749],[-95.28437,29.81693],[-95.27742,29.81685],[-95.27731,29.82869],[-95.28034,29.82867],[-95.28036,29.83136],[-95.27009,29.83145],[-95.27015,29.83617],[-95.26983,29.83649],[-95.26272,29.83659],[-95.26224,29.83704]]]}},{"type":"Feature","properties":{"PRECINCT":"harris:606","COUNTY":"Harris"},"geometry":{"type":"Polygon","coordinates":[[[-95.33549,29.81989],[-95.32719,29.81986],[-95.32437,29.81891],[-95.32423,29.80907],[-95.33208,29.80804],[-95.33625,29.80826],[-95.33551,29.80962],[-95.33529,29.81081],[-95.33549,29.81989]]]}},{"type":"Feature","properties":{"PRECINCT":"harris:797","COUNTY":"Harris"},"geometry":{"type":"Polygon","coordinates":[[[-95.22975,29.82426],[-95.24064,29.81957],[-95.24068,29.81975],[-95.22992,29.82456],[-95.22975,29.82426]]]}},{"type":"Feature","properties":{"PRECINCT":"harris:799","COUNTY":"Harris"},"geometry":{"type":"Polygon","coordinates":[[[-95.26679,29.95362],[-95.26189,29.95367],[-95.26168,29.94942],[-95.26245,29.94961],[-95.26284,29.95164],[-95.26629,29.9512],[-95.26631,29.9521],[-95.26847,29.95227],[-95.26933,29.95133],[-95.27099,29.9519],[-95.26817,29.95451],[-95.26679,29.95362]]]}},{"type":"Feature","properties":{"PRECINCT":"harris:816","COUNTY":"Harris"},"geometry":{"type":"Polygon","coordinates":[[[-95.26443,29.79199],[-95.26802,29.79181],[-95.26933,29.79456],[-95.27066,29.79616],[-95.28014,29.80247],[-95.25806,29.81243],[-95.25795,29.81217],[-95.25879,29.81153],[-95.26336,29.80636],[-95.26324,29.79965],[-95.26566,29.79737],[-95.26457,29.79582],[-95.26443,29.79199]]]}},{"type":"Feature","properties":{"PRECINCT":"harris:818","COUNTY":"Harris"},"geometry":{"type":"Polygon","coordinates":[[[-95.23001,29.81654],[-95.22874,29.81649],[-95.22858,29.816],[-95.23088,29.81497],[-95.23084,29.81384],[-95.23042,29.81329],[-95.22988,29.81313],[-95.2281,29.81351],[-95.2264,29.81341],[-95.22577,29.81436],[-95.22538,29.81441],[-95.22492,29.81397],[-95.22462,29.81218],[-95.22313,29.812],[-95.22267,29.81075],[-95.21997,29.8095],[-95.2191,29.80875],[-95.21805,29.80885],[-95.21694,29.81],[-95.21644,29.81023],[-95.21596,29.8102],[-95.21499,29.80959],[-95.21383,29.81071],[-95.21305,29.8109],[-95.21262,29.80988],[-95.21277,29.80917],[-95.21322,29.80786],[-95.21423,29.80664],[-95.21408,29.80614],[-95.2128,29.80521],[-95.21461,29.80405],[-95.24026,29.7951],[-95.24416,29.79497],[-95.24098,29.79886],[-95.24049,29.80001],[-95.24064,29.81957],[-95.22975,29.82426],[-95.22837,29.82185],[-95.22875,29.82124],[-95.22978,29.82074],[-95.23006,29.81912],[-95.23085,29.81827],[-95.23055,29.81689],[-95.23001,29.81654]]]}},{"type":"Feature","properties":{"PRECINCT":"harris:83","COUNTY":"Harris"},"geometry":{"type":"Polygon","coordinates":[[[-95.26847,29.95227],[-95.26631,29.9521],[-95.26629,29.9512],[-95.26284,29.95164],[-95.26248,29.94966],[-95.26168,29.94942],[-95.26168,29.94896],[-95.26625,29.9491],[-95.26679,29.94668],[-95.26616,29.94632],[-95.26613,29.94215],[-95.26848,29.94201],[-95.26848,29.93903],[-95.26301,29.93894],[-95.26108,29.93865],[-95.25836,29.93759],[-95.25525,29.93564],[-95.25523,29.93516],[-95.2495,29.9351],[-95.24953,29.93407],[-95.25186,29.93156],[-95.25184,29.93124],[-95.25238,29.93121],[-95.25234,29.931],[-95.2528,29.93088],[-95.25272,29.93066],[-95.25444,29.92971],[-95.25602,29.92822],[-95.25641,29.92852],[-95.25659,29.92838],[-95.25723,29.92895],[-95.25757,29.9288],[-95.25778,29.92922],[-95.25824,29.92914],[-95.25901,29.92974],[-95.2609,29.92969],[-95.26095,29.92951],[-95.26169,29.92942],[-95.26372,29.92982],[-95.26438,29.93053],[-95.26468,29.93048],[-95.26596,29.93203],[-95.26742,29.93274],[-95.26919,29.93291],[-95.27243,29.93262],[-95.27365,29.932],[-95.27364,29.93152],[-95.28755,29.93157],[-95.2875,29.92795],[-95.28405,29.92785],[-95.28244,29.92687],[-95.28318,29.92588],[-95.28329,29.92449],[-95.27625,29.92452],[-95.27648,29.92281],[-95.27756,29.92194],[-95.27779,29.92115],[-95.27258,29.92114],[-95.27254,29.91674],[-95.27413,29.91627],[-95.28078,29.91612],[-95.28216,29.91523],[-95.28543,29.91429],[-95.28666,29.91334],[-95.28744,29.91338],[-95.28861,29.9139],[-95.29218,29.91466],[-95.29329,29.91539],[-95.29487,29.91714],[-95.2956,29.91864],[-95.29501,29.91985],[-95.29523,29.91989],[-95.29497,29.92822],[-95.29392,29.92921],[-95.29323,29.92942],[-95.29324,29.9306],[-95.291,29.93064],[-95.28944,29.93475],[-95.27099,29.9519],[-95.26933,29.95133],[-95.26847,29.95227]]]}},{"type":"Feature","properties":{"PRECINCT":"harris:847","COUNTY":"Harris"},"geometry":{"type":"Polygon","coordinates":[[[-95.24797,29.95632],[-95.24961,29.95143],[-95.24969,29.94938],[-95.25207,29.94936],[-95.25203,29.9469],[-95.24966,29.94692],[-95.2495,29.9351],[-95.25523,29.93516],[-95.25525,29.93564],[-95.25836,29.93759],[-95.26108,29.93865],[-95.26301,29.93894],[-95.26848,29.93903],[-95.26848,29.94201],[-95.26613,29.94215],[-95.26616,29.94632],[-95.26679,29.94668],[-95.26625,29.9491],[-95.26168,29.94896],[-95.26189,29.95367],[-95.26705,29.95368],[-95.26817,29.95451],[-95.26677,29.95577],[-95.25381,29.96168],[-95.25034,29.96199],[-95.24802,29.96197],[-95.24797,29.95632]]]}},{"type":"Feature","properties":{"PRECINCT":"harris:854","COUNTY":"Harris"},"geometry":{"type":"Polygon","coordinates":[[[-95.33389,29.7888],[-95.33431,29.78873],[-95.33429,29.78776],[-95.33586,29.78777],[-95.33588,29.78883],[-95.33634,29.78882],[-95.33636,29.79049],[-95.33636,29.7911],[-95.3359,29.79118],[-95.3359,29.7924],[-95.332,29.79246],[-95.33118,29.79111],[-95.33108,29.78966],[-95.33379,29.78964],[-95.33389,29.7888]]]}},{"type":"Feature","properties":{"PRECINCT":"harris:865","COUNTY":"Harris"},"geometry":{"type":"Polygon","coordinates":[[[-95.31748,29.7841],[-95.31749,29.7833],[-95.32392,29.78339],[-95.32392,29.7827],[-95.32708,29.78234],[-95.32712,29.7827],[-95.32543,29.78337],[-95.32547,29.78479],[-95.32491,29.78502],[-95.32494,29.78625],[-95.32392,29.78627],[-95.32378,29.78424],[-95.3158,29.78766],[-95.31353,29.78801],[-95.31175,29.78762],[-95.3119,29.78742],[-95.31455,29.78733],[-95.31591,29.78676],[-95.3159,29.78414],[-95.31748,29.7841]]]}},{"type":"Feature","properties":{"PRECINCT":"harris:866","COUNTY":"Harris"},"geometry":{"type":"Polygon","coordinates":[[[-95.34325,29.76828],[-95.34465,29.7678],[-95.34468,29.76867],[-95.34344,29.7687],[-95.34325,29.76828]]]}},{"type":"Feature","properties":{"PRECINCT":"harris:888","COUNTY":"Harris"},"geometry":{"type":"Polygon","coordinates":[[[-95.21242,29.99929],[-95.21239,29.98185],[-95.21471,29.98083],[-95.22984,29.97259],[-95.24454,29.96251],[-95.24585,29.96205],[-95.24802,29.96197],[-95.24852,29.98078],[-95.24878,29.98164],[-95.25021,29.98382],[-95.25001,29.98713],[-95.2466,29.98741],[-95.24668,29.99194],[-95.24606,29.99313],[-95.24536,29.99373],[-95.24531,29.99563],[-95.24166,29.996],[-95.24074,29.99876],[-95.24034,29.99893],[-95.24022,29.99928],[-95.23702,29.99931],[-95.23701,29.99898],[-95.2365,29.99903],[-95.23643,29.99932],[-95.23403,29.99936],[-95.23062,29.99938],[-95.23058,29.9992],[-95.21242,29.99929]]]}},{"type":"Feature","properties":{"PRECINCT":"harris:889","COUNTY":"Harris"},"geometry":{"type":"Polygon","coordinates":[[[-95.34544,29.76197],[-95.34329,29.76213],[-95.34386,29.76114],[-95.34582,29.76161],[-95.34705,29.76006],[-95.34785,29.76056],[-95.34645,29.7624],[-95.34544,29.76197]]]}},{"type":"Feature","properties":{"PRECINCT":"harris:96","COUNTY":"Harris"},"geometry":{"type":"Polygon","coordinates":[[[-95.20243,29.89149],[-95.20215,29.88984],[-95.20139,29.88819],[-95.19719,29.88321],[-95.23333,29.88274],[-95.23675,29.8831],[-95.2369,29.88385],[-95.23665,29.88461],[-95.23511,29.88682],[-95.23506,29.88749],[-95.23792,29.89016],[-95.23821,29.89083],[-95.23817,29.89206],[-95.2389,29.89247],[-95.23997,29.8925],[-95.24033,29.89302],[-95.24008,29.89464],[-95.23895,29.89552],[-95.2387,29.89601],[-95.23934,29.8977],[-95.24068,29.89864],[-95.20596,29.93232],[-95.20218,29.92929],[-95.20084,29.92788],[-95.1998,29.92607],[-95.19936,29.92446],[-95.1993,29.92273],[-95.2026,29.90097],[-95.20243,29.89149]]]}},{"type":"Feature","properties":{"PRECINCT":"harris:960","COUNTY":"Harris"},"geometry":{"type":"Polygon","coordinates":[[[-95.24794,29.94966],[-95.24328,29.94877],[-95.24146,29.94902],[-95.24074,29.94886],[-95.23599,29.94492],[-95.23591,29.93741],[-95.23529,29.93607],[-95.23432,29.93517],[-95.23419,29.93438],[-95.23639,29.93436],[-95.24265,29.93502],[-95.2495,29.9351],[-95.24966,29.94692],[-95.25203,29.9469],[-95.25207,29.94936],[-95.24969,29.94938],[-95.24965,29.95117],[-95.24794,29.94966]]]}},{"type":"Feature","properties":{"PRECINCT":"harris:962","COUNTY":"Harris"},"geometry":{"type":"Polygon","coordinates":[[[-95.34879,29.77017],[-95.34875,29.76863],[-95.34468,29.76867],[-95.34465,29.7678],[-95.3474,29.76671],[-95.34839,29.76656],[-95.35002,29.76543],[-95.3512,29.76539],[-95.35257,29.76594],[-95.35374,29.76573],[-95.35408,29.76471],[-95.35355,29.76305],[-95.35374,29.76224],[-95.35679,29.76302],[-95.35746,29.76343],[-95.35598,29.7683],[-95.35181,29.77005],[-95.34879,29.77017]]]}},{"type":"Feature","properties":{"PRECINCT":"harris:963","COUNTY":"Harris"},"geometry":{"type":"Polygon","coordinates":[[[-95.16685,29.84851],[-95.16672,29.83854],[-95.16735,29.83685],[-95.17038,29.83571],[-95.17566,29.83328],[-95.1776,29.83584],[-95.18186,29.83987],[-95.18442,29.8434],[-95.18487,29.8432],[-95.18517,29.84371],[-95.1663,29.85176],[-95.16685,29.84851]]]}},{"type":"Feature","properties":{"PRECINCT":"harris:965","COUNTY":"Harris"},"geometry":{"type":"Polygon","coordinates":[[[-95.16091,29.88347],[-95.16081,29.8776],[-95.1663,29.85176],[-95.18517,29.84371],[-95.18596,29.84587],[-95.18635,29.84845],[-95.18666,29.86663],[-95.18688,29.86978],[-95.1872,29.8709],[-95.18818,29.87275],[-95.19719,29.88321],[-95.16091,29.88347]]]}},{"type":"Feature","properties":{"PRECINCT":"harris:967","COUNTY":"Harris"},"geometry":{"type":"Polygon","coordinates":[[[-95.21234,29.97795],[-95.21558,29.97833],[-95.21743,29.97934],[-95.21239,29.98185],[-95.21234,29.97795]]]}},{"type":"Feature","properties":{"PRECINCT":"harris:968","COUNTY":"Harris"},"geometry":{"type":"Polygon","coordinates":[[[-95.196,29.94199],[-95.20596,29.93232],[-95.20794,29.93364],[-95.20955,29.93436],[-95.2109,29.93464],[-95.21274,29.93479],[-95.21894,29.9347],[-95.21903,29.93748],[-95.21852,29.95115],[-95.21683,29.95214],[-95.21649,29.95356],[-95.21532,29.95471],[-95.21444,29.95609],[-95.19378,29.94488],[-95.19645,29.94229],[-95.196,29.94199]]]}},{"type":"Feature","properties":{"PRECINCT":"harris:976","COUNTY":"Harris"},"geometry":{"type":"Polygon","coordinates":[[[-95.12819,29.86819],[-95.12757,29.83583],[-95.14142,29.83789],[-95.14326,29.8385],[-95.14338,29.8463],[-95.15615,29.84085],[-95.15657,29.84156],[-95.159,29.84065],[-95.16118,29.8394],[-95.16735,29.83685],[-95.16672,29.83854],[-95.16685,29.84851],[-95.1663,29.85176],[-95.12819,29.86819]]]}}]}