{"type":"FeatureCollection","features":[{"type":"Feature","properties":{"PRECINCT":"dallas:2000","COUNTY":"Dallas"},"geometry":{"type":"Polygon","coordinates":[[[-96.89946,32.89295],[-96.90746,32.8931],[-96.90749,32.89509],[-96.90771,32.89569],[-96.90126,32.89571],[-96.89815,32.89606],[-96.89816,32.89586],[-96.89932,32.89574],[-96.89946,32.89295]]]}},{"type":"Feature","properties":{"PRECINCT":"dallas:2001","COUNTY":"Dallas"},"geometry":{"type":"Polygon","coordinates":[[[-96.85605,32.91814],[-96.85605,32.91572],[-96.8577,32.9157],[-96.8577,32.91617],[-96.8588,32.91662],[-96.86057,32.91619],[-96.86128,32.91627],[-96.86473,32.91532],[-96.86478,32.9155],[-96.86197,32.91635],[-96.85898,32.91695],[-96.85605,32.91814]]]}},{"type":"Feature","properties":{"PRECINCT":"dallas:2002","COUNTY":"Dallas"},"geometry":{"type":"Polygon","coordinates":[[[-96.84664,32.91888],[-96.8466,32.91634],[-96.84327,32.91603],[-96.84336,32.90963],[-96.85616,32.90965],[-96.85605,32.91814],[-96.84813,32.92147],[-96.84664,32.91888]]]}},{"type":"Feature","properties":{"PRECINCT":"dallas:2028","COUNTY":"Dallas"},"geometry":{"type":"Polygon","coordinates":[[[-96.8914,32.91555],[-96.89157,32.90957],[-96.89086,32.9091],[-96.89924,32.90808],[-96.90902,32.90792],[-96.90824,32.91179],[-96.90467,32.91172],[-96.90499,32.91327],[-96.90175,32.91386],[-96.8986,32.91387],[-96.89859,32.9144],[-96.89427,32.91436],[-96.89463,32.91532],[-96.8914,32.91555]]]}},{"type":"Feature","properties":{"PRECINCT":"dallas:2076","COUNTY":"Dallas"},"geometry":{"type":"Polygon","coordinates":[[[-96.89811,32.90816],[-96.89815,32.89606],[-96.90126,32.89571],[-96.91149,32.89569],[-96.91087,32.89586],[-96.91066,32.89625],[-96.91002,32.89974],[-96.91069,32.89974],[-96.90902,32.90792],[-96.89811,32.90816]]]}},{"type":"Feature","properties":{"PRECINCT":"dallas:2098","COUNTY":"Dallas"},"geometry":{"type":"Polygon","coordinates":[[[-96.80451,32.82317],[-96.80451,32.82269],[-96.80235,32.82267],[-96.80233,32.81623],[-96.80419,32.81622],[-96.80452,32.81642],[-96.80494,32.81606],[-96.81195,32.82206],[-96.81177,32.82221],[-96.81246,32.8228],[-96.81203,32.82319],[-96.80451,32.82317]]]}},{"type":"Feature","properties":{"PRECINCT":"dallas:2099","COUNTY":"Dallas"},"geometry":{"type":"Polygon","coordinates":[[[-96.81195,32.82206],[-96.80494,32.81606],[-96.80452,32.81642],[-96.80419,32.81622],[-96.80233,32.81623],[-96.80243,32.8145],[-96.80825,32.80984],[-96.80863,32.80904],[-96.81739,32.81593],[-96.81677,32.82159],[-96.81467,32.81983],[-96.81375,32.82054],[-96.81396,32.82071],[-96.81282,32.82206],[-96.81288,32.82242],[-96.81252,32.82286],[-96.81177,32.82221],[-96.81195,32.82206]]]}},{"type":"Feature","properties":{"PRECINCT":"dallas:2100","COUNTY":"Dallas"},"geometry":{"type":"Polygon","coordinates":[[[-96.81699,32.81423],[-96.81571,32.81321],[-96.81488,32.8139],[-96.81218,32.8118],[-96.81332,32.81089],[-96.81233,32.81013],[-96.81118,32.81101],[-96.80679,32.80753],[-96.81185,32.80329],[-96.81361,32.80474],[-96.81324,32.80506],[-96.81414,32.80586],[-96.81505,32.8051],[-96.81676,32.80654],[-96.81585,32.8073],[-96.81685,32.80806],[-96.81782,32.80728],[-96.81811,32.81095],[-96.81739,32.81593],[-96.81615,32.81493],[-96.81699,32.81423]]]}},{"type":"Feature","properties":{"PRECINCT":"dallas:2111","COUNTY":"Dallas"},"geometry":{"type":"Polygon","coordinates":[[[-96.81585,32.8073],[-96.81676,32.80654],[-96.81766,32.80738],[-96.81685,32.80806],[-96.81585,32.8073]]]}},{"type":"Feature","properties":{"PRECINCT":"dallas:2112","COUNTY":"Dallas"},"geometry":{"type":"Polygon","coordinates":[[[-96.81488,32.8139],[-96.81571,32.81321],[-96.81699,32.81423],[-96.81615,32.81493],[-96.81488,32.8139]]]}},{"type":"Feature","properties":{"PRECINCT":"dallas:2113","COUNTY":"Dallas"},"geometry":{"type":"Polygon","coordinates":[[[-96.81118,32.81101],[-96.81233,32.81013],[-96.81332,32.81089],[-96.81218,32.8118],[-96.81118,32.81101]]]}},{"type":"Feature","properties":{"PRECINCT":"dallas:2300","COUNTY":"Dallas"},"geometry":{"type":"Polygon","coordinates":[[[-96.8719,32.94635],[-96.87264,32.94513],[-96.87311,32.94371],[-96.87319,32.93891],[-96.88227,32.939],[-96.88411,32.93838],[-96.88491,32.93832],[-96.8847,32.93924],[-96.88337,32.94071],[-96.88333,32.94309],[-96.88555,32.94318],[-96.88529,32.94407],[-96.88755,32.94407],[-96.88755,32.94639],[-96.8719,32.94635]]]}},{"type":"Feature","properties":{"PRECINCT":"dallas:2302","COUNTY":"Dallas"},"geometry":{"type":"Polygon","coordinates":[[[-96.8909,32.92396],[-96.88936,32.92393],[-96.88978,32.923],[-96.89098,32.92252],[-96.89187,32.92102],[-96.89185,32.92016],[-96.89235,32.91989],[-96.89426,32.91987],[-96.89494,32.91922],[-96.89518,32.91843],[-96.89502,32.91791],[-96.89146,32.91784],[-96.8914,32.91555],[-96.89463,32.91532],[-96.89427,32.91436],[-96.89786,32.91439],[-96.89818,32.91725],[-96.89988,32.92291],[-96.89964,32.92297],[-96.90066,32.9272],[-96.90222,32.93917],[-96.89057,32.93908],[-96.89053,32.93572],[-96.89004,32.93498],[-96.88818,32.93361],[-96.88957,32.93219],[-96.89044,32.93041],[-96.8909,32.92396]]]}},{"type":"Feature","properties":{"PRECINCT":"dallas:2306","COUNTY":"Dallas"},"geometry":{"type":"Polygon","coordinates":[[[-96.85599,32.92412],[-96.85605,32.91814],[-96.85898,32.91695],[-96.86736,32.91489],[-96.87097,32.91366],[-96.87138,32.91386],[-96.8733,32.91354],[-96.87331,32.92442],[-96.85599,32.92412]]]}},{"type":"Feature","properties":{"PRECINCT":"dallas:2308","COUNTY":"Dallas"},"geometry":{"type":"Polygon","coordinates":[[[-96.89988,32.92291],[-96.89818,32.91725],[-96.89786,32.91439],[-96.89859,32.9144],[-96.8986,32.91387],[-96.90175,32.91386],[-96.90499,32.91327],[-96.90467,32.91172],[-96.90824,32.91179],[-96.90902,32.90792],[-96.92121,32.90777],[-96.9253,32.90812],[-96.93108,32.90943],[-96.93165,32.91077],[-96.93286,32.91187],[-96.93389,32.91224],[-96.93683,32.91259],[-96.93829,32.91347],[-96.93297,32.91748],[-96.93165,32.91809],[-96.92377,32.91817],[-96.92241,32.91862],[-96.92121,32.9193],[-96.9211,32.91919],[-96.91997,32.9202],[-96.91875,32.92081],[-96.91255,32.92242],[-96.90777,32.92245],[-96.90431,32.92208],[-96.90423,32.92389],[-96.90304,32.92403],[-96.90392,32.92555],[-96.90398,32.92615],[-96.90129,32.92617],[-96.90291,32.93847],[-96.90264,32.93851],[-96.90273,32.93917],[-96.90222,32.93917],[-96.90216,32.93883],[-96.90066,32.9272],[-96.89964,32.92297],[-96.89988,32.92291]]]}},{"type":"Feature","properties":{"PRECINCT":"dallas:2309","COUNTY":"Dallas"},"geometry":{"type":"Polygon","coordinates":[[[-96.92272,32.90781],[-96.90902,32.90792],[-96.91069,32.89974],[-96.91002,32.89974],[-96.91087,32.89586],[-96.91149,32.89569],[-96.91466,32.89565],[-96.92838,32.89569],[-96.92862,32.8965],[-96.92811,32.89829],[-96.92807,32.89955],[-96.92782,32.89998],[-96.92731,32.9001],[-96.9275,32.90148],[-96.92679,32.90259],[-96.92926,32.90433],[-96.92993,32.90507],[-96.92954,32.90505],[-96.92976,32.90543],[-96.93052,32.90589],[-96.93168,32.90709],[-96.93185,32.90756],[-96.93124,32.90845],[-96.93115,32.90938],[-96.9253,32.90812],[-96.92272,32.90781]]]}},{"type":"Feature","properties":{"PRECINCT":"dallas:2310","COUNTY":"Dallas"},"geometry":{"type":"Polygon","coordinates":[[[-96.87331,32.92435],[-96.8733,32.91354],[-96.87138,32.91386],[-96.87097,32.91366],[-96.88177,32.91116],[-96.88186,32.91368],[-96.88202,32.91298],[-96.8849,32.91298],[-96.88493,32.91376],[-96.88482,32.91395],[-96.88442,32.91384],[-96.88435,32.91404],[-96.88601,32.91382],[-96.88611,32.91442],[-96.88995,32.91443],[-96.8914,32.91465],[-96.89146,32.91784],[-96.89502,32.91791],[-96.89518,32.91843],[-96.89498,32.91914],[-96.89442,32.91977],[-96.89199,32.92003],[-96.89187,32.92102],[-96.89098,32.92252],[-96.88967,32.92312],[-96.88936,32.92393],[-96.8909,32.92403],[-96.88831,32.92411],[-96.88627,32.92456],[-96.87331,32.92435]]]}},{"type":"Feature","properties":{"PRECINCT":"dallas:2311","COUNTY":"Dallas"},"geometry":{"type":"Polygon","coordinates":[[[-96.88755,32.94639],[-96.88755,32.94407],[-96.88529,32.94407],[-96.88555,32.94318],[-96.88333,32.94309],[-96.88344,32.94054],[-96.8847,32.93924],[-96.88491,32.93832],[-96.8906,32.93836],[-96.89042,32.94637],[-96.88755,32.94639]]]}},{"type":"Feature","properties":{"PRECINCT":"dallas:2312","COUNTY":"Dallas"},"geometry":{"type":"Polygon","coordinates":[[[-96.8914,32.91465],[-96.88611,32.91442],[-96.8861,32.91388],[-96.88589,32.91381],[-96.88435,32.91404],[-96.88442,32.91384],[-96.88482,32.91395],[-96.88493,32.91376],[-96.8849,32.91298],[-96.88202,32.91298],[-96.88186,32.91368],[-96.88177,32.91116],[-96.89086,32.9091],[-96.89157,32.90957],[-96.8914,32.91465]]]}},{"type":"Feature","properties":{"PRECINCT":"dallas:2313","COUNTY":"Dallas"},"geometry":{"type":"Polygon","coordinates":[[[-96.90272,32.93915],[-96.90264,32.93851],[-96.90291,32.93847],[-96.90129,32.92617],[-96.90398,32.92615],[-96.90392,32.92555],[-96.90304,32.92403],[-96.90423,32.92389],[-96.90431,32.92208],[-96.90777,32.92245],[-96.91255,32.92242],[-96.9186,32.92086],[-96.91997,32.9202],[-96.9211,32.91919],[-96.92121,32.9193],[-96.92241,32.91862],[-96.92377,32.91817],[-96.92523,32.91803],[-96.92529,32.92075],[-96.92457,32.92079],[-96.92466,32.92395],[-96.91954,32.92383],[-96.91952,32.92447],[-96.92013,32.92442],[-96.92003,32.92513],[-96.92051,32.92519],[-96.92051,32.93064],[-96.91108,32.93066],[-96.9111,32.93917],[-96.90272,32.93915]]]}},{"type":"Feature","properties":{"PRECINCT":"dallas:2407","COUNTY":"Dallas"},"geometry":{"type":"Polygon","coordinates":[[[-96.88992,32.97557],[-96.89016,32.96389],[-96.89153,32.96349],[-96.89841,32.96023],[-96.90445,32.95779],[-96.91076,32.95379],[-96.91483,32.95976],[-96.92203,32.97269],[-96.91989,32.96997],[-96.92155,32.97298],[-96.92315,32.97509],[-96.92224,32.97562],[-96.92155,32.97575],[-96.88992,32.97557]]]}},{"type":"Feature","properties":{"PRECINCT":"dallas:2408","COUNTY":"Dallas"},"geometry":{"type":"Polygon","coordinates":[[[-96.89016,32.96389],[-96.89017,32.96095],[-96.88629,32.96092],[-96.88645,32.95361],[-96.89458,32.95372],[-96.89454,32.94915],[-96.89856,32.9492],[-96.90131,32.94899],[-96.90298,32.94852],[-96.90616,32.94695],[-96.91076,32.95379],[-96.90445,32.95779],[-96.89841,32.96023],[-96.89153,32.96349],[-96.89016,32.96389]]]}},{"type":"Feature","properties":{"PRECINCT":"dallas:2409","COUNTY":"Dallas"},"geometry":{"type":"Polygon","coordinates":[[[-96.87072,32.95338],[-96.87091,32.94881],[-96.8719,32.94635],[-96.89042,32.94637],[-96.89044,32.94414],[-96.89756,32.94414],[-96.89753,32.9492],[-96.89454,32.94915],[-96.89458,32.95372],[-96.87072,32.95338]]]}},{"type":"Feature","properties":{"PRECINCT":"dallas:2411","COUNTY":"Dallas"},"geometry":{"type":"Polygon","coordinates":[[[-96.89753,32.9492],[-96.89756,32.94414],[-96.89044,32.94414],[-96.89057,32.93908],[-96.90273,32.93917],[-96.90355,32.94247],[-96.90456,32.94452],[-96.90616,32.94695],[-96.90391,32.94811],[-96.90174,32.9489],[-96.90012,32.94915],[-96.89753,32.9492]]]}},{"type":"Feature","properties":{"PRECINCT":"dallas:2610","COUNTY":"Dallas"},"geometry":{"type":"Polygon","coordinates":[[[-96.93188,32.91108],[-96.93108,32.90943],[-96.94081,32.91162],[-96.93815,32.91333],[-96.93683,32.91259],[-96.93389,32.91224],[-96.93286,32.91187],[-96.93188,32.91108]]]}},{"type":"Feature","properties":{"PRECINCT":"dallas:3084","COUNTY":"Dallas"},"geometry":{"type":"Polygon","coordinates":[[[-96.80984,32.75877],[-96.81677,32.75876],[-96.81937,32.75845],[-96.82292,32.75889],[-96.82285,32.7692],[-96.81768,32.77021],[-96.81603,32.76761],[-96.8146,32.76636],[-96.80953,32.76398],[-96.80648,32.76294],[-96.80984,32.75877]]]}},{"type":"Feature","properties":{"PRECINCT":"dallas:4000","COUNTY":"Dallas"},"geometry":{"type":"Polygon","coordinates":[[[-96.89816,32.89586],[-96.89812,32.87519],[-96.89826,32.87389],[-96.90015,32.87389],[-96.90019,32.86907],[-96.90059,32.86661],[-96.8997,32.8666],[-96.90054,32.86478],[-96.89055,32.86143],[-96.89054,32.86184],[-96.88972,32.86161],[-96.88089,32.86154],[-96.88063,32.86156],[-96.88107,32.86378],[-96.88001,32.86482],[-96.87916,32.86509],[-96.87775,32.85827],[-96.88092,32.858],[-96.88078,32.8577],[-96.88225,32.85712],[-96.88788,32.85169],[-96.8932,32.8478],[-96.89386,32.84866],[-96.89372,32.84996],[-96.89448,32.85077],[-96.89529,32.85093],[-96.89767,32.85035],[-96.89875,32.85072],[-96.89879,32.85107],[-96.89788,32.85206],[-96.89815,32.85291],[-96.8991,32.85359],[-96.90021,32.85356],[-96.90109,32.85235],[-96.90189,32.85218],[-96.90337,32.85283],[-96.90371,32.85414],[-96.90563,32.85386],[-96.90654,32.85414],[-96.907,32.85458],[-96.90743,32.85562],[-96.90815,32.85606],[-96.90902,32.85597],[-96.91053,32.85529],[-96.91141,32.85546],[-96.91195,32.85612],[-96.91237,32.85777],[-96.91285,32.85814],[-96.91372,32.85794],[-96.9141,32.8564],[-96.91549,32.85595],[-96.91674,32.85632],[-96.91673,32.8581],[-96.91715,32.85856],[-96.91759,32.85844],[-96.91842,32.85764],[-96.91934,32.85741],[-96.92505,32.85865],[-96.9253,32.85915],[-96.92509,32.85957],[-96.92239,32.86074],[-96.92212,32.8616],[-96.92233,32.86209],[-96.92299,32.86252],[-96.92476,32.86281],[-96.92526,32.86327],[-96.92416,32.86533],[-96.92424,32.86574],[-96.92472,32.86583],[-96.92629,32.86535],[-96.92683,32.86581],[-96.92702,32.86666],[-96.92666,32.86726],[-96.92369,32.8689],[-96.92346,32.86966],[-96.92378,32.87054],[-96.92444,32.87095],[-96.92526,32.87084],[-96.92688,32.8694],[-96.92801,32.86933],[-96.93104,32.8706],[-96.93162,32.87159],[-96.93107,32.87373],[-96.92951,32.87607],[-96.92929,32.8778],[-96.92941,32.88021],[-96.92883,32.88124],[-96.92807,32.8818],[-96.92779,32.88247],[-96.92792,32.88306],[-96.92861,32.88353],[-96.93144,32.88314],[-96.93208,32.88462],[-96.93178,32.88548],[-96.92996,32.88726],[-96.92996,32.88787],[-96.931,32.89009],[-96.93081,32.89068],[-96.93008,32.891],[-96.92782,32.89114],[-96.92704,32.89201],[-96.92702,32.8931],[-96.9282,32.89482],[-96.92838,32.89569],[-96.90771,32.89569],[-96.90734,32.89299],[-96.89946,32.89295],[-96.89932,32.89574],[-96.89816,32.89586]]]}},{"type":"Feature","properties":{"PRECINCT":"dallas:4001","COUNTY":"Dallas"},"geometry":{"type":"Polygon","coordinates":[[[-96.88802,32.89531],[-96.87522,32.89525],[-96.8753,32.89477],[-96.87579,32.89435],[-96.87552,32.89417],[-96.87294,32.89413],[-96.87299,32.89131],[-96.87573,32.89131],[-96.87636,32.89048],[-96.87561,32.88987],[-96.87599,32.88936],[-96.87602,32.88435],[-96.87498,32.88429],[-96.87475,32.88264],[-96.875,32.88246],[-96.87498,32.88106],[-96.88357,32.88093],[-96.88031,32.87043],[-96.87929,32.8664],[-96.87956,32.86641],[-96.87916,32.86509],[-96.88001,32.86482],[-96.88107,32.86378],[-96.88063,32.86156],[-96.88972,32.86161],[-96.89054,32.86184],[-96.89055,32.86143],[-96.90054,32.86478],[-96.8997,32.8666],[-96.90059,32.86661],[-96.90019,32.86907],[-96.90015,32.87389],[-96.89826,32.87389],[-96.89812,32.87519],[-96.89811,32.90816],[-96.89221,32.90884],[-96.88802,32.89531]]]}},{"type":"Feature","properties":{"PRECINCT":"dallas:4002","COUNTY":"Dallas"},"geometry":{"type":"Polygon","coordinates":[[[-96.87033,32.89511],[-96.87043,32.88698],[-96.86993,32.8863],[-96.86937,32.88598],[-96.86724,32.88591],[-96.86606,32.88524],[-96.86574,32.88448],[-96.86571,32.88089],[-96.87498,32.88106],[-96.875,32.88246],[-96.87475,32.88264],[-96.87498,32.88429],[-96.87602,32.88435],[-96.87599,32.88936],[-96.87561,32.88987],[-96.87636,32.89048],[-96.87573,32.89131],[-96.87299,32.89131],[-96.87294,32.89413],[-96.87552,32.89417],[-96.87579,32.89435],[-96.8753,32.89477],[-96.87522,32.89525],[-96.87049,32.89525],[-96.87091,32.89692],[-96.87222,32.89941],[-96.87239,32.9007],[-96.87203,32.89936],[-96.87067,32.89674],[-96.87033,32.89511]]]}},{"type":"Feature","properties":{"PRECINCT":"dallas:4003","COUNTY":"Dallas"},"geometry":{"type":"Polygon","coordinates":[[[-96.88536,32.91016],[-96.88167,32.91063],[-96.8816,32.90934],[-96.88074,32.90808],[-96.88083,32.90386],[-96.88137,32.90383],[-96.88141,32.89527],[-96.88802,32.89531],[-96.89221,32.90884],[-96.88177,32.91116],[-96.88178,32.91095],[-96.88536,32.91016]]]}},{"type":"Feature","properties":{"PRECINCT":"dallas:4004","COUNTY":"Dallas"},"geometry":{"type":"Polygon","coordinates":[[[-96.87245,32.90479],[-96.8723,32.89969],[-96.87091,32.89692],[-96.87049,32.89525],[-96.88141,32.89527],[-96.88137,32.90383],[-96.88083,32.90386],[-96.88072,32.90793],[-96.88162,32.90944],[-96.87248,32.90978],[-96.87223,32.90802],[-96.87245,32.90479]]]}},{"type":"Feature","properties":{"PRECINCT":"dallas:4005","COUNTY":"Dallas"},"geometry":{"type":"Polygon","coordinates":[[[-96.8577,32.91617],[-96.8577,32.9157],[-96.85605,32.91572],[-96.85616,32.90965],[-96.864,32.90972],[-96.86397,32.91339],[-96.86473,32.91532],[-96.86128,32.91627],[-96.86057,32.91619],[-96.8588,32.91662],[-96.8577,32.91617]]]}},{"type":"Feature","properties":{"PRECINCT":"dallas:4006","COUNTY":"Dallas"},"geometry":{"type":"Polygon","coordinates":[[[-96.864,32.90767],[-96.86401,32.90276],[-96.86231,32.90006],[-96.86228,32.89524],[-96.87035,32.89526],[-96.87087,32.89726],[-96.87217,32.8997],[-96.87223,32.9007],[-96.87018,32.9016],[-96.86997,32.9019],[-96.87065,32.90237],[-96.8712,32.90367],[-96.87247,32.90393],[-96.87242,32.90683],[-96.87054,32.90673],[-96.87033,32.90733],[-96.86968,32.90763],[-96.86666,32.90749],[-96.86621,32.9077],[-96.864,32.90767]]]}},{"type":"Feature","properties":{"PRECINCT":"dallas:4007","COUNTY":"Dallas"},"geometry":{"type":"Polygon","coordinates":[[[-96.86192,32.88081],[-96.86571,32.88089],[-96.86572,32.88384],[-96.86374,32.88385],[-96.86291,32.88505],[-96.86209,32.88515],[-96.862,32.88465],[-96.86244,32.88319],[-96.86188,32.88231],[-96.86192,32.88081]]]}},{"type":"Feature","properties":{"PRECINCT":"dallas:4008","COUNTY":"Dallas"},"geometry":{"type":"Polygon","coordinates":[[[-96.87712,32.88082],[-96.8767,32.88003],[-96.87668,32.87733],[-96.87617,32.87587],[-96.86796,32.87572],[-96.86474,32.8751],[-96.86483,32.86647],[-96.87929,32.8664],[-96.88031,32.87043],[-96.88357,32.88093],[-96.87712,32.88082]]]}},{"type":"Feature","properties":{"PRECINCT":"dallas:4009","COUNTY":"Dallas"},"geometry":{"type":"Polygon","coordinates":[[[-96.85932,32.88076],[-96.85628,32.88061],[-96.85621,32.8664],[-96.86175,32.86639],[-96.86201,32.86524],[-96.86236,32.86494],[-96.86386,32.86626],[-96.86483,32.86647],[-96.86474,32.87604],[-96.86284,32.87602],[-96.86281,32.87791],[-96.8618,32.87804],[-96.85954,32.87997],[-96.85932,32.88076]]]}},{"type":"Feature","properties":{"PRECINCT":"dallas:4010","COUNTY":"Dallas"},"geometry":{"type":"Polygon","coordinates":[[[-96.84633,32.8803],[-96.8463,32.87882],[-96.84651,32.87857],[-96.8465,32.87768],[-96.84627,32.87729],[-96.84631,32.87531],[-96.84738,32.87378],[-96.84768,32.87225],[-96.84873,32.87127],[-96.84886,32.86976],[-96.85294,32.86977],[-96.85294,32.87063],[-96.85624,32.87065],[-96.85627,32.88043],[-96.84633,32.8803]]]}},{"type":"Feature","properties":{"PRECINCT":"dallas:4011","COUNTY":"Dallas"},"geometry":{"type":"Polygon","coordinates":[[[-96.85294,32.87063],[-96.85294,32.86977],[-96.84886,32.86976],[-96.8489,32.86535],[-96.85005,32.86536],[-96.85013,32.86436],[-96.85078,32.86388],[-96.85023,32.86245],[-96.85519,32.86097],[-96.85617,32.86293],[-96.85624,32.87065],[-96.85294,32.87063]]]}},{"type":"Feature","properties":{"PRECINCT":"dallas:4012","COUNTY":"Dallas"},"geometry":{"type":"Polygon","coordinates":[[[-96.84793,32.86306],[-96.85023,32.86245],[-96.85078,32.86388],[-96.85013,32.86436],[-96.85005,32.86536],[-96.8489,32.86535],[-96.84888,32.86623],[-96.84786,32.86622],[-96.84793,32.86306]]]}},{"type":"Feature","properties":{"PRECINCT":"dallas:4015","COUNTY":"Dallas"},"geometry":{"type":"Polygon","coordinates":[[[-96.83475,32.84485],[-96.83723,32.84711],[-96.8371,32.84724],[-96.84115,32.85074],[-96.8405,32.85106],[-96.83858,32.85116],[-96.82131,32.85117],[-96.82142,32.84493],[-96.83475,32.84485]]]}},{"type":"Feature","properties":{"PRECINCT":"dallas:4016","COUNTY":"Dallas"},"geometry":{"type":"Polygon","coordinates":[[[-96.82142,32.84493],[-96.82175,32.83788],[-96.82209,32.83668],[-96.83022,32.83669],[-96.83388,32.83658],[-96.83456,32.83639],[-96.83447,32.84249],[-96.83469,32.84249],[-96.83491,32.84482],[-96.82142,32.84493]]]}},{"type":"Feature","properties":{"PRECINCT":"dallas:4017","COUNTY":"Dallas"},"geometry":{"type":"Polygon","coordinates":[[[-96.82209,32.83668],[-96.82321,32.83384],[-96.82483,32.83228],[-96.82554,32.83081],[-96.82651,32.82988],[-96.82753,32.83093],[-96.8318,32.83663],[-96.82209,32.83668]]]}},{"type":"Feature","properties":{"PRECINCT":"dallas:4019","COUNTY":"Dallas"},"geometry":{"type":"Polygon","coordinates":[[[-96.82651,32.82988],[-96.84251,32.81598],[-96.84267,32.81611],[-96.84375,32.81529],[-96.8479,32.81345],[-96.84966,32.81113],[-96.85303,32.81184],[-96.8615,32.81216],[-96.86172,32.81198],[-96.8635,32.81242],[-96.86536,32.81335],[-96.86808,32.81551],[-96.87102,32.81744],[-96.86996,32.81844],[-96.86518,32.82167],[-96.86418,32.82211],[-96.86236,32.82228],[-96.85249,32.82217],[-96.85087,32.8227],[-96.83656,32.83444],[-96.83463,32.83635],[-96.83388,32.83658],[-96.8318,32.83663],[-96.82753,32.83093],[-96.82651,32.82988]]]}},{"type":"Feature","properties":{"PRECINCT":"dallas:4020","COUNTY":"Dallas"},"geometry":{"type":"Polygon","coordinates":[[[-96.82651,32.82988],[-96.82291,32.82676],[-96.82301,32.82703],[-96.82121,32.82854],[-96.8191,32.82668],[-96.82,32.82595],[-96.82076,32.82658],[-96.82635,32.8221],[-96.8274,32.8229],[-96.82587,32.82424],[-96.82709,32.82525],[-96.83157,32.82154],[-96.83369,32.82358],[-96.82651,32.82988]]]}},{"type":"Feature","properties":{"PRECINCT":"dallas:4021","COUNTY":"Dallas"},"geometry":{"type":"Polygon","coordinates":[[[-96.82175,32.82574],[-96.81677,32.82159],[-96.81809,32.81125],[-96.81754,32.81606],[-96.82085,32.81902],[-96.82225,32.81808],[-96.82309,32.81849],[-96.82429,32.81794],[-96.82478,32.81839],[-96.82553,32.81781],[-96.82719,32.81724],[-96.82761,32.81685],[-96.83108,32.81979],[-96.83027,32.82045],[-96.83157,32.82154],[-96.82709,32.82525],[-96.82587,32.82424],[-96.8274,32.8229],[-96.82635,32.8221],[-96.82175,32.82574]]]}},{"type":"Feature","properties":{"PRECINCT":"dallas:4022","COUNTY":"Dallas"},"geometry":{"type":"Polygon","coordinates":[[[-96.83012,32.81395],[-96.83484,32.80996],[-96.84251,32.81598],[-96.83369,32.82358],[-96.83027,32.82045],[-96.83108,32.81979],[-96.82761,32.81685],[-96.82776,32.8164],[-96.82888,32.81547],[-96.83012,32.81395]]]}},{"type":"Feature","properties":{"PRECINCT":"dallas:4025","COUNTY":"Dallas"},"geometry":{"type":"Polygon","coordinates":[[[-96.87392,32.79797],[-96.87378,32.78688],[-96.87611,32.78661],[-96.87684,32.78687],[-96.87726,32.78737],[-96.87746,32.78885],[-96.87806,32.7899],[-96.87903,32.79015],[-96.88024,32.78973],[-96.88023,32.79271],[-96.88254,32.79274],[-96.88392,32.79812],[-96.87392,32.79797]]]}},{"type":"Feature","properties":{"PRECINCT":"dallas:4026","COUNTY":"Dallas"},"geometry":{"type":"Polygon","coordinates":[[[-96.88659,32.79274],[-96.88658,32.79157],[-96.88548,32.79151],[-96.88368,32.79104],[-96.88224,32.78984],[-96.88258,32.78887],[-96.88256,32.77891],[-96.87383,32.77876],[-96.87384,32.76755],[-96.88715,32.76795],[-96.88944,32.7678],[-96.89613,32.76676],[-96.90233,32.76661],[-96.90262,32.76861],[-96.90561,32.77862],[-96.89493,32.77845],[-96.89185,32.77877],[-96.89189,32.78344],[-96.89388,32.78344],[-96.89327,32.7844],[-96.89456,32.78616],[-96.89529,32.78767],[-96.89403,32.78837],[-96.89227,32.79021],[-96.89108,32.79057],[-96.8911,32.79275],[-96.88659,32.79274]]]}},{"type":"Feature","properties":{"PRECINCT":"dallas:4027","COUNTY":"Dallas"},"geometry":{"type":"Polygon","coordinates":[[[-96.8939,32.78357],[-96.89189,32.78344],[-96.89185,32.77877],[-96.89493,32.77845],[-96.90687,32.77853],[-96.89656,32.78716],[-96.89529,32.78767],[-96.89456,32.78616],[-96.89327,32.7844],[-96.8939,32.78357]]]}},{"type":"Feature","properties":{"PRECINCT":"dallas:4028","COUNTY":"Dallas"},"geometry":{"type":"Polygon","coordinates":[[[-96.88023,32.79271],[-96.88024,32.78973],[-96.87903,32.79015],[-96.87794,32.78979],[-96.87746,32.78885],[-96.87726,32.78737],[-96.87665,32.78678],[-96.87533,32.78659],[-96.87378,32.78688],[-96.87383,32.77876],[-96.88256,32.77891],[-96.88258,32.78887],[-96.88224,32.78984],[-96.88368,32.79104],[-96.88548,32.79151],[-96.88658,32.79157],[-96.88659,32.79274],[-96.88023,32.79271]]]}},{"type":"Feature","properties":{"PRECINCT":"dallas:4065","COUNTY":"Dallas"},"geometry":{"type":"Polygon","coordinates":[[[-96.90233,32.76661],[-96.9021,32.75355],[-96.90256,32.74963],[-96.92616,32.74964],[-96.92613,32.75244],[-96.92563,32.75435],[-96.92597,32.75523],[-96.92592,32.75583],[-96.92522,32.75875],[-96.92402,32.76113],[-96.92462,32.76174],[-96.92472,32.76225],[-96.92506,32.76241],[-96.92591,32.76215],[-96.92669,32.76246],[-96.9274,32.76341],[-96.928,32.76451],[-96.92738,32.76563],[-96.91964,32.76636],[-96.90233,32.76661]]]}},{"type":"Feature","properties":{"PRECINCT":"dallas:4076","COUNTY":"Dallas"},"geometry":{"type":"Polygon","coordinates":[[[-96.88805,32.76792],[-96.86038,32.76716],[-96.85668,32.76644],[-96.85671,32.76408],[-96.85955,32.76406],[-96.85896,32.76356],[-96.86056,32.76356],[-96.86173,32.76312],[-96.86214,32.76282],[-96.86215,32.76235],[-96.86266,32.76236],[-96.86258,32.76047],[-96.86456,32.75974],[-96.86409,32.75949],[-96.86353,32.75867],[-96.86416,32.75835],[-96.86301,32.75722],[-96.86296,32.75602],[-96.86259,32.75551],[-96.85998,32.75542],[-96.85928,32.75452],[-96.8585,32.75414],[-96.85752,32.75536],[-96.85681,32.75568],[-96.85681,32.75536],[-96.85753,32.7547],[-96.8576,32.75422],[-96.85834,32.75413],[-96.85865,32.75297],[-96.85985,32.7523],[-96.86086,32.75229],[-96.86119,32.75155],[-96.86323,32.75037],[-96.86371,32.74968],[-96.86433,32.74953],[-96.90256,32.74963],[-96.9021,32.75355],[-96.90233,32.76661],[-96.89517,32.76685],[-96.88805,32.76792]]]}},{"type":"Feature","properties":{"PRECINCT":"dallas:4077","COUNTY":"Dallas"},"geometry":{"type":"Polygon","coordinates":[[[-96.84643,32.75474],[-96.84107,32.75128],[-96.84028,32.75238],[-96.83745,32.75238],[-96.83758,32.74949],[-96.85243,32.74957],[-96.85244,32.75163],[-96.85066,32.75185],[-96.84821,32.75179],[-96.84816,32.75476],[-96.84643,32.75474]]]}},{"type":"Feature","properties":{"PRECINCT":"dallas:4079","COUNTY":"Dallas"},"geometry":{"type":"Polygon","coordinates":[[[-96.83579,32.76382],[-96.83549,32.75863],[-96.83618,32.75863],[-96.8371,32.758],[-96.83743,32.75749],[-96.83745,32.75238],[-96.84028,32.75238],[-96.84107,32.75128],[-96.84643,32.75474],[-96.84816,32.75476],[-96.84821,32.75179],[-96.85066,32.75185],[-96.85244,32.75163],[-96.85243,32.74957],[-96.8567,32.74961],[-96.85681,32.75568],[-96.85752,32.75536],[-96.8585,32.75414],[-96.85928,32.75452],[-96.85998,32.75542],[-96.8625,32.75547],[-96.86292,32.75588],[-96.86301,32.75722],[-96.86416,32.75835],[-96.86095,32.75978],[-96.86215,32.76153],[-96.86214,32.76228],[-96.8605,32.76304],[-96.85753,32.76311],[-96.85788,32.76354],[-96.85896,32.76356],[-96.85955,32.76406],[-96.85198,32.7641],[-96.85034,32.76463],[-96.8482,32.76413],[-96.84512,32.76411],[-96.84238,32.7649],[-96.83835,32.76692],[-96.8357,32.76751],[-96.83557,32.76505],[-96.83579,32.76382]]]}},{"type":"Feature","properties":{"PRECINCT":"dallas:4080","COUNTY":"Dallas"},"geometry":{"type":"Polygon","coordinates":[[[-96.82285,32.7692],[-96.82292,32.75889],[-96.82595,32.75935],[-96.82906,32.75937],[-96.82983,32.75926],[-96.83082,32.75863],[-96.83549,32.75863],[-96.8358,32.76357],[-96.83557,32.76505],[-96.8357,32.76751],[-96.82609,32.76862],[-96.82285,32.7692]]]}},{"type":"Feature","properties":{"PRECINCT":"dallas:4081","COUNTY":"Dallas"},"geometry":{"type":"Polygon","coordinates":[[[-96.88392,32.79812],[-96.88254,32.79274],[-96.8911,32.79275],[-96.89108,32.79057],[-96.89227,32.79021],[-96.89436,32.78812],[-96.89656,32.78716],[-96.90678,32.77874],[-96.90687,32.77853],[-96.90561,32.77862],[-96.90262,32.76861],[-96.90233,32.76661],[-96.91964,32.76636],[-96.92738,32.76563],[-96.92698,32.76673],[-96.9275,32.76731],[-96.92646,32.76794],[-96.92608,32.76887],[-96.9267,32.77121],[-96.92605,32.77501],[-96.92635,32.7762],[-96.9261,32.77752],[-96.92642,32.77869],[-96.92608,32.78208],[-96.92176,32.78443],[-96.9189,32.78572],[-96.91801,32.7856],[-96.91538,32.78426],[-96.91424,32.78436],[-96.91314,32.78505],[-96.9125,32.78571],[-96.91117,32.78811],[-96.91065,32.78965],[-96.91046,32.79195],[-96.91007,32.79301],[-96.90806,32.79643],[-96.90716,32.79726],[-96.90412,32.79819],[-96.90087,32.79803],[-96.89852,32.79819],[-96.88392,32.79812]]]}},{"type":"Feature","properties":{"PRECINCT":"dallas:4082","COUNTY":"Dallas"},"geometry":{"type":"Polygon","coordinates":[[[-96.82569,32.77876],[-96.82343,32.77576],[-96.8236,32.77542],[-96.82309,32.77535],[-96.82283,32.77487],[-96.823,32.77402],[-96.82407,32.77442],[-96.82407,32.77268],[-96.82503,32.77267],[-96.82506,32.77441],[-96.82663,32.77408],[-96.82664,32.77317],[-96.82921,32.77314],[-96.82921,32.77354],[-96.83159,32.77302],[-96.83849,32.773],[-96.84175,32.77266],[-96.84796,32.77266],[-96.84793,32.77625],[-96.84918,32.77626],[-96.84917,32.77717],[-96.84998,32.77718],[-96.84996,32.77857],[-96.82856,32.77856],[-96.82569,32.77876]]]}},{"type":"Feature","properties":{"PRECINCT":"dallas:4083","COUNTY":"Dallas"},"geometry":{"type":"Polygon","coordinates":[[[-96.82318,32.77401],[-96.82286,32.77419],[-96.82285,32.76961],[-96.82334,32.76949],[-96.82307,32.76916],[-96.82609,32.76862],[-96.83704,32.76729],[-96.83835,32.76692],[-96.84238,32.7649],[-96.84512,32.76411],[-96.8482,32.76413],[-96.85034,32.76463],[-96.84794,32.76543],[-96.84796,32.77266],[-96.84175,32.77266],[-96.83849,32.773],[-96.83159,32.77302],[-96.82921,32.77354],[-96.82921,32.77314],[-96.82664,32.77317],[-96.82663,32.77408],[-96.82506,32.77441],[-96.82503,32.77267],[-96.82407,32.77268],[-96.82407,32.77442],[-96.82318,32.77401]]]}},{"type":"Feature","properties":{"PRECINCT":"dallas:4084","COUNTY":"Dallas"},"geometry":{"type":"Polygon","coordinates":[[[-96.84131,32.7885],[-96.83582,32.78589],[-96.83581,32.78467],[-96.83638,32.78467],[-96.83639,32.78544],[-96.84125,32.78552],[-96.84126,32.78325],[-96.84209,32.78326],[-96.84206,32.78231],[-96.84272,32.78231],[-96.84273,32.77853],[-96.8464,32.77853],[-96.84637,32.78409],[-96.84561,32.78407],[-96.84561,32.78583],[-96.84328,32.7859],[-96.84328,32.78681],[-96.84407,32.78684],[-96.84407,32.78883],[-96.84131,32.7885]]]}},{"type":"Feature","properties":{"PRECINCT":"dallas:4085","COUNTY":"Dallas"},"geometry":{"type":"Polygon","coordinates":[[[-96.8357,32.78664],[-96.82944,32.78374],[-96.82729,32.78233],[-96.82511,32.77964],[-96.82602,32.77916],[-96.82574,32.77882],[-96.82856,32.77856],[-96.84273,32.77853],[-96.84272,32.78231],[-96.84206,32.78231],[-96.84209,32.78326],[-96.84126,32.78325],[-96.84125,32.78552],[-96.83639,32.78544],[-96.83638,32.78467],[-96.83581,32.78467],[-96.8357,32.78664]]]}},{"type":"Feature","properties":{"PRECINCT":"dallas:4086","COUNTY":"Dallas"},"geometry":{"type":"Polygon","coordinates":[[[-96.87911,32.84792],[-96.87579,32.84035],[-96.87526,32.83813],[-96.87472,32.83785],[-96.8746,32.83569],[-96.87379,32.83598],[-96.8725,32.83693],[-96.86597,32.837],[-96.85977,32.84208],[-96.85046,32.83777],[-96.84786,32.83534],[-96.84803,32.83521],[-96.84483,32.83274],[-96.84729,32.82949],[-96.84704,32.82789],[-96.84617,32.82664],[-96.85087,32.8227],[-96.85183,32.82229],[-96.85555,32.82214],[-96.86306,32.82227],[-96.86457,32.82197],[-96.87028,32.81821],[-96.87211,32.81638],[-96.87329,32.81501],[-96.87361,32.81395],[-96.87392,32.79797],[-96.89852,32.79819],[-96.90001,32.79909],[-96.90154,32.80067],[-96.90572,32.8074],[-96.90616,32.80965],[-96.90613,32.81429],[-96.90591,32.81569],[-96.90464,32.81757],[-96.89696,32.8251],[-96.89531,32.8258],[-96.89221,32.82845],[-96.88974,32.8317],[-96.88939,32.83465],[-96.88992,32.8362],[-96.88962,32.83825],[-96.8898,32.83986],[-96.88967,32.84412],[-96.88987,32.8451],[-96.88899,32.84652],[-96.88879,32.84752],[-96.88907,32.848],[-96.88955,32.84817],[-96.8911,32.84725],[-96.89162,32.84716],[-96.8932,32.8478],[-96.88788,32.85169],[-96.88524,32.85409],[-96.88049,32.84963],[-96.87911,32.84792]]]}},{"type":"Feature","properties":{"PRECINCT":"dallas:4087","COUNTY":"Dallas"},"geometry":{"type":"Polygon","coordinates":[[[-96.87499,32.86536],[-96.86582,32.85731],[-96.86474,32.85581],[-96.86041,32.85912],[-96.85877,32.85996],[-96.855,32.86103],[-96.85411,32.86009],[-96.85639,32.85959],[-96.85568,32.859],[-96.85762,32.85818],[-96.85976,32.85548],[-96.85872,32.855],[-96.8598,32.85348],[-96.86023,32.85304],[-96.86111,32.85378],[-96.86424,32.852],[-96.86473,32.85136],[-96.86504,32.84987],[-96.86599,32.84857],[-96.8688,32.84626],[-96.86907,32.84576],[-96.86488,32.84441],[-96.85977,32.84208],[-96.86597,32.837],[-96.8725,32.83693],[-96.87379,32.83598],[-96.8746,32.83569],[-96.87472,32.83785],[-96.87526,32.83813],[-96.87579,32.84035],[-96.87911,32.84792],[-96.88049,32.84963],[-96.88524,32.85409],[-96.88225,32.85712],[-96.88078,32.8577],[-96.88092,32.858],[-96.87775,32.85827],[-96.87956,32.86641],[-96.87538,32.86643],[-96.87499,32.86536]]]}},{"type":"Feature","properties":{"PRECINCT":"dallas:4088","COUNTY":"Dallas"},"geometry":{"type":"Polygon","coordinates":[[[-96.85621,32.8664],[-96.85617,32.86293],[-96.85519,32.86097],[-96.85966,32.85957],[-96.86474,32.85581],[-96.86571,32.85719],[-96.86794,32.85918],[-96.86622,32.86059],[-96.86549,32.86165],[-96.86483,32.86647],[-96.86386,32.86626],[-96.86236,32.86494],[-96.86201,32.86524],[-96.86175,32.86639],[-96.85621,32.8664]]]}},{"type":"Feature","properties":{"PRECINCT":"dallas:4092","COUNTY":"Dallas"},"geometry":{"type":"Polygon","coordinates":[[[-96.85622,32.8837],[-96.85628,32.88061],[-96.86104,32.88079],[-96.86073,32.88091],[-96.86045,32.8815],[-96.86058,32.88222],[-96.86113,32.88276],[-96.86079,32.88319],[-96.86083,32.88377],[-96.85622,32.8837]]]}},{"type":"Feature","properties":{"PRECINCT":"dallas:4094","COUNTY":"Dallas"},"geometry":{"type":"Polygon","coordinates":[[[-96.86398,32.91348],[-96.864,32.90972],[-96.86822,32.90962],[-96.86712,32.90855],[-96.86401,32.90935],[-96.864,32.90767],[-96.86621,32.9077],[-96.86666,32.90749],[-96.86968,32.90763],[-96.87033,32.90733],[-96.87054,32.90673],[-96.87226,32.90683],[-96.87225,32.90906],[-96.87248,32.90978],[-96.88162,32.90944],[-96.88167,32.91063],[-96.88551,32.91011],[-96.87097,32.91366],[-96.86829,32.91462],[-96.86478,32.9155],[-96.86398,32.91348]]]}},{"type":"Feature","properties":{"PRECINCT":"dallas:4095","COUNTY":"Dallas"},"geometry":{"type":"Polygon","coordinates":[[[-96.87018,32.9016],[-96.87223,32.9007],[-96.8723,32.90394],[-96.8712,32.90367],[-96.87065,32.90237],[-96.86997,32.9019],[-96.87018,32.9016]]]}},{"type":"Feature","properties":{"PRECINCT":"dallas:4096","COUNTY":"Dallas"},"geometry":{"type":"Polygon","coordinates":[[[-96.864,32.90972],[-96.86401,32.90935],[-96.86712,32.90855],[-96.86822,32.90962],[-96.864,32.90972]]]}},{"type":"Feature","properties":{"PRECINCT":"dallas:4097","COUNTY":"Dallas"},"geometry":{"type":"Polygon","coordinates":[[[-96.85932,32.88076],[-96.85954,32.87997],[-96.8618,32.87804],[-96.86281,32.87791],[-96.86284,32.87602],[-96.86474,32.87604],[-96.86474,32.8751],[-96.86796,32.87572],[-96.87617,32.87587],[-96.87662,32.87698],[-96.8767,32.88003],[-96.87711,32.88091],[-96.87396,32.88106],[-96.85932,32.88076]]]}},{"type":"Feature","properties":{"PRECINCT":"dallas:4098","COUNTY":"Dallas"},"geometry":{"type":"Polygon","coordinates":[[[-96.84675,32.86338],[-96.84793,32.86306],[-96.84786,32.86622],[-96.8467,32.86622],[-96.84675,32.86338]]]}},{"type":"Feature","properties":{"PRECINCT":"dallas:4116","COUNTY":"Dallas"},"geometry":{"type":"Polygon","coordinates":[[[-96.82108,32.77685],[-96.81929,32.77397],[-96.81768,32.77021],[-96.82307,32.76916],[-96.82334,32.76949],[-96.82285,32.76961],[-96.82283,32.77487],[-96.82309,32.77535],[-96.8236,32.77542],[-96.82343,32.77576],[-96.82602,32.77916],[-96.82511,32.77964],[-96.8253,32.77998],[-96.82631,32.78134],[-96.82835,32.78313],[-96.8357,32.78664],[-96.83509,32.78965],[-96.82868,32.78669],[-96.82621,32.78516],[-96.82471,32.7835],[-96.82285,32.78078],[-96.82108,32.77685]]]}},{"type":"Feature","properties":{"PRECINCT":"dallas:4118","COUNTY":"Dallas"},"geometry":{"type":"Polygon","coordinates":[[[-96.84981,32.83729],[-96.84162,32.83023],[-96.84617,32.82664],[-96.84704,32.82789],[-96.84729,32.82949],[-96.84483,32.83274],[-96.84803,32.83521],[-96.84786,32.83534],[-96.84995,32.83713],[-96.84981,32.83729]]]}},{"type":"Feature","properties":{"PRECINCT":"dallas:4119","COUNTY":"Dallas"},"geometry":{"type":"Polygon","coordinates":[[[-96.85098,32.85904],[-96.8371,32.84724],[-96.83723,32.84711],[-96.83532,32.84544],[-96.83476,32.84436],[-96.83469,32.84249],[-96.83447,32.84249],[-96.83456,32.83639],[-96.83598,32.83495],[-96.84162,32.83023],[-96.85046,32.83777],[-96.86437,32.8442],[-96.86907,32.84576],[-96.8688,32.84626],[-96.86599,32.84857],[-96.86504,32.84987],[-96.86473,32.85136],[-96.86424,32.852],[-96.86111,32.85378],[-96.86023,32.85304],[-96.8598,32.85348],[-96.85872,32.855],[-96.85976,32.85548],[-96.85762,32.85818],[-96.85568,32.859],[-96.85639,32.85959],[-96.8557,32.85983],[-96.85411,32.86009],[-96.85342,32.85971],[-96.85098,32.85904]]]}},{"type":"Feature","properties":{"PRECINCT":"dallas:4120","COUNTY":"Dallas"},"geometry":{"type":"Polygon","coordinates":[[[-96.86622,32.86059],[-96.86794,32.85918],[-96.86858,32.85973],[-96.87499,32.86536],[-96.87538,32.86643],[-96.86483,32.86647],[-96.86549,32.86165],[-96.86622,32.86059]]]}},{"type":"Feature","properties":{"PRECINCT":"dallas:4125","COUNTY":"Dallas"},"geometry":{"type":"Polygon","coordinates":[[[-96.85414,32.86017],[-96.85448,32.86033],[-96.855,32.86103],[-96.8548,32.86109],[-96.85414,32.86017]]]}},{"type":"Feature","properties":{"PRECINCT":"dallas:4149","COUNTY":"Dallas"},"geometry":{"type":"Polygon","coordinates":[[[-96.85666,32.75539],[-96.8567,32.74961],[-96.86433,32.74953],[-96.86371,32.74968],[-96.86323,32.75037],[-96.86119,32.75155],[-96.86086,32.75229],[-96.85985,32.7523],[-96.85873,32.7529],[-96.85834,32.75413],[-96.8576,32.75422],[-96.85753,32.7547],[-96.85702,32.7553],[-96.85666,32.75539]]]}},{"type":"Feature","properties":{"PRECINCT":"dallas:4152","COUNTY":"Dallas"},"geometry":{"type":"Polygon","coordinates":[[[-96.85198,32.7641],[-96.85671,32.76408],[-96.85668,32.76644],[-96.85034,32.76463],[-96.85198,32.7641]]]}},{"type":"Feature","properties":{"PRECINCT":"dallas:4153","COUNTY":"Dallas"},"geometry":{"type":"Polygon","coordinates":[[[-96.86095,32.75978],[-96.86353,32.75867],[-96.86409,32.75949],[-96.86456,32.75974],[-96.86258,32.76047],[-96.86266,32.76236],[-96.86215,32.76235],[-96.86203,32.76292],[-96.86056,32.76356],[-96.85781,32.7635],[-96.85753,32.76311],[-96.8605,32.76304],[-96.86214,32.76228],[-96.86215,32.76153],[-96.86095,32.75978]]]}},{"type":"Feature","properties":{"PRECINCT":"dallas:41A1","COUNTY":"Dallas"},"geometry":{"type":"Polygon","coordinates":[[[-96.92369,32.8689],[-96.92498,32.86815],[-96.92502,32.87091],[-96.92469,32.87098],[-96.92391,32.87072],[-96.92346,32.86966],[-96.92369,32.8689]]]}},{"type":"Feature","properties":{"PRECINCT":"dallas:4603","COUNTY":"Dallas"},"geometry":{"type":"Polygon","coordinates":[[[-96.90412,32.80494],[-96.90154,32.80067],[-96.90001,32.79909],[-96.89852,32.79819],[-96.90087,32.79803],[-96.90412,32.79819],[-96.90703,32.79734],[-96.90806,32.79643],[-96.91007,32.79301],[-96.91046,32.79195],[-96.91065,32.78965],[-96.91117,32.78811],[-96.91284,32.78532],[-96.91403,32.78443],[-96.91538,32.78426],[-96.91801,32.7856],[-96.9189,32.78572],[-96.9216,32.7983],[-96.92182,32.80121],[-96.90904,32.8013],[-96.9065,32.80281],[-96.90412,32.80494]]]}},{"type":"Feature","properties":{"PRECINCT":"dallas:4617","COUNTY":"Dallas"},"geometry":{"type":"Polygon","coordinates":[[[-96.92204,32.81755],[-96.92566,32.81755],[-96.92561,32.82216],[-96.92612,32.82377],[-96.92038,32.82375],[-96.92146,32.82076],[-96.92204,32.81755]]]}},{"type":"Feature","properties":{"PRECINCT":"dallas:4646","COUNTY":"Dallas"},"geometry":{"type":"Polygon","coordinates":[[[-96.88878,32.84735],[-96.88907,32.84634],[-96.88987,32.8451],[-96.88967,32.84412],[-96.8898,32.83986],[-96.88962,32.83825],[-96.88992,32.8362],[-96.88939,32.83465],[-96.88968,32.83194],[-96.88997,32.83123],[-96.8923,32.82836],[-96.89531,32.8258],[-96.89691,32.82515],[-96.89911,32.82301],[-96.90464,32.81757],[-96.90591,32.81569],[-96.90613,32.81429],[-96.90611,32.80892],[-96.90572,32.8074],[-96.90412,32.80494],[-96.9065,32.80281],[-96.90904,32.8013],[-96.91698,32.80124],[-96.91686,32.81433],[-96.92162,32.81444],[-96.92163,32.81474],[-96.92224,32.81493],[-96.92225,32.81618],[-96.92175,32.81957],[-96.92104,32.82209],[-96.92038,32.82375],[-96.91992,32.82374],[-96.91523,32.83521],[-96.91491,32.83693],[-96.90978,32.83711],[-96.90772,32.83777],[-96.90532,32.83909],[-96.90505,32.83879],[-96.90389,32.83982],[-96.89983,32.84251],[-96.8932,32.8478],[-96.89162,32.84716],[-96.8911,32.84725],[-96.88955,32.84817],[-96.88907,32.848],[-96.88878,32.84735]]]}},{"type":"Feature","properties":{"PRECINCT":"dallas:4662","COUNTY":"Dallas"},"geometry":{"type":"Polygon","coordinates":[[[-96.92162,32.81444],[-96.91686,32.81433],[-96.91698,32.80124],[-96.92182,32.80121],[-96.92166,32.80973],[-96.92382,32.80965],[-96.92561,32.80901],[-96.92566,32.81755],[-96.92204,32.81755],[-96.92226,32.81506],[-96.92213,32.8148],[-96.92163,32.81474],[-96.92162,32.81444]]]}},{"type":"Feature","properties":{"PRECINCT":"dallas:4663","COUNTY":"Dallas"},"geometry":{"type":"Polygon","coordinates":[[[-96.90349,32.85383],[-96.90337,32.85283],[-96.90189,32.85218],[-96.90109,32.85235],[-96.90021,32.85356],[-96.89948,32.85367],[-96.89889,32.8535],[-96.89815,32.85291],[-96.89788,32.85206],[-96.89879,32.85107],[-96.89875,32.85072],[-96.89767,32.85035],[-96.89529,32.85093],[-96.89448,32.85077],[-96.89372,32.84996],[-96.89386,32.84866],[-96.8932,32.8478],[-96.89983,32.84251],[-96.90389,32.83982],[-96.90505,32.83879],[-96.90532,32.83909],[-96.90772,32.83777],[-96.90978,32.83711],[-96.91482,32.83693],[-96.91479,32.84133],[-96.91423,32.84318],[-96.9136,32.84427],[-96.90914,32.84948],[-96.90617,32.85399],[-96.9054,32.85387],[-96.90387,32.85419],[-96.90349,32.85383]]]}},{"type":"Feature","properties":{"PRECINCT":"dallas:4664","COUNTY":"Dallas"},"geometry":{"type":"Polygon","coordinates":[[[-96.92738,32.85982],[-96.92678,32.85915],[-96.92614,32.85961],[-96.92559,32.85958],[-96.92522,32.85942],[-96.92523,32.85882],[-96.92479,32.85854],[-96.91947,32.85742],[-96.91859,32.85756],[-96.91752,32.85849],[-96.91704,32.85853],[-96.91673,32.8581],[-96.9168,32.85641],[-96.91645,32.85609],[-96.91549,32.85595],[-96.9141,32.8564],[-96.91372,32.85794],[-96.91285,32.85814],[-96.9123,32.85764],[-96.91198,32.85622],[-96.91157,32.85556],[-96.91053,32.85529],[-96.90902,32.85597],[-96.90815,32.85606],[-96.90743,32.85562],[-96.9069,32.85444],[-96.90617,32.85399],[-96.90914,32.84948],[-96.91265,32.84554],[-96.91404,32.84356],[-96.91481,32.84117],[-96.91482,32.83693],[-96.93316,32.837],[-96.9386,32.83726],[-96.93619,32.84384],[-96.93518,32.8454],[-96.9362,32.84622],[-96.93572,32.84681],[-96.93506,32.84978],[-96.9335,32.85157],[-96.93404,32.85403],[-96.93365,32.85691],[-96.93193,32.85893],[-96.93121,32.85936],[-96.93076,32.85954],[-96.9284,32.85953],[-96.92738,32.85982]]]}},{"type":"Feature","properties":{"PRECINCT":"dallas:4675","COUNTY":"Dallas"},"geometry":{"type":"Polygon","coordinates":[[[-96.92182,32.80121],[-96.92569,32.80126],[-96.92561,32.80901],[-96.92382,32.80965],[-96.92166,32.80973],[-96.92182,32.80121]]]}}]}