{"type":"FeatureCollection","features":[{"type":"Feature","properties":{"PRECINCT":"el-paso:128","COUNTY":"El Paso"},"geometry":{"type":"Polygon","coordinates":[[[-106.23475,31.79009],[-106.23391,31.78845],[-106.22651,31.78967],[-106.21674,31.78963],[-106.21658,31.7765],[-106.23367,31.77657],[-106.23366,31.77618],[-106.25124,31.7761],[-106.25126,31.77704],[-106.25187,31.77638],[-106.25188,31.77676],[-106.2362,31.79136],[-106.23475,31.79009]]]}},{"type":"Feature","properties":{"PRECINCT":"el-paso:129","COUNTY":"El Paso"},"geometry":{"type":"Polygon","coordinates":[[[-106.25126,31.77704],[-106.25124,31.7761],[-106.23366,31.77618],[-106.23367,31.77657],[-106.21658,31.7765],[-106.21644,31.77477],[-106.21645,31.77618],[-106.19965,31.77617],[-106.19959,31.76933],[-106.25177,31.76932],[-106.25185,31.77494],[-106.25292,31.7758],[-106.25188,31.77676],[-106.25187,31.77638],[-106.25126,31.77704]]]}},{"type":"Feature","properties":{"PRECINCT":"el-paso:130","COUNTY":"El Paso"},"geometry":{"type":"Polygon","coordinates":[[[-106.24931,31.76933],[-106.24925,31.76758],[-106.25068,31.76758],[-106.25053,31.75671],[-106.24945,31.75673],[-106.24947,31.75504],[-106.2507,31.75486],[-106.26736,31.75497],[-106.26724,31.76232],[-106.25292,31.7758],[-106.25185,31.77494],[-106.25177,31.76932],[-106.24931,31.76933]]]}},{"type":"Feature","properties":{"PRECINCT":"el-paso:131","COUNTY":"El Paso"},"geometry":{"type":"Polygon","coordinates":[[[-106.26704,31.74053],[-106.25038,31.7406],[-106.25031,31.73534],[-106.24809,31.73535],[-106.24808,31.73354],[-106.24702,31.73354],[-106.24702,31.73174],[-106.24808,31.73174],[-106.24808,31.73264],[-106.24889,31.73264],[-106.24914,31.73264],[-106.24913,31.73174],[-106.25027,31.73173],[-106.25022,31.72758],[-106.25692,31.72754],[-106.25691,31.72625],[-106.26686,31.72618],[-106.26713,31.7364],[-106.26704,31.74053]]]}},{"type":"Feature","properties":{"PRECINCT":"el-paso:157","COUNTY":"El Paso"},"geometry":{"type":"Polygon","coordinates":[[[-106.31659,31.67844],[-106.30665,31.66277],[-106.30984,31.66057],[-106.31148,31.65717],[-106.31146,31.65605],[-106.30994,31.65595],[-106.30985,31.65498],[-106.3093,31.65494],[-106.3091,31.65455],[-106.30906,31.65399],[-106.30973,31.65241],[-106.30752,31.65113],[-106.30657,31.64941],[-106.30747,31.64886],[-106.30092,31.64125],[-106.2996,31.6419],[-106.29925,31.64113],[-106.30039,31.64067],[-106.29993,31.64024],[-106.29871,31.63997],[-106.29776,31.63751],[-106.29709,31.63756],[-106.29187,31.62893],[-106.29269,31.62845],[-106.29241,31.62811],[-106.29271,31.62684],[-106.2918,31.62652],[-106.29647,31.62445],[-106.29704,31.62541],[-106.3036,31.62247],[-106.30794,31.62952],[-106.32436,31.64974],[-106.32985,31.65849],[-106.33443,31.66355],[-106.33793,31.67121],[-106.33692,31.67123],[-106.33641,31.67156],[-106.33657,31.6726],[-106.33594,31.675],[-106.33362,31.67406],[-106.33157,31.67396],[-106.31879,31.67758],[-106.31659,31.67844]]]}},{"type":"Feature","properties":{"PRECINCT":"el-paso:158","COUNTY":"El Paso"},"geometry":{"type":"Polygon","coordinates":[[[-106.19868,31.69915],[-106.19849,31.68273],[-106.20038,31.68272],[-106.21167,31.69749],[-106.21189,31.69913],[-106.19868,31.69915]]]}},{"type":"Feature","properties":{"PRECINCT":"el-paso:159","COUNTY":"El Paso"},"geometry":{"type":"Polygon","coordinates":[[[-106.24975,31.68285],[-106.23269,31.68295],[-106.23283,31.68148],[-106.23259,31.68007],[-106.23264,31.67814],[-106.23202,31.67804],[-106.23154,31.67884],[-106.22951,31.6806],[-106.22899,31.68076],[-106.2277,31.68091],[-106.22584,31.6794],[-106.22826,31.67678],[-106.22978,31.67357],[-106.23019,31.67071],[-106.2298,31.66544],[-106.23041,31.66381],[-106.23201,31.66258],[-106.2344,31.66174],[-106.23711,31.66123],[-106.23975,31.65977],[-106.24543,31.66698],[-106.24956,31.67073],[-106.24975,31.68285]]]}},{"type":"Feature","properties":{"PRECINCT":"el-paso:160","COUNTY":"El Paso"},"geometry":{"type":"Polygon","coordinates":[[[-106.24306,31.65817],[-106.26745,31.65163],[-106.2769,31.66298],[-106.27982,31.6683],[-106.2848,31.67295],[-106.28994,31.67828],[-106.28174,31.68715],[-106.2786,31.68825],[-106.27318,31.68973],[-106.25813,31.66849],[-106.24743,31.66854],[-106.24492,31.66602],[-106.23996,31.65965],[-106.24306,31.65817]]]}},{"type":"Feature","properties":{"PRECINCT":"el-paso:161","COUNTY":"El Paso"},"geometry":{"type":"Polygon","coordinates":[[[-106.23676,31.65474],[-106.24123,31.65362],[-106.24198,31.65365],[-106.24241,31.65333],[-106.24615,31.65242],[-106.23657,31.63916],[-106.22393,31.63939],[-106.21833,31.63218],[-106.21024,31.63947],[-106.19798,31.63949],[-106.1981,31.60933],[-106.19597,31.60933],[-106.19571,31.60846],[-106.1952,31.60799],[-106.18066,31.6081],[-106.18066,31.60552],[-106.17689,31.60679],[-106.17101,31.60923],[-106.16964,31.60854],[-106.16665,31.6085],[-106.16451,31.60918],[-106.16339,31.60923],[-106.16274,31.59659],[-106.18939,31.59485],[-106.19355,31.60022],[-106.19531,31.59939],[-106.19636,31.59923],[-106.19844,31.59733],[-106.19876,31.59771],[-106.20043,31.59632],[-106.20237,31.59427],[-106.20699,31.59885],[-106.20246,31.59925],[-106.20382,31.60132],[-106.19908,31.604],[-106.20403,31.61067],[-106.21283,31.60565],[-106.2152,31.60908],[-106.21487,31.61409],[-106.21746,31.61233],[-106.22252,31.6196],[-106.22483,31.61864],[-106.23152,31.61754],[-106.23245,31.61688],[-106.23666,31.61579],[-106.24085,31.62038],[-106.24332,31.62203],[-106.24394,31.62271],[-106.24616,31.62577],[-106.2468,31.6279],[-106.25105,31.63371],[-106.2557,31.64062],[-106.26056,31.64478],[-106.26323,31.64658],[-106.26745,31.65163],[-106.24306,31.65817],[-106.24053,31.65933],[-106.23902,31.65786],[-106.23676,31.65474]]]}},{"type":"Feature","properties":{"PRECINCT":"el-paso:162","COUNTY":"El Paso"},"geometry":{"type":"Polygon","coordinates":[[[-106.28994,31.67828],[-106.2848,31.67295],[-106.27982,31.6683],[-106.2769,31.66298],[-106.26745,31.65163],[-106.26923,31.65129],[-106.27097,31.65152],[-106.27948,31.64873],[-106.28363,31.64976],[-106.2866,31.64992],[-106.30119,31.66685],[-106.29797,31.66937],[-106.29706,31.67037],[-106.29158,31.67656],[-106.29209,31.67693],[-106.29158,31.6775],[-106.2907,31.67754],[-106.28994,31.67828]]]}},{"type":"Feature","properties":{"PRECINCT":"el-paso:163","COUNTY":"El Paso"},"geometry":{"type":"Polygon","coordinates":[[[-106.26923,31.65129],[-106.26745,31.65163],[-106.26323,31.64658],[-106.26056,31.64478],[-106.2557,31.64062],[-106.25105,31.63371],[-106.2468,31.6279],[-106.24616,31.62577],[-106.24394,31.62271],[-106.24332,31.62203],[-106.24085,31.62038],[-106.23666,31.61579],[-106.24695,31.61314],[-106.25902,31.62678],[-106.26174,31.62512],[-106.26426,31.62402],[-106.2866,31.64992],[-106.28363,31.64976],[-106.27948,31.64873],[-106.27097,31.65152],[-106.26923,31.65129]]]}},{"type":"Feature","properties":{"PRECINCT":"el-paso:164","COUNTY":"El Paso"},"geometry":{"type":"Polygon","coordinates":[[[-106.29951,31.66497],[-106.27089,31.6317],[-106.28867,31.62372],[-106.29709,31.63756],[-106.29776,31.63751],[-106.29871,31.63997],[-106.29993,31.64024],[-106.30039,31.64067],[-106.29925,31.64113],[-106.2996,31.6419],[-106.30092,31.64125],[-106.30747,31.64886],[-106.30657,31.64941],[-106.30752,31.65113],[-106.30973,31.65241],[-106.30906,31.65399],[-106.3093,31.65494],[-106.30985,31.65498],[-106.30994,31.65595],[-106.31146,31.65605],[-106.31148,31.65717],[-106.30984,31.66057],[-106.30663,31.66266],[-106.3059,31.66338],[-106.30578,31.66233],[-106.30436,31.6618],[-106.30311,31.66198],[-106.30327,31.66261],[-106.30219,31.66266],[-106.30155,31.66374],[-106.29951,31.66497]]]}},{"type":"Feature","properties":{"PRECINCT":"el-paso:165","COUNTY":"El Paso"},"geometry":{"type":"Polygon","coordinates":[[[-106.27089,31.6317],[-106.26426,31.62402],[-106.26174,31.62512],[-106.25902,31.62678],[-106.24695,31.61314],[-106.26184,31.60944],[-106.26222,31.60869],[-106.26274,31.60867],[-106.26357,31.609],[-106.26744,31.60804],[-106.2672,31.60679],[-106.26843,31.60651],[-106.26877,31.60771],[-106.29567,31.60104],[-106.29667,31.60351],[-106.29776,31.60431],[-106.30089,31.60962],[-106.30062,31.61326],[-106.30283,31.61868],[-106.30287,31.62079],[-106.3036,31.62247],[-106.29704,31.62541],[-106.29647,31.62445],[-106.2918,31.62652],[-106.29271,31.62684],[-106.29241,31.62811],[-106.29269,31.62845],[-106.29187,31.62893],[-106.29203,31.62926],[-106.28867,31.62372],[-106.27089,31.6317]]]}},{"type":"Feature","properties":{"PRECINCT":"el-paso:167","COUNTY":"El Paso"},"geometry":{"type":"Polygon","coordinates":[[[-106.03181,31.83708],[-106.02578,31.83466],[-106.02474,31.83441],[-106.01966,31.83451],[-106.0179,31.83425],[-106.01367,31.8323],[-106.01012,31.83023],[-106.00838,31.82975],[-105.99902,31.82914],[-105.99746,31.82912],[-105.99618,31.82936],[-105.99594,31.78374],[-106.05057,31.78348],[-106.12482,31.78351],[-106.14866,31.78377],[-106.19974,31.7838],[-106.19947,31.79769],[-106.1995,31.79813],[-106.19983,31.79814],[-106.19988,31.80492],[-106.19964,31.80522],[-106.19985,31.80584],[-106.19967,31.80669],[-106.20014,31.81223],[-106.2001,31.81559],[-106.14524,31.82274],[-106.10695,31.82937],[-106.05868,31.83393],[-106.05648,31.83461],[-106.04954,31.83835],[-106.04741,31.83901],[-106.04163,31.83922],[-106.03181,31.83708]]]}},{"type":"Feature","properties":{"PRECINCT":"el-paso:168","COUNTY":"El Paso"},"geometry":{"type":"Polygon","coordinates":[[[-106.0486,31.7835],[-105.99594,31.78374],[-105.99577,31.75011],[-105.99541,31.74817],[-105.99476,31.67969],[-105.99999,31.6797],[-106.00003,31.68283],[-106.16438,31.68273],[-106.16452,31.6974],[-106.18149,31.69732],[-106.18175,31.71181],[-106.19881,31.71179],[-106.19912,31.73793],[-106.19938,31.7397],[-106.19911,31.76932],[-106.19959,31.76933],[-106.19974,31.7838],[-106.14866,31.78377],[-106.12482,31.78351],[-106.0486,31.7835]]]}},{"type":"Feature","properties":{"PRECINCT":"el-paso:169","COUNTY":"El Paso"},"geometry":{"type":"Polygon","coordinates":[[[-106.14575,31.68274],[-106.00003,31.68283],[-105.99999,31.6797],[-105.99476,31.67969],[-105.99389,31.60669],[-106.09507,31.60122],[-106.16274,31.59659],[-106.16339,31.60923],[-106.16451,31.60918],[-106.16665,31.6085],[-106.16964,31.60854],[-106.17101,31.60923],[-106.17689,31.60679],[-106.18066,31.60552],[-106.18066,31.6081],[-106.1952,31.60799],[-106.19571,31.60846],[-106.19597,31.60933],[-106.1981,31.60933],[-106.19798,31.63949],[-106.18069,31.63942],[-106.18084,31.64981],[-106.18064,31.6517],[-106.17777,31.65289],[-106.18358,31.66054],[-106.18103,31.66195],[-106.1814,31.66264],[-106.18124,31.66313],[-106.17747,31.66579],[-106.17308,31.66588],[-106.17318,31.67623],[-106.17478,31.67624],[-106.17531,31.67646],[-106.17421,31.68083],[-106.16533,31.68051],[-106.16533,31.67922],[-106.1643,31.67922],[-106.16429,31.6776],[-106.145,31.67774],[-106.14496,31.67987],[-106.1457,31.67987],[-106.14575,31.68274]]]}},{"type":"Feature","properties":{"PRECINCT":"el-paso:170","COUNTY":"El Paso"},"geometry":{"type":"Polygon","coordinates":[[[-106.22252,31.6196],[-106.21746,31.61233],[-106.21487,31.61409],[-106.2152,31.60908],[-106.21283,31.60565],[-106.20403,31.61067],[-106.19908,31.604],[-106.20382,31.60132],[-106.20246,31.59925],[-106.20699,31.59885],[-106.20237,31.59427],[-106.20043,31.59632],[-106.19876,31.59771],[-106.19844,31.59733],[-106.19636,31.59923],[-106.19531,31.59939],[-106.19355,31.60022],[-106.18939,31.59485],[-106.09507,31.60122],[-105.99389,31.60669],[-105.99344,31.56631],[-106.06159,31.56583],[-106.0784,31.56611],[-106.08055,31.56598],[-106.16777,31.56656],[-106.17903,31.56678],[-106.16967,31.5546],[-106.18565,31.54348],[-106.18642,31.54435],[-106.19251,31.54042],[-106.20469,31.55459],[-106.21067,31.55121],[-106.2121,31.55182],[-106.21339,31.5489],[-106.24035,31.57742],[-106.24105,31.57845],[-106.24662,31.58444],[-106.25881,31.60815],[-106.25937,31.61005],[-106.23348,31.6166],[-106.23226,31.61695],[-106.23152,31.61754],[-106.22483,31.61864],[-106.22252,31.6196]]]}},{"type":"Feature","properties":{"PRECINCT":"el-paso:171","COUNTY":"El Paso"},"geometry":{"type":"Polygon","coordinates":[[[-106.27461,31.58865],[-106.26769,31.58669],[-106.26298,31.58431],[-106.25686,31.58394],[-106.25253,31.58425],[-106.2525,31.57525],[-106.25089,31.5747],[-106.249,31.57445],[-106.24552,31.57471],[-106.24348,31.57238],[-106.24479,31.57149],[-106.24159,31.56821],[-106.2386,31.57033],[-106.23508,31.56671],[-106.23514,31.54525],[-106.24122,31.54753],[-106.24328,31.54863],[-106.24773,31.55263],[-106.25616,31.5551],[-106.25895,31.55682],[-106.2657,31.55957],[-106.27458,31.56527],[-106.27745,31.56881],[-106.27826,31.57976],[-106.27705,31.58279],[-106.27802,31.58771],[-106.27746,31.58774],[-106.27714,31.58802],[-106.27612,31.58771],[-106.2757,31.58813],[-106.27585,31.58825],[-106.27461,31.58865]]]}},{"type":"Feature","properties":{"PRECINCT":"el-paso:172","COUNTY":"El Paso"},"geometry":{"type":"Polygon","coordinates":[[[-106.16746,31.56655],[-106.12162,31.50701],[-106.11981,31.50531],[-106.11786,31.50394],[-106.10369,31.49616],[-106.12128,31.47964],[-106.1227,31.48099],[-106.12754,31.47636],[-106.13137,31.47943],[-106.14146,31.46998],[-106.14734,31.46613],[-106.15216,31.47159],[-106.15511,31.47559],[-106.17034,31.46573],[-106.16912,31.46433],[-106.1785,31.45808],[-106.17973,31.45692],[-106.19434,31.46066],[-106.19464,31.46106],[-106.20012,31.46241],[-106.20439,31.4646],[-106.20763,31.4671],[-106.21743,31.47792],[-106.21877,31.4797],[-106.21962,31.48156],[-106.22356,31.49807],[-106.22446,31.50044],[-106.2257,31.50225],[-106.23601,31.51212],[-106.23722,31.51386],[-106.23839,31.51727],[-106.21748,31.53083],[-106.21542,31.52833],[-106.21352,31.52716],[-106.21092,31.52672],[-106.2094,31.52702],[-106.2092,31.52875],[-106.20843,31.52936],[-106.20779,31.52889],[-106.19251,31.54042],[-106.18642,31.54435],[-106.18565,31.54348],[-106.16967,31.5546],[-106.17903,31.56678],[-106.16746,31.56655]]]}},{"type":"Feature","properties":{"PRECINCT":"el-paso:173","COUNTY":"El Paso"},"geometry":{"type":"Polygon","coordinates":[[[-106.16746,31.56655],[-106.06159,31.56583],[-105.99344,31.56631],[-105.99269,31.50011],[-105.99326,31.47839],[-105.95926,31.47842],[-105.95855,31.42346],[-105.95433,31.42347],[-105.99724,31.38716],[-106.0023,31.39115],[-106.00492,31.39246],[-106.00692,31.39282],[-106.03249,31.39447],[-106.07531,31.39761],[-106.0791,31.39837],[-106.08167,31.39922],[-106.08498,31.40145],[-106.0994,31.41476],[-106.10309,31.41848],[-106.10688,31.42139],[-106.11011,31.42302],[-106.11217,31.42357],[-106.12454,31.42373],[-106.12967,31.42435],[-106.13229,31.42508],[-106.14151,31.42948],[-106.15461,31.43589],[-106.15693,31.43736],[-106.15942,31.43931],[-106.16728,31.44827],[-106.17028,31.45129],[-106.17239,31.45308],[-106.17562,31.45521],[-106.17973,31.45692],[-106.1785,31.45808],[-106.16912,31.46433],[-106.17034,31.46573],[-106.15511,31.47559],[-106.15216,31.47159],[-106.14734,31.46613],[-106.14146,31.46998],[-106.13137,31.47943],[-106.12754,31.47636],[-106.1227,31.48099],[-106.12128,31.47964],[-106.10369,31.49616],[-106.11786,31.50394],[-106.11981,31.50531],[-106.12162,31.50701],[-106.12858,31.51588],[-106.12924,31.51718],[-106.16746,31.56655]]]}},{"type":"Feature","properties":{"PRECINCT":"el-paso:174","COUNTY":"El Paso"},"geometry":{"type":"Polygon","coordinates":[[[-106.01472,31.93507],[-106.01474,31.93189],[-106.01308,31.93259],[-106.01163,31.93294],[-106.01069,31.93308],[-106.00946,31.93271],[-106.00913,31.93275],[-106.0087,31.93328],[-106.00599,31.93365],[-106.00454,31.93323],[-106.00236,31.93335],[-106.00052,31.93317],[-105.99711,31.93341],[-105.99618,31.82936],[-105.99746,31.82912],[-105.99902,31.82914],[-106.00838,31.82975],[-106.01012,31.83023],[-106.01367,31.8323],[-106.0179,31.83425],[-106.01966,31.83451],[-106.02474,31.83441],[-106.03105,31.83687],[-106.04187,31.83924],[-106.04681,31.83906],[-106.04826,31.83883],[-106.04954,31.83835],[-106.05725,31.83431],[-106.05868,31.83393],[-106.06465,31.83348],[-106.06489,31.85606],[-106.06455,31.85797],[-106.06495,31.85806],[-106.06498,31.86289],[-106.06308,31.86288],[-106.06304,31.86156],[-106.06259,31.86099],[-106.05061,31.86942],[-106.04888,31.8716],[-106.04809,31.87423],[-106.04814,31.8846],[-106.05474,31.88461],[-106.05482,31.92773],[-106.05316,31.92789],[-106.05318,31.93545],[-106.02526,31.93553],[-106.01785,31.93506],[-106.01472,31.93507]]]}},{"type":"Feature","properties":{"PRECINCT":"el-paso:180","COUNTY":"El Paso"},"geometry":{"type":"Polygon","coordinates":[[[-106.19824,31.66852],[-106.19798,31.63949],[-106.21024,31.63947],[-106.21833,31.63218],[-106.23975,31.65977],[-106.23711,31.66123],[-106.2344,31.66174],[-106.23201,31.66258],[-106.23041,31.66381],[-106.2298,31.66544],[-106.23016,31.66824],[-106.23014,31.67168],[-106.22921,31.67512],[-106.22808,31.67704],[-106.22669,31.67865],[-106.22479,31.68019],[-106.22274,31.68132],[-106.21958,31.68237],[-106.21548,31.68274],[-106.21533,31.66855],[-106.19824,31.66852]]]}},{"type":"Feature","properties":{"PRECINCT":"el-paso:181","COUNTY":"El Paso"},"geometry":{"type":"Polygon","coordinates":[[[-106.21692,31.7981],[-106.1995,31.79813],[-106.1997,31.78046],[-106.20027,31.78046],[-106.20022,31.77818],[-106.19967,31.77818],[-106.19965,31.77617],[-106.21645,31.77618],[-106.21644,31.77477],[-106.21692,31.7981]]]}},{"type":"Feature","properties":{"PRECINCT":"el-paso:183","COUNTY":"El Paso"},"geometry":{"type":"Polygon","coordinates":[[[-106.30325,31.66279],[-106.30248,31.66277],[-106.30215,31.66272],[-106.30337,31.66261],[-106.30325,31.66279]]]}},{"type":"Feature","properties":{"PRECINCT":"el-paso:189","COUNTY":"El Paso"},"geometry":{"type":"Polygon","coordinates":[[[-106.19978,31.79972],[-106.19998,31.7982],[-106.21678,31.79809],[-106.21704,31.80919],[-106.21211,31.81378],[-106.2001,31.81559],[-106.20014,31.81223],[-106.19967,31.80669],[-106.19985,31.80584],[-106.19964,31.80522],[-106.19988,31.80492],[-106.19978,31.79972]]]}},{"type":"Feature","properties":{"PRECINCT":"el-paso:190","COUNTY":"El Paso"},"geometry":{"type":"Polygon","coordinates":[[[-106.28412,31.70135],[-106.27923,31.69703],[-106.27896,31.69726],[-106.271,31.69016],[-106.27694,31.68874],[-106.28174,31.68715],[-106.28994,31.67828],[-106.29464,31.68346],[-106.29806,31.6865],[-106.29624,31.688],[-106.28412,31.70135]]]}},{"type":"Feature","properties":{"PRECINCT":"el-paso:191","COUNTY":"El Paso"},"geometry":{"type":"Polygon","coordinates":[[[-106.26708,31.6989],[-106.26729,31.69736],[-106.27616,31.69738],[-106.27896,31.69726],[-106.27923,31.69703],[-106.28412,31.70135],[-106.26983,31.71693],[-106.26839,31.71901],[-106.26738,31.72136],[-106.26708,31.6989]]]}},{"type":"Feature","properties":{"PRECINCT":"el-paso:198","COUNTY":"El Paso"},"geometry":{"type":"Polygon","coordinates":[[[-106.21704,31.80919],[-106.21674,31.78963],[-106.22651,31.78967],[-106.23391,31.78845],[-106.23475,31.79009],[-106.2362,31.79136],[-106.21704,31.80919]]]}},{"type":"Feature","properties":{"PRECINCT":"el-paso:199","COUNTY":"El Paso"},"geometry":{"type":"Polygon","coordinates":[[[-106.21182,31.69781],[-106.20038,31.68272],[-106.19849,31.68273],[-106.19824,31.66852],[-106.21533,31.66855],[-106.21561,31.69399],[-106.21791,31.694],[-106.21793,31.69567],[-106.22004,31.69566],[-106.22004,31.69727],[-106.217,31.69744],[-106.21771,31.69744],[-106.21779,31.69912],[-106.21189,31.69913],[-106.21182,31.69781]]]}},{"type":"Feature","properties":{"PRECINCT":"el-paso:200","COUNTY":"El Paso"},"geometry":{"type":"Polygon","coordinates":[[[-106.23371,31.76936],[-106.2336,31.76233],[-106.2175,31.76231],[-106.21661,31.76233],[-106.21652,31.76937],[-106.19911,31.76932],[-106.19938,31.7397],[-106.19912,31.73793],[-106.19905,31.72615],[-106.24069,31.72605],[-106.25691,31.72625],[-106.25692,31.72754],[-106.25022,31.72758],[-106.25027,31.73173],[-106.24913,31.73174],[-106.24914,31.73264],[-106.24889,31.73264],[-106.24808,31.73264],[-106.24808,31.73174],[-106.24702,31.73174],[-106.24702,31.73354],[-106.24808,31.73354],[-106.24809,31.73535],[-106.25031,31.73534],[-106.25038,31.7406],[-106.26704,31.74053],[-106.26736,31.75497],[-106.2507,31.75486],[-106.24947,31.75504],[-106.24945,31.75673],[-106.25053,31.75671],[-106.25068,31.76758],[-106.24925,31.76758],[-106.24931,31.76933],[-106.23371,31.76936]]]}},{"type":"Feature","properties":{"PRECINCT":"el-paso:201","COUNTY":"El Paso"},"geometry":{"type":"Polygon","coordinates":[[[-106.26686,31.72618],[-106.19905,31.72615],[-106.19868,31.69915],[-106.21575,31.69913],[-106.21585,31.71189],[-106.23286,31.7119],[-106.23295,31.71893],[-106.25013,31.71888],[-106.2501,31.71176],[-106.26722,31.71183],[-106.26738,31.72136],[-106.26688,31.72392],[-106.26686,31.72618]]]}},{"type":"Feature","properties":{"PRECINCT":"el-paso:202","COUNTY":"El Paso"},"geometry":{"type":"Polygon","coordinates":[[[-106.21712,31.69746],[-106.21771,31.69728],[-106.22004,31.69727],[-106.22004,31.69566],[-106.21793,31.69567],[-106.21791,31.694],[-106.21561,31.69399],[-106.21548,31.68274],[-106.21818,31.68261],[-106.22073,31.68208],[-106.22331,31.68105],[-106.22584,31.6794],[-106.2277,31.68091],[-106.22899,31.68076],[-106.22951,31.6806],[-106.23154,31.67884],[-106.23202,31.67804],[-106.23264,31.67814],[-106.23259,31.68007],[-106.23283,31.68148],[-106.23269,31.68295],[-106.23293,31.68293],[-106.23298,31.69912],[-106.21779,31.69912],[-106.21771,31.69744],[-106.21712,31.69746]]]}},{"type":"Feature","properties":{"PRECINCT":"el-paso:203","COUNTY":"El Paso"},"geometry":{"type":"Polygon","coordinates":[[[-106.23295,31.71893],[-106.23286,31.7119],[-106.21585,31.71189],[-106.21575,31.69913],[-106.24799,31.69913],[-106.25039,31.69895],[-106.25215,31.69842],[-106.25405,31.69729],[-106.26079,31.69129],[-106.2676,31.69608],[-106.26883,31.69735],[-106.26729,31.69736],[-106.26708,31.6989],[-106.26722,31.71183],[-106.2501,31.71176],[-106.25013,31.71888],[-106.23295,31.71893]]]}},{"type":"Feature","properties":{"PRECINCT":"el-paso:204","COUNTY":"El Paso"},"geometry":{"type":"Polygon","coordinates":[[[-106.23298,31.69912],[-106.23293,31.68293],[-106.24975,31.68285],[-106.24956,31.67073],[-106.27139,31.69008],[-106.271,31.69016],[-106.27896,31.69726],[-106.26885,31.69737],[-106.2676,31.69608],[-106.26079,31.69129],[-106.2534,31.69776],[-106.25147,31.69868],[-106.2497,31.69907],[-106.23298,31.69912]]]}},{"type":"Feature","properties":{"PRECINCT":"el-paso:205","COUNTY":"El Paso"},"geometry":{"type":"Polygon","coordinates":[[[-106.17414,31.6827],[-106.17434,31.6802],[-106.17981,31.68025],[-106.17965,31.66854],[-106.18935,31.66851],[-106.18897,31.66763],[-106.18364,31.66063],[-106.18542,31.65981],[-106.18923,31.65988],[-106.18924,31.66039],[-106.19021,31.66039],[-106.19023,31.65749],[-106.18542,31.65744],[-106.18543,31.65402],[-106.19818,31.65404],[-106.19822,31.67236],[-106.19849,31.68273],[-106.17414,31.6827]]]}},{"type":"Feature","properties":{"PRECINCT":"el-paso:206","COUNTY":"El Paso"},"geometry":{"type":"Polygon","coordinates":[[[-106.17318,31.67623],[-106.17308,31.66588],[-106.17747,31.66579],[-106.18124,31.66313],[-106.1814,31.66264],[-106.18103,31.66195],[-106.18358,31.66054],[-106.18897,31.66763],[-106.18935,31.66851],[-106.17965,31.66854],[-106.17981,31.68025],[-106.17434,31.6802],[-106.17531,31.67646],[-106.17478,31.67624],[-106.17318,31.67623]]]}},{"type":"Feature","properties":{"PRECINCT":"el-paso:207","COUNTY":"El Paso"},"geometry":{"type":"Polygon","coordinates":[[[-106.25906,31.60894],[-106.25615,31.60307],[-106.2579,31.60294],[-106.25699,31.59946],[-106.25876,31.59941],[-106.25874,31.59042],[-106.25668,31.59042],[-106.25668,31.58704],[-106.25587,31.58705],[-106.25585,31.58401],[-106.25977,31.584],[-106.26316,31.58435],[-106.26769,31.58669],[-106.27357,31.58854],[-106.27494,31.58859],[-106.27585,31.58825],[-106.2757,31.58813],[-106.27612,31.58771],[-106.27714,31.58802],[-106.27746,31.58774],[-106.27802,31.58771],[-106.27945,31.59168],[-106.28101,31.59006],[-106.28702,31.58671],[-106.28845,31.5864],[-106.29293,31.59431],[-106.29567,31.60104],[-106.26877,31.60771],[-106.26843,31.60651],[-106.2672,31.60679],[-106.26744,31.60804],[-106.26357,31.609],[-106.26274,31.60867],[-106.26222,31.60869],[-106.26184,31.60944],[-106.25937,31.61005],[-106.25906,31.60894]]]}},{"type":"Feature","properties":{"PRECINCT":"el-paso:208","COUNTY":"El Paso"},"geometry":{"type":"Polygon","coordinates":[[[-106.25615,31.60307],[-106.25181,31.59423],[-106.24662,31.58444],[-106.24105,31.57845],[-106.24035,31.57742],[-106.21339,31.5489],[-106.2121,31.55182],[-106.21067,31.55121],[-106.20469,31.55459],[-106.19251,31.54042],[-106.20779,31.52889],[-106.20843,31.52936],[-106.2092,31.52875],[-106.2094,31.52702],[-106.21092,31.52672],[-106.21352,31.52716],[-106.21542,31.52833],[-106.21748,31.53083],[-106.23839,31.51727],[-106.24524,31.53912],[-106.24621,31.54115],[-106.24772,31.54297],[-106.25026,31.54495],[-106.25582,31.54867],[-106.27959,31.56114],[-106.28079,31.5621],[-106.2813,31.56317],[-106.28845,31.5864],[-106.28702,31.58671],[-106.28101,31.59006],[-106.27945,31.59168],[-106.27813,31.58831],[-106.27708,31.58312],[-106.27708,31.58256],[-106.27826,31.57976],[-106.27745,31.56881],[-106.27458,31.56527],[-106.2657,31.55957],[-106.25895,31.55682],[-106.25616,31.5551],[-106.24773,31.55263],[-106.24328,31.54863],[-106.24122,31.54753],[-106.23514,31.54525],[-106.23508,31.56671],[-106.2386,31.57033],[-106.24159,31.56821],[-106.24479,31.57149],[-106.24348,31.57238],[-106.24552,31.57471],[-106.249,31.57445],[-106.25089,31.5747],[-106.2525,31.57525],[-106.25253,31.58425],[-106.25585,31.58401],[-106.25587,31.58705],[-106.25668,31.58704],[-106.25668,31.59042],[-106.25874,31.59042],[-106.25876,31.59941],[-106.25699,31.59946],[-106.2579,31.60294],[-106.25615,31.60307]]]}},{"type":"Feature","properties":{"PRECINCT":"el-paso:212","COUNTY":"El Paso"},"geometry":{"type":"Polygon","coordinates":[[[-106.21664,31.7694],[-106.21661,31.76233],[-106.2175,31.76231],[-106.2336,31.76233],[-106.23371,31.76936],[-106.21664,31.7694]]]}},{"type":"Feature","properties":{"PRECINCT":"el-paso:213","COUNTY":"El Paso"},"geometry":{"type":"Polygon","coordinates":[[[-106.23975,31.65977],[-106.23996,31.65965],[-106.24492,31.66602],[-106.24743,31.66854],[-106.25813,31.66849],[-106.27318,31.68973],[-106.27139,31.69008],[-106.247,31.66847],[-106.24495,31.66643],[-106.23975,31.65977]]]}},{"type":"Feature","properties":{"PRECINCT":"el-paso:214","COUNTY":"El Paso"},"geometry":{"type":"Polygon","coordinates":[[[-106.1997,31.78046],[-106.19967,31.77818],[-106.20022,31.77818],[-106.20027,31.78046],[-106.1997,31.78046]]]}},{"type":"Feature","properties":{"PRECINCT":"el-paso:215","COUNTY":"El Paso"},"geometry":{"type":"Polygon","coordinates":[[[-106.16452,31.6974],[-106.16438,31.68273],[-106.19849,31.68273],[-106.19881,31.71179],[-106.18175,31.71181],[-106.18149,31.69732],[-106.16452,31.6974]]]}},{"type":"Feature","properties":{"PRECINCT":"el-paso:216","COUNTY":"El Paso"},"geometry":{"type":"Polygon","coordinates":[[[-106.14496,31.67987],[-106.145,31.67774],[-106.16429,31.6776],[-106.1643,31.67922],[-106.16533,31.67922],[-106.16533,31.68051],[-106.17421,31.68083],[-106.17414,31.6827],[-106.14575,31.68274],[-106.1457,31.67987],[-106.14496,31.67987]]]}},{"type":"Feature","properties":{"PRECINCT":"el-paso:217","COUNTY":"El Paso"},"geometry":{"type":"Polygon","coordinates":[[[-106.18923,31.65988],[-106.18542,31.65981],[-106.18364,31.66063],[-106.17777,31.65289],[-106.18064,31.6517],[-106.18084,31.64981],[-106.18069,31.63942],[-106.19798,31.63949],[-106.19818,31.65404],[-106.18543,31.65402],[-106.18542,31.65744],[-106.19023,31.65749],[-106.19021,31.66039],[-106.18924,31.66039],[-106.18923,31.65988]]]}},{"type":"Feature","properties":{"PRECINCT":"el-paso:218","COUNTY":"El Paso"},"geometry":{"type":"Polygon","coordinates":[[[-106.23975,31.65977],[-106.23143,31.64907],[-106.22393,31.63939],[-106.23657,31.63916],[-106.24615,31.65242],[-106.24241,31.65333],[-106.24198,31.65365],[-106.24123,31.65362],[-106.23663,31.65479],[-106.23902,31.65786],[-106.24053,31.65933],[-106.23975,31.65977]]]}},{"type":"Feature","properties":{"PRECINCT":"el-paso:220","COUNTY":"El Paso"},"geometry":{"type":"Polygon","coordinates":[[[-106.33192,31.67391],[-106.33362,31.67406],[-106.33594,31.675],[-106.33472,31.67996],[-106.33188,31.68523],[-106.32981,31.68736],[-106.32843,31.68944],[-106.32586,31.68866],[-106.32065,31.68477],[-106.31659,31.67844],[-106.31879,31.67758],[-106.33192,31.67391]]]}}]}