{"type":"FeatureCollection","features":[{"type":"Feature","properties":{"PRECINCT":"dallas:1716","COUNTY":"Dallas"},"geometry":{"type":"Polygon","coordinates":[[[-96.60469,32.87985],[-96.60582,32.87623],[-96.6057,32.87494],[-96.59992,32.8696],[-96.60546,32.86499],[-96.61885,32.87674],[-96.62132,32.87885],[-96.62156,32.87884],[-96.61159,32.88685],[-96.60494,32.88075],[-96.60469,32.87985]]]}},{"type":"Feature","properties":{"PRECINCT":"dallas:1734","COUNTY":"Dallas"},"geometry":{"type":"Polygon","coordinates":[[[-96.62392,32.93422],[-96.62473,32.93163],[-96.6241,32.93155],[-96.62411,32.93109],[-96.63366,32.93091],[-96.64832,32.93117],[-96.64836,32.93458],[-96.64392,32.93533],[-96.64134,32.93724],[-96.63943,32.93767],[-96.63735,32.93783],[-96.63551,32.93936],[-96.63122,32.9353],[-96.63086,32.93455],[-96.63078,32.93345],[-96.63041,32.93353],[-96.62309,32.93944],[-96.6247,32.93443],[-96.62392,32.93422]]]}},{"type":"Feature","properties":{"PRECINCT":"dallas:1735","COUNTY":"Dallas"},"geometry":{"type":"Polygon","coordinates":[[[-96.63565,32.96923],[-96.6338,32.96893],[-96.63254,32.96928],[-96.63163,32.96611],[-96.63605,32.9619],[-96.63341,32.96],[-96.628,32.95675],[-96.62543,32.95461],[-96.61891,32.95065],[-96.62043,32.94749],[-96.62662,32.95283],[-96.63257,32.94793],[-96.63277,32.94216],[-96.63495,32.94037],[-96.6353,32.93957],[-96.63607,32.93887],[-96.63735,32.93783],[-96.63943,32.93767],[-96.64134,32.93724],[-96.64392,32.93533],[-96.64836,32.93458],[-96.64816,32.94518],[-96.64796,32.94518],[-96.64831,32.94685],[-96.64942,32.94824],[-96.65624,32.95387],[-96.64257,32.96533],[-96.64162,32.96718],[-96.64114,32.96896],[-96.64106,32.97041],[-96.63793,32.97043],[-96.63565,32.96923]]]}},{"type":"Feature","properties":{"PRECINCT":"dallas:1736","COUNTY":"Dallas"},"geometry":{"type":"Polygon","coordinates":[[[-96.59237,32.894],[-96.59086,32.89063],[-96.58917,32.88553],[-96.58507,32.88212],[-96.59992,32.8696],[-96.6057,32.87494],[-96.60582,32.87623],[-96.6047,32.87951],[-96.60494,32.88075],[-96.61159,32.88685],[-96.60482,32.89227],[-96.60221,32.89401],[-96.59237,32.894]]]}},{"type":"Feature","properties":{"PRECINCT":"dallas:1737","COUNTY":"Dallas"},"geometry":{"type":"Polygon","coordinates":[[[-96.61337,32.98421],[-96.61339,32.97466],[-96.61266,32.97348],[-96.60723,32.96881],[-96.60851,32.96786],[-96.61077,32.96552],[-96.61726,32.95623],[-96.61802,32.95466],[-96.61823,32.95231],[-96.61891,32.95065],[-96.62543,32.95461],[-96.628,32.95675],[-96.63341,32.96],[-96.63605,32.9619],[-96.63175,32.96583],[-96.63166,32.96639],[-96.63254,32.96928],[-96.6338,32.96893],[-96.63586,32.9693],[-96.63793,32.97043],[-96.64106,32.97041],[-96.64087,32.9847],[-96.61337,32.98421]]]}},{"type":"Feature","properties":{"PRECINCT":"dallas:1738","COUNTY":"Dallas"},"geometry":{"type":"Polygon","coordinates":[[[-96.53769,32.86699],[-96.53736,32.86699],[-96.53713,32.86671],[-96.53732,32.86651],[-96.53713,32.86583],[-96.53735,32.86511],[-96.53712,32.86497],[-96.53735,32.86456],[-96.53815,32.86399],[-96.53897,32.86392],[-96.53958,32.86411],[-96.53997,32.86389],[-96.5385,32.86225],[-96.53844,32.86002],[-96.53806,32.85932],[-96.53867,32.85951],[-96.53904,32.85852],[-96.54015,32.85773],[-96.54475,32.8576],[-96.54498,32.85736],[-96.54488,32.85633],[-96.54515,32.85753],[-96.54614,32.85752],[-96.54712,32.8581],[-96.54764,32.8579],[-96.54743,32.85763],[-96.54758,32.85751],[-96.54734,32.85743],[-96.54728,32.85636],[-96.54607,32.85522],[-96.54622,32.85458],[-96.54697,32.85408],[-96.54768,32.85318],[-96.54775,32.85205],[-96.54743,32.8513],[-96.54672,32.85066],[-96.54631,32.84941],[-96.54501,32.84802],[-96.5449,32.84718],[-96.54509,32.84675],[-96.54547,32.84641],[-96.54607,32.84638],[-96.54744,32.84723],[-96.54783,32.84716],[-96.54806,32.84775],[-96.54887,32.84797],[-96.54938,32.8486],[-96.54987,32.84815],[-96.55101,32.84804],[-96.55103,32.8475],[-96.55163,32.84751],[-96.55194,32.8471],[-96.55312,32.84707],[-96.55317,32.84662],[-96.55587,32.84684],[-96.55586,32.84664],[-96.55628,32.84664],[-96.55629,32.84085],[-96.56023,32.84092],[-96.56005,32.83545],[-96.55965,32.83412],[-96.55998,32.83414],[-96.56057,32.8362],[-96.56056,32.84685],[-96.56074,32.84755],[-96.56131,32.84812],[-96.562,32.84842],[-96.56633,32.84852],[-96.56647,32.84721],[-96.56776,32.84655],[-96.56781,32.84368],[-96.56954,32.84368],[-96.56948,32.84899],[-96.56985,32.85054],[-96.55566,32.85644],[-96.551,32.85925],[-96.54625,32.8633],[-96.54398,32.86482],[-96.53767,32.868],[-96.53749,32.86765],[-96.53785,32.86736],[-96.53769,32.86699]]]}},{"type":"Feature","properties":{"PRECINCT":"dallas:1751","COUNTY":"Dallas"},"geometry":{"type":"Polygon","coordinates":[[[-96.64087,32.9847],[-96.64108,32.96938],[-96.64199,32.96625],[-96.64866,32.97039],[-96.66241,32.9589],[-96.66368,32.9595],[-96.66545,32.95959],[-96.66566,32.96134],[-96.66547,32.96682],[-96.66474,32.96856],[-96.66523,32.96888],[-96.66516,32.96967],[-96.6662,32.96943],[-96.6667,32.96974],[-96.66657,32.97014],[-96.66576,32.97034],[-96.66594,32.97163],[-96.66657,32.97168],[-96.66686,32.97198],[-96.66742,32.97182],[-96.66786,32.97239],[-96.66865,32.97219],[-96.66959,32.97241],[-96.66963,32.97271],[-96.66896,32.97353],[-96.66897,32.97399],[-96.66941,32.97456],[-96.67038,32.97403],[-96.67023,32.97223],[-96.67266,32.9724],[-96.67295,32.9728],[-96.67454,32.97267],[-96.6764,32.97325],[-96.68267,32.97325],[-96.68259,32.97821],[-96.68191,32.97816],[-96.68144,32.9786],[-96.68239,32.97898],[-96.68247,32.98529],[-96.64087,32.9847]]]}},{"type":"Feature","properties":{"PRECINCT":"dallas:1752","COUNTY":"Dallas"},"geometry":{"type":"Polygon","coordinates":[[[-96.66939,32.9723],[-96.6686,32.97219],[-96.66786,32.97239],[-96.66742,32.97182],[-96.66686,32.97198],[-96.66657,32.97168],[-96.66594,32.97163],[-96.66576,32.97034],[-96.66657,32.97014],[-96.6667,32.96974],[-96.6662,32.96943],[-96.66516,32.96967],[-96.66523,32.96888],[-96.66474,32.96856],[-96.66547,32.96682],[-96.66566,32.96134],[-96.66545,32.95943],[-96.6675,32.95955],[-96.66848,32.96002],[-96.66834,32.96016],[-96.66893,32.96052],[-96.66987,32.96079],[-96.68277,32.96068],[-96.68267,32.97325],[-96.6764,32.97325],[-96.67454,32.97267],[-96.67295,32.9728],[-96.67266,32.9724],[-96.67023,32.97223],[-96.67038,32.97403],[-96.66941,32.97456],[-96.66894,32.97391],[-96.66899,32.97343],[-96.66965,32.97266],[-96.66939,32.9723]]]}},{"type":"Feature","properties":{"PRECINCT":"dallas:2041","COUNTY":"Dallas"},"geometry":{"type":"Polygon","coordinates":[[[-96.80345,32.98687],[-96.8041,32.98525],[-96.80443,32.98319],[-96.80449,32.97493],[-96.80411,32.97071],[-96.80608,32.96864],[-96.81242,32.96479],[-96.8216,32.96136],[-96.82219,32.96459],[-96.82171,32.96859],[-96.82184,32.97316],[-96.82277,32.97456],[-96.82773,32.97843],[-96.82855,32.97955],[-96.82901,32.9811],[-96.82872,32.9872],[-96.83001,32.98725],[-96.80345,32.98687]]]}},{"type":"Feature","properties":{"PRECINCT":"dallas:2042","COUNTY":"Dallas"},"geometry":{"type":"Polygon","coordinates":[[[-96.79583,32.979],[-96.79662,32.97613],[-96.79509,32.97608],[-96.79447,32.97585],[-96.79343,32.975],[-96.79166,32.97486],[-96.79183,32.97139],[-96.79342,32.97035],[-96.79375,32.96983],[-96.79496,32.97006],[-96.79654,32.96652],[-96.79833,32.96343],[-96.79817,32.96234],[-96.80459,32.96237],[-96.80449,32.96707],[-96.8041,32.97121],[-96.80449,32.97493],[-96.80443,32.98319],[-96.8041,32.98525],[-96.80343,32.98691],[-96.79382,32.98679],[-96.79409,32.98084],[-96.79452,32.98015],[-96.79583,32.979]]]}},{"type":"Feature","properties":{"PRECINCT":"dallas:2043","COUNTY":"Dallas"},"geometry":{"type":"Polygon","coordinates":[[[-96.77868,32.98659],[-96.77873,32.97833],[-96.77989,32.97843],[-96.78264,32.97923],[-96.78575,32.97928],[-96.78571,32.97781],[-96.78406,32.97488],[-96.79296,32.97489],[-96.79364,32.97509],[-96.79477,32.97599],[-96.79662,32.97613],[-96.79593,32.97882],[-96.79442,32.98026],[-96.79399,32.98121],[-96.79382,32.98679],[-96.77868,32.98659]]]}},{"type":"Feature","properties":{"PRECINCT":"dallas:2044","COUNTY":"Dallas"},"geometry":{"type":"Polygon","coordinates":[[[-96.76821,32.97835],[-96.77873,32.97833],[-96.77868,32.98659],[-96.76825,32.98645],[-96.76821,32.97835]]]}},{"type":"Feature","properties":{"PRECINCT":"dallas:2045","COUNTY":"Dallas"},"geometry":{"type":"Polygon","coordinates":[[[-96.78409,32.97112],[-96.78633,32.96768],[-96.78647,32.96217],[-96.79012,32.96219],[-96.79242,32.96268],[-96.79485,32.96282],[-96.79817,32.96234],[-96.79833,32.96343],[-96.79654,32.96652],[-96.79496,32.97006],[-96.79375,32.96983],[-96.79342,32.97035],[-96.79183,32.97139],[-96.79166,32.97486],[-96.78406,32.97488],[-96.78409,32.97112]]]}},{"type":"Feature","properties":{"PRECINCT":"dallas:2046","COUNTY":"Dallas"},"geometry":{"type":"Polygon","coordinates":[[[-96.77947,32.97837],[-96.76821,32.97835],[-96.76825,32.97669],[-96.76887,32.97481],[-96.76892,32.97069],[-96.77027,32.97039],[-96.77873,32.9704],[-96.78301,32.97048],[-96.7842,32.97078],[-96.78403,32.97472],[-96.78571,32.97781],[-96.78575,32.97928],[-96.78264,32.97923],[-96.77947,32.97837]]]}},{"type":"Feature","properties":{"PRECINCT":"dallas:2047","COUNTY":"Dallas"},"geometry":{"type":"Polygon","coordinates":[[[-96.76892,32.97069],[-96.76894,32.96224],[-96.77049,32.96203],[-96.78647,32.96217],[-96.78633,32.96768],[-96.7842,32.97078],[-96.78301,32.97048],[-96.77873,32.9704],[-96.77027,32.97039],[-96.76892,32.97069]]]}},{"type":"Feature","properties":{"PRECINCT":"dallas:2049","COUNTY":"Dallas"},"geometry":{"type":"Polygon","coordinates":[[[-96.7919,32.96169],[-96.7919,32.95748],[-96.7969,32.95748],[-96.7961,32.95897],[-96.79613,32.95963],[-96.79639,32.95963],[-96.79637,32.95897],[-96.79725,32.95781],[-96.79712,32.95618],[-96.79782,32.95481],[-96.79749,32.95405],[-96.7993,32.9526],[-96.79891,32.95119],[-96.79905,32.95022],[-96.79995,32.95096],[-96.80178,32.9533],[-96.80292,32.95389],[-96.8042,32.95408],[-96.80465,32.95652],[-96.80459,32.96237],[-96.7977,32.96234],[-96.79485,32.96282],[-96.792,32.96261],[-96.79164,32.96252],[-96.7919,32.96169]]]}},{"type":"Feature","properties":{"PRECINCT":"dallas:2050","COUNTY":"Dallas"},"geometry":{"type":"Polygon","coordinates":[[[-96.79041,32.96222],[-96.78647,32.96217],[-96.78684,32.95417],[-96.78651,32.95327],[-96.78491,32.95107],[-96.78474,32.95009],[-96.79244,32.95014],[-96.79555,32.94994],[-96.7956,32.94978],[-96.79565,32.94994],[-96.79772,32.94994],[-96.79877,32.95025],[-96.79902,32.95037],[-96.79895,32.95149],[-96.7993,32.9526],[-96.79749,32.95405],[-96.79782,32.95481],[-96.79712,32.95618],[-96.79725,32.95781],[-96.79637,32.95897],[-96.79639,32.95963],[-96.79613,32.95963],[-96.7961,32.95897],[-96.7969,32.95748],[-96.7919,32.95748],[-96.79183,32.962],[-96.79164,32.96252],[-96.79041,32.96222]]]}},{"type":"Feature","properties":{"PRECINCT":"dallas:2051","COUNTY":"Dallas"},"geometry":{"type":"Polygon","coordinates":[[[-96.76894,32.96211],[-96.76898,32.95099],[-96.77076,32.95076],[-96.77641,32.95078],[-96.78062,32.95015],[-96.78474,32.95009],[-96.78491,32.95107],[-96.78651,32.95327],[-96.78684,32.95417],[-96.78647,32.96217],[-96.76894,32.96211]]]}},{"type":"Feature","properties":{"PRECINCT":"dallas:2500","COUNTY":"Dallas"},"geometry":{"type":"Polygon","coordinates":[[[-96.74806,32.97832],[-96.74823,32.96304],[-96.74957,32.96256],[-96.7575,32.96243],[-96.757,32.96273],[-96.75724,32.9635],[-96.75643,32.96442],[-96.75693,32.9656],[-96.75607,32.96617],[-96.75608,32.96683],[-96.75578,32.96707],[-96.7561,32.96775],[-96.75558,32.9684],[-96.75601,32.9687],[-96.75616,32.96941],[-96.75549,32.96961],[-96.75536,32.96992],[-96.75544,32.97114],[-96.75604,32.97172],[-96.75612,32.97219],[-96.75601,32.97256],[-96.75548,32.97294],[-96.7562,32.97415],[-96.75618,32.97724],[-96.75655,32.97831],[-96.75119,32.97811],[-96.75088,32.97828],[-96.74806,32.97832]]]}},{"type":"Feature","properties":{"PRECINCT":"dallas:2501","COUNTY":"Dallas"},"geometry":{"type":"Polygon","coordinates":[[[-96.73798,32.98604],[-96.72938,32.97553],[-96.73293,32.97555],[-96.73553,32.97583],[-96.73872,32.97784],[-96.73972,32.97818],[-96.74829,32.97832],[-96.74797,32.98212],[-96.74844,32.98472],[-96.74843,32.98619],[-96.73798,32.98604]]]}},{"type":"Feature","properties":{"PRECINCT":"dallas:2502","COUNTY":"Dallas"},"geometry":{"type":"Polygon","coordinates":[[[-96.71185,32.98559],[-96.71267,32.98383],[-96.71706,32.98394],[-96.71718,32.97955],[-96.7177,32.97858],[-96.71874,32.9777],[-96.7199,32.97724],[-96.7226,32.97696],[-96.72337,32.97635],[-96.7237,32.97555],[-96.72938,32.97553],[-96.73798,32.98604],[-96.71185,32.98559]]]}},{"type":"Feature","properties":{"PRECINCT":"dallas:2503","COUNTY":"Dallas"},"geometry":{"type":"Polygon","coordinates":[[[-96.75655,32.97831],[-96.75618,32.97724],[-96.7562,32.97415],[-96.75548,32.97294],[-96.75601,32.97256],[-96.75612,32.97219],[-96.75604,32.97172],[-96.75544,32.97114],[-96.75536,32.96992],[-96.75549,32.96961],[-96.75616,32.96941],[-96.75601,32.9687],[-96.75558,32.9684],[-96.7561,32.96775],[-96.75577,32.96712],[-96.75608,32.96683],[-96.75607,32.96617],[-96.75693,32.9656],[-96.75642,32.96456],[-96.75724,32.9635],[-96.75703,32.96268],[-96.7575,32.96243],[-96.76894,32.96224],[-96.76892,32.97385],[-96.76887,32.97481],[-96.76825,32.97669],[-96.76821,32.97835],[-96.75655,32.97831]]]}},{"type":"Feature","properties":{"PRECINCT":"dallas:2504","COUNTY":"Dallas"},"geometry":{"type":"Polygon","coordinates":[[[-96.74044,32.97825],[-96.74047,32.97614],[-96.74003,32.9756],[-96.74004,32.97381],[-96.74048,32.97381],[-96.7406,32.97212],[-96.74136,32.96933],[-96.74115,32.96768],[-96.7419,32.96316],[-96.74823,32.96304],[-96.74817,32.97811],[-96.74806,32.97832],[-96.74044,32.97825]]]}},{"type":"Feature","properties":{"PRECINCT":"dallas:2505","COUNTY":"Dallas"},"geometry":{"type":"Polygon","coordinates":[[[-96.73421,32.97567],[-96.72938,32.97553],[-96.7271,32.97286],[-96.72787,32.97224],[-96.728,32.97153],[-96.72584,32.97142],[-96.72184,32.96711],[-96.724,32.96459],[-96.72639,32.96649],[-96.72733,32.96672],[-96.72748,32.96617],[-96.72841,32.96491],[-96.72849,32.96162],[-96.72916,32.96085],[-96.73469,32.96089],[-96.73525,32.96118],[-96.73623,32.96271],[-96.7367,32.96306],[-96.7419,32.96316],[-96.74122,32.96823],[-96.74076,32.96822],[-96.74081,32.9674],[-96.73826,32.96733],[-96.73655,32.96631],[-96.7343,32.96626],[-96.73428,32.97552],[-96.73421,32.97567]]]}},{"type":"Feature","properties":{"PRECINCT":"dallas:2506","COUNTY":"Dallas"},"geometry":{"type":"Polygon","coordinates":[[[-96.74727,32.96154],[-96.74662,32.96166],[-96.74652,32.96074],[-96.74736,32.95881],[-96.74739,32.95754],[-96.74846,32.95704],[-96.7491,32.95718],[-96.75112,32.95572],[-96.75134,32.95535],[-96.75198,32.95515],[-96.75208,32.95371],[-96.75237,32.95341],[-96.75337,32.95307],[-96.75365,32.95242],[-96.75315,32.95122],[-96.76603,32.95128],[-96.76898,32.95099],[-96.76894,32.96224],[-96.74957,32.96256],[-96.74751,32.96317],[-96.7472,32.96273],[-96.74743,32.96197],[-96.74727,32.96154]]]}},{"type":"Feature","properties":{"PRECINCT":"dallas:2507","COUNTY":"Dallas"},"geometry":{"type":"Polygon","coordinates":[[[-96.73654,32.96299],[-96.7353,32.96124],[-96.73469,32.96089],[-96.72776,32.96086],[-96.72987,32.95834],[-96.73474,32.95079],[-96.73484,32.95109],[-96.73506,32.95076],[-96.75315,32.95122],[-96.75365,32.95242],[-96.75337,32.95307],[-96.75237,32.95341],[-96.75208,32.95371],[-96.75198,32.95515],[-96.75134,32.95535],[-96.75112,32.95572],[-96.7491,32.95718],[-96.74846,32.95704],[-96.74737,32.95758],[-96.74736,32.95881],[-96.74652,32.96074],[-96.74662,32.96166],[-96.74722,32.96153],[-96.74742,32.96171],[-96.74719,32.96269],[-96.74751,32.96317],[-96.73704,32.96314],[-96.73654,32.96299]]]}},{"type":"Feature","properties":{"PRECINCT":"dallas:2508","COUNTY":"Dallas"},"geometry":{"type":"Polygon","coordinates":[[[-96.7118,32.98569],[-96.69977,32.98538],[-96.69993,32.96786],[-96.70631,32.96794],[-96.70506,32.96696],[-96.70215,32.96682],[-96.70172,32.96662],[-96.70147,32.96297],[-96.70138,32.96281],[-96.70035,32.9628],[-96.70031,32.96059],[-96.69997,32.96058],[-96.69995,32.94532],[-96.70862,32.94536],[-96.71253,32.94805],[-96.71364,32.94835],[-96.72982,32.94832],[-96.73482,32.95066],[-96.72987,32.95834],[-96.72776,32.96086],[-96.72916,32.96085],[-96.72849,32.96162],[-96.72841,32.96491],[-96.72748,32.96617],[-96.72733,32.96672],[-96.72639,32.96649],[-96.724,32.96459],[-96.72184,32.96711],[-96.72584,32.97142],[-96.728,32.97153],[-96.72787,32.97224],[-96.7271,32.97286],[-96.72938,32.97553],[-96.7237,32.97555],[-96.72337,32.97635],[-96.7226,32.97696],[-96.7199,32.97724],[-96.71838,32.97793],[-96.7177,32.97858],[-96.71718,32.97955],[-96.71706,32.98394],[-96.71267,32.98383],[-96.7118,32.98569]]]}},{"type":"Feature","properties":{"PRECINCT":"dallas:2509","COUNTY":"Dallas"},"geometry":{"type":"Polygon","coordinates":[[[-96.68239,32.97898],[-96.68144,32.9786],[-96.68191,32.97816],[-96.68259,32.97821],[-96.68276,32.9678],[-96.69993,32.96786],[-96.69977,32.98538],[-96.68247,32.98529],[-96.68253,32.9802],[-96.68237,32.98017],[-96.68239,32.97898]]]}},{"type":"Feature","properties":{"PRECINCT":"dallas:2510","COUNTY":"Dallas"},"geometry":{"type":"Polygon","coordinates":[[[-96.68276,32.9678],[-96.68277,32.96068],[-96.69534,32.96055],[-96.70031,32.96059],[-96.70035,32.9628],[-96.70138,32.96281],[-96.70152,32.96316],[-96.70165,32.96655],[-96.70215,32.96682],[-96.70523,32.96701],[-96.70631,32.96794],[-96.68276,32.9678]]]}},{"type":"Feature","properties":{"PRECINCT":"dallas:2515","COUNTY":"Dallas"},"geometry":{"type":"Polygon","coordinates":[[[-96.73421,32.97567],[-96.7343,32.96626],[-96.73655,32.96631],[-96.73826,32.96733],[-96.74081,32.9674],[-96.74076,32.96822],[-96.74122,32.96823],[-96.74136,32.96933],[-96.7406,32.97212],[-96.74048,32.97381],[-96.74004,32.97381],[-96.74003,32.9756],[-96.74047,32.97614],[-96.74044,32.97825],[-96.73872,32.97784],[-96.73577,32.97591],[-96.73421,32.97567]]]}},{"type":"Feature","properties":{"PRECINCT":"dallas:2523","COUNTY":"Dallas"},"geometry":{"type":"Polygon","coordinates":[[[-96.75088,32.97828],[-96.75119,32.97811],[-96.76821,32.97835],[-96.76825,32.98645],[-96.74843,32.98619],[-96.74844,32.98472],[-96.74797,32.98212],[-96.74829,32.97832],[-96.75088,32.97828]]]}},{"type":"Feature","properties":{"PRECINCT":"dallas:3500","COUNTY":"Dallas"},"geometry":{"type":"Polygon","coordinates":[[[-96.55994,32.83368],[-96.56002,32.82605],[-96.55964,32.82449],[-96.55954,32.82197],[-96.55961,32.81415],[-96.56069,32.81198],[-96.56089,32.81098],[-96.56123,32.79353],[-96.5662,32.79361],[-96.56939,32.79581],[-96.57008,32.79605],[-96.59244,32.79618],[-96.59294,32.79637],[-96.59414,32.79756],[-96.59808,32.79786],[-96.59787,32.80453],[-96.59907,32.80453],[-96.59922,32.80674],[-96.6045,32.80671],[-96.60439,32.81396],[-96.59732,32.81407],[-96.59704,32.81758],[-96.59593,32.81752],[-96.59606,32.82612],[-96.59583,32.83325],[-96.59495,32.83309],[-96.59186,32.83327],[-96.59148,32.8332],[-96.59135,32.83279],[-96.58995,32.8327],[-96.58962,32.83286],[-96.58911,32.8323],[-96.58793,32.83243],[-96.5878,32.83198],[-96.58725,32.83196],[-96.587,32.83149],[-96.58662,32.83164],[-96.58643,32.83214],[-96.58559,32.83215],[-96.58562,32.83261],[-96.5854,32.8327],[-96.58457,32.83235],[-96.58413,32.83176],[-96.58374,32.83203],[-96.58334,32.8317],[-96.58207,32.83178],[-96.58161,32.83204],[-96.58166,32.83277],[-96.58135,32.83304],[-96.58078,32.83314],[-96.58047,32.83261],[-96.57982,32.83299],[-96.5791,32.83291],[-96.57899,32.83349],[-96.5778,32.83336],[-96.57689,32.83252],[-96.57647,32.83253],[-96.57602,32.83297],[-96.57536,32.83219],[-96.57477,32.8323],[-96.57432,32.83268],[-96.573,32.8328],[-96.5726,32.8326],[-96.57195,32.83306],[-96.57169,32.83288],[-96.57163,32.83242],[-96.56958,32.83234],[-96.56945,32.83112],[-96.56897,32.83082],[-96.56825,32.83077],[-96.56678,32.82923],[-96.56454,32.82992],[-96.5607,32.83362],[-96.55994,32.83368]]]}},{"type":"Feature","properties":{"PRECINCT":"dallas:3501","COUNTY":"Dallas"},"geometry":{"type":"Polygon","coordinates":[[[-96.51887,32.83273],[-96.51926,32.79603],[-96.52573,32.79581],[-96.5293,32.79687],[-96.53215,32.79815],[-96.53486,32.80378],[-96.53491,32.80812],[-96.53515,32.80875],[-96.53428,32.81083],[-96.53505,32.81079],[-96.53497,32.8147],[-96.54087,32.81814],[-96.54256,32.82033],[-96.54235,32.82182],[-96.54347,32.82252],[-96.54357,32.82373],[-96.54187,32.82355],[-96.5389,32.82804],[-96.54137,32.82796],[-96.54218,32.82863],[-96.54345,32.82924],[-96.54336,32.83362],[-96.54193,32.83465],[-96.53959,32.8347],[-96.51887,32.83273]]]}},{"type":"Feature","properties":{"PRECINCT":"dallas:3503","COUNTY":"Dallas"},"geometry":{"type":"Polygon","coordinates":[[[-96.56603,32.79358],[-96.56123,32.79353],[-96.56116,32.79452],[-96.55709,32.79448],[-96.55594,32.79441],[-96.55456,32.79379],[-96.5518,32.79333],[-96.54946,32.79261],[-96.53964,32.79241],[-96.5382,32.79274],[-96.5193,32.79265],[-96.51979,32.75439],[-96.54627,32.76221],[-96.57035,32.76459],[-96.57031,32.77968],[-96.57989,32.7794],[-96.57961,32.79604],[-96.57008,32.79605],[-96.56939,32.79581],[-96.567,32.79402],[-96.56603,32.79358]]]}},{"type":"Feature","properties":{"PRECINCT":"dallas:3504","COUNTY":"Dallas"},"geometry":{"type":"Polygon","coordinates":[[[-96.54218,32.82863],[-96.54137,32.82796],[-96.5389,32.82804],[-96.54187,32.82355],[-96.54357,32.82373],[-96.54347,32.82252],[-96.54235,32.82182],[-96.54256,32.82033],[-96.54087,32.81814],[-96.53497,32.8147],[-96.53505,32.81079],[-96.53428,32.81083],[-96.53515,32.80875],[-96.53491,32.80812],[-96.53486,32.80378],[-96.53215,32.79815],[-96.5293,32.79687],[-96.5259,32.79584],[-96.51926,32.79603],[-96.5193,32.79265],[-96.5382,32.79274],[-96.53964,32.79241],[-96.54946,32.79261],[-96.5518,32.79333],[-96.55456,32.79379],[-96.55594,32.79441],[-96.56116,32.79452],[-96.56089,32.81098],[-96.56069,32.81198],[-96.55961,32.81415],[-96.55962,32.82416],[-96.56002,32.82605],[-96.55994,32.83368],[-96.54336,32.83362],[-96.54345,32.82924],[-96.54218,32.82863]]]}},{"type":"Feature","properties":{"PRECINCT":"dallas:3701","COUNTY":"Dallas"},"geometry":{"type":"Polygon","coordinates":[[[-96.5305,32.96587],[-96.5288,32.96447],[-96.53094,32.96268],[-96.53248,32.9614],[-96.53339,32.96219],[-96.53962,32.95709],[-96.53985,32.95728],[-96.54827,32.95033],[-96.54867,32.95073],[-96.55009,32.94943],[-96.54586,32.94606],[-96.55012,32.94282],[-96.55038,32.94383],[-96.54974,32.94413],[-96.55011,32.94454],[-96.54962,32.94728],[-96.55082,32.94734],[-96.55105,32.94811],[-96.55133,32.94828],[-96.55389,32.94812],[-96.55404,32.94705],[-96.55517,32.94632],[-96.55619,32.9468],[-96.55907,32.94714],[-96.56047,32.94772],[-96.57479,32.94771],[-96.58236,32.94163],[-96.58296,32.94183],[-96.57511,32.94812],[-96.57073,32.94799],[-96.5598,32.94823],[-96.55841,32.94738],[-96.55594,32.94705],[-96.55514,32.94795],[-96.55584,32.9491],[-96.55155,32.95025],[-96.55073,32.95118],[-96.55105,32.95209],[-96.55171,32.9523],[-96.55193,32.95296],[-96.55272,32.95322],[-96.5527,32.95349],[-96.55215,32.95368],[-96.55265,32.95494],[-96.55175,32.95521],[-96.55176,32.95617],[-96.55142,32.95647],[-96.55152,32.95865],[-96.55222,32.9593],[-96.55228,32.95966],[-96.55217,32.95999],[-96.55164,32.96024],[-96.55143,32.96093],[-96.54769,32.96321],[-96.54442,32.96047],[-96.53755,32.96589],[-96.53584,32.96452],[-96.53337,32.96655],[-96.53194,32.9653],[-96.52543,32.97049],[-96.52577,32.9698],[-96.5305,32.96587]]]}},{"type":"Feature","properties":{"PRECINCT":"dallas:3702","COUNTY":"Dallas"},"geometry":{"type":"Polygon","coordinates":[[[-96.5184,32.87647],[-96.51887,32.83273],[-96.53959,32.8347],[-96.54193,32.83465],[-96.54364,32.83358],[-96.55994,32.83368],[-96.55998,32.83414],[-96.55965,32.83412],[-96.56005,32.83545],[-96.56023,32.84092],[-96.55629,32.84085],[-96.55628,32.84664],[-96.55586,32.84664],[-96.55587,32.84684],[-96.55317,32.84662],[-96.55312,32.84707],[-96.55194,32.8471],[-96.55163,32.84751],[-96.55103,32.8475],[-96.55101,32.84804],[-96.54987,32.84815],[-96.54938,32.8486],[-96.54887,32.84797],[-96.54806,32.84775],[-96.54783,32.84716],[-96.54744,32.84723],[-96.54607,32.84638],[-96.54547,32.84641],[-96.54497,32.84694],[-96.54501,32.84802],[-96.54631,32.84941],[-96.54672,32.85066],[-96.54743,32.8513],[-96.54775,32.85205],[-96.54768,32.85318],[-96.54697,32.85408],[-96.54622,32.85458],[-96.54607,32.85522],[-96.54728,32.85636],[-96.54734,32.85743],[-96.54758,32.85751],[-96.54743,32.85763],[-96.54764,32.8579],[-96.54712,32.8581],[-96.54614,32.85752],[-96.54515,32.85753],[-96.54488,32.85633],[-96.54498,32.85736],[-96.54475,32.8576],[-96.54015,32.85773],[-96.53904,32.85852],[-96.53867,32.85951],[-96.53806,32.85932],[-96.53844,32.86002],[-96.5385,32.86225],[-96.53997,32.86389],[-96.53958,32.86411],[-96.53897,32.86392],[-96.5381,32.86401],[-96.53713,32.86494],[-96.53735,32.86521],[-96.53713,32.86583],[-96.53732,32.86651],[-96.53713,32.86671],[-96.53785,32.86727],[-96.53749,32.86765],[-96.53767,32.868],[-96.5184,32.87647]]]}},{"type":"Feature","properties":{"PRECINCT":"dallas:3960","COUNTY":"Dallas"},"geometry":{"type":"Polygon","coordinates":[[[-96.517,32.97367],[-96.51717,32.95375],[-96.52547,32.94687],[-96.52846,32.9453],[-96.53233,32.94261],[-96.53327,32.9413],[-96.53335,32.9388],[-96.53383,32.93776],[-96.53468,32.9369],[-96.53597,32.9365],[-96.53652,32.93609],[-96.53787,32.93753],[-96.53589,32.93955],[-96.54159,32.94448],[-96.54225,32.94528],[-96.54892,32.95052],[-96.54867,32.95073],[-96.54827,32.95033],[-96.53985,32.95728],[-96.53962,32.95709],[-96.53339,32.96219],[-96.53248,32.9614],[-96.53094,32.96268],[-96.5288,32.96447],[-96.5305,32.96587],[-96.52555,32.96997],[-96.52305,32.96994],[-96.52543,32.97476],[-96.51896,32.97536],[-96.517,32.97367]]]}},{"type":"Feature","properties":{"PRECINCT":"dallas:3961","COUNTY":"Dallas"},"geometry":{"type":"Polygon","coordinates":[[[-96.54309,32.94589],[-96.53589,32.93955],[-96.53787,32.93753],[-96.53652,32.93609],[-96.53834,32.93459],[-96.53645,32.93158],[-96.5364,32.92608],[-96.53532,32.92462],[-96.53521,32.92399],[-96.53162,32.92401],[-96.53165,32.92149],[-96.52422,32.92142],[-96.52368,32.92096],[-96.52262,32.91849],[-96.52154,32.91725],[-96.5208,32.91579],[-96.53545,32.90841],[-96.53762,32.90783],[-96.54,32.90779],[-96.53982,32.90806],[-96.53832,32.90805],[-96.53831,32.90841],[-96.538,32.9086],[-96.53808,32.90897],[-96.53847,32.90918],[-96.53894,32.91077],[-96.53837,32.91188],[-96.53978,32.91202],[-96.54049,32.91383],[-96.53917,32.91509],[-96.53946,32.91652],[-96.53905,32.91675],[-96.53935,32.91676],[-96.53938,32.91742],[-96.53998,32.91766],[-96.54003,32.91817],[-96.53989,32.91925],[-96.53929,32.91994],[-96.53977,32.92015],[-96.53958,32.92055],[-96.53989,32.92086],[-96.54022,32.92089],[-96.54028,32.92052],[-96.54095,32.92021],[-96.54116,32.92063],[-96.5419,32.92074],[-96.54174,32.92134],[-96.54115,32.92133],[-96.5406,32.92205],[-96.54205,32.92243],[-96.54207,32.9235],[-96.54262,32.92379],[-96.54266,32.92415],[-96.54312,32.92446],[-96.54256,32.92503],[-96.54268,32.92521],[-96.5432,32.92493],[-96.54371,32.92536],[-96.54398,32.92602],[-96.54343,32.92633],[-96.54349,32.92658],[-96.54446,32.92662],[-96.54421,32.92742],[-96.54452,32.92786],[-96.54403,32.92842],[-96.54554,32.93028],[-96.54611,32.9326],[-96.54676,32.93324],[-96.54656,32.93391],[-96.54774,32.93433],[-96.54845,32.93567],[-96.54932,32.93906],[-96.54885,32.93957],[-96.54891,32.93998],[-96.5502,32.94244],[-96.55012,32.94282],[-96.54586,32.94606],[-96.55009,32.94943],[-96.54892,32.95052],[-96.54309,32.94589]]]}},{"type":"Feature","properties":{"PRECINCT":"dallas:3963","COUNTY":"Dallas"},"geometry":{"type":"Polygon","coordinates":[[[-96.51717,32.95375],[-96.51764,32.92946],[-96.52276,32.93361],[-96.52314,32.93326],[-96.52351,32.93355],[-96.5239,32.9332],[-96.52651,32.93534],[-96.52967,32.93282],[-96.53167,32.93455],[-96.53658,32.93197],[-96.53834,32.93459],[-96.53639,32.93628],[-96.53468,32.9369],[-96.53383,32.93776],[-96.53335,32.9388],[-96.53327,32.9413],[-96.53233,32.94261],[-96.52846,32.9453],[-96.52547,32.94687],[-96.51717,32.95375]]]}},{"type":"Feature","properties":{"PRECINCT":"dallas:3964","COUNTY":"Dallas"},"geometry":{"type":"Polygon","coordinates":[[[-96.54446,32.92662],[-96.54349,32.92658],[-96.54343,32.92633],[-96.54398,32.92602],[-96.54371,32.92536],[-96.5432,32.92493],[-96.54268,32.92521],[-96.54256,32.92503],[-96.54312,32.92446],[-96.54266,32.92415],[-96.54262,32.92379],[-96.54207,32.9235],[-96.54205,32.92243],[-96.5406,32.92205],[-96.54115,32.92133],[-96.54174,32.92134],[-96.5419,32.92074],[-96.54116,32.92063],[-96.54095,32.92021],[-96.54028,32.92052],[-96.54022,32.92089],[-96.53989,32.92086],[-96.53958,32.92055],[-96.53977,32.92015],[-96.53929,32.91994],[-96.53989,32.91925],[-96.54003,32.91817],[-96.53998,32.91766],[-96.53938,32.91742],[-96.53935,32.91676],[-96.53905,32.91675],[-96.53946,32.91652],[-96.53917,32.91509],[-96.54049,32.91383],[-96.53978,32.91202],[-96.53837,32.91188],[-96.53894,32.91077],[-96.53847,32.90918],[-96.53808,32.90897],[-96.538,32.9086],[-96.53831,32.90841],[-96.53832,32.90805],[-96.53982,32.90806],[-96.53999,32.90771],[-96.53871,32.9076],[-96.53843,32.90738],[-96.53879,32.90681],[-96.53807,32.90633],[-96.53795,32.90553],[-96.53843,32.90498],[-96.53821,32.90474],[-96.53789,32.90473],[-96.5374,32.90534],[-96.53579,32.90528],[-96.53543,32.90503],[-96.53481,32.90375],[-96.53425,32.9034],[-96.53427,32.90312],[-96.53489,32.90299],[-96.53467,32.9028],[-96.53497,32.90169],[-96.53484,32.90118],[-96.53547,32.90039],[-96.53485,32.90008],[-96.53487,32.89815],[-96.5359,32.89593],[-96.5363,32.8938],[-96.53666,32.89325],[-96.53761,32.89409],[-96.53789,32.89387],[-96.53675,32.89265],[-96.53691,32.89166],[-96.55599,32.89177],[-96.55762,32.89208],[-96.56119,32.89369],[-96.56944,32.89386],[-96.56925,32.90748],[-96.55633,32.9077],[-96.5562,32.91254],[-96.55567,32.91551],[-96.55565,32.92136],[-96.55591,32.9229],[-96.55567,32.92367],[-96.55522,32.92414],[-96.55454,32.92442],[-96.54996,32.92509],[-96.54478,32.92935],[-96.54403,32.92842],[-96.54452,32.92786],[-96.54421,32.92742],[-96.54446,32.92662]]]}},{"type":"Feature","properties":{"PRECINCT":"dallas:3965","COUNTY":"Dallas"},"geometry":{"type":"Polygon","coordinates":[[[-96.52651,32.93534],[-96.5239,32.9332],[-96.52351,32.93355],[-96.52314,32.93326],[-96.52276,32.93361],[-96.51764,32.92946],[-96.51791,32.91723],[-96.5208,32.91579],[-96.52154,32.91725],[-96.52262,32.91849],[-96.5239,32.92121],[-96.52457,32.92148],[-96.53165,32.92149],[-96.53162,32.92401],[-96.53521,32.92399],[-96.53532,32.92462],[-96.53637,32.92594],[-96.53639,32.93115],[-96.53658,32.93197],[-96.53167,32.93455],[-96.52967,32.93282],[-96.52651,32.93534]]]}},{"type":"Feature","properties":{"PRECINCT":"dallas:3967","COUNTY":"Dallas"},"geometry":{"type":"Polygon","coordinates":[[[-96.57692,32.90759],[-96.56925,32.90748],[-96.56944,32.89386],[-96.59237,32.894],[-96.59259,32.90593],[-96.59271,32.9069],[-96.59343,32.90827],[-96.59294,32.90906],[-96.59196,32.90934],[-96.57692,32.90759]]]}},{"type":"Feature","properties":{"PRECINCT":"dallas:3968","COUNTY":"Dallas"},"geometry":{"type":"Polygon","coordinates":[[[-96.51791,32.91723],[-96.51827,32.89153],[-96.53691,32.89166],[-96.53675,32.89265],[-96.53789,32.89387],[-96.53761,32.89409],[-96.53666,32.89325],[-96.5363,32.8938],[-96.5359,32.89593],[-96.53487,32.89815],[-96.53485,32.90008],[-96.53547,32.90039],[-96.53484,32.90118],[-96.53497,32.90169],[-96.53467,32.9028],[-96.53489,32.90299],[-96.53427,32.90312],[-96.53425,32.9034],[-96.53481,32.90375],[-96.53543,32.90503],[-96.53579,32.90528],[-96.5374,32.90534],[-96.53789,32.90473],[-96.53821,32.90474],[-96.53843,32.90498],[-96.53795,32.90553],[-96.53807,32.90633],[-96.53879,32.90681],[-96.53843,32.90738],[-96.54,32.90779],[-96.53762,32.90783],[-96.53545,32.90841],[-96.51791,32.91723]]]}},{"type":"Feature","properties":{"PRECINCT":"dallas:3969","COUNTY":"Dallas"},"geometry":{"type":"Polygon","coordinates":[[[-96.5696,32.89386],[-96.56961,32.87566],[-96.57143,32.8691],[-96.58507,32.88212],[-96.58917,32.88553],[-96.59086,32.89063],[-96.59237,32.894],[-96.5696,32.89386]]]}},{"type":"Feature","properties":{"PRECINCT":"dallas:3970","COUNTY":"Dallas"},"geometry":{"type":"Polygon","coordinates":[[[-96.56184,32.89374],[-96.56055,32.89352],[-96.55783,32.89216],[-96.55645,32.89181],[-96.53691,32.89166],[-96.53685,32.89135],[-96.53723,32.89126],[-96.53834,32.89005],[-96.54045,32.8893],[-96.54076,32.88896],[-96.54121,32.88893],[-96.54116,32.88823],[-96.54046,32.88677],[-96.54105,32.8843],[-96.54051,32.88273],[-96.53978,32.88204],[-96.5397,32.88149],[-96.53918,32.88119],[-96.53893,32.88063],[-96.53767,32.8809],[-96.53719,32.88056],[-96.53684,32.8811],[-96.53585,32.88125],[-96.53466,32.88088],[-96.53453,32.88058],[-96.53115,32.88036],[-96.5297,32.8792],[-96.52889,32.87912],[-96.52817,32.87836],[-96.52885,32.8793],[-96.52842,32.88003],[-96.52839,32.88094],[-96.52805,32.88117],[-96.5273,32.87942],[-96.52658,32.87879],[-96.52536,32.87844],[-96.52479,32.87804],[-96.52266,32.87451],[-96.53372,32.86976],[-96.54075,32.8725],[-96.56983,32.86783],[-96.57143,32.8691],[-96.56961,32.87566],[-96.5696,32.89386],[-96.56184,32.89374]]]}},{"type":"Feature","properties":{"PRECINCT":"dallas:3971","COUNTY":"Dallas"},"geometry":{"type":"Polygon","coordinates":[[[-96.51827,32.89153],[-96.5184,32.87647],[-96.52244,32.87459],[-96.52266,32.87451],[-96.52293,32.8749],[-96.52479,32.87804],[-96.52536,32.87844],[-96.52658,32.87879],[-96.5273,32.87942],[-96.52805,32.88117],[-96.52839,32.88094],[-96.52842,32.88003],[-96.52885,32.8793],[-96.52817,32.87836],[-96.52889,32.87912],[-96.5297,32.8792],[-96.53129,32.88039],[-96.53453,32.88058],[-96.53466,32.88088],[-96.53585,32.88125],[-96.53684,32.8811],[-96.53719,32.88056],[-96.53767,32.8809],[-96.53893,32.88063],[-96.53918,32.88119],[-96.5397,32.88149],[-96.53978,32.88204],[-96.54051,32.88273],[-96.54107,32.88464],[-96.54046,32.88677],[-96.54116,32.88823],[-96.54121,32.88893],[-96.54076,32.88896],[-96.54045,32.8893],[-96.53834,32.89005],[-96.53723,32.89126],[-96.53685,32.89135],[-96.53691,32.89166],[-96.51827,32.89153]]]}},{"type":"Feature","properties":{"PRECINCT":"dallas:3980","COUNTY":"Dallas"},"geometry":{"type":"Polygon","coordinates":[[[-96.59288,32.97335],[-96.58331,32.97326],[-96.58349,32.95508],[-96.58413,32.95496],[-96.58558,32.95343],[-96.58711,32.95228],[-96.60495,32.96761],[-96.60624,32.96814],[-96.60653,32.96903],[-96.60723,32.96881],[-96.59577,32.97621],[-96.5934,32.97365],[-96.59288,32.97335]]]}},{"type":"Feature","properties":{"PRECINCT":"dallas:3981","COUNTY":"Dallas"},"geometry":{"type":"Polygon","coordinates":[[[-96.5838,32.98387],[-96.60723,32.96881],[-96.61315,32.9741],[-96.61353,32.97557],[-96.61337,32.98431],[-96.5838,32.98387]]]}},{"type":"Feature","properties":{"PRECINCT":"dallas:3982","COUNTY":"Dallas"},"geometry":{"type":"Polygon","coordinates":[[[-96.51701,32.98286],[-96.517,32.97367],[-96.51896,32.97536],[-96.52543,32.97476],[-96.52305,32.96994],[-96.52555,32.96997],[-96.52577,32.9698],[-96.52543,32.97049],[-96.53194,32.9653],[-96.53337,32.96655],[-96.53584,32.96452],[-96.53755,32.96589],[-96.54442,32.96047],[-96.54769,32.96321],[-96.55143,32.96093],[-96.55164,32.96024],[-96.55217,32.95999],[-96.55228,32.95966],[-96.55222,32.9593],[-96.55152,32.95865],[-96.55142,32.95647],[-96.55176,32.95617],[-96.55175,32.95521],[-96.55265,32.95494],[-96.55215,32.95368],[-96.5527,32.95349],[-96.55272,32.95322],[-96.55193,32.95296],[-96.55171,32.9523],[-96.55105,32.95209],[-96.55073,32.95118],[-96.55155,32.95025],[-96.55584,32.9491],[-96.55514,32.94795],[-96.55594,32.94705],[-96.55841,32.94738],[-96.5598,32.94823],[-96.57073,32.94799],[-96.57511,32.94812],[-96.58296,32.94183],[-96.58367,32.9415],[-96.58416,32.94168],[-96.58808,32.94506],[-96.58846,32.94607],[-96.58959,32.94708],[-96.58901,32.94747],[-96.58919,32.9498],[-96.58888,32.9508],[-96.58558,32.95343],[-96.58413,32.95496],[-96.58349,32.95508],[-96.58331,32.97326],[-96.57627,32.97322],[-96.57559,32.97343],[-96.57465,32.97439],[-96.57409,32.97455],[-96.57126,32.97387],[-96.56207,32.97369],[-96.56116,32.97423],[-96.54983,32.98337],[-96.51701,32.98286]]]}},{"type":"Feature","properties":{"PRECINCT":"dallas:3983","COUNTY":"Dallas"},"geometry":{"type":"Polygon","coordinates":[[[-96.54983,32.98337],[-96.56116,32.97423],[-96.56207,32.97369],[-96.57126,32.97387],[-96.57383,32.97454],[-96.57465,32.97439],[-96.5754,32.97543],[-96.57505,32.98374],[-96.54983,32.98337]]]}},{"type":"Feature","properties":{"PRECINCT":"dallas:3984","COUNTY":"Dallas"},"geometry":{"type":"Polygon","coordinates":[[[-96.59164,32.9733],[-96.59329,32.97354],[-96.59577,32.97621],[-96.5838,32.98387],[-96.57505,32.98374],[-96.57545,32.97578],[-96.57465,32.97439],[-96.57559,32.97343],[-96.57713,32.9732],[-96.59164,32.9733]]]}}]}