{"type":"FeatureCollection","features":[{"type":"Feature","properties":{"PRECINCT":"1A","VTD":"001A"},"geometry":{"type":"Polygon","coordinates":[[[-99.359579,29.627341],[-99.334571,29.626833],[-99.313503,29.626772],[-99.26048,29.625677],[-99.22586,29.625702],[-99.201353,29.62536],[-99.193665,29.625482],[-99.191512,29.625226],[-99.125313,29.624321],[-99.066812,29.623773],[-99.06585,29.605956],[-99.065935,29.602537],[-99.066609,29.600183],[-99.070061,29.593688],[-99.073668,29.584567],[-99.075039,29.582663],[-99.07724,29.581044],[-99.09111,29.575692],[-99.092469,29.574822],[-99.093358,29.573865],[-99.097882,29.566846],[-99.101464,29.562523],[-99.102316,29.561122],[-99.102876,29.559378],[-99.105015,29.545667],[-99.105666,29.544113],[-99.108366,29.539493],[-99.109543,29.535812],[-99.109733,29.532886],[-99.108769,29.500028],[-99.109084,29.498652],[-99.109762,29.497175],[-99.116143,29.488119],[-99.116704,29.48687],[-99.117051,29.485024],[-99.116835,29.386187],[-99.116514,29.360816],[-99.116567,29.354587],[-99.116931,29.34877],[-99.122377,29.348564],[-99.122479,29.350862],[-99.12425,29.35088],[-99.124241,29.351913],[-99.125708,29.351928],[-99.125705,29.359119],[-99.129873,29.359099],[-99.129966,29.359572],[-99.129967,29.359354],[-99.130561,29.359255],[-99.150518,29.359005],[-99.150525,29.374062],[-99.170882,29.373904],[-99.173496,29.3736],[-99.190422,29.373894],[-99.190537,29.367019],[-99.200131,29.366814],[-99.200334,29.341608],[-99.258128,29.335418],[-99.258121,29.349495],[-99.260722,29.351391],[-99.260689,29.373536],[-99.261097,29.373912],[-99.263906,29.373934],[-99.264256,29.374359],[-99.264637,29.417394],[-99.265228,29.418205],[-99.266322,29.418747],[-99.26838,29.418798],[-99.270481,29.41856],[-99.272058,29.418947],[-99.278355,29.423329],[-99.279008,29.424917],[-99.279034,29.429191],[-99.279303,29.430291],[-99.282068,29.43466],[-99.283299,29.437865],[-99.286423,29.441433],[-99.287734,29.444725],[-99.29253,29.450551],[-99.293557,29.451104],[-99.294914,29.45134],[-99.328773,29.451352],[-99.329904,29.451844],[-99.330702,29.452552],[-99.332985,29.456925],[-99.334265,29.458074],[-99.335651,29.458491],[-99.34286,29.458528],[-99.344015,29.458769],[-99.345478,29.459759],[-99.347278,29.462433],[-99.348323,29.463024],[-99.349341,29.463258],[-99.394523,29.463074],[-99.396022,29.462646],[-99.398212,29.460904],[-99.399721,29.460361],[-99.412623,29.460368],[-99.412412,29.463603],[-99.412372,29.484117],[-99.412906,29.50023],[-99.412588,29.503491],[-99.412346,29.525288],[-99.412133,29.555699],[-99.412315,29.590713],[-99.411725,29.612621],[-99.411817,29.627514],[-99.359579,29.627341]]]}},{"type":"Feature","properties":{"PRECINCT":"1B","VTD":"001B"},"geometry":{"type":"Polygon","coordinates":[[[-98.983787,29.62345],[-98.98114,29.621265],[-98.979477,29.617885],[-98.976782,29.614547],[-98.976126,29.613264],[-98.97582,29.611965],[-98.975697,29.609778],[-98.976528,29.604895],[-98.977343,29.601941],[-98.978655,29.598817],[-98.981218,29.594748],[-98.984859,29.590936],[-98.986007,29.588949],[-98.986713,29.586931],[-98.987068,29.584663],[-98.986328,29.582542],[-98.984336,29.580954],[-98.982963,29.580317],[-98.980384,29.579682],[-98.979822,29.579183],[-98.978871,29.57761],[-98.979025,29.576052],[-98.979989,29.574445],[-98.981203,29.573282],[-98.984349,29.571697],[-98.985765,29.570106],[-98.985944,29.567048],[-98.985202,29.564079],[-98.98344,29.561337],[-98.981336,29.558652],[-98.979342,29.555402],[-98.977065,29.553281],[-98.975148,29.552234],[-98.974172,29.551941],[-98.974153,29.549019],[-98.975019,29.543985],[-98.974654,29.530862],[-98.974586,29.514731],[-98.975819,29.514921],[-98.975926,29.514041],[-98.976313,29.513422],[-98.978408,29.511373],[-98.980048,29.509124],[-98.981113,29.508365],[-98.981624,29.507408],[-98.981466,29.505241],[-98.981624,29.501732],[-98.980656,29.499177],[-98.9804,29.497639],[-98.981229,29.493011],[-98.980995,29.491506],[-98.981162,29.490679],[-98.980863,29.490398],[-98.981416,29.490434],[-98.984262,29.489287],[-98.987086,29.487189],[-98.987402,29.486139],[-98.987322,29.484761],[-98.985533,29.481084],[-98.986576,29.478334],[-98.986606,29.477577],[-98.985691,29.476084],[-98.983428,29.473609],[-98.982788,29.472519],[-98.982757,29.447],[-98.982107,29.446324],[-98.981403,29.446775],[-98.980263,29.447047],[-98.952033,29.44693],[-98.950965,29.446583],[-98.949965,29.445936],[-98.948238,29.443251],[-98.947506,29.442591],[-98.946442,29.442068],[-98.946746,29.441754],[-98.948983,29.441629],[-98.949273,29.417672],[-98.949504,29.417521],[-98.957933,29.417466],[-98.958013,29.402727],[-98.958204,29.402584],[-98.962892,29.402599],[-98.963188,29.402363],[-98.962917,29.370006],[-98.965702,29.370802],[-98.965774,29.362722],[-98.966121,29.361435],[-98.966228,29.359545],[-98.966707,29.359149],[-98.974274,29.35928],[-98.97436,29.349355],[-98.995886,29.353106],[-98.998296,29.353359],[-99.000699,29.35304],[-99.012521,29.349453],[-99.016767,29.348828],[-99.04092,29.350239],[-99.061054,29.351029],[-99.070971,29.351112],[-99.116931,29.34877],[-99.116567,29.354587],[-99.116514,29.360816],[-99.116835,29.386187],[-99.117051,29.485024],[-99.116704,29.48687],[-99.116143,29.488119],[-99.109762,29.497175],[-99.108819,29.4997],[-99.109663,29.534993],[-99.108679,29.538811],[-99.105666,29.544113],[-99.105015,29.545667],[-99.102876,29.559378],[-99.102163,29.561447],[-99.097882,29.566846],[-99.093358,29.573865],[-99.092469,29.574822],[-99.090489,29.575951],[-99.07724,29.581044],[-99.075238,29.582467],[-99.073824,29.58428],[-99.070061,29.593688],[-99.066609,29.600183],[-99.065935,29.602537],[-99.06585,29.605956],[-99.066812,29.623773],[-99.000309,29.623224],[-98.9937,29.623522],[-98.983787,29.62345]]]}},{"type":"Feature","properties":{"PRECINCT":"1C","VTD":"001C"},"geometry":{"type":"Polygon","coordinates":[[[-98.805903,29.643152],[-98.805578,29.522711],[-98.812939,29.522627],[-98.81425,29.522161],[-98.815101,29.521577],[-98.816046,29.520398],[-98.816413,29.519447],[-98.817124,29.518937],[-98.819289,29.518183],[-98.827649,29.516016],[-98.82888,29.515823],[-98.830516,29.515949],[-98.832151,29.515308],[-98.833345,29.514076],[-98.833295,29.512992],[-98.833861,29.511869],[-98.835427,29.510543],[-98.834678,29.509278],[-98.833885,29.508942],[-98.833501,29.508018],[-98.833419,29.506434],[-98.832683,29.505614],[-98.832947,29.504591],[-98.833632,29.504378],[-98.835293,29.504634],[-98.837142,29.504111],[-98.837389,29.503627],[-98.837161,29.503058],[-98.838903,29.502379],[-98.842263,29.497693],[-98.842882,29.497542],[-98.842362,29.49756],[-98.842797,29.496782],[-98.84537,29.49732],[-98.845785,29.497281],[-98.846749,29.496531],[-98.852154,29.496496],[-98.852307,29.484443],[-98.852285,29.481545],[-98.852081,29.481176],[-98.85123,29.481431],[-98.826525,29.481338],[-98.826539,29.476233],[-98.827844,29.472437],[-98.824094,29.467122],[-98.823499,29.462302],[-98.824809,29.459378],[-98.821252,29.45392],[-98.821824,29.453624],[-98.82116,29.452345],[-98.821564,29.446405],[-98.823829,29.446504],[-98.825139,29.4471],[-98.828387,29.446939],[-98.831164,29.446182],[-98.831837,29.446416],[-98.833269,29.446142],[-98.835774,29.444256],[-98.838526,29.443934],[-98.843088,29.443911],[-98.844582,29.444415],[-98.84689,29.446202],[-98.850534,29.447233],[-98.879363,29.447516],[-98.879906,29.447243],[-98.880633,29.447224],[-98.883782,29.440004],[-98.889916,29.43994],[-98.891654,29.440263],[-98.894767,29.441933],[-98.898718,29.442169],[-98.90141,29.443106],[-98.903292,29.443424],[-98.938049,29.443621],[-98.939589,29.443275],[-98.941994,29.442014],[-98.94514,29.441861],[-98.946442,29.442068],[-98.947506,29.442591],[-98.948402,29.443452],[-98.949836,29.445815],[-98.9508,29.446503],[-98.952033,29.44693],[-98.980263,29.447047],[-98.981403,29.446775],[-98.982107,29.446324],[-98.982553,29.446703],[-98.982776,29.44711],[-98.982825,29.449638],[-98.982788,29.472519],[-98.983428,29.473609],[-98.985691,29.476084],[-98.986606,29.477577],[-98.986576,29.478334],[-98.985533,29.481084],[-98.987322,29.484761],[-98.987402,29.486139],[-98.987086,29.487189],[-98.984262,29.489287],[-98.981416,29.490434],[-98.980863,29.490398],[-98.981162,29.490679],[-98.980995,29.491506],[-98.981229,29.493011],[-98.9804,29.497639],[-98.980656,29.499177],[-98.981624,29.501732],[-98.981466,29.505241],[-98.981624,29.507408],[-98.981113,29.508365],[-98.980048,29.509124],[-98.978408,29.511373],[-98.976313,29.513422],[-98.975926,29.514041],[-98.975819,29.514921],[-98.974586,29.514731],[-98.974654,29.530862],[-98.975019,29.543985],[-98.974153,29.549019],[-98.974172,29.551941],[-98.973353,29.551695],[-98.971383,29.551842],[-98.969948,29.552513],[-98.968541,29.553862],[-98.96778,29.555791],[-98.966273,29.557689],[-98.964728,29.558901],[-98.962501,29.559879],[-98.960624,29.560236],[-98.957853,29.560238],[-98.94741,29.557953],[-98.943561,29.55798],[-98.941076,29.558498],[-98.939392,29.559347],[-98.935474,29.562399],[-98.933726,29.56315],[-98.931664,29.563547],[-98.929914,29.563427],[-98.927161,29.56225],[-98.875306,29.617206],[-98.871221,29.621764],[-98.860433,29.632865],[-98.825136,29.670548],[-98.806552,29.690709],[-98.805903,29.643152]]]}},{"type":"Feature","properties":{"PRECINCT":"1D","VTD":"001D"},"geometry":{"type":"Polygon","coordinates":[[[-98.97436,29.349355],[-98.973818,29.34613],[-98.974107,29.345015],[-98.973952,29.344143],[-98.972733,29.341108],[-98.97038,29.339966],[-98.97024,29.339547],[-98.967481,29.339535],[-98.967495,29.336144],[-98.968424,29.335995],[-98.969831,29.334811],[-98.969968,29.33391],[-98.970551,29.332701],[-98.971364,29.33218],[-98.974175,29.331323],[-98.975979,29.331274],[-98.976958,29.331718],[-98.97811,29.331557],[-98.979485,29.330826],[-98.971821,29.319277],[-98.967553,29.31349],[-98.963958,29.310645],[-98.963822,29.309215],[-98.962512,29.309514],[-98.958633,29.306493],[-98.955893,29.302846],[-98.950005,29.297272],[-98.946403,29.290128],[-98.945416,29.288815],[-98.943941,29.287426],[-98.932287,29.278158],[-98.934409,29.273513],[-98.935216,29.269974],[-98.935368,29.266413],[-98.922269,29.261569],[-98.922228,29.249513],[-98.923623,29.248222],[-98.923906,29.246118],[-98.925446,29.245992],[-98.925418,29.236567],[-98.925888,29.235901],[-98.925925,29.232917],[-98.926294,29.23204],[-98.9262,29.223217],[-98.94912,29.223002],[-98.949076,29.216272],[-98.972178,29.21615],[-98.972319,29.223009],[-99.018156,29.223214],[-99.018165,29.220648],[-99.030936,29.220539],[-99.049049,29.220745],[-99.049935,29.221688],[-99.058039,29.221789],[-99.059646,29.221272],[-99.084667,29.221687],[-99.084866,29.221794],[-99.084814,29.224891],[-99.115941,29.224821],[-99.118266,29.225278],[-99.128975,29.225285],[-99.129247,29.228511],[-99.134263,29.228506],[-99.134343,29.237252],[-99.133205,29.245366],[-99.13333,29.285852],[-99.145374,29.285922],[-99.146475,29.28727],[-99.149724,29.291599],[-99.150403,29.293621],[-99.150443,29.307694],[-99.167186,29.307589],[-99.167182,29.307278],[-99.175406,29.307188],[-99.179779,29.307171],[-99.183678,29.30746],[-99.200371,29.307428],[-99.200571,29.336308],[-99.179173,29.336553],[-99.173699,29.336907],[-99.172052,29.337203],[-99.171228,29.336717],[-99.150375,29.336896],[-99.15041,29.342042],[-99.148103,29.342694],[-99.146211,29.34291],[-99.146216,29.344299],[-99.14372,29.344445],[-99.143935,29.347426],[-99.133777,29.347948],[-99.133335,29.346364],[-99.133403,29.333654],[-99.133318,29.334011],[-99.125781,29.33411],[-99.125751,29.343795],[-99.124956,29.343784],[-99.124956,29.34462],[-99.125403,29.344629],[-99.12518,29.345902],[-99.125211,29.348282],[-99.123278,29.348283],[-99.123194,29.347451],[-99.12268,29.347454],[-99.12266,29.347044],[-99.120611,29.347023],[-99.120621,29.348662],[-99.107398,29.349135],[-99.070971,29.351112],[-99.061054,29.351029],[-99.04092,29.350239],[-99.016767,29.348828],[-99.012521,29.349453],[-99.000699,29.35304],[-98.998296,29.353359],[-98.995886,29.353106],[-98.97436,29.349355]]]}},{"type":"Feature","properties":{"PRECINCT":"2A","VTD":"002A"},"geometry":{"type":"Polygon","coordinates":[[[-98.812939,29.522627],[-98.805578,29.522711],[-98.804944,29.403889],[-98.817786,29.40439],[-98.833241,29.404475],[-98.839423,29.404227],[-98.853116,29.40436],[-98.87706,29.404265],[-98.879173,29.404108],[-98.879512,29.404353],[-98.908448,29.404346],[-98.908448,29.404149],[-98.908756,29.404123],[-98.910167,29.40427],[-98.911229,29.404704],[-98.918828,29.404463],[-98.958013,29.404731],[-98.957933,29.417466],[-98.949504,29.417521],[-98.949273,29.417672],[-98.948837,29.441755],[-98.946746,29.441754],[-98.946442,29.442068],[-98.94514,29.441861],[-98.942453,29.441918],[-98.941383,29.442231],[-98.93933,29.443377],[-98.938049,29.443621],[-98.903504,29.443433],[-98.90141,29.443106],[-98.898718,29.442169],[-98.894767,29.441933],[-98.892088,29.440451],[-98.890617,29.439996],[-98.883782,29.440004],[-98.880633,29.447224],[-98.879906,29.447243],[-98.879363,29.447516],[-98.850534,29.447233],[-98.84689,29.446202],[-98.844582,29.444415],[-98.843088,29.443911],[-98.838526,29.443934],[-98.835774,29.444256],[-98.833269,29.446142],[-98.831837,29.446416],[-98.831164,29.446182],[-98.828387,29.446939],[-98.825139,29.4471],[-98.823829,29.446504],[-98.821564,29.446405],[-98.82116,29.452345],[-98.821824,29.453624],[-98.821252,29.45392],[-98.824809,29.459378],[-98.823499,29.462302],[-98.824094,29.467122],[-98.827844,29.472437],[-98.826539,29.476233],[-98.826525,29.481338],[-98.85123,29.481431],[-98.852081,29.481176],[-98.852285,29.481545],[-98.852307,29.484443],[-98.852154,29.496496],[-98.846749,29.496531],[-98.845785,29.497281],[-98.84537,29.49732],[-98.842797,29.496782],[-98.842362,29.49756],[-98.842882,29.497542],[-98.842263,29.497693],[-98.838903,29.502379],[-98.837161,29.503058],[-98.837389,29.503627],[-98.837142,29.504111],[-98.835293,29.504634],[-98.833632,29.504378],[-98.832947,29.504591],[-98.832683,29.505614],[-98.833419,29.506434],[-98.833501,29.508018],[-98.833885,29.508942],[-98.834678,29.509278],[-98.835427,29.510543],[-98.833861,29.511869],[-98.833295,29.512992],[-98.833345,29.514076],[-98.832151,29.515308],[-98.830516,29.515949],[-98.82888,29.515823],[-98.827649,29.516016],[-98.819289,29.518183],[-98.817124,29.518937],[-98.816413,29.519447],[-98.816046,29.520398],[-98.815101,29.521577],[-98.81425,29.522161],[-98.812939,29.522627]]]}},{"type":"Feature","properties":{"PRECINCT":"2B","VTD":"002B"},"geometry":{"type":"Polygon","coordinates":[[[-98.817786,29.40439],[-98.804944,29.403889],[-98.804751,29.365411],[-98.814861,29.362491],[-98.835284,29.355471],[-98.837235,29.355262],[-98.855471,29.355252],[-98.867279,29.355969],[-98.870656,29.355813],[-98.876704,29.354911],[-98.886799,29.351212],[-98.895087,29.348683],[-98.897296,29.348322],[-98.903049,29.348153],[-98.947281,29.348736],[-98.96808,29.348495],[-98.97436,29.349355],[-98.974274,29.35928],[-98.966707,29.359149],[-98.966399,29.359303],[-98.96614,29.359807],[-98.966121,29.361435],[-98.965774,29.362722],[-98.965702,29.370802],[-98.962942,29.369902],[-98.963188,29.402363],[-98.962892,29.402599],[-98.958086,29.402623],[-98.958013,29.404731],[-98.918828,29.404463],[-98.911229,29.404704],[-98.910167,29.40427],[-98.908756,29.404123],[-98.908448,29.404149],[-98.908448,29.404346],[-98.879512,29.404353],[-98.879173,29.404108],[-98.87706,29.404265],[-98.853116,29.40436],[-98.839423,29.404227],[-98.833241,29.404475],[-98.817786,29.40439]]]}},{"type":"Feature","properties":{"PRECINCT":"2C","VTD":"002C"},"geometry":{"type":"Polygon","coordinates":[[[-98.804751,29.365411],[-98.804591,29.322519],[-98.804926,29.312923],[-98.804866,29.303191],[-98.805157,29.302742],[-98.804857,29.301404],[-98.804684,29.229701],[-98.810567,29.226661],[-98.810805,29.226821],[-98.81211,29.226397],[-98.812654,29.227276],[-98.813907,29.226799],[-98.81434,29.227539],[-98.812925,29.228157],[-98.813005,29.235247],[-98.821635,29.235253],[-98.827018,29.23121],[-98.827354,29.232293],[-98.833767,29.232507],[-98.833718,29.242119],[-98.834955,29.242121],[-98.83493,29.263037],[-98.844906,29.263104],[-98.845342,29.262741],[-98.883435,29.26278],[-98.894545,29.262603],[-98.894542,29.252548],[-98.898552,29.252529],[-98.900532,29.253276],[-98.901117,29.253022],[-98.900823,29.253386],[-98.935368,29.266413],[-98.935216,29.269974],[-98.934409,29.273513],[-98.932287,29.278158],[-98.943941,29.287426],[-98.945416,29.288815],[-98.946403,29.290128],[-98.950005,29.297272],[-98.955893,29.302846],[-98.958633,29.306493],[-98.962512,29.309514],[-98.963822,29.309215],[-98.963958,29.310645],[-98.967553,29.31349],[-98.971821,29.319277],[-98.979485,29.330826],[-98.97811,29.331557],[-98.976958,29.331718],[-98.975979,29.331274],[-98.974175,29.331323],[-98.971364,29.33218],[-98.970551,29.332701],[-98.969968,29.33391],[-98.969831,29.334811],[-98.968424,29.335995],[-98.967495,29.336144],[-98.967481,29.339535],[-98.97024,29.339547],[-98.97038,29.339966],[-98.972733,29.341108],[-98.973952,29.344143],[-98.974107,29.345015],[-98.973818,29.34613],[-98.974141,29.346943],[-98.97436,29.349355],[-98.96808,29.348495],[-98.947281,29.348736],[-98.903049,29.348153],[-98.897296,29.348322],[-98.895087,29.348683],[-98.886799,29.351212],[-98.876704,29.354911],[-98.870656,29.355813],[-98.867279,29.355969],[-98.855471,29.355252],[-98.837235,29.355262],[-98.835284,29.355471],[-98.814861,29.362491],[-98.804751,29.365411]]]}},{"type":"Feature","properties":{"PRECINCT":"3A","VTD":"003A"},"geometry":{"type":"Polygon","coordinates":[[[-99.347991,29.462887],[-99.346781,29.461928],[-99.345273,29.459542],[-99.344015,29.458769],[-99.34286,29.458528],[-99.335651,29.458491],[-99.334052,29.457948],[-99.332985,29.456925],[-99.330702,29.452552],[-99.329904,29.451844],[-99.328773,29.451352],[-99.294914,29.45134],[-99.29301,29.45086],[-99.291815,29.449812],[-99.28801,29.445123],[-99.286075,29.440895],[-99.283299,29.437865],[-99.282068,29.43466],[-99.279211,29.430041],[-99.279008,29.424917],[-99.278355,29.423329],[-99.275352,29.421116],[-99.271659,29.41878],[-99.270481,29.41856],[-99.266494,29.418782],[-99.265588,29.418457],[-99.264797,29.417713],[-99.264502,29.416809],[-99.264256,29.374359],[-99.263906,29.373934],[-99.261097,29.373912],[-99.260689,29.373536],[-99.260722,29.351391],[-99.258121,29.349495],[-99.258128,29.335418],[-99.200334,29.341608],[-99.20059,29.33658],[-99.200226,29.290684],[-99.20042,29.290519],[-99.217637,29.290486],[-99.217861,29.290335],[-99.217533,29.281725],[-99.216626,29.281541],[-99.209804,29.282307],[-99.208042,29.282075],[-99.207495,29.281944],[-99.207344,29.280998],[-99.206101,29.279634],[-99.206251,29.277939],[-99.206057,29.277526],[-99.205059,29.276954],[-99.204789,29.275854],[-99.206553,29.273106],[-99.20689,29.271518],[-99.206683,29.271023],[-99.205076,29.27055],[-99.204687,29.269956],[-99.204612,29.269532],[-99.205591,29.268718],[-99.205628,29.266192],[-99.20458,29.2654],[-99.203852,29.264195],[-99.203996,29.263772],[-99.204837,29.26321],[-99.205075,29.262545],[-99.204564,29.261969],[-99.203136,29.261582],[-99.202778,29.261065],[-99.201404,29.260212],[-99.20131,29.259183],[-99.200958,29.258446],[-99.202138,29.25586],[-99.200211,29.254166],[-99.199295,29.254105],[-99.199025,29.253874],[-99.198925,29.25257],[-99.199565,29.251321],[-99.199627,29.250304],[-99.199182,29.249544],[-99.198517,29.249445],[-99.197545,29.248752],[-99.198121,29.246601],[-99.198987,29.244801],[-99.197983,29.243388],[-99.19792,29.242177],[-99.197575,29.241308],[-99.196302,29.240824],[-99.195762,29.241126],[-99.19521,29.240862],[-99.193497,29.237352],[-99.193842,29.237138],[-99.193585,29.236923],[-99.194049,29.236142],[-99.194789,29.235663],[-99.195005,29.235208],[-99.197574,29.235201],[-99.197809,29.235014],[-99.197805,29.193038],[-99.19782,29.191388],[-99.19802,29.191165],[-99.197809,29.190032],[-99.197762,29.171776],[-99.197986,29.170565],[-99.199288,29.167607],[-99.199431,29.166127],[-99.197178,29.157901],[-99.19696,29.155091],[-99.196571,29.153911],[-99.195674,29.152815],[-99.191776,29.14946],[-99.190663,29.148774],[-99.190942,29.148477],[-99.191568,29.148338],[-99.199773,29.148142],[-99.199858,29.144833],[-99.203192,29.134776],[-99.202549,29.134286],[-99.202442,29.132966],[-99.19938,29.126404],[-99.197527,29.123212],[-99.191182,29.123189],[-99.190608,29.123556],[-99.190242,29.123143],[-99.188937,29.123006],[-99.187318,29.123418],[-99.186587,29.122983],[-99.186091,29.122111],[-99.185151,29.121424],[-99.184316,29.121171],[-99.181731,29.12124],[-99.180191,29.120393],[-99.171868,29.120469],[-99.17158,29.120678],[-99.171366,29.118994],[-99.171548,29.118122],[-99.170583,29.117228],[-99.171471,29.111336],[-99.171597,29.09098],[-99.191259,29.091047],[-99.192524,29.090872],[-99.206841,29.090771],[-99.247993,29.091023],[-99.250316,29.09154],[-99.41388,29.091335],[-99.413443,29.120599],[-99.413104,29.125241],[-99.41314,29.190631],[-99.412259,29.344709],[-99.412623,29.460368],[-99.399721,29.460361],[-99.398212,29.460904],[-99.396022,29.462646],[-99.394523,29.463074],[-99.349792,29.463279],[-99.347991,29.462887]]]}},{"type":"Feature","properties":{"PRECINCT":"3B","VTD":"003B"},"geometry":{"type":"Polygon","coordinates":[[[-99.150443,29.307694],[-99.150403,29.293621],[-99.149724,29.291599],[-99.146475,29.28727],[-99.145374,29.285922],[-99.13333,29.285852],[-99.133205,29.245366],[-99.134343,29.237252],[-99.134263,29.228506],[-99.129247,29.228511],[-99.129072,29.225323],[-99.118266,29.225278],[-99.115941,29.224821],[-99.084814,29.224891],[-99.084866,29.221794],[-99.084667,29.221687],[-99.059646,29.221272],[-99.058039,29.221789],[-99.049935,29.221688],[-99.049049,29.220745],[-99.030936,29.220539],[-99.018165,29.220648],[-99.018156,29.223214],[-98.97228,29.222974],[-98.971866,29.192558],[-98.964926,29.186907],[-98.970151,29.186812],[-98.973529,29.183776],[-98.998754,29.183471],[-99.016476,29.183676],[-99.01672,29.183858],[-99.017088,29.194376],[-99.023802,29.194098],[-99.024253,29.193846],[-99.031431,29.193687],[-99.032765,29.192083],[-99.033418,29.191739],[-99.03786,29.191556],[-99.039898,29.191167],[-99.042511,29.189517],[-99.043112,29.187683],[-99.044889,29.186032],[-99.050949,29.186033],[-99.05112,29.190397],[-99.051303,29.19072],[-99.053207,29.191285],[-99.054719,29.191233],[-99.055501,29.190564],[-99.058238,29.190321],[-99.058003,29.189449],[-99.058578,29.189083],[-99.071406,29.188807],[-99.070884,29.188142],[-99.071554,29.188048],[-99.072977,29.189308],[-99.073115,29.190535],[-99.073536,29.190805],[-99.074081,29.191916],[-99.073762,29.194458],[-99.073398,29.195129],[-99.071793,29.1959],[-99.071636,29.196499],[-99.071135,29.197033],[-99.069109,29.197853],[-99.069001,29.19859],[-99.076335,29.198597],[-99.0782,29.198413],[-99.085387,29.198589],[-99.085404,29.199202],[-99.086011,29.199386],[-99.086773,29.188094],[-99.086293,29.140976],[-99.086014,29.14062],[-99.087853,29.140811],[-99.08801,29.140653],[-99.088011,29.139643],[-99.088872,29.138886],[-99.088976,29.138302],[-99.089707,29.137678],[-99.08963,29.13678],[-99.090779,29.136163],[-99.091118,29.133962],[-99.091327,29.133671],[-99.092372,29.13362],[-99.09258,29.133128],[-99.103853,29.133149],[-99.103946,29.118449],[-99.103697,29.118157],[-99.090784,29.118125],[-99.090713,29.107201],[-99.093236,29.103275],[-99.093224,29.100194],[-99.093532,29.09998],[-99.084163,29.093242],[-99.077697,29.090946],[-99.120698,29.091009],[-99.125323,29.090604],[-99.171597,29.09098],[-99.171471,29.111336],[-99.170583,29.117228],[-99.171548,29.118122],[-99.171366,29.118994],[-99.17158,29.120678],[-99.171868,29.120469],[-99.180191,29.120393],[-99.181731,29.12124],[-99.184316,29.121171],[-99.185151,29.121424],[-99.186091,29.122111],[-99.186587,29.122983],[-99.187318,29.123418],[-99.188937,29.123006],[-99.190242,29.123143],[-99.190608,29.123556],[-99.191182,29.123189],[-99.197527,29.123212],[-99.19938,29.126404],[-99.202442,29.132966],[-99.202549,29.134286],[-99.203192,29.134776],[-99.199858,29.144833],[-99.199773,29.148142],[-99.191568,29.148338],[-99.190942,29.148477],[-99.190663,29.148774],[-99.191776,29.14946],[-99.195674,29.152815],[-99.196571,29.153911],[-99.19696,29.155091],[-99.197178,29.157901],[-99.199431,29.166127],[-99.199288,29.167607],[-99.197986,29.170565],[-99.197762,29.171776],[-99.197809,29.190032],[-99.19802,29.191165],[-99.19782,29.191388],[-99.197805,29.193038],[-99.197809,29.235014],[-99.197574,29.235201],[-99.195005,29.235208],[-99.194789,29.235663],[-99.194049,29.236142],[-99.193585,29.236923],[-99.193842,29.237138],[-99.193497,29.237352],[-99.19521,29.240862],[-99.195762,29.241126],[-99.196302,29.240824],[-99.197575,29.241308],[-99.19792,29.242177],[-99.197983,29.243388],[-99.198987,29.244801],[-99.198121,29.246601],[-99.197545,29.248752],[-99.198517,29.249445],[-99.199182,29.249544],[-99.199627,29.250304],[-99.199565,29.251321],[-99.198925,29.25257],[-99.199025,29.253874],[-99.199295,29.254105],[-99.200211,29.254166],[-99.202138,29.25586],[-99.200958,29.258446],[-99.20131,29.259183],[-99.201404,29.260212],[-99.202778,29.261065],[-99.203136,29.261582],[-99.204564,29.261969],[-99.205075,29.262545],[-99.204837,29.26321],[-99.203996,29.263772],[-99.203852,29.264195],[-99.20458,29.2654],[-99.205628,29.266192],[-99.205591,29.268718],[-99.204612,29.269532],[-99.204687,29.269956],[-99.205076,29.27055],[-99.206683,29.271023],[-99.20689,29.271518],[-99.206553,29.273106],[-99.204789,29.275854],[-99.205059,29.276954],[-99.206057,29.277526],[-99.206251,29.277939],[-99.206101,29.279634],[-99.207344,29.280998],[-99.207495,29.281944],[-99.208042,29.282075],[-99.209804,29.282307],[-99.216626,29.281541],[-99.217533,29.281725],[-99.217861,29.290335],[-99.217637,29.290486],[-99.200271,29.290607],[-99.200371,29.307428],[-99.2002,29.307516],[-99.183678,29.30746],[-99.179083,29.307169],[-99.167182,29.307278],[-99.167186,29.307589],[-99.150443,29.307694]]]}},{"type":"Feature","properties":{"PRECINCT":"3C","VTD":"003C"},"geometry":{"type":"Polygon","coordinates":[[[-98.83493,29.263037],[-98.834955,29.242121],[-98.833718,29.242119],[-98.833767,29.232507],[-98.827354,29.232293],[-98.827018,29.23121],[-98.821635,29.235253],[-98.813005,29.235247],[-98.812925,29.228157],[-98.81434,29.227539],[-98.813907,29.226799],[-98.812654,29.227276],[-98.81211,29.226397],[-98.810805,29.226821],[-98.810567,29.226661],[-98.804684,29.229701],[-98.804733,29.21428],[-98.821466,29.201259],[-98.824787,29.198914],[-98.829588,29.194943],[-98.829905,29.194977],[-98.837683,29.188941],[-98.83785,29.189134],[-98.839624,29.187705],[-98.841512,29.186666],[-98.842764,29.185687],[-98.84483,29.185014],[-98.845068,29.185176],[-98.845051,29.189166],[-98.845741,29.188467],[-98.845723,29.187623],[-98.846713,29.186304],[-98.85424,29.191934],[-98.852677,29.193525],[-98.855424,29.195552],[-98.852065,29.197082],[-98.8501,29.197258],[-98.849009,29.198035],[-98.846672,29.19794],[-98.846324,29.201534],[-98.84663,29.204944],[-98.84765,29.204182],[-98.84778,29.204434],[-98.856722,29.19727],[-98.861955,29.193438],[-98.873305,29.180211],[-98.885712,29.180262],[-98.885802,29.187132],[-98.950586,29.186969],[-98.952179,29.186535],[-98.959677,29.186397],[-98.961691,29.186912],[-98.964926,29.186907],[-98.971866,29.192558],[-98.972178,29.21615],[-98.949076,29.216272],[-98.94912,29.223002],[-98.9262,29.223217],[-98.926294,29.23204],[-98.925925,29.232917],[-98.925888,29.235901],[-98.925418,29.236567],[-98.925446,29.245992],[-98.923906,29.246118],[-98.923623,29.248222],[-98.922228,29.249513],[-98.922269,29.261569],[-98.900823,29.253386],[-98.901117,29.253022],[-98.900532,29.253276],[-98.898552,29.252529],[-98.894542,29.252548],[-98.894545,29.262603],[-98.883435,29.26278],[-98.845342,29.262741],[-98.844906,29.263104],[-98.83493,29.263037]]]}},{"type":"Feature","properties":{"PRECINCT":"3D","VTD":"003D"},"geometry":{"type":"Polygon","coordinates":[[[-99.150525,29.374062],[-99.150518,29.359005],[-99.130561,29.359255],[-99.129967,29.359354],[-99.129966,29.359572],[-99.129873,29.359099],[-99.125705,29.359119],[-99.125708,29.351928],[-99.124241,29.351913],[-99.12425,29.35088],[-99.122479,29.350862],[-99.122377,29.348564],[-99.120621,29.348662],[-99.120611,29.347023],[-99.12266,29.347044],[-99.12268,29.347454],[-99.123194,29.347451],[-99.123278,29.348283],[-99.125211,29.348282],[-99.12518,29.345902],[-99.125403,29.344629],[-99.124956,29.34462],[-99.124956,29.343784],[-99.125751,29.343795],[-99.125781,29.33411],[-99.133318,29.334011],[-99.133403,29.333654],[-99.133335,29.346364],[-99.133777,29.347948],[-99.143935,29.347426],[-99.14372,29.344445],[-99.146216,29.344299],[-99.146211,29.34291],[-99.148103,29.342694],[-99.15041,29.342042],[-99.150375,29.336896],[-99.171228,29.336717],[-99.172052,29.337203],[-99.173699,29.336907],[-99.179173,29.336553],[-99.200571,29.336308],[-99.200285,29.342155],[-99.200131,29.366814],[-99.190537,29.367019],[-99.190422,29.373894],[-99.173496,29.3736],[-99.170882,29.373904],[-99.150525,29.374062]]]}},{"type":"Feature","properties":{"PRECINCT":"4A","VTD":"004A"},"geometry":{"type":"Polygon","coordinates":[[[-99.078958,29.198436],[-99.069001,29.19859],[-99.069109,29.197853],[-99.071135,29.197033],[-99.071636,29.196499],[-99.071793,29.1959],[-99.073398,29.195129],[-99.073762,29.194458],[-99.074081,29.191916],[-99.073536,29.190805],[-99.073115,29.190535],[-99.072977,29.189308],[-99.071554,29.188048],[-99.070884,29.188142],[-99.071406,29.188807],[-99.058578,29.189083],[-99.058003,29.189449],[-99.058238,29.190321],[-99.055501,29.190564],[-99.054719,29.191233],[-99.053207,29.191285],[-99.051303,29.19072],[-99.05112,29.190397],[-99.050949,29.186033],[-99.044889,29.186032],[-99.043112,29.187683],[-99.042511,29.189517],[-99.039898,29.191167],[-99.03786,29.191556],[-99.033418,29.191739],[-99.032765,29.192083],[-99.031431,29.193687],[-99.024253,29.193846],[-99.023802,29.194098],[-99.017088,29.194376],[-99.01672,29.183858],[-99.016476,29.183676],[-98.998754,29.183471],[-98.973661,29.183757],[-98.973194,29.183906],[-98.970151,29.186812],[-98.964926,29.186907],[-98.912498,29.144215],[-98.909673,29.142342],[-98.902494,29.138377],[-98.900557,29.136901],[-98.863097,29.090293],[-98.87208,29.09024],[-98.875305,29.090636],[-98.92935,29.090702],[-98.997135,29.091223],[-99.077697,29.090946],[-99.083435,29.092871],[-99.085649,29.094215],[-99.093532,29.09998],[-99.093224,29.100194],[-99.093236,29.103275],[-99.090713,29.107201],[-99.090719,29.118049],[-99.103697,29.118157],[-99.103924,29.118319],[-99.103853,29.133149],[-99.09258,29.133128],[-99.092372,29.13362],[-99.091327,29.133671],[-99.091118,29.133962],[-99.090779,29.136163],[-99.08963,29.13678],[-99.089707,29.137678],[-99.088976,29.138302],[-99.088872,29.138886],[-99.088011,29.139643],[-99.08801,29.140653],[-99.087853,29.140811],[-99.086014,29.14062],[-99.086293,29.140976],[-99.086773,29.188094],[-99.086011,29.199386],[-99.085404,29.199202],[-99.085387,29.198589],[-99.078958,29.198436]]]}},{"type":"Feature","properties":{"PRECINCT":"4B","VTD":"004B"},"geometry":{"type":"Polygon","coordinates":[[[-98.885802,29.187132],[-98.885293,29.16105],[-98.864961,29.161214],[-98.864139,29.162111],[-98.863551,29.161794],[-98.86231,29.161723],[-98.860993,29.161872],[-98.859119,29.162478],[-98.857546,29.163628],[-98.833408,29.163504],[-98.833449,29.162678],[-98.832563,29.163115],[-98.831519,29.163161],[-98.811445,29.162536],[-98.808154,29.162674],[-98.80737,29.162513],[-98.805776,29.162696],[-98.804778,29.163232],[-98.8049,29.090434],[-98.863111,29.090316],[-98.900557,29.136901],[-98.902494,29.138377],[-98.909673,29.142342],[-98.912498,29.144215],[-98.964926,29.186907],[-98.961691,29.186912],[-98.959677,29.186397],[-98.952179,29.186535],[-98.950586,29.186969],[-98.920432,29.187133],[-98.885802,29.187132]]]}},{"type":"Feature","properties":{"PRECINCT":"4C","VTD":"004C"},"geometry":{"type":"Polygon","coordinates":[[[-98.804733,29.21428],[-98.804778,29.163232],[-98.805776,29.162696],[-98.80737,29.162513],[-98.808154,29.162674],[-98.811445,29.162536],[-98.831519,29.163161],[-98.832563,29.163115],[-98.833449,29.162678],[-98.833408,29.163504],[-98.857546,29.163628],[-98.859119,29.162478],[-98.860993,29.161872],[-98.86231,29.161723],[-98.863551,29.161794],[-98.864139,29.162111],[-98.864961,29.161214],[-98.885293,29.16105],[-98.885712,29.180262],[-98.873305,29.180211],[-98.861955,29.193438],[-98.856722,29.19727],[-98.84778,29.204434],[-98.84765,29.204182],[-98.84663,29.204944],[-98.846324,29.201534],[-98.846672,29.19794],[-98.849009,29.198035],[-98.8501,29.197258],[-98.852065,29.197082],[-98.855424,29.195552],[-98.852677,29.193525],[-98.85424,29.191934],[-98.846713,29.186304],[-98.845723,29.187623],[-98.845741,29.188467],[-98.845051,29.189166],[-98.845068,29.185176],[-98.84483,29.185014],[-98.842764,29.185687],[-98.841512,29.186666],[-98.839624,29.187705],[-98.83785,29.189134],[-98.837683,29.188941],[-98.829905,29.194977],[-98.829588,29.194943],[-98.824787,29.198914],[-98.821466,29.201259],[-98.804733,29.21428]]]}}]}