{"type":"FeatureCollection","features":[{"type":"Feature","properties":{"PRECINCT":"1","VTD":"0001"},"geometry":{"type":"Polygon","coordinates":[[[-99.603223,31.087296],[-99.603383,31.004842],[-99.60371,30.998337],[-99.603627,30.940726],[-99.484755,30.940605],[-99.484746,30.933885],[-99.485688,30.933892],[-99.486775,30.933562],[-99.50943,30.933937],[-99.53994,30.933903],[-99.582551,30.934176],[-99.613451,30.93386],[-99.712467,30.933947],[-99.712469,30.912446],[-99.716563,30.911894],[-99.719988,30.912411],[-99.721719,30.912959],[-99.728831,30.916116],[-99.729903,30.916385],[-99.744294,30.916459],[-99.748702,30.916281],[-99.759365,30.916551],[-99.760414,30.916711],[-99.76493,30.918343],[-99.765929,30.918432],[-99.775975,30.918027],[-99.777768,30.91772],[-99.779509,30.916924],[-99.779525,30.912671],[-99.780104,30.912645],[-99.781371,30.91295],[-99.781297,30.91516],[-99.783105,30.915591],[-99.783854,30.915209],[-99.78427,30.915857],[-99.783857,30.916954],[-99.786309,30.917544],[-99.783991,30.923704],[-99.7836,30.932041],[-99.783171,30.934949],[-99.77784,30.934885],[-99.777821,30.93588],[-99.776561,30.935878],[-99.776511,30.938003],[-99.782734,30.937931],[-99.781972,30.943847],[-99.782432,30.952519],[-99.786375,30.963536],[-99.78849,30.96765],[-99.834151,30.966838],[-99.834217,30.968736],[-99.836445,30.968755],[-99.836679,30.968417],[-99.837157,30.968348],[-99.842,30.968435],[-99.842284,30.970183],[-99.847452,30.970102],[-99.847452,30.97185],[-99.937806,30.972045],[-99.939936,31.087318],[-99.631752,31.086965],[-99.603223,31.087296]]]}},{"type":"Feature","properties":{"PRECINCT":"2","VTD":"0002"},"geometry":{"type":"Polygon","coordinates":[[[-99.791001,30.916375],[-99.791724,30.913421],[-99.79117,30.910895],[-99.79029,30.910705],[-99.78929,30.911329],[-99.789047,30.911732],[-99.789349,30.911921],[-99.788825,30.91362],[-99.787596,30.913334],[-99.787924,30.912297],[-99.786752,30.912028],[-99.787116,30.910973],[-99.785889,30.91069],[-99.784571,30.914843],[-99.783854,30.915209],[-99.783437,30.914557],[-99.782216,30.914281],[-99.782855,30.912214],[-99.781386,30.911864],[-99.782266,30.909824],[-99.782972,30.909994],[-99.782947,30.909614],[-99.783546,30.909603],[-99.783481,30.899723],[-99.77542,30.88989],[-99.763366,30.880703],[-99.763818,30.878055],[-99.764991,30.849833],[-99.766284,30.787157],[-99.767029,30.785107],[-99.769893,30.781615],[-99.770456,30.779609],[-99.771199,30.710793],[-99.873854,30.710599],[-100.000353,30.710715],[-100.006747,30.710465],[-100.018558,30.710453],[-100.018557,30.773077],[-100.019378,30.870889],[-100.016219,30.87068],[-100.013861,30.87113],[-99.987805,30.881086],[-99.985616,30.88222],[-99.972135,30.890909],[-99.969548,30.892109],[-99.928103,30.903548],[-99.903192,30.904782],[-99.891114,30.907388],[-99.88822,30.908516],[-99.885133,30.910267],[-99.884798,30.910136],[-99.882569,30.91078],[-99.875831,30.911833],[-99.865718,30.913918],[-99.858241,30.913891],[-99.854779,30.913492],[-99.853508,30.913876],[-99.853164,30.914272],[-99.851068,30.914481],[-99.84689,30.916689],[-99.845803,30.917032],[-99.819977,30.916849],[-99.812946,30.916519],[-99.803564,30.91686],[-99.803591,30.914462],[-99.802707,30.914326],[-99.800863,30.914711],[-99.799836,30.914623],[-99.79814,30.914898],[-99.796162,30.916548],[-99.795039,30.917856],[-99.793801,30.918439],[-99.792263,30.918769],[-99.790822,30.918334],[-99.790124,30.917626],[-99.789988,30.917248],[-99.791001,30.916375]]]}},{"type":"Feature","properties":{"PRECINCT":"3","VTD":"0003"},"geometry":{"type":"Polygon","coordinates":[[[-100.115216,31.087994],[-99.939936,31.087318],[-99.937806,30.972045],[-99.847452,30.97185],[-99.847452,30.970102],[-99.842284,30.970183],[-99.842,30.968435],[-99.837157,30.968348],[-99.836679,30.968417],[-99.836445,30.968755],[-99.834217,30.968736],[-99.834151,30.966838],[-99.78849,30.96765],[-99.786375,30.963536],[-99.782432,30.952519],[-99.781972,30.943847],[-99.782734,30.937931],[-99.776511,30.938003],[-99.776561,30.935878],[-99.777821,30.93588],[-99.77784,30.934885],[-99.783171,30.934949],[-99.7836,30.932041],[-99.783991,30.923704],[-99.786309,30.917544],[-99.783857,30.916954],[-99.78427,30.915857],[-99.783854,30.915209],[-99.784571,30.914843],[-99.785889,30.91069],[-99.787116,30.910973],[-99.786752,30.912028],[-99.787924,30.912297],[-99.787596,30.913334],[-99.788825,30.91362],[-99.789349,30.911921],[-99.789047,30.911732],[-99.78929,30.911329],[-99.79029,30.910705],[-99.79117,30.910895],[-99.791724,30.913421],[-99.791001,30.916375],[-99.789988,30.917248],[-99.790822,30.918334],[-99.792263,30.918769],[-99.793801,30.918439],[-99.795039,30.917856],[-99.796162,30.916548],[-99.79814,30.914898],[-99.799836,30.914623],[-99.800863,30.914711],[-99.802707,30.914326],[-99.803591,30.914462],[-99.803564,30.91686],[-99.812946,30.916519],[-99.819977,30.916849],[-99.845803,30.917032],[-99.84689,30.916689],[-99.851068,30.914481],[-99.853164,30.914272],[-99.853508,30.913876],[-99.854779,30.913492],[-99.858241,30.913891],[-99.865718,30.913918],[-99.875831,30.911833],[-99.882569,30.91078],[-99.884798,30.910136],[-99.885133,30.910267],[-99.88822,30.908516],[-99.891114,30.907388],[-99.903192,30.904782],[-99.928103,30.903548],[-99.969548,30.892109],[-99.972135,30.890909],[-99.985616,30.88222],[-99.987805,30.881086],[-100.013861,30.87113],[-100.016219,30.87068],[-100.019378,30.870889],[-100.018557,30.773077],[-100.018558,30.710453],[-100.116234,30.710366],[-100.116672,30.809931],[-100.116177,30.861915],[-100.116417,30.876339],[-100.116135,30.892529],[-100.115216,31.087994]]]}},{"type":"Feature","properties":{"PRECINCT":"4","VTD":"0004"},"geometry":{"type":"Polygon","coordinates":[[[-99.660026,30.933898],[-99.660766,30.906725],[-99.66069,30.892529],[-99.661003,30.892536],[-99.661189,30.891963],[-99.661243,30.890176],[-99.660791,30.888662],[-99.661352,30.887695],[-99.661381,30.881884],[-99.661946,30.870597],[-99.656664,30.870546],[-99.658202,30.799619],[-99.658195,30.791325],[-99.660054,30.791363],[-99.660067,30.78249],[-99.665683,30.782673],[-99.666535,30.770569],[-99.66929,30.770824],[-99.669308,30.758489],[-99.667335,30.758589],[-99.66771,30.710609],[-99.771199,30.710793],[-99.770456,30.779609],[-99.769893,30.781615],[-99.767029,30.785107],[-99.766284,30.787157],[-99.764991,30.849833],[-99.763818,30.878055],[-99.763346,30.880482],[-99.763366,30.880703],[-99.77542,30.88989],[-99.783481,30.899723],[-99.783546,30.909603],[-99.782947,30.909614],[-99.782972,30.909994],[-99.782266,30.909824],[-99.781386,30.911864],[-99.782855,30.912214],[-99.782216,30.914281],[-99.783437,30.914557],[-99.783854,30.915209],[-99.783105,30.915591],[-99.781297,30.91516],[-99.781371,30.91295],[-99.779525,30.912671],[-99.779509,30.916924],[-99.777768,30.91772],[-99.775975,30.918027],[-99.765598,30.918427],[-99.764156,30.918104],[-99.760414,30.916711],[-99.759365,30.916551],[-99.748702,30.916281],[-99.744294,30.916459],[-99.729903,30.916385],[-99.728831,30.916116],[-99.720609,30.912564],[-99.716947,30.911922],[-99.714993,30.912058],[-99.712469,30.912446],[-99.712467,30.933947],[-99.660026,30.933898]]]}},{"type":"Feature","properties":{"PRECINCT":"5","VTD":"0005"},"geometry":{"type":"Polygon","coordinates":[[[-99.572699,30.78994],[-99.546041,30.789782],[-99.546025,30.780962],[-99.50455,30.780787],[-99.502613,30.780597],[-99.484141,30.780451],[-99.483808,30.740877],[-99.483869,30.710771],[-99.617912,30.711019],[-99.625342,30.710544],[-99.66771,30.710609],[-99.667335,30.758589],[-99.669308,30.758489],[-99.66929,30.770824],[-99.666535,30.770569],[-99.665683,30.782673],[-99.660067,30.78249],[-99.660054,30.791363],[-99.572699,30.78994]]]}},{"type":"Feature","properties":{"PRECINCT":"6","VTD":"0006"},"geometry":{"type":"Polygon","coordinates":[[[-99.484746,30.933885],[-99.484684,30.875109],[-99.484141,30.780451],[-99.502613,30.780597],[-99.50455,30.780787],[-99.546025,30.780962],[-99.546041,30.789782],[-99.582884,30.790046],[-99.658195,30.791325],[-99.658202,30.799619],[-99.656664,30.870546],[-99.661946,30.870597],[-99.661381,30.881884],[-99.661352,30.887695],[-99.660791,30.888662],[-99.661243,30.890176],[-99.661189,30.891963],[-99.661003,30.892536],[-99.66069,30.892529],[-99.660766,30.906725],[-99.660026,30.933898],[-99.613451,30.93386],[-99.582551,30.934176],[-99.53994,30.933903],[-99.50943,30.933937],[-99.486775,30.933562],[-99.485688,30.933892],[-99.484746,30.933885]]]}}]}