{"type":"FeatureCollection","features":[{"type":"Feature","properties":{"PRECINCT":"101","VTD":"0101"},"geometry":{"type":"Polygon","coordinates":[[[-102.406424,36.055429],[-102.360199,36.055653],[-102.250462,36.055158],[-102.211678,36.055204],[-102.202965,36.054975],[-102.163015,36.055249],[-102.162686,35.98496],[-102.162889,35.808456],[-102.302117,35.80882],[-102.302309,35.808753],[-102.302155,35.80205],[-102.302408,35.801844],[-102.30238,35.799533],[-102.305386,35.798687],[-102.306567,35.797909],[-102.30755,35.797703],[-102.308505,35.797108],[-102.308561,35.796467],[-102.30932,35.796078],[-102.30946,35.794499],[-102.310949,35.794453],[-102.313983,35.794819],[-102.317016,35.794545],[-102.319965,35.794751],[-102.32151,35.794499],[-102.320274,35.794133],[-102.320498,35.779669],[-102.32033,35.778983],[-102.321464,35.779219],[-102.329652,35.779505],[-102.334994,35.779391],[-102.335751,35.779174],[-102.332227,35.773078],[-102.332518,35.773044],[-102.369918,35.773071],[-102.370127,35.773255],[-102.370056,35.777343],[-102.370262,35.777527],[-102.451507,35.778063],[-102.461814,35.775947],[-102.463358,35.777955],[-102.4639,35.778223],[-102.467298,35.777902],[-102.468618,35.777238],[-102.470892,35.776573],[-102.474206,35.775016],[-102.481622,35.772367],[-102.485804,35.772106],[-102.485721,35.773982],[-102.487887,35.780298],[-102.487917,35.782999],[-102.48817,35.78348],[-102.489069,35.783937],[-102.490614,35.785264],[-102.493565,35.787002],[-102.496544,35.789221],[-102.496601,35.790731],[-102.49528,35.790609],[-102.494439,35.791991],[-102.493527,35.792182],[-102.492426,35.792879],[-102.488831,35.792928],[-102.486094,35.791734],[-102.483821,35.790305],[-102.479061,35.789945],[-102.477615,35.790329],[-102.477274,35.790579],[-102.477498,35.803587],[-102.47722,35.804251],[-102.477981,35.804366],[-102.493326,35.802314],[-102.494783,35.802518],[-102.495429,35.802815],[-102.495851,35.803662],[-102.496807,35.804623],[-102.497399,35.80698],[-102.499537,35.810755],[-102.50206,35.813521],[-102.502452,35.814872],[-102.505092,35.816819],[-102.505822,35.818055],[-102.505821,35.818513],[-102.504556,35.820137],[-102.503793,35.82357],[-102.503679,35.825881],[-102.502074,35.829954],[-102.501003,35.833662],[-102.501814,35.834362],[-102.506044,35.839527],[-102.50595,35.842997],[-102.506286,35.844496],[-102.506265,35.845526],[-102.505939,35.846376],[-102.506071,35.846778],[-102.495935,35.847914],[-102.496384,35.8484],[-102.496074,35.849185],[-102.496214,35.849371],[-102.496552,35.849512],[-102.497591,35.849358],[-102.498067,35.849637],[-102.497448,35.850424],[-102.495957,35.850527],[-102.496658,35.851984],[-102.496178,35.852794],[-102.496178,35.853833],[-102.497328,35.854968],[-102.497244,35.855384],[-102.496088,35.856566],[-102.496284,35.858806],[-102.496113,35.861532],[-102.495156,35.862091],[-102.494057,35.863387],[-102.494533,35.865882],[-102.495298,35.867606],[-102.493971,35.878052],[-102.492038,35.886639],[-102.487395,35.890877],[-102.487057,35.891855],[-102.424502,35.891893],[-102.424471,35.906129],[-102.409554,35.906129],[-102.459829,35.993456],[-102.459765,35.993915],[-102.459479,35.993421],[-102.406513,35.993185],[-102.406424,36.055429]]]}},{"type":"Feature","properties":{"PRECINCT":"201","VTD":"0201"},"geometry":{"type":"Polygon","coordinates":[[[-102.770151,35.862133],[-102.566593,35.862523],[-102.566498,35.850202],[-102.566173,35.849567],[-102.565661,35.849267],[-102.543124,35.849387],[-102.528347,35.848186],[-102.527866,35.845751],[-102.526908,35.843477],[-102.524147,35.839361],[-102.522457,35.835812],[-102.520464,35.827982],[-102.510794,35.804767],[-102.500477,35.79187],[-102.499158,35.791714],[-102.496601,35.790731],[-102.496544,35.789221],[-102.493565,35.787002],[-102.490614,35.785264],[-102.489069,35.783937],[-102.48817,35.78348],[-102.487917,35.782999],[-102.487887,35.780298],[-102.485721,35.773982],[-102.485804,35.772106],[-102.481622,35.772367],[-102.474206,35.775016],[-102.470892,35.776573],[-102.468618,35.777238],[-102.467298,35.777902],[-102.4639,35.778223],[-102.463358,35.777955],[-102.461814,35.775947],[-102.451507,35.778063],[-102.370262,35.777527],[-102.370056,35.777343],[-102.370127,35.773255],[-102.369918,35.773071],[-102.332518,35.773044],[-102.332227,35.773078],[-102.335751,35.779174],[-102.334994,35.779391],[-102.329652,35.779505],[-102.321464,35.779219],[-102.32033,35.778983],[-102.320498,35.779669],[-102.320274,35.794133],[-102.32151,35.794499],[-102.319965,35.794751],[-102.317016,35.794545],[-102.313983,35.794819],[-102.310949,35.794453],[-102.30946,35.794499],[-102.30932,35.796078],[-102.308561,35.796467],[-102.308505,35.797108],[-102.30755,35.797703],[-102.306567,35.797909],[-102.305386,35.798687],[-102.30238,35.799533],[-102.302408,35.801844],[-102.302155,35.80205],[-102.302309,35.808753],[-102.302117,35.80882],[-102.162889,35.808456],[-102.163058,35.750041],[-102.162809,35.627515],[-102.232086,35.62728],[-102.250471,35.626781],[-102.50048,35.625675],[-102.61393,35.624655],[-102.625483,35.624043],[-102.867923,35.623706],[-102.875491,35.623055],[-103.000495,35.622888],[-103.041706,35.622488],[-103.04166,35.65095],[-102.964996,35.706103],[-102.936,35.724639],[-102.930096,35.727658],[-102.923606,35.732546],[-102.898138,35.748687],[-102.890329,35.752656],[-102.887215,35.754629],[-102.875798,35.763748],[-102.847198,35.797156],[-102.839998,35.803452],[-102.792271,35.843557],[-102.784291,35.849],[-102.778749,35.854857],[-102.770151,35.862133]]]}},{"type":"Feature","properties":{"PRECINCT":"202","VTD":"0202"},"geometry":{"type":"Polygon","coordinates":[[[-102.539218,36.053104],[-102.538164,36.049891],[-102.537738,36.049127],[-102.537279,36.048831],[-102.536514,36.049105],[-102.533902,36.052263],[-102.533361,36.052235],[-102.532123,36.051158],[-102.53161,36.050422],[-102.531678,36.049939],[-102.534201,36.048105],[-102.534492,36.047391],[-102.533979,36.046819],[-102.532748,36.046819],[-102.531442,36.047379],[-102.530251,36.047511],[-102.526869,36.049262],[-102.526679,36.049602],[-102.526639,36.0493],[-102.525597,36.048954],[-102.523631,36.045201],[-102.520284,36.044299],[-102.517605,36.044441],[-102.51649,36.043694],[-102.51509,36.043484],[-102.516254,36.042134],[-102.516315,36.04176],[-102.515883,36.041293],[-102.514665,36.041168],[-102.513995,36.041886],[-102.513448,36.041144],[-102.512447,36.040852],[-102.510432,36.040681],[-102.50885,36.039505],[-102.507991,36.039719],[-102.508567,36.038582],[-102.50745,36.036523],[-102.506567,36.040783],[-102.505703,36.042258],[-102.505856,36.043072],[-102.505332,36.043068],[-102.505341,36.043341],[-102.507997,36.045451],[-102.509311,36.047013],[-102.509259,36.047989],[-102.508754,36.048632],[-102.509706,36.049157],[-102.509078,36.049899],[-102.509074,36.050917],[-102.507971,36.050917],[-102.508027,36.049654],[-102.506856,36.048908],[-102.506539,36.047462],[-102.502197,36.047458],[-102.502192,36.043096],[-102.502424,36.042942],[-102.500541,36.042508],[-102.495644,36.039958],[-102.493483,36.036995],[-102.491584,36.036502],[-102.48429,36.036454],[-102.459765,35.993915],[-102.459829,35.993456],[-102.409554,35.906129],[-102.424471,35.906129],[-102.424502,35.891893],[-102.486866,35.891917],[-102.487126,35.89177],[-102.487395,35.890877],[-102.491999,35.886706],[-102.493971,35.878052],[-102.495298,35.867606],[-102.494533,35.865882],[-102.494057,35.863387],[-102.495156,35.862091],[-102.496113,35.861532],[-102.496284,35.858806],[-102.496088,35.856566],[-102.497244,35.855384],[-102.497328,35.854968],[-102.496178,35.853833],[-102.496178,35.852794],[-102.496658,35.851984],[-102.495957,35.850527],[-102.497448,35.850424],[-102.498067,35.849637],[-102.497591,35.849358],[-102.496552,35.849512],[-102.496214,35.849371],[-102.496074,35.849185],[-102.496384,35.8484],[-102.495935,35.847914],[-102.506071,35.846778],[-102.505939,35.846376],[-102.506265,35.845526],[-102.506286,35.844496],[-102.50595,35.842997],[-102.506044,35.839527],[-102.501814,35.834362],[-102.501003,35.833662],[-102.502074,35.829954],[-102.503679,35.825881],[-102.503793,35.82357],[-102.504556,35.820137],[-102.505821,35.818513],[-102.505822,35.818055],[-102.505092,35.816819],[-102.502452,35.814872],[-102.50206,35.813521],[-102.499537,35.810755],[-102.497399,35.80698],[-102.496807,35.804623],[-102.495851,35.803662],[-102.495429,35.802815],[-102.494783,35.802518],[-102.493326,35.802314],[-102.477276,35.804366],[-102.477498,35.803587],[-102.477274,35.790579],[-102.479061,35.789945],[-102.483821,35.790305],[-102.486094,35.791734],[-102.488831,35.792928],[-102.49284,35.792738],[-102.493527,35.792182],[-102.494439,35.791991],[-102.49528,35.790609],[-102.496601,35.790731],[-102.499158,35.791714],[-102.500477,35.79187],[-102.510794,35.804767],[-102.520464,35.827982],[-102.522457,35.835812],[-102.524147,35.839361],[-102.526908,35.843477],[-102.527866,35.845751],[-102.528347,35.848186],[-102.543124,35.849387],[-102.565661,35.849267],[-102.566173,35.849567],[-102.566498,35.850202],[-102.566593,35.862523],[-102.770151,35.862133],[-102.649488,35.963325],[-102.643011,35.968154],[-102.638977,35.972132],[-102.542045,36.053311],[-102.541458,36.052686],[-102.540131,36.053571],[-102.539617,36.053478],[-102.539218,36.053104]]]}},{"type":"Feature","properties":{"PRECINCT":"301","VTD":"0301"},"geometry":{"type":"Polygon","coordinates":[[[-102.512588,36.054596],[-102.512589,36.053478],[-102.510838,36.053451],[-102.510815,36.050919],[-102.509074,36.050917],[-102.509078,36.049899],[-102.509706,36.049157],[-102.508754,36.048632],[-102.509322,36.047777],[-102.509199,36.046728],[-102.507668,36.045153],[-102.505463,36.043529],[-102.505332,36.043068],[-102.50932,36.043034],[-102.510387,36.043305],[-102.511001,36.043836],[-102.513393,36.047314],[-102.521959,36.047232],[-102.521964,36.048899],[-102.524317,36.049022],[-102.52436,36.050761],[-102.524868,36.050769],[-102.524944,36.052348],[-102.527076,36.052362],[-102.527017,36.052895],[-102.526575,36.053338],[-102.516922,36.053408],[-102.516928,36.054463],[-102.512588,36.054596]]]}},{"type":"Feature","properties":{"PRECINCT":"401","VTD":"0401"},"geometry":{"type":"Polygon","coordinates":[[[-102.750478,36.055146],[-102.727568,36.055434],[-102.726191,36.055166],[-102.625604,36.05531],[-102.539755,36.055107],[-102.495707,36.055271],[-102.495679,36.050907],[-102.510815,36.050919],[-102.510838,36.053451],[-102.512589,36.053478],[-102.512588,36.054596],[-102.516928,36.054463],[-102.516922,36.053408],[-102.526575,36.053338],[-102.526939,36.053025],[-102.527076,36.052362],[-102.524944,36.052348],[-102.524868,36.050769],[-102.52436,36.050761],[-102.524317,36.049022],[-102.521964,36.048899],[-102.521959,36.047232],[-102.513393,36.047314],[-102.511001,36.043836],[-102.510387,36.043305],[-102.50932,36.043034],[-102.505856,36.043072],[-102.505703,36.042258],[-102.506567,36.040783],[-102.50745,36.036523],[-102.508567,36.038582],[-102.507991,36.039719],[-102.50885,36.039505],[-102.510432,36.040681],[-102.512447,36.040852],[-102.513448,36.041144],[-102.513995,36.041886],[-102.514665,36.041168],[-102.515883,36.041293],[-102.516315,36.04176],[-102.516254,36.042134],[-102.51509,36.043484],[-102.51649,36.043694],[-102.517605,36.044441],[-102.520284,36.044299],[-102.523631,36.045201],[-102.525597,36.048954],[-102.526639,36.0493],[-102.526679,36.049602],[-102.526869,36.049262],[-102.530251,36.047511],[-102.531442,36.047379],[-102.532748,36.046819],[-102.53385,36.046781],[-102.534445,36.047264],[-102.534357,36.047874],[-102.533559,36.048665],[-102.531867,36.049664],[-102.53161,36.050109],[-102.532123,36.051158],[-102.533361,36.052235],[-102.53397,36.052213],[-102.536514,36.049105],[-102.537279,36.048831],[-102.537738,36.049127],[-102.538164,36.049891],[-102.538874,36.05244],[-102.539333,36.053264],[-102.539874,36.053555],[-102.540361,36.053511],[-102.541458,36.052686],[-102.542045,36.053311],[-102.638977,35.972132],[-102.643011,35.968154],[-102.649488,35.963325],[-102.777894,35.855642],[-102.784291,35.849],[-102.792271,35.843557],[-102.845325,35.798964],[-102.847198,35.797156],[-102.876781,35.762808],[-102.88853,35.753692],[-102.898138,35.748687],[-102.923606,35.732546],[-102.930096,35.727658],[-102.936,35.724639],[-102.964996,35.706103],[-103.04166,35.65095],[-103.041316,35.821575],[-103.040895,35.896101],[-103.041229,36.047738],[-103.041062,36.055226],[-103.000487,36.055051],[-102.750478,36.055146]]]}},{"type":"Feature","properties":{"PRECINCT":"102","VTD":"0102"},"geometry":{"type":"Polygon","coordinates":[[[-102.495707,36.055271],[-102.477834,36.055291],[-102.470973,36.055496],[-102.406424,36.055429],[-102.406513,35.993185],[-102.459479,35.993421],[-102.48429,36.036454],[-102.491584,36.036502],[-102.493483,36.036995],[-102.495644,36.039958],[-102.500541,36.042508],[-102.502424,36.042942],[-102.502192,36.043096],[-102.502197,36.047458],[-102.50642,36.047396],[-102.506856,36.048908],[-102.508027,36.049654],[-102.507971,36.050917],[-102.495679,36.050907],[-102.495707,36.055271]]]}}]}